{"type":"FeatureCollection","features":[{"type":"Feature","properties":{"id":"3302013002001","commune":"Alto Del Carmen","code":"03302","gse":"E","quintil":"Q1","nse_score":552.6,"educ":10.5,"educ_score":500.0,"hacin":1.714,"hacin_class":"Hacinamiento Medio","hacin_score":699.1,"auto_score":0.0,"n_per":24,"n_hog":9,"source_year":2024},"geometry":{"type":"Polygon","coordinates":[[[-70.4846778309999,-28.7545821562036],[-70.4852993,-28.7544451072036],[-70.4863753429999,-28.7539373702037],[-70.4861776779999,-28.7534492302036],[-70.4847807779999,-28.7540679322036],[-70.4848373429999,-28.7543616892036],[-70.4846306929999,-28.7544895322036],[-70.4846778309999,-28.7545821562036]]]}},{"type":"Feature","properties":{"id":"3302013002002","commune":"Alto Del Carmen","code":"03302","gse":"C3","quintil":"Q2","nse_score":647.6,"educ":11.8,"educ_score":586.7,"hacin":1.316,"hacin_class":"Hacinamiento Leve","hacin_score":783.9,"auto_score":111.1,"n_per":25,"n_hog":8,"source_year":2024},"geometry":{"type":"Polygon","coordinates":[[[-70.4864323829999,-28.7552116492036],[-70.4861882279999,-28.7550692752036],[-70.4860457569999,-28.7540923502036],[-70.4857861379999,-28.7542836332036],[-70.4857419879999,-28.7546196192036],[-70.4859133099999,-28.7546059372036],[-70.4859484069999,-28.7543572832036],[-70.4859228269999,-28.7546172402036],[-70.4857390139999,-28.7546315162036],[-70.4857176089999,-28.7547671392036],[-70.4858113889999,-28.7554998712036],[-70.486092761,-28.7554421692036],[-70.4858128509999,-28.7555070902036],[-70.4858384859999,-28.7558421802036],[-70.4862520369999,-28.7556170832036],[-70.4864323829999,-28.7552116492036]]]}},{"type":"Feature","properties":{"id":"3302013002005","commune":"Alto Del Carmen","code":"03302","gse":"E","quintil":"Q1","nse_score":526.9,"educ":9.7,"educ_score":446.7,"hacin":1.286,"hacin_class":"Hacinamiento Leve","hacin_score":790.3,"auto_score":111.1,"n_per":18,"n_hog":8,"source_year":2024},"geometry":{"type":"Polygon","coordinates":[[[-70.4875596359999,-28.7569947712036],[-70.487942255,-28.7573986982036],[-70.4881615859999,-28.7571515402036],[-70.4878109299999,-28.7568164192036],[-70.4876649869999,-28.7560413732036],[-70.4881689559999,-28.7553012042036],[-70.487991673,-28.7551884532036],[-70.4873874189999,-28.7558042422036],[-70.4875902119999,-28.7563615322036],[-70.4875596359999,-28.7569947712036]]]}},{"type":"Feature","properties":{"id":"3302013002007","commune":"Alto Del Carmen","code":"03302","gse":"C3","quintil":"Q3","nse_score":688.4,"educ":12.9,"educ_score":660.0,"hacin":1.29,"hacin_class":"Hacinamiento Leve","hacin_score":789.5,"auto_score":125.0,"n_per":49,"n_hog":15,"source_year":2024},"geometry":{"type":"Polygon","coordinates":[[[-70.4858652529999,-28.7559104442036],[-70.4860870189999,-28.7567023292036],[-70.48651437,-28.7566699692036],[-70.4873500369999,-28.7572277152036],[-70.4875527669999,-28.7572362812036],[-70.4875023229999,-28.7569907202036],[-70.4866828359999,-28.7563273272036],[-70.4864896239999,-28.7559113972036],[-70.4862849899999,-28.7560256112036],[-70.4863944449999,-28.7564063242036],[-70.4863125909999,-28.7563187612036],[-70.4862412079999,-28.7560151412036],[-70.4864943819999,-28.7558733252036],[-70.4865267429999,-28.7553260492036],[-70.4864144319999,-28.7553327112036],[-70.4862002809999,-28.7557267502036],[-70.4858652529999,-28.7559104442036]]]}},{"type":"Feature","properties":{"id":"3302013002008","commune":"Alto Del Carmen","code":"03302","gse":"D","quintil":"Q2","nse_score":622.3,"educ":10.9,"educ_score":526.7,"hacin":1.684,"hacin_class":"Hacinamiento Medio","hacin_score":705.5,"auto_score":277.8,"n_per":32,"n_hog":9,"source_year":2024},"geometry":{"type":"Polygon","coordinates":[[[-70.4866791719999,-28.7555920932036],[-70.4865362609999,-28.7558669012036],[-70.4872082209999,-28.7562228682036],[-70.4872405809999,-28.7559354292036],[-70.4866791719999,-28.7555920932036]]]}},{"type":"Feature","properties":{"id":"3302013002009","commune":"Alto Del Carmen","code":"03302","gse":"C3","quintil":"Q2","nse_score":654.8,"educ":11.3,"educ_score":553.3,"hacin":1.2,"hacin_class":"Hacinamiento Leve","hacin_score":808.5,"auto_score":227.3,"n_per":30,"n_hog":12,"source_year":2024},"geometry":{"type":"Polygon","coordinates":[[[-70.4871190729999,-28.7558234112036],[-70.4872984419999,-28.7559306502036],[-70.4872467599999,-28.7562404562036],[-70.4873676369999,-28.7563489592036],[-70.4872361719999,-28.7563001812036],[-70.4871786679999,-28.7566633262036],[-70.4875171659999,-28.7569549222036],[-70.4874061169999,-28.7559795482036],[-70.4873080759999,-28.7557906672036],[-70.4871190729999,-28.7558234112036]]]}},{"type":"Feature","properties":{"id":"3302013002010","commune":"Alto Del Carmen","code":"03302","gse":"D","quintil":"Q2","nse_score":635.2,"educ":11.9,"educ_score":593.3,"hacin":1.273,"hacin_class":"Hacinamiento Leve","hacin_score":793.0,"auto_score":150.0,"n_per":28,"n_hog":9,"source_year":2024},"geometry":{"type":"Polygon","coordinates":[[[-70.4871120909999,-28.7566092922036],[-70.4871596799999,-28.7562676022036],[-70.4865334049999,-28.7559202012036],[-70.4867342319999,-28.7563199502036],[-70.4871120909999,-28.7566092922036]]]}},{"type":"Feature","properties":{"id":"3302013002013","commune":"Alto Del Carmen","code":"03302","gse":"E","quintil":"Q1","nse_score":572.5,"educ":9.6,"educ_score":440.0,"hacin":1.0,"hacin_class":"Hacinamiento Leve","hacin_score":851.1,"auto_score":58.8,"n_per":40,"n_hog":17,"source_year":2024},"geometry":{"type":"Polygon","coordinates":[[[-70.4834955759999,-28.7590018412035],[-70.4869518579999,-28.7610955722035],[-70.4875567949999,-28.7613595792035],[-70.4875587339999,-28.7610846982035],[-70.487381464,-28.7608181982035],[-70.4871686669999,-28.7611619282035],[-70.4872964439999,-28.7607764562035],[-70.4856453219999,-28.7598021032035],[-70.4854550669999,-28.7600047762035],[-70.4856144829999,-28.7597852112035],[-70.4849805879999,-28.7593929012035],[-70.4855576069999,-28.7587563952035],[-70.4852530359999,-28.7580604032036],[-70.4843095799999,-28.7577701092035],[-70.4840145269999,-28.7574357952036],[-70.4836873509999,-28.7574631582036],[-70.4832832689999,-28.7581004242036],[-70.4834955759999,-28.7590018412035]]]}},{"type":"Feature","properties":{"id":"3302013002015","commune":"Alto Del Carmen","code":"03302","gse":"D","quintil":"Q2","nse_score":627.9,"educ":12.2,"educ_score":613.3,"hacin":1.586,"hacin_class":"Hacinamiento Medio","hacin_score":726.3,"auto_score":29.4,"n_per":46,"n_hog":15,"source_year":2024},"geometry":{"type":"Polygon","coordinates":[[[-70.4878130509999,-28.7587685072036],[-70.4874704079999,-28.7586019452036],[-70.4873364709999,-28.7587908592035],[-70.4876058239999,-28.7589579772036],[-70.4873300469999,-28.7588015672035],[-70.486680427,-28.7596512872035],[-70.487354148,-28.7600406892035],[-70.4875461349999,-28.7597666552035],[-70.4873036679999,-28.7596084212035],[-70.4875815889999,-28.7597568992036],[-70.4873760039999,-28.7600519522035],[-70.4876135969999,-28.7603211972035],[-70.4887592269999,-28.7588309282036],[-70.4881961439999,-28.7589778992036],[-70.4881794879999,-28.7581736422035],[-70.4878368449999,-28.7581831592036],[-70.4878130509999,-28.7587685072036]]]}},{"type":"Feature","properties":{"id":"3302013002016","commune":"Alto Del Carmen","code":"03302","gse":"C3","quintil":"Q2","nse_score":656.2,"educ":11.9,"educ_score":593.3,"hacin":1.222,"hacin_class":"Hacinamiento Leve","hacin_score":803.8,"auto_score":55.6,"n_per":22,"n_hog":8,"source_year":2024},"geometry":{"type":"Polygon","coordinates":[[[-70.4882591999999,-28.7589212682035],[-70.488685599,-28.7587708862035],[-70.4886932129999,-28.7581922012035],[-70.4882439709999,-28.7581864912036],[-70.4882591999999,-28.7589212682035]]]}},{"type":"Feature","properties":{"id":"3302013002018","commune":"Alto Del Carmen","code":"03302","gse":"ABC1","quintil":"Q5","nse_score":801.9,"educ":16.4,"educ_score":893.3,"hacin":1.429,"hacin_class":"Hacinamiento Leve","hacin_score":759.9,"auto_score":83.3,"n_per":10,"n_hog":6,"source_year":2024},"geometry":{"type":"Polygon","coordinates":[[[-70.4863672899999,-28.7583066542036],[-70.4871453739999,-28.7589134162035],[-70.4874066389999,-28.7585850502036],[-70.486886964,-28.7582010052035],[-70.4863672899999,-28.7583066542036]]]}},{"type":"Feature","properties":{"id":"3302013002019","commune":"Alto Del Carmen","code":"03302","gse":"C3","quintil":"Q3","nse_score":679.3,"educ":11.6,"educ_score":573.3,"hacin":1.083,"hacin_class":"Hacinamiento Leve","hacin_score":833.3,"auto_score":187.5,"n_per":26,"n_hog":8,"source_year":2024},"geometry":{"type":"Polygon","coordinates":[[[-70.488736995,-28.7587670792035],[-70.4891481659999,-28.7586585762036],[-70.4891652979999,-28.7582588262035],[-70.4887769699999,-28.7582017192036],[-70.488736995,-28.7587670792035]]]}},{"type":"Feature","properties":{"id":"3302013002020","commune":"Alto Del Carmen","code":"03302","gse":"D","quintil":"Q1","nse_score":618.3,"educ":10.2,"educ_score":480.0,"hacin":1.454,"hacin_class":"Hacinamiento Leve","hacin_score":754.4,"auto_score":300.0,"n_per":16,"n_hog":5,"source_year":2024},"geometry":{"type":"Polygon","coordinates":[[[-70.489224309,-28.7586395402035],[-70.4899057869999,-28.7584777372036],[-70.4899552789999,-28.7583939802036],[-70.4892376339999,-28.7582702482035],[-70.489224309,-28.7586395402035]]]}},{"type":"Feature","properties":{"id":"3302013002021","commune":"Alto Del Carmen","code":"03302","gse":"D","quintil":"Q1","nse_score":602.7,"educ":10.4,"educ_score":493.3,"hacin":1.097,"hacin_class":"Hacinamiento Leve","hacin_score":830.5,"auto_score":31.2,"n_per":34,"n_hog":14,"source_year":2024},"geometry":{"type":"Polygon","coordinates":[[[-70.4866632949999,-28.7586021832035],[-70.4862878159999,-28.7583252132035],[-70.4860094189999,-28.7583837482035],[-70.4856567829999,-28.7587306732035],[-70.4861164949999,-28.7591789642035],[-70.4863820679999,-28.7589226202036],[-70.4861326319999,-28.7587160282035],[-70.4863918149999,-28.7589121672036],[-70.4866632949999,-28.7586021832035]]]}},{"type":"Feature","properties":{"id":"3302013002022","commune":"Alto Del Carmen","code":"03302","gse":"D","quintil":"Q2","nse_score":640.6,"educ":11.1,"educ_score":540.0,"hacin":1.0,"hacin_class":"Hacinamiento Leve","hacin_score":851.1,"auto_score":38.5,"n_per":31,"n_hog":12,"source_year":2024},"geometry":{"type":"Polygon","coordinates":[[[-70.487103971,-28.7589562462036],[-70.486732775,-28.7586564342035],[-70.4861759809999,-28.7592303602035],[-70.4866057119999,-28.7596072672035],[-70.487103971,-28.7589562462036]]]}},{"type":"Feature","properties":{"id":"3302013002023","commune":"Alto Del Carmen","code":"03302","gse":"E","quintil":"Q1","nse_score":561.4,"educ":10.2,"educ_score":480.0,"hacin":1.04,"hacin_class":"Hacinamiento Leve","hacin_score":842.6,"auto_score":83.3,"n_per":26,"n_hog":10,"source_year":2024},"geometry":{"type":"Polygon","coordinates":[[[-70.486074545,-28.7592576292035],[-70.4855948459999,-28.7588083872035],[-70.4850713639999,-28.7593775542036],[-70.4856614709999,-28.7597373282035],[-70.486074545,-28.7592576292035]]]}},{"type":"Feature","properties":{"id":"3302013002025","commune":"Alto Del Carmen","code":"03302","gse":"D","quintil":"Q2","nse_score":633.9,"educ":10.0,"educ_score":466.7,"hacin":0.886,"hacin_class":"Sin Hacinamiento","hacin_score":875.4,"auto_score":0.0,"n_per":31,"n_hog":14,"source_year":2024},"geometry":{"type":"MultiPolygon","coordinates":[[[[-70.4866587029999,-28.7603291002035],[-70.4873225719999,-28.7607259942035],[-70.4875581389999,-28.7606074972035],[-70.487445352,-28.7601734832035],[-70.4872959389999,-28.7603701622035],[-70.4874310929999,-28.7601656132035],[-70.4869228229999,-28.7598850932035],[-70.4866587029999,-28.7603291002035]]],[[[-70.4865133179999,-28.7602460572035],[-70.4868369239999,-28.7598403592035],[-70.486533543,-28.7596440532035],[-70.4862325409999,-28.7600735462035],[-70.4865133179999,-28.7602460572035]]]]}},{"type":"Feature","properties":{"id":"3302013002003","commune":"Alto Del Carmen","code":"03302","gse":"D","quintil":"Q2","nse_score":620.1,"educ":9.5,"educ_score":433.3,"hacin":1.133,"hacin_class":"Hacinamiento Leve","hacin_score":822.7,"auto_score":0.0,"n_per":17,"n_hog":8,"source_year":2024},"geometry":{"type":"MultiPolygon","coordinates":[[[[-70.4853074589999,-28.7566154002036],[-70.4843622769999,-28.7568239722036],[-70.48409197,-28.7572827322036],[-70.4843470479999,-28.7576919992036],[-70.4854187579999,-28.7580860382036],[-70.4856300539999,-28.7586609162035],[-70.4860687969999,-28.7582978322035],[-70.4857831479999,-28.7580938312036],[-70.4860963659999,-28.7582912552036],[-70.4874022759999,-28.7580403522036],[-70.4881417489999,-28.7580381722036],[-70.4878219489999,-28.7577983222035],[-70.4875585859999,-28.7572662612036],[-70.4872387859999,-28.7572905322036],[-70.4868053639999,-28.7578749212036],[-70.4865702729999,-28.7580443392035],[-70.4871520179999,-28.7573178162036],[-70.487320484,-28.7572435772036],[-70.4865095629999,-28.7567077232036],[-70.4860374779999,-28.7567105782036],[-70.48607555,-28.7565097522036],[-70.48583056,-28.7559323032036],[-70.4856006089999,-28.7564107662036],[-70.4853074589999,-28.7566154002036]]],[[[-70.4856939319999,-28.7544629392036],[-70.4845672569999,-28.7546566012036],[-70.4845384939999,-28.7548336692036],[-70.4851787769999,-28.7554315042036],[-70.4852437189999,-28.7565721162036],[-70.4854964369999,-28.7564343232036],[-70.4856629989999,-28.7560321942036],[-70.4856939319999,-28.7544629392036]]]]}},{"type":"Feature","properties":{"id":"3302033094001","commune":"Alto Del Carmen","code":"03302","gse":"C3","quintil":"Q3","nse_score":670.2,"educ":10.9,"educ_score":526.7,"hacin":0.933,"hacin_class":"Sin Hacinamiento","hacin_score":865.2,"auto_score":0.0,"n_per":14,"n_hog":6,"source_year":2024},"geometry":{"type":"Polygon","coordinates":[[[-70.2833742209999,-28.8668986872017],[-70.2837257569999,-28.8669303772017],[-70.2839125409999,-28.8657496732016],[-70.2835841749999,-28.8656687712017],[-70.2833742209999,-28.8668986872017]]]}},{"type":"Feature","properties":{"id":"3302033094004","commune":"Alto Del Carmen","code":"03302","gse":"D","quintil":"Q2","nse_score":629.6,"educ":11.7,"educ_score":580.0,"hacin":1.905,"hacin_class":"Hacinamiento Medio","hacin_score":658.6,"auto_score":62.5,"n_per":40,"n_hog":10,"source_year":2024},"geometry":{"type":"Polygon","coordinates":[[[-70.2831646479999,-28.8681902582016],[-70.2834842379999,-28.8682266922016],[-70.2837193629999,-28.8669659992016],[-70.2833689709999,-28.8669344122016],[-70.2831646479999,-28.8681902582016]]]}},{"type":"Feature","properties":{"id":"3302033094005","commune":"Alto Del Carmen","code":"03302","gse":"D","quintil":"Q2","nse_score":641.7,"educ":10.8,"educ_score":520.0,"hacin":1.077,"hacin_class":"Hacinamiento Leve","hacin_score":834.7,"auto_score":0.0,"n_per":14,"n_hog":6,"source_year":2024},"geometry":{"type":"Polygon","coordinates":[[[-70.2836122109999,-28.8682611152016],[-70.2841476319999,-28.8683006932016],[-70.2843351449999,-28.8670197642017],[-70.2837776869999,-28.8669711972016],[-70.2836122109999,-28.8682611152016]]]}},{"type":"Feature","properties":{"id":"3302033094007","commune":"Alto Del Carmen","code":"03302","gse":"E","quintil":"Q1","nse_score":541.2,"educ":9.1,"educ_score":406.7,"hacin":0.636,"hacin_class":"Sin Hacinamiento","hacin_score":928.4,"auto_score":0.0,"n_per":7,"n_hog":4,"source_year":2024},"geometry":{"type":"Polygon","coordinates":[[[-70.2817960319999,-28.8672168092016],[-70.2815045479999,-28.8684422312016],[-70.2811337379999,-28.8682302382016],[-70.280956908,-28.8688782982016],[-70.2808672099999,-28.8688489992016],[-70.2805099949999,-28.8694628082016],[-70.2822099199999,-28.8704519532016],[-70.2828071639999,-28.8703900872016],[-70.2827976469999,-28.8699903382016],[-70.281579759,-28.8693784992016],[-70.2813107439999,-28.8691099052016],[-70.2814138289999,-28.8691527382016],[-70.2814340549999,-28.8684805412016],[-70.2814664149999,-28.8692029452016],[-70.282814975,-28.8699278482016],[-70.2830802559999,-28.8681255682016],[-70.2817960319999,-28.8672168092016]]]}},{"type":"Feature","properties":{"id":"3302033094008","commune":"Alto Del Carmen","code":"03302","gse":"C3","quintil":"Q3","nse_score":678.0,"educ":11.4,"educ_score":560.0,"hacin":1.333,"hacin_class":"Hacinamiento Leve","hacin_score":780.1,"auto_score":200.0,"n_per":16,"n_hog":6,"source_year":2024},"geometry":{"type":"Polygon","coordinates":[[[-70.2830078559999,-28.8690272932016],[-70.2833639479999,-28.8690327242016],[-70.2834638859999,-28.8683060362016],[-70.2831298089999,-28.8682760552016],[-70.2830078559999,-28.8690272932016]]]}},{"type":"Feature","properties":{"id":"3302033094009","commune":"Alto Del Carmen","code":"03302","gse":"D","quintil":"Q1","nse_score":599.4,"educ":10.0,"educ_score":466.7,"hacin":1.444,"hacin_class":"Hacinamiento Leve","hacin_score":756.5,"auto_score":178.6,"n_per":52,"n_hog":15,"source_year":2024},"geometry":{"type":"Polygon","coordinates":[[[-70.2837412119999,-28.8709449782016],[-70.2841366779999,-28.8683780152016],[-70.2835613249999,-28.8683137702016],[-70.2833671609999,-28.8693602572016],[-70.2833486009999,-28.8709135692016],[-70.2837412119999,-28.8709449782016]]]}},{"type":"Feature","properties":{"id":"3302033094010","commune":"Alto Del Carmen","code":"03302","gse":"D","quintil":"Q2","nse_score":630.7,"educ":10.9,"educ_score":526.7,"hacin":0.926,"hacin_class":"Sin Hacinamiento","hacin_score":866.8,"auto_score":50.0,"n_per":25,"n_hog":10,"source_year":2024},"geometry":{"type":"Polygon","coordinates":[[[-70.2829496839999,-28.8709293922016],[-70.2832904229999,-28.8708970322016],[-70.2833425329999,-28.8690884022016],[-70.2829741929999,-28.8690884022016],[-70.2829496839999,-28.8709293922016]]]}},{"type":"Feature","properties":{"id":"3302033094011","commune":"Alto Del Carmen","code":"03302","gse":"D","quintil":"Q1","nse_score":594.8,"educ":9.4,"educ_score":426.7,"hacin":1.042,"hacin_class":"Hacinamiento Leve","hacin_score":842.2,"auto_score":0.0,"n_per":25,"n_hog":7,"source_year":2024},"geometry":{"type":"Polygon","coordinates":[[[-70.2801487389999,-28.8699334022016],[-70.2812793519999,-28.8705541912016],[-70.2818466159999,-28.8710243722016],[-70.2828631209999,-28.8714184112015],[-70.2828516999999,-28.8711975972016],[-70.2821873539999,-28.8705161192016],[-70.2804217749999,-28.8694638532016],[-70.2801487389999,-28.8699334022016]]]}},{"type":"Feature","properties":{"id":"3302033094012","commune":"Alto Del Carmen","code":"03302","gse":"E","quintil":"Q1","nse_score":559.5,"educ":8.6,"educ_score":373.3,"hacin":1.316,"hacin_class":"Hacinamiento Leve","hacin_score":783.9,"auto_score":62.5,"n_per":25,"n_hog":9,"source_year":2024},"geometry":{"type":"Polygon","coordinates":[[[-70.2828269539999,-28.8704913732016],[-70.2822634969999,-28.8705046982016],[-70.2828402789999,-28.8711195512016],[-70.2828269539999,-28.8704913732016]]]}},{"type":"Feature","properties":{"id":"3302033094013","commune":"Alto Del Carmen","code":"03302","gse":"D","quintil":"Q1","nse_score":605.1,"educ":9.5,"educ_score":433.3,"hacin":1.368,"hacin_class":"Hacinamiento Leve","hacin_score":772.7,"auto_score":0.0,"n_per":26,"n_hog":7,"source_year":2024},"geometry":{"type":"Polygon","coordinates":[[[-70.2809907059999,-28.8714712942016],[-70.2818049749999,-28.8721980412015],[-70.2828923889999,-28.8720172022016],[-70.2828614559999,-28.8714651682015],[-70.2818834969999,-28.8711082482015],[-70.2813989299999,-28.8707973672016],[-70.2809907059999,-28.8714712942016]]]}},{"type":"Feature","properties":{"id":"3302033094014","commune":"Alto Del Carmen","code":"03302","gse":"D","quintil":"Q1","nse_score":600.5,"educ":10.1,"educ_score":473.3,"hacin":1.692,"hacin_class":"Hacinamiento Medio","hacin_score":703.8,"auto_score":250.0,"n_per":22,"n_hog":6,"source_year":2024},"geometry":{"type":"Polygon","coordinates":[[[-70.2832888569999,-28.8709754352016],[-70.282914091,-28.8710063682016],[-70.2829926139999,-28.8717892102015],[-70.2833055129999,-28.8717618472016],[-70.2832888569999,-28.8709754352016]]]}},{"type":"Feature","properties":{"id":"3302033094016","commune":"Alto Del Carmen","code":"03302","gse":"D","quintil":"Q1","nse_score":607.8,"educ":10.0,"educ_score":466.7,"hacin":1.037,"hacin_class":"Hacinamiento Leve","hacin_score":843.2,"auto_score":68.2,"n_per":56,"n_hog":23,"source_year":2024},"geometry":{"type":"Polygon","coordinates":[[[-70.2837644609999,-28.8718351742016],[-70.2829643669999,-28.8718827632015],[-70.2829682939999,-28.8740120242015],[-70.2818681939999,-28.8767625762014],[-70.2828554369999,-28.8769358882015],[-70.2818579629999,-28.8768367362014],[-70.2818174169999,-28.8776726412014],[-70.282450234,-28.8777646932015],[-70.2822253989999,-28.8777594302015],[-70.2821243669999,-28.8781747072014],[-70.2821921819999,-28.8777523532015],[-70.2818186059999,-28.8777095232015],[-70.2819009479999,-28.8785572262014],[-70.282431717,-28.8785831522014],[-70.2828389069999,-28.8772915132014],[-70.2838743059999,-28.8732039812016],[-70.2841821789999,-28.8712989512016],[-70.2837644609999,-28.8718351742016]]]}},{"type":"Feature","properties":{"id":"3302033094017","commune":"Alto Del Carmen","code":"03302","gse":"C3","quintil":"Q2","nse_score":665.5,"educ":9.8,"educ_score":453.3,"hacin":0.809,"hacin_class":"Sin Hacinamiento","hacin_score":891.6,"auto_score":0.0,"n_per":17,"n_hog":6,"source_year":2024},"geometry":{"type":"Polygon","coordinates":[[[-70.2821027889999,-28.8738403832015],[-70.2827084259999,-28.8744645762015],[-70.2829440229999,-28.8736479662015],[-70.2828702599999,-28.8721036962016],[-70.2821808549999,-28.8721881512015],[-70.2826928459999,-28.8732659922015],[-70.2821027889999,-28.8738403832015]]]}},{"type":"Feature","properties":{"id":"3302033094018","commune":"Alto Del Carmen","code":"03302","gse":"E","quintil":"Q1","nse_score":537.3,"educ":8.4,"educ_score":360.0,"hacin":1.118,"hacin_class":"Hacinamiento Leve","hacin_score":826.0,"auto_score":45.5,"n_per":19,"n_hog":10,"source_year":2024},"geometry":{"type":"Polygon","coordinates":[[[-70.2804697509999,-28.8724303132015],[-70.2802717729999,-28.8734700772015],[-70.2811394409999,-28.8737135322015],[-70.280862554,-28.8741412012015],[-70.2823787209999,-28.8752658102015],[-70.2826935929999,-28.8745081642015],[-70.2820941249999,-28.8738757282015],[-70.2814445409999,-28.8744777502015],[-70.2815198459999,-28.8743809362015],[-70.2810472939999,-28.8739770722015],[-70.2814716899999,-28.8733518112015],[-70.2812205189999,-28.8731198022016],[-70.2806676409999,-28.8729679572016],[-70.2806036669999,-28.8733296752015],[-70.2811207679999,-28.8734728352015],[-70.2805711049999,-28.8733679512015],[-70.2806769519999,-28.8726159422015],[-70.2804697509999,-28.8724303132015]]]}},{"type":"Feature","properties":{"id":"3302033094022","commune":"Alto Del Carmen","code":"03302","gse":"D","quintil":"Q2","nse_score":620.6,"educ":10.9,"educ_score":526.7,"hacin":1.0,"hacin_class":"Hacinamiento Leve","hacin_score":851.1,"auto_score":136.4,"n_per":26,"n_hog":11,"source_year":2024},"geometry":{"type":"Polygon","coordinates":[[[-70.2789531709999,-28.8739499102015],[-70.2787675729999,-28.8746875432015],[-70.2785242249999,-28.8746411912015],[-70.2783359559999,-28.8750063822015],[-70.2780789739999,-28.8765825362015],[-70.2792211149999,-28.8765768262015],[-70.2792511299999,-28.8750675142015],[-70.2793119629999,-28.8765764232015],[-70.2817885059999,-28.8766887342014],[-70.2819210789999,-28.8763391042015],[-70.2799715379999,-28.8761688182015],[-70.2801571779999,-28.8754965602015],[-70.2797145979999,-28.8754299352015],[-70.2800334459999,-28.8742068922015],[-70.2789531709999,-28.8739499102015]]]}},{"type":"Feature","properties":{"id":"3302033094023","commune":"Alto Del Carmen","code":"03302","gse":"D","quintil":"Q1","nse_score":598.8,"educ":10.0,"educ_score":466.7,"hacin":1.154,"hacin_class":"Hacinamiento Leve","hacin_score":818.3,"auto_score":0.0,"n_per":15,"n_hog":6,"source_year":2024},"geometry":{"type":"Polygon","coordinates":[[[-70.277456507,-28.8766053792015],[-70.2779952169999,-28.8765730192015],[-70.2781896719999,-28.8754610092015],[-70.2770562159999,-28.8752323782015],[-70.277456507,-28.8766053792015]]]}},{"type":"Feature","properties":{"id":"3302033094025","commune":"Alto Del Carmen","code":"03302","gse":"C3","quintil":"Q2","nse_score":651.3,"educ":12.7,"educ_score":646.7,"hacin":1.042,"hacin_class":"Hacinamiento Leve","hacin_score":842.2,"auto_score":200.0,"n_per":25,"n_hog":10,"source_year":2024},"geometry":{"type":"Polygon","coordinates":[[[-70.2801154359999,-28.8766584412015],[-70.2775960619999,-28.8766603452015],[-70.2775305169999,-28.8768109672014],[-70.2787985339999,-28.8767925952015],[-70.2790521609999,-28.8769938142015],[-70.2793719839999,-28.8770110302015],[-70.279465592,-28.8774429382014],[-70.280066787,-28.8774774042014],[-70.2807282769999,-28.8781055822014],[-70.28094576,-28.8785105662014],[-70.2818591049999,-28.8785010962014],[-70.2817829619999,-28.8768107272015],[-70.2808254669999,-28.8767222112015],[-70.2806484349999,-28.8772913782015],[-70.2801040139999,-28.8771628872015],[-70.2801154359999,-28.8766584412015]]]}},{"type":"Feature","properties":{"id":"3302033094020","commune":"Alto Del Carmen","code":"03302","gse":"C3","quintil":"Q3","nse_score":669.9,"educ":11.9,"educ_score":593.3,"hacin":0.833,"hacin_class":"Sin Hacinamiento","hacin_score":886.5,"auto_score":83.3,"n_per":10,"n_hog":6,"source_year":2024},"geometry":{"type":"MultiPolygon","coordinates":[[[[-70.2811127429999,-28.8739903392015],[-70.2815473609999,-28.8743541522015],[-70.2818184249999,-28.8740902862015],[-70.2813028529999,-28.8736684352015],[-70.2811127429999,-28.8739903392015]]],[[[-70.2813244769999,-28.8736368432015],[-70.2818459329999,-28.8740635092015],[-70.2820578109999,-28.8738572572015],[-70.2814984919999,-28.8733826032015],[-70.2813244769999,-28.8736368432015]]]]}},{"type":"Feature","properties":{"id":"3302033094002","commune":"Alto Del Carmen","code":"03302","gse":"E","quintil":"Q1","nse_score":482.1,"educ":8.8,"educ_score":386.7,"hacin":1.75,"hacin_class":"Hacinamiento Medio","hacin_score":691.5,"auto_score":0.0,"n_per":14,"n_hog":5,"source_year":2024},"geometry":{"type":"MultiPolygon","coordinates":[[[[-70.2837095059999,-28.8717711272015],[-70.2841889259999,-28.8712380942015],[-70.284288322,-28.8703415452016],[-70.2842232649999,-28.8696172452016],[-70.284386632,-28.8692038022016],[-70.2845994099999,-28.8670437602016],[-70.2843751079999,-28.8670345822016],[-70.2837095059999,-28.8717711272015]]],[[[-70.283784867,-28.8669356362016],[-70.2843394129999,-28.8669839502017],[-70.2845158649999,-28.8658883062016],[-70.2839719079999,-28.8657644702017],[-70.283784867,-28.8669356362016]]]]}}]}