{"type":"FeatureCollection","features":[{"type":"Feature","properties":{"id":"8314043002001","commune":"Alto Biobío","code":"08314","gse":"D","quintil":"Q2","nse_score":682.6,"educ":12.2,"educ_score":613.3,"hacin":1.233,"hacin_class":"Hacinamiento Leve","hacin_score":801.4,"auto_score":234.4,"n_per":74,"n_hog":32,"source_year":2024},"geometry":{"type":"Polygon","coordinates":[[[-71.6385558899999,-37.8764759710853],[-71.6370227219999,-37.8760315150854],[-71.6385745649999,-37.8764237270853],[-71.6388331969999,-37.8757190300853],[-71.6378860069999,-37.8753971690853],[-71.638845134,-37.8756865040853],[-71.6396961399999,-37.8732656220854],[-71.6393977659999,-37.8734364700853],[-71.6397772239999,-37.8730844940854],[-71.6393382229999,-37.8732338850853],[-71.6372957809999,-37.8745045750853],[-71.6363944369999,-37.8770342900853],[-71.6368393779999,-37.8770545940853],[-71.6372295429999,-37.8774659870853],[-71.6381491479999,-37.8776379990853],[-71.6385558899999,-37.8764759710853]]]}},{"type":"Feature","properties":{"id":"8314043002002","commune":"Alto Biobío","code":"08314","gse":"D","quintil":"Q1","nse_score":661.1,"educ":12.1,"educ_score":606.7,"hacin":1.374,"hacin_class":"Hacinamiento Leve","hacin_score":771.6,"auto_score":152.2,"n_per":125,"n_hog":44,"source_year":2024},"geometry":{"type":"Polygon","coordinates":[[[-71.6412138069999,-37.8731358080853],[-71.6402392569999,-37.8740386740854],[-71.640313208,-37.8742844430854],[-71.6412712869999,-37.8734016350854],[-71.6418194939999,-37.8738271760854],[-71.6416043229999,-37.8737786530854],[-71.6404983699999,-37.8748658180853],[-71.6409107539999,-37.8763179970853],[-71.6406943719999,-37.8779033260854],[-71.6410826139999,-37.8780415070853],[-71.6417412889999,-37.8771936570853],[-71.6425319549999,-37.8766402820853],[-71.6416044779999,-37.8760876920853],[-71.6425651849999,-37.8766260450854],[-71.6431928229999,-37.8761446490854],[-71.6414701939999,-37.8752227890854],[-71.6426552719999,-37.8740210430853],[-71.6412138069999,-37.8731358080853]]]}},{"type":"Feature","properties":{"id":"8314043002003","commune":"Alto Biobío","code":"08314","gse":"D","quintil":"Q1","nse_score":647.9,"educ":12.0,"educ_score":600.0,"hacin":1.288,"hacin_class":"Hacinamiento Leve","hacin_score":789.7,"auto_score":112.9,"n_per":67,"n_hog":25,"source_year":2024},"geometry":{"type":"Polygon","coordinates":[[[-71.6392560719999,-37.8748445380853],[-71.639733524,-37.8749504200853],[-71.6401114269999,-37.8738342990854],[-71.639819068,-37.8731478140853],[-71.6392560719999,-37.8748445380853]]]}},{"type":"Feature","properties":{"id":"8314043002004","commune":"Alto Biobío","code":"08314","gse":"E","quintil":"Q1","nse_score":631.1,"educ":11.3,"educ_score":553.3,"hacin":1.4,"hacin_class":"Hacinamiento Leve","hacin_score":766.0,"auto_score":200.0,"n_per":56,"n_hog":19,"source_year":2024},"geometry":{"type":"Polygon","coordinates":[[[-71.6404576929999,-37.8747582410853],[-71.6415481309999,-37.8737477740853],[-71.6412136229999,-37.8735294150854],[-71.6403328029999,-37.8743495670854],[-71.6404576929999,-37.8747582410853]]]}},{"type":"Feature","properties":{"id":"8314043002006","commune":"Alto Biobío","code":"08314","gse":"E","quintil":"Q1","nse_score":485.2,"educ":8.3,"educ_score":353.3,"hacin":1.375,"hacin_class":"Hacinamiento Leve","hacin_score":771.3,"auto_score":0.0,"n_per":11,"n_hog":4,"source_year":2024},"geometry":{"type":"Polygon","coordinates":[[[-71.6397993299999,-37.8749646630854],[-71.6405170639999,-37.8751199930853],[-71.6403773629999,-37.8747083270854],[-71.6399011349999,-37.8746261840854],[-71.6397993299999,-37.8749646630854]]]}},{"type":"Feature","properties":{"id":"8314043002007","commune":"Alto Biobío","code":"08314","gse":"E","quintil":"Q1","nse_score":632.1,"educ":10.9,"educ_score":526.7,"hacin":1.217,"hacin_class":"Hacinamiento Leve","hacin_score":804.8,"auto_score":25.0,"n_per":56,"n_hog":19,"source_year":2024},"geometry":{"type":"Polygon","coordinates":[[[-71.6383828669999,-37.8771829070853],[-71.6406307499999,-37.8778836440853],[-71.6407374389999,-37.8775452830853],[-71.639766559,-37.8772117270853],[-71.6407457439999,-37.8775091440853],[-71.6408445169999,-37.8763641520853],[-71.6405375809999,-37.8751804530853],[-71.6392048729999,-37.8748925720854],[-71.6383828669999,-37.8771829070853]]]}},{"type":"Feature","properties":{"id":"8314043002009","commune":"Alto Biobío","code":"08314","gse":"E","quintil":"Q1","nse_score":587.8,"educ":10.1,"educ_score":473.3,"hacin":1.167,"hacin_class":"Hacinamiento Leve","hacin_score":815.6,"auto_score":38.5,"n_per":28,"n_hog":11,"source_year":2024},"geometry":{"type":"Polygon","coordinates":[[[-71.6355591219999,-37.8798282830853],[-71.6366037449999,-37.8807028390853],[-71.6364932529999,-37.8809843960853],[-71.6365795509999,-37.8811624620853],[-71.6369106919999,-37.8812479950853],[-71.6381301429999,-37.8776899470853],[-71.637172571,-37.8774989430853],[-71.6370492649999,-37.8772584020853],[-71.6366953129999,-37.8770580830853],[-71.6363748129999,-37.8770890500853],[-71.6355905279999,-37.8793760970853],[-71.6355591219999,-37.8798282830853]]]}},{"type":"Feature","properties":{"id":"8314043002011","commune":"Alto Biobío","code":"08314","gse":"D","quintil":"Q1","nse_score":641.2,"educ":11.2,"educ_score":546.7,"hacin":1.302,"hacin_class":"Hacinamiento Leve","hacin_score":786.9,"auto_score":54.1,"n_per":82,"n_hog":34,"source_year":2024},"geometry":{"type":"Polygon","coordinates":[[[-71.6401872469999,-37.8796253420853],[-71.6387037789999,-37.8838015760853],[-71.6392621839999,-37.8838710080853],[-71.6399815749999,-37.8836846510853],[-71.640497992,-37.8833957800853],[-71.6406361459999,-37.8831591160853],[-71.6406165639999,-37.8833669110853],[-71.6401657869999,-37.8836681800853],[-71.6409466999999,-37.8839317240852],[-71.6421910049999,-37.8803960710853],[-71.6433356919999,-37.8785652110853],[-71.6439394409999,-37.8779989150853],[-71.643686537,-37.8778188960853],[-71.6433592369999,-37.8782212900853],[-71.6423844609999,-37.8775787510853],[-71.6419479669999,-37.8774926290853],[-71.6420140139999,-37.8777600260853],[-71.6419031519999,-37.8774987210853],[-71.6417237969999,-37.8775535440853],[-71.6413247349999,-37.8778054760853],[-71.6409118389999,-37.8784739710853],[-71.6419491019999,-37.8788841690853],[-71.6408914589999,-37.8785063330853],[-71.6401872469999,-37.8796253420853]]]}},{"type":"Feature","properties":{"id":"8314043002015","commune":"Alto Biobío","code":"08314","gse":"E","quintil":"Q1","nse_score":626.9,"educ":10.8,"educ_score":520.0,"hacin":1.375,"hacin_class":"Hacinamiento Leve","hacin_score":771.3,"auto_score":31.2,"n_per":44,"n_hog":15,"source_year":2024},"geometry":{"type":"Polygon","coordinates":[[[-71.6334781479999,-37.8792499010853],[-71.6329118809999,-37.8797336440853],[-71.6329743549999,-37.8798452720853],[-71.6334442279999,-37.8799656680853],[-71.6341349989999,-37.8804302950853],[-71.6341794799999,-37.8796622870853],[-71.6342056639999,-37.8804257930853],[-71.6346646439999,-37.8802934820853],[-71.6351253049999,-37.8803904740853],[-71.6359176049999,-37.8811577080853],[-71.6361263049999,-37.8810186910853],[-71.6358030369999,-37.8805897130853],[-71.6361788279999,-37.8809840120853],[-71.6365342539999,-37.8807375000853],[-71.6355006739999,-37.8798580180853],[-71.6355132769999,-37.8796303620853],[-71.6354664169999,-37.8797506940853],[-71.6349092479999,-37.8796044090853],[-71.6342937789999,-37.8796475390853],[-71.6334781479999,-37.8792499010853]]]}},{"type":"Feature","properties":{"id":"8314043002016","commune":"Alto Biobío","code":"08314","gse":"E","quintil":"Q1","nse_score":613.3,"educ":10.7,"educ_score":513.3,"hacin":1.284,"hacin_class":"Hacinamiento Leve","hacin_score":790.6,"auto_score":31.2,"n_per":113,"n_hog":44,"source_year":2024},"geometry":{"type":"Polygon","coordinates":[[[-71.6329020499999,-37.8829751520853],[-71.6340393859999,-37.8832139910853],[-71.6332136259999,-37.8821074950853],[-71.63336032,-37.8819486950853],[-71.6332866359999,-37.8821015290853],[-71.6341085439999,-37.8832413300853],[-71.6343557579999,-37.8833494330853],[-71.6339054469999,-37.8824099370853],[-71.6344637249999,-37.8833975070853],[-71.6349693049999,-37.8836189580853],[-71.635473498,-37.8836438080853],[-71.6363012679999,-37.8831626520853],[-71.6364457489999,-37.8826854250853],[-71.6347966199999,-37.8815258080853],[-71.6341019949999,-37.8812036810853],[-71.6337478569999,-37.8806054450853],[-71.6341537629999,-37.8811674650853],[-71.6350113799999,-37.8816027910853],[-71.6353735619999,-37.8813761840853],[-71.6350402309999,-37.8810342860853],[-71.6351143159999,-37.8808896100853],[-71.6350230479999,-37.8806987560853],[-71.6351843499999,-37.8808883040853],[-71.6351041589999,-37.8810132980853],[-71.6354392289999,-37.8813619020853],[-71.6356070249999,-37.8814095070853],[-71.6358679749999,-37.8811947380853],[-71.6351723769999,-37.8804819430853],[-71.6348047029999,-37.8803475020853],[-71.6340022479999,-37.8804597370853],[-71.6328578149999,-37.8797702610853],[-71.6299983449999,-37.8820226020853],[-71.6286687969999,-37.8819514520853],[-71.6286529699999,-37.8827336570853],[-71.6288063239999,-37.8827932880853],[-71.6328410209999,-37.8830027500853],[-71.6322531569999,-37.8814999750853],[-71.6320316469999,-37.8817860560853],[-71.6317133759999,-37.8819511630853],[-71.6321487359999,-37.8814608160853],[-71.6322879939999,-37.8814453650853],[-71.6329020499999,-37.8829751520853]]]}},{"type":"Feature","properties":{"id":"8314043002018","commune":"Alto Biobío","code":"08314","gse":"C3","quintil":"Q2","nse_score":702.8,"educ":13.9,"educ_score":726.7,"hacin":1.286,"hacin_class":"Hacinamiento Leve","hacin_score":790.3,"auto_score":0.0,"n_per":9,"n_hog":4,"source_year":2024},"geometry":{"type":"Polygon","coordinates":[[[-71.6383695169999,-37.8803494780853],[-71.6378300399999,-37.8815236930853],[-71.6385724939999,-37.8817548490853],[-71.6394819219999,-37.8811988180853],[-71.6397046369999,-37.8806295590853],[-71.6383695169999,-37.8803494780853]]]}},{"type":"Feature","properties":{"id":"8314043002019","commune":"Alto Biobío","code":"08314","gse":"D","quintil":"Q1","nse_score":636.7,"educ":10.6,"educ_score":506.7,"hacin":1.333,"hacin_class":"Hacinamiento Leve","hacin_score":780.1,"auto_score":0.0,"n_per":16,"n_hog":5,"source_year":2024},"geometry":{"type":"Polygon","coordinates":[[[-71.6352434249999,-37.8817639020853],[-71.6364619849999,-37.8826310330853],[-71.6368927839999,-37.8813006870853],[-71.6361146859999,-37.8810969950853],[-71.6352434249999,-37.8817639020853]]]}},{"type":"Feature","properties":{"id":"8314043002020","commune":"Alto Biobío","code":"08314","gse":"D","quintil":"Q1","nse_score":640.1,"educ":11.9,"educ_score":593.3,"hacin":0.929,"hacin_class":"Sin Hacinamiento","hacin_score":866.3,"auto_score":0.0,"n_per":13,"n_hog":6,"source_year":2024},"geometry":{"type":"Polygon","coordinates":[[[-71.6384678779999,-37.8822496570853],[-71.6386738489999,-37.8835234110853],[-71.6394422379999,-37.8813163120853],[-71.6382665159999,-37.8820459760853],[-71.6384678779999,-37.8822496570853]]]}},{"type":"Feature","properties":{"id":"8314043002023","commune":"Alto Biobío","code":"08314","gse":"D","quintil":"Q1","nse_score":659.4,"educ":11.4,"educ_score":560.0,"hacin":1.229,"hacin_class":"Hacinamiento Leve","hacin_score":802.3,"auto_score":140.4,"n_per":134,"n_hog":57,"source_year":2024},"geometry":{"type":"Polygon","coordinates":[[[-71.637706422,-37.8830178370853],[-71.6375004429999,-37.8825371230853],[-71.6365766589999,-37.8831230590853],[-71.6366447929999,-37.8833147850853],[-71.6364008939999,-37.8834729520852],[-71.6364152699999,-37.8836862410853],[-71.6363321149999,-37.8834522140853],[-71.6365727039999,-37.8832972780853],[-71.6365159399999,-37.8831484020853],[-71.6363710919999,-37.8832088600853],[-71.6361833549999,-37.8833719250853],[-71.6362105139999,-37.8837528860853],[-71.6354239529999,-37.8846168880853],[-71.6358707179999,-37.8852596230853],[-71.6367877779999,-37.8852395910853],[-71.6358390759999,-37.8853080640853],[-71.6353550949999,-37.8846235750853],[-71.636146461,-37.8837331800853],[-71.636119618,-37.8834169380853],[-71.6355248259999,-37.8837046570853],[-71.6355075869999,-37.8839701090853],[-71.6349054129999,-37.8841364110853],[-71.6354676479999,-37.8839237930853],[-71.6354582569999,-37.8837196430853],[-71.6349344729999,-37.8836855350853],[-71.6340505809999,-37.8832989050853],[-71.6341938399999,-37.8835703130853],[-71.6341021039999,-37.8837259820853],[-71.6335057679999,-37.8838138710853],[-71.6332955209999,-37.8839726060853],[-71.6349122889999,-37.8845769400852],[-71.6352836169999,-37.8852815510852],[-71.6356765159999,-37.8856258640853],[-71.6372467229999,-37.8856374060853],[-71.6373493689999,-37.8850737730853],[-71.6367325619999,-37.8847080410853],[-71.6373468529999,-37.8850087460852],[-71.6373643609999,-37.8845091450853],[-71.6370148919999,-37.8843090710853],[-71.6373681649999,-37.8844437200853],[-71.6374371399999,-37.8843389630853],[-71.6385825579999,-37.8842578570853],[-71.6374874019999,-37.8842403600852],[-71.6375770519999,-37.8841809670853],[-71.6386510289999,-37.8842168070852],[-71.6383784999999,-37.8822633770853],[-71.6382690749999,-37.8821211370853],[-71.6375580459999,-37.8825005650853],[-71.637706422,-37.8830178370853]]]}},{"type":"Feature","properties":{"id":"8314043002024","commune":"Alto Biobío","code":"08314","gse":"C3","quintil":"Q3","nse_score":707.9,"educ":11.8,"educ_score":586.7,"hacin":1.111,"hacin_class":"Hacinamiento Leve","hacin_score":827.4,"auto_score":250.0,"n_per":10,"n_hog":4,"source_year":2024},"geometry":{"type":"MultiPolygon","coordinates":[[[[-71.6321797299999,-37.8830700380852],[-71.6327315699999,-37.8839383890853],[-71.6332245639999,-37.8839678900853],[-71.6334778749999,-37.8837643280853],[-71.6338671169999,-37.8837837640853],[-71.63411844,-37.8836254910852],[-71.6339419249999,-37.8832559510853],[-71.6336666619999,-37.8831509720853],[-71.6321797299999,-37.8830700380852]]],[[[-71.6286585719999,-37.8828260740853],[-71.6287769759999,-37.8837294240853],[-71.6304183339999,-37.8838384110853],[-71.630704755,-37.8835915710853],[-71.6320798259999,-37.8830634990853],[-71.6286585719999,-37.8828260740853]]]]}},{"type":"Feature","properties":{"id":"8314043002027","commune":"Alto Biobío","code":"08314","gse":"E","quintil":"Q1","nse_score":609.6,"educ":10.5,"educ_score":500.0,"hacin":1.469,"hacin_class":"Hacinamiento Leve","hacin_score":751.3,"auto_score":26.3,"n_per":47,"n_hog":17,"source_year":2024},"geometry":{"type":"MultiPolygon","coordinates":[[[[-71.6374251999999,-37.8852754920853],[-71.6371238289999,-37.8860763580853],[-71.6385138109999,-37.8863281430853],[-71.6387737579999,-37.8851165960852],[-71.6386682849999,-37.8843119380853],[-71.6374625969999,-37.8843912660853],[-71.6374251999999,-37.8852754920853]]],[[[-71.6390037789999,-37.8839358440853],[-71.6387031859999,-37.8838592270853],[-71.6388316569999,-37.8847818650853],[-71.6390352919999,-37.8847834080852],[-71.6397433569999,-37.8841564570853],[-71.6399950819999,-37.8842040370853],[-71.6397808129999,-37.8842020390853],[-71.6394137299999,-37.8845325120853],[-71.6395541779999,-37.8848105730853],[-71.6393653489999,-37.8845730930852],[-71.6389593059999,-37.8848608950852],[-71.6391070539999,-37.8854296180852],[-71.6394728429999,-37.8852989680852],[-71.6398795729999,-37.8853440490853],[-71.6405130639999,-37.8847860580852],[-71.6403104759999,-37.8851160110852],[-71.6408193579999,-37.8851125410853],[-71.6403878759999,-37.8852453960853],[-71.6402590119999,-37.8851668750852],[-71.6398635219999,-37.8854056700853],[-71.6394844239999,-37.8853524000853],[-71.6391021889999,-37.8854871500853],[-71.6390069619999,-37.8856766170853],[-71.6394684299999,-37.8862522360853],[-71.6397677639999,-37.8858858330852],[-71.6400976499999,-37.8856811470853],[-71.6395336489999,-37.8863113950853],[-71.6392522209999,-37.8861989310853],[-71.6389686649999,-37.8857323910852],[-71.6386467999999,-37.8860891270852],[-71.6385142669999,-37.8870648170852],[-71.6390511879999,-37.8865014190853],[-71.6394529599999,-37.8863619260853],[-71.6398698479999,-37.8864047560852],[-71.6402247389999,-37.8861705320853],[-71.6406845859999,-37.8861977440853],[-71.6409190209999,-37.8860523460853],[-71.6410426299999,-37.8855671900853],[-71.6411012319999,-37.8851451320852],[-71.6409504739999,-37.8839864850853],[-71.6401043949999,-37.8836940610852],[-71.6390037789999,-37.8839358440853]]]]}},{"type":"Feature","properties":{"id":"8314043002010","commune":"Alto Biobío","code":"08314","gse":"E","quintil":"Q1","nse_score":555.7,"educ":6.7,"educ_score":246.7,"hacin":1.115,"hacin_class":"Hacinamiento Leve","hacin_score":826.5,"auto_score":0.0,"n_per":29,"n_hog":11,"source_year":2024},"geometry":{"type":"MultiPolygon","coordinates":[[[[-71.6389458319999,-37.8789607010853],[-71.6402970489999,-37.8792663210853],[-71.6410521569999,-37.8780898730854],[-71.6395032899999,-37.8775942530853],[-71.6389458319999,-37.8789607010853]]],[[[-71.6378261949999,-37.8787146840853],[-71.6388800239999,-37.8789464250853],[-71.6394398649999,-37.8775742590853],[-71.6383649349999,-37.8772353880853],[-71.6378261949999,-37.8787146840853]]]]}},{"type":"Feature","properties":{"id":"8314043002013","commune":"Alto Biobío","code":"08314","gse":"E","quintil":"Q1","nse_score":559.1,"educ":12.2,"educ_score":613.3,"hacin":1.875,"hacin_class":"Hacinamiento Medio","hacin_score":664.9,"auto_score":71.4,"n_per":15,"n_hog":5,"source_year":2024},"geometry":{"type":"MultiPolygon","coordinates":[[[[-71.6369740979999,-37.8812683460853],[-71.6377662489999,-37.8815046610853],[-71.6383041249999,-37.8803339330853],[-71.6373773819999,-37.8801294840853],[-71.6369740979999,-37.8812683460853]]],[[[-71.6373964859999,-37.8800776240853],[-71.6383250059999,-37.8802824660853],[-71.6388033999999,-37.8791113600853],[-71.6377662299999,-37.8788785900853],[-71.6373964859999,-37.8800776240853]]]]}}]}