{"type":"FeatureCollection","features":[{"type":"Feature","properties":{"id":"8302011001001","commune":"Antuco","code":"08302","gse":"C3","quintil":"Q3","nse_score":727.5,"educ":11.3,"educ_score":553.3,"hacin":1.01,"hacin_class":"Hacinamiento Leve","hacin_score":848.9,"auto_score":15.2,"n_per":100,"n_hog":33,"source_year":2024,"crime_score":0.1003,"crime_nivel":"Bajo","crime_color":"#cddc39"},"geometry":{"type":"Polygon","coordinates":[[[-71.6628839029999,-37.3283819720899],[-71.662891655,-37.3287229730899],[-71.6663867359999,-37.3287088300899],[-71.6663738819999,-37.3279803220899],[-71.666130742,-37.3277036860899],[-71.6661337049999,-37.3275510670899],[-71.6664186969999,-37.3279740840899],[-71.6664318499999,-37.3287073880899],[-71.6695824989999,-37.3286937970899],[-71.6696240879999,-37.3280665490899],[-71.6698499779999,-37.3279401910899],[-71.6700181109999,-37.3266743880899],[-71.6688733379999,-37.3265358040899],[-71.6690341159999,-37.3264917240899],[-71.6692055279999,-37.3248186820899],[-71.668860133,-37.32476857509],[-71.6686648909999,-37.3262633540899],[-71.666779904,-37.3261485230899],[-71.6667903139999,-37.32694939709],[-71.6646945589999,-37.3269537300899],[-71.6647957429999,-37.3282961680899],[-71.6628839029999,-37.3283819720899]]]}},{"type":"Feature","properties":{"id":"8302011001002","commune":"Antuco","code":"08302","gse":"C3","quintil":"Q2","nse_score":688.7,"educ":11.8,"educ_score":586.7,"hacin":1.333,"hacin_class":"Hacinamiento Leve","hacin_score":780.1,"auto_score":0.0,"n_per":20,"n_hog":5,"source_year":2024,"crime_score":0.0986,"crime_nivel":"Bajo","crime_color":"#cddc39"},"geometry":{"type":"Polygon","coordinates":[[[-71.6702324049999,-37.32497697009],[-71.6692801419999,-37.32482950709],[-71.6692333329999,-37.3251718350899],[-71.6701868289999,-37.3252704730899],[-71.6702324049999,-37.32497697009]]]}},{"type":"Feature","properties":{"id":"8302011001003","commune":"Antuco","code":"08302","gse":"E","quintil":"Q1","nse_score":597.9,"educ":9.1,"educ_score":406.7,"hacin":1.538,"hacin_class":"Hacinamiento Medio","hacin_score":736.5,"auto_score":71.4,"n_per":20,"n_hog":7,"source_year":2024,"crime_score":0.1035,"crime_nivel":"Bajo","crime_color":"#cddc39"},"geometry":{"type":"Polygon","coordinates":[[[-71.6805912419999,-37.32495028909],[-71.6798827399999,-37.3249648520899],[-71.6794742779999,-37.3265456270899],[-71.6801122889999,-37.3265927230899],[-71.6805912419999,-37.32495028909]]]}},{"type":"Feature","properties":{"id":"8302011001004","commune":"Antuco","code":"08302","gse":"D","quintil":"Q1","nse_score":660.8,"educ":10.5,"educ_score":500.0,"hacin":1.277,"hacin_class":"Hacinamiento Leve","hacin_score":792.1,"auto_score":26.8,"n_per":129,"n_hog":56,"source_year":2024,"crime_score":0.1055,"crime_nivel":"Bajo","crime_color":"#cddc39"},"geometry":{"type":"Polygon","coordinates":[[[-71.670295602,-37.3249865200899],[-71.6699128269999,-37.3279535120899],[-71.669685479,-37.3280928850899],[-71.6696645579999,-37.3286558980899],[-71.6712575299999,-37.3287477650899],[-71.6713264719999,-37.3280522120899],[-71.6706662349999,-37.3280241630899],[-71.6713286309999,-37.3280162360899],[-71.6713610179999,-37.3273922020899],[-71.6708713589999,-37.3273572440899],[-71.6713658109999,-37.3273563820899],[-71.6713790119999,-37.3272251170899],[-71.6708026269999,-37.3271456250899],[-71.6713837159999,-37.3271892950899],[-71.671608708,-37.3254616040899],[-71.6708404069999,-37.3252133680899],[-71.6716136199999,-37.32542840509],[-71.6716452249999,-37.32517402509],[-71.670295602,-37.3249865200899]]]}},{"type":"Feature","properties":{"id":"8302011001005","commune":"Antuco","code":"08302","gse":"C3","quintil":"Q2","nse_score":696.5,"educ":11.2,"educ_score":546.7,"hacin":1.161,"hacin_class":"Hacinamiento Leve","hacin_score":816.8,"auto_score":98.4,"n_per":166,"n_hog":61,"source_year":2024,"crime_score":0.1053,"crime_nivel":"Bajo","crime_color":"#cddc39"},"geometry":{"type":"Polygon","coordinates":[[[-71.6738690679999,-37.3254826040899],[-71.6717092539999,-37.3251805390899],[-71.6716395209999,-37.32563668909],[-71.6719621539999,-37.3256636510899],[-71.671635868,-37.3256612410899],[-71.6715962029999,-37.32594724909],[-71.6719204929999,-37.32597631809],[-71.6715920269999,-37.3259722820899],[-71.6715498359999,-37.3262633450899],[-71.6718402789999,-37.3262888320899],[-71.6715434849999,-37.3262863820899],[-71.6714991999999,-37.3265872840899],[-71.6717983309999,-37.3266105080899],[-71.6714962449999,-37.3266117710899],[-71.67135178,-37.3287497510899],[-71.6735021139999,-37.3288731600899],[-71.6738179649999,-37.3260394190899],[-71.6734642189999,-37.32598045609],[-71.6738212559999,-37.3260035620899],[-71.6738690679999,-37.3254826040899]]]}},{"type":"Feature","properties":{"id":"8302011001006","commune":"Antuco","code":"08302","gse":"C3","quintil":"Q3","nse_score":732.7,"educ":11.3,"educ_score":553.3,"hacin":1.167,"hacin_class":"Hacinamiento Leve","hacin_score":815.6,"auto_score":111.1,"n_per":35,"n_hog":9,"source_year":2024,"crime_score":0.0969,"crime_nivel":"Bajo","crime_color":"#cddc39"},"geometry":{"type":"Polygon","coordinates":[[[-71.6700697349999,-37.32568999909],[-71.6701255259999,-37.3253165600899],[-71.6692673469999,-37.3252556460899],[-71.6691925109999,-37.3255967890899],[-71.6700697349999,-37.32568999909]]]}},{"type":"Feature","properties":{"id":"8302011001009","commune":"Antuco","code":"08302","gse":"C3","quintil":"Q2","nse_score":697.1,"educ":11.6,"educ_score":573.3,"hacin":1.067,"hacin_class":"Hacinamiento Leve","hacin_score":836.9,"auto_score":41.7,"n_per":32,"n_hog":13,"source_year":2024,"crime_score":0.0987,"crime_nivel":"Bajo","crime_color":"#cddc39"},"geometry":{"type":"Polygon","coordinates":[[[-71.6738128049999,-37.3265356830899],[-71.6747697249999,-37.3266156960899],[-71.6748851499999,-37.3257770760899],[-71.6739049239999,-37.32564722409],[-71.6738128049999,-37.3265356830899]]]}},{"type":"Feature","properties":{"id":"8302011001010","commune":"Antuco","code":"08302","gse":"C3","quintil":"Q2","nse_score":706.6,"educ":11.0,"educ_score":533.3,"hacin":1.077,"hacin_class":"Hacinamiento Leve","hacin_score":834.7,"auto_score":112.2,"n_per":126,"n_hog":50,"source_year":2024,"crime_score":0.1027,"crime_nivel":"Bajo","crime_color":"#cddc39"},"geometry":{"type":"Polygon","coordinates":[[[-71.6749864439999,-37.3256867220899],[-71.6744537949999,-37.3289724710899],[-71.6757815539999,-37.3290591240899],[-71.6758382779999,-37.3279217810899],[-71.6754184799999,-37.3278445620899],[-71.675913239,-37.3278730140899],[-71.6758464679999,-37.3290717980899],[-71.6767458059999,-37.3291336890899],[-71.6768700249999,-37.3284031020899],[-71.6767809399999,-37.3291354330899],[-71.6772499279999,-37.3291645840899],[-71.6776387069999,-37.3262279320899],[-71.6749864439999,-37.3256867220899]]]}},{"type":"Feature","properties":{"id":"8302011001011","commune":"Antuco","code":"08302","gse":"C2","quintil":"Q4","nse_score":757.8,"educ":13.3,"educ_score":686.7,"hacin":1.086,"hacin_class":"Hacinamiento Leve","hacin_score":832.8,"auto_score":0.0,"n_per":38,"n_hog":12,"source_year":2024,"crime_score":0.0957,"crime_nivel":"Bajo","crime_color":"#cddc39"},"geometry":{"type":"Polygon","coordinates":[[[-71.6701007019999,-37.3258029370899],[-71.6692372939999,-37.3256923500899],[-71.6691531049999,-37.32601362109],[-71.6700172089999,-37.3261056510899],[-71.6701007019999,-37.3258029370899]]]}},{"type":"Feature","properties":{"id":"8302011001012","commune":"Antuco","code":"08302","gse":"C3","quintil":"Q3","nse_score":730.8,"educ":11.4,"educ_score":560.0,"hacin":1.133,"hacin_class":"Hacinamiento Leve","hacin_score":822.7,"auto_score":100.0,"n_per":34,"n_hog":11,"source_year":2024,"crime_score":0.097,"crime_nivel":"Bajo","crime_color":"#cddc39"},"geometry":{"type":"Polygon","coordinates":[[[-71.6700509519999,-37.3261995150899],[-71.6691900929999,-37.32610466309],[-71.6691006999999,-37.3264659960899],[-71.6699700009999,-37.3265586470899],[-71.6700509519999,-37.3261995150899]]]}},{"type":"Feature","properties":{"id":"8302011001013","commune":"Antuco","code":"08302","gse":"C3","quintil":"Q2","nse_score":703.7,"educ":12.6,"educ_score":640.0,"hacin":1.482,"hacin_class":"Hacinamiento Leve","hacin_score":748.6,"auto_score":230.8,"n_per":40,"n_hog":13,"source_year":2024,"crime_score":0.0987,"crime_nivel":"Bajo","crime_color":"#cddc39"},"geometry":{"type":"Polygon","coordinates":[[[-71.6776651989999,-37.3262652200899],[-71.6772989759999,-37.3291546080899],[-71.6785884049999,-37.3293010420899],[-71.6791939949999,-37.3264662050899],[-71.6776651989999,-37.3262652200899]]]}},{"type":"Feature","properties":{"id":"8302011001014","commune":"Antuco","code":"08302","gse":"D","quintil":"Q2","nse_score":672.2,"educ":10.9,"educ_score":526.7,"hacin":1.6,"hacin_class":"Hacinamiento Medio","hacin_score":723.4,"auto_score":0.0,"n_per":32,"n_hog":9,"source_year":2024,"crime_score":0.1001,"crime_nivel":"Bajo","crime_color":"#cddc39"},"geometry":{"type":"Polygon","coordinates":[[[-71.6813065629999,-37.3264289390899],[-71.680836784,-37.3291699060899],[-71.6808837669999,-37.3293428530899],[-71.6814647979999,-37.3292044670899],[-71.6820380099999,-37.3263194890899],[-71.6813065629999,-37.3264289390899]]]}},{"type":"Feature","properties":{"id":"8302011001016","commune":"Antuco","code":"08302","gse":"C3","quintil":"Q2","nse_score":701.0,"educ":11.6,"educ_score":573.3,"hacin":1.239,"hacin_class":"Hacinamiento Leve","hacin_score":800.3,"auto_score":39.5,"n_per":83,"n_hog":38,"source_year":2024,"crime_score":0.101,"crime_nivel":"Bajo","crime_color":"#cddc39"},"geometry":{"type":"Polygon","coordinates":[[[-71.6808063549999,-37.3265813750899],[-71.6791938499999,-37.32656714509],[-71.6786688489999,-37.3293098800899],[-71.680132995,-37.3294521000899],[-71.6807492289999,-37.3293372370899],[-71.6811144819999,-37.3271087720899],[-71.6807689849999,-37.32707722709],[-71.680690362,-37.3272659280899],[-71.6808063549999,-37.3265813750899]]]}},{"type":"Feature","properties":{"id":"8302011001017","commune":"Antuco","code":"08302","gse":"D","quintil":"Q1","nse_score":657.6,"educ":8.7,"educ_score":380.0,"hacin":0.8,"hacin_class":"Sin Hacinamiento","hacin_score":893.6,"auto_score":0.0,"n_per":20,"n_hog":9,"source_year":2024,"crime_score":0.1003,"crime_nivel":"Bajo","crime_color":"#cddc39"},"geometry":{"type":"Polygon","coordinates":[[[-71.6738138859999,-37.3272740360899],[-71.6746589279999,-37.3273238090899],[-71.6747575669999,-37.3266612260899],[-71.6738141839999,-37.3265946660899],[-71.6738138859999,-37.3272740360899]]]}},{"type":"Feature","properties":{"id":"8302011001018","commune":"Antuco","code":"08302","gse":"D","quintil":"Q1","nse_score":648.3,"educ":9.4,"educ_score":426.7,"hacin":0.963,"hacin_class":"Sin Hacinamiento","hacin_score":858.9,"auto_score":50.0,"n_per":52,"n_hog":20,"source_year":2024,"crime_score":0.1024,"crime_nivel":"Bajo","crime_color":"#cddc39"},"geometry":{"type":"Polygon","coordinates":[[[-71.6735435059999,-37.3288763990899],[-71.6743720779999,-37.3289645520899],[-71.6746392599999,-37.3273563220899],[-71.6737361349999,-37.3273042990899],[-71.6735435059999,-37.3288763990899]]]}},{"type":"Feature","properties":{"id":"8302011001019","commune":"Antuco","code":"08302","gse":"C3","quintil":"Q3","nse_score":728.8,"educ":13.9,"educ_score":726.7,"hacin":1.478,"hacin_class":"Hacinamiento Leve","hacin_score":749.3,"auto_score":200.0,"n_per":34,"n_hog":16,"source_year":2024,"crime_score":0.0971,"crime_nivel":"Bajo","crime_color":"#cddc39"},"geometry":{"type":"Polygon","coordinates":[[[-71.6767212329999,-37.3333332920899],[-71.6781523039999,-37.3328017050899],[-71.679125499,-37.3322740380899],[-71.6794448009999,-37.3319365060899],[-71.6803787399999,-37.3314355460899],[-71.6805181149999,-37.3310825230899],[-71.6816700539999,-37.3308716800899],[-71.6824301269999,-37.3303093830899],[-71.6844076589999,-37.3295735750899],[-71.6844548049999,-37.3285720320899],[-71.6801800579999,-37.3295092730899],[-71.6796197279999,-37.3316465410899],[-71.6787672599999,-37.3316202370899],[-71.6786675889999,-37.3320023120899],[-71.6787067919999,-37.3316171970899],[-71.6767686559999,-37.3315491380899],[-71.6765042389999,-37.3327436910899],[-71.6768081659999,-37.3330731740899],[-71.6767212329999,-37.3333332920899]]]}},{"type":"Feature","properties":{"id":"8302011001020","commune":"Antuco","code":"08302","gse":"C3","quintil":"Q3","nse_score":708.7,"educ":10.9,"educ_score":526.7,"hacin":1.31,"hacin_class":"Hacinamiento Leve","hacin_score":785.0,"auto_score":93.8,"n_per":38,"n_hog":16,"source_year":2024,"crime_score":0.0984,"crime_nivel":"Bajo","crime_color":"#cddc39"},"geometry":{"type":"Polygon","coordinates":[[[-71.6712597409999,-37.3287952420899],[-71.6696565199999,-37.3287566660899],[-71.6696243129999,-37.3297397670899],[-71.6711485179999,-37.3298650130899],[-71.6712597409999,-37.3287952420899]]]}},{"type":"Feature","properties":{"id":"8302011001021","commune":"Antuco","code":"08302","gse":"D","quintil":"Q1","nse_score":652.5,"educ":10.5,"educ_score":500.0,"hacin":1.459,"hacin_class":"Hacinamiento Leve","hacin_score":753.4,"auto_score":102.9,"n_per":89,"n_hog":35,"source_year":2024,"crime_score":0.104,"crime_nivel":"Bajo","crime_color":"#cddc39"},"geometry":{"type":"Polygon","coordinates":[[[-71.6691882949999,-37.3295382510899],[-71.6691490709999,-37.3300413310899],[-71.6695272589999,-37.3300484300899],[-71.6695736559999,-37.3287469910899],[-71.6681525429999,-37.3287882120899],[-71.6680776309999,-37.3300036600899],[-71.6690925979999,-37.3300510650899],[-71.6691882949999,-37.3295382510899]]]}},{"type":"Feature","properties":{"id":"8302011001023","commune":"Antuco","code":"08302","gse":"D","quintil":"Q1","nse_score":648.3,"educ":10.6,"educ_score":506.7,"hacin":1.436,"hacin_class":"Hacinamiento Leve","hacin_score":758.3,"auto_score":121.2,"n_per":191,"n_hog":69,"source_year":2024,"crime_score":0.1093,"crime_nivel":"Bajo","crime_color":"#cddc39"},"geometry":{"type":"Polygon","coordinates":[[[-71.6635132749999,-37.3287866420899],[-71.6635410799999,-37.3301850710899],[-71.6634681509999,-37.3287869810899],[-71.6632208929999,-37.3287886310899],[-71.6631927589999,-37.3327681220899],[-71.6646927639999,-37.3329179490899],[-71.6665624159999,-37.3328446500898],[-71.6670180479999,-37.3330446090899],[-71.668827157,-37.3330012930899],[-71.6688080129999,-37.3341945680899],[-71.6711408559999,-37.3337649270899],[-71.6723570689999,-37.3338971130898],[-71.6731085009999,-37.3338034220899],[-71.67356824,-37.3340528810899],[-71.6747563529999,-37.3342216810898],[-71.6753287519999,-37.3340682280898],[-71.6763794529999,-37.3341138510898],[-71.6765562319999,-37.3337670070899],[-71.6766578809999,-37.3332997780898],[-71.676564734,-37.3332363310899],[-71.6722189209999,-37.3331076670899],[-71.6720081389999,-37.3331407580899],[-71.6705042399999,-37.3331777230899],[-71.6721463479999,-37.3330923350899],[-71.6724343999999,-37.3312650900899],[-71.6694364089999,-37.3310853800899],[-71.6693705989999,-37.3319094510899],[-71.6693717299999,-37.3310808040899],[-71.6680959149999,-37.3309732410899],[-71.6680915809999,-37.3323450410899],[-71.6680507979999,-37.3309698610899],[-71.6657621979999,-37.3308511230899],[-71.6658425679999,-37.3322396010899],[-71.665716744,-37.3308484630899],[-71.6632689449999,-37.3307027450899],[-71.6642978959999,-37.3307075190899],[-71.6643314069999,-37.3298870780899],[-71.6644152,-37.3300716230899],[-71.6664859229999,-37.3301574750899],[-71.6664488489999,-37.3287808690899],[-71.6635132749999,-37.3287866420899]]]}},{"type":"Feature","properties":{"id":"8302011001024","commune":"Antuco","code":"08302","gse":"C3","quintil":"Q3","nse_score":718.9,"educ":10.7,"educ_score":513.3,"hacin":0.957,"hacin_class":"Sin Hacinamiento","hacin_score":860.1,"auto_score":0.0,"n_per":45,"n_hog":18,"source_year":2024,"crime_score":0.0981,"crime_nivel":"Bajo","crime_color":"#cddc39"},"geometry":{"type":"Polygon","coordinates":[[[-71.6728778799999,-37.3289120240899],[-71.6713329289999,-37.3288122930899],[-71.6712202929999,-37.3298676300899],[-71.672700974,-37.3299889600899],[-71.6728778799999,-37.3289120240899]]]}},{"type":"Feature","properties":{"id":"8302011001025","commune":"Antuco","code":"08302","gse":"D","quintil":"Q2","nse_score":669.0,"educ":9.8,"educ_score":453.3,"hacin":0.806,"hacin_class":"Sin Hacinamiento","hacin_score":892.3,"auto_score":80.0,"n_per":54,"n_hog":25,"source_year":2024,"crime_score":0.1013,"crime_nivel":"Bajo","crime_color":"#cddc39"},"geometry":{"type":"Polygon","coordinates":[[[-71.6727618589999,-37.3299856240899],[-71.6741526789999,-37.3301042380899],[-71.6743566829999,-37.3290195340899],[-71.6729379609999,-37.3289265730899],[-71.6727618589999,-37.3299856240899]]]}},{"type":"Feature","properties":{"id":"8302011001028","commune":"Antuco","code":"08302","gse":"E","quintil":"Q1","nse_score":613.5,"educ":10.3,"educ_score":486.7,"hacin":1.571,"hacin_class":"Hacinamiento Medio","hacin_score":729.5,"auto_score":0.0,"n_per":22,"n_hog":9,"source_year":2024,"crime_score":0.1028,"crime_nivel":"Bajo","crime_color":"#cddc39"},"geometry":{"type":"Polygon","coordinates":[[[-71.6770520579999,-37.3303292180899],[-71.6783512799999,-37.3304311970899],[-71.6785797989999,-37.3293619370899],[-71.6772923769999,-37.3292266060899],[-71.6770520579999,-37.3303292180899]]]}},{"type":"Feature","properties":{"id":"8302011001030","commune":"Antuco","code":"08302","gse":"C3","quintil":"Q2","nse_score":689.4,"educ":10.7,"educ_score":513.3,"hacin":1.032,"hacin_class":"Hacinamiento Leve","hacin_score":844.2,"auto_score":0.0,"n_per":32,"n_hog":13,"source_year":2024,"crime_score":0.0991,"crime_nivel":"Bajo","crime_color":"#cddc39"},"geometry":{"type":"Polygon","coordinates":[[[-71.6711483779999,-37.3299165950899],[-71.6695920609999,-37.3297846430899],[-71.6695132349999,-37.3310439420899],[-71.6710460069999,-37.3311320650899],[-71.6711483779999,-37.3299165950899]]]}},{"type":"Feature","properties":{"id":"8302011001031","commune":"Antuco","code":"08302","gse":"D","quintil":"Q2","nse_score":680.6,"educ":10.5,"educ_score":500.0,"hacin":1.178,"hacin_class":"Hacinamiento Leve","hacin_score":813.2,"auto_score":16.7,"n_per":86,"n_hog":29,"source_year":2024,"crime_score":0.1023,"crime_nivel":"Bajo","crime_color":"#cddc39"},"geometry":{"type":"Polygon","coordinates":[[[-71.6716332309999,-37.3303779420899],[-71.6716225729999,-37.3299475410899],[-71.6712012449999,-37.3299266840899],[-71.6711129379999,-37.3311220500899],[-71.6719526449999,-37.3311875540899],[-71.6720262219999,-37.3306443450899],[-71.6719985749999,-37.3311858960899],[-71.672483171,-37.3311979150899],[-71.6726689289999,-37.3300453800899],[-71.6716760499999,-37.3299528010899],[-71.6716332309999,-37.3303779420899]]]}},{"type":"Feature","properties":{"id":"8302011001032","commune":"Antuco","code":"08302","gse":"D","quintil":"Q1","nse_score":650.1,"educ":10.5,"educ_score":500.0,"hacin":1.239,"hacin_class":"Hacinamiento Leve","hacin_score":800.2,"auto_score":25.0,"n_per":57,"n_hog":20,"source_year":2024,"crime_score":0.1025,"crime_nivel":"Bajo","crime_color":"#cddc39"},"geometry":{"type":"Polygon","coordinates":[[[-71.6680467529999,-37.3303299120899],[-71.669059634,-37.3303706220899],[-71.6691022089999,-37.3300882280899],[-71.6680742169999,-37.3300286470899],[-71.6680467529999,-37.3303299120899]]]}},{"type":"Feature","properties":{"id":"8302011001033","commune":"Antuco","code":"08302","gse":"E","quintil":"Q1","nse_score":524.1,"educ":10.0,"educ_score":466.7,"hacin":1.454,"hacin_class":"Hacinamiento Leve","hacin_score":754.4,"auto_score":0.0,"n_per":16,"n_hog":7,"source_year":2024,"crime_score":0.1073,"crime_nivel":"Bajo","crime_color":"#cddc39"},"geometry":{"type":"Polygon","coordinates":[[[-71.6741370139999,-37.3301721210899],[-71.6727544889999,-37.3300711700899],[-71.6725522069999,-37.3312106610899],[-71.6739151519999,-37.3313024950899],[-71.6741370139999,-37.3301721210899]]]}},{"type":"Feature","properties":{"id":"8302011001034","commune":"Antuco","code":"08302","gse":"E","quintil":"Q1","nse_score":623.3,"educ":10.6,"educ_score":506.7,"hacin":1.378,"hacin_class":"Hacinamiento Leve","hacin_score":770.6,"auto_score":26.3,"n_per":51,"n_hog":17,"source_year":2024,"crime_score":0.1037,"crime_nivel":"Bajo","crime_color":"#cddc39"},"geometry":{"type":"Polygon","coordinates":[[[-71.6691554209999,-37.3300738960899],[-71.6690674349999,-37.3309864520899],[-71.6694476509999,-37.3310423990899],[-71.6695208549999,-37.3300997870899],[-71.6691554209999,-37.3300738960899]]]}},{"type":"Feature","properties":{"id":"8302011001035","commune":"Antuco","code":"08302","gse":"D","quintil":"Q2","nse_score":686.1,"educ":11.8,"educ_score":586.7,"hacin":1.323,"hacin_class":"Hacinamiento Leve","hacin_score":782.4,"auto_score":0.0,"n_per":41,"n_hog":12,"source_year":2024,"crime_score":0.0998,"crime_nivel":"Bajo","crime_color":"#cddc39"},"geometry":{"type":"Polygon","coordinates":[[[-71.664374371,-37.3306784310899],[-71.6648871559999,-37.3307051730899],[-71.6648698379999,-37.3301258220899],[-71.6643839059999,-37.3301224420899],[-71.664374371,-37.3306784310899]]]}},{"type":"Feature","properties":{"id":"8302011001036","commune":"Antuco","code":"08302","gse":"D","quintil":"Q1","nse_score":645.4,"educ":10.3,"educ_score":486.7,"hacin":1.385,"hacin_class":"Hacinamiento Leve","hacin_score":769.2,"auto_score":150.0,"n_per":36,"n_hog":10,"source_year":2024,"crime_score":0.1017,"crime_nivel":"Bajo","crime_color":"#cddc39"},"geometry":{"type":"Polygon","coordinates":[[[-71.6653957979999,-37.3307645960899],[-71.6654187509999,-37.3301555160899],[-71.6649683909999,-37.3301320140899],[-71.6649278049999,-37.3307059690899],[-71.6653957979999,-37.3307645960899]]]}},{"type":"Feature","properties":{"id":"8302011001037","commune":"Antuco","code":"08302","gse":"D","quintil":"Q1","nse_score":656.3,"educ":11.1,"educ_score":540.0,"hacin":1.583,"hacin_class":"Hacinamiento Medio","hacin_score":727.0,"auto_score":166.7,"n_per":38,"n_hog":9,"source_year":2024,"crime_score":0.1012,"crime_nivel":"Bajo","crime_color":"#cddc39"},"geometry":{"type":"Polygon","coordinates":[[[-71.6659789489999,-37.3307692100899],[-71.6659582069999,-37.3301826150899],[-71.6655057669999,-37.3301613920899],[-71.6654660959999,-37.3307330970899],[-71.6659789489999,-37.3307692100899]]]}},{"type":"Feature","properties":{"id":"8302011001038","commune":"Antuco","code":"08302","gse":"C3","quintil":"Q2","nse_score":706.6,"educ":11.3,"educ_score":553.3,"hacin":1.0,"hacin_class":"Hacinamiento Leve","hacin_score":851.1,"auto_score":0.0,"n_per":24,"n_hog":10,"source_year":2024,"crime_score":0.0978,"crime_nivel":"Bajo","crime_color":"#cddc39"},"geometry":{"type":"Polygon","coordinates":[[[-71.6739911439999,-37.3313138800899],[-71.6753335319999,-37.3313896450899],[-71.6755356529999,-37.3302840280899],[-71.6741914089999,-37.3301783550899],[-71.6739911439999,-37.3313138800899]]]}},{"type":"Feature","properties":{"id":"8302011001040","commune":"Antuco","code":"08302","gse":"E","quintil":"Q1","nse_score":589.6,"educ":9.9,"educ_score":460.0,"hacin":2.261,"hacin_class":"Hacinamiento Medio","hacin_score":582.8,"auto_score":76.9,"n_per":52,"n_hog":13,"source_year":2024,"crime_score":0.1056,"crime_nivel":"Bajo","crime_color":"#cddc39"},"geometry":{"type":"Polygon","coordinates":[[[-71.6767020449999,-37.3314804060899],[-71.6769616669999,-37.3303886390899],[-71.6756187629999,-37.3302870120899],[-71.6754000319999,-37.3314012860899],[-71.6767020449999,-37.3314804060899]]]}},{"type":"Feature","properties":{"id":"8302011001041","commune":"Antuco","code":"08302","gse":"D","quintil":"Q2","nse_score":685.4,"educ":10.3,"educ_score":486.7,"hacin":1.022,"hacin_class":"Hacinamiento Leve","hacin_score":846.4,"auto_score":0.0,"n_per":47,"n_hog":19,"source_year":2024,"crime_score":0.1001,"crime_nivel":"Bajo","crime_color":"#cddc39"},"geometry":{"type":"Polygon","coordinates":[[[-71.6679976809999,-37.3306269480899],[-71.6690488309999,-37.3306896540899],[-71.6690770799999,-37.3304157720899],[-71.6680462769999,-37.3303546660899],[-71.6679976809999,-37.3306269480899]]]}},{"type":"Feature","properties":{"id":"8302011001042","commune":"Antuco","code":"08302","gse":"E","quintil":"Q1","nse_score":631.7,"educ":11.8,"educ_score":586.7,"hacin":1.391,"hacin_class":"Hacinamiento Leve","hacin_score":767.8,"auto_score":100.0,"n_per":32,"n_hog":13,"source_year":2024,"crime_score":0.1023,"crime_nivel":"Bajo","crime_color":"#cddc39"},"geometry":{"type":"Polygon","coordinates":[[[-71.6781353819999,-37.3315016730899],[-71.678344535,-37.3304924980899],[-71.6770339119999,-37.3304120030899],[-71.6767943219999,-37.3314840210899],[-71.6781353819999,-37.3315016730899]]]}},{"type":"Feature","properties":{"id":"8302011001044","commune":"Antuco","code":"08302","gse":"D","quintil":"Q2","nse_score":680.2,"educ":10.6,"educ_score":506.7,"hacin":1.222,"hacin_class":"Hacinamiento Leve","hacin_score":803.8,"auto_score":90.9,"n_per":22,"n_hog":11,"source_year":2024,"crime_score":0.0991,"crime_nivel":"Bajo","crime_color":"#cddc39"},"geometry":{"type":"Polygon","coordinates":[[[-71.6796040159999,-37.3315855410899],[-71.6798096339999,-37.3305915000899],[-71.678413411,-37.3305079620899],[-71.6782131239999,-37.3315522820899],[-71.6796040159999,-37.3315855410899]]]}},{"type":"Feature","properties":{"id":"8302011001046","commune":"Antuco","code":"08302","gse":"E","quintil":"Q1","nse_score":625.8,"educ":11.1,"educ_score":540.0,"hacin":1.143,"hacin_class":"Hacinamiento Leve","hacin_score":820.7,"auto_score":0.0,"n_per":16,"n_hog":10,"source_year":2024,"crime_score":0.1018,"crime_nivel":"Bajo","crime_color":"#cddc39"},"geometry":{"type":"Polygon","coordinates":[[[-71.6738965629999,-37.3313709490899],[-71.6725252499999,-37.3312973700899],[-71.672221868,-37.3330576630899],[-71.6735612259999,-37.3330942800899],[-71.6738965629999,-37.3313709490899]]]}},{"type":"Feature","properties":{"id":"8302011001047","commune":"Antuco","code":"08302","gse":"E","quintil":"Q1","nse_score":546.8,"educ":10.6,"educ_score":506.7,"hacin":1.4,"hacin_class":"Hacinamiento Leve","hacin_score":766.0,"auto_score":0.0,"n_per":14,"n_hog":6,"source_year":2024,"crime_score":0.106,"crime_nivel":"Bajo","crime_color":"#cddc39"},"geometry":{"type":"Polygon","coordinates":[[[-71.6753093249999,-37.3314680270899],[-71.6739592439999,-37.3313864700899],[-71.6736770879999,-37.3331101240898],[-71.6749950929999,-37.3331179910899],[-71.6753093249999,-37.3314680270899]]]}},{"type":"Feature","properties":{"id":"8302011001048","commune":"Antuco","code":"08302","gse":"D","quintil":"Q1","nse_score":653.4,"educ":11.2,"educ_score":546.7,"hacin":1.395,"hacin_class":"Hacinamiento Leve","hacin_score":767.1,"auto_score":22.7,"n_per":53,"n_hog":22,"source_year":2024,"crime_score":0.1021,"crime_nivel":"Bajo","crime_color":"#cddc39"},"geometry":{"type":"Polygon","coordinates":[[[-71.6761530589999,-37.3324700790899],[-71.6763244179999,-37.3315112690899],[-71.6753731059999,-37.3314798000899],[-71.6750454459999,-37.3331247300899],[-71.6767409519999,-37.3332274580899],[-71.6767609209999,-37.3330497230899],[-71.6764502179999,-37.3327723810899],[-71.6766944109999,-37.3315338310899],[-71.6763692409999,-37.3315157410899],[-71.6761530589999,-37.3324700790899]]]}},{"type":"Feature","properties":{"id":"8302011001007","commune":"Antuco","code":"08302","gse":"C3","quintil":"Q3","nse_score":732.6,"educ":13.2,"educ_score":680.0,"hacin":1.7,"hacin_class":"Hacinamiento Medio","hacin_score":702.1,"auto_score":166.7,"n_per":17,"n_hog":7,"source_year":2024,"crime_score":0.0961,"crime_nivel":"Bajo","crime_color":"#cddc39"},"geometry":{"type":"MultiPolygon","coordinates":[[[[-71.6807959529999,-37.3270524020899],[-71.6811225939999,-37.32705880109],[-71.6811829649999,-37.3265482500899],[-71.6808460169999,-37.3265721290899],[-71.6807959529999,-37.3270524020899]]],[[[-71.6805064899999,-37.3253799250899],[-71.6801572559999,-37.32659622309],[-71.6811889849999,-37.3265228390899],[-71.6813065629999,-37.3264289390899],[-71.6814981369999,-37.32545213809],[-71.6805064899999,-37.3253799250899]]]]}},{"type":"Feature","properties":{"id":"8302011001026","commune":"Antuco","code":"08302","gse":"D","quintil":"Q2","nse_score":686.3,"educ":10.3,"educ_score":486.7,"hacin":1.214,"hacin_class":"Hacinamiento Leve","hacin_score":805.5,"auto_score":0.0,"n_per":17,"n_hog":6,"source_year":2024,"crime_score":0.0986,"crime_nivel":"Bajo","crime_color":"#cddc39"},"geometry":{"type":"MultiPolygon","coordinates":[[[[-71.6756236129999,-37.3302236250899],[-71.6769803879999,-37.3303323230899],[-71.6772222289999,-37.3292191070899],[-71.6758465539999,-37.3291206430899],[-71.6756236129999,-37.3302236250899]]],[[[-71.6742056499999,-37.3301107260899],[-71.6755547019999,-37.3302200310899],[-71.6757644049999,-37.3291169990899],[-71.6744272379999,-37.3290260250899],[-71.6742056499999,-37.3301107260899]]]]}},{"type":"Feature","properties":{"id":"8302011001043","commune":"Antuco","code":"08302","gse":"D","quintil":"Q1","nse_score":646.9,"educ":10.1,"educ_score":473.3,"hacin":1.25,"hacin_class":"Hacinamiento Leve","hacin_score":797.9,"auto_score":0.0,"n_per":30,"n_hog":11,"source_year":2024,"crime_score":0.1014,"crime_nivel":"Bajo","crime_color":"#cddc39"},"geometry":{"type":"MultiPolygon","coordinates":[[[[-71.669003986,-37.3310072830899],[-71.6690347539999,-37.3307182160899],[-71.6679922469999,-37.3306922590899],[-71.6680046459999,-37.3309175230899],[-71.669003986,-37.3310072830899]]],[[[-71.6666222069999,-37.3308646490899],[-71.6678890379999,-37.3309167890899],[-71.6679396239999,-37.3305354720899],[-71.6665923459999,-37.3304585070899],[-71.6666222069999,-37.3308646490899]]]]}},{"type":"Feature","properties":{"id":"8302011001022","commune":"Antuco","code":"08302","gse":"D","quintil":"Q1","nse_score":644.8,"educ":9.7,"educ_score":446.7,"hacin":1.071,"hacin_class":"Hacinamiento Leve","hacin_score":835.9,"auto_score":38.5,"n_per":30,"n_hog":13,"source_year":2024,"crime_score":0.1015,"crime_nivel":"Bajo","crime_color":"#cddc39"},"geometry":{"type":"MultiPolygon","coordinates":[[[[-71.6660531759999,-37.3308044060899],[-71.6665023579999,-37.3308158020899],[-71.666493612,-37.3302275650899],[-71.6660227659999,-37.3302130610899],[-71.6660531759999,-37.3308044060899]]],[[[-71.6665716959999,-37.3304075810899],[-71.6679421489999,-37.3304783860899],[-71.6680845209999,-37.3287610620899],[-71.6665245659999,-37.3287829340899],[-71.6665716959999,-37.3304075810899]]]]}}]}