{"type":"FeatureCollection","features":[{"type":"Feature","properties":{"id":"12201011001005","commune":"Cabo De Hornos","code":"12201","gse":"D","quintil":"Q1","nse_score":686.5,"educ":11.2,"educ_score":546.7,"hacin":1.293,"hacin_class":"Hacinamiento Leve","hacin_score":788.7,"auto_score":250.0,"n_per":75,"n_hog":32,"source_year":2024},"geometry":{"type":"Polygon","coordinates":[[[-67.5927570179999,-54.9330982241133],[-67.5928225399999,-54.9334847191133],[-67.5931243569999,-54.9334390851133],[-67.5941715429999,-54.9337913311134],[-67.5941644619999,-54.9335620941133],[-67.5943666019999,-54.9334366781134],[-67.5960572269999,-54.9334187051134],[-67.5982432439999,-54.9337710261133],[-67.5997312909999,-54.9335798141133],[-67.597164673,-54.9327933171133],[-67.5949388099999,-54.9327987551134],[-67.5927570179999,-54.9330982241133]]]}},{"type":"Feature","properties":{"id":"12201011001008","commune":"Cabo De Hornos","code":"12201","gse":"D","quintil":"Q2","nse_score":705.9,"educ":12.5,"educ_score":633.3,"hacin":1.435,"hacin_class":"Hacinamiento Leve","hacin_score":758.6,"auto_score":458.3,"n_per":33,"n_hog":12,"source_year":2024},"geometry":{"type":"Polygon","coordinates":[[[-67.6046027169999,-54.9335481511133],[-67.6045224499999,-54.9337790781133],[-67.6045807189999,-54.9335871351133],[-67.6044359339999,-54.9334748991133],[-67.6028953879999,-54.9334084631133],[-67.6028270439999,-54.9336841291133],[-67.6022998619999,-54.9336782121134],[-67.6022225249999,-54.9340266671133],[-67.6034254729999,-54.9342926551133],[-67.6035612279999,-54.9341410761134],[-67.6034495499999,-54.9343129061133],[-67.6015922139999,-54.9339820561133],[-67.6014759529999,-54.9333828741133],[-67.5998599069999,-54.9335647391134],[-67.6000934779999,-54.9338935771133],[-67.6015462809999,-54.9342586491134],[-67.6040287459999,-54.9343563321133],[-67.6068058989999,-54.9342736871133],[-67.6069903649999,-54.9335230301133],[-67.6069205969999,-54.9334240161133],[-67.6048080319999,-54.9332491111133],[-67.6044810819999,-54.9334407031133],[-67.6046027169999,-54.9335481511133]]]}},{"type":"Feature","properties":{"id":"12201011001009","commune":"Cabo De Hornos","code":"12201","gse":"D","quintil":"Q1","nse_score":694.2,"educ":11.1,"educ_score":540.0,"hacin":1.312,"hacin_class":"Hacinamiento Leve","hacin_score":784.6,"auto_score":714.3,"n_per":21,"n_hog":7,"source_year":2024},"geometry":{"type":"Polygon","coordinates":[[[-67.6027956739999,-54.9333616121133],[-67.6016158269999,-54.9333633591133],[-67.6015762279999,-54.9339190951134],[-67.6021789279999,-54.9340020821134],[-67.602271158,-54.9336517911133],[-67.6027451479999,-54.9336626961133],[-67.6027956739999,-54.9333616121133]]]}},{"type":"Feature","properties":{"id":"12201011001012","commune":"Cabo De Hornos","code":"12201","gse":"C2","quintil":"Q4","nse_score":776.4,"educ":14.7,"educ_score":780.0,"hacin":1.529,"hacin_class":"Hacinamiento Medio","hacin_score":738.4,"auto_score":0.0,"n_per":26,"n_hog":7,"source_year":2024},"geometry":{"type":"Polygon","coordinates":[[[-67.5961890409999,-54.9334630621133],[-67.5952631849999,-54.9335341671134],[-67.5990295829999,-54.9342685821134],[-67.5992265189999,-54.9339988111133],[-67.5961890409999,-54.9334630621133]]]}},{"type":"Feature","properties":{"id":"12201011001014","commune":"Cabo De Hornos","code":"12201","gse":"C3","quintil":"Q2","nse_score":724.4,"educ":12.2,"educ_score":613.3,"hacin":1.292,"hacin_class":"Hacinamiento Leve","hacin_score":788.9,"auto_score":378.8,"n_per":84,"n_hog":33,"source_year":2024},"geometry":{"type":"Polygon","coordinates":[[[-67.5943226609999,-54.9337994711133],[-67.5973765209999,-54.9344139301133],[-67.5976317099999,-54.9340451941134],[-67.5953911979999,-54.9335903921133],[-67.5944037509999,-54.9334944081133],[-67.5942510399999,-54.9335883541133],[-67.5943226609999,-54.9337994711133]]]}},{"type":"Feature","properties":{"id":"12201011001018","commune":"Cabo De Hornos","code":"12201","gse":"C2","quintil":"Q3","nse_score":759.8,"educ":12.9,"educ_score":660.0,"hacin":1.237,"hacin_class":"Hacinamiento Leve","hacin_score":800.7,"auto_score":500.0,"n_per":47,"n_hog":18,"source_year":2024},"geometry":{"type":"Polygon","coordinates":[[[-67.5963951929999,-54.9345888981134],[-67.5963357259999,-54.9349910911133],[-67.5966443839999,-54.9350441961133],[-67.5971007739999,-54.9348948991133],[-67.5978559259999,-54.9350017021134],[-67.5979651279999,-54.9348305621134],[-67.5978850659999,-54.9345561841133],[-67.5942695829999,-54.9338321681133],[-67.5940148319999,-54.9341211301133],[-67.5963951929999,-54.9345888981134]]]}},{"type":"Feature","properties":{"id":"12201011001019","commune":"Cabo De Hornos","code":"12201","gse":"C3","quintil":"Q2","nse_score":724.8,"educ":13.3,"educ_score":686.7,"hacin":1.395,"hacin_class":"Hacinamiento Leve","hacin_score":766.9,"auto_score":175.0,"n_per":60,"n_hog":19,"source_year":2024},"geometry":{"type":"Polygon","coordinates":[[[-67.6013314269999,-54.9343754661134],[-67.5993302029999,-54.9339933931133],[-67.5992014359999,-54.9342924771133],[-67.6011871189999,-54.9346677101133],[-67.6013314269999,-54.9343754661134]]]}},{"type":"Feature","properties":{"id":"12201011001022","commune":"Cabo De Hornos","code":"12201","gse":"C1","quintil":"Q5","nse_score":810.7,"educ":15.2,"educ_score":813.3,"hacin":1.182,"hacin_class":"Hacinamiento Leve","hacin_score":812.4,"auto_score":333.3,"n_per":26,"n_hog":12,"source_year":2024},"geometry":{"type":"Polygon","coordinates":[[[-67.598990092,-54.9343482711133],[-67.5977176939999,-54.9340650101133],[-67.5974796099999,-54.9344301881134],[-67.598780631,-54.9346789161133],[-67.598990092,-54.9343482711133]]]}},{"type":"Feature","properties":{"id":"12201011001026","commune":"Cabo De Hornos","code":"12201","gse":"C3","quintil":"Q3","nse_score":735.1,"educ":13.3,"educ_score":686.7,"hacin":1.25,"hacin_class":"Hacinamiento Leve","hacin_score":797.9,"auto_score":78.9,"n_per":45,"n_hog":19,"source_year":2024},"geometry":{"type":"Polygon","coordinates":[[[-67.6015702809999,-54.9343171331133],[-67.6014213849999,-54.9346851511133],[-67.6032253409999,-54.9347770391133],[-67.603353808,-54.9344621081133],[-67.6015702809999,-54.9343171331133]]]}},{"type":"Feature","properties":{"id":"12201011001028","commune":"Cabo De Hornos","code":"12201","gse":"C1","quintil":"Q5","nse_score":805.5,"educ":14.9,"educ_score":793.3,"hacin":1.111,"hacin_class":"Hacinamiento Leve","hacin_score":827.4,"auto_score":200.0,"n_per":10,"n_hog":6,"source_year":2024},"geometry":{"type":"Polygon","coordinates":[[[-67.5989475979999,-54.9346909181134],[-67.6001407749999,-54.9350302771134],[-67.6003949809999,-54.9346257781133],[-67.5991014529999,-54.9343564811133],[-67.5989475979999,-54.9346909181134]]]}},{"type":"Feature","properties":{"id":"12201011001031","commune":"Cabo De Hornos","code":"12201","gse":"ABC1","quintil":"Q5","nse_score":908.6,"educ":17.4,"educ_score":960.0,"hacin":1.482,"hacin_class":"Hacinamiento Leve","hacin_score":748.6,"auto_score":250.0,"n_per":40,"n_hog":10,"source_year":2024},"geometry":{"type":"Polygon","coordinates":[[[-67.6123675599999,-54.9347519431133],[-67.6122901519999,-54.9345068561133],[-67.6110788079999,-54.9344465231134],[-67.6110521109999,-54.9347448621134],[-67.6123675599999,-54.9347519431133]]]}},{"type":"Feature","properties":{"id":"12201011001039","commune":"Cabo De Hornos","code":"12201","gse":"C2","quintil":"Q4","nse_score":790.8,"educ":14.2,"educ_score":746.7,"hacin":1.05,"hacin_class":"Hacinamiento Leve","hacin_score":840.4,"auto_score":200.0,"n_per":21,"n_hog":9,"source_year":2024},"geometry":{"type":"Polygon","coordinates":[[[-67.6056523529999,-54.9353104301134],[-67.6032438309999,-54.9353047091134],[-67.6031708429999,-54.9358818751134],[-67.6056656469999,-54.9359054711134],[-67.6056523529999,-54.9353104301134]]]}},{"type":"Feature","properties":{"id":"12201011001042","commune":"Cabo De Hornos","code":"12201","gse":"C2","quintil":"Q3","nse_score":760.8,"educ":13.9,"educ_score":726.7,"hacin":1.238,"hacin_class":"Hacinamiento Leve","hacin_score":800.4,"auto_score":400.0,"n_per":26,"n_hog":10,"source_year":2024},"geometry":{"type":"Polygon","coordinates":[[[-67.608428752,-54.9366447971134],[-67.60847831,-54.9363014151134],[-67.6074864449999,-54.9357061911134],[-67.6065273469999,-54.9357648371134],[-67.6080607059999,-54.9365804411134],[-67.608428752,-54.9366447971134]]]}},{"type":"Feature","properties":{"id":"12201011001044","commune":"Cabo De Hornos","code":"12201","gse":"C2","quintil":"Q4","nse_score":779.2,"educ":14.5,"educ_score":766.7,"hacin":1.29,"hacin_class":"Hacinamiento Leve","hacin_score":789.3,"auto_score":214.3,"n_per":40,"n_hog":15,"source_year":2024},"geometry":{"type":"Polygon","coordinates":[[[-67.6080404089999,-54.9366751521134],[-67.6063800679999,-54.9358313151133],[-67.6062402989999,-54.9361592141134],[-67.6071614359999,-54.9366430911134],[-67.6080404089999,-54.9366751521134]]]}},{"type":"Feature","properties":{"id":"12201011001046","commune":"Cabo De Hornos","code":"12201","gse":"C3","quintil":"Q3","nse_score":739.5,"educ":14.4,"educ_score":760.0,"hacin":1.5,"hacin_class":"Hacinamiento Medio","hacin_score":744.7,"auto_score":424.2,"n_per":96,"n_hog":33,"source_year":2024},"geometry":{"type":"Polygon","coordinates":[[[-67.6029940159999,-54.9359671471134],[-67.5997524549999,-54.9361309841134],[-67.5995908659999,-54.9365178671134],[-67.6027974689999,-54.9366401151134],[-67.6029940159999,-54.9359671471134]]]}},{"type":"Feature","properties":{"id":"12201011001047","commune":"Cabo De Hornos","code":"12201","gse":"C2","quintil":"Q4","nse_score":771.3,"educ":14.2,"educ_score":746.7,"hacin":1.286,"hacin_class":"Hacinamiento Leve","hacin_score":790.3,"auto_score":241.9,"n_per":72,"n_hog":30,"source_year":2024},"geometry":{"type":"Polygon","coordinates":[[[-67.6081293469999,-54.9372609011134],[-67.6094825609999,-54.9374456131134],[-67.6095619379999,-54.9373475991134],[-67.6086465689999,-54.9367542461134],[-67.607123284,-54.9366875481134],[-67.6055989949999,-54.9360133271134],[-67.6031206029999,-54.9359438191134],[-67.6029263639999,-54.9366163951134],[-67.6067898219999,-54.9367788991134],[-67.6069092189999,-54.9368455881134],[-67.6068831959999,-54.9373026661134],[-67.6081293469999,-54.9372609011134]]]}},{"type":"Feature","properties":{"id":"12201011001048","commune":"Cabo De Hornos","code":"12201","gse":"C3","quintil":"Q2","nse_score":725.6,"educ":14.8,"educ_score":786.7,"hacin":1.5,"hacin_class":"Hacinamiento Medio","hacin_score":744.7,"auto_score":437.5,"n_per":27,"n_hog":8,"source_year":2024},"geometry":{"type":"Polygon","coordinates":[[[-67.6136782649999,-54.9360156491134],[-67.6135270329999,-54.9359702201134],[-67.6126382009999,-54.9360735191134],[-67.6127761309999,-54.9364654401134],[-67.6133012249999,-54.9363695781134],[-67.6136782649999,-54.9360156491134]]]}},{"type":"Feature","properties":{"id":"12201011001050","commune":"Cabo De Hornos","code":"12201","gse":"C3","quintil":"Q3","nse_score":737.6,"educ":14.5,"educ_score":766.7,"hacin":1.696,"hacin_class":"Hacinamiento Medio","hacin_score":703.1,"auto_score":300.0,"n_per":39,"n_hog":10,"source_year":2024},"geometry":{"type":"Polygon","coordinates":[[[-67.6120121009999,-54.9361404411134],[-67.6121275309999,-54.9365219871134],[-67.612678651,-54.9364666661134],[-67.6125650149999,-54.9360774471134],[-67.6120121009999,-54.9361404411134]]]}},{"type":"Feature","properties":{"id":"12201011001051","commune":"Cabo De Hornos","code":"12201","gse":"C2","quintil":"Q4","nse_score":786.8,"educ":15.2,"educ_score":813.3,"hacin":1.688,"hacin_class":"Hacinamiento Medio","hacin_score":704.8,"auto_score":625.0,"n_per":27,"n_hog":8,"source_year":2024},"geometry":{"type":"Polygon","coordinates":[[[-67.6119423359999,-54.9361498221134],[-67.6113962939999,-54.9362115081134],[-67.6115091589999,-54.9365807911134],[-67.612071812,-54.9365268491134],[-67.6119423359999,-54.9361498221134]]]}},{"type":"Feature","properties":{"id":"12201011001053","commune":"Cabo De Hornos","code":"12201","gse":"C2","quintil":"Q4","nse_score":772.6,"educ":15.7,"educ_score":846.7,"hacin":1.727,"hacin_class":"Hacinamiento Medio","hacin_score":696.3,"auto_score":500.0,"n_per":19,"n_hog":4,"source_year":2024},"geometry":{"type":"Polygon","coordinates":[[[-67.6110114159999,-54.9362546381134],[-67.6111197249999,-54.9366250291133],[-67.6114534779999,-54.9365885381133],[-67.6113275929999,-54.9362161261133],[-67.6110114159999,-54.9362546381134]]]}},{"type":"Feature","properties":{"id":"12201011001054","commune":"Cabo De Hornos","code":"12201","gse":"C2","quintil":"Q4","nse_score":789.3,"educ":14.7,"educ_score":780.0,"hacin":1.41,"hacin_class":"Hacinamiento Leve","hacin_score":763.9,"auto_score":481.5,"n_per":86,"n_hog":27,"source_year":2024},"geometry":{"type":"Polygon","coordinates":[[[-67.6097323069999,-54.9364970151134],[-67.6109531499999,-54.9364521991133],[-67.6109053939999,-54.9362542331134],[-67.6087269589999,-54.9362927811134],[-67.6086044579999,-54.9363194831134],[-67.608528771,-54.9366849591134],[-67.6110044359999,-54.9366316361134],[-67.6109308829999,-54.9364898731133],[-67.6097323069999,-54.9364970151134]]]}},{"type":"Feature","properties":{"id":"12201011001055","commune":"Cabo De Hornos","code":"12201","gse":"C1","quintil":"Q5","nse_score":808.4,"educ":15.4,"educ_score":826.7,"hacin":1.433,"hacin_class":"Hacinamiento Leve","hacin_score":758.9,"auto_score":464.3,"n_per":43,"n_hog":14,"source_year":2024},"geometry":{"type":"Polygon","coordinates":[[[-67.6145942499999,-54.9364774301133],[-67.6146077099999,-54.9366995281134],[-67.6167476269999,-54.9369785991134],[-67.6164299409999,-54.9365131661134],[-67.6145942499999,-54.9364774301133]]]}},{"type":"Feature","properties":{"id":"12201011001056","commune":"Cabo De Hornos","code":"12201","gse":"ABC1","quintil":"Q5","nse_score":854.7,"educ":15.8,"educ_score":853.3,"hacin":1.5,"hacin_class":"Hacinamiento Medio","hacin_score":744.7,"auto_score":400.0,"n_per":24,"n_hog":10,"source_year":2024},"geometry":{"type":"Polygon","coordinates":[[[-67.6132745549999,-54.9371020151134],[-67.6146869199999,-54.9371898861134],[-67.6147578099999,-54.9370584571134],[-67.6170319319999,-54.9373203321134],[-67.6166726459999,-54.9370375021134],[-67.6132644849999,-54.9364899801133],[-67.6131517449999,-54.9365511591133],[-67.6132745549999,-54.9371020151134]]]}},{"type":"Feature","properties":{"id":"12201011001058","commune":"Cabo De Hornos","code":"12201","gse":"C2","quintil":"Q4","nse_score":763.0,"educ":14.1,"educ_score":740.0,"hacin":1.6,"hacin_class":"Hacinamiento Medio","hacin_score":723.4,"auto_score":0.0,"n_per":24,"n_hog":6,"source_year":2024},"geometry":{"type":"Polygon","coordinates":[[[-67.6129540779999,-54.9365132911134],[-67.6111333379999,-54.9367508171134],[-67.6112449999999,-54.9368189311134],[-67.6130869269999,-54.9366281901134],[-67.6129540779999,-54.9365132911134]]]}},{"type":"Feature","properties":{"id":"12201011001059","commune":"Cabo De Hornos","code":"12201","gse":"C2","quintil":"Q4","nse_score":793.0,"educ":14.4,"educ_score":760.0,"hacin":1.549,"hacin_class":"Hacinamiento Medio","hacin_score":734.2,"auto_score":531.2,"n_per":110,"n_hog":32,"source_year":2024},"geometry":{"type":"Polygon","coordinates":[[[-67.6026711719999,-54.9370814171134],[-67.6027773639999,-54.9366945301134],[-67.5996072589999,-54.9365949821133],[-67.5995174249999,-54.9369522211134],[-67.6026711719999,-54.9370814171134]]]}},{"type":"Feature","properties":{"id":"12201011001060","commune":"Cabo De Hornos","code":"12201","gse":"C3","quintil":"Q3","nse_score":748.9,"educ":13.9,"educ_score":726.7,"hacin":1.534,"hacin_class":"Hacinamiento Medio","hacin_score":737.3,"auto_score":388.9,"n_per":89,"n_hog":28,"source_year":2024},"geometry":{"type":"Polygon","coordinates":[[[-67.606730765,-54.9373024331134],[-67.6067607119999,-54.9368292381133],[-67.6029417539999,-54.9366997671134],[-67.6027620149999,-54.9372678361134],[-67.606730765,-54.9373024331134]]]}},{"type":"Feature","properties":{"id":"12201011001061","commune":"Cabo De Hornos","code":"12201","gse":"C3","quintil":"Q2","nse_score":726.7,"educ":13.1,"educ_score":673.3,"hacin":1.116,"hacin_class":"Hacinamiento Leve","hacin_score":826.3,"auto_score":261.9,"n_per":48,"n_hog":22,"source_year":2024},"geometry":{"type":"Polygon","coordinates":[[[-67.6132039749999,-54.9371232011134],[-67.6121839899999,-54.9370657981134],[-67.6131397969999,-54.9370148811134],[-67.6131038229999,-54.9367016261134],[-67.6091781329999,-54.9369487961133],[-67.6095868709999,-54.9372235191134],[-67.6096125109999,-54.9374499531134],[-67.6098685019999,-54.9374941621134],[-67.6106375259999,-54.9375055841134],[-67.6109033349999,-54.9374147491134],[-67.6109136459999,-54.9373081071134],[-67.6117486529999,-54.9372463051134],[-67.6110337939999,-54.9373373891134],[-67.6109755649999,-54.9374248691134],[-67.6107398549999,-54.9375066761134],[-67.6127504699999,-54.9374515481134],[-67.6131291259999,-54.9373553111134],[-67.6132039749999,-54.9371232011134]]]}},{"type":"Feature","properties":{"id":"12201011001062","commune":"Cabo De Hornos","code":"12201","gse":"C2","quintil":"Q4","nse_score":777.3,"educ":14.6,"educ_score":773.3,"hacin":1.474,"hacin_class":"Hacinamiento Leve","hacin_score":750.3,"auto_score":357.1,"n_per":28,"n_hog":7,"source_year":2024},"geometry":{"type":"Polygon","coordinates":[[[-67.6110392759999,-54.9367237421134],[-67.608840041,-54.9367732831134],[-67.6091616409999,-54.9368899701134],[-67.6110482219999,-54.9368455221134],[-67.6110392759999,-54.9367237421134]]]}},{"type":"Feature","properties":{"id":"12201011001064","commune":"Cabo De Hornos","code":"12201","gse":"D","quintil":"Q2","nse_score":716.3,"educ":12.8,"educ_score":653.3,"hacin":1.388,"hacin_class":"Hacinamiento Leve","hacin_score":768.5,"auto_score":329.3,"n_per":118,"n_hog":41,"source_year":2024},"geometry":{"type":"Polygon","coordinates":[[[-67.6076756879999,-54.9373842691134],[-67.6027558299999,-54.9373562901134],[-67.6025749049999,-54.9380849581134],[-67.6027424599999,-54.9381862041134],[-67.6041424159999,-54.9379510991134],[-67.6062126859999,-54.9378448161134],[-67.6076756879999,-54.9373842691134]]]}},{"type":"Feature","properties":{"id":"12201011001065","commune":"Cabo De Hornos","code":"12201","gse":"ABC1","quintil":"Q5","nse_score":879.6,"educ":16.1,"educ_score":873.3,"hacin":1.0,"hacin_class":"Hacinamiento Leve","hacin_score":851.1,"auto_score":500.0,"n_per":9,"n_hog":4,"source_year":2024},"geometry":{"type":"Polygon","coordinates":[[[-67.6024679949999,-54.9382400131134],[-67.6028034099999,-54.9385614171134],[-67.6049888679999,-54.9383008251134],[-67.6051030869999,-54.9379604671134],[-67.6024679949999,-54.9382400131134]]]}},{"type":"Feature","properties":{"id":"12201011001025","commune":"Cabo De Hornos","code":"12201","gse":"C1","quintil":"Q5","nse_score":822.2,"educ":15.6,"educ_score":840.0,"hacin":1.3,"hacin_class":"Hacinamiento Leve","hacin_score":787.2,"auto_score":250.0,"n_per":13,"n_hog":4,"source_year":2024},"geometry":{"type":"MultiPolygon","coordinates":[[[[-67.6167647679999,-54.9357173171134],[-67.616368668,-54.9356890181134],[-67.6167494889999,-54.9358817881134],[-67.6163025179999,-54.9356814041134],[-67.6159052359999,-54.9357231971134],[-67.6162209129999,-54.9361616811134],[-67.6177629569999,-54.9364453131134],[-67.6181570959999,-54.9365980411133],[-67.6162383689999,-54.9362014381134],[-67.6169293689999,-54.9371053171133],[-67.6170693449999,-54.9368840051133],[-67.6176207089999,-54.9368730151134],[-67.6175801059999,-54.9369769061134],[-67.6170742909999,-54.9369168101134],[-67.6169462929999,-54.9371497541134],[-67.6174133419999,-54.9374598241134],[-67.6184435089999,-54.9376593461134],[-67.6195875089999,-54.9366801241134],[-67.618521288,-54.9359769091134],[-67.6176761839999,-54.9356463601134],[-67.6171862349999,-54.9348942061133],[-67.6170701119999,-54.9355022601134],[-67.6169797829999,-54.9356437711134],[-67.6167647679999,-54.9357173171134]]],[[[-67.6137683599999,-54.9347057051134],[-67.6157536799999,-54.9356299781134],[-67.6161165949999,-54.9355668561133],[-67.6162926639999,-54.9352346661134],[-67.6161065319999,-54.9356311991134],[-67.6167472939999,-54.9356896281134],[-67.6169716949999,-54.9356011321134],[-67.6171240639999,-54.9348729671133],[-67.6164736369999,-54.9347286281134],[-67.615279815,-54.9347391511133],[-67.6133740169999,-54.9342947621133],[-67.6137683599999,-54.9347057051134]]]]}},{"type":"Feature","properties":{"id":"12201011001017","commune":"Cabo De Hornos","code":"12201","gse":"C3","quintil":"Q3","nse_score":748.6,"educ":14.3,"educ_score":753.3,"hacin":1.909,"hacin_class":"Hacinamiento Medio","hacin_score":657.6,"auto_score":83.3,"n_per":21,"n_hog":6,"source_year":2024},"geometry":{"type":"MultiPolygon","coordinates":[[[[-67.6102738749999,-54.9346889701133],[-67.6103291479999,-54.9343845841133],[-67.6082881969999,-54.9342648221133],[-67.6083637629999,-54.9344056751134],[-67.6088388389999,-54.9346006251133],[-67.6102738749999,-54.9346889701133]]],[[[-67.6103212039999,-54.9343430421134],[-67.6103905919999,-54.9339710031134],[-67.6079670499999,-54.9338250971134],[-67.6082960299999,-54.9342089691133],[-67.6103212039999,-54.9343430421134]]]]}},{"type":"Feature","properties":{"id":"12201011001045","commune":"Cabo De Hornos","code":"12201","gse":"C2","quintil":"Q3","nse_score":756.0,"educ":14.6,"educ_score":773.3,"hacin":1.526,"hacin_class":"Hacinamiento Medio","hacin_score":739.1,"auto_score":625.0,"n_per":29,"n_hog":8,"source_year":2024},"geometry":{"type":"MultiPolygon","coordinates":[[[[-67.6142122409999,-54.9361874671133],[-67.6141785979999,-54.9363469181134],[-67.6143833109999,-54.9364571791134],[-67.6163620809999,-54.9364535131134],[-67.6159816519999,-54.9361886011134],[-67.6142122409999,-54.9361874671133]]],[[[-67.6141088949999,-54.9366299501134],[-67.6143686389999,-54.9365185741134],[-67.6140725879999,-54.9363559671134],[-67.6142232799999,-54.9360488231134],[-67.6138199319999,-54.9360168491134],[-67.6135396249999,-54.9364188561134],[-67.6141088949999,-54.9366299501134]]],[[[-67.6146999859999,-54.9361645541134],[-67.6160350219999,-54.9361650831134],[-67.6160590959999,-54.9361580831134],[-67.6152968479999,-54.9358678521134],[-67.6143202779999,-54.9358874541134],[-67.6146999859999,-54.9361645541134]]]]}},{"type":"Feature","properties":{"id":"12201011001015","commune":"Cabo De Hornos","code":"12201","gse":"C3","quintil":"Q2","nse_score":722.2,"educ":13.6,"educ_score":706.7,"hacin":1.609,"hacin_class":"Hacinamiento Medio","hacin_score":721.6,"auto_score":384.6,"n_per":37,"n_hog":13,"source_year":2024},"geometry":{"type":"MultiPolygon","coordinates":[[[[-67.6058806109999,-54.9349985021133],[-67.6068312119999,-54.9349797751133],[-67.6068927949999,-54.9343375711134],[-67.6058385339999,-54.9343802581133],[-67.6058806109999,-54.9349985021133]]],[[[-67.6068379659999,-54.9352016221134],[-67.6058230879999,-54.9352009431133],[-67.6059735619999,-54.9354671861133],[-67.6063313559999,-54.9356682551134],[-67.6073994849999,-54.9356185651133],[-67.6085241849999,-54.9362032041133],[-67.6092343379999,-54.9362178111134],[-67.6096430859999,-54.9359881631134],[-67.6105718629999,-54.9359075641134],[-67.6107888099999,-54.9357758691134],[-67.6110075089999,-54.9351673591134],[-67.6110075989999,-54.9347898421134],[-67.608647549,-54.9346072091133],[-67.6083236279999,-54.9344708681134],[-67.6078672989999,-54.9338397881134],[-67.6071445979999,-54.9336314831134],[-67.6068379659999,-54.9352016221134]]]]}},{"type":"Feature","properties":{"id":"12201011001029","commune":"Cabo De Hornos","code":"12201","gse":"C3","quintil":"Q3","nse_score":742.9,"educ":11.8,"educ_score":586.7,"hacin":1.067,"hacin_class":"Hacinamiento Leve","hacin_score":836.9,"auto_score":214.3,"n_per":16,"n_hog":7,"source_year":2024},"geometry":{"type":"MultiPolygon","coordinates":[[[[-67.6005033409999,-54.9346410251134],[-67.6002627319999,-54.9350869771133],[-67.6010838509999,-54.9352071731133],[-67.6031422279999,-54.9352273801134],[-67.6032672389999,-54.9348636531133],[-67.6005033409999,-54.9346410251134]]],[[[-67.6032769239999,-54.9351765881134],[-67.6056562459999,-54.9352328621134],[-67.6056999709999,-54.9344097811134],[-67.6034985999999,-54.9344294641134],[-67.6032769239999,-54.9351765881134]]]]}},{"type":"Feature","properties":{"id":"12201011001023","commune":"Cabo De Hornos","code":"12201","gse":"ABC1","quintil":"Q5","nse_score":829.2,"educ":15.4,"educ_score":826.7,"hacin":1.263,"hacin_class":"Hacinamiento Leve","hacin_score":795.1,"auto_score":350.0,"n_per":24,"n_hog":11,"source_year":2024},"geometry":{"type":"MultiPolygon","coordinates":[[[[-67.6109623679999,-54.9347341691133],[-67.6110083989999,-54.9344313731133],[-67.6103999009999,-54.9343992341134],[-67.6103634669999,-54.9346960081134],[-67.6109623679999,-54.9347341691133]]],[[[-67.6124199399999,-54.9341981271133],[-67.6124611769999,-54.9347652941133],[-67.6128864359999,-54.9350108161133],[-67.6110766309999,-54.9347941031134],[-67.6108584309999,-54.9358018631134],[-67.6105700719999,-54.9359379991133],[-67.6096437249999,-54.9360206321134],[-67.6093030079999,-54.9362153631133],[-67.6107890059999,-54.9361954121134],[-67.6137630869999,-54.9358717801134],[-67.6140894289999,-54.9356293851133],[-67.61413583,-54.9352466281134],[-67.6131762209999,-54.9342290771134],[-67.6126323499999,-54.9341061881133],[-67.6124199399999,-54.9341981271133]]]]}},{"type":"Feature","properties":{"id":"12201011001040","commune":"Cabo De Hornos","code":"12201","gse":"D","quintil":"Q2","nse_score":711.2,"educ":12.8,"educ_score":653.3,"hacin":1.25,"hacin_class":"Hacinamiento Leve","hacin_score":797.9,"auto_score":342.1,"n_per":55,"n_hog":19,"source_year":2024},"geometry":{"type":"MultiPolygon","coordinates":[[[[-67.5995002509999,-54.9370598231134],[-67.5994453689999,-54.9374087931134],[-67.5995451019999,-54.9374625811134],[-67.5998392409999,-54.9374659701134],[-67.5998889499999,-54.9372834421134],[-67.6012278669999,-54.9373177611133],[-67.5999025219999,-54.9373009101134],[-67.5998836469999,-54.9374606791134],[-67.5998456329999,-54.9374840561134],[-67.5996094449999,-54.9374885461134],[-67.6003026949999,-54.9377576551134],[-67.6015554779999,-54.9377812351134],[-67.602396816,-54.9381929701134],[-67.6026932329999,-54.9371654791134],[-67.5995002509999,-54.9370598231134]]],[[[-67.5962480809999,-54.9369318961134],[-67.5993374459999,-54.9373506891133],[-67.5998509469999,-54.9355166991134],[-67.5962437819999,-54.9356129361133],[-67.5962480809999,-54.9369318961134]]]]}}]}