{"type":"FeatureCollection","features":[{"type":"Feature","properties":{"id":"13403011001001","commune":"Calera De Tango","code":"13403","gse":"E","quintil":"Q1","nse_score":641.7,"educ":10.4,"educ_score":493.3,"hacin":1.442,"hacin_class":"Hacinamiento Leve","hacin_score":757.0,"auto_score":222.2,"n_per":261,"n_hog":82,"source_year":2024},"geometry":{"type":"Polygon","coordinates":[[[-70.7813488539999,-33.58981316913],[-70.7806047129999,-33.58976988013],[-70.781322396,-33.5910757851299],[-70.7814690539999,-33.5911442831299],[-70.7899225909999,-33.5903180311299],[-70.7898834669999,-33.58998126113],[-70.7881264149999,-33.59006077913],[-70.7823607999999,-33.58990772013],[-70.7824206129999,-33.58919141713],[-70.7813488539999,-33.58981316913]]]}},{"type":"Feature","properties":{"id":"13403011001002","commune":"Calera De Tango","code":"13403","gse":"E","quintil":"Q1","nse_score":648.4,"educ":11.0,"educ_score":533.3,"hacin":1.396,"hacin_class":"Hacinamiento Leve","hacin_score":766.8,"auto_score":262.5,"n_per":141,"n_hog":41,"source_year":2024},"geometry":{"type":"Polygon","coordinates":[[[-70.7838870159999,-33.59141880313],[-70.7837778459999,-33.5909672041299],[-70.7814579199999,-33.5912368761299],[-70.7819287619999,-33.59228815413],[-70.782716364,-33.59210636913],[-70.7819498699999,-33.5923295121299],[-70.7825512149999,-33.5935483531299],[-70.7835959709999,-33.5929467391299],[-70.7830742239999,-33.5918865541299],[-70.7831025449999,-33.59172994413],[-70.7848835879999,-33.5914986261299],[-70.7847217419999,-33.5908756941299],[-70.7838141549999,-33.5909630491299],[-70.7838870159999,-33.59141880313]]]}},{"type":"Feature","properties":{"id":"13403011001003","commune":"Calera De Tango","code":"13403","gse":"E","quintil":"Q1","nse_score":558.9,"educ":8.9,"educ_score":393.3,"hacin":1.059,"hacin_class":"Hacinamiento Leve","hacin_score":838.5,"auto_score":0.0,"n_per":18,"n_hog":7,"source_year":2024},"geometry":{"type":"Polygon","coordinates":[[[-70.7836418049999,-33.5957464131299],[-70.7844034239999,-33.5956424541299],[-70.7839532169999,-33.5943188221299],[-70.7840451789999,-33.5941732111299],[-70.7835175809999,-33.5930307001299],[-70.7825804199999,-33.5936008661299],[-70.7836418049999,-33.5957464131299]]]}},{"type":"Feature","properties":{"id":"13403011002001","commune":"Calera De Tango","code":"13403","gse":"E","quintil":"Q1","nse_score":627.4,"educ":11.1,"educ_score":540.0,"hacin":1.375,"hacin_class":"Hacinamiento Leve","hacin_score":771.3,"auto_score":150.0,"n_per":22,"n_hog":9,"source_year":2024},"geometry":{"type":"Polygon","coordinates":[[[-70.7858557679999,-33.5953469971299],[-70.7836638929999,-33.5957898401299],[-70.7839887219999,-33.5964284611299],[-70.7849431269999,-33.5957608511299],[-70.7854674449999,-33.5956269801299],[-70.7849796109999,-33.5957798151299],[-70.7851815369999,-33.5962530911299],[-70.7860201819999,-33.5958586021299],[-70.7858557679999,-33.5953469971299]]]}},{"type":"Feature","properties":{"id":"13403011002002","commune":"Calera De Tango","code":"13403","gse":"E","quintil":"Q1","nse_score":653.8,"educ":10.7,"educ_score":513.3,"hacin":1.389,"hacin_class":"Hacinamiento Leve","hacin_score":768.3,"auto_score":217.9,"n_per":125,"n_hog":38,"source_year":2024},"geometry":{"type":"Polygon","coordinates":[[[-70.7840017729999,-33.5964541191299],[-70.7849333409999,-33.5982227371299],[-70.7855870099999,-33.5976681771299],[-70.7849660719999,-33.5982788971298],[-70.7861852749999,-33.6006565941298],[-70.7871736359999,-33.6000589641298],[-70.7866885749999,-33.5990824351299],[-70.7870838989999,-33.5984904641299],[-70.7869655509999,-33.5980029741299],[-70.7864478459999,-33.5976936981299],[-70.7859583799999,-33.5976803901299],[-70.7858935269999,-33.5978000831298],[-70.7849322309999,-33.5958646051299],[-70.7840017729999,-33.5964541191299]]]}},{"type":"Feature","properties":{"id":"13403011002003","commune":"Calera De Tango","code":"13403","gse":"E","quintil":"Q1","nse_score":594.6,"educ":9.6,"educ_score":440.0,"hacin":1.479,"hacin_class":"Hacinamiento Leve","hacin_score":749.2,"auto_score":193.9,"n_per":173,"n_hog":48,"source_year":2024},"geometry":{"type":"Polygon","coordinates":[[[-70.7862113699999,-33.6007079971298],[-70.7867759259999,-33.6017533611298],[-70.7875728339999,-33.6013677531298],[-70.7867984719999,-33.6018038191298],[-70.7871590799999,-33.6024811731298],[-70.7880509389999,-33.6021046861298],[-70.7871907629999,-33.6025386101298],[-70.7876205309999,-33.6033215451298],[-70.7900673849999,-33.6062774421298],[-70.7926291349999,-33.6050024621298],[-70.791475423,-33.6035575431298],[-70.792210027,-33.6030780111298],[-70.7930626199999,-33.6021160421298],[-70.7911226999999,-33.6008816561298],[-70.788273983,-33.6022741011298],[-70.7871736359999,-33.6000589641298],[-70.7862113699999,-33.6007079971298]]]}},{"type":"Feature","properties":{"id":"13403011002004","commune":"Calera De Tango","code":"13403","gse":"E","quintil":"Q1","nse_score":614.6,"educ":8.6,"educ_score":373.3,"hacin":1.575,"hacin_class":"Hacinamiento Medio","hacin_score":728.7,"auto_score":133.3,"n_per":63,"n_hog":16,"source_year":2024},"geometry":{"type":"Polygon","coordinates":[[[-70.7951073279999,-33.6046111711298],[-70.7961608979999,-33.6041306401298],[-70.7957863709999,-33.6034762131298],[-70.7947421309999,-33.6039932141298],[-70.7951073279999,-33.6046111711298]]]}},{"type":"Feature","properties":{"id":"13403011002005","commune":"Calera De Tango","code":"13403","gse":"E","quintil":"Q1","nse_score":623.1,"educ":9.9,"educ_score":460.0,"hacin":1.391,"hacin_class":"Hacinamiento Leve","hacin_score":767.8,"auto_score":188.6,"n_per":327,"n_hog":111,"source_year":2024},"geometry":{"type":"Polygon","coordinates":[[[-70.7953464529999,-33.6050523811298],[-70.7951788749999,-33.6047911951298],[-70.7940646339999,-33.6053170061298],[-70.7951626609999,-33.6047576161298],[-70.7946792059999,-33.6040249681298],[-70.7938606709999,-33.6044385821298],[-70.7941026759999,-33.6049090561298],[-70.7937939429999,-33.6044731491298],[-70.7911827809999,-33.6058017481297],[-70.7915393779999,-33.6063792211298],[-70.7912861109999,-33.6064727071298],[-70.791189631,-33.6064142261297],[-70.7914968989999,-33.6063679331298],[-70.7911314419999,-33.6058258471298],[-70.7909194619999,-33.6059373001298],[-70.7909466099999,-33.6060768991298],[-70.790841037,-33.6059785331297],[-70.7901591859999,-33.6063338281298],[-70.7916540569999,-33.6091453851297],[-70.7925921449999,-33.6088599951297],[-70.7928267589999,-33.6092081971297],[-70.7930782179999,-33.6090823071297],[-70.7917730589999,-33.6072140891298],[-70.7928063109999,-33.6067123791297],[-70.7923555049999,-33.6060102841297],[-70.7937860729999,-33.6052809141298],[-70.79404267,-33.6056923491297],[-70.7953464529999,-33.6050523811298]]]}},{"type":"Feature","properties":{"id":"13403011002006","commune":"Calera De Tango","code":"13403","gse":"D","quintil":"Q1","nse_score":669.1,"educ":11.0,"educ_score":533.3,"hacin":1.379,"hacin_class":"Hacinamiento Leve","hacin_score":770.5,"auto_score":239.1,"n_per":404,"n_hog":131,"source_year":2024},"geometry":{"type":"Polygon","coordinates":[[[-70.7993570439999,-33.6116514021297],[-70.7981980249999,-33.6096822041297],[-70.7951639029999,-33.6113896221297],[-70.7933162099999,-33.6090002221297],[-70.7928837679999,-33.6092266821297],[-70.7935380729999,-33.6101560291297],[-70.7933343279999,-33.6100557831297],[-70.7925903859999,-33.6088947391297],[-70.7916821359999,-33.6091961381297],[-70.7919813269999,-33.6097422191297],[-70.7927322029999,-33.6095030961297],[-70.7920054339999,-33.6097874091297],[-70.7924930799999,-33.6107017771297],[-70.7932184449999,-33.6103762501297],[-70.7925158399999,-33.6107443721297],[-70.7927822179999,-33.6112369601297],[-70.7932873189999,-33.6110737761297],[-70.7928002859999,-33.6112696481297],[-70.7931183469999,-33.6118460951297],[-70.7936517819999,-33.6116380651297],[-70.7935814909999,-33.6114029991297],[-70.7939390679999,-33.6119478061297],[-70.7937154079999,-33.6116606781297],[-70.7931401349999,-33.6118865291297],[-70.7945601239999,-33.6144817131296],[-70.7972710199999,-33.6128977811297],[-70.7967652739999,-33.6122729531297],[-70.7970124059999,-33.6121209621297],[-70.7975529789999,-33.6127294081297],[-70.7993570439999,-33.6116514021297]]]}},{"type":"Feature","properties":{"id":"13403011002007","commune":"Calera De Tango","code":"13403","gse":"E","quintil":"Q1","nse_score":608.5,"educ":9.3,"educ_score":420.0,"hacin":1.546,"hacin_class":"Hacinamiento Medio","hacin_score":735.0,"auto_score":150.0,"n_per":34,"n_hog":9,"source_year":2024},"geometry":{"type":"Polygon","coordinates":[[[-70.797250001,-33.6127938421297],[-70.7974732919999,-33.6127769791297],[-70.7970048619999,-33.6121751081296],[-70.7968238829999,-33.6122840371297],[-70.797250001,-33.6127938421297]]]}},{"type":"Feature","properties":{"id":"13403021001001","commune":"Calera De Tango","code":"13403","gse":"E","quintil":"Q1","nse_score":591.2,"educ":11.3,"educ_score":553.3,"hacin":1.273,"hacin_class":"Hacinamiento Leve","hacin_score":793.0,"auto_score":120.0,"n_per":98,"n_hog":29,"source_year":2024},"geometry":{"type":"Polygon","coordinates":[[[-70.7808078999999,-33.59019593813],[-70.7769650309999,-33.59149215613],[-70.7774416249999,-33.5926885401299],[-70.7785698819999,-33.5923139401299],[-70.7790893809999,-33.5946548041299],[-70.7823885269999,-33.5933399511299],[-70.7810706389999,-33.5907117541299],[-70.780524366,-33.59088094713],[-70.781049004,-33.59067094413],[-70.780875164,-33.59031796513],[-70.7804009409999,-33.59045906613],[-70.7808252209999,-33.59029433613],[-70.7808078999999,-33.59019593813]]]}},{"type":"Feature","properties":{"id":"13403021001002","commune":"Calera De Tango","code":"13403","gse":"D","quintil":"Q2","nse_score":688.1,"educ":12.0,"educ_score":600.0,"hacin":1.263,"hacin_class":"Hacinamiento Leve","hacin_score":795.1,"auto_score":214.3,"n_per":72,"n_hog":21,"source_year":2024},"geometry":{"type":"Polygon","coordinates":[[[-70.7791009989999,-33.5946817851299],[-70.7792939969999,-33.5955986341299],[-70.7831379479999,-33.5948372081299],[-70.7823812189999,-33.5933828001299],[-70.7791009989999,-33.5946817851299]]]}},{"type":"Feature","properties":{"id":"13403021001003","commune":"Calera De Tango","code":"13403","gse":"E","quintil":"Q1","nse_score":650.0,"educ":10.9,"educ_score":526.7,"hacin":1.409,"hacin_class":"Hacinamiento Leve","hacin_score":764.0,"auto_score":227.8,"n_per":272,"n_hog":79,"source_year":2024},"geometry":{"type":"Polygon","coordinates":[[[-70.7805921499999,-33.5953813291299],[-70.7812337169999,-33.5984324571299],[-70.7844700199999,-33.5975034701299],[-70.7837167119999,-33.5960088331299],[-70.7822252629999,-33.5966651851299],[-70.7819173339999,-33.5961121411299],[-70.7822323189999,-33.5966309961299],[-70.7836940559999,-33.5959642351299],[-70.7831658649999,-33.5948944191299],[-70.7805921499999,-33.5953813291299]]]}},{"type":"Feature","properties":{"id":"13403021001004","commune":"Calera De Tango","code":"13403","gse":"D","quintil":"Q1","nse_score":667.8,"educ":10.4,"educ_score":493.3,"hacin":1.37,"hacin_class":"Hacinamiento Leve","hacin_score":772.4,"auto_score":231.2,"n_per":252,"n_hog":76,"source_year":2024},"geometry":{"type":"Polygon","coordinates":[[[-70.7844700199999,-33.5975034701299],[-70.7812337169999,-33.5984324571299],[-70.7813442339999,-33.5989140821299],[-70.7775973329999,-33.5995324431298],[-70.7778721709999,-33.6007524801298],[-70.7819965889999,-33.6001793811298],[-70.7819476059999,-33.5996894291299],[-70.7813135829999,-33.5997549231298],[-70.7814436289999,-33.5996909171298],[-70.7813465249999,-33.5991874091299],[-70.7810317969999,-33.5991634451298],[-70.7823793889999,-33.5989708911299],[-70.7825007549999,-33.5989564271299],[-70.7825363899999,-33.5994940961298],[-70.7827188749999,-33.5995433181298],[-70.7820326609999,-33.5996542061299],[-70.7821607519999,-33.6001551031299],[-70.7855236229999,-33.5996705481298],[-70.7844700199999,-33.5975034701299]]]}},{"type":"Feature","properties":{"id":"13403021001005","commune":"Calera De Tango","code":"13403","gse":"E","quintil":"Q1","nse_score":639.0,"educ":10.0,"educ_score":466.7,"hacin":1.517,"hacin_class":"Hacinamiento Medio","hacin_score":741.0,"auto_score":300.0,"n_per":44,"n_hog":11,"source_year":2024},"geometry":{"type":"Polygon","coordinates":[[[-70.7821893999999,-33.5995834121299],[-70.7825023909999,-33.5995281321298],[-70.7823760889999,-33.5990199951298],[-70.782053673,-33.5990832571299],[-70.7821893999999,-33.5995834121299]]]}},{"type":"Feature","properties":{"id":"13403021001007","commune":"Calera De Tango","code":"13403","gse":"E","quintil":"Q1","nse_score":579.5,"educ":7.7,"educ_score":313.3,"hacin":1.444,"hacin_class":"Hacinamiento Leve","hacin_score":756.5,"auto_score":45.5,"n_per":26,"n_hog":11,"source_year":2024},"geometry":{"type":"Polygon","coordinates":[[[-70.7815064939999,-33.5996823461298],[-70.7818318849999,-33.5996221101298],[-70.7817145879999,-33.5991219581299],[-70.7813955539999,-33.5991663221298],[-70.7815064939999,-33.5996823461298]]]}},{"type":"Feature","properties":{"id":"13403021001008","commune":"Calera De Tango","code":"13403","gse":"E","quintil":"Q1","nse_score":621.6,"educ":10.2,"educ_score":480.0,"hacin":1.444,"hacin_class":"Hacinamiento Leve","hacin_score":756.5,"auto_score":81.1,"n_per":104,"n_hog":36,"source_year":2024},"geometry":{"type":"Polygon","coordinates":[[[-70.7826657399999,-33.6001502601299],[-70.7832793879999,-33.6022772801298],[-70.7867302239999,-33.6018099531298],[-70.7856382229999,-33.5997446871298],[-70.7855063509999,-33.5997199881299],[-70.7826657399999,-33.6001502601299]]]}},{"type":"Feature","properties":{"id":"13403021001009","commune":"Calera De Tango","code":"13403","gse":"E","quintil":"Q1","nse_score":642.7,"educ":11.2,"educ_score":546.7,"hacin":1.38,"hacin_class":"Hacinamiento Leve","hacin_score":770.2,"auto_score":234.4,"n_per":334,"n_hog":115,"source_year":2024},"geometry":{"type":"Polygon","coordinates":[[[-70.7810139459999,-33.6014279121298],[-70.7808857489999,-33.6009823511298],[-70.7809380299999,-33.6003824181298],[-70.7778995769999,-33.6008695881298],[-70.7783684149999,-33.6028984371298],[-70.7792615649999,-33.6027924381298],[-70.779186336,-33.6020314251298],[-70.7793355089999,-33.6027827171298],[-70.7804689939999,-33.6026408771298],[-70.7803508049999,-33.6018141131298],[-70.780521329,-33.6026337211298],[-70.7809427789999,-33.6025839071298],[-70.7808165099999,-33.6018393441298],[-70.7809747659999,-33.6025799241298],[-70.7822757189999,-33.6024128511298],[-70.7821129449999,-33.6014826811298],[-70.782307666,-33.6024086921298],[-70.7832254319999,-33.6022841901298],[-70.7825448309999,-33.6001608401298],[-70.7809698619999,-33.6003776531298],[-70.7810139459999,-33.6014279121298]]]}},{"type":"Feature","properties":{"id":"13403021002001","commune":"Calera De Tango","code":"13403","gse":"C2","quintil":"Q4","nse_score":783.0,"educ":12.6,"educ_score":640.0,"hacin":1.444,"hacin_class":"Hacinamiento Leve","hacin_score":756.5,"auto_score":0.0,"n_per":13,"n_hog":4,"source_year":2024},"geometry":{"type":"MultiPolygon","coordinates":[[[[-70.7725467349999,-33.6261959251295],[-70.7739152839999,-33.6258478511295],[-70.7737010499999,-33.6252183281295],[-70.7723778539999,-33.6253432691295],[-70.7725467349999,-33.6261959251295]]],[[[-70.7704132369999,-33.6249378421295],[-70.7708894519999,-33.6267733721295],[-70.772487237,-33.6262485181295],[-70.7722761789999,-33.6251734461295],[-70.7716557629999,-33.6251341231295],[-70.7716119419999,-33.6249108181295],[-70.7711570869999,-33.6249829481296],[-70.7710751629999,-33.6246381571295],[-70.7702408899999,-33.6247812511295],[-70.7704132369999,-33.6249378421295]]],[[[-70.7669513119999,-33.6264791611295],[-70.7673900019999,-33.6284078521295],[-70.7689629809999,-33.6279111021295],[-70.7690565629999,-33.6275637501295],[-70.7707046179999,-33.6266492001295],[-70.7703954629999,-33.6251564121295],[-70.7699834779999,-33.6246456371295],[-70.7696558139999,-33.6232636581295],[-70.7685440519999,-33.6234217571296],[-70.7690076109999,-33.6255195451295],[-70.7678079859999,-33.6257132641295],[-70.767959673,-33.6262984531295],[-70.7669513119999,-33.6264791611295]]]]}},{"type":"Feature","properties":{"id":"13403021003003","commune":"Calera De Tango","code":"13403","gse":"E","quintil":"Q1","nse_score":652.5,"educ":10.6,"educ_score":506.7,"hacin":1.4,"hacin_class":"Hacinamiento Leve","hacin_score":766.0,"auto_score":300.0,"n_per":14,"n_hog":4,"source_year":2024},"geometry":{"type":"Polygon","coordinates":[[[-70.789791696,-33.6080674051297],[-70.7902595769999,-33.6089153231297],[-70.7900092969999,-33.6090183711297],[-70.7905707729999,-33.6100711231297],[-70.7918022369999,-33.6095531511297],[-70.791286253,-33.6086102781298],[-70.7905031219999,-33.6088477841297],[-70.7899984679999,-33.6079956151297],[-70.789791696,-33.6080674051297]]]}},{"type":"Feature","properties":{"id":"13403021003001","commune":"Calera De Tango","code":"13403","gse":"D","quintil":"Q1","nse_score":679.0,"educ":11.9,"educ_score":593.3,"hacin":1.286,"hacin_class":"Hacinamiento Leve","hacin_score":790.3,"auto_score":204.5,"n_per":54,"n_hog":19,"source_year":2024},"geometry":{"type":"MultiPolygon","coordinates":[[[[-70.7899984679999,-33.6079956151297],[-70.7905164649999,-33.6088207181297],[-70.7912590259999,-33.6085600821297],[-70.7908130329999,-33.6077251831298],[-70.7899984679999,-33.6079956151297]]],[[[-70.7904145139999,-33.6078045791297],[-70.7907941289999,-33.6076862841297],[-70.7901683929999,-33.6065405671298],[-70.7900299369999,-33.6065542021297],[-70.7897994349999,-33.6066717511298],[-70.7904145139999,-33.6078045791297]]]]}},{"type":"Feature","properties":{"id":"13403051001001","commune":"Calera De Tango","code":"13403","gse":"D","quintil":"Q2","nse_score":686.0,"educ":11.1,"educ_score":540.0,"hacin":1.401,"hacin_class":"Hacinamiento Leve","hacin_score":765.7,"auto_score":259.7,"n_per":255,"n_hog":79,"source_year":2024},"geometry":{"type":"Polygon","coordinates":[[[-70.7845188019999,-33.6257942731295],[-70.7848913829999,-33.6256634571295],[-70.7848264439999,-33.6253997561295],[-70.7821764309999,-33.6257378811295],[-70.7820805879999,-33.6268415951295],[-70.778465605,-33.6271921361295],[-70.7787074489999,-33.6283352751295],[-70.7792899029999,-33.6283649401295],[-70.7798300659999,-33.6280497501295],[-70.7816656269999,-33.6277395221295],[-70.7824824129999,-33.6273366491294],[-70.7832361769999,-33.6267373701295],[-70.7839563249999,-33.6264373311295],[-70.7845188019999,-33.6257942731295]]]}},{"type":"Feature","properties":{"id":"13403051001002","commune":"Calera De Tango","code":"13403","gse":"C2","quintil":"Q4","nse_score":770.4,"educ":13.6,"educ_score":706.7,"hacin":1.34,"hacin_class":"Hacinamiento Leve","hacin_score":778.6,"auto_score":333.3,"n_per":63,"n_hog":22,"source_year":2024},"geometry":{"type":"Polygon","coordinates":[[[-70.7783820499999,-33.6283138861295],[-70.7786600429999,-33.6282289981295],[-70.7783611089999,-33.6272059031295],[-70.7781483069999,-33.6272473791295],[-70.7783820499999,-33.6283138861295]]]}},{"type":"Feature","properties":{"id":"13403051001003","commune":"Calera De Tango","code":"13403","gse":"C3","quintil":"Q3","nse_score":738.1,"educ":12.3,"educ_score":620.0,"hacin":1.319,"hacin_class":"Hacinamiento Leve","hacin_score":783.2,"auto_score":344.8,"n_per":91,"n_hog":29,"source_year":2024},"geometry":{"type":"Polygon","coordinates":[[[-70.7765578089999,-33.6274598881295],[-70.7767576179999,-33.6283709221295],[-70.7773439299999,-33.6283024821295],[-70.7782209459999,-33.6284843851294],[-70.7787074489999,-33.6283352751295],[-70.7783424239999,-33.6283370001295],[-70.7780656289999,-33.6272422561295],[-70.7765578089999,-33.6274598881295]]]}},{"type":"Feature","properties":{"id":"13403051001004","commune":"Calera De Tango","code":"13403","gse":"C3","quintil":"Q2","nse_score":706.6,"educ":11.5,"educ_score":566.7,"hacin":1.285,"hacin_class":"Hacinamiento Leve","hacin_score":790.4,"auto_score":236.8,"n_per":410,"n_hog":147,"source_year":2024},"geometry":{"type":"Polygon","coordinates":[[[-70.7701285759999,-33.6297464751294],[-70.7702084589999,-33.6301186061294],[-70.7700687559999,-33.6297595231295],[-70.7696557649999,-33.6298531471295],[-70.7698176929999,-33.6305238571295],[-70.7695967359999,-33.6298668281295],[-70.7692047439999,-33.6299389641295],[-70.7694632289999,-33.6309116541294],[-70.7715818659999,-33.6298289291294],[-70.7724086609999,-33.6292062141295],[-70.7749982799999,-33.6288355851295],[-70.7767059039999,-33.6283790271295],[-70.7765228259999,-33.6274991671295],[-70.7748651159999,-33.6276832211295],[-70.7750263999999,-33.6285195591295],[-70.7748148809999,-33.6276921861295],[-70.7741424379999,-33.6277883701295],[-70.7743467289999,-33.6288981421295],[-70.7741430439999,-33.6289271271295],[-70.7743325139999,-33.6288725551294],[-70.7742813949999,-33.6286349491295],[-70.7740810839999,-33.6286339461294],[-70.7742704779999,-33.6285914601295],[-70.7742158319999,-33.6283447961295],[-70.7739928269999,-33.6283672941295],[-70.7742056199999,-33.6282936321295],[-70.7741516419999,-33.6280585011295],[-70.7739402669999,-33.6280803811295],[-70.774140955,-33.6280051791295],[-70.7740857189999,-33.6277979691295],[-70.7731592729999,-33.6280438801295],[-70.7733759449999,-33.6288536361294],[-70.7731274019999,-33.6280486751295],[-70.7722984439999,-33.6281673231295],[-70.7723565109999,-33.6288443571295],[-70.7701285759999,-33.6297464751294]]]}},{"type":"Feature","properties":{"id":"13403051001008","commune":"Calera De Tango","code":"13403","gse":"C2","quintil":"Q3","nse_score":752.0,"educ":12.3,"educ_score":620.0,"hacin":1.412,"hacin_class":"Hacinamiento Leve","hacin_score":763.5,"auto_score":550.0,"n_per":72,"n_hog":20,"source_year":2024},"geometry":{"type":"Polygon","coordinates":[[[-70.7757801889999,-33.6297549421294],[-70.7762854219999,-33.6296014501295],[-70.7759469669999,-33.6287833431295],[-70.7754349969999,-33.6289357001295],[-70.7757801889999,-33.6297549421294]]]}},{"type":"Feature","properties":{"id":"13403051001010","commune":"Calera De Tango","code":"13403","gse":"C3","quintil":"Q3","nse_score":741.1,"educ":12.3,"educ_score":620.0,"hacin":1.714,"hacin_class":"Hacinamiento Medio","hacin_score":699.1,"auto_score":333.3,"n_per":48,"n_hog":12,"source_year":2024},"geometry":{"type":"Polygon","coordinates":[[[-70.7771592039999,-33.6293769081294],[-70.7779567359999,-33.6291633331295],[-70.7779010159999,-33.6288994261294],[-70.7770547189999,-33.6290986891295],[-70.7771592039999,-33.6293769081294]]]}},{"type":"Feature","properties":{"id":"13403051001011","commune":"Calera De Tango","code":"13403","gse":"C2","quintil":"Q3","nse_score":751.1,"educ":13.0,"educ_score":666.7,"hacin":1.282,"hacin_class":"Hacinamiento Leve","hacin_score":791.1,"auto_score":500.0,"n_per":50,"n_hog":15,"source_year":2024},"geometry":{"type":"Polygon","coordinates":[[[-70.7751884729999,-33.6299216991295],[-70.775689139,-33.6297650991295],[-70.7753599019999,-33.6289440481295],[-70.7748320389999,-33.6291009261294],[-70.7751884729999,-33.6299216991295]]]}},{"type":"Feature","properties":{"id":"13403051001012","commune":"Calera De Tango","code":"13403","gse":"C2","quintil":"Q3","nse_score":755.9,"educ":12.3,"educ_score":620.0,"hacin":1.6,"hacin_class":"Hacinamiento Medio","hacin_score":723.4,"auto_score":227.3,"n_per":48,"n_hog":11,"source_year":2024},"geometry":{"type":"Polygon","coordinates":[[[-70.7763765219999,-33.6295925291294],[-70.7768745049999,-33.6294474741295],[-70.7766894199999,-33.6289536321295],[-70.7761517179999,-33.6290879851295],[-70.7763765219999,-33.6295925291294]]]}},{"type":"Feature","properties":{"id":"13403051001013","commune":"Calera De Tango","code":"13403","gse":"C2","quintil":"Q4","nse_score":762.8,"educ":13.0,"educ_score":666.7,"hacin":1.579,"hacin_class":"Hacinamiento Medio","hacin_score":727.9,"auto_score":222.2,"n_per":60,"n_hog":18,"source_year":2024},"geometry":{"type":"Polygon","coordinates":[[[-70.7745992319999,-33.6300877601294],[-70.7750974659999,-33.6299316601295],[-70.7747561029999,-33.6291090781295],[-70.774242592,-33.6292622371294],[-70.7745992319999,-33.6300877601294]]]}},{"type":"Feature","properties":{"id":"13403051001014","commune":"Calera De Tango","code":"13403","gse":"C2","quintil":"Q4","nse_score":761.2,"educ":12.8,"educ_score":653.3,"hacin":1.5,"hacin_class":"Hacinamiento Medio","hacin_score":744.7,"auto_score":294.1,"n_per":63,"n_hog":16,"source_year":2024},"geometry":{"type":"Polygon","coordinates":[[[-70.774006159,-33.6302551231294],[-70.7745082189999,-33.6300977521294],[-70.7741692319999,-33.6292707861295],[-70.7736447309999,-33.6294259311295],[-70.774006159,-33.6302551231294]]]}},{"type":"Feature","properties":{"id":"13403051001015","commune":"Calera De Tango","code":"13403","gse":"C2","quintil":"Q4","nse_score":760.4,"educ":12.4,"educ_score":626.7,"hacin":1.571,"hacin_class":"Hacinamiento Medio","hacin_score":729.5,"auto_score":545.5,"n_per":44,"n_hog":11,"source_year":2024},"geometry":{"type":"Polygon","coordinates":[[[-70.77392434,-33.6302787061295],[-70.773584276,-33.6294269241294],[-70.7733034169999,-33.6295057641295],[-70.773637946,-33.6303610721294],[-70.77392434,-33.6302787061295]]]}},{"type":"Feature","properties":{"id":"13403051001016","commune":"Calera De Tango","code":"13403","gse":"C3","quintil":"Q2","nse_score":703.4,"educ":10.8,"educ_score":520.0,"hacin":1.5,"hacin_class":"Hacinamiento Medio","hacin_score":744.7,"auto_score":320.0,"n_per":81,"n_hog":25,"source_year":2024},"geometry":{"type":"Polygon","coordinates":[[[-70.7763493529999,-33.6301703971294],[-70.7772629259999,-33.6299351631294],[-70.7771001109999,-33.6294816461294],[-70.7761595889999,-33.6297204431295],[-70.7763493529999,-33.6301703971294]]]}},{"type":"Feature","properties":{"id":"13403051001017","commune":"Calera De Tango","code":"13403","gse":"D","quintil":"Q2","nse_score":688.2,"educ":10.1,"educ_score":473.3,"hacin":1.258,"hacin_class":"Hacinamiento Leve","hacin_score":796.2,"auto_score":280.0,"n_per":78,"n_hog":25,"source_year":2024},"geometry":{"type":"Polygon","coordinates":[[[-70.7787928829999,-33.6296541571295],[-70.7791580969999,-33.6306258861295],[-70.7790338609999,-33.6309066911295],[-70.7791704039999,-33.6309356101294],[-70.7789674009999,-33.6309913811294],[-70.7792515399999,-33.6317446161294],[-70.7790915859999,-33.6314827171294],[-70.7786749439999,-33.6315880401294],[-70.7787396909999,-33.6318965821294],[-70.7786233389999,-33.6316010851294],[-70.7782166929999,-33.6317038801294],[-70.7782749279999,-33.6320161611295],[-70.7779727079999,-33.6312646501294],[-70.7774655069999,-33.6314002581294],[-70.7778035669999,-33.6322732721295],[-70.7796567509999,-33.6317724601294],[-70.7787928829999,-33.6296541571295]]]}},{"type":"Feature","properties":{"id":"13403051001018","commune":"Calera De Tango","code":"13403","gse":"E","quintil":"Q1","nse_score":654.2,"educ":10.8,"educ_score":520.0,"hacin":1.429,"hacin_class":"Hacinamiento Leve","hacin_score":759.9,"auto_score":136.4,"n_per":30,"n_hog":10,"source_year":2024},"geometry":{"type":"Polygon","coordinates":[[[-70.7782734399999,-33.6298447041295],[-70.7784741139999,-33.6303595531295],[-70.7789426839999,-33.6302266441295],[-70.7787512089999,-33.6297169321295],[-70.7782734399999,-33.6298447041295]]]}},{"type":"Feature","properties":{"id":"13403051001020","commune":"Calera De Tango","code":"13403","gse":"C3","quintil":"Q3","nse_score":737.3,"educ":12.1,"educ_score":606.7,"hacin":1.307,"hacin_class":"Hacinamiento Leve","hacin_score":785.8,"auto_score":308.8,"n_per":98,"n_hog":32,"source_year":2024},"geometry":{"type":"Polygon","coordinates":[[[-70.7743187239999,-33.6307706141294],[-70.7759783669999,-33.6303193181294],[-70.7758114439999,-33.6298370101295],[-70.7741208769999,-33.6302903711295],[-70.7743187239999,-33.6307706141294]]]}},{"type":"Feature","properties":{"id":"13403051001021","commune":"Calera De Tango","code":"13403","gse":"D","quintil":"Q2","nse_score":687.0,"educ":9.0,"educ_score":400.0,"hacin":1.323,"hacin_class":"Hacinamiento Leve","hacin_score":782.2,"auto_score":269.2,"n_per":45,"n_hog":13,"source_year":2024},"geometry":{"type":"Polygon","coordinates":[[[-70.7775661189999,-33.6304138181295],[-70.7783189719999,-33.6302134941294],[-70.7782005589999,-33.6298668921294],[-70.7774276749999,-33.6300603981295],[-70.7775661189999,-33.6304138181295]]]}},{"type":"Feature","properties":{"id":"13403051001022","commune":"Calera De Tango","code":"13403","gse":"C3","quintil":"Q3","nse_score":748.8,"educ":12.1,"educ_score":606.7,"hacin":1.375,"hacin_class":"Hacinamiento Leve","hacin_score":771.3,"auto_score":266.9,"n_per":572,"n_hog":180,"source_year":2024},"geometry":{"type":"Polygon","coordinates":[[[-70.7668220569999,-33.6302892141295],[-70.7669835749999,-33.6311942961294],[-70.7671924759999,-33.6311532411294],[-70.7671525359999,-33.6309875371295],[-70.7675580929999,-33.6309136361294],[-70.7676757089999,-33.6312650531294],[-70.7675317999999,-33.6313053431294],[-70.767636277,-33.6312475691294],[-70.7675351769999,-33.6309454961294],[-70.7671905259999,-33.6310082991294],[-70.7672303659999,-33.6311735811294],[-70.766957455,-33.6312272161294],[-70.7667589669999,-33.6302873531294],[-70.7662099749999,-33.6303904951294],[-70.7663281989999,-33.6312600151294],[-70.7665377779999,-33.6315244881295],[-70.7668194609999,-33.6314978281295],[-70.7665358349999,-33.6315676581294],[-70.7665688289999,-33.6317886271294],[-70.7669426689999,-33.6318139451294],[-70.766575041,-33.6318658201294],[-70.7665579669999,-33.6321936041294],[-70.7672951709999,-33.6320295711294],[-70.7694632289999,-33.6309116541294],[-70.7691593389999,-33.6299473201295],[-70.7684012689999,-33.6301063121295],[-70.7686443149999,-33.6312167121295],[-70.7680542499999,-33.6315249041294],[-70.7672896079999,-33.6316992391294],[-70.7672126019999,-33.6319192011294],[-70.7672364439999,-33.6316931451294],[-70.7680181269999,-33.6314769951294],[-70.7685990689999,-33.6311233041294],[-70.7685418479999,-33.6309334681295],[-70.7680339299999,-33.6310422921295],[-70.7685301999999,-33.6309000661294],[-70.7684631779999,-33.6306789151294],[-70.7679373669999,-33.6307799021294],[-70.7684385939999,-33.6306454931294],[-70.7683838979999,-33.6304077241295],[-70.7678434379999,-33.6305250501295],[-70.768366237,-33.6303810521295],[-70.7682812709999,-33.6301319261294],[-70.7668220569999,-33.6302892141295]]]}},{"type":"Feature","properties":{"id":"13403051001023","commune":"Calera De Tango","code":"13403","gse":"C2","quintil":"Q3","nse_score":758.5,"educ":12.7,"educ_score":646.7,"hacin":1.452,"hacin_class":"Hacinamiento Leve","hacin_score":755.0,"auto_score":400.0,"n_per":45,"n_hog":15,"source_year":2024},"geometry":{"type":"Polygon","coordinates":[[[-70.7765497929999,-33.6306843411295],[-70.7774603749999,-33.6304422271295],[-70.7773016289999,-33.6299948331295],[-70.776352744,-33.6302201611295],[-70.7765497929999,-33.6306843411295]]]}},{"type":"Feature","properties":{"id":"13403051001024","commune":"Calera De Tango","code":"13403","gse":"D","quintil":"Q1","nse_score":673.2,"educ":9.6,"educ_score":440.0,"hacin":1.258,"hacin_class":"Hacinamiento Leve","hacin_score":796.2,"auto_score":291.7,"n_per":39,"n_hog":12,"source_year":2024},"geometry":{"type":"Polygon","coordinates":[[[-70.7777224449999,-33.6308120191295],[-70.7784727179999,-33.6306075331294],[-70.7783585299999,-33.6302721481295],[-70.7775853349999,-33.6304616541294],[-70.7777224449999,-33.6308120191295]]]}},{"type":"Feature","properties":{"id":"13403051001025","commune":"Calera De Tango","code":"13403","gse":"C2","quintil":"Q4","nse_score":801.2,"educ":13.5,"educ_score":700.0,"hacin":1.25,"hacin_class":"Hacinamiento Leve","hacin_score":797.9,"auto_score":227.3,"n_per":30,"n_hog":11,"source_year":2024},"geometry":{"type":"Polygon","coordinates":[[[-70.7789590349999,-33.6309272481294],[-70.7791033699999,-33.6306473011295],[-70.778965652,-33.6302867731295],[-70.7784975039999,-33.6304195621294],[-70.7787208889999,-33.6309926741294],[-70.7789590349999,-33.6309272481294]]]}},{"type":"Feature","properties":{"id":"13403051001028","commune":"Calera De Tango","code":"13403","gse":"C3","quintil":"Q3","nse_score":741.4,"educ":11.8,"educ_score":586.7,"hacin":1.386,"hacin_class":"Hacinamiento Leve","hacin_score":768.9,"auto_score":260.0,"n_per":158,"n_hog":51,"source_year":2024},"geometry":{"type":"Polygon","coordinates":[[[-70.7654018849999,-33.6313586091295],[-70.7659230529999,-33.6312857811294],[-70.765902379,-33.6309695931294],[-70.7659824469999,-33.6312744231294],[-70.76628919,-33.6312552651294],[-70.7661609979999,-33.6304046311294],[-70.7648230869999,-33.6307752511294],[-70.7648934339999,-33.6314175761294],[-70.7653516609999,-33.6313687241294],[-70.76536318,-33.6311892401294],[-70.7654018849999,-33.6313586091295]]]}},{"type":"Feature","properties":{"id":"13403051001029","commune":"Calera De Tango","code":"13403","gse":"C3","quintil":"Q3","nse_score":721.5,"educ":11.9,"educ_score":593.3,"hacin":1.562,"hacin_class":"Hacinamiento Medio","hacin_score":731.4,"auto_score":352.9,"n_per":50,"n_hog":16,"source_year":2024},"geometry":{"type":"Polygon","coordinates":[[[-70.7767050329999,-33.6310830961294],[-70.7776154249999,-33.6308419581295],[-70.777501674,-33.6305025021295],[-70.7765554759999,-33.6307319591294],[-70.7767050329999,-33.6310830961294]]]}},{"type":"Feature","properties":{"id":"13403051001030","commune":"Calera De Tango","code":"13403","gse":"C2","quintil":"Q4","nse_score":783.2,"educ":13.0,"educ_score":666.7,"hacin":1.4,"hacin_class":"Hacinamiento Leve","hacin_score":766.0,"auto_score":400.0,"n_per":42,"n_hog":15,"source_year":2024},"geometry":{"type":"Polygon","coordinates":[[[-70.7752373399999,-33.6313642621294],[-70.7757364959999,-33.6312126671294],[-70.7754489469999,-33.6305163971295],[-70.7749290689999,-33.6306666561295],[-70.7752373399999,-33.6313642621294]]]}},{"type":"Feature","properties":{"id":"13403051001031","commune":"Calera De Tango","code":"13403","gse":"D","quintil":"Q2","nse_score":694.9,"educ":9.8,"educ_score":453.3,"hacin":1.172,"hacin_class":"Hacinamiento Leve","hacin_score":814.4,"auto_score":115.4,"n_per":34,"n_hog":13,"source_year":2024},"geometry":{"type":"Polygon","coordinates":[[[-70.7778825509999,-33.6312198381294],[-70.7786314409999,-33.6310146581294],[-70.778512126,-33.6306662631295],[-70.7777415409999,-33.6308599581294],[-70.7778825509999,-33.6312198381294]]]}},{"type":"Feature","properties":{"id":"13403051001032","commune":"Calera De Tango","code":"13403","gse":"C3","quintil":"Q3","nse_score":745.5,"educ":12.9,"educ_score":660.0,"hacin":1.46,"hacin_class":"Hacinamiento Leve","hacin_score":753.3,"auto_score":500.0,"n_per":54,"n_hog":18,"source_year":2024},"geometry":{"type":"Polygon","coordinates":[[[-70.7746151469999,-33.6315356371294],[-70.7751454469999,-33.6313770681294],[-70.7748578779999,-33.6306773271294],[-70.7743145339999,-33.6308315391294],[-70.7746151469999,-33.6315356371294]]]}},{"type":"Feature","properties":{"id":"13403051001033","commune":"Calera De Tango","code":"13403","gse":"D","quintil":"Q1","nse_score":663.0,"educ":9.1,"educ_score":406.7,"hacin":1.354,"hacin_class":"Hacinamiento Leve","hacin_score":775.7,"auto_score":132.4,"n_per":107,"n_hog":38,"source_year":2024},"geometry":{"type":"Polygon","coordinates":[[[-70.7631170439999,-33.6315279601294],[-70.7648009439999,-33.6313649701294],[-70.7647504759999,-33.6308357151294],[-70.7630089019999,-33.6311780791294],[-70.7631170439999,-33.6315279601294]]]}},{"type":"Feature","properties":{"id":"13403051001034","commune":"Calera De Tango","code":"13403","gse":"C3","quintil":"Q2","nse_score":702.6,"educ":10.8,"educ_score":520.0,"hacin":1.306,"hacin_class":"Hacinamiento Leve","hacin_score":786.1,"auto_score":264.7,"n_per":47,"n_hog":17,"source_year":2024},"geometry":{"type":"Polygon","coordinates":[[[-70.7768648249999,-33.6314933061294],[-70.7777756649999,-33.6312499681295],[-70.7776581539999,-33.6309010901294],[-70.7767107259999,-33.6311307131295],[-70.7768648249999,-33.6314933061294]]]}},{"type":"Feature","properties":{"id":"13403051001035","commune":"Calera De Tango","code":"13403","gse":"C3","quintil":"Q3","nse_score":744.6,"educ":11.7,"educ_score":580.0,"hacin":1.422,"hacin_class":"Hacinamiento Leve","hacin_score":761.2,"auto_score":342.1,"n_per":64,"n_hog":19,"source_year":2024},"geometry":{"type":"Polygon","coordinates":[[[-70.7782194869999,-33.6316344171294],[-70.7790392899999,-33.6314273721294],[-70.7789006379999,-33.6310292261294],[-70.7780623909999,-33.6312426381294],[-70.7782194869999,-33.6316344171294]]]}},{"type":"Feature","properties":{"id":"13403051001036","commune":"Calera De Tango","code":"13403","gse":"C2","quintil":"Q3","nse_score":755.7,"educ":12.5,"educ_score":633.3,"hacin":1.5,"hacin_class":"Hacinamiento Medio","hacin_score":744.7,"auto_score":342.1,"n_per":123,"n_hog":38,"source_year":2024},"geometry":{"type":"Polygon","coordinates":[[[-70.7748129479999,-33.6320468481295],[-70.7764760719999,-33.6315960161294],[-70.7763215369999,-33.6311393191294],[-70.7746230149999,-33.6315816311294],[-70.7748129479999,-33.6320468481295]]]}},{"type":"Feature","properties":{"id":"13403051001037","commune":"Calera De Tango","code":"13403","gse":"C2","quintil":"Q4","nse_score":767.2,"educ":12.8,"educ_score":653.3,"hacin":1.229,"hacin_class":"Hacinamiento Leve","hacin_score":802.3,"auto_score":369.6,"n_per":59,"n_hog":24,"source_year":2024},"geometry":{"type":"Polygon","coordinates":[[[-70.7662511819999,-33.6321500891294],[-70.7665315069999,-33.6319987331294],[-70.7664306309999,-33.6314352101294],[-70.7661292299999,-33.6313145301294],[-70.7662511819999,-33.6321500891294]]]}},{"type":"Feature","properties":{"id":"13403051001038","commune":"Calera De Tango","code":"13403","gse":"C2","quintil":"Q4","nse_score":776.5,"educ":12.8,"educ_score":653.3,"hacin":1.349,"hacin_class":"Hacinamiento Leve","hacin_score":776.9,"auto_score":375.0,"n_per":89,"n_hog":28,"source_year":2024},"geometry":{"type":"Polygon","coordinates":[[[-70.7659191749999,-33.6322065201295],[-70.7661962759999,-33.6321378881294],[-70.7660807169999,-33.6313197311295],[-70.7657714219999,-33.6313773541294],[-70.7659191749999,-33.6322065201295]]]}},{"type":"Feature","properties":{"id":"13403051001039","commune":"Calera De Tango","code":"13403","gse":"C2","quintil":"Q4","nse_score":768.6,"educ":13.1,"educ_score":673.3,"hacin":1.414,"hacin_class":"Hacinamiento Leve","hacin_score":763.0,"auto_score":240.7,"n_per":82,"n_hog":26,"source_year":2024},"geometry":{"type":"Polygon","coordinates":[[[-70.7657195309999,-33.6313649301295],[-70.7654279399999,-33.6314502541295],[-70.7656145119999,-33.6322461151294],[-70.7658529589999,-33.6322031211294],[-70.7657195309999,-33.6313649301295]]]}},{"type":"Feature","properties":{"id":"13403051001040","commune":"Calera De Tango","code":"13403","gse":"C3","quintil":"Q3","nse_score":723.0,"educ":11.2,"educ_score":546.7,"hacin":1.5,"hacin_class":"Hacinamiento Medio","hacin_score":744.7,"auto_score":285.7,"n_per":72,"n_hog":23,"source_year":2024},"geometry":{"type":"Polygon","coordinates":[[[-70.7768677599999,-33.6315587371294],[-70.7772029639999,-33.6324355841294],[-70.7777522849999,-33.6322871331294],[-70.7774141319999,-33.6314138791294],[-70.7768677599999,-33.6315587371294]]]}},{"type":"Feature","properties":{"id":"13403051001041","commune":"Calera De Tango","code":"13403","gse":"E","quintil":"Q1","nse_score":619.9,"educ":9.2,"educ_score":413.3,"hacin":1.422,"hacin_class":"Hacinamiento Leve","hacin_score":761.3,"auto_score":154.8,"n_per":118,"n_hog":40,"source_year":2024},"geometry":{"type":"Polygon","coordinates":[[[-70.7632817649999,-33.6320385611294],[-70.7648564759999,-33.6319046141294],[-70.7648288019999,-33.6314570051295],[-70.7631019929999,-33.6315829131294],[-70.7632817649999,-33.6320385611294]]]}},{"type":"Feature","properties":{"id":"13403051001042","commune":"Calera De Tango","code":"13403","gse":"D","quintil":"Q2","nse_score":687.2,"educ":10.8,"educ_score":520.0,"hacin":1.37,"hacin_class":"Hacinamiento Leve","hacin_score":772.3,"auto_score":288.1,"n_per":174,"n_hog":58,"source_year":2024},"geometry":{"type":"Polygon","coordinates":[[[-70.7623983209999,-33.6327185471294],[-70.7624445729999,-33.6332276401294],[-70.7638220469999,-33.6324306851294],[-70.7654251179999,-33.6323737161294],[-70.7665579669999,-33.6321936041294],[-70.7665517489999,-33.6321402401294],[-70.7655398379999,-33.6322794651294],[-70.76535544,-33.6314421811294],[-70.7649284439999,-33.6314744291294],[-70.7649891019999,-33.6321807391294],[-70.7648675229999,-33.6319546851294],[-70.7632700439999,-33.6320952521294],[-70.7633388089999,-33.6326075641294],[-70.7623983209999,-33.6327185471294]]]}},{"type":"Feature","properties":{"id":"13403051001043","commune":"Calera De Tango","code":"13403","gse":"C3","quintil":"Q3","nse_score":745.8,"educ":12.0,"educ_score":600.0,"hacin":1.49,"hacin_class":"Hacinamiento Leve","hacin_score":746.8,"auto_score":409.1,"n_per":76,"n_hog":23,"source_year":2024},"geometry":{"type":"Polygon","coordinates":[[[-70.7766166889999,-33.6325939451294],[-70.7771516799999,-33.6324494441294],[-70.7768163849999,-33.6315723581294],[-70.7762740699999,-33.6317177121294],[-70.7766166889999,-33.6325939451294]]]}},{"type":"Feature","properties":{"id":"13403051001044","commune":"Calera De Tango","code":"13403","gse":"C3","quintil":"Q2","nse_score":703.4,"educ":11.2,"educ_score":546.7,"hacin":1.537,"hacin_class":"Hacinamiento Medio","hacin_score":736.9,"auto_score":363.6,"n_per":63,"n_hog":22,"source_year":2024},"geometry":{"type":"Polygon","coordinates":[[[-70.7760162259999,-33.6327562391294],[-70.7765654319999,-33.6326078761294],[-70.7762227929999,-33.6317315911295],[-70.7756749399999,-33.6318798791294],[-70.7760162259999,-33.6327562391294]]]}},{"type":"Feature","properties":{"id":"13403051001045","commune":"Calera De Tango","code":"13403","gse":"C3","quintil":"Q3","nse_score":727.8,"educ":11.2,"educ_score":546.7,"hacin":1.511,"hacin_class":"Hacinamiento Medio","hacin_score":742.4,"auto_score":272.7,"n_per":71,"n_hog":23,"source_year":2024},"geometry":{"type":"Polygon","coordinates":[[[-70.7754268259999,-33.6329154291294],[-70.7759649619999,-33.6327701511294],[-70.7756236629999,-33.6318937581294],[-70.7750814099999,-33.6320405271294],[-70.7754268259999,-33.6329154291294]]]}},{"type":"Feature","properties":{"id":"13403051001046","commune":"Calera De Tango","code":"13403","gse":"C2","quintil":"Q3","nse_score":751.7,"educ":12.5,"educ_score":633.3,"hacin":1.5,"hacin_class":"Hacinamiento Medio","hacin_score":744.7,"auto_score":325.0,"n_per":72,"n_hog":21,"source_year":2024},"geometry":{"type":"Polygon","coordinates":[[[-70.7744926079999,-33.6321998921294],[-70.7748301149999,-33.6330768421294],[-70.7753755909999,-33.6329294181294],[-70.7750301319999,-33.6320544061294],[-70.7744926079999,-33.6321998921294]]]}},{"type":"Feature","properties":{"id":"13403051001047","commune":"Calera De Tango","code":"13403","gse":"C3","quintil":"Q3","nse_score":728.0,"educ":11.4,"educ_score":560.0,"hacin":1.357,"hacin_class":"Hacinamiento Leve","hacin_score":775.1,"auto_score":250.0,"n_per":95,"n_hog":30,"source_year":2024},"geometry":{"type":"Polygon","coordinates":[[[-70.7618207289999,-33.6327091951294],[-70.7632582859999,-33.6325761581294],[-70.76327914,-33.6325520541294],[-70.7631415199999,-33.6321153011294],[-70.761786475,-33.6322288541294],[-70.7618207289999,-33.6327091951294]]]}},{"type":"Feature","properties":{"id":"13403051001049","commune":"Calera De Tango","code":"13403","gse":"D","quintil":"Q1","nse_score":668.1,"educ":9.5,"educ_score":433.3,"hacin":1.407,"hacin_class":"Hacinamiento Leve","hacin_score":764.5,"auto_score":173.1,"n_per":83,"n_hog":26,"source_year":2024},"geometry":{"type":"Polygon","coordinates":[[[-70.7608161619999,-33.6327917721294],[-70.761729397,-33.6327240241294],[-70.7616887539999,-33.6322634331294],[-70.7607572859999,-33.6323461391294],[-70.7608161619999,-33.6327917721294]]]}},{"type":"Feature","properties":{"id":"13403051001050","commune":"Calera De Tango","code":"13403","gse":"E","quintil":"Q1","nse_score":655.9,"educ":9.7,"educ_score":446.7,"hacin":1.463,"hacin_class":"Hacinamiento Leve","hacin_score":752.5,"auto_score":242.4,"n_per":120,"n_hog":39,"source_year":2024},"geometry":{"type":"Polygon","coordinates":[[[-70.7592098099999,-33.6324017161294],[-70.7593246569999,-33.6328964211294],[-70.7607284359999,-33.6327824711294],[-70.7606602929999,-33.6323529311294],[-70.7592098099999,-33.6324017161294]]]}},{"type":"Feature","properties":{"id":"13403051001051","commune":"Calera De Tango","code":"13403","gse":"E","quintil":"Q1","nse_score":637.8,"educ":9.8,"educ_score":453.3,"hacin":1.206,"hacin_class":"Hacinamiento Leve","hacin_score":807.3,"auto_score":392.9,"n_per":41,"n_hog":14,"source_year":2024},"geometry":{"type":"Polygon","coordinates":[[[-70.7624445729999,-33.6332276401294],[-70.7623558139999,-33.6327285961294],[-70.7618317519999,-33.6327687361294],[-70.7618438019999,-33.6334556301294],[-70.7610446499999,-33.6339909511294],[-70.7596873419999,-33.6342280581294],[-70.759665863,-33.6344141301294],[-70.7609766699999,-33.6341203321294],[-70.7624445729999,-33.6332276401294]]]}},{"type":"Feature","properties":{"id":"13403051001052","commune":"Calera De Tango","code":"13403","gse":"D","quintil":"Q2","nse_score":684.6,"educ":10.3,"educ_score":486.7,"hacin":1.448,"hacin_class":"Hacinamiento Leve","hacin_score":755.8,"auto_score":226.3,"n_per":346,"n_hog":96,"source_year":2024},"geometry":{"type":"Polygon","coordinates":[[[-70.7618101009999,-33.6332117071294],[-70.7617263819999,-33.6327770911294],[-70.7593143579999,-33.6329890001294],[-70.7596612599999,-33.6341807251294],[-70.7600129449999,-33.6341075441294],[-70.7597765379999,-33.6332655811294],[-70.7598549859999,-33.6333486911294],[-70.7618101009999,-33.6332117071294]]]}},{"type":"Feature","properties":{"id":"13403051001053","commune":"Calera De Tango","code":"13403","gse":"E","quintil":"Q1","nse_score":641.3,"educ":10.0,"educ_score":466.7,"hacin":1.577,"hacin_class":"Hacinamiento Medio","hacin_score":728.3,"auto_score":319.4,"n_per":123,"n_hog":33,"source_year":2024},"geometry":{"type":"Polygon","coordinates":[[[-70.7618103329999,-33.6332647011294],[-70.760736172,-33.6333214451294],[-70.7609070619999,-33.6339631521294],[-70.7617953839999,-33.6334285451294],[-70.7618103329999,-33.6332647011294]]]}},{"type":"Feature","properties":{"id":"13403051001054","commune":"Calera De Tango","code":"13403","gse":"D","quintil":"Q1","nse_score":682.8,"educ":10.8,"educ_score":520.0,"hacin":1.478,"hacin_class":"Hacinamiento Leve","hacin_score":749.4,"auto_score":339.3,"n_per":99,"n_hog":25,"source_year":2024},"geometry":{"type":"Polygon","coordinates":[[[-70.7604966549999,-33.6340484441294],[-70.7608589149999,-33.6339713021294],[-70.7606688569999,-33.6333245681294],[-70.7602892399999,-33.6333652331294],[-70.7604966549999,-33.6340484441294]]]}},{"type":"Feature","properties":{"id":"13403051001055","commune":"Calera De Tango","code":"13403","gse":"C3","quintil":"Q2","nse_score":707.2,"educ":11.0,"educ_score":533.3,"hacin":1.423,"hacin_class":"Hacinamiento Leve","hacin_score":761.2,"auto_score":344.8,"n_per":101,"n_hog":30,"source_year":2024},"geometry":{"type":"Polygon","coordinates":[[[-70.7604372779999,-33.6340609621294],[-70.7602565649999,-33.6333753471294],[-70.7598650739999,-33.6333782161294],[-70.7600513359999,-33.6340975291294],[-70.7604372779999,-33.6340609621294]]]}},{"type":"Feature","properties":{"id":"13403051002001","commune":"Calera De Tango","code":"13403","gse":"C3","quintil":"Q2","nse_score":702.6,"educ":11.3,"educ_score":553.3,"hacin":1.527,"hacin_class":"Hacinamiento Medio","hacin_score":739.0,"auto_score":197.1,"n_per":316,"n_hog":105,"source_year":2024},"geometry":{"type":"Polygon","coordinates":[[[-70.774691291,-33.6268922421295],[-70.7743402109999,-33.6258468891295],[-70.7739542729999,-33.6259189631295],[-70.7742568059999,-33.6269469931295],[-70.7739261299999,-33.6259344421295],[-70.7733574389999,-33.6260836381295],[-70.7738640359999,-33.6277640491295],[-70.7747031449999,-33.6276488441295],[-70.7746323659999,-33.6271885101295],[-70.7747892179999,-33.6276355241295],[-70.7765668119999,-33.6273785981295],[-70.7759941259999,-33.6255717671295],[-70.7743698089999,-33.6258236501295],[-70.774691291,-33.6268922421295]]]}},{"type":"Feature","properties":{"id":"13403051002002","commune":"Calera De Tango","code":"13403","gse":"C3","quintil":"Q2","nse_score":715.0,"educ":11.3,"educ_score":553.3,"hacin":1.24,"hacin_class":"Hacinamiento Leve","hacin_score":800.1,"auto_score":277.8,"n_per":150,"n_hog":50,"source_year":2024},"geometry":{"type":"Polygon","coordinates":[[[-70.7760626649999,-33.6255731781295],[-70.7766264289999,-33.6273946051295],[-70.7777411709999,-33.6272323131295],[-70.7777036749999,-33.6268289311295],[-70.7773673059999,-33.6268585811295],[-70.7776912979999,-33.6267671721295],[-70.7776319539999,-33.6264126511295],[-70.7772441049999,-33.6264183011295],[-70.777625913,-33.6263657851295],[-70.777562568,-33.6260069951295],[-70.7771767479999,-33.6260411541295],[-70.7775534349999,-33.6259543081295],[-70.7775013849999,-33.6256559371295],[-70.7760626649999,-33.6255731781295]]]}},{"type":"Feature","properties":{"id":"13403051002003","commune":"Calera De Tango","code":"13403","gse":"C3","quintil":"Q3","nse_score":721.8,"educ":11.8,"educ_score":586.7,"hacin":1.418,"hacin_class":"Hacinamiento Leve","hacin_score":762.2,"auto_score":253.2,"n_per":224,"n_hog":79,"source_year":2024},"geometry":{"type":"Polygon","coordinates":[[[-70.7775644069999,-33.6256435781295],[-70.7776662879999,-33.6263473941295],[-70.7778826189999,-33.6263781001295],[-70.7776767109999,-33.6264192061295],[-70.7777369369999,-33.6267796821295],[-70.7779579119999,-33.6267897611295],[-70.7777477059999,-33.6268283501295],[-70.7778155799999,-33.6272232181295],[-70.7815948819999,-33.6268311651295],[-70.7815328919999,-33.6261631941295],[-70.7816240849999,-33.6268285101295],[-70.7820583949999,-33.6267741921295],[-70.78205793,-33.6257519441295],[-70.7807021589999,-33.6257548091295],[-70.7807258489999,-33.6265703251295],[-70.7806493889999,-33.6257546431295],[-70.7775644069999,-33.6256435781295]]]}},{"type":"Feature","properties":{"id":"13403051002004","commune":"Calera De Tango","code":"13403","gse":"C3","quintil":"Q2","nse_score":708.3,"educ":11.3,"educ_score":553.3,"hacin":1.328,"hacin_class":"Hacinamiento Leve","hacin_score":781.3,"auto_score":284.7,"n_per":409,"n_hog":132,"source_year":2024},"geometry":{"type":"Polygon","coordinates":[[[-70.7704934049999,-33.6281633021295],[-70.7708795469999,-33.6294050381295],[-70.7723367159999,-33.6287726791295],[-70.7722088579999,-33.6281709351295],[-70.7718600919999,-33.6281664381295],[-70.7717967119999,-33.6279418991295],[-70.7719309919999,-33.6278784761294],[-70.7717641259999,-33.6273021911295],[-70.7719943779999,-33.6278703891295],[-70.7723289209999,-33.6278067791295],[-70.7722068239999,-33.6272282511295],[-70.7723752619999,-33.6278018561295],[-70.772062263,-33.6278944681295],[-70.7722531359999,-33.6281297721295],[-70.7728278979999,-33.6280489941295],[-70.7727643169999,-33.6276343661295],[-70.772891737,-33.6280394211295],[-70.7737414389999,-33.6278834901295],[-70.7737588929999,-33.6276674451295],[-70.7732295449999,-33.6277171511295],[-70.7737551359999,-33.6276472081295],[-70.7736958179999,-33.6274144091295],[-70.7730846349999,-33.6275105581295],[-70.7736802409999,-33.6273697241295],[-70.7732972649999,-33.6261035291295],[-70.7722818979999,-33.6263912371295],[-70.7725190909999,-33.6271193591295],[-70.7722116109999,-33.6264112811295],[-70.7702308839999,-33.6274306121295],[-70.770578596,-33.6280184631295],[-70.7715437839999,-33.6277322091295],[-70.7715855569999,-33.6281666281295],[-70.7714013519999,-33.6278307401295],[-70.7709255879999,-33.6279728611295],[-70.7710705709999,-33.6283809651295],[-70.7708964839999,-33.6279816241294],[-70.7704934049999,-33.6281633021295]]]}},{"type":"Feature","properties":{"id":"13403051002005","commune":"Calera De Tango","code":"13403","gse":"C3","quintil":"Q3","nse_score":725.5,"educ":12.0,"educ_score":600.0,"hacin":1.403,"hacin_class":"Hacinamiento Leve","hacin_score":765.4,"auto_score":330.7,"n_per":404,"n_hog":125,"source_year":2024},"geometry":{"type":"Polygon","coordinates":[[[-70.7675578569999,-33.6284312011295],[-70.7677457419999,-33.6288438861294],[-70.7675334749999,-33.6284383501295],[-70.7672063649999,-33.6285342571295],[-70.7673745019999,-33.6289324731295],[-70.7671819909999,-33.6285414031295],[-70.7665033259999,-33.6287549851295],[-70.7670993999999,-33.6302563161294],[-70.7679858189999,-33.6301228941294],[-70.7674816179999,-33.6289877301295],[-70.7680505549999,-33.6301203451295],[-70.768442923,-33.6300187841295],[-70.7682651459999,-33.6292217201294],[-70.768578509,-33.6291736821294],[-70.7688159949999,-33.6299594311294],[-70.7690861029999,-33.6298985461295],[-70.768895718,-33.6291502961295],[-70.7702047809999,-33.6288154861295],[-70.7703737229999,-33.6293327621294],[-70.7702874679999,-33.6292055841294],[-70.7697023459999,-33.6293275851295],[-70.7698236479999,-33.6297399461294],[-70.7708795469999,-33.6294050381295],[-70.7707235149999,-33.6291381441295],[-70.7705095269999,-33.6291925261295],[-70.7705661969999,-33.6294130271295],[-70.7704891129999,-33.6291600211295],[-70.7707098899999,-33.6291039141295],[-70.7704398659999,-33.6282282511295],[-70.7705159489999,-33.6280464091295],[-70.770154337,-33.6274827481295],[-70.7692609059999,-33.6279201851295],[-70.7675578569999,-33.6284312011295]]]}},{"type":"Feature","properties":{"id":"13403051002007","commune":"Calera De Tango","code":"13403","gse":"D","quintil":"Q1","nse_score":674.2,"educ":10.9,"educ_score":526.7,"hacin":1.268,"hacin_class":"Hacinamiento Leve","hacin_score":794.0,"auto_score":300.0,"n_per":208,"n_hog":71,"source_year":2024},"geometry":{"type":"Polygon","coordinates":[[[-70.7641881519999,-33.6294269461295],[-70.7644049469999,-33.6300545101294],[-70.7641128489999,-33.6294496941295],[-70.762652209,-33.6298989401294],[-70.7629763679999,-33.6311156881295],[-70.7642901569999,-33.6308355211294],[-70.7641776229999,-33.6302704481294],[-70.7643656049999,-33.6308190231295],[-70.7647534769999,-33.6307133001295],[-70.7646828769999,-33.6303702791294],[-70.7645457279999,-33.6303373371295],[-70.7649101619999,-33.6302612561294],[-70.7647302419999,-33.6303511161294],[-70.7648165979999,-33.6307160961295],[-70.767002713,-33.6302199131295],[-70.7666877739999,-33.6294149771295],[-70.7657524379999,-33.6296463041295],[-70.7666595009999,-33.6293660531295],[-70.7664393949999,-33.6287810581295],[-70.7641881519999,-33.6294269461295]]]}},{"type":"Feature","properties":{"id":"13403051002008","commune":"Calera De Tango","code":"13403","gse":"C3","quintil":"Q2","nse_score":714.9,"educ":11.2,"educ_score":546.7,"hacin":1.444,"hacin_class":"Hacinamiento Leve","hacin_score":756.5,"auto_score":230.8,"n_per":39,"n_hog":13,"source_year":2024},"geometry":{"type":"Polygon","coordinates":[[[-70.7696246559999,-33.6289972041294],[-70.769694479,-33.6293013661295],[-70.7702922209999,-33.6291639451295],[-70.7701857589999,-33.6288447061295],[-70.7696246559999,-33.6289972041294]]]}},{"type":"Feature","properties":{"id":"13403051002009","commune":"Calera De Tango","code":"13403","gse":"D","quintil":"Q2","nse_score":687.9,"educ":11.4,"educ_score":560.0,"hacin":1.258,"hacin_class":"Hacinamiento Leve","hacin_score":796.2,"auto_score":281.2,"n_per":39,"n_hog":15,"source_year":2024},"geometry":{"type":"Polygon","coordinates":[[[-70.7696587829999,-33.6293059351295],[-70.7695670919999,-33.6290130881295],[-70.7689139309999,-33.6291816891295],[-70.7690069109999,-33.6294322251295],[-70.7696587829999,-33.6293059351295]]]}},{"type":"Feature","properties":{"id":"13403051002010","commune":"Calera De Tango","code":"13403","gse":"C1","quintil":"Q5","nse_score":822.0,"educ":14.2,"educ_score":746.7,"hacin":1.278,"hacin_class":"Hacinamiento Leve","hacin_score":792.0,"auto_score":357.1,"n_per":23,"n_hog":7,"source_year":2024},"geometry":{"type":"Polygon","coordinates":[[[-70.7685037119999,-33.6300235061294],[-70.7687585809999,-33.6299510541295],[-70.7685124429999,-33.6292007791294],[-70.768270432,-33.6292693491294],[-70.7685037119999,-33.6300235061294]]]}},{"type":"Feature","properties":{"id":"13403051002011","commune":"Calera De Tango","code":"13403","gse":"D","quintil":"Q2","nse_score":687.8,"educ":10.4,"educ_score":493.3,"hacin":1.588,"hacin_class":"Hacinamiento Medio","hacin_score":725.9,"auto_score":272.7,"n_per":27,"n_hog":11,"source_year":2024},"geometry":{"type":"Polygon","coordinates":[[[-70.7697847189999,-33.6297662881294],[-70.7696692619999,-33.6293333801294],[-70.7693411179999,-33.6293966021294],[-70.7694583939999,-33.6298177671295],[-70.7697847189999,-33.6297662881294]]]}},{"type":"Feature","properties":{"id":"13403051002012","commune":"Calera De Tango","code":"13403","gse":"C2","quintil":"Q4","nse_score":777.8,"educ":12.5,"educ_score":633.3,"hacin":1.222,"hacin_class":"Hacinamiento Leve","hacin_score":803.8,"auto_score":333.3,"n_per":33,"n_hog":12,"source_year":2024},"geometry":{"type":"Polygon","coordinates":[[[-70.7691275339999,-33.6298948971294],[-70.7694269389999,-33.6298241691295],[-70.7693008649999,-33.6294050231295],[-70.7690095229999,-33.6294622331294],[-70.7691275339999,-33.6298948971294]]]}},{"type":"Feature","properties":{"id":"13403051002013","commune":"Calera De Tango","code":"13403","gse":"D","quintil":"Q1","nse_score":670.3,"educ":10.2,"educ_score":480.0,"hacin":1.424,"hacin_class":"Hacinamiento Leve","hacin_score":760.9,"auto_score":125.0,"n_per":84,"n_hog":27,"source_year":2024},"geometry":{"type":"Polygon","coordinates":[[[-70.7625885999999,-33.6299356481295],[-70.76051738,-33.6305218281294],[-70.7606606379999,-33.6317925601294],[-70.7629900239999,-33.6315212951294],[-70.7629330249999,-33.6313129051295],[-70.7622231999999,-33.6313615211294],[-70.7621745859999,-33.6309225061294],[-70.7622704339999,-33.6313517391295],[-70.7629338439999,-33.6312560711294],[-70.7627036499999,-33.6303125751295],[-70.7622110069999,-33.6303607191294],[-70.7626753689999,-33.6302684301294],[-70.7625885999999,-33.6299356481295]]]}},{"type":"Feature","properties":{"id":"13403051002014","commune":"Calera De Tango","code":"13403","gse":"E","quintil":"Q1","nse_score":638.4,"educ":10.9,"educ_score":526.7,"hacin":1.349,"hacin_class":"Hacinamiento Leve","hacin_score":776.9,"auto_score":148.6,"n_per":89,"n_hog":33,"source_year":2024},"geometry":{"type":"Polygon","coordinates":[[[-70.7596930349999,-33.6307610831294],[-70.7597736149999,-33.6314589531294],[-70.7601734609999,-33.6314009521294],[-70.7597756789999,-33.6314733181295],[-70.7598978709999,-33.6322984081294],[-70.7606381129999,-33.6322854331294],[-70.7604556159999,-33.6305539091295],[-70.7596930349999,-33.6307610831294]]]}},{"type":"Feature","properties":{"id":"13403051002015","commune":"Calera De Tango","code":"13403","gse":"C2","quintil":"Q4","nse_score":767.5,"educ":12.3,"educ_score":620.0,"hacin":0.889,"hacin_class":"Sin Hacinamiento","hacin_score":874.7,"auto_score":285.7,"n_per":16,"n_hog":7,"source_year":2024},"geometry":{"type":"Polygon","coordinates":[[[-70.759129201,-33.6323182751294],[-70.759873953,-33.6322991091294],[-70.7596574789999,-33.6307991031295],[-70.7587760599999,-33.6309992151294],[-70.759129201,-33.6323182751294]]]}},{"type":"Feature","properties":{"id":"13403051002016","commune":"Calera De Tango","code":"13403","gse":"C3","quintil":"Q2","nse_score":710.6,"educ":12.1,"educ_score":606.7,"hacin":1.367,"hacin_class":"Hacinamiento Leve","hacin_score":772.9,"auto_score":400.0,"n_per":67,"n_hog":26,"source_year":2024},"geometry":{"type":"Polygon","coordinates":[[[-70.7556979839999,-33.6312653151294],[-70.7564162879999,-33.6324384711294],[-70.7570585809999,-33.6321578061294],[-70.7569403129999,-33.6317805591294],[-70.7571385569999,-33.6321358391294],[-70.7589541329999,-33.6320587991294],[-70.7586149029999,-33.6310154861295],[-70.7556979839999,-33.6312653151294]]]}},{"type":"Feature","properties":{"id":"13403051002017","commune":"Calera De Tango","code":"13403","gse":"E","quintil":"Q1","nse_score":622.9,"educ":9.8,"educ_score":453.3,"hacin":1.517,"hacin_class":"Hacinamiento Medio","hacin_score":741.1,"auto_score":173.1,"n_per":91,"n_hog":24,"source_year":2024},"geometry":{"type":"Polygon","coordinates":[[[-70.7617643149999,-33.6321729891295],[-70.7630957369999,-33.6320587811294],[-70.7631373939999,-33.6320133681294],[-70.763000873,-33.6316040141294],[-70.7620378549999,-33.6316722101294],[-70.7617065779999,-33.6317252671294],[-70.7617643149999,-33.6321729891295]]]}},{"type":"Feature","properties":{"id":"13403051002018","commune":"Calera De Tango","code":"13403","gse":"E","quintil":"Q1","nse_score":624.0,"educ":9.4,"educ_score":426.7,"hacin":1.388,"hacin_class":"Hacinamiento Leve","hacin_score":768.6,"auto_score":159.1,"n_per":68,"n_hog":22,"source_year":2024},"geometry":{"type":"Polygon","coordinates":[[[-70.7607584229999,-33.6322907541294],[-70.7616637749999,-33.6321802841294],[-70.7616344339999,-33.6317558731294],[-70.7606874169999,-33.6318529591294],[-70.7607584229999,-33.6322907541294]]]}},{"type":"Feature","properties":{"id":"13403051002019","commune":"Calera De Tango","code":"13403","gse":"C3","quintil":"Q3","nse_score":742.2,"educ":11.8,"educ_score":586.7,"hacin":1.387,"hacin_class":"Hacinamiento Leve","hacin_score":768.7,"auto_score":230.8,"n_per":43,"n_hog":12,"source_year":2024},"geometry":{"type":"Polygon","coordinates":[[[-70.7570846239999,-33.6322245291294],[-70.7574093149999,-33.6328234751294],[-70.7582041429999,-33.6327908021294],[-70.7580716609999,-33.6325419911294],[-70.758073609,-33.6321392281294],[-70.7570846239999,-33.6322245291294]]]}},{"type":"Feature","properties":{"id":"13403051002020","commune":"Calera De Tango","code":"13403","gse":"E","quintil":"Q1","nse_score":651.8,"educ":9.3,"educ_score":420.0,"hacin":1.552,"hacin_class":"Hacinamiento Medio","hacin_score":733.7,"auto_score":363.6,"n_per":45,"n_hog":12,"source_year":2024},"geometry":{"type":"Polygon","coordinates":[[[-70.7583281659999,-33.6328355701294],[-70.7591678229999,-33.6328020721294],[-70.7589779059999,-33.6321517051294],[-70.7581380299999,-33.6321609721294],[-70.758125618,-33.6325606121294],[-70.7583281659999,-33.6328355701294]]]}},{"type":"Feature","properties":{"id":"13403051002021","commune":"Calera De Tango","code":"13403","gse":"C3","quintil":"Q3","nse_score":730.7,"educ":12.5,"educ_score":633.3,"hacin":1.356,"hacin_class":"Hacinamiento Leve","hacin_score":775.3,"auto_score":500.0,"n_per":99,"n_hog":28,"source_year":2024},"geometry":{"type":"Polygon","coordinates":[[[-70.7569463919999,-33.6322762711294],[-70.7564162879999,-33.6324384711294],[-70.7578453159999,-33.6347724431294],[-70.7583499289999,-33.6345585621294],[-70.7578299939999,-33.6336419031294],[-70.7574483909999,-33.6337863821294],[-70.757807726,-33.6336068691294],[-70.7575558409999,-33.6332006101294],[-70.7571807979999,-33.6333502971294],[-70.7575356469999,-33.6331676021294],[-70.7569463919999,-33.6322762711294]]]}},{"type":"Feature","properties":{"id":"13403051002022","commune":"Calera De Tango","code":"13403","gse":"C3","quintil":"Q3","nse_score":723.3,"educ":10.1,"educ_score":473.3,"hacin":1.231,"hacin_class":"Hacinamiento Leve","hacin_score":802.0,"auto_score":200.0,"n_per":48,"n_hog":17,"source_year":2024},"geometry":{"type":"Polygon","coordinates":[[[-70.7580452899999,-33.6338913391294],[-70.7586406299999,-33.6335165691294],[-70.7582582739999,-33.6328691411294],[-70.7574338269999,-33.6328670001294],[-70.7580452899999,-33.6338913391294]]]}},{"type":"Feature","properties":{"id":"13403051002023","commune":"Calera De Tango","code":"13403","gse":"D","quintil":"Q1","nse_score":682.1,"educ":10.4,"educ_score":493.3,"hacin":1.235,"hacin_class":"Hacinamiento Leve","hacin_score":801.0,"auto_score":166.7,"n_per":21,"n_hog":9,"source_year":2024},"geometry":{"type":"Polygon","coordinates":[[[-70.7591791219999,-33.6328459921294],[-70.7583174409999,-33.6328860411294],[-70.7586812979999,-33.6334966011294],[-70.7592679679999,-33.6331357481294],[-70.7591791219999,-33.6328459921294]]]}},{"type":"Feature","properties":{"id":"13403051002024","commune":"Calera De Tango","code":"13403","gse":"C3","quintil":"Q3","nse_score":722.0,"educ":11.3,"educ_score":553.3,"hacin":1.333,"hacin_class":"Hacinamiento Leve","hacin_score":780.1,"auto_score":222.2,"n_per":28,"n_hog":10,"source_year":2024},"geometry":{"type":"Polygon","coordinates":[[[-70.7590914199999,-33.6341845481294],[-70.7595068829999,-33.6340324151294],[-70.7592812739999,-33.6331751481294],[-70.7587059419999,-33.6335351791294],[-70.7590914199999,-33.6341845481294]]]}},{"type":"Feature","properties":{"id":"13403051002025","commune":"Calera De Tango","code":"13403","gse":"C3","quintil":"Q3","nse_score":730.2,"educ":12.0,"educ_score":600.0,"hacin":1.08,"hacin_class":"Hacinamiento Leve","hacin_score":834.0,"auto_score":300.0,"n_per":27,"n_hog":10,"source_year":2024},"geometry":{"type":"Polygon","coordinates":[[[-70.7584402699999,-33.6345160661294],[-70.7590817959999,-33.6342443921294],[-70.7586709589999,-33.6335607751294],[-70.7580864559999,-33.6339330651294],[-70.7584402699999,-33.6345160661294]]]}},{"type":"Feature","properties":{"id":"13403051002026","commune":"Calera De Tango","code":"13403","gse":"C2","quintil":"Q4","nse_score":793.6,"educ":13.7,"educ_score":713.3,"hacin":1.368,"hacin_class":"Hacinamiento Leve","hacin_score":772.7,"auto_score":323.5,"n_per":52,"n_hog":17,"source_year":2024},"geometry":{"type":"Polygon","coordinates":[[[-70.7578665679999,-33.6348071491294],[-70.7581866499999,-33.6353299171294],[-70.7586880069999,-33.6348658591294],[-70.7596124879999,-33.6344304861294],[-70.7595370059999,-33.6341512011294],[-70.7578665679999,-33.6348071491294]]]}},{"type":"Feature","properties":{"id":"13403013036001","commune":"Calera De Tango","code":"13403","gse":"C3","quintil":"Q3","nse_score":729.8,"educ":11.9,"educ_score":593.3,"hacin":1.463,"hacin_class":"Hacinamiento Leve","hacin_score":752.6,"auto_score":285.7,"n_per":79,"n_hog":21,"source_year":2024},"geometry":{"type":"Polygon","coordinates":[[[-70.8194777999999,-33.6093193831297],[-70.8174758299999,-33.6105302181297],[-70.8174233739999,-33.6105619431297],[-70.8175601169999,-33.6107103451297],[-70.8196007939999,-33.6094811421297],[-70.8194777999999,-33.6093193831297]]]}},{"type":"Feature","properties":{"id":"13403013036002","commune":"Calera De Tango","code":"13403","gse":"D","quintil":"Q2","nse_score":701.4,"educ":11.1,"educ_score":540.0,"hacin":1.394,"hacin_class":"Hacinamiento Leve","hacin_score":767.2,"auto_score":440.3,"n_per":230,"n_hog":66,"source_year":2024},"geometry":{"type":"Polygon","coordinates":[[[-70.8196007939999,-33.6094811421297],[-70.8190307279999,-33.6099265851297],[-70.8192013249999,-33.6101416931297],[-70.81967714,-33.6098917791297],[-70.8192369729999,-33.6101871181297],[-70.8194143289999,-33.6104140891297],[-70.8198971219999,-33.6101414661297],[-70.8194499919999,-33.6104597291297],[-70.8196258019999,-33.6106847181297],[-70.8200984999999,-33.6104373401297],[-70.8196613459999,-33.6107302071297],[-70.8198429249999,-33.6109625761297],[-70.8202975999999,-33.6107111981297],[-70.8198785789999,-33.6110082031297],[-70.8200538959999,-33.6112325571297],[-70.8205176419999,-33.6109929281297],[-70.8200894169999,-33.6112780141297],[-70.8201946139999,-33.6115387011297],[-70.8198593389999,-33.6117092451297],[-70.8200414029999,-33.6119608181297],[-70.8210926989999,-33.6113844031297],[-70.8196007939999,-33.6094811421297]]]}},{"type":"Feature","properties":{"id":"13403013036003","commune":"Calera De Tango","code":"13403","gse":"D","quintil":"Q1","nse_score":668.2,"educ":10.1,"educ_score":473.3,"hacin":1.512,"hacin_class":"Hacinamiento Medio","hacin_score":742.1,"auto_score":218.8,"n_per":62,"n_hog":16,"source_year":2024},"geometry":{"type":"Polygon","coordinates":[[[-70.8183996199999,-33.6106392781297],[-70.8191834079999,-33.6102174271297],[-70.8189882549999,-33.6099688511297],[-70.8182175649999,-33.6103799031297],[-70.8183996199999,-33.6106392781297]]]}},{"type":"Feature","properties":{"id":"13403013036005","commune":"Calera De Tango","code":"13403","gse":"D","quintil":"Q2","nse_score":699.2,"educ":11.5,"educ_score":566.7,"hacin":1.435,"hacin_class":"Hacinamiento Leve","hacin_score":758.5,"auto_score":291.7,"n_per":221,"n_hog":60,"source_year":2024},"geometry":{"type":"Polygon","coordinates":[[[-70.8181635829999,-33.6104098181297],[-70.8175389879999,-33.6107206431297],[-70.8188987189999,-33.6125870491297],[-70.8198665729999,-33.6120565941297],[-70.8196936999999,-33.6117925621297],[-70.8193559159999,-33.6119583101297],[-70.8191603719999,-33.6118175051297],[-70.8186640039999,-33.6120650561297],[-70.8191271469999,-33.6117710961297],[-70.8189533549999,-33.6115283461297],[-70.8184712319999,-33.6117805391297],[-70.8189201249999,-33.6114819301297],[-70.8187496379999,-33.6112437941297],[-70.8182188029999,-33.6114607391297],[-70.8187164039999,-33.6111973711297],[-70.8185617919999,-33.6109771511297],[-70.8180384359999,-33.6111890081297],[-70.8185290389999,-33.6109304851297],[-70.8183609019999,-33.6106909421297],[-70.817840251,-33.6109062951297],[-70.8183281339999,-33.6106442571297],[-70.8181635829999,-33.6104098181297]]]}},{"type":"Feature","properties":{"id":"13403013036007","commune":"Calera De Tango","code":"13403","gse":"C3","quintil":"Q3","nse_score":731.2,"educ":11.6,"educ_score":573.3,"hacin":1.419,"hacin_class":"Hacinamiento Leve","hacin_score":761.8,"auto_score":166.7,"n_per":44,"n_hog":15,"source_year":2024},"geometry":{"type":"Polygon","coordinates":[[[-70.8189378349999,-33.6114013931297],[-70.8191111039999,-33.6116434131297],[-70.8199378129999,-33.6111828621297],[-70.819761362,-33.6109570561297],[-70.8189378349999,-33.6114013931297]]]}},{"type":"Feature","properties":{"id":"13403013036008","commune":"Calera De Tango","code":"13403","gse":"C3","quintil":"Q3","nse_score":726.1,"educ":11.8,"educ_score":586.7,"hacin":1.304,"hacin_class":"Hacinamiento Leve","hacin_score":786.3,"auto_score":111.1,"n_per":30,"n_hog":9,"source_year":2024},"geometry":{"type":"Polygon","coordinates":[[[-70.8191443669999,-33.6116898751297],[-70.8193458969999,-33.6119043861297],[-70.8201529289999,-33.6114581471297],[-70.8199731969999,-33.6112281431297],[-70.8191443669999,-33.6116898751297]]]}},{"type":"Feature","properties":{"id":"13403013036004","commune":"Calera De Tango","code":"13403","gse":"D","quintil":"Q2","nse_score":701.7,"educ":11.5,"educ_score":566.7,"hacin":1.475,"hacin_class":"Hacinamiento Leve","hacin_score":750.0,"auto_score":250.0,"n_per":59,"n_hog":19,"source_year":2024},"geometry":{"type":"MultiPolygon","coordinates":[[[[-70.8187299059999,-33.6111098371297],[-70.8189045919999,-33.6113549591297],[-70.8197259789999,-33.6109117771297],[-70.8195457329999,-33.6106811101297],[-70.8187299059999,-33.6111098371297]]],[[[-70.8184383579999,-33.6106944681297],[-70.8186971509999,-33.6110631701297],[-70.8195103479999,-33.6106358261297],[-70.8192187889999,-33.6102627071297],[-70.8184383579999,-33.6106944681297]]]]}},{"type":"Feature","properties":{"id":"13403043016001","commune":"Calera De Tango","code":"13403","gse":"D","quintil":"Q1","nse_score":676.2,"educ":10.8,"educ_score":520.0,"hacin":1.345,"hacin_class":"Hacinamiento Leve","hacin_score":777.7,"auto_score":206.3,"n_per":199,"n_hog":60,"source_year":2024},"geometry":{"type":"Polygon","coordinates":[[[-70.8170528539999,-33.6383252691294],[-70.8160947329999,-33.6387772811293],[-70.8151564779999,-33.6392199131293],[-70.8163644329999,-33.6402909861294],[-70.8171378929999,-33.6398682371293],[-70.8163814409999,-33.6391004071293],[-70.8165024799999,-33.6390375731293],[-70.8164057639999,-33.6388925711293],[-70.8165301449999,-33.6390232111293],[-70.8170670099999,-33.6387445091293],[-70.817218867,-33.6389020291294],[-70.8170597779999,-33.6387800991293],[-70.8164304169999,-33.6391068171293],[-70.8168544449999,-33.6395237611293],[-70.8173741999999,-33.6392684521293],[-70.8168750709999,-33.6395449711294],[-70.8174822549999,-33.6402015891293],[-70.8184200319999,-33.6397830521293],[-70.8170528539999,-33.6383252691294]]]}},{"type":"Feature","properties":{"id":"13403043016002","commune":"Calera De Tango","code":"13403","gse":"E","quintil":"Q1","nse_score":644.8,"educ":10.8,"educ_score":520.0,"hacin":1.486,"hacin_class":"Hacinamiento Leve","hacin_score":747.7,"auto_score":125.0,"n_per":52,"n_hog":15,"source_year":2024},"geometry":{"type":"Polygon","coordinates":[[[-70.818903857,-33.6402989271293],[-70.8184399939999,-33.6398043371293],[-70.8175020269999,-33.6402234241293],[-70.8176303079999,-33.6403650891293],[-70.8184284739999,-33.6400011101293],[-70.8176496679999,-33.6403870671293],[-70.8180318799999,-33.6407368361293],[-70.818903857,-33.6402989271293]]]}},{"type":"Feature","properties":{"id":"13403043016003","commune":"Calera De Tango","code":"13403","gse":"D","quintil":"Q2","nse_score":695.0,"educ":11.0,"educ_score":533.3,"hacin":1.397,"hacin_class":"Hacinamiento Leve","hacin_score":766.5,"auto_score":258.6,"n_per":102,"n_hog":30,"source_year":2024},"geometry":{"type":"Polygon","coordinates":[[[-70.8163927569999,-33.6403185861293],[-70.817546219,-33.6415794571293],[-70.8193495219999,-33.6407741231293],[-70.8189139079999,-33.6403096581293],[-70.8180588779999,-33.6407548281293],[-70.8183788449999,-33.6409654951293],[-70.8188463289999,-33.6407868611293],[-70.8183755669999,-33.6409976431293],[-70.8178050169999,-33.6406134281293],[-70.8171646509999,-33.6398966931294],[-70.8163927569999,-33.6403185861293]]]}},{"type":"Feature","properties":{"id":"13403043060001","commune":"Calera De Tango","code":"13403","gse":"D","quintil":"Q1","nse_score":669.5,"educ":10.1,"educ_score":473.3,"hacin":1.506,"hacin_class":"Hacinamiento Medio","hacin_score":743.4,"auto_score":428.6,"n_per":128,"n_hog":35,"source_year":2024},"geometry":{"type":"Polygon","coordinates":[[[-70.8343171519999,-33.660379844129],[-70.8344366669999,-33.6605059501291],[-70.8347915799999,-33.6603039141291],[-70.8351479819999,-33.6607999351291],[-70.834712609,-33.660381591129],[-70.8344568119999,-33.6605272041291],[-70.8350970399999,-33.6612027261291],[-70.835372317,-33.661062465129],[-70.8352992939999,-33.6609386431291],[-70.8360020219999,-33.661703103129],[-70.8353921459999,-33.661084036129],[-70.8351172829999,-33.661224086129],[-70.8361142169999,-33.6622902601291],[-70.8367349989999,-33.662061683129],[-70.8349277809999,-33.6601312231291],[-70.8343171519999,-33.660379844129]]]}},{"type":"Feature","properties":{"id":"13403043105001","commune":"Calera De Tango","code":"13403","gse":"D","quintil":"Q2","nse_score":692.8,"educ":10.7,"educ_score":513.3,"hacin":1.359,"hacin_class":"Hacinamiento Leve","hacin_score":774.7,"auto_score":241.6,"n_per":250,"n_hog":89,"source_year":2024},"geometry":{"type":"Polygon","coordinates":[[[-70.8133508019999,-33.6183572861296],[-70.8102460979999,-33.6201140941296],[-70.8108917889999,-33.6207374961296],[-70.8113238139999,-33.6204101401296],[-70.810907256,-33.6199784461296],[-70.8132958919999,-33.6186276261296],[-70.8143592269999,-33.6196428521296],[-70.8119537039999,-33.6209909931296],[-70.811419542,-33.6205022661296],[-70.8109865909999,-33.6208306361296],[-70.8115959639999,-33.6214293221296],[-70.8147523049999,-33.6196612311296],[-70.8133508019999,-33.6183572861296]]]}},{"type":"Feature","properties":{"id":"13403043105002","commune":"Calera De Tango","code":"13403","gse":"C3","quintil":"Q3","nse_score":720.9,"educ":11.4,"educ_score":560.0,"hacin":1.433,"hacin_class":"Hacinamiento Leve","hacin_score":758.9,"auto_score":384.6,"n_per":43,"n_hog":13,"source_year":2024},"geometry":{"type":"Polygon","coordinates":[[[-70.8135993839999,-33.6189461471296],[-70.8133043369999,-33.6186663831296],[-70.8125235679999,-33.6191079241296],[-70.8127906089999,-33.6194361721296],[-70.8135993839999,-33.6189461471296]]]}},{"type":"Feature","properties":{"id":"13403043105004","commune":"Calera De Tango","code":"13403","gse":"C2","quintil":"Q3","nse_score":753.6,"educ":12.6,"educ_score":640.0,"hacin":1.345,"hacin_class":"Hacinamiento Leve","hacin_score":777.7,"auto_score":392.9,"n_per":39,"n_hog":14,"source_year":2024},"geometry":{"type":"Polygon","coordinates":[[[-70.8119622959999,-33.6199005901296],[-70.8127547989999,-33.6194562501296],[-70.8124878539999,-33.6191281201296],[-70.8116974889999,-33.6195750871296],[-70.8119622959999,-33.6199005901296]]]}},{"type":"Feature","properties":{"id":"13403043105005","commune":"Calera De Tango","code":"13403","gse":"C3","quintil":"Q2","nse_score":706.8,"educ":11.0,"educ_score":533.3,"hacin":1.447,"hacin_class":"Hacinamiento Leve","hacin_score":756.0,"auto_score":291.7,"n_per":68,"n_hog":24,"source_year":2024},"geometry":{"type":"Polygon","coordinates":[[[-70.8143147709999,-33.6196244761296],[-70.8140118759999,-33.6193372721296],[-70.8134778659999,-33.6196428931296],[-70.8131765669999,-33.6192631901296],[-70.812814865,-33.6194659881296],[-70.813376177,-33.6201559561296],[-70.8143147709999,-33.6196244761296]]]}},{"type":"Feature","properties":{"id":"13403043105007","commune":"Calera De Tango","code":"13403","gse":"C3","quintil":"Q3","nse_score":732.4,"educ":12.3,"educ_score":620.0,"hacin":1.458,"hacin_class":"Hacinamiento Leve","hacin_score":753.5,"auto_score":208.3,"n_per":35,"n_hog":12,"source_year":2024},"geometry":{"type":"Polygon","coordinates":[[[-70.8116617739999,-33.6195952851296],[-70.8109515629999,-33.6199969231296],[-70.8112603929999,-33.6202941321295],[-70.8119264849999,-33.6199206681296],[-70.8116617739999,-33.6195952851296]]]}},{"type":"Feature","properties":{"id":"13403043105008","commune":"Calera De Tango","code":"13403","gse":"D","quintil":"Q2","nse_score":699.2,"educ":11.4,"educ_score":560.0,"hacin":1.473,"hacin_class":"Hacinamiento Leve","hacin_score":750.5,"auto_score":333.3,"n_per":81,"n_hog":25,"source_year":2024},"geometry":{"type":"Polygon","coordinates":[[[-70.8130894929999,-33.6198676601296],[-70.8125112739999,-33.6202006951296],[-70.8122232929999,-33.6197976701296],[-70.8118593139999,-33.6200017451296],[-70.8124086389999,-33.6207038271296],[-70.8133404769999,-33.6201761711296],[-70.8130894929999,-33.6198676601296]]]}},{"type":"Feature","properties":{"id":"13403043111001","commune":"Calera De Tango","code":"13403","gse":"D","quintil":"Q1","nse_score":667.3,"educ":10.5,"educ_score":500.0,"hacin":1.347,"hacin_class":"Hacinamiento Leve","hacin_score":777.3,"auto_score":284.1,"n_per":136,"n_hog":46,"source_year":2024},"geometry":{"type":"Polygon","coordinates":[[[-70.8232928929999,-33.6279730441295],[-70.8205392339999,-33.6293566221295],[-70.8210228629999,-33.6298451121295],[-70.8222008519999,-33.6292703031295],[-70.8218877699999,-33.6289713751295],[-70.8213359259999,-33.6291820501295],[-70.8234567199999,-33.6281323421295],[-70.8232928929999,-33.6279730441295]]]}},{"type":"Feature","properties":{"id":"13403043111002","commune":"Calera De Tango","code":"13403","gse":"D","quintil":"Q2","nse_score":692.6,"educ":10.5,"educ_score":500.0,"hacin":1.5,"hacin_class":"Hacinamiento Medio","hacin_score":744.7,"auto_score":269.2,"n_per":45,"n_hog":13,"source_year":2024},"geometry":{"type":"Polygon","coordinates":[[[-70.8238033379999,-33.6284768981294],[-70.8234992179999,-33.6281736651295],[-70.8230597819999,-33.6283915631294],[-70.8233472599999,-33.6286950331295],[-70.8238033379999,-33.6284768981294]]]}},{"type":"Feature","properties":{"id":"13403043111003","commune":"Calera De Tango","code":"13403","gse":"E","quintil":"Q1","nse_score":641.6,"educ":9.9,"educ_score":460.0,"hacin":1.446,"hacin_class":"Hacinamiento Leve","hacin_score":756.1,"auto_score":288.5,"n_per":81,"n_hog":26,"source_year":2024},"geometry":{"type":"Polygon","coordinates":[[[-70.821944405,-33.6289433581295],[-70.8222576579999,-33.6292424531295],[-70.8232974299999,-33.6287296001294],[-70.823003577,-33.6284193681295],[-70.821944405,-33.6289433581295]]]}},{"type":"Feature","properties":{"id":"13403043111004","commune":"Calera De Tango","code":"13403","gse":"C3","quintil":"Q3","nse_score":726.6,"educ":11.7,"educ_score":580.0,"hacin":1.429,"hacin_class":"Hacinamiento Leve","hacin_score":759.9,"auto_score":250.0,"n_per":20,"n_hog":6,"source_year":2024},"geometry":{"type":"Polygon","coordinates":[[[-70.8234355969999,-33.6287235941295],[-70.8239949339999,-33.6292492751295],[-70.8244003619999,-33.6290498811295],[-70.823849832,-33.6285145831295],[-70.8234355969999,-33.6287235941295]]]}},{"type":"Feature","properties":{"id":"13403043111005","commune":"Calera De Tango","code":"13403","gse":"D","quintil":"Q1","nse_score":680.5,"educ":10.8,"educ_score":520.0,"hacin":1.325,"hacin_class":"Hacinamiento Leve","hacin_score":782.0,"auto_score":362.1,"n_per":102,"n_hog":30,"source_year":2024},"geometry":{"type":"Polygon","coordinates":[[[-70.8233851169999,-33.6287574741295],[-70.8217272109999,-33.6295652291294],[-70.8216712559999,-33.6295924351295],[-70.8222112609999,-33.6301264761294],[-70.8227294619999,-33.6298716321295],[-70.8223772119999,-33.6294518491295],[-70.8227861919999,-33.6298437331294],[-70.8236839399999,-33.6294022231295],[-70.8234983549999,-33.6291470891295],[-70.8237407909999,-33.6293742641294],[-70.8239378079999,-33.6292773701295],[-70.8233851169999,-33.6287574741295]]]}},{"type":"Feature","properties":{"id":"13403043111006","commune":"Calera De Tango","code":"13403","gse":"C2","quintil":"Q4","nse_score":780.1,"educ":13.2,"educ_score":680.0,"hacin":1.391,"hacin_class":"Hacinamiento Leve","hacin_score":767.8,"auto_score":444.4,"n_per":32,"n_hog":9,"source_year":2024},"geometry":{"type":"Polygon","coordinates":[[[-70.8209663689999,-33.6298725781295],[-70.820529055,-33.6294108591295],[-70.8201159029999,-33.6296232521294],[-70.8204882739999,-33.6301081551295],[-70.8209663689999,-33.6298725781295]]]}},{"type":"Feature","properties":{"id":"13403043111007","commune":"Calera De Tango","code":"13403","gse":"E","quintil":"Q1","nse_score":626.2,"educ":9.5,"educ_score":433.3,"hacin":1.609,"hacin_class":"Hacinamiento Medio","hacin_score":721.6,"auto_score":181.8,"n_per":37,"n_hog":11,"source_year":2024},"geometry":{"type":"Polygon","coordinates":[[[-70.8213103839999,-33.6297678901294],[-70.8218477489999,-33.6303049631295],[-70.8221553459999,-33.6301539731294],[-70.8216150519999,-33.6296197591294],[-70.8213103839999,-33.6297678901294]]]}},{"type":"Feature","properties":{"id":"13403043111008","commune":"Calera De Tango","code":"13403","gse":"D","quintil":"Q2","nse_score":692.1,"educ":11.0,"educ_score":533.3,"hacin":1.38,"hacin_class":"Hacinamiento Leve","hacin_score":770.2,"auto_score":181.8,"n_per":138,"n_hog":42,"source_year":2024},"geometry":{"type":"Polygon","coordinates":[[[-70.820066128,-33.6296582981294],[-70.8169154199999,-33.6313666461294],[-70.8178072939999,-33.6322767741294],[-70.8181864709999,-33.6320941631294],[-70.8182155569999,-33.6319691621295],[-70.8181483089999,-33.6318652081294],[-70.8178031079999,-33.6320031331294],[-70.8181149739999,-33.6318186711294],[-70.8179372769999,-33.6315875441295],[-70.8175478859999,-33.6317360461294],[-70.8179022939999,-33.6315420431294],[-70.8176921729999,-33.6312687421294],[-70.8171545299999,-33.6314717921294],[-70.8202163669999,-33.6298477951295],[-70.820066128,-33.6296582981294]]]}},{"type":"Feature","properties":{"id":"13403043111009","commune":"Calera De Tango","code":"13403","gse":"D","quintil":"Q2","nse_score":697.8,"educ":11.9,"educ_score":593.3,"hacin":1.442,"hacin_class":"Hacinamiento Leve","hacin_score":757.1,"auto_score":305.6,"n_per":62,"n_hog":18,"source_year":2024},"geometry":{"type":"Polygon","coordinates":[[[-70.8212813749999,-33.6302530841295],[-70.8208166819999,-33.6305440101294],[-70.8209635669999,-33.6307389241295],[-70.8217911939999,-33.6303327221295],[-70.8212536519999,-33.6297954721295],[-70.8205227239999,-33.6301539361295],[-70.8207821799999,-33.6304982251295],[-70.8212813749999,-33.6302530841295]]]}},{"type":"Feature","properties":{"id":"13403043111010","commune":"Calera De Tango","code":"13403","gse":"C3","quintil":"Q3","nse_score":740.7,"educ":11.4,"educ_score":560.0,"hacin":1.158,"hacin_class":"Hacinamiento Leve","hacin_score":817.5,"auto_score":214.3,"n_per":22,"n_hog":7,"source_year":2024},"geometry":{"type":"Polygon","coordinates":[[[-70.8194156659999,-33.6303383921295],[-70.8196028389999,-33.6305735311294],[-70.8204335169999,-33.6301369381295],[-70.8202507729999,-33.6298936031294],[-70.8194156659999,-33.6303383921295]]]}},{"type":"Feature","properties":{"id":"13403043111011","commune":"Calera De Tango","code":"13403","gse":"C3","quintil":"Q2","nse_score":719.6,"educ":10.8,"educ_score":520.0,"hacin":1.125,"hacin_class":"Hacinamiento Leve","hacin_score":824.5,"auto_score":321.4,"n_per":45,"n_hog":14,"source_year":2024},"geometry":{"type":"Polygon","coordinates":[[[-70.8190715689999,-33.6309249921295],[-70.819294925,-33.6312298221294],[-70.8207264099999,-33.6305256601294],[-70.8204679719999,-33.6301827151294],[-70.8190715689999,-33.6309249921295]]]}},{"type":"Feature","properties":{"id":"13403043111013","commune":"Calera De Tango","code":"13403","gse":"E","quintil":"Q1","nse_score":656.1,"educ":9.5,"educ_score":433.3,"hacin":1.667,"hacin_class":"Hacinamiento Medio","hacin_score":709.2,"auto_score":350.0,"n_per":40,"n_hog":12,"source_year":2024},"geometry":{"type":"Polygon","coordinates":[[[-70.8193282679999,-33.6312761771295],[-70.8194646109999,-33.6314693081295],[-70.8209077619999,-33.6307663121294],[-70.8207609149999,-33.6305714431295],[-70.8193282679999,-33.6312761771295]]]}},{"type":"Feature","properties":{"id":"13403043111014","commune":"Calera De Tango","code":"13403","gse":"C3","quintil":"Q2","nse_score":712.7,"educ":11.8,"educ_score":586.7,"hacin":1.375,"hacin_class":"Hacinamiento Leve","hacin_score":771.3,"auto_score":233.3,"n_per":44,"n_hog":14,"source_year":2024},"geometry":{"type":"Polygon","coordinates":[[[-70.8181916349999,-33.6318185141294],[-70.8184187879999,-33.6312164681294],[-70.818983467,-33.6309082621294],[-70.8188077989999,-33.6306685141294],[-70.8177478759999,-33.6312411941294],[-70.8181916349999,-33.6318185141294]]]}},{"type":"Feature","properties":{"id":"13403043111015","commune":"Calera De Tango","code":"13403","gse":"D","quintil":"Q2","nse_score":688.1,"educ":11.4,"educ_score":560.0,"hacin":1.45,"hacin_class":"Hacinamiento Leve","hacin_score":755.3,"auto_score":312.5,"n_per":29,"n_hog":8,"source_year":2024},"geometry":{"type":"Polygon","coordinates":[[[-70.8184406849999,-33.6312847601294],[-70.8183386249999,-33.6317234001294],[-70.8192395479999,-33.6312577541294],[-70.8190172729999,-33.6309543981294],[-70.8184406849999,-33.6312847601294]]]}},{"type":"Feature","properties":{"id":"13403043111016","commune":"Calera De Tango","code":"13403","gse":"E","quintil":"Q1","nse_score":646.5,"educ":10.6,"educ_score":506.7,"hacin":1.571,"hacin_class":"Hacinamiento Medio","hacin_score":729.5,"auto_score":375.0,"n_per":22,"n_hog":8,"source_year":2024},"geometry":{"type":"Polygon","coordinates":[[[-70.8183218069999,-33.6317956821295],[-70.8182597659999,-33.6320623171294],[-70.8194087229999,-33.6314965301294],[-70.8192728849999,-33.6313041131294],[-70.8183218069999,-33.6317956821295]]]}},{"type":"Feature","properties":{"id":"13403053016001","commune":"Calera De Tango","code":"13403","gse":"D","quintil":"Q2","nse_score":697.1,"educ":12.7,"educ_score":646.7,"hacin":1.559,"hacin_class":"Hacinamiento Medio","hacin_score":732.2,"auto_score":312.5,"n_per":53,"n_hog":15,"source_year":2024},"geometry":{"type":"Polygon","coordinates":[[[-70.8178211279999,-33.6423140501293],[-70.8179854189999,-33.6423137181293],[-70.8173572229999,-33.6415559321293],[-70.8180746939999,-33.6423135371293],[-70.8167254089999,-33.6407534861293],[-70.8149205489999,-33.6391206391293],[-70.8143232559999,-33.6394589221294],[-70.8143843259999,-33.6402441411293],[-70.8150362679999,-33.6409980691293],[-70.8157890749999,-33.6413926211294],[-70.8167113789999,-33.6414363321293],[-70.8169849479999,-33.6415587651293],[-70.8178211279999,-33.6423140501293]]]}},{"type":"Feature","properties":{"id":"13403053118001","commune":"Calera De Tango","code":"13403","gse":"D","quintil":"Q1","nse_score":659.2,"educ":10.7,"educ_score":513.3,"hacin":1.349,"hacin_class":"Hacinamiento Leve","hacin_score":776.8,"auto_score":375.0,"n_per":85,"n_hog":23,"source_year":2024},"geometry":{"type":"Polygon","coordinates":[[[-70.8005505739999,-33.6290163731295],[-70.8007750299999,-33.6293035441294],[-70.8027304519999,-33.6286230811295],[-70.8034489729999,-33.6281171581295],[-70.8031415559999,-33.6278017071295],[-70.8024953369999,-33.6282128171295],[-70.802265325,-33.6282307161295],[-70.8020895079999,-33.6284709931295],[-70.8005505739999,-33.6290163731295]]]}},{"type":"Feature","properties":{"id":"13403053118002","commune":"Calera De Tango","code":"13403","gse":"D","quintil":"Q1","nse_score":673.3,"educ":10.6,"educ_score":506.7,"hacin":1.333,"hacin_class":"Hacinamiento Leve","hacin_score":780.1,"auto_score":280.5,"n_per":120,"n_hog":37,"source_year":2024},"geometry":{"type":"Polygon","coordinates":[[[-70.8027532879999,-33.6286541971295],[-70.8007585359999,-33.6293483441294],[-70.8007151929999,-33.6293481691295],[-70.800927725,-33.6296540041294],[-70.8033499399999,-33.6287979061294],[-70.8038408399999,-33.6285159551295],[-70.8034763509999,-33.6281450191295],[-70.8027532879999,-33.6286541971295]]]}},{"type":"Feature","properties":{"id":"13403053118003","commune":"Calera De Tango","code":"13403","gse":"E","quintil":"Q1","nse_score":610.3,"educ":9.9,"educ_score":460.0,"hacin":1.388,"hacin_class":"Hacinamiento Leve","hacin_score":768.5,"auto_score":164.3,"n_per":186,"n_hog":62,"source_year":2024},"geometry":{"type":"Polygon","coordinates":[[[-70.8038614189999,-33.6285368971295],[-70.800927725,-33.6296540041294],[-70.8009798639999,-33.6297654331294],[-70.8008295159999,-33.6299417971295],[-70.8009070349999,-33.6303772951295],[-70.8010021109999,-33.6304544621294],[-70.8027560629999,-33.6299586411294],[-70.8023938339999,-33.6293815201295],[-70.8027866419999,-33.6299498351294],[-70.8046989059999,-33.6293891741294],[-70.804204136,-33.6288856691295],[-70.8038012459999,-33.6290825011294],[-70.8041833389999,-33.6288645051295],[-70.8038614189999,-33.6285368971295]]]}}]}