{"type":"FeatureCollection","features":[{"type":"Feature","properties":{"id":"1402013008001","commune":"Camiña","code":"01402","gse":"E","quintil":"Q1","nse_score":497.6,"educ":9.8,"educ_score":453.3,"hacin":2.051,"hacin_class":"Hacinamiento Medio","hacin_score":627.5,"auto_score":60.0,"n_per":121,"n_hog":26,"source_year":2024},"geometry":{"type":"Polygon","coordinates":[[[-69.4309266719999,-19.3094531674105],[-69.4304390729999,-19.3098421004105],[-69.4303613949999,-19.3101831174104],[-69.4299219279999,-19.3104710304104],[-69.4300214229999,-19.3107765624104],[-69.4298753389999,-19.3108957374104],[-69.4294822289999,-19.3104122704104],[-69.4294940869999,-19.3097944504105],[-69.4291177669999,-19.3097406954105],[-69.4291040999999,-19.3106296264104],[-69.4293925899999,-19.3108027294104],[-69.4295648469999,-19.3111031254104],[-69.4298219329999,-19.3111793304104],[-69.4301079709999,-19.3109276464104],[-69.4300305229999,-19.3108271864104],[-69.4301275989999,-19.3106939274104],[-69.4307352819999,-19.3105428724104],[-69.4306949849999,-19.3102437524104],[-69.4301283289999,-19.3104308314104],[-69.430683557,-19.3102275674105],[-69.4305936459999,-19.3101466384104],[-69.430567187,-19.3100455554104],[-69.4309076029999,-19.3096748444104],[-69.4305866869999,-19.3100804024104],[-69.4307244159999,-19.3102586524105],[-69.4315239899999,-19.3104536074104],[-69.4312681779999,-19.3104271254104],[-69.4312406849999,-19.3105336954104],[-69.4314068229999,-19.3105541314104],[-69.4312395079999,-19.3105517994104],[-69.4312660159999,-19.3108153224104],[-69.4314257289999,-19.3108824994104],[-69.4312302449999,-19.3108830814104],[-69.4313113099999,-19.3110944424104],[-69.4315635699999,-19.3111327494104],[-69.4316949459999,-19.3108838934104],[-69.4316743519999,-19.3102226304104],[-69.4318212609999,-19.3096519044105],[-69.4309266719999,-19.3094531674105]]]}},{"type":"Feature","properties":{"id":"1402013008006","commune":"Camiña","code":"01402","gse":"D","quintil":"Q2","nse_score":628.6,"educ":9.5,"educ_score":433.3,"hacin":1.0,"hacin_class":"Hacinamiento Leve","hacin_score":851.1,"auto_score":0.0,"n_per":7,"n_hog":4,"source_year":2024},"geometry":{"type":"Polygon","coordinates":[[[-69.4307987019999,-19.3102600904104],[-69.4307346189999,-19.3103674324105],[-69.4312454019999,-19.3104091344104],[-69.4311714109999,-19.3103232834104],[-69.4307987019999,-19.3102600904104]]]}},{"type":"Feature","properties":{"id":"1402013008007","commune":"Camiña","code":"01402","gse":"C3","quintil":"Q2","nse_score":677.6,"educ":9.8,"educ_score":453.3,"hacin":0.75,"hacin_class":"Sin Hacinamiento","hacin_score":904.3,"auto_score":0.0,"n_per":6,"n_hog":4,"source_year":2024},"geometry":{"type":"Polygon","coordinates":[[[-69.4307347539999,-19.3104187764104],[-69.4307485159999,-19.3105182724105],[-69.4312188129999,-19.3105308754104],[-69.431245896,-19.3104272104104],[-69.4307347539999,-19.3104187764104]]]}},{"type":"Feature","properties":{"id":"1402013008016","commune":"Camiña","code":"01402","gse":"D","quintil":"Q1","nse_score":541.9,"educ":8.4,"educ_score":360.0,"hacin":1.273,"hacin_class":"Hacinamiento Leve","hacin_score":793.0,"auto_score":0.0,"n_per":14,"n_hog":5,"source_year":2024},"geometry":{"type":"Polygon","coordinates":[[[-69.4245457419999,-19.3107331804104],[-69.4245242849999,-19.3114501114104],[-69.4248159649999,-19.3114273484104],[-69.4247831319999,-19.3120713764104],[-69.4255877399999,-19.3121287774104],[-69.4256676199999,-19.3117612924104],[-69.4268038529999,-19.3119003954104],[-69.427022157,-19.3110111924104],[-69.4268632749999,-19.3108529734104],[-69.4265432849999,-19.3107954224104],[-69.4258548059999,-19.3109520534104],[-69.4245457419999,-19.3107331804104]]]}},{"type":"Feature","properties":{"id":"1402013008019","commune":"Camiña","code":"01402","gse":"C3","quintil":"Q3","nse_score":691.4,"educ":13.8,"educ_score":720.0,"hacin":1.5,"hacin_class":"Hacinamiento Medio","hacin_score":744.7,"auto_score":0.0,"n_per":36,"n_hog":10,"source_year":2024},"geometry":{"type":"Polygon","coordinates":[[[-69.4271265679999,-19.3110150914104],[-69.4266691759999,-19.3127630904103],[-69.4275503259999,-19.3129322934104],[-69.4275616219999,-19.3131240474103],[-69.4276642999999,-19.3131422124104],[-69.4276586559999,-19.3128587774103],[-69.4275362209999,-19.3128461524104],[-69.4275922599999,-19.3123137634104],[-69.4269832129999,-19.3122893664104],[-69.4270619349999,-19.3117626634104],[-69.4275566659999,-19.3118191614104],[-69.4277090479999,-19.3111120164104],[-69.4271265679999,-19.3110150914104]]]}},{"type":"Feature","properties":{"id":"1402013008020","commune":"Camiña","code":"01402","gse":"D","quintil":"Q1","nse_score":523.3,"educ":7.1,"educ_score":273.3,"hacin":1.474,"hacin_class":"Hacinamiento Leve","hacin_score":750.3,"auto_score":55.6,"n_per":28,"n_hog":9,"source_year":2024},"geometry":{"type":"Polygon","coordinates":[[[-69.4306715749999,-19.3110456504104],[-69.4299647589999,-19.3114001204104],[-69.4287629709999,-19.3111191074104],[-69.4287670159999,-19.3113637054104],[-69.4300763139999,-19.3117380754104],[-69.4316059479999,-19.3116632794104],[-69.4318187509999,-19.3114729934104],[-69.4322339119999,-19.3115203234104],[-69.4323842819999,-19.3116560594104],[-69.4322220579999,-19.3112871384104],[-69.4309342369999,-19.3110855224104],[-69.4308681429999,-19.3112848904104],[-69.4309144079999,-19.3110821294104],[-69.4306715749999,-19.3110456504104]]]}},{"type":"Feature","properties":{"id":"1402013008023","commune":"Camiña","code":"01402","gse":"C2","quintil":"Q4","nse_score":740.2,"educ":12.5,"educ_score":633.3,"hacin":0.818,"hacin_class":"Sin Hacinamiento","hacin_score":889.7,"auto_score":0.0,"n_per":9,"n_hog":5,"source_year":2024},"geometry":{"type":"Polygon","coordinates":[[[-69.4256238969999,-19.3121627574104],[-69.4254115969999,-19.3121591234104],[-69.425382597,-19.3125641094104],[-69.4258684299999,-19.3126458964104],[-69.4259660799999,-19.3118330184104],[-69.4256857269999,-19.3118193744104],[-69.4256238969999,-19.3121627574104]]]}},{"type":"Feature","properties":{"id":"1402013008024","commune":"Camiña","code":"01402","gse":"D","quintil":"Q1","nse_score":571.2,"educ":9.7,"educ_score":446.7,"hacin":1.2,"hacin_class":"Hacinamiento Leve","hacin_score":808.5,"auto_score":187.5,"n_per":18,"n_hog":8,"source_year":2024},"geometry":{"type":"Polygon","coordinates":[[[-69.4267733449999,-19.3119516294104],[-69.4259931389999,-19.3118425324104],[-69.4259028149999,-19.3126508864103],[-69.4266210249999,-19.3127543924104],[-69.4267733449999,-19.3119516294104]]]}},{"type":"Feature","properties":{"id":"1402013008032","commune":"Camiña","code":"01402","gse":"C3","quintil":"Q2","nse_score":683.3,"educ":10.8,"educ_score":520.0,"hacin":1.0,"hacin_class":"Hacinamiento Leve","hacin_score":851.1,"auto_score":0.0,"n_per":11,"n_hog":6,"source_year":2024},"geometry":{"type":"Polygon","coordinates":[[[-69.4246745419999,-19.3129692544104],[-69.4237464919999,-19.3132813404104],[-69.4241155439999,-19.3134892724104],[-69.4256987059999,-19.3136718764103],[-69.4257859719999,-19.3131688934104],[-69.4246745419999,-19.3129692544104]]]}},{"type":"Feature","properties":{"id":"1402013008010","commune":"Camiña","code":"01402","gse":"D","quintil":"Q1","nse_score":537.9,"educ":10.8,"educ_score":520.0,"hacin":2.182,"hacin_class":"Hacinamiento Medio","hacin_score":599.6,"auto_score":250.0,"n_per":24,"n_hog":4,"source_year":2024},"geometry":{"type":"MultiPolygon","coordinates":[[[[-69.4301554829999,-19.3109338344104],[-69.43030791,-19.3108086924105],[-69.4302514349999,-19.3106699354104],[-69.4300511639999,-19.3108269694104],[-69.4301554829999,-19.3109338344104]]],[[[-69.4309271739999,-19.3106451804104],[-69.431211286,-19.3108722964104],[-69.4312733339999,-19.3107228724104],[-69.4309271739999,-19.3106451804104]]],[[[-69.4302675179999,-19.3106593054104],[-69.4303259789999,-19.3108029434104],[-69.4310414309999,-19.3108102444104],[-69.4307327079999,-19.3105658984104],[-69.4302675179999,-19.3106593054104]]]]}},{"type":"Feature","properties":{"id":"1402013008022","commune":"Camiña","code":"01402","gse":"D","quintil":"Q1","nse_score":564.7,"educ":8.8,"educ_score":386.7,"hacin":1.083,"hacin_class":"Hacinamiento Leve","hacin_score":833.3,"auto_score":0.0,"n_per":13,"n_hog":6,"source_year":2024},"geometry":{"type":"MultiPolygon","coordinates":[[[[-69.4247312339999,-19.3129439844104],[-69.425305438,-19.3130228864104],[-69.4253488169999,-19.3125999354104],[-69.4247644589999,-19.3124976734104],[-69.4247312339999,-19.3129439844104]]],[[[-69.4240118519999,-19.3117900194104],[-69.4240490089999,-19.3129816984104],[-69.4246735879999,-19.3129275604104],[-69.4247164579999,-19.3124709204104],[-69.4242220639999,-19.3123875604104],[-69.4247301589999,-19.3124241144104],[-69.4247792749999,-19.3114302114104],[-69.4244164219999,-19.3114987724104],[-69.4240118519999,-19.3117900194104]]]]}},{"type":"Feature","properties":{"id":"1402013008002","commune":"Camiña","code":"01402","gse":"E","quintil":"Q1","nse_score":437.7,"educ":9.9,"educ_score":460.0,"hacin":3.375,"hacin_class":"Hacinamiento Crítico","hacin_score":345.7,"auto_score":0.0,"n_per":27,"n_hog":8,"source_year":2024},"geometry":{"type":"MultiPolygon","coordinates":[[[[-69.4272484359999,-19.3104548404104],[-69.4273741509999,-19.3101095344104],[-69.4272700239999,-19.3100681554105],[-69.4270694699999,-19.3104241234104],[-69.4272484359999,-19.3104548404104]]],[[[-69.4273409869999,-19.3096900544104],[-69.4268786629999,-19.3100646004104],[-69.4262856739999,-19.3099193294105],[-69.4260979189999,-19.3104815894104],[-69.4255445849999,-19.3104098634104],[-69.4254659789999,-19.3107906694104],[-69.4258597559999,-19.3108972554104],[-69.4265406229999,-19.3107459144104],[-69.4269276289999,-19.3108234184104],[-69.4271366659999,-19.3102015264105],[-69.4273325679999,-19.3099647504104],[-69.4276190729999,-19.3097487344104],[-69.4273409869999,-19.3096900544104]]]]}},{"type":"Feature","properties":{"id":"1402013008003","commune":"Camiña","code":"01402","gse":"D","quintil":"Q1","nse_score":568.6,"educ":9.2,"educ_score":413.3,"hacin":1.606,"hacin_class":"Hacinamiento Medio","hacin_score":722.1,"auto_score":33.3,"n_per":53,"n_hog":15,"source_year":2024},"geometry":{"type":"MultiPolygon","coordinates":[[[[-69.4269993609999,-19.3107097864104],[-69.4272052739999,-19.3107253314104],[-69.4272431109999,-19.3104816794104],[-69.4270606129999,-19.3104678904104],[-69.4269993609999,-19.3107097864104]]],[[[-69.4288167749999,-19.3103592484104],[-69.4284800629999,-19.3109592994104],[-69.4282311779999,-19.3110222104104],[-69.4276524399999,-19.3108387624104],[-69.4277724329999,-19.3101734244105],[-69.4280158789999,-19.3098252254104],[-69.4276534569999,-19.3097553624104],[-69.427286594,-19.3100485034104],[-69.4276824549999,-19.3101492544104],[-69.4275906729999,-19.3104894044104],[-69.4272654389999,-19.3104884594104],[-69.4272281799999,-19.3107255404104],[-69.4274360329999,-19.3107570804104],[-69.4272232719999,-19.3107495894104],[-69.4271905839999,-19.3109756944104],[-69.4283590869999,-19.3111572654104],[-69.4287429489999,-19.3110667604104],[-69.428779501,-19.3108440774104],[-69.4285931589999,-19.3107951324104],[-69.4287856689999,-19.3108269764104],[-69.4290572869999,-19.3105367014104],[-69.4290766659999,-19.3097348234104],[-69.4288622699999,-19.3097328204105],[-69.4288167749999,-19.3103592484104]]]]}},{"type":"Feature","properties":{"id":"1402013008011","commune":"Camiña","code":"01402","gse":"E","quintil":"Q1","nse_score":493.0,"educ":7.4,"educ_score":293.3,"hacin":1.9,"hacin_class":"Hacinamiento Medio","hacin_score":659.6,"auto_score":111.1,"n_per":38,"n_hog":9,"source_year":2024},"geometry":{"type":"MultiPolygon","coordinates":[[[[-69.4291822829999,-19.3111030434104],[-69.4297235969999,-19.3113128474104],[-69.4299595909999,-19.3113448274104],[-69.4299404419999,-19.3111034274104],[-69.4296471099999,-19.3111852194104],[-69.4291035629999,-19.3106477774104],[-69.4291926579999,-19.3109196604104],[-69.4291822829999,-19.3111030434104]]],[[[-69.4287807039999,-19.3110474534104],[-69.4291447139999,-19.3110935044104],[-69.4290497519999,-19.3105783554104],[-69.428880348,-19.3106927364104],[-69.4287807039999,-19.3110474534104]]]]}},{"type":"Feature","properties":{"id":"1402013008017","commune":"Camiña","code":"01402","gse":"E","quintil":"Q1","nse_score":458.8,"educ":6.3,"educ_score":220.0,"hacin":1.429,"hacin_class":"Hacinamiento Leve","hacin_score":759.9,"auto_score":71.4,"n_per":20,"n_hog":7,"source_year":2024},"geometry":{"type":"MultiPolygon","coordinates":[[[[-69.4301708649999,-19.3109536874104],[-69.4299786989999,-19.3113422934104],[-69.4301261919999,-19.3113027724104],[-69.4301708649999,-19.3109536874104]]],[[[-69.4302238339999,-19.3109667824104],[-69.4301717629999,-19.3112704334104],[-69.4306641069999,-19.3109916914104],[-69.4312697839999,-19.3110868154104],[-69.4311997259999,-19.3109070234104],[-69.4307799919999,-19.3108073874104],[-69.4304051329999,-19.3108158824104],[-69.4302238339999,-19.3109667824104]]]]}},{"type":"Feature","properties":{"id":"1402013008025","commune":"Camiña","code":"01402","gse":"D","quintil":"Q2","nse_score":646.6,"educ":10.6,"educ_score":506.7,"hacin":0.917,"hacin_class":"Sin Hacinamiento","hacin_score":868.8,"auto_score":0.0,"n_per":11,"n_hog":6,"source_year":2024},"geometry":{"type":"MultiPolygon","coordinates":[[[[-69.4257322559999,-19.3131004294103],[-69.4258694999999,-19.3126885634104],[-69.4253780809999,-19.3126011474104],[-69.4253256909999,-19.3130352194103],[-69.4257322559999,-19.3131004294103]]],[[[-69.4253037349999,-19.3125550264104],[-69.4253868279999,-19.3121475384104],[-69.4247945449999,-19.3121155364104],[-69.4247663469999,-19.3124534564104],[-69.4253037349999,-19.3125550264104]]]]}},{"type":"Feature","properties":{"id":"1402013008030","commune":"Camiña","code":"01402","gse":"D","quintil":"Q2","nse_score":649.8,"educ":10.1,"educ_score":473.3,"hacin":0.92,"hacin_class":"Sin Hacinamiento","hacin_score":868.1,"auto_score":0.0,"n_per":23,"n_hog":9,"source_year":2024},"geometry":{"type":"MultiPolygon","coordinates":[[[[-69.425701123,-19.3136300734104],[-69.4264302689999,-19.3138948204103],[-69.4269734609999,-19.3138070644103],[-69.4273575699999,-19.3136402164104],[-69.4273998869999,-19.3134332834103],[-69.4258210949999,-19.3131505854104],[-69.425701123,-19.3136300734104]]],[[[-69.4269507519999,-19.3133264614103],[-69.4274256689999,-19.3134067344104],[-69.4275337899999,-19.3129739354104],[-69.4270463009999,-19.3128802384104],[-69.4269507519999,-19.3133264614103]]]]}}]}