{"type":"FeatureCollection","features":[{"type":"Feature","properties":{"id":"10401011001001","commune":"Chaitén","code":"10401","gse":"C2","quintil":"Q4","nse_score":765.3,"educ":13.2,"educ_score":680.0,"hacin":1.023,"hacin_class":"Hacinamiento Leve","hacin_score":846.2,"auto_score":342.1,"n_per":89,"n_hog":37,"source_year":2024},"geometry":{"type":"Polygon","coordinates":[[[-72.7012245319999,-42.9106848030591],[-72.7022320559999,-42.9111835850591],[-72.7028903889999,-42.9123728260591],[-72.7029123729999,-42.9131216270591],[-72.7038756679999,-42.9130448190591],[-72.7040686289999,-42.9140157110591],[-72.7054809889999,-42.9138650600591],[-72.7052996449999,-42.9129037880591],[-72.7048185959999,-42.9126822740591],[-72.7052611839999,-42.9128388930591],[-72.7055910629999,-42.9127915900591],[-72.7054224249999,-42.9118535500591],[-72.7053690519999,-42.9109562700591],[-72.7056421529999,-42.9127960680591],[-72.7069365279999,-42.9126769580591],[-72.7067721299999,-42.9116123790591],[-72.7068694029999,-42.9116042930591],[-72.7070516069999,-42.9126609110591],[-72.7084456299999,-42.9125895650591],[-72.7086798469999,-42.9127240660591],[-72.7088454269999,-42.9135589440591],[-72.7102575309999,-42.9133971990591],[-72.7092817309999,-42.9123298020591],[-72.7086668519999,-42.9122759290591],[-72.7092629799999,-42.9122557810591],[-72.7096681039999,-42.9126078870591],[-72.7099165619999,-42.9122784620591],[-72.7106337189999,-42.9118184510591],[-72.7125925929999,-42.9117987060591],[-72.7123956979999,-42.9108251100591],[-72.7122227419999,-42.9106490450591],[-72.7114213679999,-42.9100866890591],[-72.7104737299999,-42.9097369940591],[-72.7012245319999,-42.9106848030591]]]}},{"type":"Feature","properties":{"id":"10401011001004","commune":"Chaitén","code":"10401","gse":"C2","quintil":"Q4","nse_score":725.7,"educ":12.0,"educ_score":600.0,"hacin":1.184,"hacin_class":"Hacinamiento Leve","hacin_score":811.9,"auto_score":210.5,"n_per":45,"n_hog":19,"source_year":2024},"geometry":{"type":"Polygon","coordinates":[[[-72.7072349069999,-42.9137127240591],[-72.7086675609999,-42.9135725350591],[-72.7085064409999,-42.9126884470591],[-72.7083265349999,-42.9125989440591],[-72.7070469969999,-42.9127231230591],[-72.7072349069999,-42.9137127240591]]]}},{"type":"Feature","properties":{"id":"10401011001005","commune":"Chaitén","code":"10401","gse":"C3","quintil":"Q3","nse_score":708.5,"educ":11.2,"educ_score":546.7,"hacin":1.062,"hacin_class":"Hacinamiento Leve","hacin_score":837.8,"auto_score":269.2,"n_per":34,"n_hog":12,"source_year":2024},"geometry":{"type":"Polygon","coordinates":[[[-72.7056512459999,-42.913863991059],[-72.7070635299999,-42.9137244850591],[-72.7068954479999,-42.9127468070591],[-72.7054634989999,-42.9128721780591],[-72.7056512459999,-42.913863991059]]]}},{"type":"Feature","properties":{"id":"10401011001010","commune":"Chaitén","code":"10401","gse":"C3","quintil":"Q3","nse_score":710.1,"educ":11.9,"educ_score":593.3,"hacin":1.343,"hacin_class":"Hacinamiento Leve","hacin_score":778.2,"auto_score":196.4,"n_per":98,"n_hog":27,"source_year":2024},"geometry":{"type":"Polygon","coordinates":[[[-72.7029898209999,-42.9146470550591],[-72.7039440319999,-42.9178036210591],[-72.7040121179999,-42.918715752059],[-72.7063047159999,-42.9184475270591],[-72.7060999299999,-42.9174252440591],[-72.7055219449999,-42.917467872059],[-72.705552699,-42.9181339860591],[-72.7049408689999,-42.9181328830591],[-72.7046400359999,-42.916625729059],[-72.7047545429999,-42.9164914190591],[-72.7052706229999,-42.9164714610591],[-72.7055014129999,-42.9173918890591],[-72.7060833289999,-42.9173226790591],[-72.7058336039999,-42.9158974000591],[-72.7046632249999,-42.9163397180591],[-72.703687053,-42.9163907040591],[-72.7030423499999,-42.914458075059],[-72.7029123729999,-42.9131216270591],[-72.7029898209999,-42.9146470550591]]]}},{"type":"Feature","properties":{"id":"10401011001017","commune":"Chaitén","code":"10401","gse":"ABC1","quintil":"Q5","nse_score":837.9,"educ":15.8,"educ_score":853.3,"hacin":0.667,"hacin_class":"Sin Hacinamiento","hacin_score":922.0,"auto_score":100.0,"n_per":6,"n_hog":4,"source_year":2024},"geometry":{"type":"Polygon","coordinates":[[[-72.7090413109999,-42.9147004400591],[-72.7104490309999,-42.9145663830591],[-72.7102738369999,-42.9135423490591],[-72.7088535159999,-42.9136716950591],[-72.7090413109999,-42.9147004400591]]]}},{"type":"Feature","properties":{"id":"10401011001021","commune":"Chaitén","code":"10401","gse":"C3","quintil":"Q3","nse_score":703.7,"educ":11.3,"educ_score":553.3,"hacin":0.912,"hacin_class":"Sin Hacinamiento","hacin_score":869.8,"auto_score":178.6,"n_per":31,"n_hog":12,"source_year":2024},"geometry":{"type":"Polygon","coordinates":[[[-72.7074371989999,-42.9148485630591],[-72.7088664329999,-42.9147119260591],[-72.7086992399999,-42.9136953500591],[-72.7072420469999,-42.9138282220591],[-72.7074371989999,-42.9148485630591]]]}},{"type":"Feature","properties":{"id":"10401011001024","commune":"Chaitén","code":"10401","gse":"C2","quintil":"Q3","nse_score":715.9,"educ":12.8,"educ_score":653.3,"hacin":1.273,"hacin_class":"Hacinamiento Leve","hacin_score":793.0,"auto_score":0.0,"n_per":28,"n_hog":11,"source_year":2024},"geometry":{"type":"Polygon","coordinates":[[[-72.7058540419999,-42.9150182070591],[-72.7072719949999,-42.9148772710591],[-72.7070959169999,-42.9138516870591],[-72.7056584569999,-42.9139819740591],[-72.7058540419999,-42.9150182070591]]]}},{"type":"Feature","properties":{"id":"10401011001029","commune":"Chaitén","code":"10401","gse":"C3","quintil":"Q3","nse_score":688.6,"educ":12.1,"educ_score":606.7,"hacin":1.044,"hacin_class":"Hacinamiento Leve","hacin_score":841.8,"auto_score":200.0,"n_per":24,"n_hog":13,"source_year":2024},"geometry":{"type":"Polygon","coordinates":[[[-72.7042657639999,-42.915170899059],[-72.7056756089999,-42.9150308370591],[-72.7055050019999,-42.9140055010591],[-72.7040757099999,-42.9141356120591],[-72.7042657639999,-42.915170899059]]]}},{"type":"Feature","properties":{"id":"10401011001035","commune":"Chaitén","code":"10401","gse":"C2","quintil":"Q4","nse_score":753.7,"educ":12.8,"educ_score":653.3,"hacin":1.333,"hacin_class":"Hacinamiento Leve","hacin_score":780.1,"auto_score":458.3,"n_per":32,"n_hog":11,"source_year":2024},"geometry":{"type":"Polygon","coordinates":[[[-72.7116855299999,-42.9204046310591],[-72.7118838759999,-42.9214324600591],[-72.7140838439999,-42.9214196400591],[-72.7128895459999,-42.9145710080591],[-72.7129584329999,-42.9143883630591],[-72.7122150229999,-42.9144979560591],[-72.7132826799999,-42.9202281390591],[-72.7116855299999,-42.9204046310591]]]}},{"type":"Feature","properties":{"id":"10401011001038","commune":"Chaitén","code":"10401","gse":"ABC1","quintil":"Q5","nse_score":833.5,"educ":14.3,"educ_score":753.3,"hacin":1.167,"hacin_class":"Hacinamiento Leve","hacin_score":815.6,"auto_score":62.5,"n_per":28,"n_hog":8,"source_year":2024},"geometry":{"type":"Polygon","coordinates":[[[-72.7108319359999,-42.9156884340591],[-72.7122422799999,-42.915548368059],[-72.7120679959999,-42.914589920059],[-72.7106286929999,-42.9146608460591],[-72.7108319359999,-42.9156884340591]]]}},{"type":"Feature","properties":{"id":"10401011001042","commune":"Chaitén","code":"10401","gse":"C3","quintil":"Q3","nse_score":703.3,"educ":9.4,"educ_score":426.7,"hacin":0.684,"hacin_class":"Sin Hacinamiento","hacin_score":918.3,"auto_score":71.4,"n_per":13,"n_hog":7,"source_year":2024},"geometry":{"type":"Polygon","coordinates":[[[-72.7092412729999,-42.9158414470591],[-72.7106529319999,-42.9157010600591],[-72.7104788189999,-42.9146835700591],[-72.70904694,-42.914811587059],[-72.7092412729999,-42.9158414470591]]]}},{"type":"Feature","properties":{"id":"10401011001059","commune":"Chaitén","code":"10401","gse":"C1","quintil":"Q5","nse_score":812.4,"educ":12.9,"educ_score":660.0,"hacin":0.913,"hacin_class":"Sin Hacinamiento","hacin_score":869.6,"auto_score":187.5,"n_per":21,"n_hog":8,"source_year":2024},"geometry":{"type":"Polygon","coordinates":[[[-72.7060556269999,-42.9161378950591],[-72.7074655739999,-42.915985952059],[-72.7073639569999,-42.9153197840591],[-72.7059848629999,-42.9158172220591],[-72.7060556269999,-42.9161378950591]]]}},{"type":"Feature","properties":{"id":"10401011001063","commune":"Chaitén","code":"10401","gse":"C1","quintil":"Q5","nse_score":785.2,"educ":13.4,"educ_score":693.3,"hacin":1.071,"hacin_class":"Hacinamiento Leve","hacin_score":835.9,"auto_score":214.3,"n_per":15,"n_hog":6,"source_year":2024},"geometry":{"type":"Polygon","coordinates":[[[-72.7110383079999,-42.9168314530591],[-72.712462162,-42.9166865080591],[-72.7122739449999,-42.9156643000591],[-72.7108377339999,-42.9157935590591],[-72.7110383079999,-42.9168314530591]]]}},{"type":"Feature","properties":{"id":"10401011001068","commune":"Chaitén","code":"10401","gse":"C1","quintil":"Q5","nse_score":789.7,"educ":12.6,"educ_score":640.0,"hacin":0.667,"hacin_class":"Sin Hacinamiento","hacin_score":922.0,"auto_score":71.4,"n_per":10,"n_hog":7,"source_year":2024},"geometry":{"type":"Polygon","coordinates":[[[-72.7094426759999,-42.9169887030591],[-72.7108637599999,-42.9168440800591],[-72.7106828229999,-42.9158168140591],[-72.7092460689999,-42.9159459890591],[-72.7094426759999,-42.9169887030591]]]}},{"type":"Feature","properties":{"id":"10401011001078","commune":"Chaitén","code":"10401","gse":"C1","quintil":"Q5","nse_score":794.8,"educ":14.5,"educ_score":766.7,"hacin":0.8,"hacin_class":"Sin Hacinamiento","hacin_score":893.6,"auto_score":0.0,"n_per":12,"n_hog":4,"source_year":2024},"geometry":{"type":"Polygon","coordinates":[[[-72.7062756519999,-42.9173007480591],[-72.7076761349999,-42.9171582780591],[-72.7075092529999,-42.9161647810591],[-72.7060730569999,-42.9163070810591],[-72.7062756519999,-42.9173007480591]]]}},{"type":"Feature","properties":{"id":"10401011001082","commune":"Chaitén","code":"10401","gse":"D","quintil":"Q1","nse_score":635.8,"educ":9.0,"educ_score":400.0,"hacin":0.875,"hacin_class":"Sin Hacinamiento","hacin_score":877.7,"auto_score":62.5,"n_per":28,"n_hog":15,"source_year":2024},"geometry":{"type":"Polygon","coordinates":[[[-72.7048997829999,-42.9174645650591],[-72.7054195279999,-42.9173963280591],[-72.7052172749999,-42.9165113260591],[-72.7047150619999,-42.9165926420591],[-72.7048997829999,-42.9174645650591]]]}},{"type":"Feature","properties":{"id":"10401011001084","commune":"Chaitén","code":"10401","gse":"C3","quintil":"Q2","nse_score":679.9,"educ":9.4,"educ_score":426.7,"hacin":1.0,"hacin_class":"Hacinamiento Leve","hacin_score":851.1,"auto_score":38.5,"n_per":28,"n_hog":12,"source_year":2024},"geometry":{"type":"Polygon","coordinates":[[[-72.7112431329999,-42.9179671150591],[-72.7126803799999,-42.9178208920591],[-72.7124955139999,-42.9168074460591],[-72.7110447999999,-42.9169417810591],[-72.7112431329999,-42.9179671150591]]]}},{"type":"Feature","properties":{"id":"10401011001088","commune":"Chaitén","code":"10401","gse":"C2","quintil":"Q4","nse_score":756.4,"educ":12.9,"educ_score":660.0,"hacin":0.971,"hacin_class":"Sin Hacinamiento","hacin_score":857.1,"auto_score":88.2,"n_per":34,"n_hog":16,"source_year":2024},"geometry":{"type":"Polygon","coordinates":[[[-72.7096422779999,-42.9181256430591],[-72.7110733309999,-42.917979363059],[-72.7108947749999,-42.916965299059],[-72.7094486949999,-42.9171007190591],[-72.7096422779999,-42.9181256430591]]]}},{"type":"Feature","properties":{"id":"10401011001095","commune":"Chaitén","code":"10401","gse":"C2","quintil":"Q4","nse_score":747.8,"educ":12.8,"educ_score":653.3,"hacin":1.033,"hacin_class":"Hacinamiento Leve","hacin_score":844.0,"auto_score":133.3,"n_per":31,"n_hog":15,"source_year":2024},"geometry":{"type":"Polygon","coordinates":[[[-72.7064909579999,-42.9184376430591],[-72.7078758819999,-42.9182960580591],[-72.7077065629999,-42.9172828060591],[-72.7062842649999,-42.9174157970591],[-72.7064909579999,-42.9184376430591]]]}},{"type":"Feature","properties":{"id":"10401011001098","commune":"Chaitén","code":"10401","gse":"C3","quintil":"Q3","nse_score":686.0,"educ":11.0,"educ_score":533.3,"hacin":1.4,"hacin_class":"Hacinamiento Leve","hacin_score":766.0,"auto_score":357.1,"n_per":21,"n_hog":7,"source_year":2024},"geometry":{"type":"Polygon","coordinates":[[[-72.7050801169999,-42.9181405330591],[-72.7055382549999,-42.9180590660591],[-72.7054258199999,-42.9174735350591],[-72.7048919229999,-42.9175333350591],[-72.7050801169999,-42.9181405330591]]]}},{"type":"Feature","properties":{"id":"10401011001101","commune":"Chaitén","code":"10401","gse":"C2","quintil":"Q3","nse_score":716.6,"educ":12.1,"educ_score":606.7,"hacin":1.067,"hacin_class":"Hacinamiento Leve","hacin_score":836.9,"auto_score":300.0,"n_per":80,"n_hog":35,"source_year":2024},"geometry":{"type":"Polygon","coordinates":[[[-72.7005477459999,-42.9176890480591],[-72.6999294609999,-42.9184281760591],[-72.6998117169999,-42.9189045920591],[-72.6998580509999,-42.9197128400591],[-72.6999527519999,-42.9198773530591],[-72.7003309709999,-42.9198891730591],[-72.6999590869999,-42.9222675500591],[-72.6982093309999,-42.923854782059],[-72.6987807629999,-42.925526355059],[-72.6990884749999,-42.9253824240591],[-72.7015003959999,-42.923187855059],[-72.7019641049999,-42.9223637380591],[-72.7022088729999,-42.9207669110591],[-72.7015692249999,-42.9207501970591],[-72.7003009129999,-42.9210393190591],[-72.7015617629999,-42.9207143860591],[-72.7022146109999,-42.9207311390591],[-72.7023430289999,-42.919971022059],[-72.7012078289999,-42.9199298930591],[-72.7023488109999,-42.9199350490591],[-72.7026170059999,-42.9179717040591],[-72.7024061359999,-42.9177802050591],[-72.7021520069999,-42.9178500740591],[-72.7015523829999,-42.9177263420591],[-72.7013739229999,-42.917959529059],[-72.7016597669999,-42.9181851970591],[-72.7016665239999,-42.9182809230591],[-72.7014967179999,-42.9185157950591],[-72.7016242419999,-42.918203186059],[-72.7013371269999,-42.9180708920591],[-72.7013399939999,-42.9179275380591],[-72.7015262079999,-42.9176906500591],[-72.7023738469999,-42.917758190059],[-72.7019525239999,-42.9175369530591],[-72.7010907669999,-42.9177810700591],[-72.7005477459999,-42.9176890480591]]]}},{"type":"Feature","properties":{"id":"10401011001103","commune":"Chaitén","code":"10401","gse":"C2","quintil":"Q4","nse_score":749.8,"educ":13.3,"educ_score":686.7,"hacin":1.185,"hacin_class":"Hacinamiento Leve","hacin_score":811.7,"auto_score":105.3,"n_per":32,"n_hog":18,"source_year":2024},"geometry":{"type":"Polygon","coordinates":[[[-72.7114714909999,-42.919154749059],[-72.7129045809999,-42.9189995960591],[-72.7127191119999,-42.9179735490591],[-72.7112567459999,-42.918109095059],[-72.7114714909999,-42.919154749059]]]}},{"type":"Feature","properties":{"id":"10401011001110","commune":"Chaitén","code":"10401","gse":"C1","quintil":"Q5","nse_score":799.0,"educ":13.4,"educ_score":693.3,"hacin":0.9,"hacin_class":"Sin Hacinamiento","hacin_score":872.3,"auto_score":300.0,"n_per":9,"n_hog":5,"source_year":2024},"geometry":{"type":"Polygon","coordinates":[[[-72.7098601829999,-42.9193241310591],[-72.7113032709999,-42.919167929059],[-72.7111111679999,-42.9181317640591],[-72.7096542489999,-42.9182669940591],[-72.7098601829999,-42.9193241310591]]]}},{"type":"Feature","properties":{"id":"10401011001114","commune":"Chaitén","code":"10401","gse":"C3","quintil":"Q3","nse_score":688.2,"educ":12.1,"educ_score":606.7,"hacin":1.154,"hacin_class":"Hacinamiento Leve","hacin_score":818.3,"auto_score":76.9,"n_per":30,"n_hog":11,"source_year":2024},"geometry":{"type":"Polygon","coordinates":[[[-72.7090290929999,-42.9189563630591],[-72.7089768999999,-42.9193136830591],[-72.7089184659999,-42.9189480360591],[-72.7091090449999,-42.918898298059],[-72.7090066089999,-42.9183340440591],[-72.7080515709999,-42.918434249059],[-72.7082414579999,-42.9194891270591],[-72.7096877219999,-42.919337861059],[-72.7095021939999,-42.9182854520591],[-72.7090633199999,-42.9183302510591],[-72.7091520709999,-42.9189345550591],[-72.7090290929999,-42.9189563630591]]]}},{"type":"Feature","properties":{"id":"10401011001118","commune":"Chaitén","code":"10401","gse":"C3","quintil":"Q3","nse_score":693.2,"educ":12.4,"educ_score":626.7,"hacin":1.2,"hacin_class":"Hacinamiento Leve","hacin_score":808.5,"auto_score":250.0,"n_per":18,"n_hog":7,"source_year":2024},"geometry":{"type":"Polygon","coordinates":[[[-72.7067180009999,-42.919603652059],[-72.7080876219999,-42.9195186590591],[-72.7079112249999,-42.9184500200591],[-72.7065061089999,-42.9185818930591],[-72.7067180009999,-42.919603652059]]]}},{"type":"Feature","properties":{"id":"10401011001123","commune":"Chaitén","code":"10401","gse":"C2","quintil":"Q4","nse_score":764.9,"educ":13.4,"educ_score":693.3,"hacin":1.278,"hacin_class":"Hacinamiento Leve","hacin_score":792.0,"auto_score":250.0,"n_per":23,"n_hog":8,"source_year":2024},"geometry":{"type":"Polygon","coordinates":[[[-72.7062629059999,-42.918600672059],[-72.704946532,-42.9187293420591],[-72.7051933519999,-42.9197279120591],[-72.7064498069999,-42.919620611059],[-72.7062629059999,-42.918600672059]]]}},{"type":"Feature","properties":{"id":"10401011001130","commune":"Chaitén","code":"10401","gse":"C2","quintil":"Q4","nse_score":733.0,"educ":11.0,"educ_score":533.3,"hacin":1.13,"hacin_class":"Hacinamiento Leve","hacin_score":823.3,"auto_score":272.7,"n_per":26,"n_hog":11,"source_year":2024},"geometry":{"type":"Polygon","coordinates":[[[-72.7066227389999,-42.9231604010591],[-72.7127408449999,-42.922582656059],[-72.7141610369999,-42.9227077940591],[-72.7150404749999,-42.9232360940591],[-72.715000701,-42.9230294070591],[-72.7144860329999,-42.9227449250591],[-72.7130832419999,-42.922384456059],[-72.7081482429999,-42.922637708059],[-72.7072589499999,-42.922579558059],[-72.706217551,-42.9223232620591],[-72.7051867339999,-42.921906328059],[-72.7043798589999,-42.9213427940591],[-72.7038255209999,-42.920630741059],[-72.7032385279999,-42.9192263950591],[-72.7026438919999,-42.9190757390591],[-72.7021611949999,-42.921736320059],[-72.7034020589999,-42.9217932000591],[-72.7052142219999,-42.922989725059],[-72.7066227389999,-42.9231604010591]]]}},{"type":"Feature","properties":{"id":"10401011001131","commune":"Chaitén","code":"10401","gse":"C3","quintil":"Q3","nse_score":695.6,"educ":11.5,"educ_score":566.7,"hacin":1.022,"hacin_class":"Hacinamiento Leve","hacin_score":846.3,"auto_score":200.0,"n_per":46,"n_hog":20,"source_year":2024},"geometry":{"type":"Polygon","coordinates":[[[-72.7116954839999,-42.920315530059],[-72.7131254179999,-42.920159149059],[-72.7129325179999,-42.919102363059],[-72.7114748689999,-42.9192490250591],[-72.7116954839999,-42.920315530059]]]}},{"type":"Feature","properties":{"id":"10401011001136","commune":"Chaitén","code":"10401","gse":"C2","quintil":"Q4","nse_score":735.8,"educ":12.2,"educ_score":613.3,"hacin":1.161,"hacin_class":"Hacinamiento Leve","hacin_score":816.9,"auto_score":250.0,"n_per":65,"n_hog":22,"source_year":2024},"geometry":{"type":"Polygon","coordinates":[[[-72.7100719659999,-42.9204865900591],[-72.7115261399999,-42.9203289660591],[-72.7113319419999,-42.9192714730591],[-72.7098637949999,-42.9194179570591],[-72.7100719659999,-42.9204865900591]]]}},{"type":"Feature","properties":{"id":"10401011001140","commune":"Chaitén","code":"10401","gse":"C1","quintil":"Q5","nse_score":809.7,"educ":15.2,"educ_score":813.3,"hacin":1.4,"hacin_class":"Hacinamiento Leve","hacin_score":766.0,"auto_score":363.6,"n_per":28,"n_hog":10,"source_year":2024},"geometry":{"type":"Polygon","coordinates":[[[-72.7083638599999,-42.920111773059],[-72.7097928179999,-42.9199665110591],[-72.7097206869999,-42.9194505130591],[-72.7082660489999,-42.9195827900591],[-72.7083638599999,-42.920111773059]]]}},{"type":"Feature","properties":{"id":"10401011001149","commune":"Chaitén","code":"10401","gse":"C2","quintil":"Q4","nse_score":775.4,"educ":14.1,"educ_score":740.0,"hacin":1.25,"hacin_class":"Hacinamiento Leve","hacin_score":797.9,"auto_score":400.0,"n_per":25,"n_hog":9,"source_year":2024},"geometry":{"type":"Polygon","coordinates":[[[-72.7084584259999,-42.9206565740591],[-72.7098898799999,-42.920505355059],[-72.70982405,-42.9200241300591],[-72.7083658009999,-42.920149919059],[-72.7084584259999,-42.9206565740591]]]}},{"type":"Feature","properties":{"id":"10401011001156","commune":"Chaitén","code":"10401","gse":"D","quintil":"Q2","nse_score":652.0,"educ":8.7,"educ_score":380.0,"hacin":0.926,"hacin_class":"Sin Hacinamiento","hacin_score":866.8,"auto_score":350.0,"n_per":25,"n_hog":10,"source_year":2024},"geometry":{"type":"Polygon","coordinates":[[[-72.7116512529999,-42.9210233170591],[-72.7108257809999,-42.9211952530591],[-72.7109113649999,-42.9211278990591],[-72.7116502619999,-42.920986172059],[-72.7115522649999,-42.9204306960591],[-72.7100723909999,-42.9205807300591],[-72.7102334799999,-42.9215235350591],[-72.711779626,-42.9214141110591],[-72.7116512529999,-42.9210233170591]]]}},{"type":"Feature","properties":{"id":"10401011001159","commune":"Chaitén","code":"10401","gse":"C2","quintil":"Q4","nse_score":766.2,"educ":13.0,"educ_score":666.7,"hacin":1.091,"hacin_class":"Hacinamiento Leve","hacin_score":831.7,"auto_score":156.2,"n_per":36,"n_hog":16,"source_year":2024},"geometry":{"type":"Polygon","coordinates":[[[-72.7101009719999,-42.9215580440591],[-72.7099137799999,-42.920595050059],[-72.7084537559999,-42.9207544110591],[-72.7086256889999,-42.9217027070591],[-72.7101009719999,-42.9215580440591]]]}},{"type":"Feature","properties":{"id":"10401011001165","commune":"Chaitén","code":"10401","gse":"C3","quintil":"Q3","nse_score":712.0,"educ":12.0,"educ_score":600.0,"hacin":1.0,"hacin_class":"Hacinamiento Leve","hacin_score":851.1,"auto_score":500.0,"n_per":12,"n_hog":6,"source_year":2024},"geometry":{"type":"Polygon","coordinates":[[[-72.7136959929999,-42.9236395520591],[-72.7151064809999,-42.9235790920591],[-72.7150559019999,-42.923316261059],[-72.7142085549999,-42.9228028330591],[-72.7127555839999,-42.9226560000591],[-72.7131127879999,-42.924597690059],[-72.7138506569999,-42.9245160130591],[-72.7136959929999,-42.9236395520591]]]}},{"type":"Feature","properties":{"id":"10401011001168","commune":"Chaitén","code":"10401","gse":"D","quintil":"Q1","nse_score":640.1,"educ":10.1,"educ_score":473.3,"hacin":1.071,"hacin_class":"Hacinamiento Leve","hacin_score":835.9,"auto_score":0.0,"n_per":15,"n_hog":8,"source_year":2024},"geometry":{"type":"Polygon","coordinates":[[[-72.7096339819999,-42.9229952590591],[-72.7089558079999,-42.9230859790591],[-72.7093412049999,-42.9249945350591],[-72.7100028199999,-42.924899871059],[-72.7096339819999,-42.9229952590591]]]}},{"type":"Feature","properties":{"id":"10401011001174","commune":"Chaitén","code":"10401","gse":"C3","quintil":"Q2","nse_score":678.1,"educ":9.7,"educ_score":446.7,"hacin":0.727,"hacin_class":"Sin Hacinamiento","hacin_score":909.1,"auto_score":266.7,"n_per":24,"n_hog":15,"source_year":2024},"geometry":{"type":"Polygon","coordinates":[[[-72.7123420389999,-42.924727701059],[-72.7124430959999,-42.9253166130591],[-72.7139451059999,-42.9251471210591],[-72.7138329549999,-42.9245543750591],[-72.7123420389999,-42.924727701059]]]}},{"type":"Feature","properties":{"id":"10401011001175","commune":"Chaitén","code":"10401","gse":"C3","quintil":"Q2","nse_score":679.9,"educ":11.4,"educ_score":560.0,"hacin":1.14,"hacin_class":"Hacinamiento Leve","hacin_score":821.3,"auto_score":357.1,"n_per":57,"n_hog":22,"source_year":2024},"geometry":{"type":"Polygon","coordinates":[[[-72.7138892949999,-42.9245907150591],[-72.7139935359999,-42.9251416550591],[-72.7143496699999,-42.925137631059],[-72.7140000159999,-42.9251773510591],[-72.7140947909999,-42.925712111059],[-72.7144636779999,-42.9257100460591],[-72.7141011259999,-42.9257478150591],[-72.7144091679999,-42.927362423059],[-72.7145030769999,-42.927444753059],[-72.7155170449999,-42.927337439059],[-72.7153243659999,-42.9271447620591],[-72.7149437529999,-42.9250634220591],[-72.7143440289999,-42.9246047730591],[-72.7138892949999,-42.9245907150591]]]}},{"type":"Feature","properties":{"id":"10401011001176","commune":"Chaitén","code":"10401","gse":"C3","quintil":"Q2","nse_score":680.8,"educ":9.9,"educ_score":460.0,"hacin":0.938,"hacin_class":"Sin Hacinamiento","hacin_score":864.4,"auto_score":375.0,"n_per":15,"n_hog":8,"source_year":2024},"geometry":{"type":"Polygon","coordinates":[[[-72.7122943699999,-42.9247376860591],[-72.7112357009999,-42.9248616080591],[-72.7112912959999,-42.9254117630591],[-72.7123946539999,-42.9253220800591],[-72.7122943699999,-42.9247376860591]]]}},{"type":"Feature","properties":{"id":"10401011001177","commune":"Chaitén","code":"10401","gse":"E","quintil":"Q1","nse_score":603.0,"educ":8.3,"educ_score":353.3,"hacin":1.044,"hacin_class":"Hacinamiento Leve","hacin_score":841.8,"auto_score":181.8,"n_per":24,"n_hog":12,"source_year":2024},"geometry":{"type":"Polygon","coordinates":[[[-72.7057922749999,-42.9250557670591],[-72.7060605789999,-42.926577776059],[-72.7066064119999,-42.9265294200591],[-72.7071367919999,-42.926305136059],[-72.7068256059999,-42.9253126500591],[-72.7061113669999,-42.925353552059],[-72.7075712809999,-42.925202583059],[-72.7075011449999,-42.924844197059],[-72.7057922749999,-42.9250557670591]]]}},{"type":"Feature","properties":{"id":"10401011001182","commune":"Chaitén","code":"10401","gse":"E","quintil":"Q1","nse_score":580.0,"educ":7.9,"educ_score":326.7,"hacin":0.833,"hacin_class":"Sin Hacinamiento","hacin_score":886.5,"auto_score":333.3,"n_per":10,"n_hog":5,"source_year":2024},"geometry":{"type":"Polygon","coordinates":[[[-72.7092203829999,-42.9255854250591],[-72.7091066549999,-42.9251640250591],[-72.7077336699999,-42.925330531059],[-72.7078245939999,-42.925723729059],[-72.7092203829999,-42.9255854250591]]]}},{"type":"Feature","properties":{"id":"10401011001183","commune":"Chaitén","code":"10401","gse":"C2","quintil":"Q4","nse_score":734.5,"educ":12.2,"educ_score":613.3,"hacin":1.029,"hacin_class":"Hacinamiento Leve","hacin_score":844.8,"auto_score":321.4,"n_per":35,"n_hog":14,"source_year":2024},"geometry":{"type":"Polygon","coordinates":[[[-72.7128377179999,-42.9258267880591],[-72.7140462719999,-42.9257171250591],[-72.7139515759999,-42.9251828180591],[-72.7124492319999,-42.925352348059],[-72.7125078449999,-42.925693896059],[-72.7128377179999,-42.9258267880591]]]}},{"type":"Feature","properties":{"id":"10401011001184","commune":"Chaitén","code":"10401","gse":"D","quintil":"Q2","nse_score":664.4,"educ":11.2,"educ_score":546.7,"hacin":1.375,"hacin_class":"Hacinamiento Leve","hacin_score":771.3,"auto_score":571.4,"n_per":22,"n_hog":7,"source_year":2024},"geometry":{"type":"Polygon","coordinates":[[[-72.7072998919999,-42.9262714760591],[-72.7077978379999,-42.926140762059],[-72.7075782629999,-42.925238259059],[-72.7069070829999,-42.9253037600591],[-72.7071177559999,-42.9262022240591],[-72.7072998919999,-42.9262714760591]]]}},{"type":"Feature","properties":{"id":"10401011001185","commune":"Chaitén","code":"10401","gse":"C2","quintil":"Q3","nse_score":718.4,"educ":12.0,"educ_score":600.0,"hacin":0.879,"hacin_class":"Sin Hacinamiento","hacin_score":876.9,"auto_score":115.4,"n_per":29,"n_hog":13,"source_year":2024},"geometry":{"type":"Polygon","coordinates":[[[-72.7113825319999,-42.9259488760591],[-72.7122003139999,-42.9258878910591],[-72.7124609019999,-42.925708113059],[-72.7124007909999,-42.925357814059],[-72.7113414229999,-42.9254824500591],[-72.7113825319999,-42.9259488760591]]]}},{"type":"Feature","properties":{"id":"10401011001190","commune":"Chaitén","code":"10401","gse":"C2","quintil":"Q3","nse_score":716.7,"educ":11.3,"educ_score":553.3,"hacin":0.667,"hacin_class":"Sin Hacinamiento","hacin_score":922.0,"auto_score":218.8,"n_per":28,"n_hog":16,"source_year":2024},"geometry":{"type":"Polygon","coordinates":[[[-72.712560746,-42.926031605059],[-72.7126355629999,-42.9264614370591],[-72.7141475319999,-42.9262912350591],[-72.7140526089999,-42.925752829059],[-72.7128705029999,-42.925874988059],[-72.712560746,-42.926031605059]]]}},{"type":"Feature","properties":{"id":"10401011001198","commune":"Chaitén","code":"10401","gse":"C3","quintil":"Q2","nse_score":669.2,"educ":10.1,"educ_score":473.3,"hacin":0.929,"hacin_class":"Sin Hacinamiento","hacin_score":866.3,"auto_score":100.0,"n_per":26,"n_hog":15,"source_year":2024},"geometry":{"type":"Polygon","coordinates":[[[-72.7142588309999,-42.9269333330591],[-72.7141537249999,-42.9263269630591],[-72.7126420689999,-42.926497130059],[-72.71279942,-42.9271164560591],[-72.7142588309999,-42.9269333330591]]]}},{"type":"Feature","properties":{"id":"10401011001199","commune":"Chaitén","code":"10401","gse":"D","quintil":"Q1","nse_score":645.6,"educ":10.3,"educ_score":486.7,"hacin":1.656,"hacin_class":"Hacinamiento Medio","hacin_score":711.4,"auto_score":125.0,"n_per":53,"n_hog":15,"source_year":2024},"geometry":{"type":"Polygon","coordinates":[[[-72.7090127959999,-42.9270375030591],[-72.7092339819999,-42.9280064100591],[-72.7113457629999,-42.9277961020591],[-72.7111977049999,-42.927341093059],[-72.7097136469999,-42.9274682020591],[-72.7095633129999,-42.927333745059],[-72.7094138679999,-42.9266951290591],[-72.7081839719999,-42.9267993340591],[-72.7082658909999,-42.9270753380591],[-72.7090127959999,-42.9270375030591]]]}},{"type":"Feature","properties":{"id":"10401011001200","commune":"Chaitén","code":"10401","gse":"C3","quintil":"Q3","nse_score":687.1,"educ":11.9,"educ_score":593.3,"hacin":1.087,"hacin_class":"Hacinamiento Leve","hacin_score":832.6,"auto_score":333.3,"n_per":25,"n_hog":11,"source_year":2024},"geometry":{"type":"Polygon","coordinates":[[[-72.7110970929999,-42.9267816450591],[-72.7097095529999,-42.926932510059],[-72.7097773399999,-42.9274017180591],[-72.7111959879999,-42.9272867550591],[-72.7110970929999,-42.9267816450591]]]}},{"type":"Feature","properties":{"id":"10401011001201","commune":"Chaitén","code":"10401","gse":"D","quintil":"Q2","nse_score":667.7,"educ":10.4,"educ_score":493.3,"hacin":1.417,"hacin_class":"Hacinamiento Leve","hacin_score":762.4,"auto_score":375.0,"n_per":34,"n_hog":12,"source_year":2024},"geometry":{"type":"Polygon","coordinates":[[[-72.7113211749999,-42.9273321690591],[-72.7113941919999,-42.927790541059],[-72.7143944539999,-42.9274561340591],[-72.7142341489999,-42.9270134120591],[-72.7113211749999,-42.9273321690591]]]}},{"type":"Feature","properties":{"id":"10401011001143","commune":"Chaitén","code":"10401","gse":"C1","quintil":"Q5","nse_score":780.9,"educ":12.6,"educ_score":640.0,"hacin":0.889,"hacin_class":"Sin Hacinamiento","hacin_score":874.7,"auto_score":125.0,"n_per":16,"n_hog":8,"source_year":2024},"geometry":{"type":"MultiPolygon","coordinates":[[[[-72.7074628139999,-42.9202693670591],[-72.7075645899999,-42.9208110600591],[-72.7083040189999,-42.920733134059],[-72.7082027789999,-42.9201768360591],[-72.7074628139999,-42.9202693670591]]],[[[-72.708082756,-42.9196230740591],[-72.7073808769999,-42.9196804110591],[-72.707454073,-42.920181837059],[-72.7081903389999,-42.9201196280591],[-72.708082756,-42.9196230740591]]]]}},{"type":"Feature","properties":{"id":"10401011001169","commune":"Chaitén","code":"10401","gse":"C2","quintil":"Q3","nse_score":721.1,"educ":12.4,"educ_score":626.7,"hacin":1.077,"hacin_class":"Hacinamiento Leve","hacin_score":834.7,"auto_score":150.0,"n_per":28,"n_hog":13,"source_year":2024},"geometry":{"type":"MultiPolygon","coordinates":[[[[-72.7077226399999,-42.9251617720591],[-72.7083922249999,-42.9250838310591],[-72.7080395809999,-42.9231474910591],[-72.7073357889999,-42.9232229160591],[-72.7077226399999,-42.9251617720591]]],[[[-72.7084544579999,-42.925083718059],[-72.7090984359999,-42.925001708059],[-72.7087346069999,-42.9230888620591],[-72.7080881669999,-42.923142865059],[-72.7084544579999,-42.925083718059]]]]}},{"type":"Feature","properties":{"id":"10401011001047","commune":"Chaitén","code":"10401","gse":"C3","quintil":"Q2","nse_score":674.0,"educ":14.6,"educ_score":773.3,"hacin":1.214,"hacin_class":"Hacinamiento Leve","hacin_score":805.5,"auto_score":76.9,"n_per":17,"n_hog":8,"source_year":2024},"geometry":{"type":"MultiPolygon","coordinates":[[[[-72.7059963589999,-42.9157011120591],[-72.7073224479999,-42.9151898080591],[-72.707306995,-42.9149995870591],[-72.7058636829999,-42.9151168570591],[-72.7059963589999,-42.9157011120591]]],[[[-72.7074928389999,-42.9152359140591],[-72.7076451389999,-42.9160160860591],[-72.7090669999999,-42.9158706100591],[-72.7088996499999,-42.9148419360591],[-72.7074928389999,-42.9152359140591]]]]}},{"type":"Feature","properties":{"id":"10401011001180","commune":"Chaitén","code":"10401","gse":"E","quintil":"Q1","nse_score":542.2,"educ":10.6,"educ_score":506.7,"hacin":1.769,"hacin_class":"Hacinamiento Medio","hacin_score":687.4,"auto_score":416.7,"n_per":23,"n_hog":6,"source_year":2024},"geometry":{"type":"MultiPolygon","coordinates":[[[[-72.7095006729999,-42.925952368059],[-72.7108697739999,-42.9258068660591],[-72.7108290379999,-42.9254871190591],[-72.7094431869999,-42.9256055700591],[-72.7095006729999,-42.925952368059]]],[[[-72.7094344799999,-42.9255628710591],[-72.7107890289999,-42.925425525059],[-72.7107219619999,-42.925005544059],[-72.7093551149999,-42.9251384300591],[-72.7094344799999,-42.9255628710591]]]]}},{"type":"Feature","properties":{"id":"10401011001127","commune":"Chaitén","code":"10401","gse":"C2","quintil":"Q4","nse_score":761.1,"educ":12.3,"educ_score":620.0,"hacin":0.792,"hacin_class":"Sin Hacinamiento","hacin_score":895.4,"auto_score":222.2,"n_per":19,"n_hog":9,"source_year":2024},"geometry":{"type":"MultiPolygon","coordinates":[[[[-72.7072333699999,-42.9196689790591],[-72.7048746849999,-42.9198376910591],[-72.7061666229999,-42.9207909730591],[-72.7084733639999,-42.9216808810591],[-72.7083198909999,-42.920790169059],[-72.7075062579999,-42.9208609500591],[-72.7072333699999,-42.9196689790591]]],[[[-72.7047714429999,-42.919756498059],[-72.7051369709999,-42.9197471900591],[-72.7048822519999,-42.9187966760591],[-72.704160569,-42.9188399550591],[-72.7047714429999,-42.919756498059]]]]}},{"type":"Feature","properties":{"id":"10401011001193","commune":"Chaitén","code":"10401","gse":"D","quintil":"Q1","nse_score":625.5,"educ":9.6,"educ_score":440.0,"hacin":1.189,"hacin_class":"Hacinamiento Leve","hacin_score":810.8,"auto_score":156.2,"n_per":44,"n_hog":14,"source_year":2024},"geometry":{"type":"MultiPolygon","coordinates":[[[[-72.7096830479999,-42.926872675059],[-72.7110750419999,-42.926732205059],[-72.7109996629999,-42.926244512059],[-72.7095855409999,-42.9263726030591],[-72.7096830479999,-42.926872675059]]],[[[-72.7095740029999,-42.926331151059],[-72.7109638559999,-42.926192472059],[-72.7109160399999,-42.925855928059],[-72.7095115689999,-42.925991513059],[-72.7095740029999,-42.926331151059]]]]}},{"type":"Feature","properties":{"id":"10401011001002","commune":"Chaitén","code":"10401","gse":"C2","quintil":"Q4","nse_score":742.4,"educ":13.1,"educ_score":673.3,"hacin":0.917,"hacin_class":"Sin Hacinamiento","hacin_score":868.8,"auto_score":145.8,"n_per":44,"n_hog":21,"source_year":2024},"geometry":{"type":"MultiPolygon","coordinates":[[[[-72.7131392789999,-42.9118206840591],[-72.7107704769999,-42.9118353120591],[-72.7099618349999,-42.9123100490591],[-72.7097299559999,-42.9126953850591],[-72.7103474019999,-42.9134086350591],[-72.7110040319999,-42.9133196160591],[-72.7114927709999,-42.9127518000591],[-72.7109924399999,-42.9134017200591],[-72.7118332559999,-42.9136827130591],[-72.7120995459999,-42.9135504890591],[-72.7118357969999,-42.9137107470591],[-72.7109124859999,-42.9134063700591],[-72.7104093719999,-42.913449988059],[-72.7106019199999,-42.9145476750591],[-72.7119953419999,-42.9143937620591],[-72.7123187329999,-42.9140325250591],[-72.7124146639999,-42.9133005880591],[-72.7127094079999,-42.9128776020591],[-72.7138037759999,-42.9127434640591],[-72.7143852849999,-42.9124585610591],[-72.7137592189999,-42.9114904140591],[-72.7131392789999,-42.9118206840591]]],[[[-72.7126724189999,-42.9118126080591],[-72.7131126689999,-42.9117801860591],[-72.7137160639999,-42.9114433030591],[-72.7125428409999,-42.9102467300591],[-72.7124251219999,-42.9107458610591],[-72.7126724189999,-42.9118126080591]]]]}},{"type":"Feature","properties":{"id":"10401011001163","commune":"Chaitén","code":"10401","gse":"E","quintil":"Q1","nse_score":595.6,"educ":8.4,"educ_score":360.0,"hacin":1.059,"hacin_class":"Hacinamiento Leve","hacin_score":838.5,"auto_score":500.0,"n_per":18,"n_hog":7,"source_year":2024},"geometry":{"type":"MultiPolygon","coordinates":[[[[-72.703295152,-42.9218325420591],[-72.7045396099999,-42.924125153059],[-72.7054616519999,-42.925023400059],[-72.7074941699999,-42.9248085560591],[-72.7071866909999,-42.923237371059],[-72.7053645279999,-42.9231141880591],[-72.7039126219999,-42.922110939059],[-72.703295152,-42.9218325420591]]],[[[-72.7031760929999,-42.9217947230591],[-72.7021530449999,-42.9217903690591],[-72.7019858909999,-42.9226148010591],[-72.7015794479999,-42.923230334059],[-72.6991613989999,-42.925430599059],[-72.6988405089999,-42.9255849400591],[-72.6994684619999,-42.927388706059],[-72.7001248669999,-42.927218526059],[-72.7010410149999,-42.9267095490591],[-72.7035960809999,-42.9244436810591],[-72.7042342799999,-42.9236954190591],[-72.7031760929999,-42.9217947230591]]]]}},{"type":"Feature","properties":{"id":"10401011001166","commune":"Chaitén","code":"10401","gse":"D","quintil":"Q2","nse_score":657.6,"educ":9.9,"educ_score":460.0,"hacin":0.909,"hacin_class":"Sin Hacinamiento","hacin_score":870.4,"auto_score":375.0,"n_per":20,"n_hog":8,"source_year":2024},"geometry":{"type":"MultiPolygon","coordinates":[[[[-72.7100740369999,-42.9248989050591],[-72.7106836989999,-42.924824556059],[-72.7102436799999,-42.9229438990591],[-72.7096910539999,-42.9230344320591],[-72.7100740369999,-42.9248989050591]]],[[[-72.7108051089999,-42.9248526440591],[-72.7130643419999,-42.9246030530591],[-72.7127066729999,-42.9226588620591],[-72.7103804069999,-42.9229414100591],[-72.7108051089999,-42.9248526440591]]]]}},{"type":"Feature","properties":{"id":"10401011001009","commune":"Chaitén","code":"10401","gse":"C2","quintil":"Q4","nse_score":767.4,"educ":13.0,"educ_score":666.7,"hacin":0.842,"hacin_class":"Sin Hacinamiento","hacin_score":884.7,"auto_score":176.5,"n_per":32,"n_hog":17,"source_year":2024},"geometry":{"type":"MultiPolygon","coordinates":[[[[-72.7056983939999,-42.915138660059],[-72.7042616679999,-42.9152814610591],[-72.7044816489999,-42.9162997720591],[-72.7058136939999,-42.9157628190591],[-72.7056983939999,-42.915138660059]]],[[[-72.7032297029999,-42.9149869680591],[-72.7037300909999,-42.9163713990591],[-72.7043186409999,-42.9163465630591],[-72.7041439249999,-42.9153544070591],[-72.7034322049999,-42.915385977059],[-72.7041360699999,-42.915309796059],[-72.7037442099999,-42.9130906710591],[-72.7030096899999,-42.9131379380591],[-72.7032297029999,-42.9149869680591]]]]}}]}