{"type":"FeatureCollection","features":[{"type":"Feature","properties":{"id":"7202011001001","commune":"Chanco","code":"07202","gse":"C2","quintil":"Q3","nse_score":720.6,"educ":11.5,"educ_score":566.7,"hacin":1.091,"hacin_class":"Hacinamiento Leve","hacin_score":831.7,"auto_score":240.7,"n_per":72,"n_hog":27,"source_year":2024},"geometry":{"type":"Polygon","coordinates":[[[-72.5279328539999,-35.7284609101052],[-72.5275477939999,-35.7281869111052],[-72.5272627229999,-35.7283293241052],[-72.5283227229999,-35.7275781941052],[-72.5282228739999,-35.7274106231052],[-72.5270322209999,-35.7282134981052],[-72.5272395339999,-35.7284720531052],[-72.5279592069999,-35.7286068501052],[-72.5287757229999,-35.7301005741052],[-72.5294107309999,-35.7298784841051],[-72.5292264619999,-35.7296520391051],[-72.5298954669999,-35.7291843241052],[-72.5296882019999,-35.7289776161052],[-72.5290540239999,-35.7293847761052],[-72.5296660129999,-35.7289575411052],[-72.5286619619999,-35.7279469751052],[-72.5279328539999,-35.7284609101052]]]}},{"type":"Feature","properties":{"id":"7202011001002","commune":"Chanco","code":"07202","gse":"C2","quintil":"Q3","nse_score":711.8,"educ":10.4,"educ_score":493.3,"hacin":0.857,"hacin_class":"Sin Hacinamiento","hacin_score":881.5,"auto_score":0.0,"n_per":12,"n_hog":4,"source_year":2024},"geometry":{"type":"Polygon","coordinates":[[[-72.5292163579999,-35.7284853091052],[-72.5307729919999,-35.7299513521052],[-72.5314503339999,-35.7280108071052],[-72.5295720949999,-35.7275824741052],[-72.5292163579999,-35.7284853091052]]]}},{"type":"Feature","properties":{"id":"7202011001003","commune":"Chanco","code":"07202","gse":"C3","quintil":"Q3","nse_score":679.6,"educ":10.8,"educ_score":520.0,"hacin":1.234,"hacin_class":"Hacinamiento Leve","hacin_score":801.3,"auto_score":93.8,"n_per":58,"n_hog":17,"source_year":2024},"geometry":{"type":"Polygon","coordinates":[[[-72.5278824569999,-35.7284069641052],[-72.5286275289999,-35.7279138081052],[-72.5283777589999,-35.7276040731052],[-72.5276071179999,-35.7281559521052],[-72.5278824569999,-35.7284069641052]]]}},{"type":"Feature","properties":{"id":"7202011001004","commune":"Chanco","code":"07202","gse":"C3","quintil":"Q2","nse_score":668.3,"educ":11.3,"educ_score":553.3,"hacin":1.101,"hacin_class":"Hacinamiento Leve","hacin_score":829.6,"auto_score":0.0,"n_per":120,"n_hog":54,"source_year":2024},"geometry":{"type":"Polygon","coordinates":[[[-72.5307767759999,-35.7300650921052],[-72.5299308589999,-35.7292223531052],[-72.5292921309999,-35.7296559521051],[-72.5294525499999,-35.7298827691052],[-72.5287865269999,-35.7302051111052],[-72.5297310379999,-35.7321448681051],[-72.5297131059999,-35.7323228321052],[-72.5294717899999,-35.7325522611052],[-72.5299173769999,-35.7334841871051],[-72.5299764219999,-35.7338593711051],[-72.5298819309999,-35.7339849401051],[-72.5308302129999,-35.7347316861051],[-72.5308599629999,-35.7358347831051],[-72.5313650269999,-35.7359027001051],[-72.5321516969999,-35.7355061121051],[-72.5317348819999,-35.7335808921052],[-72.5309570419999,-35.7336706541051],[-72.5317148929999,-35.7335050371051],[-72.5314412939999,-35.7324843021051],[-72.5308828199999,-35.7325696431051],[-72.5314166989999,-35.7323929401052],[-72.5307767759999,-35.7300650921052]]]}},{"type":"Feature","properties":{"id":"7202011001005","commune":"Chanco","code":"07202","gse":"C3","quintil":"Q2","nse_score":673.5,"educ":10.7,"educ_score":513.3,"hacin":0.934,"hacin_class":"Sin Hacinamiento","hacin_score":865.0,"auto_score":87.0,"n_per":57,"n_hog":24,"source_year":2024},"geometry":{"type":"Polygon","coordinates":[[[-72.531171878,-35.7311636781051],[-72.5325842749999,-35.7309542551051],[-72.5308602359999,-35.7300830311052],[-72.531171878,-35.7311636781051]]]}},{"type":"Feature","properties":{"id":"7202011001006","commune":"Chanco","code":"07202","gse":"D","quintil":"Q2","nse_score":645.7,"educ":10.0,"educ_score":466.7,"hacin":1.208,"hacin_class":"Hacinamiento Leve","hacin_score":806.7,"auto_score":220.0,"n_per":284,"n_hog":101,"source_year":2024},"geometry":{"type":"Polygon","coordinates":[[[-72.5315580259999,-35.7303286861052],[-72.5326887579999,-35.7309609051052],[-72.5344610369999,-35.7307566801052],[-72.5346900369999,-35.7302027071052],[-72.5345468509999,-35.7307397791051],[-72.5355101899999,-35.7307715751052],[-72.5340345769999,-35.7308656971052],[-72.5341529649999,-35.7314370251052],[-72.5347701129999,-35.7313593611052],[-72.5341565789999,-35.7314703601052],[-72.5342513889999,-35.7319411951051],[-72.5362305989999,-35.7315694761052],[-72.5354968689999,-35.7318715431052],[-72.5361342159999,-35.7327993111052],[-72.5371266959999,-35.7338300531052],[-72.5365400729999,-35.7341759011052],[-72.5378245539999,-35.7357591411051],[-72.5371547479999,-35.7364037831051],[-72.5377113679999,-35.7364834161051],[-72.5379545259999,-35.7362844151051],[-72.5377648459999,-35.7364987521051],[-72.5380111609999,-35.7365633761051],[-72.5382313839999,-35.7366926341051],[-72.5384384819999,-35.7368733921051],[-72.5385001529999,-35.7369871831051],[-72.5380001589999,-35.7365867671051],[-72.5371749899999,-35.7365469741052],[-72.5370505939999,-35.7363862361051],[-72.5365381559999,-35.7368875341051],[-72.5376358259999,-35.7367677361051],[-72.5382351949999,-35.7369918981051],[-72.5383565759999,-35.7371821581051],[-72.5386896919999,-35.7370540401051],[-72.5379459939999,-35.7360223951051],[-72.5386950849999,-35.7354054521051],[-72.5371269069999,-35.7338542581051],[-72.5380027849999,-35.7332164691052],[-72.5371244149999,-35.7323827301051],[-72.5368812739999,-35.7314842761051],[-72.5361134329999,-35.7303214851052],[-72.5346767419999,-35.7301262911051],[-72.5346325269999,-35.7302281131052],[-72.5340590369999,-35.7301133751051],[-72.533596256,-35.7301746661051],[-72.5335776899999,-35.7300722181051],[-72.5315580259999,-35.7303286861052]]]}},{"type":"Feature","properties":{"id":"7202011001007","commune":"Chanco","code":"07202","gse":"D","quintil":"Q2","nse_score":650.6,"educ":11.8,"educ_score":586.7,"hacin":1.147,"hacin_class":"Hacinamiento Leve","hacin_score":819.7,"auto_score":33.3,"n_per":70,"n_hog":29,"source_year":2024},"geometry":{"type":"Polygon","coordinates":[[[-72.5331633929999,-35.7321341271052],[-72.5341756749999,-35.7319694781051],[-72.5339467549999,-35.7308971141052],[-72.5329612299999,-35.7310190451051],[-72.5331633929999,-35.7321341271052]]]}},{"type":"Feature","properties":{"id":"7202011001008","commune":"Chanco","code":"07202","gse":"D","quintil":"Q1","nse_score":617.4,"educ":10.8,"educ_score":520.0,"hacin":1.217,"hacin_class":"Hacinamiento Leve","hacin_score":805.0,"auto_score":178.6,"n_per":73,"n_hog":27,"source_year":2024},"geometry":{"type":"Polygon","coordinates":[[[-72.5315135879999,-35.7324021391051],[-72.5330777009999,-35.7321418341052],[-72.5328784469999,-35.7310149131052],[-72.5311882739999,-35.7312341411052],[-72.5315135879999,-35.7324021391051]]]}},{"type":"Feature","properties":{"id":"7202011001009","commune":"Chanco","code":"07202","gse":"D","quintil":"Q1","nse_score":599.6,"educ":10.5,"educ_score":500.0,"hacin":1.324,"hacin_class":"Hacinamiento Leve","hacin_score":782.1,"auto_score":50.0,"n_per":49,"n_hog":19,"source_year":2024},"geometry":{"type":"Polygon","coordinates":[[[-72.5342816829999,-35.7320593541052],[-72.5345202959999,-35.7331187561052],[-72.5360572899999,-35.7328490221051],[-72.5358620529999,-35.7325345991052],[-72.5352983959999,-35.7327578121051],[-72.5350190359999,-35.7322561831052],[-72.53531505,-35.7327198551051],[-72.5358451579999,-35.7325099271052],[-72.5353942759999,-35.7318680881052],[-72.5342816829999,-35.7320593541052]]]}},{"type":"Feature","properties":{"id":"7202011001010","commune":"Chanco","code":"07202","gse":"C2","quintil":"Q3","nse_score":719.8,"educ":12.2,"educ_score":613.3,"hacin":0.7,"hacin_class":"Sin Hacinamiento","hacin_score":914.9,"auto_score":45.5,"n_per":21,"n_hog":12,"source_year":2024},"geometry":{"type":"Polygon","coordinates":[[[-72.5344377049999,-35.7331119251051],[-72.5342097849999,-35.7320499481051],[-72.5331627189999,-35.7322025271051],[-72.5333600689999,-35.7333087141051],[-72.5344377049999,-35.7331119251051]]]}},{"type":"Feature","properties":{"id":"7202011001011","commune":"Chanco","code":"07202","gse":"D","quintil":"Q2","nse_score":645.9,"educ":12.7,"educ_score":646.7,"hacin":0.892,"hacin_class":"Sin Hacinamiento","hacin_score":874.1,"auto_score":83.3,"n_per":33,"n_hog":12,"source_year":2024},"geometry":{"type":"Polygon","coordinates":[[[-72.5332873049999,-35.7333311601051],[-72.5330838499999,-35.7322076691052],[-72.5315277509999,-35.7324768831052],[-72.5318131669999,-35.7335087671051],[-72.5332873049999,-35.7333311601051]]]}},{"type":"Feature","properties":{"id":"7202011001012","commune":"Chanco","code":"07202","gse":"C3","quintil":"Q2","nse_score":666.5,"educ":11.2,"educ_score":546.7,"hacin":0.909,"hacin_class":"Sin Hacinamiento","hacin_score":870.4,"auto_score":66.7,"n_per":30,"n_hog":14,"source_year":2024},"geometry":{"type":"Polygon","coordinates":[[[-72.5355879669999,-35.7333064911052],[-72.5354533519999,-35.7330163731051],[-72.5345303589999,-35.7331760191051],[-72.5347665879999,-35.7342376251051],[-72.5365050949999,-35.7340445771052],[-72.5370296289999,-35.7338374611051],[-72.5361351019999,-35.7329247991051],[-72.5354899749999,-35.7330103311051],[-72.5355879669999,-35.7333064911052]]]}},{"type":"Feature","properties":{"id":"7202011001015","commune":"Chanco","code":"07202","gse":"C3","quintil":"Q3","nse_score":681.5,"educ":11.0,"educ_score":533.3,"hacin":1.04,"hacin_class":"Hacinamiento Leve","hacin_score":842.6,"auto_score":0.0,"n_per":26,"n_hog":14,"source_year":2024},"geometry":{"type":"Polygon","coordinates":[[[-72.5319621239999,-35.7342198481051],[-72.5327470269999,-35.7339694211051],[-72.5326416519999,-35.7334686231052],[-72.5318121709999,-35.7335696791051],[-72.5319621239999,-35.7342198481051]]]}},{"type":"Feature","properties":{"id":"7202011001017","commune":"Chanco","code":"07202","gse":"C2","quintil":"Q3","nse_score":711.3,"educ":11.2,"educ_score":546.7,"hacin":1.02,"hacin_class":"Hacinamiento Leve","hacin_score":846.8,"auto_score":193.0,"n_per":154,"n_hog":56,"source_year":2024},"geometry":{"type":"Polygon","coordinates":[[[-72.5347990559999,-35.7342996741051],[-72.5349973799999,-35.7351208281051],[-72.5357549119999,-35.7350085711051],[-72.5356636639999,-35.7345504161051],[-72.5359546829999,-35.7344723391051],[-72.5360875549999,-35.7350025211051],[-72.536566622,-35.7351762421051],[-72.5368804929999,-35.7355022961051],[-72.5371094469999,-35.7363670711051],[-72.5377594899999,-35.7357789911051],[-72.5364412569999,-35.7341430501051],[-72.5356789749999,-35.7341620441051],[-72.5347990559999,-35.7342996741051]]]}},{"type":"Feature","properties":{"id":"7202011001018","commune":"Chanco","code":"07202","gse":"D","quintil":"Q1","nse_score":628.3,"educ":11.8,"educ_score":586.7,"hacin":1.518,"hacin_class":"Hacinamiento Medio","hacin_score":740.7,"auto_score":0.0,"n_per":41,"n_hog":15,"source_year":2024},"geometry":{"type":"Polygon","coordinates":[[[-72.5319522059999,-35.7342689491051],[-72.5322187739999,-35.7354497121051],[-72.5331660129999,-35.7349797061051],[-72.5325338179999,-35.7341291851051],[-72.5319522059999,-35.7342689491051]]]}},{"type":"Feature","properties":{"id":"7202011001019","commune":"Chanco","code":"07202","gse":"C2","quintil":"Q4","nse_score":744.4,"educ":13.1,"educ_score":673.3,"hacin":1.333,"hacin_class":"Hacinamiento Leve","hacin_score":780.1,"auto_score":0.0,"n_per":100,"n_hog":38,"source_year":2024},"geometry":{"type":"Polygon","coordinates":[[[-72.533646572,-35.7344963351051],[-72.5341405349999,-35.7366223631051],[-72.5347225929999,-35.7361795281051],[-72.5350180559999,-35.7361368141051],[-72.535057004,-35.7364804171051],[-72.5356410449999,-35.7365559631051],[-72.5361212859999,-35.7371498911051],[-72.5361422899999,-35.7370164521051],[-72.5364711959999,-35.7369065561051],[-72.5370142349999,-35.7363301211051],[-72.5367707229999,-35.7354625511051],[-72.5363272459999,-35.7351269911051],[-72.5358728169999,-35.7350463811051],[-72.5349680989999,-35.7351669191051],[-72.5348557969999,-35.7349292091051],[-72.5341475649999,-35.7350312051051],[-72.5348463719999,-35.7348695751051],[-72.534702406,-35.7343364511051],[-72.533646572,-35.7344963351051]]]}},{"type":"Feature","properties":{"id":"7202011001020","commune":"Chanco","code":"07202","gse":"D","quintil":"Q2","nse_score":630.0,"educ":10.0,"educ_score":466.7,"hacin":1.345,"hacin_class":"Hacinamiento Leve","hacin_score":777.6,"auto_score":100.0,"n_per":74,"n_hog":30,"source_year":2024},"geometry":{"type":"Polygon","coordinates":[[[-72.5324938339999,-35.7364129681051],[-72.5339652249999,-35.7362006851051],[-72.5335593209999,-35.7345150971051],[-72.5329976549999,-35.7345995711051],[-72.5332398199999,-35.7350133081051],[-72.5322480099999,-35.7355340491051],[-72.5324938339999,-35.7364129681051]]]}},{"type":"Feature","properties":{"id":"7202011001023","commune":"Chanco","code":"07202","gse":"C3","quintil":"Q3","nse_score":679.5,"educ":11.3,"educ_score":553.3,"hacin":1.24,"hacin_class":"Hacinamiento Leve","hacin_score":800.0,"auto_score":227.3,"n_per":31,"n_hog":10,"source_year":2024},"geometry":{"type":"Polygon","coordinates":[[[-72.5318904606666,-35.7372915514384],[-72.5325991219999,-35.7372959901051],[-72.5321562139999,-35.7355782241051],[-72.5317448839999,-35.7358240571051],[-72.5319546059999,-35.7370699941051],[-72.5318904606666,-35.7372915514384]]]}},{"type":"Feature","properties":{"id":"7202011001024","commune":"Chanco","code":"07202","gse":"D","quintil":"Q2","nse_score":632.8,"educ":9.4,"educ_score":426.7,"hacin":1.154,"hacin_class":"Hacinamiento Leve","hacin_score":818.3,"auto_score":250.0,"n_per":15,"n_hog":5,"source_year":2024},"geometry":{"type":"Polygon","coordinates":[[[-72.5308045129999,-35.7359757461051],[-72.5307918229999,-35.7362002761051],[-72.5311883199999,-35.7367395871051],[-72.5313132009999,-35.7373905471051],[-72.5314702249999,-35.7374989321051],[-72.5318587249999,-35.7372942731051],[-72.5319197489999,-35.7370745961051],[-72.5316835339999,-35.7358560581051],[-72.5308045129999,-35.7359757461051]]]}},{"type":"Feature","properties":{"id":"7202011001026","commune":"Chanco","code":"07202","gse":"C3","quintil":"Q2","nse_score":656.7,"educ":10.5,"educ_score":500.0,"hacin":1.5,"hacin_class":"Hacinamiento Medio","hacin_score":744.7,"auto_score":0.0,"n_per":18,"n_hog":7,"source_year":2024},"geometry":{"type":"Polygon","coordinates":[[[-72.5325347779999,-35.7365119671051],[-72.5326697659999,-35.7372788276051],[-72.5335827879999,-35.7369688671051],[-72.5340692929999,-35.7366547441051],[-72.5339839839999,-35.7362833611051],[-72.5325347779999,-35.7365119671051]]]}},{"type":"Feature","properties":{"id":"7202011001013","commune":"Chanco","code":"07202","gse":"C3","quintil":"Q3","nse_score":687.1,"educ":13.1,"educ_score":673.3,"hacin":0.962,"hacin_class":"Sin Hacinamiento","hacin_score":859.2,"auto_score":100.0,"n_per":25,"n_hog":14,"source_year":2024},"geometry":{"type":"MultiPolygon","coordinates":[[[[-72.5328003209999,-35.7339404991051],[-72.5333698909999,-35.7337035871051],[-72.5333019169999,-35.7333842801051],[-72.5326903549999,-35.7334559211051],[-72.5328003209999,-35.7339404991051]]],[[[-72.5336245889999,-35.7344277411051],[-72.5346899849999,-35.7342552541051],[-72.534460281,-35.7331899961052],[-72.5333844999999,-35.7333770511051],[-72.5336245889999,-35.7344277411051]]]]}},{"type":"Feature","properties":{"id":"7202061001001","commune":"Chanco","code":"07202","gse":"D","quintil":"Q2","nse_score":652.0,"educ":10.6,"educ_score":506.7,"hacin":0.941,"hacin_class":"Sin Hacinamiento","hacin_score":863.7,"auto_score":163.9,"n_per":143,"n_hog":58,"source_year":2024},"geometry":{"type":"Polygon","coordinates":[[[-72.5347426279999,-35.7362012481051],[-72.5341469849999,-35.7366503811051],[-72.5347763199999,-35.7393253621051],[-72.5356931489999,-35.7392248651051],[-72.5347825449999,-35.7393519011051],[-72.5349151689999,-35.7399194611051],[-72.5357314479999,-35.7398291111051],[-72.5357835179999,-35.7396571161051],[-72.5366156959999,-35.7393413831051],[-72.5366217999999,-35.7391648401051],[-72.5368708869999,-35.7396347771051],[-72.537153568,-35.7396461561051],[-72.536539392,-35.739872249105],[-72.5368207209999,-35.740810383105],[-72.5372008139999,-35.7407721161051],[-72.5371256559999,-35.7400505031051],[-72.5372954919999,-35.7400249981051],[-72.5375017569999,-35.739664168105],[-72.5381860699999,-35.7392633121051],[-72.5376626739999,-35.7390861331051],[-72.5365961069999,-35.7384239011051],[-72.5362146349999,-35.7383549481051],[-72.5362025029999,-35.7380449441051],[-72.5359534109999,-35.7376419681051],[-72.5361099359999,-35.7371990811051],[-72.535836517,-35.7367359901051],[-72.5356226559999,-35.7365788081051],[-72.5350335729999,-35.7364999291051],[-72.5350103089999,-35.7361632001051],[-72.5347426279999,-35.7362012481051]]]}},{"type":"Feature","properties":{"id":"7202061001002","commune":"Chanco","code":"07202","gse":"E","quintil":"Q1","nse_score":582.1,"educ":9.5,"educ_score":433.3,"hacin":1.186,"hacin_class":"Hacinamiento Leve","hacin_score":811.4,"auto_score":153.8,"n_per":70,"n_hog":25,"source_year":2024},"geometry":{"type":"Polygon","coordinates":[[[-72.5340758589999,-35.7366827091051],[-72.5335993779999,-35.7369923291051],[-72.5326752699999,-35.7373056981051],[-72.5328719199999,-35.7380644571051],[-72.5337762689999,-35.7379289251051],[-72.5336173989999,-35.7375451361051],[-72.5338327609999,-35.7379226801051],[-72.534352312,-35.7378247681051],[-72.5340758589999,-35.7366827091051]]]}},{"type":"Feature","properties":{"id":"7202061001005","commune":"Chanco","code":"07202","gse":"E","quintil":"Q1","nse_score":562.7,"educ":10.2,"educ_score":480.0,"hacin":1.0,"hacin_class":"Hacinamiento Leve","hacin_score":851.1,"auto_score":0.0,"n_per":27,"n_hog":12,"source_year":2024},"geometry":{"type":"Polygon","coordinates":[[[-72.5331912019999,-35.7391858171051],[-72.5345672899999,-35.7387709291051],[-72.5343651619999,-35.7378767371051],[-72.5329118029999,-35.7381584771051],[-72.5331912019999,-35.7391858171051]]]}},{"type":"Feature","properties":{"id":"7202061001006","commune":"Chanco","code":"07202","gse":"E","quintil":"Q1","nse_score":592.9,"educ":10.4,"educ_score":493.3,"hacin":1.405,"hacin_class":"Hacinamiento Leve","hacin_score":764.9,"auto_score":59.3,"n_per":163,"n_hog":56,"source_year":2024},"geometry":{"type":"Polygon","coordinates":[[[-72.528800595,-35.7389841281051],[-72.5289510459999,-35.7391808671051],[-72.5292534509999,-35.7391948731051],[-72.5296812119999,-35.741254713105],[-72.5300903739999,-35.7412226661051],[-72.5305018259999,-35.741335029105],[-72.5305169979999,-35.7414533131051],[-72.5317101529999,-35.741671921105],[-72.531433778,-35.7421740351051],[-72.5319682909999,-35.7420919241051],[-72.5325563319999,-35.7443579801051],[-72.5328289429999,-35.744083797105],[-72.5328883639999,-35.743806494105],[-72.5318927799999,-35.740550791105],[-72.5325147159999,-35.7403669681051],[-72.5321029849999,-35.7394685091051],[-72.5319986169999,-35.739522252105],[-72.5319616149999,-35.739875549105],[-72.5316275989999,-35.7400550951051],[-72.5311189539999,-35.7401035501051],[-72.5309931829999,-35.7397625561051],[-72.5311498739999,-35.7400515071051],[-72.5313438929999,-35.740030432105],[-72.5312751229999,-35.7399024271051],[-72.5314990729999,-35.7400283001051],[-72.5317900349999,-35.7399433251051],[-72.5316531899999,-35.739747752105],[-72.5319104799999,-35.7398415991051],[-72.5320478069999,-35.7393399241051],[-72.5311286639999,-35.7387982631051],[-72.5299891449999,-35.7388581061051],[-72.5302425149999,-35.740201734105],[-72.5301678819999,-35.7400891711051],[-72.5296746149999,-35.7401280371051],[-72.5297734499999,-35.740609788105],[-72.5307027779999,-35.7407042891051],[-72.5299535039999,-35.740731071105],[-72.5297330639999,-35.7406258291051],[-72.5296277299999,-35.7401094261051],[-72.5301618459999,-35.740053458105],[-72.5300540759999,-35.7395447691051],[-72.5295261409999,-35.739563747105],[-72.5300454649999,-35.7395093551051],[-72.5299342589999,-35.7388631411051],[-72.528800595,-35.7389841281051]]]}},{"type":"Feature","properties":{"id":"7202061001007","commune":"Chanco","code":"07202","gse":"C3","quintil":"Q3","nse_score":676.5,"educ":12.8,"educ_score":653.3,"hacin":1.194,"hacin_class":"Hacinamiento Leve","hacin_score":809.7,"auto_score":27.8,"n_per":43,"n_hog":17,"source_year":2024},"geometry":{"type":"Polygon","coordinates":[[[-72.5332159539999,-35.7393402791051],[-72.5334468379999,-35.740241784105],[-72.5343611169999,-35.7400770941051],[-72.5342213869999,-35.7394856721051],[-72.5344042829999,-35.7400693621051],[-72.5348367279999,-35.739960668105],[-72.5345667569999,-35.7388455511051],[-72.5335913019999,-35.7390356551051],[-72.5332159539999,-35.7393402791051]]]}},{"type":"Feature","properties":{"id":"7202061001008","commune":"Chanco","code":"07202","gse":"E","quintil":"Q1","nse_score":525.5,"educ":8.4,"educ_score":360.0,"hacin":1.235,"hacin_class":"Hacinamiento Leve","hacin_score":801.0,"auto_score":0.0,"n_per":42,"n_hog":17,"source_year":2024},"geometry":{"type":"Polygon","coordinates":[[[-72.5326030399999,-35.7403745491051],[-72.5333399029999,-35.7402532911051],[-72.5331421699999,-35.739363102105],[-72.5323945449999,-35.739836752105],[-72.5326030399999,-35.7403745491051]]]}},{"type":"Feature","properties":{"id":"7202061001009","commune":"Chanco","code":"07202","gse":"C3","quintil":"Q3","nse_score":705.7,"educ":11.1,"educ_score":540.0,"hacin":0.853,"hacin_class":"Sin Hacinamiento","hacin_score":882.4,"auto_score":31.2,"n_per":29,"n_hog":15,"source_year":2024},"geometry":{"type":"Polygon","coordinates":[[[-72.5358272159999,-35.7397028091051],[-72.5360263459999,-35.7400036201051],[-72.5368149669999,-35.7396627461051],[-72.5366103619999,-35.7394068031051],[-72.5358272159999,-35.7397028091051]]]}},{"type":"Feature","properties":{"id":"7202061001010","commune":"Chanco","code":"07202","gse":"D","quintil":"Q1","nse_score":615.9,"educ":10.2,"educ_score":480.0,"hacin":1.117,"hacin_class":"Hacinamiento Leve","hacin_score":826.2,"auto_score":68.4,"n_per":277,"n_hog":108,"source_year":2024},"geometry":{"type":"Polygon","coordinates":[[[-72.5378932799999,-35.7417203091051],[-72.5376982829999,-35.7410570641051],[-72.5378149879999,-35.7408640701051],[-72.5375917409999,-35.7407576041051],[-72.5368137059999,-35.7408958951051],[-72.5364786379999,-35.739894614105],[-72.535728548,-35.7401741851051],[-72.5359076689999,-35.7400374231051],[-72.5357483599999,-35.7398866041051],[-72.5349573499999,-35.7400502131051],[-72.5350530029999,-35.7410927111051],[-72.536165078,-35.7408900721051],[-72.5361303839999,-35.740494923105],[-72.5362268109999,-35.7409497461051],[-72.5349812129999,-35.7412229291051],[-72.5344536179999,-35.7420184741051],[-72.5350044179999,-35.742262860105],[-72.5354704509999,-35.741613515105],[-72.5357209409999,-35.7421383761051],[-72.537348113,-35.741832440105],[-72.537338701,-35.7416312881051],[-72.5370285449999,-35.7416558581051],[-72.5373319469999,-35.741606822105],[-72.5372347009999,-35.7412504481051],[-72.5368114619999,-35.7412938781051],[-72.5372276579999,-35.741224254105],[-72.5372592879999,-35.741084019105],[-72.5374546819999,-35.7417862191051],[-72.5378932799999,-35.7417203091051]]]}},{"type":"Feature","properties":{"id":"7202061001011","commune":"Chanco","code":"07202","gse":"D","quintil":"Q2","nse_score":630.6,"educ":10.7,"educ_score":513.3,"hacin":1.078,"hacin_class":"Hacinamiento Leve","hacin_score":834.4,"auto_score":175.0,"n_per":55,"n_hog":20,"source_year":2024},"geometry":{"type":"Polygon","coordinates":[[[-72.5336909129999,-35.741400269105],[-72.5349098369999,-35.7411569281051],[-72.5349974449999,-35.7409547451051],[-72.5348419219999,-35.7400610971051],[-72.5334446689999,-35.7403156521051],[-72.5336909129999,-35.741400269105]]]}},{"type":"Feature","properties":{"id":"7202061001012","commune":"Chanco","code":"07202","gse":"D","quintil":"Q2","nse_score":640.4,"educ":9.4,"educ_score":426.7,"hacin":1.192,"hacin_class":"Hacinamiento Leve","hacin_score":810.2,"auto_score":233.3,"n_per":118,"n_hog":44,"source_year":2024},"geometry":{"type":"Polygon","coordinates":[[[-72.5377432059999,-35.740340420105],[-72.5387513949999,-35.7408664721051],[-72.5384862509999,-35.741166783105],[-72.5378638919999,-35.7409224751051],[-72.5377662589999,-35.7410587331051],[-72.5379569249999,-35.7417049961051],[-72.5389365359999,-35.741615832105],[-72.5393916869999,-35.742121543105],[-72.5398818109999,-35.7418663711051],[-72.5394092439999,-35.742144458105],[-72.5396246219999,-35.742425550105],[-72.5401487939999,-35.7421578221051],[-72.5398224329999,-35.7417133071051],[-72.5396590009999,-35.7418065731051],[-72.53927318,-35.7413688491051],[-72.5393735359999,-35.741313919105],[-72.5390020409999,-35.740697837105],[-72.538255563,-35.7403502811051],[-72.5380589469999,-35.7401367311051],[-72.5378892419999,-35.7401345761051],[-72.5377432059999,-35.740340420105]]]}},{"type":"Feature","properties":{"id":"7202061001013","commune":"Chanco","code":"07202","gse":"D","quintil":"Q1","nse_score":616.8,"educ":11.0,"educ_score":533.3,"hacin":1.07,"hacin_class":"Hacinamiento Leve","hacin_score":836.2,"auto_score":105.3,"n_per":46,"n_hog":18,"source_year":2024},"geometry":{"type":"Polygon","coordinates":[[[-72.5326349489999,-35.7404663881051],[-72.5330672719999,-35.7415030301051],[-72.5336007719999,-35.7414264521051],[-72.533360522,-35.7403303301051],[-72.5326349489999,-35.7404663881051]]]}},{"type":"Feature","properties":{"id":"7202061001014","commune":"Chanco","code":"07202","gse":"D","quintil":"Q1","nse_score":602.9,"educ":9.2,"educ_score":413.3,"hacin":1.196,"hacin_class":"Hacinamiento Leve","hacin_score":809.4,"auto_score":157.9,"n_per":55,"n_hog":17,"source_year":2024},"geometry":{"type":"Polygon","coordinates":[[[-72.5386523039999,-35.7408112371051],[-72.5376513189999,-35.740360826105],[-72.5372156909999,-35.740447159105],[-72.5372655279999,-35.7407587321051],[-72.5376437609999,-35.7407143301051],[-72.5385325369999,-35.741096865105],[-72.5386523039999,-35.7408112371051]]]}},{"type":"Feature","properties":{"id":"7202061001015","commune":"Chanco","code":"07202","gse":"D","quintil":"Q2","nse_score":652.0,"educ":11.1,"educ_score":540.0,"hacin":1.486,"hacin_class":"Hacinamiento Leve","hacin_score":747.6,"auto_score":0.0,"n_per":55,"n_hog":17,"source_year":2024},"geometry":{"type":"Polygon","coordinates":[[[-72.5329829389999,-35.7415631331051],[-72.5325516949999,-35.7404834621051],[-72.5319905199999,-35.7405720871051],[-72.5322526609999,-35.7417034531051],[-72.5329829389999,-35.7415631331051]]]}},{"type":"Feature","properties":{"id":"7202061001016","commune":"Chanco","code":"07202","gse":"D","quintil":"Q2","nse_score":639.8,"educ":10.4,"educ_score":493.3,"hacin":1.385,"hacin_class":"Hacinamiento Leve","hacin_score":769.2,"auto_score":294.1,"n_per":54,"n_hog":16,"source_year":2024},"geometry":{"type":"Polygon","coordinates":[[[-72.5348400539999,-35.741286556105],[-72.5337129199999,-35.7414860801051],[-72.5339441179999,-35.742517477105],[-72.5348400539999,-35.741286556105]]]}},{"type":"Feature","properties":{"id":"7202061001017","commune":"Chanco","code":"07202","gse":"D","quintil":"Q1","nse_score":605.1,"educ":11.3,"educ_score":553.3,"hacin":1.25,"hacin_class":"Hacinamiento Leve","hacin_score":797.9,"auto_score":222.2,"n_per":40,"n_hog":16,"source_year":2024},"geometry":{"type":"Polygon","coordinates":[[[-72.5331262699999,-35.741616488105],[-72.5335293889999,-35.7430981031051],[-72.5336154429999,-35.743118436105],[-72.5338993899999,-35.742677093105],[-72.5336313869999,-35.7415199211051],[-72.5331262699999,-35.741616488105]]]}},{"type":"Feature","properties":{"id":"7202061001018","commune":"Chanco","code":"07202","gse":"E","quintil":"Q1","nse_score":547.7,"educ":8.7,"educ_score":380.0,"hacin":1.268,"hacin_class":"Hacinamiento Leve","hacin_score":794.0,"auto_score":12.5,"n_per":123,"n_hog":40,"source_year":2024},"geometry":{"type":"Polygon","coordinates":[[[-72.5329815759999,-35.741621604105],[-72.5322727349999,-35.741776605105],[-72.5329254479999,-35.743622385105],[-72.5334678329999,-35.743258365105],[-72.5329815759999,-35.741621604105]]]}},{"type":"Feature","properties":{"id":"7202061001019","commune":"Chanco","code":"07202","gse":"D","quintil":"Q2","nse_score":642.0,"educ":9.5,"educ_score":433.3,"hacin":1.324,"hacin_class":"Hacinamiento Leve","hacin_score":782.1,"auto_score":180.9,"n_per":143,"n_hog":47,"source_year":2024},"geometry":{"type":"Polygon","coordinates":[[[-72.5386775359999,-35.742090330105],[-72.5385290539999,-35.7416989171051],[-72.5383007809999,-35.741688552105],[-72.5385138569999,-35.742532259105],[-72.5384170539999,-35.7423325331051],[-72.5378555029999,-35.742434845105],[-72.5379583349999,-35.7428247071051],[-72.5395962729999,-35.742439543105],[-72.5389250229999,-35.741641842105],[-72.538557007,-35.7416411611051],[-72.5386775359999,-35.742090330105]]]}},{"type":"Feature","properties":{"id":"7202061001020","commune":"Chanco","code":"07202","gse":"E","quintil":"Q1","nse_score":542.9,"educ":9.9,"educ_score":460.0,"hacin":1.615,"hacin_class":"Hacinamiento Medio","hacin_score":720.1,"auto_score":0.0,"n_per":21,"n_hog":7,"source_year":2024},"geometry":{"type":"Polygon","coordinates":[[[-72.5351136389999,-35.742205970105],[-72.535647288,-35.742146151105],[-72.5354969799999,-35.741692567105],[-72.5354607439999,-35.7416916441051],[-72.5351136389999,-35.742205970105]]]}},{"type":"Feature","properties":{"id":"7202061001021","commune":"Chanco","code":"07202","gse":"D","quintil":"Q1","nse_score":605.1,"educ":8.0,"educ_score":333.3,"hacin":1.103,"hacin_class":"Hacinamiento Leve","hacin_score":829.1,"auto_score":153.8,"n_per":32,"n_hog":14,"source_year":2024},"geometry":{"type":"Polygon","coordinates":[[[-72.5383150589999,-35.7419939701051],[-72.5382464139999,-35.7416973971051],[-72.5376855599999,-35.741833865105],[-72.5377474749999,-35.742089782105],[-72.5383150589999,-35.7419939701051]]]}},{"type":"Feature","properties":{"id":"7202061001022","commune":"Chanco","code":"07202","gse":"C3","quintil":"Q3","nse_score":689.2,"educ":10.8,"educ_score":520.0,"hacin":1.313,"hacin_class":"Hacinamiento Leve","hacin_score":784.4,"auto_score":198.6,"n_per":486,"n_hog":145,"source_year":2024},"geometry":{"type":"Polygon","coordinates":[[[-72.5406566119999,-35.742263487105],[-72.5401610959999,-35.742183345105],[-72.539642178,-35.742448462105],[-72.5401088489999,-35.742989593105],[-72.5396138399999,-35.742462469105],[-72.5379472299999,-35.7428546301051],[-72.5380197879999,-35.7432524211051],[-72.5368091009999,-35.7434991201051],[-72.5366499889999,-35.7430791141051],[-72.537878599,-35.742840168105],[-72.5375929599999,-35.741837660105],[-72.5371950789999,-35.7419167371051],[-72.5374128279999,-35.742679992105],[-72.53712637,-35.7419163061051],[-72.5366980119999,-35.7420296821051],[-72.5368385889999,-35.742623408105],[-72.5371124259999,-35.742617119105],[-72.5350582489999,-35.7429120461051],[-72.5350795509999,-35.7423504811051],[-72.5344362529999,-35.742068864105],[-72.5335869609999,-35.743331926105],[-72.5335094539999,-35.743754699105],[-72.5339474429999,-35.744774385105],[-72.5349381889999,-35.744463110105],[-72.5346095019999,-35.743678491105],[-72.535145569,-35.743281515105],[-72.5361597979999,-35.743435892105],[-72.5363471859999,-35.743798061105],[-72.5368713699999,-35.744054149105],[-72.5379512649999,-35.743987673105],[-72.5392174169999,-35.743661408105],[-72.5388982849999,-35.743008682105],[-72.5397260949999,-35.742881305105],[-72.5402719299999,-35.743270405105],[-72.5406600179999,-35.742987180105],[-72.5401439879999,-35.742534859105],[-72.5406566119999,-35.742263487105]]]}},{"type":"Feature","properties":{"id":"7202061001023","commune":"Chanco","code":"07202","gse":"D","quintil":"Q1","nse_score":624.9,"educ":9.4,"educ_score":426.7,"hacin":1.148,"hacin_class":"Hacinamiento Leve","hacin_score":819.5,"auto_score":250.0,"n_per":31,"n_hog":12,"source_year":2024},"geometry":{"type":"Polygon","coordinates":[[[-72.5378007899999,-35.7421150581051],[-72.5378250759999,-35.742402924105],[-72.5384181919999,-35.742295568105],[-72.5383460739999,-35.7420309081051],[-72.5378007899999,-35.7421150581051]]]}},{"type":"Feature","properties":{"id":"7202061001024","commune":"Chanco","code":"07202","gse":"D","quintil":"Q2","nse_score":638.2,"educ":10.0,"educ_score":466.7,"hacin":1.438,"hacin_class":"Hacinamiento Leve","hacin_score":757.9,"auto_score":121.0,"n_per":174,"n_hog":63,"source_year":2024},"geometry":{"type":"Polygon","coordinates":[[[-72.5356058489999,-35.742808707105],[-72.5355607019999,-35.742487256105],[-72.5356650369999,-35.7428110921051],[-72.5359749129999,-35.7427511921051],[-72.5359399409999,-35.742440316105],[-72.5360298859999,-35.742750426105],[-72.5363408869999,-35.742693433105],[-72.5362540939999,-35.7423492251051],[-72.5363988719999,-35.7426774951051],[-72.5367818629999,-35.7425806031051],[-72.5366067529999,-35.7420275421051],[-72.5351690769999,-35.742290482105],[-72.5351201709999,-35.742811461105],[-72.5356058489999,-35.742808707105]]]}},{"type":"Feature","properties":{"id":"7202061001025","commune":"Chanco","code":"07202","gse":"C3","quintil":"Q3","nse_score":682.0,"educ":10.8,"educ_score":520.0,"hacin":1.333,"hacin_class":"Hacinamiento Leve","hacin_score":780.1,"auto_score":240.0,"n_per":80,"n_hog":24,"source_year":2024},"geometry":{"type":"Polygon","coordinates":[[[-72.5366622499999,-35.743103770105],[-72.536809177,-35.7434715621051],[-72.53801447,-35.7431836161051],[-72.5379149819999,-35.742860882105],[-72.5366622499999,-35.743103770105]]]}},{"type":"Feature","properties":{"id":"7202061001026","commune":"Chanco","code":"07202","gse":"E","quintil":"Q1","nse_score":588.3,"educ":8.7,"educ_score":380.0,"hacin":1.205,"hacin_class":"Hacinamiento Leve","hacin_score":807.4,"auto_score":58.8,"n_per":47,"n_hog":17,"source_year":2024},"geometry":{"type":"Polygon","coordinates":[[[-72.5325680569999,-35.744345813105],[-72.5326224119999,-35.744612330105],[-72.532116631,-35.744906778105],[-72.5321343679999,-35.745226721105],[-72.5320048799999,-35.745391514105],[-72.5317368499999,-35.745575611105],[-72.5313495529999,-35.745461402105],[-72.5319368859999,-35.746670667105],[-72.5317209949999,-35.746702404105],[-72.5321814019999,-35.747826315105],[-72.5332876269999,-35.747620431105],[-72.5333768799999,-35.746186532105],[-72.5321955349999,-35.746371144105],[-72.5333778609999,-35.746152247105],[-72.5334400469999,-35.745059907105],[-72.5338906069999,-35.744834502105],[-72.5334547009999,-35.743773406105],[-72.5334292149999,-35.743370424105],[-72.5329496089999,-35.743695712105],[-72.5328361379999,-35.744101431105],[-72.5325680569999,-35.744345813105]]]}},{"type":"Feature","properties":{"id":"7202061001027","commune":"Chanco","code":"07202","gse":"D","quintil":"Q1","nse_score":597.6,"educ":10.8,"educ_score":520.0,"hacin":1.065,"hacin_class":"Hacinamiento Leve","hacin_score":837.3,"auto_score":269.2,"n_per":33,"n_hog":13,"source_year":2024},"geometry":{"type":"Polygon","coordinates":[[[-72.5339567259999,-35.744796028105],[-72.5341677659999,-35.746112601105],[-72.5351079429999,-35.745941006105],[-72.5354132839999,-35.745763806105],[-72.5355986529999,-35.745840366105],[-72.5341673029999,-35.746148670105],[-72.534156633,-35.746951273105],[-72.5347210009999,-35.746826523105],[-72.5350164459999,-35.747006805105],[-72.5362582529999,-35.746725175105],[-72.5357140419999,-35.745596812105],[-72.5352410089999,-35.745737408105],[-72.5352008169999,-35.745212824105],[-72.5349476489999,-35.744485319105],[-72.5339567259999,-35.744796028105]]]}},{"type":"Feature","properties":{"id":"7202061001028","commune":"Chanco","code":"07202","gse":"E","quintil":"Q1","nse_score":561.4,"educ":9.3,"educ_score":420.0,"hacin":1.4,"hacin_class":"Hacinamiento Leve","hacin_score":766.0,"auto_score":45.5,"n_per":35,"n_hog":11,"source_year":2024},"geometry":{"type":"Polygon","coordinates":[[[-72.5333870509999,-35.747213517105],[-72.5340917389999,-35.747009054105],[-72.5340948699999,-35.745500303105],[-72.5338743649999,-35.744917465105],[-72.5335110659999,-35.745017095105],[-72.5334447189999,-35.745192852105],[-72.5333870509999,-35.747213517105]]]}},{"type":"Feature","properties":{"id":"7202061001003","commune":"Chanco","code":"07202","gse":"E","quintil":"Q1","nse_score":538.4,"educ":9.3,"educ_score":420.0,"hacin":1.187,"hacin_class":"Hacinamiento Leve","hacin_score":811.3,"auto_score":216.2,"n_per":108,"n_hog":37,"source_year":2024},"geometry":{"type":"MultiPolygon","coordinates":[[[[-72.5326046089999,-35.7373228641051],[-72.5318732519999,-35.7373221581051],[-72.5316706979999,-35.7379202281051],[-72.5313079759999,-35.7383198081051],[-72.5304317679999,-35.7387415661051],[-72.5310048329999,-35.7387126141051],[-72.5314489599999,-35.7388372881051],[-72.5320691639999,-35.7392748331051],[-72.5323880919999,-35.7397485561051],[-72.5331186599999,-35.7392293071051],[-72.5326046089999,-35.7373228641051]]],[[[-72.5318422749999,-35.7373204221051],[-72.5313847299999,-35.7375886131051],[-72.5315406629999,-35.7378071851051],[-72.5313465269999,-35.7381059051051],[-72.53069604,-35.7385887261051],[-72.5315385589999,-35.7380463451051],[-72.5318422749999,-35.7373204221051]]]]}},{"type":"Feature","properties":{"id":"7202033074001","commune":"Chanco","code":"07202","gse":"E","quintil":"Q1","nse_score":526.3,"educ":8.9,"educ_score":393.3,"hacin":1.048,"hacin_class":"Hacinamiento Leve","hacin_score":840.9,"auto_score":83.3,"n_per":44,"n_hog":18,"source_year":2024},"geometry":{"type":"Polygon","coordinates":[[[-72.5705643039999,-35.6136300311064],[-72.5718966679999,-35.6132879301064],[-72.5719298849999,-35.6130291611064],[-72.5699176139999,-35.6134764721064],[-72.5702690919999,-35.6153804551063],[-72.5709115179999,-35.6152787631064],[-72.5704534989999,-35.6134020791064],[-72.5705643039999,-35.6136300311064]]]}},{"type":"Feature","properties":{"id":"7202033074002","commune":"Chanco","code":"07202","gse":"E","quintil":"Q1","nse_score":566.8,"educ":9.5,"educ_score":433.3,"hacin":1.367,"hacin_class":"Hacinamiento Leve","hacin_score":773.0,"auto_score":192.3,"n_per":41,"n_hog":13,"source_year":2024},"geometry":{"type":"Polygon","coordinates":[[[-72.5726373729999,-35.6152511241064],[-72.5717634319999,-35.6145886661064],[-72.5714271599999,-35.6150970191064],[-72.5709889619999,-35.6153119751064],[-72.5711778819999,-35.6171731681064],[-72.5720458179999,-35.6163928021064],[-72.5737056499999,-35.6153903801064],[-72.5735217339999,-35.6151706431064],[-72.5735036979999,-35.6147656911064],[-72.5728928359999,-35.6139322341064],[-72.5731890729999,-35.6130370681064],[-72.5720269329999,-35.6130297711064],[-72.5719243249999,-35.6141798821064],[-72.5717815599999,-35.6145545831064],[-72.5726373729999,-35.6152511241064]]]}},{"type":"Feature","properties":{"id":"7202033074003","commune":"Chanco","code":"07202","gse":"E","quintil":"Q1","nse_score":419.4,"educ":7.7,"educ_score":313.3,"hacin":1.333,"hacin_class":"Hacinamiento Leve","hacin_score":780.1,"auto_score":100.0,"n_per":24,"n_hog":10,"source_year":2024},"geometry":{"type":"Polygon","coordinates":[[[-72.5712119659999,-35.6135759121064],[-72.5713324369999,-35.6140828211064],[-72.5718775679999,-35.6138146961064],[-72.5718945239999,-35.6133470561064],[-72.5712119659999,-35.6135759121064]]]}},{"type":"Feature","properties":{"id":"7202033074004","commune":"Chanco","code":"07202","gse":"E","quintil":"Q1","nse_score":538.9,"educ":9.9,"educ_score":460.0,"hacin":1.529,"hacin_class":"Hacinamiento Medio","hacin_score":738.4,"auto_score":166.7,"n_per":26,"n_hog":9,"source_year":2024},"geometry":{"type":"Polygon","coordinates":[[[-72.5705890689999,-35.6136811101064],[-72.570760747,-35.6143845561064],[-72.5712722489999,-35.6141131671064],[-72.5711481749999,-35.6135910731064],[-72.5705890689999,-35.6136811101064]]]}},{"type":"Feature","properties":{"id":"7202033074005","commune":"Chanco","code":"07202","gse":"E","quintil":"Q1","nse_score":538.1,"educ":10.2,"educ_score":480.0,"hacin":1.667,"hacin_class":"Hacinamiento Medio","hacin_score":709.2,"auto_score":166.7,"n_per":20,"n_hog":6,"source_year":2024},"geometry":{"type":"Polygon","coordinates":[[[-72.5713458579999,-35.6141392911064],[-72.5715241389999,-35.6148894551064],[-72.5717718409999,-35.6144372341064],[-72.5718752399999,-35.6138789131064],[-72.5713458579999,-35.6141392911064]]]}},{"type":"Feature","properties":{"id":"7202033074006","commune":"Chanco","code":"07202","gse":"E","quintil":"Q1","nse_score":560.4,"educ":8.8,"educ_score":386.7,"hacin":1.385,"hacin_class":"Hacinamiento Leve","hacin_score":769.2,"auto_score":125.0,"n_per":18,"n_hog":8,"source_year":2024},"geometry":{"type":"Polygon","coordinates":[[[-72.5707746689999,-35.6144416001064],[-72.5709733659999,-35.6152557441064],[-72.5713782229999,-35.6150599471064],[-72.5714714089999,-35.6149511701064],[-72.5712858489999,-35.6141703821064],[-72.5707746689999,-35.6144416001064]]]}},{"type":"Feature","properties":{"id":"7202033074007","commune":"Chanco","code":"07202","gse":"E","quintil":"Q1","nse_score":577.2,"educ":9.7,"educ_score":446.7,"hacin":1.321,"hacin_class":"Hacinamiento Leve","hacin_score":782.8,"auto_score":295.5,"n_per":70,"n_hog":22,"source_year":2024},"geometry":{"type":"Polygon","coordinates":[[[-72.5696934659999,-35.6154119231064],[-72.5694950239999,-35.6157554021064],[-72.5678421569999,-35.6157845921064],[-72.5678892549999,-35.6174431541064],[-72.5688043879999,-35.6174391251063],[-72.5687457859999,-35.6170978401063],[-72.5679754789999,-35.6170714621064],[-72.5687431339999,-35.6170618491063],[-72.5686764199999,-35.6161360781064],[-72.5692519819999,-35.6160520021064],[-72.5692067219999,-35.6161522841064],[-72.5687205079999,-35.6161552751064],[-72.5688404509999,-35.6174183271063],[-72.5703594919999,-35.6174762131063],[-72.5701825299999,-35.6154434301063],[-72.5698904729999,-35.6154629211064],[-72.5702147229999,-35.6153889951064],[-72.5700864099999,-35.6144153261064],[-72.5694938079999,-35.6145204611064],[-72.5696934659999,-35.6154119231064]]]}},{"type":"Feature","properties":{"id":"7202033074008","commune":"Chanco","code":"07202","gse":"E","quintil":"Q1","nse_score":588.9,"educ":10.5,"educ_score":500.0,"hacin":1.258,"hacin_class":"Hacinamiento Leve","hacin_score":796.2,"auto_score":214.3,"n_per":78,"n_hog":28,"source_year":2024},"geometry":{"type":"Polygon","coordinates":[[[-72.5704611699999,-35.6177289021064],[-72.5711153549999,-35.6172315111064],[-72.570926917,-35.6153313561064],[-72.5702483509999,-35.6154387721064],[-72.5704611699999,-35.6177289021064]]]}},{"type":"Feature","properties":{"id":"7202033074010","commune":"Chanco","code":"07202","gse":"E","quintil":"Q1","nse_score":502.1,"educ":8.4,"educ_score":360.0,"hacin":1.478,"hacin_class":"Hacinamiento Leve","hacin_score":749.3,"auto_score":55.6,"n_per":34,"n_hog":9,"source_year":2024},"geometry":{"type":"Polygon","coordinates":[[[-72.5704664819999,-35.6180277191063],[-72.5722032159999,-35.6183645161063],[-72.5720167399999,-35.6165397681064],[-72.5711424129999,-35.6173430911064],[-72.5718028729999,-35.6178658661063],[-72.5711114409999,-35.6173688151064],[-72.5705645299999,-35.6177951261063],[-72.5704664819999,-35.6180277191063]]]}},{"type":"Feature","properties":{"id":"7202033074011","commune":"Chanco","code":"07202","gse":"D","quintil":"Q1","nse_score":606.5,"educ":8.9,"educ_score":393.3,"hacin":1.125,"hacin_class":"Hacinamiento Leve","hacin_score":824.5,"auto_score":213.0,"n_per":162,"n_hog":54,"source_year":2024},"geometry":{"type":"Polygon","coordinates":[[[-72.5684445639999,-35.6187637411063],[-72.5697951439999,-35.6190188551063],[-72.570459464,-35.6178059121063],[-72.5703658299999,-35.6175307771064],[-72.5672059549999,-35.6174330061064],[-72.5671969539999,-35.6178609851063],[-72.5677550959999,-35.6178844911063],[-72.5677724609999,-35.6182749731063],[-72.5680248219999,-35.6183032521063],[-72.5680223219999,-35.6184439901063],[-72.5680036989999,-35.6186817631063],[-72.5672998399999,-35.6186120351064],[-72.5671047599999,-35.6190183511064],[-72.5673697109999,-35.6190999011063],[-72.5671660979999,-35.6194456761063],[-72.5692411939999,-35.6199606361063],[-72.5694268049999,-35.6196411381064],[-72.5674746609999,-35.6192114081063],[-72.5694557879999,-35.6195912481063],[-72.5695858889999,-35.6193672971063],[-72.5676787059999,-35.6189600621063],[-72.5696147519999,-35.6193176131064],[-72.5697750289999,-35.6190514361064],[-72.5684445639999,-35.6187637411063]]]}},{"type":"Feature","properties":{"id":"7202053041001","commune":"Chanco","code":"07202","gse":"E","quintil":"Q1","nse_score":556.4,"educ":8.2,"educ_score":346.7,"hacin":1.439,"hacin_class":"Hacinamiento Leve","hacin_score":757.6,"auto_score":163.5,"n_per":154,"n_hog":57,"source_year":2024},"geometry":{"type":"Polygon","coordinates":[[[-72.4466049899999,-35.8739073401037],[-72.4461274399999,-35.8748864041037],[-72.4468134869999,-35.8750979491037],[-72.4471338129999,-35.8744973261037],[-72.4468756649999,-35.8751170631037],[-72.4476061339999,-35.8753409941037],[-72.4481018139999,-35.8743983301037],[-72.4484654149999,-35.8739250701037],[-72.4488330469999,-35.8736824761037],[-72.4489681489999,-35.8733059901037],[-72.4484355469999,-35.8732719011037],[-72.4483188119999,-35.8734543711037],[-72.4483877859999,-35.8732686091037],[-72.4476359449999,-35.8731887381037],[-72.4475227269999,-35.8734479801037],[-72.4469967439999,-35.8741860831037],[-72.4475961339999,-35.8731723371037],[-72.4473888489999,-35.8731573651037],[-72.4466049899999,-35.8739073401037]]]}},{"type":"Feature","properties":{"id":"7202053041002","commune":"Chanco","code":"07202","gse":"E","quintil":"Q1","nse_score":495.2,"educ":5.2,"educ_score":146.7,"hacin":1.294,"hacin_class":"Hacinamiento Leve","hacin_score":788.5,"auto_score":166.7,"n_per":22,"n_hog":9,"source_year":2024},"geometry":{"type":"Polygon","coordinates":[[[-72.448149639,-35.8744444941037],[-72.4486519949999,-35.8744516891037],[-72.4493599909999,-35.8733427231037],[-72.4490351339999,-35.8733120521037],[-72.4488911569999,-35.8737112701037],[-72.4485173959999,-35.8739593671037],[-72.448149639,-35.8744444941037]]]}},{"type":"Feature","properties":{"id":"7202053041003","commune":"Chanco","code":"07202","gse":"E","quintil":"Q1","nse_score":554.7,"educ":7.8,"educ_score":320.0,"hacin":1.448,"hacin_class":"Hacinamiento Leve","hacin_score":755.7,"auto_score":266.7,"n_per":42,"n_hog":17,"source_year":2024},"geometry":{"type":"Polygon","coordinates":[[[-72.4442624509999,-35.8751708581037],[-72.4434999379999,-35.8759549841036],[-72.444592585,-35.8759866941037],[-72.4453121489999,-35.8762279791037],[-72.4465740209999,-35.8739369711037],[-72.445843695,-35.8745262251037],[-72.4442624509999,-35.8751708581037]]]}},{"type":"Feature","properties":{"id":"7202053041004","commune":"Chanco","code":"07202","gse":"E","quintil":"Q1","nse_score":527.2,"educ":7.1,"educ_score":273.3,"hacin":1.273,"hacin_class":"Hacinamiento Leve","hacin_score":793.0,"auto_score":233.3,"n_per":42,"n_hog":16,"source_year":2024},"geometry":{"type":"Polygon","coordinates":[[[-72.4453736139999,-35.8762487231037],[-72.4460610489999,-35.8765089321036],[-72.4467870289999,-35.8751475681036],[-72.4461003559999,-35.8749358341037],[-72.4453736139999,-35.8762487231037]]]}},{"type":"Feature","properties":{"id":"7202053041005","commune":"Chanco","code":"07202","gse":"E","quintil":"Q1","nse_score":550.3,"educ":8.0,"educ_score":333.3,"hacin":1.6,"hacin_class":"Hacinamiento Medio","hacin_score":723.4,"auto_score":190.5,"n_per":72,"n_hog":24,"source_year":2024},"geometry":{"type":"Polygon","coordinates":[[[-72.4468465119999,-35.8767902451037],[-72.4475801239999,-35.8753907591036],[-72.4468492049999,-35.8751666881036],[-72.4461213599999,-35.8765315481037],[-72.4468465119999,-35.8767902451037]]]}}]}