{"type":"FeatureCollection","features":[{"type":"Feature","properties":{"id":"11401011001003","commune":"Chile Chico","code":"11401","gse":"ABC1","quintil":"Q5","nse_score":842.6,"educ":13.5,"educ_score":700.0,"hacin":0.625,"hacin_class":"Sin Hacinamiento","hacin_score":930.9,"auto_score":0.0,"n_per":10,"n_hog":6,"source_year":2024},"geometry":{"type":"Polygon","coordinates":[[[-71.7320849539999,-46.5362663900581],[-71.731690436,-46.5365782020581],[-71.7308764669999,-46.5366777940582],[-71.7309748169999,-46.5377188570582],[-71.7317301159999,-46.5376520830581],[-71.7316661569999,-46.5368188060581],[-71.7321527639999,-46.5367512160581],[-71.7324250899999,-46.5362925010581],[-71.7320849539999,-46.5362663900581]]]}},{"type":"Feature","properties":{"id":"11401011001008","commune":"Chile Chico","code":"11401","gse":"C1","quintil":"Q5","nse_score":786.2,"educ":16.0,"educ_score":866.7,"hacin":0.8,"hacin_class":"Sin Hacinamiento","hacin_score":893.6,"auto_score":71.4,"n_per":8,"n_hog":6,"source_year":2024},"geometry":{"type":"Polygon","coordinates":[[[-71.7264430269999,-46.5371261250581],[-71.7262293719999,-46.5371687110581],[-71.726362622,-46.5370283230581],[-71.7262719469999,-46.5368720540582],[-71.725586001,-46.5369149440581],[-71.7260832879999,-46.5380503210582],[-71.7268191369999,-46.5378116780581],[-71.7264430269999,-46.5371261250581]]]}},{"type":"Feature","properties":{"id":"11401011001009","commune":"Chile Chico","code":"11401","gse":"C3","quintil":"Q3","nse_score":699.2,"educ":11.8,"educ_score":586.7,"hacin":1.053,"hacin_class":"Hacinamiento Leve","hacin_score":839.9,"auto_score":62.5,"n_per":20,"n_hog":7,"source_year":2024},"geometry":{"type":"Polygon","coordinates":[[[-71.7280865709999,-46.5369201710581],[-71.7272680889999,-46.5369744590582],[-71.7265424889999,-46.5371353660581],[-71.7266686359999,-46.5373616340581],[-71.726921505,-46.5372232210581],[-71.727040573,-46.5374209370581],[-71.7267105589999,-46.5374104610581],[-71.7269618519999,-46.5377172900581],[-71.7282924629999,-46.5373088840581],[-71.7280865709999,-46.5369201710581]]]}},{"type":"Feature","properties":{"id":"11401011001011","commune":"Chile Chico","code":"11401","gse":"C3","quintil":"Q3","nse_score":687.2,"educ":11.2,"educ_score":546.7,"hacin":0.793,"hacin_class":"Sin Hacinamiento","hacin_score":895.1,"auto_score":41.7,"n_per":23,"n_hog":13,"source_year":2024},"geometry":{"type":"Polygon","coordinates":[[[-71.7250921059999,-46.5372729920581],[-71.7247917649999,-46.5375883330581],[-71.7248723079999,-46.5376937560582],[-71.7245538139999,-46.5379472010582],[-71.7237104289999,-46.5383250190581],[-71.7239455929999,-46.5386611360581],[-71.7253382079999,-46.5382764800581],[-71.7249893699999,-46.5376801930581],[-71.725364925,-46.5373376320581],[-71.725109142,-46.5376655980581],[-71.7254513909999,-46.5382150830581],[-71.7260475309999,-46.5380613840581],[-71.7255141329999,-46.5371832870581],[-71.7250921059999,-46.5372729920581]]]}},{"type":"Feature","properties":{"id":"11401011001012","commune":"Chile Chico","code":"11401","gse":"C1","quintil":"Q5","nse_score":782.0,"educ":14.1,"educ_score":740.0,"hacin":0.833,"hacin_class":"Sin Hacinamiento","hacin_score":886.5,"auto_score":0.0,"n_per":15,"n_hog":9,"source_year":2024},"geometry":{"type":"Polygon","coordinates":[[[-71.7275393049999,-46.5387290360581],[-71.7289028939999,-46.5383244960581],[-71.7283558479999,-46.5374075710582],[-71.7269685399999,-46.5378076770581],[-71.7275393049999,-46.5387290360581]]]}},{"type":"Feature","properties":{"id":"11401011001013","commune":"Chile Chico","code":"11401","gse":"C1","quintil":"Q5","nse_score":766.0,"educ":12.7,"educ_score":646.7,"hacin":0.655,"hacin_class":"Sin Hacinamiento","hacin_score":924.4,"auto_score":100.0,"n_per":19,"n_hog":10,"source_year":2024},"geometry":{"type":"Polygon","coordinates":[[[-71.7311406449999,-46.5377934230581],[-71.7305888339999,-46.5380205840581],[-71.7311275089999,-46.5389189360582],[-71.7323024259999,-46.5386122480581],[-71.7324293279999,-46.5384730060581],[-71.7323289879999,-46.5383439590581],[-71.7324813449999,-46.5378869240582],[-71.7322719809999,-46.5378957390582],[-71.7322454099999,-46.5376486740581],[-71.7311406449999,-46.5377934230581]]]}},{"type":"Feature","properties":{"id":"11401011001017","commune":"Chile Chico","code":"11401","gse":"C3","quintil":"Q3","nse_score":696.8,"educ":13.5,"educ_score":700.0,"hacin":1.027,"hacin_class":"Hacinamiento Leve","hacin_score":845.3,"auto_score":26.3,"n_per":38,"n_hog":13,"source_year":2024},"geometry":{"type":"Polygon","coordinates":[[[-71.7304976349999,-46.5380407860582],[-71.7291160579999,-46.5384657080581],[-71.7296523589999,-46.5393497470582],[-71.7310050679999,-46.5389653930582],[-71.7304976349999,-46.5380407860582]]]}},{"type":"Feature","properties":{"id":"11401011001019","commune":"Chile Chico","code":"11401","gse":"C3","quintil":"Q2","nse_score":678.7,"educ":10.8,"educ_score":520.0,"hacin":1.0,"hacin_class":"Hacinamiento Leve","hacin_score":851.1,"auto_score":115.4,"n_per":29,"n_hog":13,"source_year":2024},"geometry":{"type":"Polygon","coordinates":[[[-71.7253767229999,-46.5383249980582],[-71.7240090349999,-46.5387858770582],[-71.7245626319999,-46.5396188710582],[-71.7259175979999,-46.5391917640582],[-71.7253767229999,-46.5383249980582]]]}},{"type":"Feature","properties":{"id":"11401011001020","commune":"Chile Chico","code":"11401","gse":"C1","quintil":"Q5","nse_score":769.6,"educ":13.7,"educ_score":713.3,"hacin":0.938,"hacin_class":"Sin Hacinamiento","hacin_score":864.4,"auto_score":125.0,"n_per":15,"n_hog":7,"source_year":2024},"geometry":{"type":"Polygon","coordinates":[[[-71.7237104289999,-46.5383250190581],[-71.7222822189999,-46.5388263220581],[-71.7225333619999,-46.5391152190581],[-71.7238502259999,-46.5387140390581],[-71.7237104289999,-46.5383250190581]]]}},{"type":"Feature","properties":{"id":"11401011001022","commune":"Chile Chico","code":"11401","gse":"D","quintil":"Q1","nse_score":639.0,"educ":8.4,"educ_score":360.0,"hacin":0.9,"hacin_class":"Sin Hacinamiento","hacin_score":872.3,"auto_score":166.7,"n_per":18,"n_hog":6,"source_year":2024},"geometry":{"type":"Polygon","coordinates":[[[-71.7281960309999,-46.5397988170582],[-71.7295480439999,-46.5393957850581],[-71.7290183009999,-46.5384811150581],[-71.7276348219999,-46.5388798590582],[-71.7281960309999,-46.5397988170582]]]}},{"type":"Feature","properties":{"id":"11401011001023","commune":"Chile Chico","code":"11401","gse":"C3","quintil":"Q3","nse_score":685.5,"educ":11.4,"educ_score":560.0,"hacin":1.034,"hacin_class":"Hacinamiento Leve","hacin_score":843.9,"auto_score":135.4,"n_per":92,"n_hog":40,"source_year":2024},"geometry":{"type":"Polygon","coordinates":[[[-71.7149865519999,-46.5388930170582],[-71.7160618249999,-46.5410117830581],[-71.7164957629999,-46.5409337650581],[-71.7169422439999,-46.5418821360581],[-71.717413157,-46.5417674720581],[-71.7169998449999,-46.5408904060582],[-71.7170846309999,-46.5408723780582],[-71.7175177769999,-46.5417360040581],[-71.7190725549999,-46.5412513070581],[-71.7186863969999,-46.5404536700581],[-71.7175471159999,-46.5406606020582],[-71.7172657309999,-46.5402090650581],[-71.7159813499999,-46.5399601930582],[-71.7161486239999,-46.5395420710581],[-71.7172263459999,-46.5396704770582],[-71.7172006739999,-46.5391204770581],[-71.7151343289999,-46.5387064230582],[-71.7149865519999,-46.5388930170582]]]}},{"type":"Feature","properties":{"id":"11401011001024","commune":"Chile Chico","code":"11401","gse":"E","quintil":"Q1","nse_score":518.5,"educ":8.8,"educ_score":386.7,"hacin":1.208,"hacin_class":"Hacinamiento Leve","hacin_score":806.9,"auto_score":97.8,"n_per":93,"n_hog":39,"source_year":2024},"geometry":{"type":"Polygon","coordinates":[[[-71.7285573249999,-46.5458249970582],[-71.7279215419999,-46.5456001860581],[-71.7279794359999,-46.5458282080581],[-71.7290612709999,-46.5466570670582],[-71.7298544139999,-46.5468452130581],[-71.7293450599999,-46.5465299530582],[-71.7288519299999,-46.5458154420581],[-71.7282635679999,-46.5456449380582],[-71.7282958899999,-46.5452868980581],[-71.7281731819999,-46.5450421760581],[-71.7287738619999,-46.5443572750581],[-71.7289418119999,-46.5439074930582],[-71.7288292079999,-46.5438092160581],[-71.7291729549999,-46.5432314110582],[-71.7295402649999,-46.5431235800581],[-71.7304046879999,-46.5424685670582],[-71.7306312279999,-46.5421964540582],[-71.7305904789999,-46.5419345370581],[-71.7309681169999,-46.5417026290581],[-71.7308894069999,-46.5413444620581],[-71.7311672249999,-46.5407739420581],[-71.7312003779999,-46.5401692610582],[-71.7319462009999,-46.5392427480581],[-71.7318462429999,-46.5391213110581],[-71.7320415869999,-46.5387556670581],[-71.731193716,-46.5390192480581],[-71.7313786299999,-46.5394253160581],[-71.731297159,-46.5396514280581],[-71.7280326619999,-46.5446785110581],[-71.7279259719999,-46.5455404570582],[-71.7285573249999,-46.5458249970582]]]}},{"type":"Feature","properties":{"id":"11401011001025","commune":"Chile Chico","code":"11401","gse":"C2","quintil":"Q4","nse_score":712.7,"educ":12.0,"educ_score":600.0,"hacin":0.969,"hacin_class":"Sin Hacinamiento","hacin_score":857.7,"auto_score":76.9,"n_per":31,"n_hog":13,"source_year":2024},"geometry":{"type":"Polygon","coordinates":[[[-71.7230803979999,-46.5400546630581],[-71.7244501489999,-46.5396593720582],[-71.7239179489999,-46.5387892940581],[-71.7225485369999,-46.5391803520582],[-71.7230803979999,-46.5400546630581]]]}},{"type":"Feature","properties":{"id":"11401011001027","commune":"Chile Chico","code":"11401","gse":"C1","quintil":"Q5","nse_score":773.8,"educ":14.8,"educ_score":786.7,"hacin":0.941,"hacin_class":"Sin Hacinamiento","hacin_score":863.6,"auto_score":285.7,"n_per":16,"n_hog":7,"source_year":2024},"geometry":{"type":"Polygon","coordinates":[[[-71.7266681279999,-46.5402690800581],[-71.7280655499999,-46.5398496280582],[-71.7275233399999,-46.5389194180581],[-71.7264681739999,-46.5392148380582],[-71.7266681279999,-46.5402690800581]]]}},{"type":"Feature","properties":{"id":"11401011001028","commune":"Chile Chico","code":"11401","gse":"D","quintil":"Q2","nse_score":655.4,"educ":11.9,"educ_score":593.3,"hacin":0.8,"hacin_class":"Sin Hacinamiento","hacin_score":893.6,"auto_score":83.3,"n_per":8,"n_hog":4,"source_year":2024},"geometry":{"type":"Polygon","coordinates":[[[-71.7222397789999,-46.5390446770581],[-71.7204282269999,-46.5392715010581],[-71.7212470559999,-46.5405947540581],[-71.7229576369999,-46.5401045720582],[-71.7222397789999,-46.5390446770581]]]}},{"type":"Feature","properties":{"id":"11401011001029","commune":"Chile Chico","code":"11401","gse":"E","quintil":"Q1","nse_score":605.7,"educ":9.6,"educ_score":440.0,"hacin":0.931,"hacin_class":"Sin Hacinamiento","hacin_score":865.7,"auto_score":50.0,"n_per":27,"n_hog":10,"source_year":2024},"geometry":{"type":"Polygon","coordinates":[[[-71.7310612369999,-46.5390518340582],[-71.7297217629999,-46.5394941440581],[-71.7304935789999,-46.5406904020581],[-71.7312745229999,-46.5393982160581],[-71.7310612369999,-46.5390518340582]]]}},{"type":"Feature","properties":{"id":"11401011001030","commune":"Chile Chico","code":"11401","gse":"C3","quintil":"Q2","nse_score":678.8,"educ":10.8,"educ_score":520.0,"hacin":1.105,"hacin_class":"Hacinamiento Leve","hacin_score":828.7,"auto_score":222.2,"n_per":21,"n_hog":8,"source_year":2024},"geometry":{"type":"Polygon","coordinates":[[[-71.7173752149999,-46.5400210880581],[-71.7183853879999,-46.5399076200582],[-71.7181052949999,-46.5392907160581],[-71.7173115499999,-46.5391453120582],[-71.7173752149999,-46.5400210880581]]]}},{"type":"Feature","properties":{"id":"11401011001032","commune":"Chile Chico","code":"11401","gse":"C2","quintil":"Q3","nse_score":704.6,"educ":12.2,"educ_score":613.3,"hacin":1.106,"hacin_class":"Hacinamiento Leve","hacin_score":828.5,"auto_score":178.6,"n_per":73,"n_hog":28,"source_year":2024},"geometry":{"type":"Polygon","coordinates":[[[-71.7202958999999,-46.5406829280582],[-71.7200711979999,-46.5405290410582],[-71.7198929659999,-46.5401566050581],[-71.7187897339999,-46.5404485170581],[-71.719214974,-46.5412135890581],[-71.7211392099999,-46.5406648620581],[-71.7203184719999,-46.5392784610581],[-71.7197801149999,-46.5393234850581],[-71.7200784909999,-46.5399570910582],[-71.7199416539999,-46.5401436300581],[-71.7202958999999,-46.5406829280582]]]}},{"type":"Feature","properties":{"id":"11401011001034","commune":"Chile Chico","code":"11401","gse":"E","quintil":"Q1","nse_score":568.0,"educ":9.0,"educ_score":400.0,"hacin":1.114,"hacin_class":"Hacinamiento Leve","hacin_score":826.7,"auto_score":133.3,"n_per":39,"n_hog":15,"source_year":2024},"geometry":{"type":"Polygon","coordinates":[[[-71.7182400399999,-46.5393320630582],[-71.7186988149999,-46.5403467680581],[-71.7192284189999,-46.5402468840581],[-71.7187966029999,-46.5393198650581],[-71.7182400399999,-46.5393320630582]]]}},{"type":"Feature","properties":{"id":"11401011001035","commune":"Chile Chico","code":"11401","gse":"C2","quintil":"Q4","nse_score":717.3,"educ":12.5,"educ_score":633.3,"hacin":0.864,"hacin_class":"Sin Hacinamiento","hacin_score":880.1,"auto_score":55.6,"n_per":19,"n_hog":8,"source_year":2024},"geometry":{"type":"Polygon","coordinates":[[[-71.7192759799999,-46.5402041870581],[-71.7200068719999,-46.5399862150581],[-71.7196866549999,-46.5393215530581],[-71.7188693689999,-46.5393295650582],[-71.7192759799999,-46.5402041870581]]]}},{"type":"Feature","properties":{"id":"11401011001036","commune":"Chile Chico","code":"11401","gse":"C2","quintil":"Q4","nse_score":729.8,"educ":13.0,"educ_score":666.7,"hacin":0.964,"hacin_class":"Sin Hacinamiento","hacin_score":858.7,"auto_score":83.3,"n_per":27,"n_hog":16,"source_year":2024},"geometry":{"type":"Polygon","coordinates":[[[-71.7252145449999,-46.5406842500581],[-71.7264977909999,-46.5403132370582],[-71.725954569,-46.5393875320581],[-71.7246640489999,-46.5397645820581],[-71.7252145449999,-46.5406842500581]]]}},{"type":"Feature","properties":{"id":"11401011001037","commune":"Chile Chico","code":"11401","gse":"C1","quintil":"Q5","nse_score":754.4,"educ":11.5,"educ_score":566.7,"hacin":0.963,"hacin_class":"Sin Hacinamiento","hacin_score":858.9,"auto_score":100.0,"n_per":26,"n_hog":10,"source_year":2024},"geometry":{"type":"Polygon","coordinates":[[[-71.7288151139999,-46.5408490830582],[-71.7301659239999,-46.5404381180581],[-71.7296201199999,-46.5394941330582],[-71.7282316109999,-46.5398997540581],[-71.7288151139999,-46.5408490830582]]]}},{"type":"Feature","properties":{"id":"11401011001038","commune":"Chile Chico","code":"11401","gse":"C3","quintil":"Q2","nse_score":663.8,"educ":9.8,"educ_score":453.3,"hacin":1.097,"hacin_class":"Hacinamiento Leve","hacin_score":830.5,"auto_score":233.3,"n_per":34,"n_hog":14,"source_year":2024},"geometry":{"type":"Polygon","coordinates":[[[-71.7160524799999,-46.5399666730581],[-71.7172609399999,-46.5401131000581],[-71.7172243749999,-46.5397382730582],[-71.7161174219999,-46.5396099990581],[-71.7160524799999,-46.5399666730581]]]}},{"type":"Feature","properties":{"id":"11401011001041","commune":"Chile Chico","code":"11401","gse":"C2","quintil":"Q4","nse_score":752.3,"educ":13.8,"educ_score":720.0,"hacin":1.643,"hacin_class":"Hacinamiento Medio","hacin_score":714.3,"auto_score":0.0,"n_per":23,"n_hog":7,"source_year":2024},"geometry":{"type":"Polygon","coordinates":[[[-71.7237724029999,-46.5411209530582],[-71.7251043059999,-46.5407292870581],[-71.7245640809999,-46.5398149370582],[-71.7231882979999,-46.5402072710581],[-71.7237724029999,-46.5411209530582]]]}},{"type":"Feature","properties":{"id":"11401011001042","commune":"Chile Chico","code":"11401","gse":"D","quintil":"Q2","nse_score":660.4,"educ":12.9,"educ_score":660.0,"hacin":1.219,"hacin_class":"Hacinamiento Leve","hacin_score":804.5,"auto_score":225.0,"n_per":39,"n_hog":16,"source_year":2024},"geometry":{"type":"Polygon","coordinates":[[[-71.7281390289999,-46.5399342970582],[-71.7268477959999,-46.5403617660581],[-71.7273434779999,-46.5412303270581],[-71.7286778989999,-46.5408949390581],[-71.7281390289999,-46.5399342970582]]]}},{"type":"Feature","properties":{"id":"11401011001043","commune":"Chile Chico","code":"11401","gse":"C3","quintil":"Q2","nse_score":673.3,"educ":11.2,"educ_score":546.7,"hacin":0.906,"hacin_class":"Sin Hacinamiento","hacin_score":871.0,"auto_score":300.0,"n_per":29,"n_hog":14,"source_year":2024},"geometry":{"type":"Polygon","coordinates":[[[-71.7184040619999,-46.5399570610581],[-71.7173408659999,-46.5401569390581],[-71.7175718059999,-46.5406133150581],[-71.7186305899999,-46.5403748370581],[-71.7184040619999,-46.5399570610581]]]}},{"type":"Feature","properties":{"id":"11401011001045","commune":"Chile Chico","code":"11401","gse":"C2","quintil":"Q4","nse_score":720.2,"educ":13.6,"educ_score":706.7,"hacin":1.083,"hacin_class":"Hacinamiento Leve","hacin_score":833.3,"auto_score":62.5,"n_per":13,"n_hog":7,"source_year":2024},"geometry":{"type":"Polygon","coordinates":[[[-71.7213759249999,-46.5426684970582],[-71.7240828159999,-46.5418731610582],[-71.7230764729999,-46.5402493290581],[-71.7203371639999,-46.5410578870582],[-71.7213759249999,-46.5426684970582]]]}},{"type":"Feature","properties":{"id":"11401011001046","commune":"Chile Chico","code":"11401","gse":"C3","quintil":"Q3","nse_score":685.5,"educ":11.2,"educ_score":546.7,"hacin":1.267,"hacin_class":"Hacinamiento Leve","hacin_score":794.3,"auto_score":428.6,"n_per":19,"n_hog":7,"source_year":2024},"geometry":{"type":"Polygon","coordinates":[[[-71.7266710099999,-46.5403547790581],[-71.7265953519999,-46.5409117890581],[-71.7266907149999,-46.5412850440582],[-71.7266132069999,-46.5415005610582],[-71.7272823419999,-46.5413043450582],[-71.7266710099999,-46.5403547790581]]]}},{"type":"Feature","properties":{"id":"11401011001047","commune":"Chile Chico","code":"11401","gse":"C3","quintil":"Q3","nse_score":686.3,"educ":12.1,"educ_score":606.7,"hacin":1.026,"hacin_class":"Hacinamiento Leve","hacin_score":845.5,"auto_score":50.0,"n_per":39,"n_hog":18,"source_year":2024},"geometry":{"type":"Polygon","coordinates":[[[-71.7252674779999,-46.5408263450581],[-71.7258305659999,-46.5417114450581],[-71.7264378509999,-46.5415542610581],[-71.7265830329999,-46.5411638160581],[-71.7265717359999,-46.5415111310581],[-71.7266316359999,-46.5403638660582],[-71.7252674779999,-46.5408263450581]]]}},{"type":"Feature","properties":{"id":"11401011001048","commune":"Chile Chico","code":"11401","gse":"E","quintil":"Q1","nse_score":582.9,"educ":9.5,"educ_score":433.3,"hacin":0.862,"hacin_class":"Sin Hacinamiento","hacin_score":880.4,"auto_score":181.8,"n_per":25,"n_hog":11,"source_year":2024},"geometry":{"type":"Polygon","coordinates":[[[-71.7295458519999,-46.5420767480582],[-71.7303885959999,-46.5408710530581],[-71.7302329439999,-46.5405298780581],[-71.7288482209999,-46.5409490740581],[-71.7295458519999,-46.5420767480582]]]}},{"type":"Feature","properties":{"id":"11401011001050","commune":"Chile Chico","code":"11401","gse":"D","quintil":"Q2","nse_score":644.2,"educ":11.6,"educ_score":573.3,"hacin":0.85,"hacin_class":"Sin Hacinamiento","hacin_score":883.0,"auto_score":200.0,"n_per":17,"n_hog":7,"source_year":2024},"geometry":{"type":"Polygon","coordinates":[[[-71.7287528409999,-46.5409700950581],[-71.7273558889999,-46.5413712660581],[-71.7279083469999,-46.5423042170581],[-71.7293020509999,-46.5419007510582],[-71.7287528409999,-46.5409700950581]]]}},{"type":"Feature","properties":{"id":"11401011001053","commune":"Chile Chico","code":"11401","gse":"C3","quintil":"Q2","nse_score":669.8,"educ":10.1,"educ_score":473.3,"hacin":1.068,"hacin_class":"Hacinamiento Leve","hacin_score":836.7,"auto_score":102.9,"n_per":79,"n_hog":31,"source_year":2024},"geometry":{"type":"Polygon","coordinates":[[[-71.7189651049999,-46.5414975400582],[-71.7195725349999,-46.5424238310582],[-71.7200405839999,-46.5423027260582],[-71.7197648369999,-46.5418232060582],[-71.7198867499999,-46.5419044000582],[-71.7202102789999,-46.5418126070582],[-71.7198960209999,-46.5419291300581],[-71.7201248569999,-46.5422739210582],[-71.7208445659999,-46.5420433240582],[-71.7202327369999,-46.5410829500581],[-71.7189651049999,-46.5414975400582]]]}},{"type":"Feature","properties":{"id":"11401011001055","commune":"Chile Chico","code":"11401","gse":"C2","quintil":"Q3","nse_score":711.1,"educ":11.2,"educ_score":546.7,"hacin":0.889,"hacin_class":"Sin Hacinamiento","hacin_score":874.7,"auto_score":200.0,"n_per":24,"n_hog":10,"source_year":2024},"geometry":{"type":"Polygon","coordinates":[[[-71.7270481509999,-46.5426135940581],[-71.7278102089999,-46.5423515450581],[-71.7272445639999,-46.5413992340581],[-71.7265825899999,-46.5416414090582],[-71.7267252229999,-46.5422586170582],[-71.7270481509999,-46.5426135940581]]]}},{"type":"Feature","properties":{"id":"11401011001057","commune":"Chile Chico","code":"11401","gse":"C3","quintil":"Q3","nse_score":682.6,"educ":11.8,"educ_score":586.7,"hacin":1.312,"hacin_class":"Hacinamiento Leve","hacin_score":784.6,"auto_score":187.5,"n_per":21,"n_hog":8,"source_year":2024},"geometry":{"type":"Polygon","coordinates":[[[-71.7187652889999,-46.5426664750581],[-71.7194481099999,-46.5424574960581],[-71.7188598669999,-46.5414878400582],[-71.7181444389999,-46.5417175600582],[-71.7187652889999,-46.5426664750581]]]}},{"type":"Feature","properties":{"id":"11401011001058","commune":"Chile Chico","code":"11401","gse":"C3","quintil":"Q2","nse_score":666.9,"educ":10.4,"educ_score":493.3,"hacin":1.0,"hacin_class":"Hacinamiento Leve","hacin_score":851.1,"auto_score":0.0,"n_per":10,"n_hog":6,"source_year":2024},"geometry":{"type":"Polygon","coordinates":[[[-71.7264922249999,-46.5427756800581],[-71.7270211539999,-46.5426342400581],[-71.7266873099999,-46.5422659220581],[-71.726553453,-46.5415942160582],[-71.7258977679999,-46.5418357800581],[-71.7264922249999,-46.5427756800581]]]}},{"type":"Feature","properties":{"id":"11401011001061","commune":"Chile Chico","code":"11401","gse":"C2","quintil":"Q4","nse_score":730.9,"educ":12.3,"educ_score":620.0,"hacin":0.903,"hacin_class":"Sin Hacinamiento","hacin_score":871.7,"auto_score":107.1,"n_per":28,"n_hog":13,"source_year":2024},"geometry":{"type":"Polygon","coordinates":[[[-71.7244749209999,-46.5422349260581],[-71.7250959499999,-46.5431924470582],[-71.7263618039999,-46.5428079110582],[-71.7257852739999,-46.5418476250581],[-71.7244749209999,-46.5422349260581]]]}},{"type":"Feature","properties":{"id":"11401011001062","commune":"Chile Chico","code":"11401","gse":"C3","quintil":"Q3","nse_score":687.6,"educ":11.2,"educ_score":546.7,"hacin":1.414,"hacin_class":"Hacinamiento Leve","hacin_score":763.0,"auto_score":233.3,"n_per":41,"n_hog":16,"source_year":2024},"geometry":{"type":"Polygon","coordinates":[[[-71.7178096289999,-46.5424132040582],[-71.7175361999999,-46.5420227900581],[-71.7168611769999,-46.5422169290581],[-71.7173112049999,-46.5430719120582],[-71.7186398239999,-46.5426833550582],[-71.7181206199999,-46.5418524110581],[-71.7175907209999,-46.5420020960581],[-71.7178096289999,-46.5424132040582]]]}},{"type":"Feature","properties":{"id":"11401011001063","commune":"Chile Chico","code":"11401","gse":"C2","quintil":"Q4","nse_score":747.3,"educ":13.3,"educ_score":686.7,"hacin":1.195,"hacin_class":"Hacinamiento Leve","hacin_score":809.6,"auto_score":216.2,"n_per":92,"n_hog":34,"source_year":2024},"geometry":{"type":"Polygon","coordinates":[[[-71.7241276099999,-46.5419416490582],[-71.7215031919999,-46.5427161310582],[-71.7214214569999,-46.5427892740581],[-71.7216576629999,-46.5430792350581],[-71.7243319799999,-46.5422927620581],[-71.7241276099999,-46.5419416490582]]]}},{"type":"Feature","properties":{"id":"11401011001064","commune":"Chile Chico","code":"11401","gse":"C3","quintil":"Q2","nse_score":674.7,"educ":11.1,"educ_score":540.0,"hacin":0.947,"hacin_class":"Sin Hacinamiento","hacin_score":862.3,"auto_score":120.0,"n_per":54,"n_hog":24,"source_year":2024},"geometry":{"type":"Polygon","coordinates":[[[-71.7282339519999,-46.5441975830581],[-71.7294869419999,-46.5422480040581],[-71.7293477379999,-46.5419811580582],[-71.7272491169999,-46.5426280500582],[-71.7274818389999,-46.5431634430581],[-71.7274606909999,-46.5436192900581],[-71.7280286479999,-46.5441971980582],[-71.7282339519999,-46.5441975830581]]]}},{"type":"Feature","properties":{"id":"11401011001065","commune":"Chile Chico","code":"11401","gse":"E","quintil":"Q1","nse_score":563.3,"educ":10.6,"educ_score":506.7,"hacin":3.267,"hacin_class":"Hacinamiento Crítico","hacin_score":368.8,"auto_score":125.0,"n_per":49,"n_hog":7,"source_year":2024},"geometry":{"type":"Polygon","coordinates":[[[-71.7209154749999,-46.5421334570581],[-71.7196019579999,-46.5425189190581],[-71.7202037099999,-46.5434989510581],[-71.7215171689999,-46.5431093000581],[-71.7209154749999,-46.5421334570581]]]}},{"type":"Feature","properties":{"id":"11401011001066","commune":"Chile Chico","code":"11401","gse":"C3","quintil":"Q2","nse_score":667.1,"educ":13.2,"educ_score":680.0,"hacin":1.16,"hacin_class":"Hacinamiento Leve","hacin_score":817.0,"auto_score":200.0,"n_per":29,"n_hog":16,"source_year":2024},"geometry":{"type":"Polygon","coordinates":[[[-71.7244077109999,-46.5423541500581],[-71.7230477509999,-46.5427553550581],[-71.7236157979999,-46.5437036500581],[-71.7249830659999,-46.5432771850582],[-71.7244077109999,-46.5423541500581]]]}},{"type":"Feature","properties":{"id":"11401011001067","commune":"Chile Chico","code":"11401","gse":"D","quintil":"Q2","nse_score":651.0,"educ":9.3,"educ_score":420.0,"hacin":0.929,"hacin_class":"Sin Hacinamiento","hacin_score":866.3,"auto_score":192.3,"n_per":26,"n_hog":12,"source_year":2024},"geometry":{"type":"Polygon","coordinates":[[[-71.7195287469999,-46.5425452560581],[-71.7187950299999,-46.5427824690581],[-71.7193912639999,-46.5437203610581],[-71.7201264679999,-46.5435309650582],[-71.7195287469999,-46.5425452560581]]]}},{"type":"Feature","properties":{"id":"11401011001068","commune":"Chile Chico","code":"11401","gse":"D","quintil":"Q1","nse_score":635.8,"educ":9.4,"educ_score":426.7,"hacin":1.056,"hacin_class":"Hacinamiento Leve","hacin_score":839.2,"auto_score":200.0,"n_per":38,"n_hog":15,"source_year":2024},"geometry":{"type":"Polygon","coordinates":[[[-71.727161254,-46.5426468240581],[-71.7253265049999,-46.5432000200581],[-71.7252389209999,-46.5432583110581],[-71.7278996089999,-46.5441594840581],[-71.7274319379999,-46.5436462560581],[-71.7274288559999,-46.5431634070582],[-71.727161254,-46.5426468240581]]]}},{"type":"Feature","properties":{"id":"11401011001069","commune":"Chile Chico","code":"11401","gse":"C3","quintil":"Q3","nse_score":687.0,"educ":10.6,"educ_score":506.7,"hacin":1.4,"hacin_class":"Hacinamiento Leve","hacin_score":766.0,"auto_score":272.7,"n_per":28,"n_hog":11,"source_year":2024},"geometry":{"type":"Polygon","coordinates":[[[-71.7186909729999,-46.5427671580581],[-71.7173593209999,-46.5431646470581],[-71.71755121,-46.5436578890581],[-71.718992167,-46.5432560270581],[-71.7186909729999,-46.5427671580581]]]}},{"type":"Feature","properties":{"id":"11401011001070","commune":"Chile Chico","code":"11401","gse":"C3","quintil":"Q3","nse_score":680.7,"educ":11.9,"educ_score":593.3,"hacin":1.5,"hacin_class":"Hacinamiento Medio","hacin_score":744.7,"auto_score":200.0,"n_per":30,"n_hog":10,"source_year":2024},"geometry":{"type":"Polygon","coordinates":[[[-71.7216721979999,-46.5431852660582],[-71.7222614689999,-46.5441113480581],[-71.7235369749999,-46.5437395900581],[-71.7229421229999,-46.5427807370581],[-71.7216721979999,-46.5431852660582]]]}},{"type":"Feature","properties":{"id":"11401011001071","commune":"Chile Chico","code":"11401","gse":"C1","quintil":"Q5","nse_score":762.2,"educ":14.0,"educ_score":733.3,"hacin":1.5,"hacin_class":"Hacinamiento Medio","hacin_score":744.7,"auto_score":454.5,"n_per":33,"n_hog":10,"source_year":2024},"geometry":{"type":"Polygon","coordinates":[[[-71.7215765759999,-46.5431913560582],[-71.7202865979999,-46.5435758220581],[-71.7205818239999,-46.5440672000581],[-71.7218856329999,-46.5436972770581],[-71.7215765759999,-46.5431913560582]]]}},{"type":"Feature","properties":{"id":"11401011001072","commune":"Chile Chico","code":"11401","gse":"C2","quintil":"Q3","nse_score":709.7,"educ":12.8,"educ_score":653.3,"hacin":1.244,"hacin_class":"Hacinamiento Leve","hacin_score":799.1,"auto_score":217.4,"n_per":56,"n_hog":23,"source_year":2024},"geometry":{"type":"Polygon","coordinates":[[[-71.7261046619999,-46.5456291950582],[-71.7259176699999,-46.5435946180581],[-71.7251479379999,-46.5433034960582],[-71.7236719499999,-46.5437576310582],[-71.723975703,-46.5443206150582],[-71.7244202409999,-46.5444226730581],[-71.7242791059999,-46.5449528230582],[-71.7243900619999,-46.5451832580582],[-71.7242125529999,-46.5453675520582],[-71.7261046619999,-46.5456291950582]]]}},{"type":"Feature","properties":{"id":"11401011001073","commune":"Chile Chico","code":"11401","gse":"D","quintil":"Q2","nse_score":659.3,"educ":10.1,"educ_score":473.3,"hacin":1.083,"hacin_class":"Hacinamiento Leve","hacin_score":833.3,"auto_score":150.0,"n_per":26,"n_hog":9,"source_year":2024},"geometry":{"type":"Polygon","coordinates":[[[-71.7190104879999,-46.5433349560582],[-71.7175949919999,-46.5437292730581],[-71.7177689309999,-46.5442192040582],[-71.7193192409999,-46.5437951230582],[-71.7190104879999,-46.5433349560582]]]}},{"type":"Feature","properties":{"id":"11401011001074","commune":"Chile Chico","code":"11401","gse":"C3","quintil":"Q2","nse_score":676.9,"educ":11.3,"educ_score":553.3,"hacin":1.052,"hacin_class":"Hacinamiento Leve","hacin_score":840.1,"auto_score":285.7,"n_per":61,"n_hog":24,"source_year":2024},"geometry":{"type":"Polygon","coordinates":[[[-71.7185201609999,-46.5458867150582],[-71.7211810349999,-46.5452381170581],[-71.7201961419999,-46.5436095970582],[-71.7177995709999,-46.5442945720582],[-71.7185201609999,-46.5458867150582]]]}},{"type":"Feature","properties":{"id":"11401011001075","commune":"Chile Chico","code":"11401","gse":"E","quintil":"Q1","nse_score":566.3,"educ":9.7,"educ_score":446.7,"hacin":1.103,"hacin_class":"Hacinamiento Leve","hacin_score":829.1,"auto_score":111.1,"n_per":32,"n_hog":17,"source_year":2024},"geometry":{"type":"Polygon","coordinates":[[[-71.726169491,-46.5445958250581],[-71.7279036419999,-46.5446859430581],[-71.728074606,-46.5442879610582],[-71.7260573289999,-46.5436680550582],[-71.726169491,-46.5445958250581]]]}},{"type":"Feature","properties":{"id":"11401011001076","commune":"Chile Chico","code":"11401","gse":"C3","quintil":"Q3","nse_score":701.3,"educ":11.1,"educ_score":540.0,"hacin":1.0,"hacin_class":"Hacinamiento Leve","hacin_score":851.1,"auto_score":300.0,"n_per":24,"n_hog":10,"source_year":2024},"geometry":{"type":"Polygon","coordinates":[[[-71.7218680979999,-46.5437751200582],[-71.7206675309999,-46.5441235210582],[-71.7206372929999,-46.5441615920582],[-71.7208938939999,-46.5445231600581],[-71.722155702,-46.5441476190581],[-71.7218680979999,-46.5437751200582]]]}},{"type":"Feature","properties":{"id":"11401011001077","commune":"Chile Chico","code":"11401","gse":"D","quintil":"Q2","nse_score":651.2,"educ":11.2,"educ_score":546.7,"hacin":1.2,"hacin_class":"Hacinamiento Leve","hacin_score":808.5,"auto_score":225.0,"n_per":48,"n_hog":20,"source_year":2024},"geometry":{"type":"Polygon","coordinates":[[[-71.7227105199999,-46.5448219320581],[-71.7239937439999,-46.5444868370582],[-71.7240093979999,-46.5444632310582],[-71.7235706809999,-46.5437949400582],[-71.7223047859999,-46.5441636380582],[-71.7227105199999,-46.5448219320581]]]}},{"type":"Feature","properties":{"id":"11401011001078","commune":"Chile Chico","code":"11401","gse":"E","quintil":"Q1","nse_score":559.6,"educ":8.4,"educ_score":360.0,"hacin":1.062,"hacin_class":"Hacinamiento Leve","hacin_score":837.8,"auto_score":142.9,"n_per":17,"n_hog":11,"source_year":2024},"geometry":{"type":"Polygon","coordinates":[[[-71.7212715019999,-46.5451922530581],[-71.7226054409999,-46.5448609440581],[-71.7226163739999,-46.5448391100581],[-71.7221355949999,-46.5442018620582],[-71.7209145329999,-46.5445709620582],[-71.7212715019999,-46.5451922530581]]]}},{"type":"Feature","properties":{"id":"11401011001080","commune":"Chile Chico","code":"11401","gse":"D","quintil":"Q2","nse_score":645.7,"educ":9.4,"educ_score":426.7,"hacin":0.968,"hacin_class":"Sin Hacinamiento","hacin_score":857.9,"auto_score":176.5,"n_per":30,"n_hog":15,"source_year":2024},"geometry":{"type":"Polygon","coordinates":[[[-71.7240472769999,-46.5445069570582],[-71.7230439119999,-46.5447933370581],[-71.7232070269999,-46.5450820940582],[-71.724225756,-46.5447968540581],[-71.7240472769999,-46.5445069570582]]]}},{"type":"Feature","properties":{"id":"11401011001081","commune":"Chile Chico","code":"11401","gse":"D","quintil":"Q1","nse_score":631.0,"educ":10.7,"educ_score":513.3,"hacin":0.985,"hacin_class":"Sin Hacinamiento","hacin_score":854.2,"auto_score":69.4,"n_per":66,"n_hog":32,"source_year":2024},"geometry":{"type":"Polygon","coordinates":[[[-71.7261555769999,-46.5446728730581],[-71.7262405659999,-46.5455619920581],[-71.7264441689999,-46.5456313170582],[-71.7264869119999,-46.5451972410581],[-71.7264936749999,-46.5456503480581],[-71.7266471419999,-46.5457068760582],[-71.7268315839999,-46.5455143200582],[-71.7266416599999,-46.5458630590581],[-71.7266456559999,-46.5457470970582],[-71.7262413169999,-46.5455985490581],[-71.7262014229999,-46.5464352470581],[-71.7267288289999,-46.5468241410582],[-71.727574021,-46.5467433130581],[-71.7278560499999,-46.5461215870582],[-71.7276795539999,-46.5456642750581],[-71.7278089509999,-46.5447801030581],[-71.7261555769999,-46.5446728730581]]]}},{"type":"Feature","properties":{"id":"11401011001083","commune":"Chile Chico","code":"11401","gse":"D","quintil":"Q2","nse_score":655.8,"educ":11.2,"educ_score":546.7,"hacin":1.206,"hacin_class":"Hacinamiento Leve","hacin_score":807.2,"auto_score":187.5,"n_per":76,"n_hog":33,"source_year":2024},"geometry":{"type":"Polygon","coordinates":[[[-71.724298212,-46.5451778700581],[-71.7241956619999,-46.5448560770582],[-71.7230816789999,-46.5451450460582],[-71.7231486339999,-46.5450697120581],[-71.7229683939999,-46.5447903760581],[-71.7221781259999,-46.5450223420581],[-71.721866411,-46.5457864270582],[-71.7215856939999,-46.5458685820581],[-71.7216779369999,-46.5460334420582],[-71.7221030749999,-46.5459607880582],[-71.7229328149999,-46.5455127810582],[-71.724298212,-46.5451778700581]]]}},{"type":"Feature","properties":{"id":"11401011001086","commune":"Chile Chico","code":"11401","gse":"E","quintil":"Q1","nse_score":542.9,"educ":9.2,"educ_score":413.3,"hacin":1.044,"hacin_class":"Hacinamiento Leve","hacin_score":841.8,"auto_score":83.3,"n_per":24,"n_hog":10,"source_year":2024},"geometry":{"type":"Polygon","coordinates":[[[-71.7224216659999,-46.5458620940581],[-71.7225686609999,-46.5464380610582],[-71.7233415139999,-46.5464232260582],[-71.7234444339999,-46.5460733680582],[-71.7239787349999,-46.5460640800582],[-71.7241711819999,-46.5452464730582],[-71.7230158249999,-46.5455228420581],[-71.7224216659999,-46.5458620940581]]]}},{"type":"Feature","properties":{"id":"11401011001087","commune":"Chile Chico","code":"11401","gse":"C3","quintil":"Q3","nse_score":679.8,"educ":11.1,"educ_score":540.0,"hacin":1.091,"hacin_class":"Hacinamiento Leve","hacin_score":831.7,"auto_score":285.7,"n_per":12,"n_hog":6,"source_year":2024},"geometry":{"type":"Polygon","coordinates":[[[-71.7204363189999,-46.5458167130582],[-71.7213320219999,-46.5456022910582],[-71.7213580949999,-46.5455573240582],[-71.7212036749999,-46.5453032270581],[-71.7202535859999,-46.5455211260581],[-71.7204363189999,-46.5458167130582]]]}},{"type":"Feature","properties":{"id":"11401011001088","commune":"Chile Chico","code":"11401","gse":"D","quintil":"Q2","nse_score":660.9,"educ":10.4,"educ_score":493.3,"hacin":1.105,"hacin_class":"Hacinamiento Leve","hacin_score":828.7,"auto_score":125.0,"n_per":42,"n_hog":19,"source_year":2024},"geometry":{"type":"Polygon","coordinates":[[[-71.7244550249999,-46.5462499930582],[-71.7240389309999,-46.5462383520581],[-71.7239746339999,-46.5466646830582],[-71.7245660089999,-46.5467228330581],[-71.7249510619999,-46.5455455000582],[-71.7241920639999,-46.5454197240582],[-71.7240463039999,-46.5461973700582],[-71.7244550249999,-46.5462499930582]]]}},{"type":"Feature","properties":{"id":"11401011001089","commune":"Chile Chico","code":"11401","gse":"C1","quintil":"Q5","nse_score":761.6,"educ":13.0,"educ_score":666.7,"hacin":1.138,"hacin_class":"Hacinamiento Leve","hacin_score":821.7,"auto_score":258.1,"n_per":66,"n_hog":30,"source_year":2024},"geometry":{"type":"Polygon","coordinates":[[[-71.7186130039999,-46.5459418580581],[-71.7187584979999,-46.5462525440581],[-71.7198634889999,-46.5459965710581],[-71.7187741029999,-46.5462869540581],[-71.7189742619999,-46.5467283230581],[-71.7216033989999,-46.5460356780582],[-71.721367487,-46.5456300940582],[-71.7201671169999,-46.5459292390581],[-71.7203298539999,-46.5458557790582],[-71.7201768259999,-46.5455394600581],[-71.7186130039999,-46.5459418580581]]]}},{"type":"Feature","properties":{"id":"11401011001090","commune":"Chile Chico","code":"11401","gse":"D","quintil":"Q1","nse_score":637.9,"educ":9.9,"educ_score":460.0,"hacin":1.17,"hacin_class":"Hacinamiento Leve","hacin_score":814.9,"auto_score":207.5,"n_per":117,"n_hog":46,"source_year":2024},"geometry":{"type":"Polygon","coordinates":[[[-71.7250467169999,-46.5455582280582],[-71.7246284559999,-46.5467869440582],[-71.7239734309999,-46.5467441230582],[-71.7239583269999,-46.5472304880581],[-71.7244353759999,-46.5471941260582],[-71.7239620979999,-46.5472935470581],[-71.7241880539999,-46.5486260980582],[-71.7243677129999,-46.5486166580582],[-71.7246899219999,-46.5482894170581],[-71.7245822629999,-46.5474965720582],[-71.7246732899999,-46.5474925190582],[-71.7247114209999,-46.5477704700582],[-71.7249740529999,-46.5477508010582],[-71.7257021059999,-46.5467937370581],[-71.7261796899999,-46.5469023630582],[-71.7263735669999,-46.5466618430581],[-71.7261023679999,-46.5464232350582],[-71.7261356259999,-46.5456801140581],[-71.72564123,-46.5456234910582],[-71.7254308599999,-46.5463051670582],[-71.7255438629999,-46.5456170790582],[-71.7250467169999,-46.5455582280582]]]}},{"type":"Feature","properties":{"id":"11401011001091","commune":"Chile Chico","code":"11401","gse":"D","quintil":"Q1","nse_score":633.8,"educ":8.7,"educ_score":380.0,"hacin":0.846,"hacin_class":"Sin Hacinamiento","hacin_score":883.8,"auto_score":0.0,"n_per":11,"n_hog":6,"source_year":2024},"geometry":{"type":"Polygon","coordinates":[[[-71.7224135929999,-46.5459800330581],[-71.7217072439999,-46.5460802750582],[-71.7218210229999,-46.5464342310581],[-71.7224644419999,-46.5464256540582],[-71.7224135929999,-46.5459800330581]]]}},{"type":"Feature","properties":{"id":"11401011001092","commune":"Chile Chico","code":"11401","gse":"C2","quintil":"Q3","nse_score":709.2,"educ":12.3,"educ_score":620.0,"hacin":1.343,"hacin_class":"Hacinamiento Leve","hacin_score":778.0,"auto_score":347.2,"n_per":90,"n_hog":34,"source_year":2024},"geometry":{"type":"Polygon","coordinates":[[[-71.7182062329999,-46.5490385690582],[-71.7181971169999,-46.5508913240582],[-71.7198645969999,-46.5509627370582],[-71.7201668749999,-46.5500172730582],[-71.7208086569999,-46.5498669620582],[-71.7206847399999,-46.5489725780582],[-71.7212506199999,-46.5488632360581],[-71.7212013129999,-46.5484844370582],[-71.7196132429999,-46.5486134850581],[-71.7196987109999,-46.5488254630582],[-71.7204606999999,-46.5488334610582],[-71.7196023699999,-46.5488386250581],[-71.719302937,-46.5476529930582],[-71.7184721309999,-46.5459402510581],[-71.7183035579999,-46.5460410030581],[-71.7182308529999,-46.5484569860582],[-71.7189070989999,-46.5485851590581],[-71.7182295859999,-46.5484959560582],[-71.7182079999999,-46.5490024650582],[-71.7188977439999,-46.5490117620582],[-71.7182062329999,-46.5490385690582]]]}},{"type":"Feature","properties":{"id":"11401011001093","commune":"Chile Chico","code":"11401","gse":"C3","quintil":"Q3","nse_score":679.2,"educ":10.4,"educ_score":493.3,"hacin":1.409,"hacin_class":"Hacinamiento Leve","hacin_score":764.0,"auto_score":210.5,"n_per":62,"n_hog":19,"source_year":2024},"geometry":{"type":"Polygon","coordinates":[[[-71.7231780539999,-46.5465242120582],[-71.723283078,-46.5472844020582],[-71.7238668279999,-46.5472376260581],[-71.7239709909999,-46.5461070250581],[-71.7235202829999,-46.5461023500582],[-71.7234112799999,-46.5464564710582],[-71.7231780539999,-46.5465242120582]]]}},{"type":"Feature","properties":{"id":"11401011001094","commune":"Chile Chico","code":"11401","gse":"D","quintil":"Q1","nse_score":640.7,"educ":9.9,"educ_score":460.0,"hacin":1.16,"hacin_class":"Hacinamiento Leve","hacin_score":817.0,"auto_score":230.8,"n_per":58,"n_hog":22,"source_year":2024},"geometry":{"type":"Polygon","coordinates":[[[-71.7189980499999,-46.5467798020582],[-71.7191789059999,-46.5471793540581],[-71.7202723249999,-46.5469628110582],[-71.719194452,-46.5472136970582],[-71.7193790109999,-46.5476104720581],[-71.7217557689999,-46.5474094430582],[-71.7216223039999,-46.5461035540582],[-71.7189980499999,-46.5467798020582]]]}},{"type":"Feature","properties":{"id":"11401011001095","commune":"Chile Chico","code":"11401","gse":"D","quintil":"Q1","nse_score":641.8,"educ":7.8,"educ_score":320.0,"hacin":0.867,"hacin_class":"Sin Hacinamiento","hacin_score":879.4,"auto_score":166.7,"n_per":13,"n_hog":6,"source_year":2024},"geometry":{"type":"Polygon","coordinates":[[[-71.7225608469999,-46.5465053400582],[-71.7225633339999,-46.5473426100581],[-71.7232010529999,-46.5472910520582],[-71.7230894099999,-46.5465109660581],[-71.7225608469999,-46.5465053400582]]]}},{"type":"Feature","properties":{"id":"11401011001096","commune":"Chile Chico","code":"11401","gse":"D","quintil":"Q1","nse_score":631.9,"educ":12.1,"educ_score":606.7,"hacin":1.364,"hacin_class":"Hacinamiento Leve","hacin_score":773.7,"auto_score":71.4,"n_per":15,"n_hog":5,"source_year":2024},"geometry":{"type":"Polygon","coordinates":[[[-71.7218275049999,-46.5464900800582],[-71.7218486899999,-46.5474010420581],[-71.7224668219999,-46.5473495670581],[-71.7224500019999,-46.5465049630582],[-71.7218275049999,-46.5464900800582]]]}},{"type":"Feature","properties":{"id":"11401011001098","commune":"Chile Chico","code":"11401","gse":"D","quintil":"Q1","nse_score":640.5,"educ":10.0,"educ_score":466.7,"hacin":1.255,"hacin_class":"Hacinamiento Leve","hacin_score":796.8,"auto_score":240.7,"n_per":64,"n_hog":22,"source_year":2024},"geometry":{"type":"Polygon","coordinates":[[[-71.7232977449999,-46.5473466130582],[-71.7235366159999,-46.5486817060581],[-71.7240977129999,-46.5486356010582],[-71.7238714219999,-46.5473006440582],[-71.7232977449999,-46.5473466130582]]]}},{"type":"Feature","properties":{"id":"11401011001099","commune":"Chile Chico","code":"11401","gse":"D","quintil":"Q2","nse_score":648.7,"educ":9.6,"educ_score":440.0,"hacin":1.068,"hacin_class":"Hacinamiento Leve","hacin_score":836.6,"auto_score":87.0,"n_per":47,"n_hog":21,"source_year":2024},"geometry":{"type":"Polygon","coordinates":[[[-71.7225882879999,-46.5474042420581],[-71.7228006539999,-46.5487421650582],[-71.7234459949999,-46.5486891470582],[-71.7232071109999,-46.5473539630581],[-71.7225882879999,-46.5474042420581]]]}},{"type":"Feature","properties":{"id":"11401011001100","commune":"Chile Chico","code":"11401","gse":"D","quintil":"Q2","nse_score":654.7,"educ":10.2,"educ_score":480.0,"hacin":1.0,"hacin_class":"Hacinamiento Leve","hacin_score":851.1,"auto_score":203.7,"n_per":43,"n_hog":23,"source_year":2024},"geometry":{"type":"Polygon","coordinates":[[[-71.7218983329999,-46.5474601670582],[-71.7220623859999,-46.5488028270581],[-71.7227359109999,-46.5487474930582],[-71.7224838719999,-46.5474115980581],[-71.7218983329999,-46.5474601670582]]]}},{"type":"Feature","properties":{"id":"11401011001101","commune":"Chile Chico","code":"11401","gse":"D","quintil":"Q1","nse_score":617.9,"educ":9.0,"educ_score":400.0,"hacin":1.085,"hacin_class":"Hacinamiento Leve","hacin_score":833.0,"auto_score":120.0,"n_per":51,"n_hog":23,"source_year":2024},"geometry":{"type":"Polygon","coordinates":[[[-71.7211744329999,-46.5475258780581],[-71.7213848729999,-46.5488584790581],[-71.7219717119999,-46.5488102670582],[-71.7217643339999,-46.5474721820581],[-71.7211744329999,-46.5475258780581]]]}},{"type":"Feature","properties":{"id":"11401011001102","commune":"Chile Chico","code":"11401","gse":"D","quintil":"Q1","nse_score":632.2,"educ":10.4,"educ_score":493.3,"hacin":1.147,"hacin_class":"Hacinamiento Leve","hacin_score":819.8,"auto_score":111.1,"n_per":39,"n_hog":16,"source_year":2024},"geometry":{"type":"Polygon","coordinates":[[[-71.7195115359999,-46.5481061190582],[-71.7211421749999,-46.5479814520581],[-71.7210837039999,-46.5475326560581],[-71.7194026169999,-46.5476719710582],[-71.7195115359999,-46.5481061190582]]]}},{"type":"Feature","properties":{"id":"11401011001103","commune":"Chile Chico","code":"11401","gse":"D","quintil":"Q1","nse_score":640.2,"educ":10.7,"educ_score":513.3,"hacin":1.2,"hacin_class":"Hacinamiento Leve","hacin_score":808.5,"auto_score":230.8,"n_per":24,"n_hog":10,"source_year":2024},"geometry":{"type":"Polygon","coordinates":[[[-71.719533081,-46.5481959940581],[-71.7196039289999,-46.5485599000582],[-71.7212122479999,-46.5484199270582],[-71.7211538629999,-46.5480438980582],[-71.719533081,-46.5481959940581]]]}},{"type":"Feature","properties":{"id":"11401011001105","commune":"Chile Chico","code":"11401","gse":"C2","quintil":"Q4","nse_score":720.6,"educ":11.8,"educ_score":586.7,"hacin":1.192,"hacin_class":"Hacinamiento Leve","hacin_score":810.1,"auto_score":357.1,"n_per":31,"n_hog":13,"source_year":2024},"geometry":{"type":"Polygon","coordinates":[[[-71.7228226549999,-46.5488037740582],[-71.7229966399999,-46.5499719220582],[-71.7235328379999,-46.5494345070582],[-71.7234551899999,-46.5487517990582],[-71.7228226549999,-46.5488037740582]]]}},{"type":"Feature","properties":{"id":"11401011001106","commune":"Chile Chico","code":"11401","gse":"C3","quintil":"Q2","nse_score":667.3,"educ":11.3,"educ_score":553.3,"hacin":1.303,"hacin_class":"Hacinamiento Leve","hacin_score":786.6,"auto_score":200.0,"n_per":43,"n_hog":16,"source_year":2024},"geometry":{"type":"Polygon","coordinates":[[[-71.7220714559999,-46.5488654890581],[-71.7222823509999,-46.5500376280581],[-71.7225320139999,-46.5499594460582],[-71.7227959099999,-46.5501755360581],[-71.7229168369999,-46.5500520800582],[-71.7227320239999,-46.5488112200582],[-71.7220714559999,-46.5488654890581]]]}},{"type":"Feature","properties":{"id":"11401011001107","commune":"Chile Chico","code":"11401","gse":"C3","quintil":"Q3","nse_score":679.6,"educ":10.9,"educ_score":526.7,"hacin":1.286,"hacin_class":"Hacinamiento Leve","hacin_score":790.3,"auto_score":68.2,"n_per":54,"n_hog":21,"source_year":2024},"geometry":{"type":"Polygon","coordinates":[[[-71.7216148599999,-46.5501347170582],[-71.7222026459999,-46.5500816780581],[-71.7219808329999,-46.5488729200582],[-71.7213768839999,-46.5489225380582],[-71.7216148599999,-46.5501347170582]]]}},{"type":"Feature","properties":{"id":"11401011001108","commune":"Chile Chico","code":"11401","gse":"C3","quintil":"Q3","nse_score":688.8,"educ":11.4,"educ_score":560.0,"hacin":1.462,"hacin_class":"Hacinamiento Leve","hacin_score":752.9,"auto_score":166.7,"n_per":57,"n_hog":17,"source_year":2024},"geometry":{"type":"Polygon","coordinates":[[[-71.7214871289999,-46.5501016920582],[-71.7212806769999,-46.5489302260581],[-71.7207917369999,-46.5489852500582],[-71.7209109459999,-46.5499008580582],[-71.7214871289999,-46.5501016920582]]]}},{"type":"Feature","properties":{"id":"11401011001001","commune":"Chile Chico","code":"11401","gse":"ABC1","quintil":"Q5","nse_score":794.9,"educ":14.1,"educ_score":740.0,"hacin":1.1,"hacin_class":"Hacinamiento Leve","hacin_score":829.8,"auto_score":0.0,"n_per":11,"n_hog":4,"source_year":2024},"geometry":{"type":"MultiPolygon","coordinates":[[[[-71.7299087689999,-46.5368412580581],[-71.7306722979999,-46.5366289560582],[-71.7306196219999,-46.5361724510581],[-71.7297070249999,-46.5364030450581],[-71.7299087689999,-46.5368412580581]]],[[[-71.7307247119999,-46.5366185710582],[-71.731652101,-46.5364411610581],[-71.7317967969999,-46.5360940950581],[-71.7306915429999,-46.5361277830581],[-71.7307247119999,-46.5366185710582]]]]}},{"type":"Feature","properties":{"id":"11401011001006","commune":"Chile Chico","code":"11401","gse":"C1","quintil":"Q5","nse_score":769.2,"educ":15.3,"educ_score":820.0,"hacin":1.417,"hacin_class":"Hacinamiento Leve","hacin_score":762.4,"auto_score":0.0,"n_per":17,"n_hog":6,"source_year":2024},"geometry":{"type":"MultiPolygon","coordinates":[[[[-71.7305238389999,-46.5378562050581],[-71.7308847629999,-46.5377521970581],[-71.7307672059999,-46.5366919250582],[-71.7299566299999,-46.5369399220581],[-71.7305238389999,-46.5378562050581]]],[[[-71.7284377689999,-46.5372662830582],[-71.7297730529999,-46.5368949230581],[-71.7297884719999,-46.5368348780581],[-71.7296089539999,-46.5364853630581],[-71.7281858779999,-46.5369059400581],[-71.7284377689999,-46.5372662830582]]]]}},{"type":"Feature","properties":{"id":"11401011001082","commune":"Chile Chico","code":"11401","gse":"D","quintil":"Q1","nse_score":626.9,"educ":10.9,"educ_score":526.7,"hacin":1.2,"hacin_class":"Hacinamiento Leve","hacin_score":808.5,"auto_score":315.8,"n_per":42,"n_hog":19,"source_year":2024},"geometry":{"type":"MultiPolygon","coordinates":[[[[-71.7267611609999,-46.5468831020581],[-71.7270090129999,-46.5472196920582],[-71.7273944609999,-46.5471712720582],[-71.7275689889999,-46.5470795920581],[-71.7275975969999,-46.5468052000581],[-71.7267611609999,-46.5468831020581]]],[[[-71.727665397,-46.5467485250581],[-71.728905386,-46.5474024150582],[-71.7290318079999,-46.5472911180581],[-71.7293906349999,-46.5475021050581],[-71.729489155,-46.5471265300582],[-71.7297164769999,-46.5469432810581],[-71.7290292389999,-46.5466857750582],[-71.7279343159999,-46.5458466620581],[-71.7279016389999,-46.5447798920582],[-71.7277707699999,-46.5456603580582],[-71.7279471319999,-46.5461292620582],[-71.727665397,-46.5467485250581]]]]}},{"type":"Feature","properties":{"id":"11401011001015","commune":"Chile Chico","code":"11401","gse":"D","quintil":"Q1","nse_score":642.7,"educ":12.7,"educ_score":646.7,"hacin":1.333,"hacin_class":"Hacinamiento Leve","hacin_score":780.1,"auto_score":83.3,"n_per":16,"n_hog":5,"source_year":2024},"geometry":{"type":"MultiPolygon","coordinates":[[[[-71.7260824049999,-46.5391618680582],[-71.7262696479999,-46.5390265270581],[-71.7261027049999,-46.5383804240581],[-71.7259539039999,-46.5381420310582],[-71.7255365589999,-46.5382766990581],[-71.7260824049999,-46.5391618680582]]],[[[-71.7265170709999,-46.5390371980582],[-71.7274151169999,-46.5387582470581],[-71.7268742769999,-46.5378802090581],[-71.7262483409999,-46.5380738110581],[-71.7265170709999,-46.5390371980582]]]]}},{"type":"Feature","properties":{"id":"11401011001039","commune":"Chile Chico","code":"11401","gse":"C3","quintil":"Q3","nse_score":700.4,"educ":11.1,"educ_score":540.0,"hacin":1.089,"hacin_class":"Hacinamiento Leve","hacin_score":832.1,"auto_score":87.0,"n_per":61,"n_hog":23,"source_year":2024},"geometry":{"type":"MultiPolygon","coordinates":[[[[-71.7165954959999,-46.5420381550582],[-71.7168447299999,-46.5418955400581],[-71.7164167379999,-46.5409838260582],[-71.7160773139999,-46.5410465920581],[-71.7165954959999,-46.5420381550582]]],[[[-71.7147189139999,-46.5398487780582],[-71.7158278559999,-46.5422727780581],[-71.7162436399999,-46.5421475440581],[-71.7157118709999,-46.5416337360581],[-71.7152336429999,-46.5407437830581],[-71.7158617819999,-46.5417513880582],[-71.7162914709999,-46.5421331380581],[-71.716452553,-46.5420821310581],[-71.7153560549999,-46.5397237800581],[-71.7147189139999,-46.5398487780582]]]]}},{"type":"Feature","properties":{"id":"11401011001084","commune":"Chile Chico","code":"11401","gse":"D","quintil":"Q2","nse_score":658.7,"educ":10.0,"educ_score":466.7,"hacin":1.0,"hacin_class":"Hacinamiento Leve","hacin_score":851.1,"auto_score":250.0,"n_per":25,"n_hog":11,"source_year":2024},"geometry":{"type":"MultiPolygon","coordinates":[[[[-71.7215630159999,-46.5457960710581],[-71.7218167809999,-46.5457477370582],[-71.7219063569999,-46.5454961910581],[-71.7217490399999,-46.5451475060581],[-71.7212990559999,-46.5452634070581],[-71.7215630159999,-46.5457960710581]]],[[[-71.7217978099999,-46.5451170660581],[-71.7219535549999,-46.5454028930582],[-71.7220728989999,-46.5450552110581],[-71.7217978099999,-46.5451170660581]]]]}},{"type":"Feature","properties":{"id":"11401023059001","commune":"Chile Chico","code":"11401","gse":"C1","quintil":"Q5","nse_score":769.4,"educ":13.3,"educ_score":686.7,"hacin":0.905,"hacin_class":"Sin Hacinamiento","hacin_score":871.3,"auto_score":166.7,"n_per":19,"n_hog":8,"source_year":2024},"geometry":{"type":"Polygon","coordinates":[[[-72.7034263339999,-46.8401345650587],[-72.7031130279999,-46.8406954420587],[-72.7027978659999,-46.8405332450588],[-72.7026372349999,-46.8407003770588],[-72.7028468589999,-46.8408821870587],[-72.7028238809999,-46.8410198490588],[-72.7032180239999,-46.8412710520587],[-72.7037702539999,-46.8409591160588],[-72.7046130579999,-46.8414278380588],[-72.7051825709999,-46.8413308190587],[-72.7054981799999,-46.8408368290588],[-72.7034263339999,-46.8401345650587]]]}},{"type":"Feature","properties":{"id":"11401023059002","commune":"Chile Chico","code":"11401","gse":"C2","quintil":"Q4","nse_score":741.1,"educ":14.0,"educ_score":733.3,"hacin":0.857,"hacin_class":"Sin Hacinamiento","hacin_score":881.5,"auto_score":83.3,"n_per":12,"n_hog":5,"source_year":2024},"geometry":{"type":"Polygon","coordinates":[[[-72.7038852119999,-46.8419770270587],[-72.7042984239999,-46.8419514860587],[-72.7045485279999,-46.8414207920587],[-72.7037666029999,-46.8409990550587],[-72.7032533169999,-46.8413023300588],[-72.7038852119999,-46.8419770270587]]]}},{"type":"Feature","properties":{"id":"11401023059004","commune":"Chile Chico","code":"11401","gse":"E","quintil":"Q1","nse_score":485.7,"educ":6.5,"educ_score":233.3,"hacin":0.88,"hacin_class":"Sin Hacinamiento","hacin_score":876.6,"auto_score":88.2,"n_per":22,"n_hog":14,"source_year":2024},"geometry":{"type":"Polygon","coordinates":[[[-72.7105836829999,-46.8470204960587],[-72.7114767819999,-46.8468459570587],[-72.7113978689999,-46.8464387090587],[-72.7111142289999,-46.8461607320587],[-72.7115989789999,-46.8460635520587],[-72.7112021699999,-46.8457449570588],[-72.7108712349999,-46.8459285840587],[-72.7104118579999,-46.8454877130588],[-72.7102528469999,-46.8455723170588],[-72.7097929889999,-46.8450551890587],[-72.7091683809999,-46.8449302670587],[-72.7071670109999,-46.8434392030587],[-72.70608103,-46.8427114200587],[-72.7056586759999,-46.8425686520588],[-72.7051111679999,-46.8420448120587],[-72.7045476729999,-46.8420413410587],[-72.7040760749999,-46.8422435570588],[-72.7037422669999,-46.8422379920587],[-72.7037981599999,-46.8429250430587],[-72.7046695299999,-46.8428533920587],[-72.704813295,-46.8431720190588],[-72.7058076209999,-46.8429892080588],[-72.7097130989999,-46.8459831940587],[-72.7105836829999,-46.8470204960587]]]}},{"type":"Feature","properties":{"id":"11401023059007","commune":"Chile Chico","code":"11401","gse":"D","quintil":"Q1","nse_score":639.1,"educ":11.6,"educ_score":573.3,"hacin":0.75,"hacin_class":"Sin Hacinamiento","hacin_score":904.3,"auto_score":38.5,"n_per":18,"n_hog":9,"source_year":2024},"geometry":{"type":"Polygon","coordinates":[[[-72.7016858979999,-46.8432580420587],[-72.7018769029999,-46.8442436030588],[-72.7033212999999,-46.8440819110588],[-72.7030799249999,-46.8430763310588],[-72.7016858979999,-46.8432580420587]]]}},{"type":"Feature","properties":{"id":"11401023059008","commune":"Chile Chico","code":"11401","gse":"C2","quintil":"Q3","nse_score":705.4,"educ":10.9,"educ_score":526.7,"hacin":1.167,"hacin_class":"Hacinamiento Leve","hacin_score":815.6,"auto_score":166.7,"n_per":14,"n_hog":6,"source_year":2024},"geometry":{"type":"Polygon","coordinates":[[[-72.7048208249999,-46.8432076110587],[-72.7049742019999,-46.8438972370588],[-72.7064415699999,-46.8437356570587],[-72.7064086189999,-46.8435300770587],[-72.7058095589999,-46.8430791510588],[-72.7048208249999,-46.8432076110587]]]}},{"type":"Feature","properties":{"id":"11401023059009","commune":"Chile Chico","code":"11401","gse":"C3","quintil":"Q3","nse_score":699.7,"educ":12.8,"educ_score":653.3,"hacin":1.091,"hacin_class":"Hacinamiento Leve","hacin_score":831.7,"auto_score":166.7,"n_per":12,"n_hog":7,"source_year":2024},"geometry":{"type":"Polygon","coordinates":[[[-72.7003665459999,-46.8433465000587],[-72.7004292539999,-46.8436830930587],[-72.7006844169999,-46.8436386910588],[-72.7009950969999,-46.8443405710587],[-72.7017883109999,-46.8442620630587],[-72.7016234409999,-46.8435510020587],[-72.7012743379999,-46.8435742790588],[-72.7007197659999,-46.8434736450588],[-72.7005896139999,-46.8433978470588],[-72.7012745819999,-46.8435526010587],[-72.7016041109999,-46.8434617310587],[-72.7005922079999,-46.8432063180587],[-72.7003665459999,-46.8433465000587]]]}},{"type":"Feature","properties":{"id":"11401023059011","commune":"Chile Chico","code":"11401","gse":"E","quintil":"Q1","nse_score":394.9,"educ":3.8,"educ_score":53.3,"hacin":0.714,"hacin_class":"Sin Hacinamiento","hacin_score":911.9,"auto_score":0.0,"n_per":5,"n_hog":4,"source_year":2024},"geometry":{"type":"Polygon","coordinates":[[[-72.7065447559999,-46.8437881420588],[-72.7067828319999,-46.8447880520588],[-72.7078883029999,-46.8446624420588],[-72.7067135989999,-46.8437680190587],[-72.7065447559999,-46.8437881420588]]]}},{"type":"Feature","properties":{"id":"11401023059012","commune":"Chile Chico","code":"11401","gse":"E","quintil":"Q1","nse_score":611.2,"educ":10.9,"educ_score":526.7,"hacin":1.174,"hacin_class":"Hacinamiento Leve","hacin_score":814.1,"auto_score":156.2,"n_per":27,"n_hog":11,"source_year":2024},"geometry":{"type":"Polygon","coordinates":[[[-72.7049896139999,-46.8439592760588],[-72.7052410549999,-46.8449554390588],[-72.7066923449999,-46.8447983330587],[-72.7064541709999,-46.8437980020587],[-72.7049896139999,-46.8439592760588]]]}},{"type":"Feature","properties":{"id":"11401023059014","commune":"Chile Chico","code":"11401","gse":"C3","quintil":"Q2","nse_score":675.2,"educ":9.2,"educ_score":413.3,"hacin":0.667,"hacin_class":"Sin Hacinamiento","hacin_score":922.0,"auto_score":83.3,"n_per":10,"n_hog":6,"source_year":2024},"geometry":{"type":"Polygon","coordinates":[[[-72.7018917449999,-46.8443085210588],[-72.7021327119999,-46.8453042200588],[-72.7035903459999,-46.8451344740588],[-72.7033430199999,-46.8441432140587],[-72.7018917449999,-46.8443085210588]]]}},{"type":"Feature","properties":{"id":"11401023059015","commune":"Chile Chico","code":"11401","gse":"D","quintil":"Q1","nse_score":614.1,"educ":11.3,"educ_score":553.3,"hacin":1.125,"hacin_class":"Hacinamiento Leve","hacin_score":824.5,"auto_score":136.4,"n_per":18,"n_hog":7,"source_year":2024},"geometry":{"type":"Polygon","coordinates":[[[-72.7018004719999,-46.8443153580588],[-72.70081253,-46.8444722340588],[-72.7016642999999,-46.8463806590587],[-72.7013496029999,-46.8464019860587],[-72.7014677649999,-46.8466817740587],[-72.7020565649999,-46.8469313180587],[-72.7025563789999,-46.8474542820588],[-72.7022623469999,-46.8468207390588],[-72.7023030079999,-46.8465221910588],[-72.7020538649999,-46.8453641480587],[-72.7014456319999,-46.8454309510587],[-72.7020457119999,-46.8453286150587],[-72.7018004719999,-46.8443153580588]]]}},{"type":"Feature","properties":{"id":"11401023059017","commune":"Chile Chico","code":"11401","gse":"C3","quintil":"Q2","nse_score":662.3,"educ":13.2,"educ_score":680.0,"hacin":1.04,"hacin_class":"Hacinamiento Leve","hacin_score":842.6,"auto_score":93.8,"n_per":26,"n_hog":11,"source_year":2024},"geometry":{"type":"Polygon","coordinates":[[[-72.7052560519999,-46.8450175250588],[-72.7055033169999,-46.8460310400588],[-72.7069216289999,-46.8458779820587],[-72.7067063209999,-46.8448605330587],[-72.7052560519999,-46.8450175250588]]]}},{"type":"Feature","properties":{"id":"11401023059019","commune":"Chile Chico","code":"11401","gse":"E","quintil":"Q1","nse_score":596.9,"educ":9.9,"educ_score":460.0,"hacin":0.941,"hacin_class":"Sin Hacinamiento","hacin_score":863.6,"auto_score":115.4,"n_per":16,"n_hog":8,"source_year":2024},"geometry":{"type":"Polygon","coordinates":[[[-72.7021470399999,-46.8453663890587],[-72.7023689449999,-46.8463850670587],[-72.7038548529999,-46.8462200780587],[-72.7036054469999,-46.8451965450588],[-72.7021470399999,-46.8453663890587]]]}},{"type":"Feature","properties":{"id":"11401023059021","commune":"Chile Chico","code":"11401","gse":"E","quintil":"Q1","nse_score":580.9,"educ":10.6,"educ_score":506.7,"hacin":0.829,"hacin_class":"Sin Hacinamiento","hacin_score":887.5,"auto_score":100.0,"n_per":29,"n_hog":14,"source_year":2024},"geometry":{"type":"Polygon","coordinates":[[[-72.7039616759999,-46.8462716570587],[-72.7041905859999,-46.8472788660588],[-72.704841025,-46.8472098690587],[-72.7047948559999,-46.8468816310587],[-72.7048930919999,-46.8472056190588],[-72.7056452929999,-46.8470735180588],[-72.7054283219999,-46.8461030270587],[-72.7039616759999,-46.8462716570587]]]}},{"type":"Feature","properties":{"id":"11401023059022","commune":"Chile Chico","code":"11401","gse":"E","quintil":"Q1","nse_score":580.6,"educ":7.7,"educ_score":313.3,"hacin":1.0,"hacin_class":"Hacinamiento Leve","hacin_score":851.1,"auto_score":125.0,"n_per":24,"n_hog":12,"source_year":2024},"geometry":{"type":"Polygon","coordinates":[[[-72.702352947,-46.8468076420587],[-72.7026471369999,-46.8474451690587],[-72.7041000129999,-46.8472889990588],[-72.7038711739999,-46.8462820120588],[-72.7023814159999,-46.8464474260588],[-72.702352947,-46.8468076420587]]]}},{"type":"Feature","properties":{"id":"11401023059023","commune":"Chile Chico","code":"11401","gse":"D","quintil":"Q2","nse_score":661.7,"educ":10.2,"educ_score":480.0,"hacin":1.167,"hacin_class":"Hacinamiento Leve","hacin_score":815.6,"auto_score":0.0,"n_per":21,"n_hog":8,"source_year":2024},"geometry":{"type":"Polygon","coordinates":[[[-72.7048246549999,-46.8499854470588],[-72.7053544019999,-46.8499192720588],[-72.7052855729999,-46.8496052650587],[-72.7054813669999,-46.8495855830588],[-72.7052419619999,-46.8485284210587],[-72.705908759,-46.8484534640588],[-72.7056045689999,-46.8471942700587],[-72.7042043769999,-46.8473410820588],[-72.704459616,-46.8483978780588],[-72.7055383899999,-46.8483157210588],[-72.7044656989999,-46.8484245340588],[-72.7048246549999,-46.8499854470588]]]}},{"type":"Feature","properties":{"id":"11401023059028","commune":"Chile Chico","code":"11401","gse":"E","quintil":"Q1","nse_score":602.5,"educ":8.9,"educ_score":393.3,"hacin":1.038,"hacin_class":"Hacinamiento Leve","hacin_score":842.9,"auto_score":0.0,"n_per":27,"n_hog":12,"source_year":2024},"geometry":{"type":"Polygon","coordinates":[[[-72.7039258659999,-46.8493431870588],[-72.7045748439999,-46.8493094760587],[-72.7043691299999,-46.8484082020587],[-72.7037306779999,-46.8484756840588],[-72.7039258659999,-46.8493431870588]]]}},{"type":"Feature","properties":{"id":"11401023059029","commune":"Chile Chico","code":"11401","gse":"E","quintil":"Q1","nse_score":572.0,"educ":8.5,"educ_score":366.7,"hacin":1.471,"hacin_class":"Hacinamiento Leve","hacin_score":750.9,"auto_score":0.0,"n_per":25,"n_hog":8,"source_year":2024},"geometry":{"type":"Polygon","coordinates":[[[-72.7031762779999,-46.8494535730588],[-72.7038429679999,-46.8493897930588],[-72.7036400299999,-46.8484852980588],[-72.7029720179999,-46.8485644240588],[-72.7031762779999,-46.8494535730588]]]}},{"type":"Feature","properties":{"id":"11401023059030","commune":"Chile Chico","code":"11401","gse":"C3","quintil":"Q3","nse_score":699.3,"educ":10.8,"educ_score":520.0,"hacin":0.75,"hacin_class":"Sin Hacinamiento","hacin_score":904.3,"auto_score":0.0,"n_per":9,"n_hog":5,"source_year":2024},"geometry":{"type":"Polygon","coordinates":[[[-72.7014341029999,-46.8499719440588],[-72.7032209589999,-46.8505312810587],[-72.7028816909999,-46.8485754410587],[-72.7012055299999,-46.8487771900588],[-72.7014341029999,-46.8499719440588]]]}},{"type":"Feature","properties":{"id":"11401023059031","commune":"Chile Chico","code":"11401","gse":"D","quintil":"Q2","nse_score":652.0,"educ":11.0,"educ_score":533.3,"hacin":1.0,"hacin_class":"Hacinamiento Leve","hacin_score":851.1,"auto_score":0.0,"n_per":10,"n_hog":6,"source_year":2024},"geometry":{"type":"Polygon","coordinates":[[[-72.7034383019999,-46.8504727710588],[-72.7047596389999,-46.8502959000588],[-72.7045850669999,-46.8493538770588],[-72.7031395879999,-46.8495386770588],[-72.7031827049999,-46.8500115010587],[-72.7034383019999,-46.8504727710588]]]}},{"type":"Feature","properties":{"id":"11401023059006","commune":"Chile Chico","code":"11401","gse":"C2","quintil":"Q4","nse_score":713.9,"educ":10.8,"educ_score":520.0,"hacin":0.6,"hacin_class":"Sin Hacinamiento","hacin_score":936.2,"auto_score":0.0,"n_per":6,"n_hog":4,"source_year":2024},"geometry":{"type":"MultiPolygon","coordinates":[[[[-72.7034334999999,-46.8441329040587],[-72.7036807719999,-46.8451239450588],[-72.7051407699999,-46.8449660780587],[-72.7048990689999,-46.8439693790587],[-72.7034334999999,-46.8441329040587]]],[[[-72.7031899829999,-46.8430870590587],[-72.7034247029999,-46.8440701280587],[-72.7048836739999,-46.8439073380588],[-72.7046330069999,-46.8429127620587],[-72.7031899829999,-46.8430870590587]]]]}},{"type":"Feature","properties":{"id":"11401023059025","commune":"Chile Chico","code":"11401","gse":"D","quintil":"Q2","nse_score":651.0,"educ":11.4,"educ_score":560.0,"hacin":1.444,"hacin_class":"Hacinamiento Leve","hacin_score":756.5,"auto_score":0.0,"n_per":13,"n_hog":4,"source_year":2024},"geometry":{"type":"MultiPolygon","coordinates":[[[[-72.7011614169999,-46.8475573320588],[-72.7009733649999,-46.8476546550587],[-72.7011915589999,-46.8487149840587],[-72.7027800099999,-46.8485242150587],[-72.7025755439999,-46.8475159990587],[-72.7011614169999,-46.8475573320588]]],[[[-72.7026533379999,-46.8475081940588],[-72.7028574199999,-46.8485145100587],[-72.7043545309999,-46.8483460720587],[-72.7041138519999,-46.8473512200588],[-72.7026533379999,-46.8475081940588]]]]}},{"type":"Feature","properties":{"id":"11401023059018","commune":"Chile Chico","code":"11401","gse":"C3","quintil":"Q3","nse_score":687.8,"educ":12.5,"educ_score":633.3,"hacin":0.7,"hacin_class":"Sin Hacinamiento","hacin_score":914.9,"auto_score":150.0,"n_per":14,"n_hog":7,"source_year":2024},"geometry":{"type":"MultiPolygon","coordinates":[[[[-72.7055188989999,-46.8460930750588],[-72.7056371549999,-46.8465819630588],[-72.7066828509999,-46.8465716580588],[-72.7068759829999,-46.8463825100588],[-72.7069818459999,-46.8459956820588],[-72.7055188989999,-46.8460930750588]]],[[[-72.7036958759999,-46.8451860180588],[-72.7039453249999,-46.8462097280588],[-72.7054127509999,-46.8460410090587],[-72.7051558399999,-46.8450281610588],[-72.7036958759999,-46.8451860180588]]]]}},{"type":"Feature","properties":{"id":"11401023059016","commune":"Chile Chico","code":"11401","gse":"E","quintil":"Q1","nse_score":603.7,"educ":8.7,"educ_score":380.0,"hacin":1.1,"hacin_class":"Hacinamiento Leve","hacin_score":829.8,"auto_score":180.6,"n_per":77,"n_hog":33,"source_year":2024},"geometry":{"type":"MultiPolygon","coordinates":[[[[-72.7093853069999,-46.8483156980588],[-72.7098012269999,-46.8482317560588],[-72.7096868599999,-46.8479844670588],[-72.7102523059999,-46.8476948240587],[-72.7103278079999,-46.8475919780587],[-72.7102141159999,-46.8473475210588],[-72.7096247359999,-46.8477106950587],[-72.7097031899999,-46.8479424700588],[-72.7092817369999,-46.8480518760588],[-72.7093853069999,-46.8483156980588]]],[[[-72.7067968249999,-46.8448502500587],[-72.7070255319999,-46.8459322780588],[-72.7077540489999,-46.8458582430588],[-72.7084200119999,-46.8460638170588],[-72.7089545489999,-46.8458758470588],[-72.7095396119999,-46.8464527910587],[-72.7097306509999,-46.8468073600588],[-72.7098412789999,-46.8467564170588],[-72.7103762519999,-46.8475932900588],[-72.7101657429999,-46.8478145000587],[-72.7097320099999,-46.8479964190587],[-72.7098451859999,-46.8482194430588],[-72.7104760679999,-46.8479935430587],[-72.710845274,-46.8474990710588],[-72.7096403209999,-46.8460216020588],[-72.7079614469999,-46.8447179190588],[-72.7067968249999,-46.8448502500587]]]]}}]}