{"type":"FeatureCollection","features":[{"type":"Feature","properties":{"id":"9121021001001","commune":"Cholchol","code":"09121","gse":"C3","quintil":"Q2","nse_score":673.8,"educ":10.8,"educ_score":520.0,"hacin":1.401,"hacin_class":"Hacinamiento Leve","hacin_score":765.8,"auto_score":148.6,"n_per":367,"n_hog":113,"source_year":2024,"crime_score":0.4366,"crime_nivel":"Medio","crime_color":"#ff9800"},"geometry":{"type":"Polygon","coordinates":[[[-72.8467693649999,-38.5927979310799],[-72.8413537229999,-38.5931982570798],[-72.8415804719999,-38.5941893760798],[-72.8405313539999,-38.5945933580798],[-72.8406392509999,-38.5952502950798],[-72.8399069849999,-38.5953178610798],[-72.839932701,-38.5957998590798],[-72.8415256289999,-38.5956998400798],[-72.8415472629999,-38.5959799920799],[-72.8418804719999,-38.5959558200798],[-72.8419152829999,-38.5956889070798],[-72.8420756279999,-38.5968796330798],[-72.8433344989999,-38.5967734320798],[-72.8431047999999,-38.5949233960799],[-72.8425172829999,-38.5949262540798],[-72.8425461229999,-38.5956464540798],[-72.8424636589999,-38.5949326710798],[-72.842192355,-38.5949142780798],[-72.8430599409999,-38.5948531860799],[-72.8430443519999,-38.5943740600798],[-72.8420155589999,-38.5943872950798],[-72.8430354509999,-38.5942875910798],[-72.8429589939999,-38.5939594720798],[-72.8419789889999,-38.5940280450799],[-72.8429927899999,-38.5938960290799],[-72.8429174869999,-38.5933199160798],[-72.8422224009999,-38.5933628630798],[-72.8421683789999,-38.5935285810798],[-72.8421538069999,-38.5933671010799],[-72.8419041809999,-38.5933283600798],[-72.8429095959999,-38.5932662400798],[-72.8429636089999,-38.5931625350798],[-72.8429781859999,-38.5932616800799],[-72.8443395959999,-38.5931643750799],[-72.8443919349999,-38.5930413290799],[-72.8444081239999,-38.5931594770798],[-72.8463396609999,-38.5930213950798],[-72.8463789169999,-38.5928954760799],[-72.8462881359999,-38.5934138660798],[-72.8466275629999,-38.5934793630798],[-72.8467693649999,-38.5927979310799]]]}},{"type":"Feature","properties":{"id":"9121021001004","commune":"Cholchol","code":"09121","gse":"C3","quintil":"Q3","nse_score":702.7,"educ":11.6,"educ_score":573.3,"hacin":1.5,"hacin_class":"Hacinamiento Medio","hacin_score":744.7,"auto_score":125.0,"n_per":15,"n_hog":4,"source_year":2024,"crime_score":0.3764,"crime_nivel":"Medio","crime_color":"#ff9800"},"geometry":{"type":"Polygon","coordinates":[[[-72.8430610659999,-38.5938883960799],[-72.8434139459999,-38.5938844640798],[-72.8430671709999,-38.5939730950799],[-72.8431810249999,-38.5948380770799],[-72.8445257459999,-38.5947085590798],[-72.8448082979999,-38.5966565980798],[-72.8461890169999,-38.5965562610798],[-72.846258153,-38.5952038240798],[-72.8466164389999,-38.5935328220798],[-72.8462440549999,-38.5934609660799],[-72.8430437049999,-38.5937073160799],[-72.8430610659999,-38.5938883960799]]]}},{"type":"Feature","properties":{"id":"9121021001005","commune":"Cholchol","code":"09121","gse":"D","quintil":"Q1","nse_score":613.9,"educ":9.9,"educ_score":460.0,"hacin":1.475,"hacin_class":"Hacinamiento Leve","hacin_score":750.0,"auto_score":109.8,"n_per":118,"n_hog":36,"source_year":2024,"crime_score":0.4152,"crime_nivel":"Medio","crime_color":"#ff9800"},"geometry":{"type":"Polygon","coordinates":[[[-72.8530681579999,-38.5947151320798],[-72.8503396989999,-38.5949463100798],[-72.8503756889999,-38.5952898630798],[-72.8463064949999,-38.5955576240798],[-72.8467323759999,-38.5976090370798],[-72.8479591059999,-38.5975074510798],[-72.8478444009999,-38.5965939960798],[-72.8480411589999,-38.5974987370798],[-72.8506422669999,-38.5972641740798],[-72.8504553409999,-38.5953524190798],[-72.8530636919999,-38.5951804490798],[-72.8530681579999,-38.5947151320798]]]}},{"type":"Feature","properties":{"id":"9121021001006","commune":"Cholchol","code":"09121","gse":"D","quintil":"Q2","nse_score":663.5,"educ":11.1,"educ_score":540.0,"hacin":1.361,"hacin_class":"Hacinamiento Leve","hacin_score":774.2,"auto_score":108.7,"n_per":162,"n_hog":45,"source_year":2024,"crime_score":0.4127,"crime_nivel":"Medio","crime_color":"#ff9800"},"geometry":{"type":"Polygon","coordinates":[[[-72.8439294749999,-38.5954896930798],[-72.8438168369999,-38.5948269640798],[-72.8431895759999,-38.5948762720799],[-72.8434270049999,-38.5967305260798],[-72.8447236669999,-38.5966800610798],[-72.8444780199999,-38.5947719070798],[-72.8438985879999,-38.5948175110798],[-72.8439294749999,-38.5954896930798]]]}},{"type":"Feature","properties":{"id":"9121021001007","commune":"Cholchol","code":"09121","gse":"D","quintil":"Q1","nse_score":636.5,"educ":10.4,"educ_score":493.3,"hacin":1.542,"hacin_class":"Hacinamiento Medio","hacin_score":735.8,"auto_score":171.1,"n_per":111,"n_hog":35,"source_year":2024,"crime_score":0.4089,"crime_nivel":"Medio","crime_color":"#ff9800"},"geometry":{"type":"Polygon","coordinates":[[[-72.8530636919999,-38.5951804490798],[-72.8521485429999,-38.5952994980798],[-72.8525019059999,-38.5982212730798],[-72.8532288899999,-38.5982216860798],[-72.8533278559999,-38.5979673870798],[-72.853054702,-38.5967096380798],[-72.8530636919999,-38.5951804490798]]]}},{"type":"Feature","properties":{"id":"9121021001008","commune":"Cholchol","code":"09121","gse":"C3","quintil":"Q3","nse_score":691.2,"educ":11.7,"educ_score":580.0,"hacin":1.462,"hacin_class":"Hacinamiento Leve","hacin_score":752.9,"auto_score":83.3,"n_per":76,"n_hog":23,"source_year":2024,"crime_score":0.3903,"crime_nivel":"Medio","crime_color":"#ff9800"},"geometry":{"type":"Polygon","coordinates":[[[-72.8516233889999,-38.5953334910799],[-72.8517309989999,-38.5962254510798],[-72.8521048239999,-38.5961959060798],[-72.8519916529999,-38.5953061600798],[-72.8516233889999,-38.5953334910799]]]}},{"type":"Feature","properties":{"id":"9121021001009","commune":"Cholchol","code":"09121","gse":"C2","quintil":"Q3","nse_score":716.0,"educ":11.9,"educ_score":593.3,"hacin":1.417,"hacin_class":"Hacinamiento Leve","hacin_score":762.4,"auto_score":159.1,"n_per":68,"n_hog":21,"source_year":2024,"crime_score":0.3835,"crime_nivel":"Medio","crime_color":"#ff9800"},"geometry":{"type":"Polygon","coordinates":[[[-72.8511796569999,-38.5953664200798],[-72.8513007869999,-38.5962594510798],[-72.8516447769999,-38.5962322650798],[-72.8515386719999,-38.5953397780798],[-72.8511796569999,-38.5953664200798]]]}},{"type":"Feature","properties":{"id":"9121021001012","commune":"Cholchol","code":"09121","gse":"D","quintil":"Q1","nse_score":634.2,"educ":10.1,"educ_score":473.3,"hacin":1.453,"hacin_class":"Hacinamiento Leve","hacin_score":754.7,"auto_score":55.6,"n_per":77,"n_hog":25,"source_year":2024,"crime_score":0.4028,"crime_nivel":"Medio","crime_color":"#ff9800"},"geometry":{"type":"Polygon","coordinates":[[[-72.8511346379999,-38.5956572010798],[-72.850572354,-38.5956983950798],[-72.8506003869999,-38.5959784800798],[-72.8509429809999,-38.5960082050798],[-72.8506054009999,-38.5960285680798],[-72.8506337859999,-38.5963121620798],[-72.8512159939999,-38.5962661520798],[-72.8511346379999,-38.5956572010798]]]}},{"type":"Feature","properties":{"id":"9121021001013","commune":"Cholchol","code":"09121","gse":"D","quintil":"Q1","nse_score":632.2,"educ":10.3,"educ_score":486.7,"hacin":1.64,"hacin_class":"Hacinamiento Medio","hacin_score":714.9,"auto_score":0.0,"n_per":41,"n_hog":13,"source_year":2024,"crime_score":0.3962,"crime_nivel":"Medio","crime_color":"#ff9800"},"geometry":{"type":"Polygon","coordinates":[[[-72.8515148259999,-38.5963124110798],[-72.8515509919999,-38.5965878660798],[-72.8521422439999,-38.5965421210798],[-72.8521012049999,-38.5962565380798],[-72.8515148259999,-38.5963124110798]]]}},{"type":"Feature","properties":{"id":"9121021001014","commune":"Cholchol","code":"09121","gse":"C3","quintil":"Q2","nse_score":666.4,"educ":10.7,"educ_score":513.3,"hacin":1.458,"hacin_class":"Hacinamiento Leve","hacin_score":753.5,"auto_score":175.0,"n_per":70,"n_hog":20,"source_year":2024,"crime_score":0.3945,"crime_nivel":"Medio","crime_color":"#ff9800"},"geometry":{"type":"Polygon","coordinates":[[[-72.8506401099999,-38.5963753410798],[-72.8507439589999,-38.5972550480798],[-72.8515649589999,-38.5971642680798],[-72.8514516239999,-38.5963150480798],[-72.8506401099999,-38.5963753410798]]]}},{"type":"Feature","properties":{"id":"9121021001015","commune":"Cholchol","code":"09121","gse":"C2","quintil":"Q3","nse_score":713.6,"educ":12.8,"educ_score":653.3,"hacin":1.222,"hacin_class":"Hacinamiento Leve","hacin_score":803.8,"auto_score":166.7,"n_per":22,"n_hog":8,"source_year":2024,"crime_score":0.3754,"crime_nivel":"Medio","crime_color":"#ff9800"},"geometry":{"type":"Polygon","coordinates":[[[-72.8521508269999,-38.5966018470798],[-72.8515589119999,-38.5966481920798],[-72.8515957799999,-38.5969289890798],[-72.8521904609999,-38.5968776520798],[-72.8521508269999,-38.5966018470798]]]}},{"type":"Feature","properties":{"id":"9121021001017","commune":"Cholchol","code":"09121","gse":"C3","quintil":"Q3","nse_score":687.5,"educ":11.0,"educ_score":533.3,"hacin":1.417,"hacin_class":"Hacinamiento Leve","hacin_score":762.4,"auto_score":136.4,"n_per":34,"n_hog":12,"source_year":2024,"crime_score":0.3832,"crime_nivel":"Medio","crime_color":"#ff9800"},"geometry":{"type":"Polygon","coordinates":[[[-72.8449919519999,-38.5977392700798],[-72.8462111309999,-38.5976510980798],[-72.8461962559999,-38.5966596840798],[-72.8448206299999,-38.5967403560798],[-72.8449919519999,-38.5977392700798]]]}},{"type":"Feature","properties":{"id":"9121021001018","commune":"Cholchol","code":"09121","gse":"E","quintil":"Q1","nse_score":577.0,"educ":8.8,"educ_score":386.7,"hacin":1.36,"hacin_class":"Hacinamiento Leve","hacin_score":774.5,"auto_score":100.0,"n_per":34,"n_hog":10,"source_year":2024,"crime_score":0.4065,"crime_nivel":"Medio","crime_color":"#ff9800"},"geometry":{"type":"Polygon","coordinates":[[[-72.8447438319999,-38.5967526410798],[-72.8434717799999,-38.5968012540798],[-72.8435817749999,-38.5978381760798],[-72.8448293689999,-38.5977551190798],[-72.8447438319999,-38.5967526410798]]]}},{"type":"Feature","properties":{"id":"9121021001019","commune":"Cholchol","code":"09121","gse":"C3","quintil":"Q2","nse_score":665.0,"educ":10.6,"educ_score":506.7,"hacin":0.977,"hacin_class":"Sin Hacinamiento","hacin_score":856.0,"auto_score":222.2,"n_per":42,"n_hog":18,"source_year":2024,"crime_score":0.3895,"crime_nivel":"Medio","crime_color":"#ff9800"},"geometry":{"type":"Polygon","coordinates":[[[-72.8434795549999,-38.5978879770798],[-72.8433425559999,-38.5968118770798],[-72.8420862009999,-38.5969584700798],[-72.8422132179999,-38.5979568460798],[-72.8434795549999,-38.5978879770798]]]}},{"type":"Feature","properties":{"id":"9121021001021","commune":"Cholchol","code":"09121","gse":"D","quintil":"Q2","nse_score":648.1,"educ":10.9,"educ_score":526.7,"hacin":1.438,"hacin_class":"Hacinamiento Leve","hacin_score":758.0,"auto_score":100.0,"n_per":23,"n_hog":9,"source_year":2024,"crime_score":0.3894,"crime_nivel":"Medio","crime_color":"#ff9800"},"geometry":{"type":"Polygon","coordinates":[[[-72.8515719869999,-38.5972188530798],[-72.8507511969999,-38.5973151760798],[-72.8508003289999,-38.5977233170798],[-72.8516236039999,-38.5976604220798],[-72.8515719869999,-38.5972188530798]]]}},{"type":"Feature","properties":{"id":"9121021001022","commune":"Cholchol","code":"09121","gse":"C3","quintil":"Q3","nse_score":708.7,"educ":11.7,"educ_score":580.0,"hacin":1.188,"hacin_class":"Hacinamiento Leve","hacin_score":811.2,"auto_score":250.0,"n_per":19,"n_hog":6,"source_year":2024,"crime_score":0.3759,"crime_nivel":"Medio","crime_color":"#ff9800"},"geometry":{"type":"Polygon","coordinates":[[[-72.8398564429999,-38.5981989570798],[-72.8409675609999,-38.5980851890798],[-72.8404424789999,-38.5977420350798],[-72.8391156479999,-38.5972451010798],[-72.8389421499999,-38.5978239490798],[-72.8398564429999,-38.5981989570798]]]}},{"type":"Feature","properties":{"id":"9121021001023","commune":"Cholchol","code":"09121","gse":"D","quintil":"Q2","nse_score":651.9,"educ":10.1,"educ_score":473.3,"hacin":1.278,"hacin_class":"Hacinamiento Leve","hacin_score":792.0,"auto_score":375.0,"n_per":23,"n_hog":8,"source_year":2024,"crime_score":0.3886,"crime_nivel":"Medio","crime_color":"#ff9800"},"geometry":{"type":"Polygon","coordinates":[[[-72.8495739789999,-38.5984380810798],[-72.8507763079999,-38.5983634530798],[-72.8506497799999,-38.5973246780798],[-72.8494762539999,-38.5974346230798],[-72.8495739789999,-38.5984380810798]]]}},{"type":"Feature","properties":{"id":"9121021001024","commune":"Cholchol","code":"09121","gse":"E","quintil":"Q1","nse_score":603.7,"educ":9.3,"educ_score":420.0,"hacin":1.308,"hacin_class":"Hacinamiento Leve","hacin_score":785.6,"auto_score":26.3,"n_per":51,"n_hog":19,"source_year":2024,"crime_score":0.4042,"crime_nivel":"Medio","crime_color":"#ff9800"},"geometry":{"type":"Polygon","coordinates":[[[-72.8482020979999,-38.5985442300798],[-72.8494692539999,-38.5984630210798],[-72.8493576969999,-38.5974686380798],[-72.8480739489999,-38.5975676550798],[-72.8482020979999,-38.5985442300798]]]}},{"type":"Feature","properties":{"id":"9121021001025","commune":"Cholchol","code":"09121","gse":"D","quintil":"Q2","nse_score":658.1,"educ":11.2,"educ_score":546.7,"hacin":1.391,"hacin_class":"Hacinamiento Leve","hacin_score":767.8,"auto_score":0.0,"n_per":32,"n_hog":11,"source_year":2024,"crime_score":0.389,"crime_nivel":"Medio","crime_color":"#ff9800"},"geometry":{"type":"Polygon","coordinates":[[[-72.8468514929999,-38.5986453130798],[-72.8481106809999,-38.5985664980798],[-72.8479977499999,-38.5975722230798],[-72.8467498059999,-38.5976596200798],[-72.8468514929999,-38.5986453130798]]]}},{"type":"Feature","properties":{"id":"9121021001027","commune":"Cholchol","code":"09121","gse":"D","quintil":"Q2","nse_score":657.3,"educ":10.2,"educ_score":480.0,"hacin":1.235,"hacin_class":"Hacinamiento Leve","hacin_score":801.0,"auto_score":175.0,"n_per":63,"n_hog":20,"source_year":2024,"crime_score":0.3951,"crime_nivel":"Medio","crime_color":"#ff9800"},"geometry":{"type":"Polygon","coordinates":[[[-72.8462442659999,-38.5977261950798],[-72.8449809769999,-38.5978043210798],[-72.8450882499999,-38.5987737930798],[-72.8463609449999,-38.5986997440798],[-72.8462442659999,-38.5977261950798]]]}},{"type":"Feature","properties":{"id":"9121021001028","commune":"Cholchol","code":"09121","gse":"D","quintil":"Q1","nse_score":632.7,"educ":10.5,"educ_score":500.0,"hacin":1.615,"hacin_class":"Hacinamiento Medio","hacin_score":720.1,"auto_score":208.3,"n_per":42,"n_hog":12,"source_year":2024,"crime_score":0.3963,"crime_nivel":"Medio","crime_color":"#ff9800"},"geometry":{"type":"Polygon","coordinates":[[[-72.8516344529999,-38.5977161360798],[-72.8512745549999,-38.5977447460798],[-72.8513464259999,-38.5983195330798],[-72.8517105259999,-38.5982910380798],[-72.8516344529999,-38.5977161360798]]]}},{"type":"Feature","properties":{"id":"9121021001029","commune":"Cholchol","code":"09121","gse":"C2","quintil":"Q4","nse_score":728.2,"educ":12.4,"educ_score":626.7,"hacin":1.364,"hacin_class":"Hacinamiento Leve","hacin_score":773.7,"auto_score":136.4,"n_per":30,"n_hog":11,"source_year":2024,"crime_score":0.3738,"crime_nivel":"Medio","crime_color":"#ff9800"},"geometry":{"type":"Polygon","coordinates":[[[-72.8508073799999,-38.5977818830798],[-72.8508764719999,-38.5983558230798],[-72.8512828359999,-38.5983245090798],[-72.8512077119999,-38.5977500600798],[-72.8508073799999,-38.5977818830798]]]}},{"type":"Feature","properties":{"id":"9121021001030","commune":"Cholchol","code":"09121","gse":"C3","quintil":"Q3","nse_score":686.7,"educ":11.7,"educ_score":580.0,"hacin":1.303,"hacin_class":"Hacinamiento Leve","hacin_score":786.6,"auto_score":62.5,"n_per":43,"n_hog":16,"source_year":2024,"crime_score":0.385,"crime_nivel":"Medio","crime_color":"#ff9800"},"geometry":{"type":"Polygon","coordinates":[[[-72.8436400409999,-38.5979193110798],[-72.8437192609999,-38.5988784330798],[-72.8450073719999,-38.5987846080798],[-72.844881804,-38.5978308750798],[-72.8436400409999,-38.5979193110798]]]}},{"type":"Feature","properties":{"id":"9121021001031","commune":"Cholchol","code":"09121","gse":"C3","quintil":"Q2","nse_score":682.3,"educ":10.0,"educ_score":466.7,"hacin":1.105,"hacin_class":"Hacinamiento Leve","hacin_score":828.7,"auto_score":58.8,"n_per":42,"n_hog":17,"source_year":2024,"crime_score":0.3858,"crime_nivel":"Medio","crime_color":"#ff9800"},"geometry":{"type":"Polygon","coordinates":[[[-72.8389286439999,-38.5978690070798],[-72.838816688,-38.5982425270798],[-72.8394986989999,-38.5983151210798],[-72.8400249409999,-38.5992134660798],[-72.8422745959999,-38.5989908470798],[-72.8421045609999,-38.5980490910798],[-72.8398713389999,-38.5982473510798],[-72.8389286439999,-38.5978690070798]]]}},{"type":"Feature","properties":{"id":"9121021001032","commune":"Cholchol","code":"09121","gse":"D","quintil":"Q1","nse_score":638.5,"educ":10.6,"educ_score":506.7,"hacin":1.207,"hacin_class":"Hacinamiento Leve","hacin_score":807.0,"auto_score":62.5,"n_per":35,"n_hog":16,"source_year":2024,"crime_score":0.3937,"crime_nivel":"Medio","crime_color":"#ff9800"},"geometry":{"type":"Polygon","coordinates":[[[-72.8434872859999,-38.5979316970798],[-72.8422255509999,-38.5980624710798],[-72.8423422289999,-38.5989866140798],[-72.8436117749999,-38.5989068810798],[-72.8434872859999,-38.5979316970798]]]}},{"type":"Feature","properties":{"id":"9121021001033","commune":"Cholchol","code":"09121","gse":"C3","quintil":"Q2","nse_score":667.7,"educ":11.3,"educ_score":553.3,"hacin":1.526,"hacin_class":"Hacinamiento Medio","hacin_score":739.2,"auto_score":184.9,"n_per":238,"n_hog":71,"source_year":2024,"crime_score":0.4262,"crime_nivel":"Medio","crime_color":"#ff9800"},"geometry":{"type":"Polygon","coordinates":[[[-72.8532288899999,-38.5982216860798],[-72.8525378759999,-38.5983171400798],[-72.8526086219999,-38.5990162440798],[-72.8524698019999,-38.5990256850798],[-72.8524062019999,-38.5983264860798],[-72.8519401089999,-38.5983553500798],[-72.8519426499999,-38.5990615340798],[-72.8518629909999,-38.5983601250798],[-72.8514287549999,-38.5983870140798],[-72.8514255649999,-38.5990966970798],[-72.8513547489999,-38.5983915960798],[-72.8508842849999,-38.5984207270798],[-72.8509737339999,-38.5993593090798],[-72.8509151259999,-38.5995197290798],[-72.8507665839999,-38.5995308340798],[-72.850797655,-38.5997628290798],[-72.8509480889999,-38.5998091780798],[-72.8497894189999,-38.5998958020798],[-72.8498921659999,-38.6008667100798],[-72.8535984089999,-38.6006092970798],[-72.8543177099999,-38.6003555940798],[-72.8542280819999,-38.6001778900798],[-72.8536328469999,-38.5998825650798],[-72.8534180929999,-38.5995603610798],[-72.8531538629999,-38.5988715870798],[-72.8532288899999,-38.5982216860798]]]}},{"type":"Feature","properties":{"id":"9121021001034","commune":"Cholchol","code":"09121","gse":"D","quintil":"Q2","nse_score":646.7,"educ":10.2,"educ_score":480.0,"hacin":1.323,"hacin_class":"Hacinamiento Leve","hacin_score":782.4,"auto_score":233.3,"n_per":41,"n_hog":15,"source_year":2024,"crime_score":0.3932,"crime_nivel":"Medio","crime_color":"#ff9800"},"geometry":{"type":"Polygon","coordinates":[[[-72.8509080449999,-38.5994687830798],[-72.850784099,-38.5984283590798],[-72.8495872029999,-38.5985388450798],[-72.849718289,-38.5995376250798],[-72.8509080449999,-38.5994687830798]]]}},{"type":"Feature","properties":{"id":"9121021001041","commune":"Cholchol","code":"09121","gse":"C2","quintil":"Q4","nse_score":728.3,"educ":11.7,"educ_score":580.0,"hacin":1.253,"hacin_class":"Hacinamiento Leve","hacin_score":797.2,"auto_score":171.4,"n_per":104,"n_hog":35,"source_year":2024,"crime_score":0.3874,"crime_nivel":"Medio","crime_color":"#ff9800"},"geometry":{"type":"Polygon","coordinates":[[[-72.8422850559999,-38.5991079500798],[-72.8400249409999,-38.5992134660798],[-72.8403986859999,-38.5994604040798],[-72.8409630989999,-38.6003461360798],[-72.8409286549999,-38.6012022930798],[-72.8406562859999,-38.6016058140798],[-72.8425604789999,-38.6013856150798],[-72.8424439329999,-38.6004403310798],[-72.8414370539999,-38.6004963720798],[-72.8412525729999,-38.6003064240798],[-72.8413107099999,-38.6001795810798],[-72.8424067879999,-38.6000932070798],[-72.8422850559999,-38.5991079500798]]]}},{"type":"Feature","properties":{"id":"9121021001047","commune":"Cholchol","code":"09121","gse":"D","quintil":"Q2","nse_score":649.1,"educ":11.7,"educ_score":580.0,"hacin":1.531,"hacin_class":"Hacinamiento Medio","hacin_score":738.2,"auto_score":130.4,"n_per":75,"n_hog":23,"source_year":2024,"crime_score":0.3992,"crime_nivel":"Medio","crime_color":"#ff9800"},"geometry":{"type":"Polygon","coordinates":[[[-72.8497011269999,-38.5999160590798],[-72.8484256259999,-38.5999977450798],[-72.8485219919999,-38.6009507650798],[-72.8498117919999,-38.6008480110798],[-72.8497011269999,-38.5999160590798]]]}},{"type":"Feature","properties":{"id":"9121021001049","commune":"Cholchol","code":"09121","gse":"D","quintil":"Q1","nse_score":629.7,"educ":11.3,"educ_score":553.3,"hacin":1.46,"hacin_class":"Hacinamiento Leve","hacin_score":753.3,"auto_score":205.9,"n_per":54,"n_hog":17,"source_year":2024,"crime_score":0.3993,"crime_nivel":"Medio","crime_color":"#ff9800"},"geometry":{"type":"Polygon","coordinates":[[[-72.8471481299999,-38.6010579170798],[-72.8484236429999,-38.6009722860798],[-72.8483300819999,-38.6000339350798],[-72.8470323359999,-38.6001161580798],[-72.8471481299999,-38.6010579170798]]]}},{"type":"Feature","properties":{"id":"9121021001052","commune":"Cholchol","code":"09121","gse":"D","quintil":"Q2","nse_score":662.4,"educ":11.2,"educ_score":546.7,"hacin":1.275,"hacin_class":"Hacinamiento Leve","hacin_score":792.6,"auto_score":147.1,"n_per":51,"n_hog":17,"source_year":2024,"crime_score":0.3917,"crime_nivel":"Medio","crime_color":"#ff9800"},"geometry":{"type":"Polygon","coordinates":[[[-72.8465702559999,-38.6001489690798],[-72.845290368,-38.6002459960798],[-72.845421487,-38.6012010310798],[-72.8466830599999,-38.6011089590798],[-72.8465702559999,-38.6001489690798]]]}},{"type":"Feature","properties":{"id":"9121021001054","commune":"Cholchol","code":"09121","gse":"C3","quintil":"Q3","nse_score":702.6,"educ":12.8,"educ_score":653.3,"hacin":1.312,"hacin_class":"Hacinamiento Leve","hacin_score":784.6,"auto_score":88.2,"n_per":42,"n_hog":17,"source_year":2024,"crime_score":0.3815,"crime_nivel":"Medio","crime_color":"#ff9800"},"geometry":{"type":"Polygon","coordinates":[[[-72.8425492089999,-38.6004520710798],[-72.8427018079999,-38.6014214730798],[-72.8439637789999,-38.6013100790798],[-72.8438180299999,-38.6003420420798],[-72.8425492089999,-38.6004520710798]]]}},{"type":"Feature","properties":{"id":"9121021001056","commune":"Cholchol","code":"09121","gse":"C3","quintil":"Q3","nse_score":695.1,"educ":11.0,"educ_score":533.3,"hacin":1.194,"hacin_class":"Hacinamiento Leve","hacin_score":809.7,"auto_score":138.9,"n_per":43,"n_hog":18,"source_year":2024,"crime_score":0.3833,"crime_nivel":"Medio","crime_color":"#ff9800"},"geometry":{"type":"Polygon","coordinates":[[[-72.8499145299999,-38.6019251990798],[-72.8498236619999,-38.6009479650798],[-72.8485332059999,-38.6010403400798],[-72.8486546599999,-38.6020104520798],[-72.8499145299999,-38.6019251990798]]]}},{"type":"Feature","properties":{"id":"9121021001057","commune":"Cholchol","code":"09121","gse":"C3","quintil":"Q3","nse_score":694.8,"educ":12.5,"educ_score":633.3,"hacin":1.217,"hacin_class":"Hacinamiento Leve","hacin_score":804.8,"auto_score":90.9,"n_per":28,"n_hog":11,"source_year":2024,"crime_score":0.3805,"crime_nivel":"Medio","crime_color":"#ff9800"},"geometry":{"type":"Polygon","coordinates":[[[-72.84727892,-38.6021216120798],[-72.8485785369999,-38.6020185100798],[-72.8484572369999,-38.6010496250798],[-72.8471772459999,-38.6011337790798],[-72.84727892,-38.6021216120798]]]}},{"type":"Feature","properties":{"id":"9121021001059","commune":"Cholchol","code":"09121","gse":"C3","quintil":"Q2","nse_score":675.8,"educ":10.4,"educ_score":493.3,"hacin":1.333,"hacin_class":"Hacinamiento Leve","hacin_score":780.1,"auto_score":111.1,"n_per":24,"n_hog":9,"source_year":2024,"crime_score":0.3838,"crime_nivel":"Medio","crime_color":"#ff9800"},"geometry":{"type":"Polygon","coordinates":[[[-72.846709771,-38.6011858160798],[-72.8454428069999,-38.6012699510798],[-72.8455666169999,-38.6022699850798],[-72.8468298949999,-38.6021725110798],[-72.846709771,-38.6011858160798]]]}},{"type":"Feature","properties":{"id":"9121021001060","commune":"Cholchol","code":"09121","gse":"C2","quintil":"Q4","nse_score":742.4,"educ":12.0,"educ_score":600.0,"hacin":1.0,"hacin_class":"Hacinamiento Leve","hacin_score":851.1,"auto_score":117.6,"n_per":40,"n_hog":17,"source_year":2024,"crime_score":0.3727,"crime_nivel":"Medio","crime_color":"#ff9800"},"geometry":{"type":"Polygon","coordinates":[[[-72.8454709929999,-38.6022726960798],[-72.8453226169999,-38.6012793860798],[-72.8440632499999,-38.6013894590798],[-72.8442135349999,-38.6023885890798],[-72.8454709929999,-38.6022726960798]]]}},{"type":"Feature","properties":{"id":"9121021001061","commune":"Cholchol","code":"09121","gse":"D","quintil":"Q1","nse_score":640.4,"educ":10.8,"educ_score":520.0,"hacin":1.583,"hacin_class":"Hacinamiento Medio","hacin_score":727.0,"auto_score":142.9,"n_per":19,"n_hog":7,"source_year":2024,"crime_score":0.3902,"crime_nivel":"Medio","crime_color":"#ff9800"},"geometry":{"type":"Polygon","coordinates":[[[-72.8440980039999,-38.6023981290798],[-72.8439607409999,-38.6013862870798],[-72.8426878949999,-38.6015165920798],[-72.8428149,-38.6024914320798],[-72.8440980039999,-38.6023981290798]]]}},{"type":"Feature","properties":{"id":"9121021001062","commune":"Cholchol","code":"09121","gse":"E","quintil":"Q1","nse_score":608.2,"educ":10.1,"educ_score":473.3,"hacin":1.422,"hacin_class":"Hacinamiento Leve","hacin_score":761.2,"auto_score":23.8,"n_per":64,"n_hog":21,"source_year":2024,"crime_score":0.4058,"crime_nivel":"Medio","crime_color":"#ff9800"},"geometry":{"type":"Polygon","coordinates":[[[-72.8425707149999,-38.6015170310798],[-72.840559562,-38.6016858390798],[-72.8400755439999,-38.6026522660798],[-72.8392478069999,-38.6031459040797],[-72.8403719599999,-38.6031736010798],[-72.8412853529999,-38.6028386930798],[-72.8415369179999,-38.6026034930798],[-72.8427107749999,-38.6024884490798],[-72.8425707149999,-38.6015170310798]]]}},{"type":"Feature","properties":{"id":"9121021001064","commune":"Cholchol","code":"09121","gse":"E","quintil":"Q1","nse_score":598.3,"educ":10.4,"educ_score":493.3,"hacin":1.852,"hacin_class":"Hacinamiento Medio","hacin_score":669.8,"auto_score":142.9,"n_per":50,"n_hog":12,"source_year":2024,"crime_score":0.4052,"crime_nivel":"Medio","crime_color":"#ff9800"},"geometry":{"type":"Polygon","coordinates":[[[-72.8499205489999,-38.6019857120798],[-72.8486665439999,-38.6021071600798],[-72.8487969849999,-38.6031490200798],[-72.8500728909999,-38.6030485620798],[-72.8499205489999,-38.6019857120798]]]}},{"type":"Feature","properties":{"id":"9121021001067","commune":"Cholchol","code":"09121","gse":"C2","quintil":"Q4","nse_score":724.9,"educ":12.4,"educ_score":626.7,"hacin":1.226,"hacin_class":"Hacinamiento Leve","hacin_score":803.0,"auto_score":83.3,"n_per":38,"n_hog":13,"source_year":2024,"crime_score":0.376,"crime_nivel":"Medio","crime_color":"#ff9800"},"geometry":{"type":"Polygon","coordinates":[[[-72.8457192219999,-38.6033939640798],[-72.8469929819999,-38.6032904930797],[-72.8468524639999,-38.6022462490798],[-72.8455867459999,-38.6023439890798],[-72.8457192219999,-38.6033939640798]]]}},{"type":"Feature","properties":{"id":"9121021001068","commune":"Cholchol","code":"09121","gse":"C2","quintil":"Q4","nse_score":754.9,"educ":12.6,"educ_score":640.0,"hacin":0.944,"hacin_class":"Sin Hacinamiento","hacin_score":862.9,"auto_score":100.0,"n_per":17,"n_hog":9,"source_year":2024,"crime_score":0.3658,"crime_nivel":"Medio","crime_color":"#ff9800"},"geometry":{"type":"Polygon","coordinates":[[[-72.8456159259999,-38.6034105110798],[-72.8454827729999,-38.6023594590798],[-72.8442090029999,-38.6024654150798],[-72.8443492189999,-38.6035004800798],[-72.8456159259999,-38.6034105110798]]]}},{"type":"Feature","properties":{"id":"9121021001069","commune":"Cholchol","code":"09121","gse":"D","quintil":"Q2","nse_score":650.4,"educ":11.6,"educ_score":573.3,"hacin":1.929,"hacin_class":"Hacinamiento Medio","hacin_score":653.5,"auto_score":125.0,"n_per":27,"n_hog":9,"source_year":2024,"crime_score":0.3897,"crime_nivel":"Medio","crime_color":"#ff9800"},"geometry":{"type":"Polygon","coordinates":[[[-72.8442584129999,-38.6035178140798],[-72.8441239979999,-38.6024730920798],[-72.8428266949999,-38.6025819660798],[-72.8429601349999,-38.6036061800798],[-72.8442584129999,-38.6035178140798]]]}},{"type":"Feature","properties":{"id":"9121021001070","commune":"Cholchol","code":"09121","gse":"D","quintil":"Q2","nse_score":663.1,"educ":10.5,"educ_score":500.0,"hacin":1.226,"hacin_class":"Hacinamiento Leve","hacin_score":803.0,"auto_score":129.6,"n_per":76,"n_hog":26,"source_year":2024,"crime_score":0.3964,"crime_nivel":"Medio","crime_color":"#ff9800"},"geometry":{"type":"Polygon","coordinates":[[[-72.8385823549999,-38.6049954300797],[-72.8429766079999,-38.6046991320798],[-72.8428706269999,-38.6037169620798],[-72.8416645609999,-38.6037837390798],[-72.8428630109999,-38.6036188900798],[-72.8427180029999,-38.6026027910798],[-72.8417110199999,-38.6026866530798],[-72.8403768309999,-38.6032376480798],[-72.8391923769999,-38.6031981710797],[-72.839019849,-38.6034162500798],[-72.8391089989999,-38.6039100320798],[-72.8390254389999,-38.6044699600798],[-72.8385823549999,-38.6049954300797]]]}},{"type":"Feature","properties":{"id":"9121021001071","commune":"Cholchol","code":"09121","gse":"C3","quintil":"Q2","nse_score":669.1,"educ":9.8,"educ_score":453.3,"hacin":1.089,"hacin_class":"Hacinamiento Leve","hacin_score":832.2,"auto_score":238.1,"n_per":49,"n_hog":21,"source_year":2024,"crime_score":0.3899,"crime_nivel":"Medio","crime_color":"#ff9800"},"geometry":{"type":"Polygon","coordinates":[[[-72.8489311819999,-38.6042190780797],[-72.8501940449999,-38.6041492970798],[-72.8500833249999,-38.6031346200798],[-72.8488305179999,-38.6032216380798],[-72.8489311819999,-38.6042190780797]]]}},{"type":"Feature","properties":{"id":"9121021001074","commune":"Cholchol","code":"09121","gse":"C1","quintil":"Q5","nse_score":785.9,"educ":12.5,"educ_score":633.3,"hacin":1.2,"hacin_class":"Hacinamiento Leve","hacin_score":808.5,"auto_score":100.0,"n_per":36,"n_hog":10,"source_year":2024,"crime_score":0.3627,"crime_nivel":"Medio","crime_color":"#ff9800"},"geometry":{"type":"Polygon","coordinates":[[[-72.8458655919999,-38.6044719970798],[-72.8471291409999,-38.6043871120797],[-72.8470048189999,-38.6033784660798],[-72.8457388649999,-38.6034660760798],[-72.8458655919999,-38.6044719970798]]]}},{"type":"Feature","properties":{"id":"9121021001075","commune":"Cholchol","code":"09121","gse":"C2","quintil":"Q4","nse_score":767.2,"educ":12.8,"educ_score":653.3,"hacin":1.148,"hacin_class":"Hacinamiento Leve","hacin_score":819.5,"auto_score":150.0,"n_per":31,"n_hog":10,"source_year":2024,"crime_score":0.3658,"crime_nivel":"Medio","crime_color":"#ff9800"},"geometry":{"type":"Polygon","coordinates":[[[-72.8444941599999,-38.6045703910797],[-72.8457704659999,-38.6044783980797],[-72.8456354259999,-38.6034838030798],[-72.8443806889999,-38.6035734330798],[-72.8444941599999,-38.6045703910797]]]}},{"type":"Feature","properties":{"id":"9121021001076","commune":"Cholchol","code":"09121","gse":"C2","quintil":"Q4","nse_score":746.0,"educ":12.4,"educ_score":626.7,"hacin":1.0,"hacin_class":"Hacinamiento Leve","hacin_score":851.1,"auto_score":200.0,"n_per":11,"n_hog":5,"source_year":2024,"crime_score":0.3666,"crime_nivel":"Medio","crime_color":"#ff9800"},"geometry":{"type":"Polygon","coordinates":[[[-72.8443965429999,-38.6045943590797],[-72.8442594619999,-38.6035830140798],[-72.8429726959999,-38.6037025870798],[-72.8430945269999,-38.6046714400798],[-72.8443965429999,-38.6045943590797]]]}},{"type":"Feature","properties":{"id":"9121021001077","commune":"Cholchol","code":"09121","gse":"C2","quintil":"Q3","nse_score":720.3,"educ":12.5,"educ_score":633.3,"hacin":1.339,"hacin_class":"Hacinamiento Leve","hacin_score":778.9,"auto_score":240.7,"n_per":79,"n_hog":24,"source_year":2024,"crime_score":0.3846,"crime_nivel":"Medio","crime_color":"#ff9800"},"geometry":{"type":"Polygon","coordinates":[[[-72.8489439659999,-38.6043211800798],[-72.8490881379999,-38.6053144000798],[-72.8503296039999,-38.6052084660798],[-72.8502516799999,-38.6045522950798],[-72.8497139669999,-38.6045911370798],[-72.8502459099999,-38.6045037050798],[-72.8501922329999,-38.6042099970798],[-72.8489439659999,-38.6043211800798]]]}},{"type":"Feature","properties":{"id":"9121021001080","commune":"Cholchol","code":"09121","gse":"C2","quintil":"Q4","nse_score":771.4,"educ":12.8,"educ_score":653.3,"hacin":0.769,"hacin_class":"Sin Hacinamiento","hacin_score":900.2,"auto_score":100.0,"n_per":10,"n_hog":5,"source_year":2024,"crime_score":0.3611,"crime_nivel":"Medio","crime_color":"#ff9800"},"geometry":{"type":"Polygon","coordinates":[[[-72.8471408779999,-38.6044476490798],[-72.8458859559999,-38.6045428340797],[-72.8460106229999,-38.6055401360798],[-72.847267444,-38.6054544300798],[-72.8471408779999,-38.6044476490798]]]}},{"type":"Feature","properties":{"id":"9121021001081","commune":"Cholchol","code":"09121","gse":"C3","quintil":"Q3","nse_score":696.8,"educ":11.3,"educ_score":553.3,"hacin":1.407,"hacin_class":"Hacinamiento Leve","hacin_score":764.4,"auto_score":153.8,"n_per":38,"n_hog":13,"source_year":2024,"crime_score":0.382,"crime_nivel":"Medio","crime_color":"#ff9800"},"geometry":{"type":"Polygon","coordinates":[[[-72.8446384039999,-38.6056351430797],[-72.8459036809999,-38.6055592980798],[-72.8457817909999,-38.6045618060798],[-72.8445140549999,-38.6046451960797],[-72.8446384039999,-38.6056351430797]]]}},{"type":"Feature","properties":{"id":"9121021001084","commune":"Cholchol","code":"09121","gse":"C3","quintil":"Q3","nse_score":686.0,"educ":11.6,"educ_score":573.3,"hacin":1.462,"hacin_class":"Hacinamiento Leve","hacin_score":752.9,"auto_score":38.5,"n_per":38,"n_hog":13,"source_year":2024,"crime_score":0.3843,"crime_nivel":"Medio","crime_color":"#ff9800"},"geometry":{"type":"Polygon","coordinates":[[[-72.8491460349999,-38.6059268000798],[-72.8503706899999,-38.6058590030797],[-72.8503392689999,-38.6052898480797],[-72.8490918989999,-38.6053738190798],[-72.8491460349999,-38.6059268000798]]]}},{"type":"Feature","properties":{"id":"9121021001085","commune":"Cholchol","code":"09121","gse":"C1","quintil":"Q5","nse_score":782.8,"educ":13.3,"educ_score":686.7,"hacin":1.217,"hacin_class":"Hacinamiento Leve","hacin_score":804.8,"auto_score":166.7,"n_per":28,"n_hog":9,"source_year":2024,"crime_score":0.362,"crime_nivel":"Medio","crime_color":"#ff9800"},"geometry":{"type":"Polygon","coordinates":[[[-72.8476849879999,-38.6055047110797],[-72.8477870059999,-38.6060469370797],[-72.8490686839999,-38.6059333520798],[-72.8489813979999,-38.6053823190798],[-72.8476849879999,-38.6055047110797]]]}},{"type":"Feature","properties":{"id":"9121021001087","commune":"Cholchol","code":"09121","gse":"C2","quintil":"Q4","nse_score":760.9,"educ":14.1,"educ_score":740.0,"hacin":1.438,"hacin_class":"Hacinamiento Leve","hacin_score":758.0,"auto_score":62.5,"n_per":23,"n_hog":8,"source_year":2024,"crime_score":0.3657,"crime_nivel":"Medio","crime_color":"#ff9800"},"geometry":{"type":"Polygon","coordinates":[[[-72.8472737359999,-38.6055136540798],[-72.846030476,-38.6056092570797],[-72.8460938859999,-38.6061533420797],[-72.8473504449999,-38.6060694260797],[-72.8472737359999,-38.6055136540798]]]}},{"type":"Feature","properties":{"id":"9121021001088","commune":"Cholchol","code":"09121","gse":"C1","quintil":"Q5","nse_score":803.4,"educ":14.1,"educ_score":740.0,"hacin":1.36,"hacin_class":"Hacinamiento Leve","hacin_score":774.5,"auto_score":41.7,"n_per":34,"n_hog":12,"source_year":2024,"crime_score":0.3587,"crime_nivel":"Medio","crime_color":"#ff9800"},"geometry":{"type":"Polygon","coordinates":[[[-72.8447223829999,-38.6062550250798],[-72.8459898259999,-38.6061745320798],[-72.845926818,-38.6056299210798],[-72.8446685309999,-38.6057139710798],[-72.8447223829999,-38.6062550250798]]]}},{"type":"Feature","properties":{"id":"9121021001089","commune":"Cholchol","code":"09121","gse":"C2","quintil":"Q4","nse_score":723.2,"educ":12.2,"educ_score":613.3,"hacin":1.273,"hacin_class":"Hacinamiento Leve","hacin_score":793.0,"auto_score":100.0,"n_per":14,"n_hog":5,"source_year":2024,"crime_score":0.3719,"crime_nivel":"Medio","crime_color":"#ff9800"},"geometry":{"type":"Polygon","coordinates":[[[-72.8433192469999,-38.6063623920797],[-72.8446281409999,-38.6062797050798],[-72.8445732529999,-38.6057339880798],[-72.8432638599999,-38.6058219520797],[-72.8433192469999,-38.6063623920797]]]}},{"type":"Feature","properties":{"id":"9121021001090","commune":"Cholchol","code":"09121","gse":"C2","quintil":"Q4","nse_score":726.7,"educ":12.2,"educ_score":613.3,"hacin":1.375,"hacin_class":"Hacinamiento Leve","hacin_score":771.3,"auto_score":166.7,"n_per":22,"n_hog":6,"source_year":2024,"crime_score":0.3727,"crime_nivel":"Medio","crime_color":"#ff9800"},"geometry":{"type":"Polygon","coordinates":[[[-72.8492348589999,-38.6065886100798],[-72.8503692329999,-38.6061894590798],[-72.8503972349999,-38.6059204180797],[-72.8491586329999,-38.6060162970797],[-72.8492348589999,-38.6065886100798]]]}},{"type":"Feature","properties":{"id":"9121021001091","commune":"Cholchol","code":"09121","gse":"C3","quintil":"Q2","nse_score":679.5,"educ":11.1,"educ_score":540.0,"hacin":1.568,"hacin_class":"Hacinamiento Medio","hacin_score":730.3,"auto_score":222.2,"n_per":58,"n_hog":17,"source_year":2024,"crime_score":0.3894,"crime_nivel":"Medio","crime_color":"#ff9800"},"geometry":{"type":"Polygon","coordinates":[[[-72.8485491129999,-38.6069458530798],[-72.849157509,-38.6066373380797],[-72.8490896329999,-38.6060258120797],[-72.8477997819999,-38.6060889260797],[-72.8478906379999,-38.6070582870797],[-72.8485491129999,-38.6069458530798]]]}},{"type":"Feature","properties":{"id":"9121021001093","commune":"Cholchol","code":"09121","gse":"C3","quintil":"Q3","nse_score":689.1,"educ":11.2,"educ_score":546.7,"hacin":1.286,"hacin_class":"Hacinamiento Leve","hacin_score":790.3,"auto_score":238.1,"n_per":54,"n_hog":21,"source_year":2024,"crime_score":0.3866,"crime_nivel":"Medio","crime_color":"#ff9800"},"geometry":{"type":"Polygon","coordinates":[[[-72.8462402799999,-38.6072314890798],[-72.8475044069999,-38.6071073250798],[-72.8473773859999,-38.6061470360797],[-72.8461166429999,-38.6062244520797],[-72.8462402799999,-38.6072314890798]]]}},{"type":"Feature","properties":{"id":"9121021001094","commune":"Cholchol","code":"09121","gse":"C3","quintil":"Q3","nse_score":703.6,"educ":11.9,"educ_score":593.3,"hacin":1.482,"hacin_class":"Hacinamiento Leve","hacin_score":748.6,"auto_score":83.3,"n_per":40,"n_hog":11,"source_year":2024,"crime_score":0.3809,"crime_nivel":"Medio","crime_color":"#ff9800"},"geometry":{"type":"Polygon","coordinates":[[[-72.8461455919999,-38.6072411460797],[-72.8459978389999,-38.6062336290797],[-72.8447350939999,-38.6063488530797],[-72.8448996399999,-38.6073458390797],[-72.8461455919999,-38.6072411460797]]]}},{"type":"Feature","properties":{"id":"9121021001095","commune":"Cholchol","code":"09121","gse":"C3","quintil":"Q3","nse_score":700.0,"educ":11.7,"educ_score":580.0,"hacin":1.429,"hacin_class":"Hacinamiento Leve","hacin_score":759.9,"auto_score":0.0,"n_per":10,"n_hog":5,"source_year":2024,"crime_score":0.376,"crime_nivel":"Medio","crime_color":"#ff9800"},"geometry":{"type":"Polygon","coordinates":[[[-72.8434597089999,-38.6074355830797],[-72.8447741689999,-38.6073552150797],[-72.8446587479999,-38.6063545250797],[-72.8433566049999,-38.6064376150798],[-72.8434597089999,-38.6074355830797]]]}},{"type":"Feature","properties":{"id":"9121021001096","commune":"Cholchol","code":"09121","gse":"C3","quintil":"Q3","nse_score":703.1,"educ":12.1,"educ_score":606.7,"hacin":1.312,"hacin_class":"Hacinamiento Leve","hacin_score":784.6,"auto_score":250.0,"n_per":21,"n_hog":7,"source_year":2024,"crime_score":0.3775,"crime_nivel":"Medio","crime_color":"#ff9800"},"geometry":{"type":"Polygon","coordinates":[[[-72.8463890759999,-38.6083272860798],[-72.8471127399999,-38.6081771440798],[-72.8475894509999,-38.6078296450797],[-72.8475221739999,-38.6072229110798],[-72.8462657829999,-38.6072974020797],[-72.8463890759999,-38.6083272860798]]]}},{"type":"Feature","properties":{"id":"9121021001097","commune":"Cholchol","code":"09121","gse":"D","quintil":"Q2","nse_score":643.5,"educ":11.4,"educ_score":560.0,"hacin":1.405,"hacin_class":"Hacinamiento Leve","hacin_score":764.9,"auto_score":50.0,"n_per":59,"n_hog":21,"source_year":2024,"crime_score":0.3973,"crime_nivel":"Medio","crime_color":"#ff9800"},"geometry":{"type":"Polygon","coordinates":[[[-72.8462944259999,-38.6083372330797],[-72.8461396799999,-38.6073068260798],[-72.8448804429999,-38.6074217080797],[-72.8450552179999,-38.6084493080797],[-72.8462944259999,-38.6083372330797]]]}},{"type":"Feature","properties":{"id":"9121021001098","commune":"Cholchol","code":"09121","gse":"C2","quintil":"Q3","nse_score":711.3,"educ":11.8,"educ_score":586.7,"hacin":1.226,"hacin_class":"Hacinamiento Leve","hacin_score":803.0,"auto_score":128.6,"n_per":179,"n_hog":69,"source_year":2024,"crime_score":0.4051,"crime_nivel":"Medio","crime_color":"#ff9800"},"geometry":{"type":"Polygon","coordinates":[[[-72.8407022639999,-38.6074281590797],[-72.8404490269999,-38.6082006550797],[-72.8396349989999,-38.6086936210797],[-72.8395306019999,-38.6088721890798],[-72.8397638569999,-38.6091688940797],[-72.8402486479999,-38.6093527090797],[-72.8414077099999,-38.6088449960798],[-72.8415890769999,-38.6089310110797],[-72.8417115379999,-38.6093269140797],[-72.8411660959999,-38.6109631030797],[-72.8409136609999,-38.6111582330797],[-72.8406885309999,-38.6110167630797],[-72.8405941839999,-38.6110841970797],[-72.8404889599999,-38.6120708210797],[-72.8402850459999,-38.6125345100797],[-72.8417076419999,-38.6116909730797],[-72.8431362969999,-38.6102066650797],[-72.8425142179999,-38.6101806010798],[-72.8431576209999,-38.6101750790797],[-72.8433583629999,-38.6097835150797],[-72.8426397249999,-38.6097764520797],[-72.8433730509999,-38.6097400260797],[-72.8436223989999,-38.6092323190797],[-72.8431054439999,-38.6092166510797],[-72.8431109269999,-38.6096166870797],[-72.8430881259999,-38.6092175410798],[-72.8426417669999,-38.6092405070797],[-72.8426348579999,-38.6096306020797],[-72.8426216129999,-38.6092415440797],[-72.8423988759999,-38.6092530040797],[-72.8436284469999,-38.6091060840798],[-72.8435234909999,-38.6085969830797],[-72.8423612289999,-38.6086688140797],[-72.8435179149999,-38.6085559510797],[-72.8434818919999,-38.6080867000797],[-72.8427072139999,-38.6081329350798],[-72.8434756759999,-38.6080463640798],[-72.8433595929999,-38.6075138960797],[-72.8417916989999,-38.6076636340797],[-72.8408464419999,-38.6073402440797],[-72.8407022639999,-38.6074281590797]]]}},{"type":"Feature","properties":{"id":"9121021001100","commune":"Cholchol","code":"09121","gse":"C2","quintil":"Q4","nse_score":737.0,"educ":12.2,"educ_score":613.3,"hacin":1.214,"hacin_class":"Hacinamiento Leve","hacin_score":805.5,"auto_score":83.3,"n_per":51,"n_hog":18,"source_year":2024,"crime_score":0.3758,"crime_nivel":"Medio","crime_color":"#ff9800"},"geometry":{"type":"Polygon","coordinates":[[[-72.8449421779999,-38.6084116380797],[-72.8447822069999,-38.6074082700798],[-72.8434726869999,-38.6075296170798],[-72.8436427909999,-38.6085423680797],[-72.8449421779999,-38.6084116380797]]]}},{"type":"Feature","properties":{"id":"9121021001101","commune":"Cholchol","code":"09121","gse":"C2","quintil":"Q4","nse_score":743.1,"educ":11.9,"educ_score":593.3,"hacin":1.227,"hacin_class":"Hacinamiento Leve","hacin_score":802.7,"auto_score":75.0,"n_per":54,"n_hog":19,"source_year":2024,"crime_score":0.3751,"crime_nivel":"Medio","crime_color":"#ff9800"},"geometry":{"type":"Polygon","coordinates":[[[-72.843695093,-38.6092283210797],[-72.8434629519999,-38.6097330050797],[-72.8439654059999,-38.6097652220798],[-72.8434411489999,-38.6097805710797],[-72.843294839,-38.6101296410797],[-72.8417076419999,-38.6116909730797],[-72.8444231729999,-38.6099436890797],[-72.8457137199999,-38.6093713710797],[-72.8479879619999,-38.6079321850797],[-72.8476915289999,-38.6077065610797],[-72.8476826649999,-38.6078313600797],[-72.8469980649999,-38.6082738020797],[-72.8450691569999,-38.6084941120798],[-72.8450918779999,-38.6090967990797],[-72.843695093,-38.6092283210797]]]}},{"type":"Feature","properties":{"id":"9121021001102","commune":"Cholchol","code":"09121","gse":"C2","quintil":"Q4","nse_score":732.4,"educ":12.5,"educ_score":633.3,"hacin":1.542,"hacin_class":"Hacinamiento Medio","hacin_score":735.8,"auto_score":83.3,"n_per":37,"n_hog":12,"source_year":2024,"crime_score":0.3742,"crime_nivel":"Medio","crime_color":"#ff9800"},"geometry":{"type":"Polygon","coordinates":[[[-72.8449028899999,-38.6085049570797],[-72.8436645049999,-38.6085835670797],[-72.8436852739999,-38.6091017930797],[-72.8449886579999,-38.6090492940797],[-72.8449028899999,-38.6085049570797]]]}},{"type":"Feature","properties":{"id":"9121021001038","commune":"Cholchol","code":"09121","gse":"C2","quintil":"Q3","nse_score":718.6,"educ":11.7,"educ_score":580.0,"hacin":1.0,"hacin_class":"Hacinamiento Leve","hacin_score":851.1,"auto_score":93.8,"n_per":46,"n_hog":15,"source_year":2024,"crime_score":0.3788,"crime_nivel":"Medio","crime_color":"#ff9800"},"geometry":{"type":"MultiPolygon","coordinates":[[[[-72.8438722969999,-38.5999797770798],[-72.8451410959999,-38.5998998090798],[-72.8450203649999,-38.5988833070798],[-72.8437559739999,-38.5989635660798],[-72.8438722969999,-38.5999797770798]]],[[[-72.8452391149999,-38.5998726900798],[-72.8465058969999,-38.5997978300798],[-72.8463871499999,-38.5987881300798],[-72.8451020069999,-38.5988740040798],[-72.8452391149999,-38.5998726900798]]]]}},{"type":"Feature","properties":{"id":"9121021001072","commune":"Cholchol","code":"09121","gse":"C2","quintil":"Q4","nse_score":733.3,"educ":12.9,"educ_score":660.0,"hacin":1.143,"hacin_class":"Hacinamiento Leve","hacin_score":820.7,"auto_score":153.8,"n_per":32,"n_hog":13,"source_year":2024,"crime_score":0.3731,"crime_nivel":"Medio","crime_color":"#ff9800"},"geometry":{"type":"MultiPolygon","coordinates":[[[[-72.8476829109999,-38.6054070420798],[-72.8489800099999,-38.6053227170797],[-72.8488505879999,-38.6043128590798],[-72.8475618779999,-38.6044227770798],[-72.8476829109999,-38.6054070420798]]],[[[-72.8475498999999,-38.6043253670798],[-72.8488424579999,-38.6042529210798],[-72.8487322919999,-38.6032465950797],[-72.8474389619999,-38.6033316700798],[-72.8475498999999,-38.6043253670798]]]]}},{"type":"Feature","properties":{"id":"9121021001035","commune":"Cholchol","code":"09121","gse":"C3","quintil":"Q2","nse_score":668.2,"educ":11.1,"educ_score":540.0,"hacin":1.258,"hacin_class":"Hacinamiento Leve","hacin_score":796.2,"auto_score":266.7,"n_per":39,"n_hog":15,"source_year":2024,"crime_score":0.3882,"crime_nivel":"Medio","crime_color":"#ff9800"},"geometry":{"type":"MultiPolygon","coordinates":[[[[-72.8497560159999,-38.5998250770798],[-72.8507245519999,-38.5997685000798],[-72.8506993769999,-38.5995358590798],[-72.8497537349999,-38.5996065550798],[-72.8497560159999,-38.5998250770798]]],[[[-72.8483457059999,-38.5996385920798],[-72.8496149259999,-38.5995654570798],[-72.8495040999999,-38.5985447840798],[-72.8482349219999,-38.5986225340798],[-72.8483457059999,-38.5996385920798]]]]}},{"type":"Feature","properties":{"id":"9121021001036","commune":"Cholchol","code":"09121","gse":"D","quintil":"Q1","nse_score":625.1,"educ":10.3,"educ_score":486.7,"hacin":1.286,"hacin_class":"Hacinamiento Leve","hacin_score":790.3,"auto_score":0.0,"n_per":36,"n_hog":15,"source_year":2024,"crime_score":0.3968,"crime_nivel":"Medio","crime_color":"#ff9800"},"geometry":{"type":"MultiPolygon","coordinates":[[[[-72.8470218679999,-38.6000310200798],[-72.8482791139999,-38.5999502340798],[-72.8482820209999,-38.5997385370798],[-72.8470145019999,-38.5998112960798],[-72.8470218679999,-38.6000310200798]]],[[[-72.8469868619999,-38.5997463080798],[-72.8482574089999,-38.5996669300798],[-72.8481399749999,-38.5986560720798],[-72.8468637109999,-38.5987446880798],[-72.8469868619999,-38.5997463080798]]]]}},{"type":"Feature","properties":{"id":"9121021001046","commune":"Cholchol","code":"09121","gse":"C2","quintil":"Q4","nse_score":774.5,"educ":13.4,"educ_score":693.3,"hacin":1.323,"hacin_class":"Hacinamiento Leve","hacin_score":782.2,"auto_score":93.8,"n_per":45,"n_hog":16,"source_year":2024,"crime_score":0.3668,"crime_nivel":"Medio","crime_color":"#ff9800"},"geometry":{"type":"MultiPolygon","coordinates":[[[[-72.8440514309999,-38.6013022010798],[-72.8453188969999,-38.6012160570798],[-72.8452011609999,-38.6002564750798],[-72.8439406469999,-38.6003328820798],[-72.8440514309999,-38.6013022010798]]],[[[-72.8452779489999,-38.6001555470798],[-72.8465456959999,-38.6000797810798],[-72.8465322459999,-38.5998664850798],[-72.8452622179999,-38.5999422350798],[-72.8452779489999,-38.6001555470798]]]]}},{"type":"Feature","properties":{"id":"9121021001082","commune":"Cholchol","code":"09121","gse":"C1","quintil":"Q5","nse_score":805.7,"educ":13.7,"educ_score":713.3,"hacin":1.1,"hacin_class":"Hacinamiento Leve","hacin_score":829.8,"auto_score":71.4,"n_per":22,"n_hog":7,"source_year":2024,"crime_score":0.3561,"crime_nivel":"Medio","crime_color":"#ff9800"},"geometry":{"type":"MultiPolygon","coordinates":[[[[-72.8430056969999,-38.6047764810797],[-72.8385823549999,-38.6049954300797],[-72.8385813009999,-38.6050305450797],[-72.8389227249999,-38.6053697960797],[-72.8396571599999,-38.6053860260798],[-72.8398280039999,-38.6058712230798],[-72.8401079249999,-38.6061312520798],[-72.8405349409999,-38.6063012990797],[-72.8411903769999,-38.6062687790798],[-72.8418676979999,-38.6064482590797],[-72.8420646519999,-38.6070490230797],[-72.8420673959999,-38.6075700110798],[-72.8433542379999,-38.6074658290797],[-72.8430056969999,-38.6047764810797]]],[[[-72.8432395429999,-38.6057506740797],[-72.8445421859999,-38.6056639750797],[-72.8444264169999,-38.6046682130798],[-72.8431065789999,-38.6047648950798],[-72.8432395429999,-38.6057506740797]]]]}},{"type":"Feature","properties":{"id":"9121021001055","commune":"Cholchol","code":"09121","gse":"C2","quintil":"Q4","nse_score":732.9,"educ":12.1,"educ_score":606.7,"hacin":1.367,"hacin_class":"Hacinamiento Leve","hacin_score":773.0,"auto_score":166.7,"n_per":41,"n_hog":12,"source_year":2024,"crime_score":0.3749,"crime_nivel":"Medio","crime_color":"#ff9800"},"geometry":{"type":"MultiPolygon","coordinates":[[[[-72.8500317739999,-38.6019980450798],[-72.8504849149999,-38.6061790130797],[-72.8477378719999,-38.6072825290797],[-72.8482850849999,-38.6077528390797],[-72.8503242369999,-38.6064292250798],[-72.8519184759999,-38.6057344230798],[-72.8531862729999,-38.6053462720798],[-72.8527379329999,-38.6024999010798],[-72.8530306689999,-38.6024379210798],[-72.8536038809999,-38.6026041850798],[-72.8540107959999,-38.6022322300797],[-72.8531386999999,-38.6017394380798],[-72.8500317739999,-38.6019980450798]]],[[[-72.8499011859999,-38.6009401520798],[-72.8500285179999,-38.6019520730798],[-72.8531795459999,-38.6017059910798],[-72.8540371389999,-38.6022066210798],[-72.8544369759999,-38.6018678280798],[-72.8542452639999,-38.6016408520798],[-72.8531610419999,-38.6012485220798],[-72.8532000269999,-38.6008090880798],[-72.8535984089999,-38.6006092970798],[-72.8499011859999,-38.6009401520798]]]]}},{"type":"Feature","properties":{"id":"9121043065001","commune":"Cholchol","code":"09121","gse":"C3","quintil":"Q3","nse_score":707.1,"educ":12.1,"educ_score":606.7,"hacin":1.339,"hacin_class":"Hacinamiento Leve","hacin_score":778.8,"auto_score":240.4,"n_per":146,"n_hog":47,"source_year":2024,"crime_score":0.3999,"crime_nivel":"Medio","crime_color":"#ff9800"},"geometry":{"type":"Polygon","coordinates":[[[-72.8301281639999,-38.6055738820797],[-72.8296668959999,-38.6058553090798],[-72.8299241219999,-38.6061364090797],[-72.8304072119999,-38.6058871050798],[-72.8299508669999,-38.6061657330798],[-72.8302059039999,-38.6064451230798],[-72.830718197,-38.6061901870797],[-72.8302326949999,-38.6064744510797],[-72.8304895959999,-38.6067551170797],[-72.8310082799999,-38.6065078270797],[-72.8305137919999,-38.6067857030798],[-72.8307162009999,-38.6070798130797],[-72.8312554949999,-38.6068115540797],[-72.8307379259999,-38.6071116940798],[-72.831082062,-38.6074954850798],[-72.8317604179999,-38.6071595930797],[-72.8301366469999,-38.6053736580798],[-72.829551008,-38.6057166330797],[-72.8296390849999,-38.6058264790797],[-72.8301281639999,-38.6055738820797]]]}},{"type":"Feature","properties":{"id":"9121043065002","commune":"Cholchol","code":"09121","gse":"C3","quintil":"Q2","nse_score":679.6,"educ":10.9,"educ_score":526.7,"hacin":1.424,"hacin_class":"Hacinamiento Leve","hacin_score":760.9,"auto_score":110.5,"n_per":262,"n_hog":86,"source_year":2024,"crime_score":0.428,"crime_nivel":"Medio","crime_color":"#ff9800"},"geometry":{"type":"Polygon","coordinates":[[[-72.8305930299999,-38.6081125970797],[-72.8319152309999,-38.6073320240798],[-72.8318116029999,-38.6072159310797],[-72.8305636029999,-38.6079312400797],[-72.8306345629999,-38.6078087480798],[-72.8304865759999,-38.6075987540797],[-72.8306714839999,-38.6077873440797],[-72.8310244189999,-38.6075345220797],[-72.8306675999999,-38.6071481230797],[-72.8301779269999,-38.6073821870797],[-72.8306472219999,-38.6071155450798],[-72.8304433209999,-38.6068204950798],[-72.8299520019999,-38.6070417060798],[-72.8304199389999,-38.6067895070797],[-72.8301583719999,-38.6065104250798],[-72.8296776309999,-38.6067458280797],[-72.8301307669999,-38.6064814910798],[-72.8298696769999,-38.6062059330798],[-72.8293975209999,-38.6064226830798],[-72.8298435129999,-38.6061763220798],[-72.829591665,-38.6058912910797],[-72.8291087769999,-38.6061101410797],[-72.829565467,-38.6058616410797],[-72.8295008779999,-38.6057795920797],[-72.828304682,-38.6062789950798],[-72.829297531,-38.6067326380797],[-72.8305930299999,-38.6081125970797]]]}}]}