{"type":"FeatureCollection","features":[{"type":"Feature","properties":{"id":"11202011001001","commune":"Cisnes","code":"11202","gse":"E","quintil":"Q1","nse_score":542.0,"educ":7.4,"educ_score":293.3,"hacin":1.167,"hacin_class":"Hacinamiento Leve","hacin_score":815.6,"auto_score":200.0,"n_per":7,"n_hog":4,"source_year":2024,"crime_score":0.4389,"crime_nivel":"Muy Bajo","crime_color":"#4caf50"},"geometry":{"type":"Polygon","coordinates":[[[-72.6786445689999,-44.7229408560567],[-72.678353882,-44.7234164740567],[-72.6796402139999,-44.7235717480567],[-72.6799646649999,-44.7225676420567],[-72.6824512919999,-44.7228543630567],[-72.6837787829999,-44.7231039840567],[-72.6836939479999,-44.7240785250567],[-72.6855975739999,-44.7243422960567],[-72.6863273889999,-44.7241052670567],[-72.6839070759999,-44.7228354940567],[-72.6788611179999,-44.7222856840567],[-72.6785781359999,-44.7225961730567],[-72.6786445689999,-44.7229408560567]]]}},{"type":"Feature","properties":{"id":"11202011001002","commune":"Cisnes","code":"11202","gse":"D","quintil":"Q2","nse_score":645.8,"educ":10.3,"educ_score":486.7,"hacin":1.25,"hacin_class":"Hacinamiento Leve","hacin_score":797.9,"auto_score":205.9,"n_per":30,"n_hog":13,"source_year":2024,"crime_score":0.4204,"crime_nivel":"Muy Bajo","crime_color":"#4caf50"},"geometry":{"type":"Polygon","coordinates":[[[-72.6798311469999,-44.7235975830567],[-72.6805698659999,-44.7236558490567],[-72.6808038339999,-44.7227223640567],[-72.679991416,-44.7226380730567],[-72.6798311469999,-44.7235975830567]]]}},{"type":"Feature","properties":{"id":"11202011001003","commune":"Cisnes","code":"11202","gse":"E","quintil":"Q1","nse_score":594.3,"educ":9.2,"educ_score":413.3,"hacin":1.3,"hacin_class":"Hacinamiento Leve","hacin_score":787.2,"auto_score":107.1,"n_per":26,"n_hog":12,"source_year":2024,"crime_score":0.4313,"crime_nivel":"Muy Bajo","crime_color":"#4caf50"},"geometry":{"type":"Polygon","coordinates":[[[-72.6807013849999,-44.7237058940567],[-72.6813998679999,-44.7237610380567],[-72.6816346649999,-44.7228286130567],[-72.680890228,-44.7227454570567],[-72.6807013849999,-44.7237058940567]]]}},{"type":"Feature","properties":{"id":"11202011001004","commune":"Cisnes","code":"11202","gse":"D","quintil":"Q1","nse_score":620.1,"educ":9.2,"educ_score":413.3,"hacin":1.256,"hacin_class":"Hacinamiento Leve","hacin_score":796.5,"auto_score":52.6,"n_per":49,"n_hog":18,"source_year":2024,"crime_score":0.4303,"crime_nivel":"Muy Bajo","crime_color":"#4caf50"},"geometry":{"type":"Polygon","coordinates":[[[-72.6814774339999,-44.7238024870567],[-72.6820566029999,-44.7238453970567],[-72.6823366969999,-44.7229043020567],[-72.6817065319999,-44.7228417540567],[-72.6814774339999,-44.7238024870567]]]}},{"type":"Feature","properties":{"id":"11202011001005","commune":"Cisnes","code":"11202","gse":"E","quintil":"Q1","nse_score":604.3,"educ":9.9,"educ_score":460.0,"hacin":1.364,"hacin_class":"Hacinamiento Leve","hacin_score":773.7,"auto_score":88.2,"n_per":30,"n_hog":14,"source_year":2024,"crime_score":0.4298,"crime_nivel":"Muy Bajo","crime_color":"#4caf50"},"geometry":{"type":"Polygon","coordinates":[[[-72.6828971479999,-44.7234481650567],[-72.6822628549999,-44.7234124360567],[-72.6821207319999,-44.7238462330567],[-72.6834927499999,-44.7240311780567],[-72.6837502199999,-44.7231554890568],[-72.6824170049999,-44.7229177510567],[-72.682288303,-44.7233492360567],[-72.6828971479999,-44.7234481650567]]]}},{"type":"Feature","properties":{"id":"11202011001006","commune":"Cisnes","code":"11202","gse":"C2","quintil":"Q4","nse_score":746.5,"educ":14.8,"educ_score":786.7,"hacin":0.95,"hacin_class":"Sin Hacinamiento","hacin_score":861.7,"auto_score":166.7,"n_per":19,"n_hog":11,"source_year":2024,"crime_score":0.3954,"crime_nivel":"Muy Bajo","crime_color":"#4caf50"},"geometry":{"type":"Polygon","coordinates":[[[-72.6783485009999,-44.7234803620567],[-72.678514591,-44.7242790060567],[-72.6784699769999,-44.7246359250567],[-72.6780755529999,-44.7248594200567],[-72.6772183599999,-44.7247634870567],[-72.6771346169999,-44.7256438010567],[-72.6775174059999,-44.7256823840567],[-72.6771379269999,-44.7257294390567],[-72.6770991429999,-44.7259775610567],[-72.677670739,-44.7260964380567],[-72.6771032159999,-44.7260777150567],[-72.6770804779999,-44.7264765330567],[-72.6784447409999,-44.7266642430567],[-72.6792580089999,-44.7259401450567],[-72.6793190989999,-44.7255531330567],[-72.6791969479999,-44.7253486730567],[-72.6780384549999,-44.7251988820567],[-72.6787360619999,-44.7246789560567],[-72.67850612,-44.7238690990567],[-72.6785873059999,-44.7235274990567],[-72.6783485009999,-44.7234803620567]]]}},{"type":"Feature","properties":{"id":"11202011001007","commune":"Cisnes","code":"11202","gse":"C3","quintil":"Q3","nse_score":686.3,"educ":11.3,"educ_score":553.3,"hacin":1.303,"hacin_class":"Hacinamiento Leve","hacin_score":786.7,"auto_score":276.3,"n_per":99,"n_hog":36,"source_year":2024,"crime_score":0.4252,"crime_nivel":"Muy Bajo","crime_color":"#4caf50"},"geometry":{"type":"Polygon","coordinates":[[[-72.6785902009999,-44.7237577190567],[-72.6788183369999,-44.7245480330567],[-72.6801982539999,-44.7247347360567],[-72.6805333539999,-44.7237814810567],[-72.6794451179999,-44.7236214160567],[-72.6792729349999,-44.7241381370567],[-72.6793448739999,-44.7236137800567],[-72.6787167119999,-44.7235249050567],[-72.6785902009999,-44.7237577190567]]]}},{"type":"Feature","properties":{"id":"11202011001008","commune":"Cisnes","code":"11202","gse":"D","quintil":"Q2","nse_score":647.1,"educ":11.3,"educ_score":553.3,"hacin":1.162,"hacin_class":"Hacinamiento Leve","hacin_score":816.6,"auto_score":134.6,"n_per":43,"n_hog":19,"source_year":2024,"crime_score":0.4228,"crime_nivel":"Muy Bajo","crime_color":"#4caf50"},"geometry":{"type":"Polygon","coordinates":[[[-72.6803522209999,-44.7247283200567],[-72.6817725179999,-44.7249312350567],[-72.6820128599999,-44.7239607440567],[-72.6806324889999,-44.7237709270567],[-72.6803522209999,-44.7247283200567]]]}},{"type":"Feature","properties":{"id":"11202011001009","commune":"Cisnes","code":"11202","gse":"D","quintil":"Q2","nse_score":646.9,"educ":10.5,"educ_score":500.0,"hacin":1.132,"hacin_class":"Hacinamiento Leve","hacin_score":823.1,"auto_score":105.3,"n_per":43,"n_hog":16,"source_year":2024,"crime_score":0.4229,"crime_nivel":"Muy Bajo","crime_color":"#4caf50"},"geometry":{"type":"Polygon","coordinates":[[[-72.6818801569999,-44.7249599180567],[-72.6832558279999,-44.7251295810567],[-72.6835142829999,-44.7241414410567],[-72.6821106379999,-44.7239530130567],[-72.6818801569999,-44.7249599180567]]]}},{"type":"Feature","properties":{"id":"11202011001010","commune":"Cisnes","code":"11202","gse":"E","quintil":"Q1","nse_score":570.3,"educ":9.5,"educ_score":433.3,"hacin":1.158,"hacin_class":"Hacinamiento Leve","hacin_score":817.5,"auto_score":34.5,"n_per":44,"n_hog":17,"source_year":2024,"crime_score":0.4406,"crime_nivel":"Muy Bajo","crime_color":"#4caf50"},"geometry":{"type":"Polygon","coordinates":[[[-72.6833624379999,-44.7250791600567],[-72.6847764469999,-44.7252540570567],[-72.6855230059999,-44.7244146810567],[-72.6836224969999,-44.7241506600568],[-72.6833624379999,-44.7250791600567]]]}},{"type":"Feature","properties":{"id":"11202011001012","commune":"Cisnes","code":"11202","gse":"C2","quintil":"Q4","nse_score":738.0,"educ":14.2,"educ_score":746.7,"hacin":0.922,"hacin_class":"Sin Hacinamiento","hacin_score":867.8,"auto_score":157.9,"n_per":47,"n_hog":26,"source_year":2024,"crime_score":0.4029,"crime_nivel":"Muy Bajo","crime_color":"#4caf50"},"geometry":{"type":"Polygon","coordinates":[[[-72.6748196689999,-44.7262616680567],[-72.6769293089999,-44.7264253960567],[-72.6770498499999,-44.7254663120567],[-72.6751572679999,-44.7252380170567],[-72.6761533069999,-44.7252648090567],[-72.6761709479999,-44.7249292280567],[-72.6754074069999,-44.7247709330567],[-72.6770513899999,-44.7249387200567],[-72.6771597169999,-44.7247569240567],[-72.6751430569999,-44.7245312130567],[-72.6748196689999,-44.7262616680567]]]}},{"type":"Feature","properties":{"id":"11202011001013","commune":"Cisnes","code":"11202","gse":"D","quintil":"Q1","nse_score":643.4,"educ":9.9,"educ_score":460.0,"hacin":1.105,"hacin_class":"Hacinamiento Leve","hacin_score":828.7,"auto_score":108.1,"n_per":63,"n_hog":33,"source_year":2024,"crime_score":0.4278,"crime_nivel":"Muy Bajo","crime_color":"#4caf50"},"geometry":{"type":"Polygon","coordinates":[[[-72.6788045389999,-44.7246491920567],[-72.6780997659999,-44.7251851110567],[-72.6791570419999,-44.7252658980567],[-72.6793803439999,-44.7255417520567],[-72.6793855349999,-44.7257949880567],[-72.6790816479999,-44.7262749790567],[-72.6785666939999,-44.7266908060568],[-72.6797490909999,-44.7268262670567],[-72.6802393169999,-44.7248479000567],[-72.6788045389999,-44.7246491920567]]]}},{"type":"Feature","properties":{"id":"11202011001014","commune":"Cisnes","code":"11202","gse":"E","quintil":"Q1","nse_score":598.4,"educ":10.3,"educ_score":486.7,"hacin":1.059,"hacin_class":"Hacinamiento Leve","hacin_score":838.5,"auto_score":108.7,"n_per":36,"n_hog":15,"source_year":2024,"crime_score":0.4325,"crime_nivel":"Muy Bajo","crime_color":"#4caf50"},"geometry":{"type":"Polygon","coordinates":[[[-72.6801612879999,-44.7257916440567],[-72.6815335009999,-44.7259335960567],[-72.6817472339999,-44.7250322920567],[-72.6803558629999,-44.7248407950567],[-72.6801612879999,-44.7257916440567]]]}},{"type":"Feature","properties":{"id":"11202011001015","commune":"Cisnes","code":"11202","gse":"ABC1","quintil":"Q5","nse_score":794.4,"educ":13.7,"educ_score":713.3,"hacin":1.333,"hacin_class":"Hacinamiento Leve","hacin_score":780.1,"auto_score":375.0,"n_per":12,"n_hog":4,"source_year":2024,"crime_score":0.3833,"crime_nivel":"Muy Bajo","crime_color":"#4caf50"},"geometry":{"type":"Polygon","coordinates":[[[-72.6762480829999,-44.7253353560567],[-72.6770936619999,-44.7253693350567],[-72.6770999679999,-44.7249958140567],[-72.676266902,-44.7249662140567],[-72.6762480829999,-44.7253353560567]]]}},{"type":"Feature","properties":{"id":"11202011001016","commune":"Cisnes","code":"11202","gse":"D","quintil":"Q2","nse_score":657.5,"educ":11.1,"educ_score":540.0,"hacin":1.032,"hacin_class":"Hacinamiento Leve","hacin_score":844.2,"auto_score":0.0,"n_per":32,"n_hog":14,"source_year":2024,"crime_score":0.4182,"crime_nivel":"Muy Bajo","crime_color":"#4caf50"},"geometry":{"type":"Polygon","coordinates":[[[-72.681720261,-44.7260174900567],[-72.6829954739999,-44.7261612210567],[-72.6832230589999,-44.7252203750567],[-72.6818819449999,-44.7250361540567],[-72.6816211679999,-44.7259172610567],[-72.681720261,-44.7260174900567]]]}},{"type":"Feature","properties":{"id":"11202011001017","commune":"Cisnes","code":"11202","gse":"C3","quintil":"Q3","nse_score":682.3,"educ":11.7,"educ_score":580.0,"hacin":1.0,"hacin_class":"Hacinamiento Leve","hacin_score":851.1,"auto_score":50.0,"n_per":34,"n_hog":15,"source_year":2024,"crime_score":0.413,"crime_nivel":"Muy Bajo","crime_color":"#4caf50"},"geometry":{"type":"Polygon","coordinates":[[[-72.6831284549999,-44.7261719090567],[-72.6843062789999,-44.7262676250567],[-72.6846692639999,-44.7253629420567],[-72.6833385689999,-44.7252361090567],[-72.6831284549999,-44.7261719090567]]]}},{"type":"Feature","properties":{"id":"11202011001019","commune":"Cisnes","code":"11202","gse":"C1","quintil":"Q5","nse_score":779.7,"educ":13.3,"educ_score":686.7,"hacin":0.893,"hacin_class":"Sin Hacinamiento","hacin_score":873.9,"auto_score":35.7,"n_per":25,"n_hog":13,"source_year":2024,"crime_score":0.3891,"crime_nivel":"Muy Bajo","crime_color":"#4caf50"},"geometry":{"type":"Polygon","coordinates":[[[-72.6813568899999,-44.7269828200567],[-72.6827620669999,-44.7272437710568],[-72.6829823999999,-44.7262792440567],[-72.6816143059999,-44.7260872560567],[-72.6813568899999,-44.7269828200567]]]}},{"type":"Feature","properties":{"id":"11202011001020","commune":"Cisnes","code":"11202","gse":"C2","quintil":"Q4","nse_score":746.0,"educ":13.9,"educ_score":726.7,"hacin":1.0,"hacin_class":"Hacinamiento Leve","hacin_score":851.1,"auto_score":90.9,"n_per":23,"n_hog":9,"source_year":2024,"crime_score":0.3963,"crime_nivel":"Muy Bajo","crime_color":"#4caf50"},"geometry":{"type":"Polygon","coordinates":[[[-72.6840981149999,-44.7273446520567],[-72.6842137949999,-44.7264153220567],[-72.6830900119999,-44.7263091830567],[-72.6829018549999,-44.7272571910567],[-72.6839680439999,-44.7274354440567],[-72.6840981149999,-44.7273446520567]]]}},{"type":"Feature","properties":{"id":"11202011001021","commune":"Cisnes","code":"11202","gse":"D","quintil":"Q2","nse_score":645.1,"educ":9.9,"educ_score":460.0,"hacin":1.263,"hacin_class":"Hacinamiento Leve","hacin_score":795.1,"auto_score":145.2,"n_per":72,"n_hog":30,"source_year":2024,"crime_score":0.4293,"crime_nivel":"Muy Bajo","crime_color":"#4caf50"},"geometry":{"type":"Polygon","coordinates":[[[-72.6792771929999,-44.7293057960567],[-72.6797355969999,-44.7270074000567],[-72.6796480359999,-44.7268943420567],[-72.6787788909999,-44.7267872960567],[-72.6786326349999,-44.7271916920567],[-72.6786950859999,-44.7267772710567],[-72.6770924539999,-44.7265442910567],[-72.6768702119999,-44.7271598020567],[-72.6770068969999,-44.7276807600567],[-72.6777866779999,-44.7287068160567],[-72.6777584039999,-44.7290807050567],[-72.6792771929999,-44.7293057960567]]]}},{"type":"Feature","properties":{"id":"11202011001024","commune":"Cisnes","code":"11202","gse":"C3","quintil":"Q3","nse_score":685.3,"educ":12.2,"educ_score":613.3,"hacin":1.083,"hacin_class":"Hacinamiento Leve","hacin_score":833.3,"auto_score":100.0,"n_per":26,"n_hog":8,"source_year":2024,"crime_score":0.4107,"crime_nivel":"Muy Bajo","crime_color":"#4caf50"},"geometry":{"type":"Polygon","coordinates":[[[-72.6841579449999,-44.7284319070567],[-72.6840450899999,-44.7275211530567],[-72.6828384589999,-44.7273871390567],[-72.6826737609999,-44.7283213950567],[-72.6841579449999,-44.7284319070567]]]}},{"type":"Feature","properties":{"id":"11202011001025","commune":"Cisnes","code":"11202","gse":"C3","quintil":"Q2","nse_score":671.1,"educ":11.7,"educ_score":580.0,"hacin":1.298,"hacin_class":"Hacinamiento Leve","hacin_score":787.6,"auto_score":208.3,"n_per":174,"n_hog":61,"source_year":2024,"crime_score":0.4441,"crime_nivel":"Muy Bajo","crime_color":"#4caf50"},"geometry":{"type":"Polygon","coordinates":[[[-72.6761787539999,-44.7277820390567],[-72.6758677099999,-44.7288294710567],[-72.673720064,-44.7284755120567],[-72.6730306499999,-44.7305825660567],[-72.6734660839999,-44.7306394600568],[-72.6740465479999,-44.7288749630567],[-72.676050083,-44.7291873290567],[-72.6761128619999,-44.7294974280567],[-72.6775180569999,-44.7296540370567],[-72.6775598369999,-44.7292938290567],[-72.6765849649999,-44.7291495920567],[-72.6775768859999,-44.7292358830567],[-72.6776758319999,-44.7288752730567],[-72.6762107099999,-44.7285945800567],[-72.677671384,-44.7288005750567],[-72.677450399,-44.7282979040567],[-72.6761787539999,-44.7277820390567]]]}},{"type":"Feature","properties":{"id":"11202011001026","commune":"Cisnes","code":"11202","gse":"C3","quintil":"Q3","nse_score":699.7,"educ":13.3,"educ_score":686.7,"hacin":1.387,"hacin_class":"Hacinamiento Leve","hacin_score":768.7,"auto_score":27.8,"n_per":43,"n_hog":17,"source_year":2024,"crime_score":0.4108,"crime_nivel":"Muy Bajo","crime_color":"#4caf50"},"geometry":{"type":"Polygon","coordinates":[[[-72.6799584409999,-44.7294690010567],[-72.6797312849999,-44.7303759960567],[-72.6800304229999,-44.7305744670567],[-72.6802693169999,-44.7311357510567],[-72.6816641489999,-44.7311240630567],[-72.6819048659999,-44.7306289340567],[-72.6825003439999,-44.7284422720567],[-72.6809911679999,-44.7282117560567],[-72.6804616539999,-44.7286613320567],[-72.6803743939999,-44.7292309290567],[-72.6799584409999,-44.7294690010567]]]}},{"type":"Feature","properties":{"id":"11202011001027","commune":"Cisnes","code":"11202","gse":"C3","quintil":"Q2","nse_score":671.3,"educ":11.1,"educ_score":540.0,"hacin":1.471,"hacin_class":"Hacinamiento Leve","hacin_score":750.9,"auto_score":150.0,"n_per":25,"n_hog":9,"source_year":2024,"crime_score":0.4136,"crime_nivel":"Muy Bajo","crime_color":"#4caf50"},"geometry":{"type":"Polygon","coordinates":[[[-72.6825944689999,-44.7284584200567],[-72.6823893769999,-44.7293025320567],[-72.6832175319999,-44.7295537730567],[-72.6836499269999,-44.7293883950567],[-72.6841140849999,-44.7286576940567],[-72.6840311589999,-44.7285482010568],[-72.6825944689999,-44.7284584200567]]]}},{"type":"Feature","properties":{"id":"11202011001028","commune":"Cisnes","code":"11202","gse":"C2","quintil":"Q4","nse_score":718.5,"educ":11.3,"educ_score":553.3,"hacin":1.04,"hacin_class":"Hacinamiento Leve","hacin_score":842.6,"auto_score":388.9,"n_per":26,"n_hog":9,"source_year":2024,"crime_score":0.4032,"crime_nivel":"Muy Bajo","crime_color":"#4caf50"},"geometry":{"type":"Polygon","coordinates":[[[-72.6744680479999,-44.7295482390567],[-72.6746192519999,-44.7290393320568],[-72.6740947229999,-44.7289490860567],[-72.6739151289999,-44.7295224020567],[-72.6744680479999,-44.7295482390567]]]}},{"type":"Feature","properties":{"id":"11202011001029","commune":"Cisnes","code":"11202","gse":"C2","quintil":"Q4","nse_score":752.6,"educ":13.0,"educ_score":666.7,"hacin":1.091,"hacin_class":"Hacinamiento Leve","hacin_score":831.7,"auto_score":45.5,"n_per":24,"n_hog":9,"source_year":2024,"crime_score":0.3951,"crime_nivel":"Muy Bajo","crime_color":"#4caf50"},"geometry":{"type":"Polygon","coordinates":[[[-72.6745228959999,-44.7295774460567],[-72.6753063889999,-44.7297468710567],[-72.6754270669999,-44.7291751810567],[-72.6747371009999,-44.7290596690567],[-72.6745228959999,-44.7295774460567]]]}},{"type":"Feature","properties":{"id":"11202011001030","commune":"Cisnes","code":"11202","gse":"E","quintil":"Q1","nse_score":541.5,"educ":9.1,"educ_score":406.7,"hacin":1.292,"hacin_class":"Hacinamiento Leve","hacin_score":789.0,"auto_score":0.0,"n_per":31,"n_hog":12,"source_year":2024,"crime_score":0.4443,"crime_nivel":"Muy Bajo","crime_color":"#4caf50"},"geometry":{"type":"Polygon","coordinates":[[[-72.6788299789999,-44.7303184910567],[-72.6791713809999,-44.7293743650567],[-72.677738873,-44.7291774660567],[-72.6775252169999,-44.7301183700567],[-72.6788299789999,-44.7303184910567]]]}},{"type":"Feature","properties":{"id":"11202011001031","commune":"Cisnes","code":"11202","gse":"D","quintil":"Q2","nse_score":661.9,"educ":8.9,"educ_score":393.3,"hacin":1.533,"hacin_class":"Hacinamiento Medio","hacin_score":737.6,"auto_score":333.3,"n_per":23,"n_hog":7,"source_year":2024,"crime_score":0.4154,"crime_nivel":"Muy Bajo","crime_color":"#4caf50"},"geometry":{"type":"Polygon","coordinates":[[[-72.6754724169999,-44.7298009370567],[-72.6759231789999,-44.7298250420567],[-72.6759612409999,-44.7292349950567],[-72.6754981159999,-44.7292075280567],[-72.6754724169999,-44.7298009370567]]]}},{"type":"Feature","properties":{"id":"11202011001032","commune":"Cisnes","code":"11202","gse":"C3","quintil":"Q2","nse_score":674.6,"educ":10.1,"educ_score":473.3,"hacin":1.025,"hacin_class":"Hacinamiento Leve","hacin_score":845.7,"auto_score":131.6,"n_per":41,"n_hog":17,"source_year":2024,"crime_score":0.4162,"crime_nivel":"Muy Bajo","crime_color":"#4caf50"},"geometry":{"type":"Polygon","coordinates":[[[-72.6789836519999,-44.7303059390567],[-72.6796477009999,-44.7303943970567],[-72.6798810059999,-44.7296516610567],[-72.6798444419999,-44.7294853320567],[-72.6793341219999,-44.7293693790567],[-72.6789836519999,-44.7303059390567]]]}},{"type":"Feature","properties":{"id":"11202011001034","commune":"Cisnes","code":"11202","gse":"C1","quintil":"Q5","nse_score":762.4,"educ":13.0,"educ_score":666.7,"hacin":0.759,"hacin_class":"Sin Hacinamiento","hacin_score":902.4,"auto_score":291.7,"n_per":22,"n_hog":10,"source_year":2024,"crime_score":0.3924,"crime_nivel":"Muy Bajo","crime_color":"#4caf50"},"geometry":{"type":"Polygon","coordinates":[[[-72.6760298969999,-44.7299265090567],[-72.677334448,-44.7301431040567],[-72.6774783019999,-44.7298214400567],[-72.6760324439999,-44.7295291370567],[-72.6760298969999,-44.7299265090567]]]}},{"type":"Feature","properties":{"id":"11202011001035","commune":"Cisnes","code":"11202","gse":"C3","quintil":"Q2","nse_score":670.5,"educ":10.8,"educ_score":520.0,"hacin":1.6,"hacin_class":"Hacinamiento Medio","hacin_score":723.4,"auto_score":295.5,"n_per":72,"n_hog":22,"source_year":2024,"crime_score":0.4234,"crime_nivel":"Muy Bajo","crime_color":"#4caf50"},"geometry":{"type":"Polygon","coordinates":[[[-72.6735496569999,-44.7305852240567],[-72.6740911739999,-44.7306536260567],[-72.6743511939999,-44.7296743500567],[-72.6738499979999,-44.7296444840567],[-72.6735496569999,-44.7305852240567]]]}},{"type":"Feature","properties":{"id":"11202011001036","commune":"Cisnes","code":"11202","gse":"E","quintil":"Q1","nse_score":584.3,"educ":9.5,"educ_score":433.3,"hacin":1.333,"hacin_class":"Hacinamiento Leve","hacin_score":780.1,"auto_score":230.8,"n_per":32,"n_hog":9,"source_year":2024,"crime_score":0.4348,"crime_nivel":"Muy Bajo","crime_color":"#4caf50"},"geometry":{"type":"Polygon","coordinates":[[[-72.6744623619999,-44.7297509060567],[-72.6743768139999,-44.7301852240568],[-72.675222705,-44.7302379940567],[-72.6752627929999,-44.7298227900567],[-72.6744623619999,-44.7297509060567]]]}},{"type":"Feature","properties":{"id":"11202011001037","commune":"Cisnes","code":"11202","gse":"C3","quintil":"Q3","nse_score":694.9,"educ":11.9,"educ_score":593.3,"hacin":1.278,"hacin_class":"Hacinamiento Leve","hacin_score":792.0,"auto_score":450.0,"n_per":23,"n_hog":8,"source_year":2024,"crime_score":0.4079,"crime_nivel":"Muy Bajo","crime_color":"#4caf50"},"geometry":{"type":"Polygon","coordinates":[[[-72.6752726869999,-44.7303083440567],[-72.6757759299999,-44.7303519880567],[-72.6758588369999,-44.7299225590567],[-72.6753787379999,-44.7298904300567],[-72.6752726869999,-44.7303083440567]]]}},{"type":"Feature","properties":{"id":"11202011001038","commune":"Cisnes","code":"11202","gse":"D","quintil":"Q2","nse_score":649.7,"educ":10.4,"educ_score":493.3,"hacin":1.269,"hacin_class":"Hacinamiento Leve","hacin_score":793.8,"auto_score":357.1,"n_per":33,"n_hog":12,"source_year":2024,"crime_score":0.4202,"crime_nivel":"Muy Bajo","crime_color":"#4caf50"},"geometry":{"type":"Polygon","coordinates":[[[-72.677278166,-44.7305298510567],[-72.6773145809999,-44.7301968460567],[-72.6760313149999,-44.7299819820567],[-72.6758473459999,-44.7303311030567],[-72.677278166,-44.7305298510567]]]}},{"type":"Feature","properties":{"id":"11202011001039","commune":"Cisnes","code":"11202","gse":"D","quintil":"Q2","nse_score":660.0,"educ":11.8,"educ_score":586.7,"hacin":1.333,"hacin_class":"Hacinamiento Leve","hacin_score":780.1,"auto_score":130.4,"n_per":48,"n_hog":17,"source_year":2024,"crime_score":0.4209,"crime_nivel":"Muy Bajo","crime_color":"#4caf50"},"geometry":{"type":"Polygon","coordinates":[[[-72.6771752529999,-44.7311588160567],[-72.6786017229999,-44.7313866550567],[-72.6788762579999,-44.7304221900567],[-72.6774830339999,-44.7302187630567],[-72.6771752529999,-44.7311588160567]]]}},{"type":"Feature","properties":{"id":"11202011001040","commune":"Cisnes","code":"11202","gse":"C2","quintil":"Q4","nse_score":719.5,"educ":12.0,"educ_score":600.0,"hacin":1.333,"hacin_class":"Hacinamiento Leve","hacin_score":780.1,"auto_score":363.6,"n_per":32,"n_hog":11,"source_year":2024,"crime_score":0.4041,"crime_nivel":"Muy Bajo","crime_color":"#4caf50"},"geometry":{"type":"Polygon","coordinates":[[[-72.6750489229999,-44.7308183440567],[-72.675129018,-44.7303721790567],[-72.6742843709999,-44.7302643040567],[-72.6741960319999,-44.7307398440567],[-72.6750489229999,-44.7308183440567]]]}},{"type":"Feature","properties":{"id":"11202011001041","commune":"Cisnes","code":"11202","gse":"E","quintil":"Q1","nse_score":608.0,"educ":9.5,"educ_score":433.3,"hacin":1.1,"hacin_class":"Hacinamiento Leve","hacin_score":829.8,"auto_score":142.9,"n_per":11,"n_hog":5,"source_year":2024,"crime_score":0.425,"crime_nivel":"Muy Bajo","crime_color":"#4caf50"},"geometry":{"type":"Polygon","coordinates":[[[-72.6755983819999,-44.7309068220567],[-72.6757019499999,-44.7304851600567],[-72.6752528,-44.7303963230567],[-72.6751083059999,-44.7308817000567],[-72.6755983819999,-44.7309068220567]]]}},{"type":"Feature","properties":{"id":"11202011001042","commune":"Cisnes","code":"11202","gse":"C1","quintil":"Q5","nse_score":776.7,"educ":13.4,"educ_score":693.3,"hacin":1.093,"hacin_class":"Hacinamiento Leve","hacin_score":831.3,"auto_score":175.0,"n_per":47,"n_hog":19,"source_year":2024,"crime_score":0.394,"crime_nivel":"Muy Bajo","crime_color":"#4caf50"},"geometry":{"type":"Polygon","coordinates":[[[-72.6787112669999,-44.7314520250567],[-72.6800174769999,-44.7316310820567],[-72.6801967749999,-44.7311054870567],[-72.6799430819999,-44.7305873850567],[-72.6790446249999,-44.7304099970567],[-72.6789460439999,-44.7304483800567],[-72.6787112669999,-44.7314520250567]]]}},{"type":"Feature","properties":{"id":"11202011001043","commune":"Cisnes","code":"11202","gse":"C2","quintil":"Q4","nse_score":713.8,"educ":11.9,"educ_score":593.3,"hacin":1.238,"hacin_class":"Hacinamiento Leve","hacin_score":800.4,"auto_score":409.1,"n_per":26,"n_hog":10,"source_year":2024,"crime_score":0.4042,"crime_nivel":"Muy Bajo","crime_color":"#4caf50"},"geometry":{"type":"Polygon","coordinates":[[[-72.6771957279999,-44.7308175530567],[-72.6771407889999,-44.7306347440567],[-72.6758336189999,-44.7304480110568],[-72.6757610559999,-44.7306007650567],[-72.6771957279999,-44.7308175530567]]]}},{"type":"Feature","properties":{"id":"11202011001045","commune":"Cisnes","code":"11202","gse":"C3","quintil":"Q3","nse_score":688.2,"educ":12.1,"educ_score":606.7,"hacin":1.439,"hacin_class":"Hacinamiento Leve","hacin_score":757.7,"auto_score":227.3,"n_per":59,"n_hog":19,"source_year":2024,"crime_score":0.4167,"crime_nivel":"Muy Bajo","crime_color":"#4caf50"},"geometry":{"type":"Polygon","coordinates":[[[-72.6727072399999,-44.7319687650567],[-72.6728125969999,-44.7323453700567],[-72.6733471249999,-44.7322345940567],[-72.6732217579999,-44.7318608220567],[-72.6734636069999,-44.7306940630567],[-72.6729762499999,-44.7306693980567],[-72.6727072399999,-44.7319687650567]]]}},{"type":"Feature","properties":{"id":"11202011001047","commune":"Cisnes","code":"11202","gse":"D","quintil":"Q2","nse_score":655.1,"educ":10.5,"educ_score":500.0,"hacin":1.6,"hacin_class":"Hacinamiento Medio","hacin_score":723.4,"auto_score":166.7,"n_per":64,"n_hog":19,"source_year":2024,"crime_score":0.4253,"crime_nivel":"Muy Bajo","crime_color":"#4caf50"},"geometry":{"type":"Polygon","coordinates":[[[-72.6733827729999,-44.7321615440567],[-72.6737942039999,-44.7320887050567],[-72.6740069639999,-44.7307817780567],[-72.6735403099999,-44.7307008980567],[-72.6733107849999,-44.7316945190567],[-72.6733827729999,-44.7321615440567]]]}},{"type":"Feature","properties":{"id":"11202011001048","commune":"Cisnes","code":"11202","gse":"D","quintil":"Q1","nse_score":626.0,"educ":10.0,"educ_score":466.7,"hacin":1.311,"hacin_class":"Hacinamiento Leve","hacin_score":784.9,"auto_score":288.5,"n_per":59,"n_hog":25,"source_year":2024,"crime_score":0.431,"crime_nivel":"Muy Bajo","crime_color":"#4caf50"},"geometry":{"type":"Polygon","coordinates":[[[-72.6741272579999,-44.7308728440567],[-72.6738728749999,-44.7320400990568],[-72.6739629499999,-44.7321110470567],[-72.6752718369999,-44.7320147850567],[-72.6754382689999,-44.7315557330567],[-72.6748703759999,-44.7315121200567],[-72.6750482239999,-44.7309473100567],[-72.6742478749999,-44.7308186330567],[-72.6741272579999,-44.7308728440567]]]}},{"type":"Feature","properties":{"id":"11202011001049","commune":"Cisnes","code":"11202","gse":"C1","quintil":"Q5","nse_score":756.3,"educ":13.1,"educ_score":673.3,"hacin":1.13,"hacin_class":"Hacinamiento Leve","hacin_score":823.3,"auto_score":100.0,"n_per":26,"n_hog":9,"source_year":2024,"crime_score":0.3946,"crime_nivel":"Muy Bajo","crime_color":"#4caf50"},"geometry":{"type":"Polygon","coordinates":[[[-72.6816633119999,-44.7318707650567],[-72.68242842,-44.7319545560567],[-72.6824546489999,-44.7309321540567],[-72.6818381449999,-44.7310844520567],[-72.6816633119999,-44.7318707650567]]]}},{"type":"Feature","properties":{"id":"11202011001051","commune":"Cisnes","code":"11202","gse":"C3","quintil":"Q2","nse_score":670.7,"educ":11.3,"educ_score":553.3,"hacin":1.355,"hacin_class":"Hacinamiento Leve","hacin_score":775.6,"auto_score":111.1,"n_per":42,"n_hog":15,"source_year":2024,"crime_score":0.4172,"crime_nivel":"Muy Bajo","crime_color":"#4caf50"},"geometry":{"type":"Polygon","coordinates":[[[-72.6755241779999,-44.7314627320567],[-72.6768829469999,-44.7316907610567],[-72.6770423019999,-44.7313530180567],[-72.6756617449999,-44.7310487020567],[-72.6755241779999,-44.7314627320567]]]}},{"type":"Feature","properties":{"id":"11202011001052","commune":"Cisnes","code":"11202","gse":"C1","quintil":"Q5","nse_score":778.4,"educ":13.0,"educ_score":666.7,"hacin":0.9,"hacin_class":"Sin Hacinamiento","hacin_score":872.3,"auto_score":125.0,"n_per":9,"n_hog":4,"source_year":2024,"crime_score":0.3863,"crime_nivel":"Muy Bajo","crime_color":"#4caf50"},"geometry":{"type":"Polygon","coordinates":[[[-72.6817187259999,-44.7312221510567],[-72.6802555039999,-44.7312283510567],[-72.6802035519999,-44.7316624830567],[-72.681509849,-44.7318466930568],[-72.6817187259999,-44.7312221510567]]]}},{"type":"Feature","properties":{"id":"11202011001055","commune":"Cisnes","code":"11202","gse":"D","quintil":"Q1","nse_score":622.3,"educ":11.0,"educ_score":533.3,"hacin":1.167,"hacin_class":"Hacinamiento Leve","hacin_score":815.6,"auto_score":178.6,"n_per":28,"n_hog":11,"source_year":2024,"crime_score":0.4253,"crime_nivel":"Muy Bajo","crime_color":"#4caf50"},"geometry":{"type":"Polygon","coordinates":[[[-72.6754031509999,-44.7319639370567],[-72.6767076889999,-44.7322288490568],[-72.6769073259999,-44.7317978060567],[-72.6755418899999,-44.7315485850567],[-72.6754031509999,-44.7319639370567]]]}},{"type":"Feature","properties":{"id":"11202011001056","commune":"Cisnes","code":"11202","gse":"D","quintil":"Q2","nse_score":662.1,"educ":10.9,"educ_score":526.7,"hacin":1.21,"hacin_class":"Hacinamiento Leve","hacin_score":806.3,"auto_score":166.7,"n_per":46,"n_hog":17,"source_year":2024,"crime_score":0.42,"crime_nivel":"Muy Bajo","crime_color":"#4caf50"},"geometry":{"type":"Polygon","coordinates":[[[-72.6799350629999,-44.7327147660567],[-72.6811711299999,-44.7328781880567],[-72.6815114349999,-44.7319581830567],[-72.6801361459999,-44.7317508830567],[-72.6799350629999,-44.7327147660567]]]}},{"type":"Feature","properties":{"id":"11202011001057","commune":"Cisnes","code":"11202","gse":"C3","quintil":"Q2","nse_score":676.1,"educ":9.3,"educ_score":420.0,"hacin":0.957,"hacin_class":"Sin Hacinamiento","hacin_score":860.3,"auto_score":62.5,"n_per":22,"n_hog":8,"source_year":2024,"crime_score":0.4119,"crime_nivel":"Muy Bajo","crime_color":"#4caf50"},"geometry":{"type":"Polygon","coordinates":[[[-72.6813317599999,-44.7328523800567],[-72.6823256419999,-44.7330186760567],[-72.6823986359999,-44.7321358310567],[-72.6816333849999,-44.7319421340567],[-72.6813317599999,-44.7328523800567]]]}},{"type":"Feature","properties":{"id":"11202011001058","commune":"Cisnes","code":"11202","gse":"C2","quintil":"Q3","nse_score":703.7,"educ":11.3,"educ_score":553.3,"hacin":1.235,"hacin_class":"Hacinamiento Leve","hacin_score":801.0,"auto_score":236.8,"n_per":42,"n_hog":18,"source_year":2024,"crime_score":0.4097,"crime_nivel":"Muy Bajo","crime_color":"#4caf50"},"geometry":{"type":"Polygon","coordinates":[[[-72.6754842469999,-44.7321162330567],[-72.6751327579999,-44.7330727380567],[-72.6764764639999,-44.7332770360567],[-72.6767582639999,-44.7323081950567],[-72.6754842469999,-44.7321162330567]]]}},{"type":"Feature","properties":{"id":"11202011001059","commune":"Cisnes","code":"11202","gse":"D","quintil":"Q2","nse_score":654.0,"educ":11.8,"educ_score":586.7,"hacin":1.143,"hacin_class":"Hacinamiento Leve","hacin_score":820.7,"auto_score":230.8,"n_per":48,"n_hog":19,"source_year":2024,"crime_score":0.4223,"crime_nivel":"Muy Bajo","crime_color":"#4caf50"},"geometry":{"type":"Polygon","coordinates":[[[-72.6765471729999,-44.7332730320567],[-72.677976768,-44.7335104980567],[-72.6782707979999,-44.7325545580567],[-72.6768551659999,-44.7323185310567],[-72.6765471729999,-44.7332730320567]]]}},{"type":"Feature","properties":{"id":"11202011001060","commune":"Cisnes","code":"11202","gse":"D","quintil":"Q1","nse_score":627.4,"educ":11.7,"educ_score":580.0,"hacin":1.394,"hacin_class":"Hacinamiento Leve","hacin_score":767.2,"auto_score":0.0,"n_per":46,"n_hog":17,"source_year":2024,"crime_score":0.428,"crime_nivel":"Muy Bajo","crime_color":"#4caf50"},"geometry":{"type":"Polygon","coordinates":[[[-72.6781150219999,-44.7335423620567],[-72.6794043189999,-44.7337265200567],[-72.6797550299999,-44.7327729060567],[-72.678380419,-44.7325526420567],[-72.6781150219999,-44.7335423620567]]]}},{"type":"Feature","properties":{"id":"11202011001061","commune":"Cisnes","code":"11202","gse":"C3","quintil":"Q2","nse_score":674.0,"educ":10.9,"educ_score":526.7,"hacin":1.31,"hacin_class":"Hacinamiento Leve","hacin_score":785.0,"auto_score":277.8,"n_per":38,"n_hog":16,"source_year":2024,"crime_score":0.4157,"crime_nivel":"Muy Bajo","crime_color":"#4caf50"},"geometry":{"type":"Polygon","coordinates":[[[-72.6795912239999,-44.7337631100567],[-72.6809067069999,-44.7339491260567],[-72.6811910429999,-44.7330221190567],[-72.6798254259999,-44.7327965610567],[-72.6795912239999,-44.7337631100567]]]}},{"type":"Feature","properties":{"id":"11202011001062","commune":"Cisnes","code":"11202","gse":"C2","quintil":"Q4","nse_score":742.0,"educ":11.6,"educ_score":573.3,"hacin":1.3,"hacin_class":"Hacinamiento Leve","hacin_score":787.2,"auto_score":147.1,"n_per":39,"n_hog":17,"source_year":2024,"crime_score":0.4004,"crime_nivel":"Muy Bajo","crime_color":"#4caf50"},"geometry":{"type":"Polygon","coordinates":[[[-72.6810985209999,-44.7339825820567],[-72.6823016639999,-44.7341577510567],[-72.6823245959999,-44.7331908700567],[-72.6812769209999,-44.7330151100567],[-72.6810985209999,-44.7339825820567]]]}},{"type":"Feature","properties":{"id":"11202011001063","commune":"Cisnes","code":"11202","gse":"C3","quintil":"Q2","nse_score":665.7,"educ":10.3,"educ_score":486.7,"hacin":1.46,"hacin_class":"Hacinamiento Leve","hacin_score":753.3,"auto_score":375.0,"n_per":54,"n_hog":18,"source_year":2024,"crime_score":0.4208,"crime_nivel":"Muy Bajo","crime_color":"#4caf50"},"geometry":{"type":"Polygon","coordinates":[[[-72.6757100599999,-44.7332963290567],[-72.6751122219999,-44.7331619310567],[-72.6747939369999,-44.7342083460567],[-72.6754100439999,-44.7343181560567],[-72.6757100599999,-44.7332963290567]]]}},{"type":"Feature","properties":{"id":"11202011001064","commune":"Cisnes","code":"11202","gse":"C3","quintil":"Q3","nse_score":684.4,"educ":10.2,"educ_score":480.0,"hacin":1.432,"hacin_class":"Hacinamiento Leve","hacin_score":759.1,"auto_score":147.1,"n_per":53,"n_hog":17,"source_year":2024,"crime_score":0.4163,"crime_nivel":"Muy Bajo","crime_color":"#4caf50"},"geometry":{"type":"Polygon","coordinates":[[[-72.6764427879999,-44.7334046280567],[-72.675787124,-44.7332916380567],[-72.6754717699999,-44.7343275680567],[-72.6761359899999,-44.7344144200567],[-72.6764427879999,-44.7334046280567]]]}},{"type":"Feature","properties":{"id":"11202011001065","commune":"Cisnes","code":"11202","gse":"D","quintil":"Q1","nse_score":622.4,"educ":9.5,"educ_score":433.3,"hacin":1.185,"hacin_class":"Hacinamiento Leve","hacin_score":811.7,"auto_score":27.8,"n_per":64,"n_hog":30,"source_year":2024,"crime_score":0.4329,"crime_nivel":"Muy Bajo","crime_color":"#4caf50"},"geometry":{"type":"Polygon","coordinates":[[[-72.6765034259999,-44.7334176300567],[-72.6761716319999,-44.7344525850567],[-72.6747459249999,-44.7342375570567],[-72.6746802299999,-44.7344416460567],[-72.6766397609999,-44.7347376830567],[-72.6767213599999,-44.7344775780567],[-72.6806464669999,-44.7350100110567],[-72.6809129509999,-44.7340787060567],[-72.6795271459999,-44.7338380890567],[-72.6792536559999,-44.7346987820567],[-72.6793851319999,-44.7337882060567],[-72.6780807789999,-44.7335832110567],[-72.6780153159999,-44.7338246860567],[-72.678026412,-44.7335750730567],[-72.6765034259999,-44.7334176300567]]]}},{"type":"Feature","properties":{"id":"11202011001066","commune":"Cisnes","code":"11202","gse":"C2","quintil":"Q4","nse_score":729.3,"educ":13.0,"educ_score":666.7,"hacin":1.45,"hacin_class":"Hacinamiento Leve","hacin_score":755.3,"auto_score":40.0,"n_per":58,"n_hog":22,"source_year":2024,"crime_score":0.407,"crime_nivel":"Muy Bajo","crime_color":"#4caf50"},"geometry":{"type":"Polygon","coordinates":[[[-72.6807735199999,-44.7350358220567],[-72.682445303,-44.7352196140567],[-72.6823564999999,-44.7342403550567],[-72.6809908969999,-44.7340765190567],[-72.6807735199999,-44.7350358220567]]]}},{"type":"Feature","properties":{"id":"11202011001067","commune":"Cisnes","code":"11202","gse":"C3","quintil":"Q3","nse_score":688.3,"educ":12.2,"educ_score":613.3,"hacin":1.276,"hacin_class":"Hacinamiento Leve","hacin_score":792.4,"auto_score":52.6,"n_per":37,"n_hog":15,"source_year":2024,"crime_score":0.4122,"crime_nivel":"Muy Bajo","crime_color":"#4caf50"},"geometry":{"type":"Polygon","coordinates":[[[-72.6807393169999,-44.7351177130567],[-72.680382876,-44.7362740530567],[-72.6823660379999,-44.7365288980567],[-72.6827008289999,-44.7364546670567],[-72.6825296849999,-44.7359239860567],[-72.6824010239999,-44.7358587660567],[-72.6816841779999,-44.7357742060567],[-72.6814976899999,-44.7360935760567],[-72.6816965009999,-44.7352689140567],[-72.6816209259999,-44.7352071060567],[-72.6807393169999,-44.7351177130567]]]}},{"type":"Feature","properties":{"id":"11202011001068","commune":"Cisnes","code":"11202","gse":"C1","quintil":"Q5","nse_score":757.4,"educ":15.2,"educ_score":813.3,"hacin":1.364,"hacin_class":"Hacinamiento Leve","hacin_score":773.7,"auto_score":62.5,"n_per":15,"n_hog":6,"source_year":2024,"crime_score":0.3922,"crime_nivel":"Muy Bajo","crime_color":"#4caf50"},"geometry":{"type":"Polygon","coordinates":[[[-72.6817146589999,-44.7357321960567],[-72.6824594139999,-44.7358200480567],[-72.6824508979999,-44.7353748130567],[-72.6818276899999,-44.7352426740567],[-72.6817146589999,-44.7357321960567]]]}},{"type":"Feature","properties":{"id":"11202011001046","commune":"Cisnes","code":"11202","gse":"D","quintil":"Q1","nse_score":635.3,"educ":10.6,"educ_score":506.7,"hacin":0.833,"hacin_class":"Sin Hacinamiento","hacin_score":886.5,"auto_score":166.7,"n_per":10,"n_hog":7,"source_year":2024,"crime_score":0.4187,"crime_nivel":"Muy Bajo","crime_color":"#4caf50"},"geometry":{"type":"MultiPolygon","coordinates":[[[[-72.6768723399999,-44.7322159860567],[-72.6783173679999,-44.7323902040567],[-72.678560408,-44.7315324680567],[-72.6771192379999,-44.7313543110567],[-72.6768723399999,-44.7322159860567]]],[[[-72.6756373289999,-44.7309874180567],[-72.6770800649999,-44.7312212230567],[-72.6771679629999,-44.7309144520567],[-72.6757326549999,-44.7306895220567],[-72.6756373289999,-44.7309874180567]]]]}},{"type":"Feature","properties":{"id":"11202021001001","commune":"Cisnes","code":"11202","gse":"C2","quintil":"Q4","nse_score":717.3,"educ":14.7,"educ_score":780.0,"hacin":1.0,"hacin_class":"Hacinamiento Leve","hacin_score":851.1,"auto_score":0.0,"n_per":8,"n_hog":5,"source_year":2024,"crime_score":0.3998,"crime_nivel":"Muy Bajo","crime_color":"#4caf50"},"geometry":{"type":"Polygon","coordinates":[[[-72.3971327879999,-43.9667810480572],[-72.3994247819999,-43.9721716270573],[-72.4011227739999,-43.9717705640572],[-72.4007987179999,-43.9717110690572],[-72.4010612849999,-43.9716415890572],[-72.4007953149999,-43.9710163830573],[-72.4000940669999,-43.9711467150572],[-72.400773635,-43.9709646650572],[-72.4004785979999,-43.9702869500573],[-72.4000538679999,-43.9702201500572],[-72.4004562279999,-43.9702342140573],[-72.3999478099999,-43.9690925810572],[-72.3996265859999,-43.9686919800573],[-72.3994537379999,-43.9680010890572],[-72.3989479369999,-43.9668974460573],[-72.3971327879999,-43.9667810480572]]]}},{"type":"Feature","properties":{"id":"11202021001007","commune":"Cisnes","code":"11202","gse":"D","quintil":"Q1","nse_score":632.0,"educ":8.5,"educ_score":366.7,"hacin":1.0,"hacin_class":"Hacinamiento Leve","hacin_score":851.1,"auto_score":50.0,"n_per":19,"n_hog":10,"source_year":2024,"crime_score":0.4213,"crime_nivel":"Muy Bajo","crime_color":"#4caf50"},"geometry":{"type":"Polygon","coordinates":[[[-72.4007591519999,-43.9700033970572],[-72.4014678459999,-43.9694101870572],[-72.4001943149999,-43.9687186060572],[-72.4006208989999,-43.9696638150572],[-72.4007591519999,-43.9700033970572]]]}},{"type":"Feature","properties":{"id":"11202021001008","commune":"Cisnes","code":"11202","gse":"E","quintil":"Q1","nse_score":524.5,"educ":7.3,"educ_score":286.7,"hacin":1.4,"hacin_class":"Hacinamiento Leve","hacin_score":766.0,"auto_score":50.0,"n_per":14,"n_hog":9,"source_year":2024,"crime_score":0.4444,"crime_nivel":"Muy Bajo","crime_color":"#4caf50"},"geometry":{"type":"Polygon","coordinates":[[[-72.4016097849999,-43.9693766020573],[-72.4028810489999,-43.9700916140573],[-72.4034530679999,-43.9695891490572],[-72.4021286979999,-43.9688815430573],[-72.4016097849999,-43.9693766020573]]]}},{"type":"Feature","properties":{"id":"11202021001009","commune":"Cisnes","code":"11202","gse":"E","quintil":"Q1","nse_score":578.5,"educ":9.6,"educ_score":440.0,"hacin":1.4,"hacin_class":"Hacinamiento Leve","hacin_score":766.0,"auto_score":136.4,"n_per":35,"n_hog":16,"source_year":2024,"crime_score":0.4368,"crime_nivel":"Muy Bajo","crime_color":"#4caf50"},"geometry":{"type":"Polygon","coordinates":[[[-72.4021104969999,-43.9707604230573],[-72.4028078699999,-43.9701645040573],[-72.4015658009999,-43.9694659200573],[-72.4009230459999,-43.9701069670572],[-72.4021104969999,-43.9707604230573]]]}},{"type":"Feature","properties":{"id":"11202021001010","commune":"Cisnes","code":"11202","gse":"C3","quintil":"Q2","nse_score":662.9,"educ":10.6,"educ_score":506.7,"hacin":0.923,"hacin_class":"Sin Hacinamiento","hacin_score":867.4,"auto_score":363.6,"n_per":24,"n_hog":11,"source_year":2024,"crime_score":0.4153,"crime_nivel":"Muy Bajo","crime_color":"#4caf50"},"geometry":{"type":"Polygon","coordinates":[[[-72.4029797099999,-43.9701466650573],[-72.4040543709999,-43.9708286170572],[-72.4048476829999,-43.9704251360573],[-72.4035506089999,-43.9696451590572],[-72.4029797099999,-43.9701466650573]]]}},{"type":"Feature","properties":{"id":"11202021001015","commune":"Cisnes","code":"11202","gse":"C2","quintil":"Q3","nse_score":705.0,"educ":10.9,"educ_score":526.7,"hacin":1.303,"hacin_class":"Hacinamiento Leve","hacin_score":786.6,"auto_score":291.7,"n_per":43,"n_hog":12,"source_year":2024,"crime_score":0.4096,"crime_nivel":"Muy Bajo","crime_color":"#4caf50"},"geometry":{"type":"Polygon","coordinates":[[[-72.4040980439999,-43.9708725220572],[-72.4045437319999,-43.9715857860572],[-72.4055919079999,-43.9713908020572],[-72.4053865019999,-43.9707914610572],[-72.4049046779999,-43.9704812250573],[-72.4040980439999,-43.9708725220572]]]}},{"type":"Feature","properties":{"id":"11202021001016","commune":"Cisnes","code":"11202","gse":"C1","quintil":"Q5","nse_score":781.4,"educ":12.4,"educ_score":626.7,"hacin":0.938,"hacin_class":"Sin Hacinamiento","hacin_score":864.4,"auto_score":71.4,"n_per":15,"n_hog":7,"source_year":2024,"crime_score":0.3868,"crime_nivel":"Muy Bajo","crime_color":"#4caf50"},"geometry":{"type":"Polygon","coordinates":[[[-72.4069417299999,-43.9713986330572],[-72.4054756979999,-43.9707417630572],[-72.4061468109999,-43.9725529720573],[-72.4072339399999,-43.9723493810573],[-72.4069417299999,-43.9713986330572]]]}},{"type":"Feature","properties":{"id":"11202021001017","commune":"Cisnes","code":"11202","gse":"C3","quintil":"Q2","nse_score":678.6,"educ":12.0,"educ_score":600.0,"hacin":1.318,"hacin_class":"Hacinamiento Leve","hacin_score":783.4,"auto_score":17.9,"n_per":58,"n_hog":24,"source_year":2024,"crime_score":0.4187,"crime_nivel":"Muy Bajo","crime_color":"#4caf50"},"geometry":{"type":"Polygon","coordinates":[[[-72.4014593489999,-43.9715892630573],[-72.4016795819999,-43.9720816270573],[-72.4032735089999,-43.9718324050572],[-72.4028607939999,-43.9713230190573],[-72.4021722029999,-43.9709152570572],[-72.4014593489999,-43.9715892630573]]]}},{"type":"Feature","properties":{"id":"11202021001024","commune":"Cisnes","code":"11202","gse":"D","quintil":"Q1","nse_score":639.9,"educ":11.8,"educ_score":586.7,"hacin":1.5,"hacin_class":"Hacinamiento Medio","hacin_score":744.7,"auto_score":227.3,"n_per":18,"n_hog":9,"source_year":2024,"crime_score":0.4193,"crime_nivel":"Muy Bajo","crime_color":"#4caf50"},"geometry":{"type":"Polygon","coordinates":[[[-72.4061796439999,-43.9726398340573],[-72.4063485949999,-43.9730818890573],[-72.4074237219999,-43.9728711470572],[-72.4072655979999,-43.9724364160572],[-72.4061796439999,-43.9726398340573]]]}},{"type":"Feature","properties":{"id":"11202021001025","commune":"Cisnes","code":"11202","gse":"E","quintil":"Q1","nse_score":598.0,"educ":8.4,"educ_score":360.0,"hacin":0.846,"hacin_class":"Sin Hacinamiento","hacin_score":883.8,"auto_score":0.0,"n_per":11,"n_hog":8,"source_year":2024,"crime_score":0.4272,"crime_nivel":"Muy Bajo","crime_color":"#4caf50"},"geometry":{"type":"Polygon","coordinates":[[[-72.405022185,-43.9728644170572],[-72.4054179959999,-43.9739537530572],[-72.4064733619999,-43.9737638400573],[-72.4060587459999,-43.9726619010572],[-72.405022185,-43.9728644170572]]]}},{"type":"Feature","properties":{"id":"11202021001026","commune":"Cisnes","code":"11202","gse":"C3","quintil":"Q3","nse_score":702.2,"educ":11.3,"educ_score":553.3,"hacin":0.947,"hacin_class":"Sin Hacinamiento","hacin_score":862.3,"auto_score":111.1,"n_per":18,"n_hog":9,"source_year":2024,"crime_score":0.4052,"crime_nivel":"Muy Bajo","crime_color":"#4caf50"},"geometry":{"type":"Polygon","coordinates":[[[-72.4037637399999,-43.9730859550572],[-72.4041921039999,-43.9741738230572],[-72.4052970809999,-43.9739754840572],[-72.4049013309999,-43.9728866220572],[-72.4037637399999,-43.9730859550572]]]}},{"type":"Feature","properties":{"id":"11202021001028","commune":"Cisnes","code":"11202","gse":"C2","quintil":"Q4","nse_score":724.7,"educ":12.2,"educ_score":613.3,"hacin":0.871,"hacin_class":"Sin Hacinamiento","hacin_score":878.5,"auto_score":184.2,"n_per":27,"n_hog":16,"source_year":2024,"crime_score":0.402,"crime_nivel":"Muy Bajo","crime_color":"#4caf50"},"geometry":{"type":"Polygon","coordinates":[[[-72.4022282359999,-43.9733851940572],[-72.4027084059999,-43.9744376780573],[-72.4040710879999,-43.9741954510573],[-72.4036438869999,-43.9731105770572],[-72.4022282359999,-43.9733851940572]]]}},{"type":"Feature","properties":{"id":"11202021001030","commune":"Cisnes","code":"11202","gse":"D","quintil":"Q2","nse_score":656.4,"educ":10.2,"educ_score":480.0,"hacin":1.25,"hacin_class":"Hacinamiento Leve","hacin_score":797.9,"auto_score":125.0,"n_per":10,"n_hog":8,"source_year":2024,"crime_score":0.4139,"crime_nivel":"Muy Bajo","crime_color":"#4caf50"},"geometry":{"type":"Polygon","coordinates":[[[-72.4066273789999,-43.9738297900572],[-72.4070005589999,-43.9748896220572],[-72.4080747649999,-43.9746873920573],[-72.4077024219999,-43.9736521610573],[-72.4066273789999,-43.9738297900572]]]}},{"type":"Feature","properties":{"id":"11202021001031","commune":"Cisnes","code":"11202","gse":"C2","quintil":"Q4","nse_score":745.7,"educ":12.9,"educ_score":660.0,"hacin":0.9,"hacin_class":"Sin Hacinamiento","hacin_score":872.3,"auto_score":0.0,"n_per":9,"n_hog":4,"source_year":2024,"crime_score":0.3937,"crime_nivel":"Muy Bajo","crime_color":"#4caf50"},"geometry":{"type":"Polygon","coordinates":[[[-72.4054642959999,-43.9740879780572],[-72.4058291559999,-43.9751105790572],[-72.4068799899999,-43.9749123430572],[-72.4065061009999,-43.9738506880572],[-72.4054642959999,-43.9740879780572]]]}},{"type":"Feature","properties":{"id":"11202021001032","commune":"Cisnes","code":"11202","gse":"C2","quintil":"Q4","nse_score":722.8,"educ":10.3,"educ_score":486.7,"hacin":0.8,"hacin_class":"Sin Hacinamiento","hacin_score":893.6,"auto_score":200.0,"n_per":16,"n_hog":10,"source_year":2024,"crime_score":0.4002,"crime_nivel":"Muy Bajo","crime_color":"#4caf50"},"geometry":{"type":"Polygon","coordinates":[[[-72.4042331239999,-43.9742849700572],[-72.4046095969999,-43.9753609090573],[-72.4057089379999,-43.9751342900572],[-72.4053272899999,-43.9740627870572],[-72.4042331239999,-43.9742849700572]]]}},{"type":"Feature","properties":{"id":"11202021001033","commune":"Cisnes","code":"11202","gse":"ABC1","quintil":"Q5","nse_score":813.3,"educ":14.3,"educ_score":753.3,"hacin":1.231,"hacin_class":"Hacinamiento Leve","hacin_score":802.0,"auto_score":142.9,"n_per":16,"n_hog":7,"source_year":2024,"crime_score":0.3798,"crime_nivel":"Muy Bajo","crime_color":"#4caf50"},"geometry":{"type":"Polygon","coordinates":[[[-72.4027475229999,-43.9745234030572],[-72.4032341189999,-43.9755896560573],[-72.4044889649999,-43.9753834750572],[-72.4041035089999,-43.9742823590572],[-72.4027475229999,-43.9745234030572]]]}},{"type":"Feature","properties":{"id":"11202021001035","commune":"Cisnes","code":"11202","gse":"E","quintil":"Q1","nse_score":603.8,"educ":9.4,"educ_score":426.7,"hacin":1.062,"hacin_class":"Hacinamiento Leve","hacin_score":837.8,"auto_score":90.9,"n_per":17,"n_hog":8,"source_year":2024,"crime_score":0.4272,"crime_nivel":"Muy Bajo","crime_color":"#4caf50"},"geometry":{"type":"Polygon","coordinates":[[[-72.4070313669999,-43.9749768170572],[-72.407340443,-43.9758607530573],[-72.4084071099999,-43.9756624750572],[-72.4081045499999,-43.9747747800573],[-72.4070313669999,-43.9749768170572]]]}},{"type":"Feature","properties":{"id":"11202021001036","commune":"Cisnes","code":"11202","gse":"C3","quintil":"Q3","nse_score":701.0,"educ":12.6,"educ_score":640.0,"hacin":1.385,"hacin_class":"Hacinamiento Leve","hacin_score":769.2,"auto_score":0.0,"n_per":18,"n_hog":7,"source_year":2024,"crime_score":0.4055,"crime_nivel":"Muy Bajo","crime_color":"#4caf50"},"geometry":{"type":"Polygon","coordinates":[[[-72.4058601709999,-43.9751977350573],[-72.406173254,-43.9760859320572],[-72.4072199109999,-43.9758836060572],[-72.4069107989999,-43.9749995390573],[-72.4058601709999,-43.9751977350573]]]}},{"type":"Feature","properties":{"id":"11202021001037","commune":"Cisnes","code":"11202","gse":"C3","quintil":"Q3","nse_score":679.8,"educ":8.8,"educ_score":386.7,"hacin":0.75,"hacin_class":"Sin Hacinamiento","hacin_score":904.3,"auto_score":38.5,"n_per":21,"n_hog":13,"source_year":2024,"crime_score":0.4109,"crime_nivel":"Muy Bajo","crime_color":"#4caf50"},"geometry":{"type":"Polygon","coordinates":[[[-72.4046411109999,-43.9754479950573],[-72.4049530659999,-43.9763151720573],[-72.4060527589999,-43.9761088830572],[-72.4057399619999,-43.9752214770572],[-72.4046411109999,-43.9754479950573]]]}},{"type":"Feature","properties":{"id":"11202021001039","commune":"Cisnes","code":"11202","gse":"E","quintil":"Q1","nse_score":608.3,"educ":8.9,"educ_score":393.3,"hacin":1.242,"hacin_class":"Hacinamiento Leve","hacin_score":799.5,"auto_score":0.0,"n_per":41,"n_hog":18,"source_year":2024,"crime_score":0.4313,"crime_nivel":"Muy Bajo","crime_color":"#4caf50"},"geometry":{"type":"Polygon","coordinates":[[[-72.40390887,-43.9755733250572],[-72.4042193299999,-43.9764435690572],[-72.4048321769999,-43.9763370130572],[-72.4045204789999,-43.9754705710573],[-72.40390887,-43.9755733250572]]]}},{"type":"Feature","properties":{"id":"11202021001040","commune":"Cisnes","code":"11202","gse":"E","quintil":"Q1","nse_score":606.0,"educ":9.7,"educ_score":446.7,"hacin":1.517,"hacin_class":"Hacinamiento Medio","hacin_score":741.0,"auto_score":200.0,"n_per":44,"n_hog":16,"source_year":2024,"crime_score":0.4324,"crime_nivel":"Muy Bajo","crime_color":"#4caf50"},"geometry":{"type":"Polygon","coordinates":[[[-72.4085583099999,-43.9757287610572],[-72.4090158859999,-43.9770472690572],[-72.4100089429999,-43.9768681410573],[-72.4098720049999,-43.9764535390572],[-72.4090837399999,-43.9765583230572],[-72.4098549139999,-43.9764009200573],[-72.4095840019999,-43.9755504340573],[-72.4085583099999,-43.9757287610572]]]}},{"type":"Feature","properties":{"id":"11202021001041","commune":"Cisnes","code":"11202","gse":"D","quintil":"Q2","nse_score":654.1,"educ":10.7,"educ_score":513.3,"hacin":1.433,"hacin_class":"Hacinamiento Leve","hacin_score":758.9,"auto_score":52.6,"n_per":43,"n_hog":18,"source_year":2024,"crime_score":0.4212,"crime_nivel":"Muy Bajo","crime_color":"#4caf50"},"geometry":{"type":"Polygon","coordinates":[[[-72.4032718039999,-43.9756757920572],[-72.4036459849999,-43.9765629140572],[-72.404147066,-43.9764574320573],[-72.4038359389999,-43.9755853130573],[-72.4032718039999,-43.9756757920572]]]}},{"type":"Feature","properties":{"id":"11202021001042","commune":"Cisnes","code":"11202","gse":"E","quintil":"Q1","nse_score":602.6,"educ":8.8,"educ_score":386.7,"hacin":1.429,"hacin_class":"Hacinamiento Leve","hacin_score":759.9,"auto_score":150.0,"n_per":20,"n_hog":9,"source_year":2024,"crime_score":0.4281,"crime_nivel":"Muy Bajo","crime_color":"#4caf50"},"geometry":{"type":"Polygon","coordinates":[[[-72.407832917,-43.9772014030572],[-72.4088949329999,-43.9770689220572],[-72.4084371499999,-43.9757498120572],[-72.4073721929999,-43.9759477700572],[-72.407832917,-43.9772014030572]]]}},{"type":"Feature","properties":{"id":"11202021001043","commune":"Cisnes","code":"11202","gse":"C2","quintil":"Q4","nse_score":711.4,"educ":12.1,"educ_score":606.7,"hacin":1.207,"hacin_class":"Hacinamiento Leve","hacin_score":807.0,"auto_score":0.0,"n_per":35,"n_hog":15,"source_year":2024,"crime_score":0.4066,"crime_nivel":"Muy Bajo","crime_color":"#4caf50"},"geometry":{"type":"Polygon","coordinates":[[[-72.40620401,-43.9761731430572],[-72.4066659029999,-43.9774795650572],[-72.4077332969999,-43.9772814570572],[-72.4072516569999,-43.9759706180573],[-72.40620401,-43.9761731430572]]]}},{"type":"Feature","properties":{"id":"11202021001044","commune":"Cisnes","code":"11202","gse":"D","quintil":"Q1","nse_score":642.7,"educ":10.3,"educ_score":486.7,"hacin":0.967,"hacin_class":"Sin Hacinamiento","hacin_score":858.0,"auto_score":15.6,"n_per":59,"n_hog":27,"source_year":2024,"crime_score":0.4272,"crime_nivel":"Muy Bajo","crime_color":"#4caf50"},"geometry":{"type":"Polygon","coordinates":[[[-72.4049828899999,-43.9764025490572],[-72.4051832549999,-43.9770146210573],[-72.4056960069999,-43.9769326110572],[-72.4052006139999,-43.9770676500572],[-72.4053080259999,-43.9773957720573],[-72.4056782769999,-43.9773395480572],[-72.405335868,-43.9774303870572],[-72.4054129419999,-43.9777162690572],[-72.4065452799999,-43.9775021610573],[-72.4060835139999,-43.9761960880572],[-72.4049828899999,-43.9764025490572]]]}},{"type":"Feature","properties":{"id":"11202021001045","commune":"Cisnes","code":"11202","gse":"C3","quintil":"Q2","nse_score":669.9,"educ":11.2,"educ_score":546.7,"hacin":1.143,"hacin_class":"Hacinamiento Leve","hacin_score":820.7,"auto_score":225.0,"n_per":40,"n_hog":17,"source_year":2024,"crime_score":0.417,"crime_nivel":"Muy Bajo","crime_color":"#4caf50"},"geometry":{"type":"Polygon","coordinates":[[[-72.4052922859999,-43.9777388550572],[-72.4052138569999,-43.9775505310573],[-72.4046176689999,-43.9776513230572],[-72.405214725,-43.9775019230572],[-72.4051068409999,-43.9771723560572],[-72.4044404499999,-43.9772671110572],[-72.4050885199999,-43.9771163870573],[-72.4048619909999,-43.9764243850572],[-72.4036827739999,-43.9766489030572],[-72.4042426329999,-43.9779332910572],[-72.4052922859999,-43.9777388550572]]]}},{"type":"Feature","properties":{"id":"11202021001046","commune":"Cisnes","code":"11202","gse":"C2","quintil":"Q4","nse_score":722.8,"educ":14.4,"educ_score":760.0,"hacin":1.571,"hacin_class":"Hacinamiento Medio","hacin_score":729.5,"auto_score":400.0,"n_per":11,"n_hog":4,"source_year":2024,"crime_score":0.3992,"crime_nivel":"Muy Bajo","crime_color":"#4caf50"},"geometry":{"type":"Polygon","coordinates":[[[-72.412070389,-43.9766407360572],[-72.4104466879999,-43.9768862570572],[-72.410760981,-43.9777758040572],[-72.4123907229999,-43.9775101310572],[-72.412070389,-43.9766407360572]]]}},{"type":"Feature","properties":{"id":"11202021001048","commune":"Cisnes","code":"11202","gse":"D","quintil":"Q1","nse_score":615.9,"educ":10.2,"educ_score":480.0,"hacin":1.308,"hacin_class":"Hacinamiento Leve","hacin_score":785.6,"auto_score":58.8,"n_per":34,"n_hog":15,"source_year":2024,"crime_score":0.4281,"crime_nivel":"Muy Bajo","crime_color":"#4caf50"},"geometry":{"type":"Polygon","coordinates":[[[-72.4098190129999,-43.9769984150572],[-72.4101510669999,-43.9778957830572],[-72.4106883689999,-43.9777861630573],[-72.4103735699999,-43.9768976510572],[-72.4098190129999,-43.9769984150572]]]}},{"type":"Feature","properties":{"id":"11202021001050","commune":"Cisnes","code":"11202","gse":"C3","quintil":"Q2","nse_score":675.9,"educ":11.7,"educ_score":580.0,"hacin":0.895,"hacin_class":"Sin Hacinamiento","hacin_score":873.5,"auto_score":363.6,"n_per":17,"n_hog":8,"source_year":2024,"crime_score":0.411,"crime_nivel":"Muy Bajo","crime_color":"#4caf50"},"geometry":{"type":"Polygon","coordinates":[[[-72.4080408099999,-43.9782645730572],[-72.407788046,-43.9773642070572],[-72.4066359899999,-43.9775780310573],[-72.4070997429999,-43.9784350320572],[-72.4080408099999,-43.9782645730572]]]}},{"type":"Feature","properties":{"id":"11202021001052","commune":"Cisnes","code":"11202","gse":"E","quintil":"Q1","nse_score":597.7,"educ":9.2,"educ_score":413.3,"hacin":1.583,"hacin_class":"Hacinamiento Medio","hacin_score":727.0,"auto_score":0.0,"n_per":19,"n_hog":7,"source_year":2024,"crime_score":0.429,"crime_nivel":"Muy Bajo","crime_color":"#4caf50"},"geometry":{"type":"Polygon","coordinates":[[[-72.4107140259999,-43.9778409370572],[-72.4110321649999,-43.9787604700572],[-72.4114420639999,-43.9786843260572],[-72.4111224369999,-43.9777686430572],[-72.4107140259999,-43.9778409370572]]]}},{"type":"Feature","properties":{"id":"11202021001053","commune":"Cisnes","code":"11202","gse":"E","quintil":"Q1","nse_score":610.6,"educ":9.9,"educ_score":460.0,"hacin":1.189,"hacin_class":"Hacinamiento Leve","hacin_score":810.8,"auto_score":27.8,"n_per":44,"n_hog":16,"source_year":2024,"crime_score":0.4314,"crime_nivel":"Muy Bajo","crime_color":"#4caf50"},"geometry":{"type":"Polygon","coordinates":[[[-72.4093151029999,-43.9781367770572],[-72.4093922769999,-43.9784106220572],[-72.410749226,-43.9781933600572],[-72.4106399809999,-43.9778533460573],[-72.4093151029999,-43.9781367770572]]]}},{"type":"Feature","properties":{"id":"11202021001054","commune":"Cisnes","code":"11202","gse":"D","quintil":"Q1","nse_score":634.5,"educ":9.9,"educ_score":460.0,"hacin":1.423,"hacin_class":"Hacinamiento Leve","hacin_score":761.0,"auto_score":0.0,"n_per":37,"n_hog":16,"source_year":2024,"crime_score":0.4245,"crime_nivel":"Muy Bajo","crime_color":"#4caf50"},"geometry":{"type":"Polygon","coordinates":[[[-72.4082928129999,-43.9786256450573],[-72.4093433359999,-43.9785077110573],[-72.4092427419999,-43.9781507610572],[-72.4081795129999,-43.9783062740572],[-72.4082928129999,-43.9786256450573]]]}},{"type":"Feature","properties":{"id":"11202021001055","commune":"Cisnes","code":"11202","gse":"E","quintil":"Q1","nse_score":561.1,"educ":9.9,"educ_score":460.0,"hacin":1.778,"hacin_class":"Hacinamiento Medio","hacin_score":685.6,"auto_score":0.0,"n_per":16,"n_hog":5,"source_year":2024,"crime_score":0.4366,"crime_nivel":"Muy Bajo","crime_color":"#4caf50"},"geometry":{"type":"Polygon","coordinates":[[[-72.4094237859999,-43.9785224300572],[-72.4095930549999,-43.9790297310572],[-72.410418563,-43.9788752480572],[-72.410364205,-43.9786414430573],[-72.4104912129999,-43.9788616530573],[-72.4109597679999,-43.9787739690572],[-72.4107671769999,-43.9782457900573],[-72.4094237859999,-43.9785224300572]]]}},{"type":"Feature","properties":{"id":"11202021001056","commune":"Cisnes","code":"11202","gse":"C2","quintil":"Q4","nse_score":715.3,"educ":11.0,"educ_score":533.3,"hacin":1.341,"hacin_class":"Hacinamiento Leve","hacin_score":778.4,"auto_score":394.7,"n_per":55,"n_hog":19,"source_year":2024,"crime_score":0.4097,"crime_nivel":"Muy Bajo","crime_color":"#4caf50"},"geometry":{"type":"Polygon","coordinates":[[[-72.4083729849999,-43.9790548240572],[-72.4088550859999,-43.9803902250572],[-72.411878655,-43.9798272720573],[-72.4116274239999,-43.9792039810573],[-72.4097685739999,-43.9795264220572],[-72.4098336889999,-43.9797266150573],[-72.4097123709999,-43.9797471910572],[-72.4095023029999,-43.9791013470572],[-72.4085597589999,-43.9792642440572],[-72.4094975889999,-43.9790466980572],[-72.409358257,-43.9785606560572],[-72.4083720499999,-43.9787396450573],[-72.4083729849999,-43.9790548240572]]]}},{"type":"Feature","properties":{"id":"11202021001057","commune":"Cisnes","code":"11202","gse":"C3","quintil":"Q2","nse_score":664.1,"educ":10.1,"educ_score":473.3,"hacin":1.087,"hacin_class":"Hacinamiento Leve","hacin_score":832.6,"auto_score":0.0,"n_per":25,"n_hog":11,"source_year":2024,"crime_score":0.4153,"crime_nivel":"Muy Bajo","crime_color":"#4caf50"},"geometry":{"type":"Polygon","coordinates":[[[-72.4105179199999,-43.9789435460572],[-72.4106542749999,-43.9793080240572],[-72.4116070019999,-43.9791519620572],[-72.4114624979999,-43.9787362810573],[-72.4105179199999,-43.9789435460572]]]}},{"type":"Feature","properties":{"id":"11202021001058","commune":"Cisnes","code":"11202","gse":"D","quintil":"Q2","nse_score":658.3,"educ":10.8,"educ_score":520.0,"hacin":1.471,"hacin_class":"Hacinamiento Leve","hacin_score":750.9,"auto_score":62.5,"n_per":25,"n_hog":8,"source_year":2024,"crime_score":0.4166,"crime_nivel":"Muy Bajo","crime_color":"#4caf50"},"geometry":{"type":"Polygon","coordinates":[[[-72.4096251829999,-43.9790855730573],[-72.4097514739999,-43.9794738500572],[-72.4105815659999,-43.9793207040572],[-72.4104346569999,-43.9789280120572],[-72.4096251829999,-43.9790855730573]]]}},{"type":"Feature","properties":{"id":"11202021001021","commune":"Cisnes","code":"11202","gse":"C3","quintil":"Q3","nse_score":682.5,"educ":10.4,"educ_score":493.3,"hacin":1.316,"hacin_class":"Hacinamiento Leve","hacin_score":783.9,"auto_score":125.0,"n_per":25,"n_hog":8,"source_year":2024,"crime_score":0.4111,"crime_nivel":"Muy Bajo","crime_color":"#4caf50"},"geometry":{"type":"MultiPolygon","coordinates":[[[[-72.4017168179999,-43.9721678780572],[-72.4021906339999,-43.9732993520572],[-72.4030167369999,-43.9731364040573],[-72.4026513279999,-43.9720217600573],[-72.4017168179999,-43.9721678780572]]],[[[-72.4027731329999,-43.9720027150572],[-72.4031371439999,-43.9731130880572],[-72.4048680989999,-43.9727998300572],[-72.4044610889999,-43.9716939020572],[-72.4027731329999,-43.9720027150572]]]]}},{"type":"Feature","properties":{"id":"11202021001049","commune":"Cisnes","code":"11202","gse":"E","quintil":"Q1","nse_score":562.0,"educ":10.3,"educ_score":486.7,"hacin":1.333,"hacin_class":"Hacinamiento Leve","hacin_score":780.1,"auto_score":166.7,"n_per":16,"n_hog":9,"source_year":2024,"crime_score":0.4364,"crime_nivel":"Muy Bajo","crime_color":"#4caf50"},"geometry":{"type":"MultiPolygon","coordinates":[[[[-72.4040379569999,-43.9780641060572],[-72.4048585279999,-43.9799134320572],[-72.4053257879999,-43.9797428040572],[-72.4053292109999,-43.9792466320572],[-72.4054005399999,-43.9797398830572],[-72.4055723209999,-43.9798339880572],[-72.4059674869999,-43.9806543440573],[-72.405506913,-43.9798613190572],[-72.4053662359999,-43.9797885550572],[-72.4048837869999,-43.9799644130572],[-72.4056277209999,-43.9812647680573],[-72.4065196269999,-43.9808679910572],[-72.4061141289999,-43.9799690530572],[-72.406390971,-43.9797916660572],[-72.4062856689999,-43.9796233020572],[-72.4075674489999,-43.9791372160572],[-72.4083464549999,-43.9789855170572],[-72.4082892669999,-43.9788122570573],[-72.4075639189999,-43.9789929380572],[-72.4082948039999,-43.9787552170573],[-72.408103363,-43.9783084730572],[-72.4070682859999,-43.9784740300572],[-72.4065759109999,-43.9775902380572],[-72.4040379569999,-43.9780641060572]]],[[[-72.4078668789999,-43.9773524560572],[-72.4081618949999,-43.9782530870572],[-72.4100792849999,-43.9779109470572],[-72.4097465869999,-43.9770118360572],[-72.4078668789999,-43.9773524560572]]]]}},{"type":"Feature","properties":{"id":"11202021001002","commune":"Cisnes","code":"11202","gse":"E","quintil":"Q1","nse_score":590.1,"educ":10.2,"educ_score":480.0,"hacin":1.21,"hacin_class":"Hacinamiento Leve","hacin_score":806.3,"auto_score":62.5,"n_per":23,"n_hog":12,"source_year":2024,"crime_score":0.4316,"crime_nivel":"Muy Bajo","crime_color":"#4caf50"},"geometry":{"type":"MultiPolygon","coordinates":[[[[-72.400148655,-43.9686147760572],[-72.4015706479999,-43.9693543010573],[-72.4020892129999,-43.9688595740573],[-72.400782552,-43.9681343250572],[-72.4000274349999,-43.9682587510573],[-72.400148655,-43.9686147760572]]],[[[-72.3996409419999,-43.9679277350572],[-72.3999718269999,-43.9681915000572],[-72.400659388,-43.9680221860572],[-72.3996409419999,-43.9679277350572]]]]}},{"type":"Feature","properties":{"id":"11202021001019","commune":"Cisnes","code":"11202","gse":"C2","quintil":"Q4","nse_score":728.1,"educ":12.1,"educ_score":606.7,"hacin":1.2,"hacin_class":"Hacinamiento Leve","hacin_score":808.5,"auto_score":0.0,"n_per":18,"n_hog":7,"source_year":2024,"crime_score":0.3994,"crime_nivel":"Muy Bajo","crime_color":"#4caf50"},"geometry":{"type":"MultiPolygon","coordinates":[[[[-72.4063809369999,-43.9731687930573],[-72.4065945959999,-43.9737428930572],[-72.4076716809999,-43.9735649280572],[-72.4074553809999,-43.9729581860572],[-72.4063809369999,-43.9731687930573]]],[[[-72.4070966589999,-43.9715067600573],[-72.4077926119999,-43.9735432290572],[-72.4091266259999,-43.9732854480573],[-72.4088180989999,-43.9724112280572],[-72.4091747939999,-43.9732761920572],[-72.4095762149999,-43.9732209270572],[-72.4093302069999,-43.9725743140572],[-72.4070966589999,-43.9715067600573]]]]}},{"type":"Feature","properties":{"id":"11202021001012","commune":"Cisnes","code":"11202","gse":"D","quintil":"Q2","nse_score":659.3,"educ":10.0,"educ_score":466.7,"hacin":1.381,"hacin_class":"Hacinamiento Leve","hacin_score":770.0,"auto_score":250.0,"n_per":29,"n_hog":11,"source_year":2024,"crime_score":0.4172,"crime_nivel":"Muy Bajo","crime_color":"#4caf50"},"geometry":{"type":"MultiPolygon","coordinates":[[[[-72.403234241,-43.9715410750573],[-72.40339653,-43.9718110830572],[-72.4044223839999,-43.9716082560573],[-72.4039750569999,-43.9709006580573],[-72.4029069869999,-43.9702197880573],[-72.4022466189999,-43.9708430580573],[-72.403234241,-43.9715410750573]]],[[[-72.400834701,-43.9701714860572],[-72.4014108309999,-43.9714842180573],[-72.4020757939999,-43.9708580480572],[-72.400834701,-43.9701714860572]]]]}},{"type":"Feature","properties":{"id":"11202023056003","commune":"Cisnes","code":"11202","gse":"E","quintil":"Q1","nse_score":554.2,"educ":7.8,"educ_score":320.0,"hacin":0.933,"hacin_class":"Sin Hacinamiento","hacin_score":865.2,"auto_score":111.1,"n_per":14,"n_hog":7,"source_year":2024,"crime_score":0.4377,"crime_nivel":"Muy Bajo","crime_color":"#4caf50"},"geometry":{"type":"Polygon","coordinates":[[[-72.5554274779999,-44.3231924640569],[-72.5560830109999,-44.3240596630569],[-72.5570213069999,-44.3236987000569],[-72.557392364,-44.3236870600569],[-72.557492023,-44.3234183310569],[-72.556699422,-44.3228454500569],[-72.5554274779999,-44.3231924640569]]]}},{"type":"Feature","properties":{"id":"11202023056004","commune":"Cisnes","code":"11202","gse":"E","quintil":"Q1","nse_score":569.1,"educ":9.4,"educ_score":426.7,"hacin":1.5,"hacin_class":"Hacinamiento Medio","hacin_score":744.7,"auto_score":125.0,"n_per":12,"n_hog":5,"source_year":2024,"crime_score":0.4339,"crime_nivel":"Muy Bajo","crime_color":"#4caf50"},"geometry":{"type":"Polygon","coordinates":[[[-72.5592731049999,-44.3236986130569],[-72.5601951179999,-44.3239530310569],[-72.5602338699999,-44.3232722460569],[-72.5599439909999,-44.3230171030569],[-72.5595160269999,-44.3229997300569],[-72.5586483279999,-44.3232552300569],[-72.558992428,-44.3233356830569],[-72.5592731049999,-44.3236986130569]]]}},{"type":"Feature","properties":{"id":"11202023056006","commune":"Cisnes","code":"11202","gse":"C2","quintil":"Q4","nse_score":727.0,"educ":13.4,"educ_score":693.3,"hacin":1.647,"hacin_class":"Hacinamiento Medio","hacin_score":713.4,"auto_score":107.1,"n_per":28,"n_hog":12,"source_year":2024,"crime_score":0.4016,"crime_nivel":"Muy Bajo","crime_color":"#4caf50"},"geometry":{"type":"Polygon","coordinates":[[[-72.5574632739999,-44.3237188170569],[-72.557621202,-44.3242136930569],[-72.5589447469999,-44.3240837240569],[-72.5589845759999,-44.3238693090569],[-72.5591956849999,-44.3237096070569],[-72.5588747019999,-44.3233452320569],[-72.5581182559999,-44.323325789057],[-72.5575588109999,-44.3234435470569],[-72.5574632739999,-44.3237188170569]]]}},{"type":"Feature","properties":{"id":"11202023056007","commune":"Cisnes","code":"11202","gse":"C3","quintil":"Q3","nse_score":682.7,"educ":11.6,"educ_score":573.3,"hacin":1.448,"hacin_class":"Hacinamiento Leve","hacin_score":755.7,"auto_score":200.0,"n_per":42,"n_hog":12,"source_year":2024,"crime_score":0.4145,"crime_nivel":"Muy Bajo","crime_color":"#4caf50"},"geometry":{"type":"Polygon","coordinates":[[[-72.5561189739999,-44.3241070880569],[-72.5564756739999,-44.3245371130569],[-72.5575485989999,-44.3242283510569],[-72.557394412,-44.3237431350569],[-72.5570475039999,-44.3237494550569],[-72.5561189739999,-44.3241070880569]]]}},{"type":"Feature","properties":{"id":"11202023056008","commune":"Cisnes","code":"11202","gse":"E","quintil":"Q1","nse_score":600.9,"educ":8.7,"educ_score":380.0,"hacin":0.944,"hacin_class":"Sin Hacinamiento","hacin_score":862.9,"auto_score":200.0,"n_per":17,"n_hog":7,"source_year":2024,"crime_score":0.4279,"crime_nivel":"Muy Bajo","crime_color":"#4caf50"},"geometry":{"type":"Polygon","coordinates":[[[-72.5590558519999,-44.3238880830569],[-72.558976588,-44.3249792860569],[-72.5600248299999,-44.3250609240569],[-72.5601877579999,-44.3240071140569],[-72.5592473749999,-44.3237499390569],[-72.5590558519999,-44.3238880830569]]]}},{"type":"Feature","properties":{"id":"11202023056010","commune":"Cisnes","code":"11202","gse":"E","quintil":"Q1","nse_score":547.0,"educ":6.5,"educ_score":233.3,"hacin":0.895,"hacin_class":"Sin Hacinamiento","hacin_score":873.5,"auto_score":41.7,"n_per":17,"n_hog":10,"source_year":2024,"crime_score":0.44,"crime_nivel":"Muy Bajo","crime_color":"#4caf50"},"geometry":{"type":"Polygon","coordinates":[[[-72.5602620929999,-44.3240153560569],[-72.5600997149999,-44.3250659800569],[-72.5613852649999,-44.3250837770569],[-72.5612176809999,-44.3243827790569],[-72.5604700359999,-44.3240293810569],[-72.5602620929999,-44.3240153560569]]]}},{"type":"Feature","properties":{"id":"11202023056011","commune":"Cisnes","code":"11202","gse":"E","quintil":"Q1","nse_score":528.1,"educ":6.4,"educ_score":226.7,"hacin":0.692,"hacin_class":"Sin Hacinamiento","hacin_score":916.5,"auto_score":0.0,"n_per":9,"n_hog":5,"source_year":2024,"crime_score":0.4425,"crime_nivel":"Muy Bajo","crime_color":"#4caf50"},"geometry":{"type":"Polygon","coordinates":[[[-72.5579358239999,-44.3250311750569],[-72.5589010819999,-44.3249849370569],[-72.5589391179999,-44.3241380120569],[-72.5576412389999,-44.3242661620569],[-72.5579358239999,-44.3250311750569]]]}},{"type":"Feature","properties":{"id":"11202023056012","commune":"Cisnes","code":"11202","gse":"D","quintil":"Q1","nse_score":629.7,"educ":9.1,"educ_score":406.7,"hacin":1.179,"hacin_class":"Hacinamiento Leve","hacin_score":813.1,"auto_score":153.8,"n_per":33,"n_hog":12,"source_year":2024,"crime_score":0.4247,"crime_nivel":"Muy Bajo","crime_color":"#4caf50"},"geometry":{"type":"Polygon","coordinates":[[[-72.5623866569999,-44.3247910300569],[-72.5612271929999,-44.3243092060569],[-72.5614604319999,-44.325079752057],[-72.5645614039999,-44.3249360980569],[-72.5643658929999,-44.3247251190569],[-72.5635012369999,-44.3246168530569],[-72.5623866569999,-44.3247910300569]]]}},{"type":"Feature","properties":{"id":"11202023056013","commune":"Cisnes","code":"11202","gse":"C3","quintil":"Q3","nse_score":691.4,"educ":10.0,"educ_score":466.7,"hacin":1.167,"hacin_class":"Hacinamiento Leve","hacin_score":815.6,"auto_score":50.0,"n_per":28,"n_hog":11,"source_year":2024,"crime_score":0.4097,"crime_nivel":"Muy Bajo","crime_color":"#4caf50"},"geometry":{"type":"Polygon","coordinates":[[[-72.5565184939999,-44.3245819220569],[-72.5571964309999,-44.3253066600569],[-72.5578956589999,-44.3251132730569],[-72.5575688089999,-44.3242807490569],[-72.5565184939999,-44.3245819220569]]]}},{"type":"Feature","properties":{"id":"11202023056014","commune":"Cisnes","code":"11202","gse":"C3","quintil":"Q3","nse_score":695.7,"educ":10.6,"educ_score":506.7,"hacin":1.35,"hacin_class":"Hacinamiento Leve","hacin_score":776.6,"auto_score":250.0,"n_per":27,"n_hog":10,"source_year":2024,"crime_score":0.4085,"crime_nivel":"Muy Bajo","crime_color":"#4caf50"},"geometry":{"type":"Polygon","coordinates":[[[-72.5559554359999,-44.3258413320569],[-72.5571321209999,-44.3253347620569],[-72.5562466099999,-44.3244230270569],[-72.5551033049999,-44.3249154290569],[-72.5559554359999,-44.3258413320569]]]}},{"type":"Feature","properties":{"id":"11202023056009","commune":"Cisnes","code":"11202","gse":"D","quintil":"Q1","nse_score":615.9,"educ":10.8,"educ_score":520.0,"hacin":1.273,"hacin_class":"Hacinamiento Leve","hacin_score":793.0,"auto_score":0.0,"n_per":14,"n_hog":7,"source_year":2024,"crime_score":0.4239,"crime_nivel":"Muy Bajo","crime_color":"#4caf50"},"geometry":{"type":"MultiPolygon","coordinates":[[[[-72.5653930209999,-44.3252744390569],[-72.5660161159999,-44.3261273870569],[-72.5666236459999,-44.3259570130569],[-72.5664878429999,-44.3254699990569],[-72.5653930209999,-44.3252744390569]]],[[[-72.5650271819999,-44.3262775030569],[-72.5661763629999,-44.3266427010569],[-72.5673922899999,-44.3263874100569],[-72.5674091369999,-44.3257065480569],[-72.5665367949999,-44.3254813270569],[-72.5666777739999,-44.3259937730569],[-72.5660382969999,-44.3261791410569],[-72.5661499369999,-44.3265739200569],[-72.5656574939999,-44.3256641310569],[-72.5649645799999,-44.3249067710569],[-72.5651209559999,-44.3254434000569],[-72.5650271819999,-44.3262775030569]]],[[[-72.5653230579999,-44.3252153600569],[-72.5658917499999,-44.325281150057],[-72.5660319819999,-44.3242192810569],[-72.5659506339999,-44.3238660000569],[-72.5654438059999,-44.3246040230569],[-72.5650324249999,-44.3248834310569],[-72.5653230579999,-44.3252153600569]]]]}},{"type":"Feature","properties":{"id":"11202023056001","commune":"Cisnes","code":"11202","gse":"D","quintil":"Q1","nse_score":638.8,"educ":11.0,"educ_score":533.3,"hacin":1.625,"hacin_class":"Hacinamiento Medio","hacin_score":718.1,"auto_score":100.0,"n_per":26,"n_hog":9,"source_year":2024,"crime_score":0.4212,"crime_nivel":"Muy Bajo","crime_color":"#4caf50"},"geometry":{"type":"MultiPolygon","coordinates":[[[[-72.555294322,-44.3230982410569],[-72.5559520599999,-44.3230610380569],[-72.5566107849999,-44.3228218950569],[-72.5554536159999,-44.3226708220569],[-72.5552556329999,-44.3227704760569],[-72.555294322,-44.3230982410569]]],[[[-72.5552885579999,-44.3226281320569],[-72.5569071819999,-44.3228567980569],[-72.5575273519999,-44.3233926750569],[-72.5587309699999,-44.3232020850569],[-72.5595051119999,-44.3229645590569],[-72.559965486,-44.3229841180569],[-72.5603071599999,-44.3232756150569],[-72.5602698639999,-44.3239616500569],[-72.5611922929999,-44.3242741690569],[-72.5614834189999,-44.3241336750569],[-72.5609331939999,-44.3237855240569],[-72.5601134859999,-44.3228247080569],[-72.5584304249999,-44.3231685090569],[-72.5570846529999,-44.3227710800569],[-72.5552885579999,-44.3226281320569]]]]}},{"type":"Feature","properties":{"id":"11202023056021","commune":"Cisnes","code":"11202","gse":"C2","quintil":"Q4","nse_score":742.2,"educ":10.9,"educ_score":526.7,"hacin":1.111,"hacin_class":"Hacinamiento Leve","hacin_score":827.4,"auto_score":83.3,"n_per":10,"n_hog":6,"source_year":2024,"crime_score":0.3947,"crime_nivel":"Muy Bajo","crime_color":"#4caf50"},"geometry":{"type":"MultiPolygon","coordinates":[[[[-72.5589543919999,-44.3258275510569],[-72.5596271339999,-44.3260098410569],[-72.5599117689999,-44.3253977100569],[-72.5589874919999,-44.3253172380569],[-72.5589543919999,-44.3258275510569]]],[[[-72.5579203919999,-44.3251660240569],[-72.5552903119999,-44.3262370760569],[-72.5551332679999,-44.3264298120569],[-72.5552046519999,-44.3269187910569],[-72.5549869309999,-44.3274220470569],[-72.5556170269999,-44.3284675900569],[-72.5563056369999,-44.3282103720569],[-72.5557125519999,-44.3274255200569],[-72.5556397439999,-44.3271403730569],[-72.5557840569999,-44.3268553740569],[-72.5560735909999,-44.3265464750569],[-72.5569603019999,-44.3260703000569],[-72.5580544749999,-44.3259586690569],[-72.5588910469999,-44.3263501760569],[-72.5599867469999,-44.3265041410569],[-72.5610640289999,-44.3268683730569],[-72.5611623029999,-44.3264353490569],[-72.5605379329999,-44.3263943850569],[-72.5593438699999,-44.3259503880569],[-72.5581194679999,-44.3256708230569],[-72.5579203919999,-44.3251660240569]]]]}},{"type":"Feature","properties":{"id":"11202023056018","commune":"Cisnes","code":"11202","gse":"C3","quintil":"Q2","nse_score":674.4,"educ":10.3,"educ_score":486.7,"hacin":1.321,"hacin_class":"Hacinamiento Leve","hacin_score":782.8,"auto_score":17.2,"n_per":70,"n_hog":26,"source_year":2024,"crime_score":0.4221,"crime_nivel":"Muy Bajo","crime_color":"#4caf50"},"geometry":{"type":"MultiPolygon","coordinates":[[[[-72.5636082369999,-44.3264512540569],[-72.564023587,-44.3263715970569],[-72.5642324869999,-44.3258903560569],[-72.5629339609999,-44.3261459100569],[-72.5636082369999,-44.3264512540569]]],[[[-72.5615002779999,-44.3253245360569],[-72.5613951389999,-44.3251373910569],[-72.5600904729999,-44.3251198620569],[-72.5596938809999,-44.3260354550569],[-72.5605613469999,-44.3263430080569],[-72.5611648059999,-44.3263813860569],[-72.5637185229999,-44.3259603780569],[-72.5642281439999,-44.3258277060569],[-72.5644392989999,-44.3251379560569],[-72.564364398,-44.3250217760569],[-72.5620526379999,-44.3250490080569],[-72.5614702279999,-44.3251333710569],[-72.5615002779999,-44.3253245360569]]]]}},{"type":"Feature","properties":{"id":"11202023056005","commune":"Cisnes","code":"11202","gse":"C2","quintil":"Q3","nse_score":710.9,"educ":14.2,"educ_score":746.7,"hacin":1.571,"hacin_class":"Hacinamiento Medio","hacin_score":729.5,"auto_score":200.0,"n_per":22,"n_hog":11,"source_year":2024,"crime_score":0.4041,"crime_nivel":"Muy Bajo","crime_color":"#4caf50"},"geometry":{"type":"MultiPolygon","coordinates":[[[[-72.5553178749999,-44.3287582140569],[-72.5559536139999,-44.3293515700569],[-72.5564158539999,-44.3291475010569],[-72.5561278799999,-44.3287604460569],[-72.5555213179999,-44.3285083700569],[-72.5553178749999,-44.3287582140569]]],[[[-72.5528616139999,-44.3245548240569],[-72.5538189729999,-44.3274684470569],[-72.5551137409999,-44.3285779460569],[-72.5553350299999,-44.3285458230569],[-72.5553921379999,-44.3283959170569],[-72.5549031579999,-44.3273572820569],[-72.5551066019999,-44.3269182720569],[-72.5550423569999,-44.3264435690569],[-72.5551851239999,-44.3262115720569],[-72.5559003049999,-44.3258782050569],[-72.5550386399999,-44.3249430040569],[-72.5534618589999,-44.3254892070569],[-72.556204739,-44.3243780940569],[-72.5560375559999,-44.3241085600569],[-72.5552441989999,-44.3231385860569],[-72.5541014479999,-44.3229846870569],[-72.5544601099999,-44.3235864750569],[-72.5541134959999,-44.3239805100569],[-72.5528616139999,-44.3245548240569]]]]}}]}