{"type":"FeatureCollection","features":[{"type":"Feature","properties":{"id":"16202021001001","commune":"Cobquecura","code":"16202","gse":"C2","quintil":"Q4","nse_score":720.0,"educ":13.6,"educ_score":706.7,"hacin":0.933,"hacin_class":"Sin Hacinamiento","hacin_score":865.2,"auto_score":166.7,"n_per":14,"n_hog":8,"source_year":2024,"crime_score":0.0509,"crime_nivel":"Bajo","crime_color":"#cddc39"},"geometry":{"type":"Polygon","coordinates":[[[-72.7794662769999,-36.1275588191011],[-72.7821486059999,-36.1283300191011],[-72.7823463689999,-36.1277491771011],[-72.779706744,-36.1269986321011],[-72.7794662769999,-36.1275588191011]]]}},{"type":"Feature","properties":{"id":"16202021001002","commune":"Cobquecura","code":"16202","gse":"C3","quintil":"Q3","nse_score":690.8,"educ":11.9,"educ_score":593.3,"hacin":1.139,"hacin_class":"Hacinamiento Leve","hacin_score":821.5,"auto_score":162.4,"n_per":361,"n_hog":153,"source_year":2024,"crime_score":0.0591,"crime_nivel":"Bajo","crime_color":"#cddc39"},"geometry":{"type":"Polygon","coordinates":[[[-72.7792324019999,-36.1294927081011],[-72.7846754509999,-36.1308811181011],[-72.7891030309999,-36.132476695101],[-72.7883952369999,-36.1334556411011],[-72.7924607719999,-36.134597963101],[-72.7929342739999,-36.134526295101],[-72.7934871619999,-36.1337300611011],[-72.7931309219999,-36.1338655711011],[-72.7932139989999,-36.133224700101],[-72.7925588639999,-36.1330215051011],[-72.7923907659999,-36.133390370101],[-72.7927670839999,-36.1335315161011],[-72.7923863599999,-36.133434223101],[-72.7923037279999,-36.1335786871011],[-72.7927823239999,-36.1337782151011],[-72.7922788669999,-36.1336371341011],[-72.7920683329999,-36.1340794111011],[-72.7922027309999,-36.1336115401011],[-72.7912740439999,-36.1333330751011],[-72.7911413749999,-36.1335304311011],[-72.791195963,-36.1333143201011],[-72.7905633619999,-36.1331272561011],[-72.7908012529999,-36.1325128131011],[-72.7897768439999,-36.1321889711011],[-72.7908247479999,-36.132480023101],[-72.7910691079999,-36.1318950971011],[-72.7898150879999,-36.1315332241011],[-72.7895200859999,-36.131902950101],[-72.7895844779999,-36.1317279051011],[-72.7892272249999,-36.1314833871011],[-72.7896203269999,-36.1316954231011],[-72.7898024989999,-36.1313480551011],[-72.7893409789999,-36.1311256181011],[-72.789844909,-36.1312959751011],[-72.7901032869999,-36.1308984491011],[-72.7890106079999,-36.1305025041011],[-72.7884597479999,-36.1310445201011],[-72.7889206339999,-36.1304990961011],[-72.7886120059999,-36.1303488011011],[-72.7880468509999,-36.1309983651011],[-72.7885728509999,-36.1303358821011],[-72.7854568949999,-36.1292177811011],[-72.7819903799999,-36.1283450661011],[-72.7819256369999,-36.1285158371011],[-72.7833648429999,-36.1288998311011],[-72.7832907279999,-36.1291974891011],[-72.7807008739999,-36.1286100301011],[-72.7806316029999,-36.1287381801011],[-72.7805734339999,-36.1285619091011],[-72.779687281,-36.1283551381011],[-72.7795752809999,-36.1286015881011],[-72.7801612819999,-36.1287610521011],[-72.7794916589999,-36.1286663061011],[-72.7794204979999,-36.1288564411011],[-72.779743488,-36.1290265521011],[-72.7796207889999,-36.1290222441011],[-72.7793869199999,-36.1288578061011],[-72.7797344659999,-36.1278085181011],[-72.7794971199999,-36.1276855411011],[-72.7790764289999,-36.1291326761011],[-72.7792324019999,-36.1294927081011]]]}},{"type":"Feature","properties":{"id":"16202021001003","commune":"Cobquecura","code":"16202","gse":"C2","quintil":"Q4","nse_score":746.0,"educ":11.9,"educ_score":593.3,"hacin":1.059,"hacin_class":"Hacinamiento Leve","hacin_score":838.5,"auto_score":285.7,"n_per":18,"n_hog":7,"source_year":2024,"crime_score":0.0502,"crime_nivel":"Bajo","crime_color":"#cddc39"},"geometry":{"type":"Polygon","coordinates":[[[-72.7822101639999,-36.1283539031011],[-72.7854802279999,-36.1291551441011],[-72.785515771,-36.1285652401011],[-72.7824097029999,-36.1277659751011],[-72.7822101639999,-36.1283539031011]]]}},{"type":"Feature","properties":{"id":"16202021001004","commune":"Cobquecura","code":"16202","gse":"D","quintil":"Q1","nse_score":635.4,"educ":9.9,"educ_score":460.0,"hacin":1.192,"hacin_class":"Hacinamiento Leve","hacin_score":810.1,"auto_score":41.7,"n_per":31,"n_hog":12,"source_year":2024,"crime_score":0.0538,"crime_nivel":"Bajo","crime_color":"#cddc39"},"geometry":{"type":"Polygon","coordinates":[[[-72.78074885,-36.1281855781011],[-72.7807702779999,-36.1280351731011],[-72.7799245239999,-36.1278159301011],[-72.7798191239999,-36.1278821471011],[-72.7798644409999,-36.1279922051011],[-72.78074885,-36.1281855781011]]]}},{"type":"Feature","properties":{"id":"16202021001005","commune":"Cobquecura","code":"16202","gse":"D","quintil":"Q1","nse_score":621.8,"educ":9.6,"educ_score":440.0,"hacin":1.266,"hacin_class":"Hacinamiento Leve","hacin_score":794.5,"auto_score":187.5,"n_per":100,"n_hog":37,"source_year":2024,"crime_score":0.056,"crime_nivel":"Bajo","crime_color":"#cddc39"},"geometry":{"type":"Polygon","coordinates":[[[-72.781640594,-36.1287934381011],[-72.7817622589999,-36.1285172151011],[-72.7798217599999,-36.1280154701011],[-72.7796691249999,-36.1282048191011],[-72.781640594,-36.1287934381011]]]}},{"type":"Feature","properties":{"id":"16202021001006","commune":"Cobquecura","code":"16202","gse":"E","quintil":"Q1","nse_score":558.3,"educ":8.3,"educ_score":353.3,"hacin":1.471,"hacin_class":"Hacinamiento Leve","hacin_score":750.9,"auto_score":41.7,"n_per":25,"n_hog":11,"source_year":2024,"crime_score":0.0558,"crime_nivel":"Bajo","crime_color":"#cddc39"},"geometry":{"type":"Polygon","coordinates":[[[-72.7818058589999,-36.1284418151011],[-72.7818099959999,-36.1282864721011],[-72.7808910139999,-36.1280662801011],[-72.7808044859999,-36.1281956811011],[-72.7818058589999,-36.1284418151011]]]}},{"type":"Feature","properties":{"id":"16202021001007","commune":"Cobquecura","code":"16202","gse":"C3","quintil":"Q3","nse_score":700.3,"educ":12.2,"educ_score":613.3,"hacin":1.267,"hacin_class":"Hacinamiento Leve","hacin_score":794.3,"auto_score":119.0,"n_per":95,"n_hog":43,"source_year":2024,"crime_score":0.0535,"crime_nivel":"Bajo","crime_color":"#cddc39"},"geometry":{"type":"Polygon","coordinates":[[[-72.7865012599999,-36.1281523081011],[-72.786536581,-36.1286422571011],[-72.7855284409999,-36.1283046371011],[-72.7854802279999,-36.1291551441011],[-72.788326546,-36.1301880311011],[-72.7874354319999,-36.1288573161011],[-72.7884281619999,-36.1302213231011],[-72.7900718419999,-36.1308237701011],[-72.7905372679999,-36.1302743471011],[-72.7939758709999,-36.1315025321011],[-72.7944329089999,-36.1305177161011],[-72.7929081179999,-36.1302473191011],[-72.7929646599999,-36.1306889161011],[-72.7923684439999,-36.1305123481011],[-72.7923314919999,-36.1297453731011],[-72.7901304409999,-36.1296590251011],[-72.7893878339999,-36.1294428701011],[-72.7888065359999,-36.1290503021011],[-72.7872715759999,-36.1286022321011],[-72.7865012599999,-36.1281523081011]]]}},{"type":"Feature","properties":{"id":"16202021001008","commune":"Cobquecura","code":"16202","gse":"C3","quintil":"Q3","nse_score":684.3,"educ":11.3,"educ_score":553.3,"hacin":1.293,"hacin_class":"Hacinamiento Leve","hacin_score":788.8,"auto_score":394.7,"n_per":53,"n_hog":19,"source_year":2024,"crime_score":0.0529,"crime_nivel":"Bajo","crime_color":"#cddc39"},"geometry":{"type":"Polygon","coordinates":[[[-72.7817275089999,-36.1288477401011],[-72.7824722559999,-36.1289027691011],[-72.783255574,-36.1291648931011],[-72.7833246139999,-36.1289230391011],[-72.7818313159999,-36.1285373131011],[-72.7817275089999,-36.1288477401011]]]}},{"type":"Feature","properties":{"id":"16202021001009","commune":"Cobquecura","code":"16202","gse":"D","quintil":"Q2","nse_score":656.0,"educ":12.4,"educ_score":626.7,"hacin":1.0,"hacin_class":"Hacinamiento Leve","hacin_score":851.1,"auto_score":50.0,"n_per":22,"n_hog":9,"source_year":2024,"crime_score":0.0529,"crime_nivel":"Bajo","crime_color":"#cddc39"},"geometry":{"type":"Polygon","coordinates":[[[-72.7971940939999,-36.1321522401011],[-72.7967696879999,-36.1319603401011],[-72.7971200819999,-36.1310727131011],[-72.7966646469999,-36.1307447921011],[-72.7963932099999,-36.1303299601011],[-72.7947726559999,-36.1299395101011],[-72.7945180799999,-36.1305070631011],[-72.7959979529999,-36.1310913591011],[-72.7955783859999,-36.1321094621011],[-72.7964812559999,-36.1324209061011],[-72.7967578459999,-36.131997519101],[-72.796577366,-36.1324385561011],[-72.7970613429999,-36.1326256001011],[-72.7971940939999,-36.1321522401011]]]}},{"type":"Feature","properties":{"id":"16202021001010","commune":"Cobquecura","code":"16202","gse":"C2","quintil":"Q4","nse_score":728.7,"educ":14.3,"educ_score":753.3,"hacin":1.438,"hacin_class":"Hacinamiento Leve","hacin_score":758.0,"auto_score":166.7,"n_per":23,"n_hog":9,"source_year":2024,"crime_score":0.0509,"crime_nivel":"Bajo","crime_color":"#cddc39"},"geometry":{"type":"Polygon","coordinates":[[[-72.7913055229999,-36.1312680301011],[-72.7915719489999,-36.1307147411011],[-72.7905094369999,-36.1303667591011],[-72.7902162589999,-36.1308711331011],[-72.7913055229999,-36.1312680301011]]]}},{"type":"Feature","properties":{"id":"16202021001011","commune":"Cobquecura","code":"16202","gse":"D","quintil":"Q2","nse_score":655.8,"educ":12.2,"educ_score":613.3,"hacin":1.518,"hacin_class":"Hacinamiento Medio","hacin_score":740.7,"auto_score":205.9,"n_per":41,"n_hog":16,"source_year":2024,"crime_score":0.0534,"crime_nivel":"Bajo","crime_color":"#cddc39"},"geometry":{"type":"Polygon","coordinates":[[[-72.7945123309999,-36.130568307101],[-72.7940820019999,-36.1315377241011],[-72.795501279,-36.1320525381011],[-72.7959309839999,-36.1310706741011],[-72.7950473729999,-36.1307521101011],[-72.7948721669999,-36.1310032851011],[-72.794949029,-36.1307236891011],[-72.7945123309999,-36.130568307101]]]}},{"type":"Feature","properties":{"id":"16202021001012","commune":"Cobquecura","code":"16202","gse":"C3","quintil":"Q3","nse_score":698.1,"educ":13.3,"educ_score":686.7,"hacin":1.5,"hacin_class":"Hacinamiento Medio","hacin_score":744.7,"auto_score":200.0,"n_per":15,"n_hog":5,"source_year":2024,"crime_score":0.0515,"crime_nivel":"Bajo","crime_color":"#cddc39"},"geometry":{"type":"Polygon","coordinates":[[[-72.7919360249999,-36.1314952521011],[-72.7921960179999,-36.1309321301011],[-72.7916295109999,-36.1307453241011],[-72.7913958369999,-36.1312918391011],[-72.7919360249999,-36.1314952521011]]]}},{"type":"Feature","properties":{"id":"16202021001013","commune":"Cobquecura","code":"16202","gse":"C2","quintil":"Q3","nse_score":706.6,"educ":13.2,"educ_score":680.0,"hacin":1.1,"hacin_class":"Hacinamiento Leve","hacin_score":829.8,"auto_score":0.0,"n_per":11,"n_hog":7,"source_year":2024,"crime_score":0.0512,"crime_nivel":"Bajo","crime_color":"#cddc39"},"geometry":{"type":"Polygon","coordinates":[[[-72.7898375349999,-36.1314670191011],[-72.7911003219999,-36.131823615101],[-72.7913001049999,-36.1313246451011],[-72.7901685059999,-36.1309347351011],[-72.7898375349999,-36.1314670191011]]]}},{"type":"Feature","properties":{"id":"16202021001014","commune":"Cobquecura","code":"16202","gse":"C2","quintil":"Q4","nse_score":722.4,"educ":12.7,"educ_score":646.7,"hacin":1.182,"hacin_class":"Hacinamiento Leve","hacin_score":812.4,"auto_score":0.0,"n_per":13,"n_hog":5,"source_year":2024,"crime_score":0.0508,"crime_nivel":"Bajo","crime_color":"#cddc39"},"geometry":{"type":"Polygon","coordinates":[[[-72.7929147019999,-36.1318575631011],[-72.7932081619999,-36.1312961241011],[-72.7922709999999,-36.1309562371011],[-72.7920261489999,-36.131525853101],[-72.7929147019999,-36.1318575631011]]]}},{"type":"Feature","properties":{"id":"16202021001015","commune":"Cobquecura","code":"16202","gse":"C2","quintil":"Q4","nse_score":739.8,"educ":13.2,"educ_score":680.0,"hacin":1.0,"hacin_class":"Hacinamiento Leve","hacin_score":851.1,"auto_score":62.5,"n_per":22,"n_hog":8,"source_year":2024,"crime_score":0.0505,"crime_nivel":"Bajo","crime_color":"#cddc39"},"geometry":{"type":"Polygon","coordinates":[[[-72.7936746419999,-36.1321311521011],[-72.793973262,-36.1315734001011],[-72.7932779349999,-36.1313181921011],[-72.7930335839999,-36.1318872371011],[-72.7936746419999,-36.1321311521011]]]}},{"type":"Feature","properties":{"id":"16202021001018","commune":"Cobquecura","code":"16202","gse":"C3","quintil":"Q3","nse_score":698.3,"educ":12.0,"educ_score":600.0,"hacin":0.692,"hacin_class":"Sin Hacinamiento","hacin_score":916.5,"auto_score":166.7,"n_per":9,"n_hog":6,"source_year":2024,"crime_score":0.0514,"crime_nivel":"Bajo","crime_color":"#cddc39"},"geometry":{"type":"Polygon","coordinates":[[[-72.7951798039999,-36.1326743571011],[-72.7954673869999,-36.1321171731011],[-72.7940327509999,-36.1316036301011],[-72.7937757049999,-36.132164479101],[-72.7951798039999,-36.1326743571011]]]}},{"type":"Feature","properties":{"id":"16202021001019","commune":"Cobquecura","code":"16202","gse":"C2","quintil":"Q4","nse_score":752.3,"educ":13.8,"educ_score":720.0,"hacin":0.938,"hacin_class":"Sin Hacinamiento","hacin_score":864.4,"auto_score":125.0,"n_per":45,"n_hog":22,"source_year":2024,"crime_score":0.0507,"crime_nivel":"Bajo","crime_color":"#cddc39"},"geometry":{"type":"Polygon","coordinates":[[[-72.7973576519999,-36.1319879041011],[-72.7971506229999,-36.132657699101],[-72.7985777929999,-36.1329009291011],[-72.7971477329999,-36.1326957911011],[-72.7968815589999,-36.1332864261011],[-72.7998209439999,-36.134344377101],[-72.799915929,-36.134066470101],[-72.7992407399999,-36.1338413681011],[-72.7995536199999,-36.1331743791011],[-72.7987645429999,-36.1331079761011],[-72.7989044589999,-36.132685870101],[-72.7977661899999,-36.1325151211011],[-72.7978154539999,-36.1323180841011],[-72.7975631219999,-36.1323260961011],[-72.7976241669999,-36.1318570971011],[-72.7973576519999,-36.1319879041011]]]}},{"type":"Feature","properties":{"id":"16202021001021","commune":"Cobquecura","code":"16202","gse":"C2","quintil":"Q3","nse_score":711.8,"educ":12.4,"educ_score":626.7,"hacin":0.909,"hacin_class":"Sin Hacinamiento","hacin_score":870.4,"auto_score":100.0,"n_per":10,"n_hog":5,"source_year":2024,"crime_score":0.051,"crime_nivel":"Bajo","crime_color":"#cddc39"},"geometry":{"type":"Polygon","coordinates":[[[-72.7934937919999,-36.1325358881011],[-72.7936856229999,-36.1321836011011],[-72.7929967739999,-36.1319533721011],[-72.7928434039999,-36.1323343351011],[-72.7934937919999,-36.1325358881011]]]}},{"type":"Feature","properties":{"id":"16202021001024","commune":"Cobquecura","code":"16202","gse":"C1","quintil":"Q5","nse_score":773.4,"educ":14.0,"educ_score":733.3,"hacin":0.96,"hacin_class":"Sin Hacinamiento","hacin_score":859.6,"auto_score":222.2,"n_per":24,"n_hog":9,"source_year":2024,"crime_score":0.0496,"crime_nivel":"Bajo","crime_color":"#cddc39"},"geometry":{"type":"Polygon","coordinates":[[[-72.7946666619999,-36.1337622821011],[-72.7951827969999,-36.1327385061011],[-72.7937598779999,-36.132216629101],[-72.7935932609999,-36.1325577261011],[-72.7946666619999,-36.1337622821011]]]}},{"type":"Feature","properties":{"id":"16202021001028","commune":"Cobquecura","code":"16202","gse":"C2","quintil":"Q3","nse_score":709.5,"educ":12.4,"educ_score":626.7,"hacin":1.196,"hacin_class":"Hacinamiento Leve","hacin_score":809.4,"auto_score":40.0,"n_per":55,"n_hog":25,"source_year":2024,"crime_score":0.0522,"crime_nivel":"Bajo","crime_color":"#cddc39"},"geometry":{"type":"Polygon","coordinates":[[[-72.7935853099999,-36.1326535281011],[-72.7933442299999,-36.133256412101],[-72.7936227779999,-36.133050951101],[-72.7936977749999,-36.1330747371011],[-72.7936904119999,-36.133137176101],[-72.7934339639999,-36.1334115341011],[-72.7937198609999,-36.1336073631011],[-72.7936725979999,-36.1338845001011],[-72.793407709,-36.1343192251011],[-72.7936973429999,-36.1336452681011],[-72.7933998949999,-36.1334093041011],[-72.7936357389999,-36.1330764421011],[-72.7934293819999,-36.1332623271011],[-72.7932696749999,-36.133301697101],[-72.7931500089999,-36.133782502101],[-72.7934793199999,-36.1336395431011],[-72.7935066989999,-36.1337848041011],[-72.7929602929999,-36.1345547431011],[-72.7925849719999,-36.134630873101],[-72.79322393,-36.135231579101],[-72.793972644,-36.135637116101],[-72.7936056209999,-36.137745069101],[-72.7936950049999,-36.137745094101],[-72.7947898239999,-36.137540287101],[-72.7952037389999,-36.137244264101],[-72.7954732419999,-36.136581618101],[-72.7949200399999,-36.1364973761011],[-72.7952297489999,-36.134785303101],[-72.794589002,-36.134610922101],[-72.794451481,-36.1344522961011],[-72.7952368709999,-36.1347523811011],[-72.7954923479999,-36.134254119101],[-72.7947529589999,-36.1339468321011],[-72.7935853099999,-36.1326535281011]]]}},{"type":"Feature","properties":{"id":"16202021001029","commune":"Cobquecura","code":"16202","gse":"D","quintil":"Q1","nse_score":627.1,"educ":9.5,"educ_score":433.3,"hacin":1.238,"hacin_class":"Hacinamiento Leve","hacin_score":800.4,"auto_score":295.5,"n_per":52,"n_hog":23,"source_year":2024,"crime_score":0.0546,"crime_nivel":"Bajo","crime_color":"#cddc39"},"geometry":{"type":"Polygon","coordinates":[[[-72.8019124889999,-36.134786649101],[-72.8031145499999,-36.1347921121011],[-72.8035288469999,-36.133327975101],[-72.8026437419999,-36.1332133621011],[-72.8034856709999,-36.1332733911011],[-72.8035686729999,-36.1330568551011],[-72.8026645989999,-36.1329340771011],[-72.8035282309999,-36.133001737101],[-72.8035984979999,-36.1327643071011],[-72.8025375689999,-36.1326722571011],[-72.8026210929999,-36.1333832271011],[-72.8019124889999,-36.134786649101]]]}},{"type":"Feature","properties":{"id":"16202021001030","commune":"Cobquecura","code":"16202","gse":"C2","quintil":"Q4","nse_score":722.6,"educ":12.1,"educ_score":606.7,"hacin":1.3,"hacin_class":"Hacinamiento Leve","hacin_score":787.2,"auto_score":187.5,"n_per":39,"n_hog":16,"source_year":2024,"crime_score":0.0514,"crime_nivel":"Bajo","crime_color":"#cddc39"},"geometry":{"type":"Polygon","coordinates":[[[-72.7921961699999,-36.133558260101],[-72.7924735729999,-36.1330063361011],[-72.7915219319999,-36.1327382331011],[-72.7912846289999,-36.1332943911011],[-72.7921961699999,-36.133558260101]]]}},{"type":"Feature","properties":{"id":"16202021001031","commune":"Cobquecura","code":"16202","gse":"C3","quintil":"Q2","nse_score":672.9,"educ":11.3,"educ_score":553.3,"hacin":1.059,"hacin_class":"Hacinamiento Leve","hacin_score":838.5,"auto_score":100.0,"n_per":36,"n_hog":14,"source_year":2024,"crime_score":0.0528,"crime_nivel":"Bajo","crime_color":"#cddc39"},"geometry":{"type":"Polygon","coordinates":[[[-72.7954959469999,-36.1341939751011],[-72.7961420369999,-36.1330778061011],[-72.7952618229999,-36.1327551111011],[-72.7947315159999,-36.133823298101],[-72.7954959469999,-36.1341939751011]]]}},{"type":"Feature","properties":{"id":"16202021001033","commune":"Cobquecura","code":"16202","gse":"E","quintil":"Q1","nse_score":608.2,"educ":10.4,"educ_score":493.3,"hacin":1.5,"hacin_class":"Hacinamiento Medio","hacin_score":744.7,"auto_score":62.5,"n_per":24,"n_hog":10,"source_year":2024,"crime_score":0.0544,"crime_nivel":"Bajo","crime_color":"#cddc39"},"geometry":{"type":"Polygon","coordinates":[[[-72.7963156609999,-36.1344374761011],[-72.7967953149999,-36.1333306701011],[-72.7961981109999,-36.1330932111011],[-72.7955929429999,-36.134201588101],[-72.7963156609999,-36.1344374761011]]]}},{"type":"Feature","properties":{"id":"16202021001034","commune":"Cobquecura","code":"16202","gse":"C3","quintil":"Q2","nse_score":662.1,"educ":12.1,"educ_score":606.7,"hacin":1.29,"hacin_class":"Hacinamiento Leve","hacin_score":789.3,"auto_score":130.4,"n_per":40,"n_hog":19,"source_year":2024,"crime_score":0.0532,"crime_nivel":"Bajo","crime_color":"#cddc39"},"geometry":{"type":"Polygon","coordinates":[[[-72.7964249709999,-36.134432884101],[-72.7972827869999,-36.134718255101],[-72.7980047469999,-36.1353755901011],[-72.7985490599999,-36.1347610121011],[-72.7977442489999,-36.134440149101],[-72.798587531,-36.1346980161011],[-72.7991061699999,-36.1341411431011],[-72.796863975,-36.133341256101],[-72.7964249709999,-36.134432884101]]]}},{"type":"Feature","properties":{"id":"16202021001036","commune":"Cobquecura","code":"16202","gse":"C2","quintil":"Q4","nse_score":715.7,"educ":12.6,"educ_score":640.0,"hacin":1.292,"hacin_class":"Hacinamiento Leve","hacin_score":788.9,"auto_score":205.1,"n_per":84,"n_hog":39,"source_year":2024,"crime_score":0.0528,"crime_nivel":"Bajo","crime_color":"#cddc39"},"geometry":{"type":"Polygon","coordinates":[[[-72.7954892689999,-36.136520290101],[-72.7963043809999,-36.1345140991011],[-72.7955736599999,-36.1342746511011],[-72.7953056799999,-36.134730031101],[-72.7949916399999,-36.136505687101],[-72.7954892689999,-36.136520290101]]]}},{"type":"Feature","properties":{"id":"16202021001037","commune":"Cobquecura","code":"16202","gse":"D","quintil":"Q2","nse_score":640.9,"educ":11.6,"educ_score":573.3,"hacin":1.245,"hacin_class":"Hacinamiento Leve","hacin_score":799.0,"auto_score":156.2,"n_per":61,"n_hog":25,"source_year":2024,"crime_score":0.0544,"crime_nivel":"Bajo","crime_color":"#cddc39"},"geometry":{"type":"Polygon","coordinates":[[[-72.7968473279999,-36.135749977101],[-72.7965561359999,-36.135678794101],[-72.7964541549999,-36.136097153101],[-72.7966070589999,-36.1362959241011],[-72.7977942519999,-36.136279793101],[-72.7980680929999,-36.136081699101],[-72.7986361019999,-36.136065789101],[-72.7980314659999,-36.135528289101],[-72.7976532479999,-36.136000232101],[-72.7975302929999,-36.136083218101],[-72.7978035459999,-36.135753383101],[-72.797746291,-36.135233713101],[-72.7972353619999,-36.134753120101],[-72.7964067219999,-36.1345203381011],[-72.7961610099999,-36.135101389101],[-72.7969694159999,-36.135430441101],[-72.7968473279999,-36.135749977101]]]}},{"type":"Feature","properties":{"id":"16202021001039","commune":"Cobquecura","code":"16202","gse":"C3","quintil":"Q2","nse_score":662.1,"educ":10.5,"educ_score":500.0,"hacin":1.417,"hacin_class":"Hacinamiento Leve","hacin_score":762.4,"auto_score":0.0,"n_per":17,"n_hog":6,"source_year":2024,"crime_score":0.0526,"crime_nivel":"Bajo","crime_color":"#cddc39"},"geometry":{"type":"Polygon","coordinates":[[[-72.800279068,-36.1352801191011],[-72.8021873789999,-36.135297504101],[-72.8022009859999,-36.135514599101],[-72.8030920299999,-36.135513980101],[-72.8030414079999,-36.135329262101],[-72.8023632849999,-36.1352843171011],[-72.8030602239999,-36.1352947551011],[-72.8031176189999,-36.1350272391011],[-72.803014705,-36.134930404101],[-72.8005591489999,-36.134709860101],[-72.800279068,-36.1352801191011]]]}},{"type":"Feature","properties":{"id":"16202021001040","commune":"Cobquecura","code":"16202","gse":"E","quintil":"Q1","nse_score":603.4,"educ":9.8,"educ_score":453.3,"hacin":1.222,"hacin_class":"Hacinamiento Leve","hacin_score":803.8,"auto_score":0.0,"n_per":44,"n_hog":21,"source_year":2024,"crime_score":0.055,"crime_nivel":"Bajo","crime_color":"#cddc39"},"geometry":{"type":"Polygon","coordinates":[[[-72.7952986889999,-36.137339017101],[-72.7956371069999,-36.137187877101],[-72.7958957479999,-36.136651192101],[-72.7965512639999,-36.136317284101],[-72.7963976529999,-36.136019727101],[-72.7966182919999,-36.1353100901011],[-72.796147028,-36.1351356211011],[-72.7952986889999,-36.137339017101]]]}},{"type":"Feature","properties":{"id":"16202021001042","commune":"Cobquecura","code":"16202","gse":"E","quintil":"Q1","nse_score":595.4,"educ":10.7,"educ_score":513.3,"hacin":1.5,"hacin_class":"Hacinamiento Medio","hacin_score":744.7,"auto_score":250.0,"n_per":12,"n_hog":5,"source_year":2024,"crime_score":0.0544,"crime_nivel":"Bajo","crime_color":"#cddc39"},"geometry":{"type":"Polygon","coordinates":[[[-72.7965991589999,-36.1356450641011],[-72.7968348089999,-36.135705720101],[-72.7969419429999,-36.1354666651011],[-72.7966847969999,-36.1353658141011],[-72.7965991589999,-36.1356450641011]]]}},{"type":"Feature","properties":{"id":"16202021001043","commune":"Cobquecura","code":"16202","gse":"C2","quintil":"Q4","nse_score":715.4,"educ":13.2,"educ_score":680.0,"hacin":1.188,"hacin_class":"Hacinamiento Leve","hacin_score":811.2,"auto_score":62.5,"n_per":19,"n_hog":8,"source_year":2024,"crime_score":0.0511,"crime_nivel":"Bajo","crime_color":"#cddc39"},"geometry":{"type":"Polygon","coordinates":[[[-72.7993756639999,-36.136207564101],[-72.7990190209999,-36.136043342101],[-72.7987271109999,-36.136108694101],[-72.7988043549999,-36.136468045101],[-72.7991427329999,-36.136412820101],[-72.7988103399999,-36.1365419571011],[-72.7989078779999,-36.137072002101],[-72.7992605659999,-36.137630097101],[-72.7999932389999,-36.138269757101],[-72.8002488649999,-36.138688576101],[-72.8006326989999,-36.138895927101],[-72.8006998189999,-36.139135808101],[-72.8008886739999,-36.139168020101],[-72.8009481229999,-36.138736762101],[-72.8012734999999,-36.138053353101],[-72.8010959519999,-36.137795029101],[-72.8004949299999,-36.137500940101],[-72.8004960369999,-36.137267264101],[-72.8020302149999,-36.137213322101],[-72.8021690259999,-36.137033824101],[-72.8019083309999,-36.136848613101],[-72.8013325809999,-36.136827653101],[-72.8006213719999,-36.136537038101],[-72.8005147659999,-36.136226971101],[-72.8006563889999,-36.135893158101],[-72.8003303839999,-36.135709200101],[-72.8001793079999,-36.135460388101],[-72.799828122,-36.1359120051011],[-72.7993756639999,-36.136207564101]]]}},{"type":"Feature","properties":{"id":"16202021001045","commune":"Cobquecura","code":"16202","gse":"D","quintil":"Q2","nse_score":650.7,"educ":11.2,"educ_score":546.7,"hacin":1.522,"hacin_class":"Hacinamiento Medio","hacin_score":740.1,"auto_score":12.5,"n_per":105,"n_hog":39,"source_year":2024,"crime_score":0.0553,"crime_nivel":"Bajo","crime_color":"#cddc39"},"geometry":{"type":"Polygon","coordinates":[[[-72.7966737209999,-36.136311906101],[-72.7976065499999,-36.136436732101],[-72.7976644759999,-36.136899646101],[-72.7972029599999,-36.136915434101],[-72.7970988959999,-36.137149963101],[-72.7971421119999,-36.136787210101],[-72.7968131249999,-36.136744850101],[-72.7961375499999,-36.137318706101],[-72.7959389099999,-36.137270315101],[-72.7960370989999,-36.136692788101],[-72.7965803029999,-36.1363468641011],[-72.7958888429999,-36.136700688101],[-72.795494732,-36.137329433101],[-72.7957398209999,-36.137399938101],[-72.795701,-36.137515004101],[-72.7961396139999,-36.137615506101],[-72.7968503019999,-36.136886384101],[-72.7968702149999,-36.137299105101],[-72.7971999559999,-36.137335836101],[-72.7972445039999,-36.137162787101],[-72.7977070199999,-36.137100902101],[-72.7979383559999,-36.136815592101],[-72.7978464889999,-36.136291535101],[-72.7966737209999,-36.136311906101]]]}},{"type":"Feature","properties":{"id":"16202021001046","commune":"Cobquecura","code":"16202","gse":"C3","quintil":"Q2","nse_score":677.2,"educ":11.2,"educ_score":546.7,"hacin":1.282,"hacin_class":"Hacinamiento Leve","hacin_score":791.1,"auto_score":227.3,"n_per":91,"n_hog":33,"source_year":2024,"crime_score":0.0541,"crime_nivel":"Bajo","crime_color":"#cddc39"},"geometry":{"type":"Polygon","coordinates":[[[-72.7972075239999,-36.136463546101],[-72.7967260369999,-36.136364225101],[-72.7961170479999,-36.136683147101],[-72.7959553429999,-36.137219575101],[-72.7961101789999,-36.137277544101],[-72.79673607,-36.136725686101],[-72.7971535679999,-36.136720099101],[-72.7972075239999,-36.136463546101]]]}},{"type":"Feature","properties":{"id":"16202021001047","commune":"Cobquecura","code":"16202","gse":"C3","quintil":"Q2","nse_score":664.7,"educ":10.9,"educ_score":526.7,"hacin":1.333,"hacin_class":"Hacinamiento Leve","hacin_score":780.1,"auto_score":0.0,"n_per":32,"n_hog":10,"source_year":2024,"crime_score":0.0529,"crime_nivel":"Bajo","crime_color":"#cddc39"},"geometry":{"type":"Polygon","coordinates":[[[-72.7975919959999,-36.136898055101],[-72.7975555019999,-36.136474678101],[-72.7972743689999,-36.136446416101],[-72.7972116419999,-36.136851749101],[-72.7975919959999,-36.136898055101]]]}},{"type":"Feature","properties":{"id":"16202021001017","commune":"Cobquecura","code":"16202","gse":"C2","quintil":"Q4","nse_score":740.0,"educ":14.3,"educ_score":753.3,"hacin":1.0,"hacin_class":"Hacinamiento Leve","hacin_score":851.1,"auto_score":83.3,"n_per":8,"n_hog":6,"source_year":2024,"crime_score":0.0502,"crime_nivel":"Bajo","crime_color":"#cddc39"},"geometry":{"type":"MultiPolygon","coordinates":[[[[-72.7931818559999,-36.1331584591011],[-72.7934901209999,-36.1325985551011],[-72.7928045769999,-36.1324041241011],[-72.7925743429999,-36.132964687101],[-72.7931818559999,-36.1331584591011]]],[[[-72.7927467789999,-36.1323220651011],[-72.7929366339999,-36.1319122531011],[-72.7919861189999,-36.1315872671011],[-72.7918174739999,-36.1320517551011],[-72.7927467789999,-36.1323220651011]]]]}},{"type":"Feature","properties":{"id":"16202021001023","commune":"Cobquecura","code":"16202","gse":"C3","quintil":"Q3","nse_score":693.2,"educ":11.2,"educ_score":546.7,"hacin":0.923,"hacin_class":"Sin Hacinamiento","hacin_score":867.4,"auto_score":71.4,"n_per":12,"n_hog":7,"source_year":2024,"crime_score":0.0516,"crime_nivel":"Bajo","crime_color":"#cddc39"},"geometry":{"type":"MultiPolygon","coordinates":[[[[-72.796786402,-36.1332555341011],[-72.7970351639999,-36.1326820961011],[-72.7965208869999,-36.1325102591011],[-72.7962251729999,-36.1330502021011],[-72.796786402,-36.1332555341011]]],[[[-72.7961516619999,-36.1330247651011],[-72.7964656499999,-36.1324820501011],[-72.7955352419999,-36.1321564911011],[-72.7952710129999,-36.132700508101],[-72.7961516619999,-36.1330247651011]]]]}},{"type":"Feature","properties":{"id":"16202021001022","commune":"Cobquecura","code":"16202","gse":"C2","quintil":"Q4","nse_score":724.7,"educ":12.1,"educ_score":606.7,"hacin":1.294,"hacin_class":"Hacinamiento Leve","hacin_score":788.5,"auto_score":136.4,"n_per":22,"n_hog":11,"source_year":2024,"crime_score":0.051,"crime_nivel":"Bajo","crime_color":"#cddc39"},"geometry":{"type":"MultiPolygon","coordinates":[[[[-72.7911665419999,-36.1332704601011],[-72.7914575049999,-36.132713349101],[-72.7908689699999,-36.1325432271011],[-72.7906205789999,-36.1331018971011],[-72.7911665419999,-36.1332704601011]]],[[[-72.7924741819999,-36.132937154101],[-72.7927400299999,-36.1323835111011],[-72.7917766249999,-36.1321252931011],[-72.7915515849999,-36.1326711901011],[-72.7924741819999,-36.132937154101]]]]}},{"type":"Feature","properties":{"id":"16202021001035","commune":"Cobquecura","code":"16202","gse":"C2","quintil":"Q4","nse_score":748.9,"educ":12.4,"educ_score":626.7,"hacin":0.955,"hacin_class":"Sin Hacinamiento","hacin_score":860.7,"auto_score":300.0,"n_per":21,"n_hog":9,"source_year":2024,"crime_score":0.0502,"crime_nivel":"Bajo","crime_color":"#cddc39"},"geometry":{"type":"MultiPolygon","coordinates":[[[[-72.7980233519999,-36.136124133101],[-72.7982842279999,-36.137368709101],[-72.7986342279999,-36.137922540101],[-72.7994318469999,-36.138639153101],[-72.7996554379999,-36.139051935101],[-72.8006337239999,-36.139124210101],[-72.8005663739999,-36.138907541101],[-72.8002103509999,-36.138740545101],[-72.8000025969999,-36.138381946101],[-72.7991996809999,-36.137674566101],[-72.7988211779999,-36.137006803101],[-72.7986489049999,-36.136992457101],[-72.7982147029999,-36.136851490101],[-72.7988036079999,-36.136931732101],[-72.7986610599999,-36.1360951231011],[-72.7980233519999,-36.136124133101]]],[[[-72.7981121619999,-36.135487282101],[-72.798526352,-36.135826734101],[-72.7992234269999,-36.135540910101],[-72.7985608159999,-36.135917021101],[-72.7987078809999,-36.136075561101],[-72.7990264279999,-36.136016643101],[-72.799455238,-36.136156602101],[-72.8001763509999,-36.135430076101],[-72.8005011449999,-36.1346786491011],[-72.7991922189999,-36.1341627941011],[-72.7981121619999,-36.135487282101]]]]}},{"type":"Feature","properties":{"id":"16202013002001","commune":"Cobquecura","code":"16202","gse":"C3","quintil":"Q2","nse_score":671.5,"educ":13.0,"educ_score":666.7,"hacin":1.4,"hacin_class":"Hacinamiento Leve","hacin_score":766.0,"auto_score":0.0,"n_per":7,"n_hog":4,"source_year":2024,"crime_score":0.0521,"crime_nivel":"Bajo","crime_color":"#cddc39"},"geometry":{"type":"Polygon","coordinates":[[[-72.7837313309999,-36.0587858211018],[-72.7836391929999,-36.0600183171018],[-72.7838652949999,-36.0608022791018],[-72.7831366009999,-36.0612157511018],[-72.7830182579999,-36.0619138751018],[-72.7847375379999,-36.0611719921017],[-72.7850421309999,-36.0604130431018],[-72.7850480739999,-36.0605415331018],[-72.7857892519999,-36.0604487221018],[-72.785526376,-36.0603687761018],[-72.7852007549999,-36.0601307951018],[-72.7855666879999,-36.0603442121018],[-72.7853844289999,-36.0600367151018],[-72.7854927659999,-36.0598219951018],[-72.7845804239999,-36.0595508581018],[-72.7843143859999,-36.0588513541018],[-72.7837313309999,-36.0587858211018]]]}},{"type":"Feature","properties":{"id":"16202013002002","commune":"Cobquecura","code":"16202","gse":"D","quintil":"Q1","nse_score":610.6,"educ":9.9,"educ_score":460.0,"hacin":1.45,"hacin_class":"Hacinamiento Leve","hacin_score":755.3,"auto_score":62.5,"n_per":29,"n_hog":8,"source_year":2024,"crime_score":0.0544,"crime_nivel":"Bajo","crime_color":"#cddc39"},"geometry":{"type":"Polygon","coordinates":[[[-72.7826107769999,-36.0599073071018],[-72.7817101459999,-36.0601604761018],[-72.7819854789999,-36.0606142091018],[-72.7820349599999,-36.0611778451017],[-72.7822065379999,-36.0614405791018],[-72.782142829,-36.0616534981018],[-72.7815404829999,-36.0622096341018],[-72.7810830039999,-36.0623240011017],[-72.7804600719999,-36.0628045081018],[-72.7801666039999,-36.0637341611018],[-72.780294437,-36.0645396861017],[-72.7798631759999,-36.0654036731017],[-72.7804111049999,-36.0652868691017],[-72.7808209269999,-36.0645529121018],[-72.7807038129999,-36.0637300181018],[-72.7809049849999,-36.0630353241018],[-72.7813267139999,-36.0627068091018],[-72.7826024109999,-36.0622897781017],[-72.7829346449999,-36.0619481021017],[-72.7831078249999,-36.0613778021018],[-72.7828373949999,-36.0609471791018],[-72.7828305349999,-36.0605428781017],[-72.7829284109999,-36.0609615411018],[-72.7831160129999,-36.0611782601018],[-72.7838095099999,-36.0607589201018],[-72.7835798829999,-36.0600699251018],[-72.7836003619999,-36.0597686961018],[-72.7829950809999,-36.0596525281018],[-72.7826107769999,-36.0599073071018]]]}},{"type":"Feature","properties":{"id":"16202013002003","commune":"Cobquecura","code":"16202","gse":"E","quintil":"Q1","nse_score":570.0,"educ":9.7,"educ_score":446.7,"hacin":1.403,"hacin_class":"Hacinamiento Leve","hacin_score":765.2,"auto_score":14.7,"n_per":80,"n_hog":30,"source_year":2024,"crime_score":0.057,"crime_nivel":"Bajo","crime_color":"#cddc39"},"geometry":{"type":"Polygon","coordinates":[[[-72.7819327509999,-36.0670395571017],[-72.7819609049999,-36.0661131081018],[-72.7824407259999,-36.0652366671018],[-72.7826444659999,-36.0645550931018],[-72.7824888679999,-36.0635652811018],[-72.7835035509999,-36.0631253791017],[-72.78383378,-36.0628355321018],[-72.7846104489999,-36.0612769591018],[-72.7829716629999,-36.0620136811018],[-72.7827478209999,-36.0622469821017],[-72.7828346809999,-36.0624971211017],[-72.7827102319999,-36.0622835401018],[-72.782438898,-36.0624281061017],[-72.7826848429999,-36.0628050671018],[-72.7826689729999,-36.0630680401018],[-72.7823997629999,-36.0624452871018],[-72.7814666479999,-36.0627187131018],[-72.7809068839999,-36.0631997541018],[-72.7807711159999,-36.0637303661018],[-72.7808367199999,-36.0640369771018],[-72.7811333319999,-36.0639476471018],[-72.7811948699999,-36.0639847391017],[-72.7813487729999,-36.0643389571018],[-72.7815935719999,-36.0651126361017],[-72.7811757839999,-36.0639944491018],[-72.7808407489999,-36.0640558041018],[-72.7809066319999,-36.0644555981018],[-72.7807607509999,-36.0648731481017],[-72.7809950479999,-36.0648524171017],[-72.7810191819999,-36.0650198601017],[-72.7809785959999,-36.0648697171018],[-72.7807523819999,-36.0648921161018],[-72.7802799599999,-36.0658179441017],[-72.7816745,-36.0656503241017],[-72.7802532069999,-36.0658640031017],[-72.7801811389999,-36.0676292501017],[-72.7810605569999,-36.0674358621017],[-72.7819327509999,-36.0670395571017]]]}},{"type":"Feature","properties":{"id":"16202013002004","commune":"Cobquecura","code":"16202","gse":"E","quintil":"Q1","nse_score":606.1,"educ":8.6,"educ_score":373.3,"hacin":1.036,"hacin_class":"Hacinamiento Leve","hacin_score":843.5,"auto_score":0.0,"n_per":58,"n_hog":27,"source_year":2024,"crime_score":0.0553,"crime_nivel":"Bajo","crime_color":"#cddc39"},"geometry":{"type":"Polygon","coordinates":[[[-72.7821645129999,-36.0687106281017],[-72.7823515199999,-36.0692616741017],[-72.7828813779999,-36.0691540531017],[-72.7826847669999,-36.0682111961017],[-72.7832252499999,-36.0681096631017],[-72.7831584159999,-36.0678041921017],[-72.7824295049999,-36.0668530591017],[-72.7810831329999,-36.0674780571017],[-72.7801813439999,-36.0676948001017],[-72.7802020369999,-36.0682185921017],[-72.7807211539999,-36.0681079361017],[-72.7801965319999,-36.0682569071017],[-72.7801972489999,-36.0688540371017],[-72.7806306839999,-36.0688415931017],[-72.7801992449999,-36.0688956911017],[-72.7801916099999,-36.0691653071017],[-72.7807981719999,-36.0690279641017],[-72.7801876289999,-36.0692047661017],[-72.7801624459999,-36.0696596831017],[-72.7808438769999,-36.0695527101017],[-72.7801555329999,-36.0696992351017],[-72.7801356099999,-36.0700800871017],[-72.7812961589999,-36.0699504751017],[-72.7801315599999,-36.0701272961017],[-72.7801092049999,-36.0704941601017],[-72.7820880349999,-36.0702160001017],[-72.7820635489999,-36.0700292931017],[-72.7822749779999,-36.0706651671017],[-72.7826499429999,-36.0706177881017],[-72.7828131199999,-36.0703535611017],[-72.7822561079999,-36.0693364671017],[-72.7821645129999,-36.0687106281017]]]}},{"type":"Feature","properties":{"id":"16202013002005","commune":"Cobquecura","code":"16202","gse":"E","quintil":"Q1","nse_score":596.8,"educ":10.4,"educ_score":493.3,"hacin":1.875,"hacin_class":"Hacinamiento Medio","hacin_score":664.9,"auto_score":0.0,"n_per":15,"n_hog":4,"source_year":2024,"crime_score":0.0544,"crime_nivel":"Bajo","crime_color":"#cddc39"},"geometry":{"type":"Polygon","coordinates":[[[-72.7832143619999,-36.0678472451017],[-72.7833200019999,-36.0682738791017],[-72.7843203709999,-36.0680079111017],[-72.783339753,-36.0683065221017],[-72.7836055129999,-36.0692630291017],[-72.7849928179999,-36.0689279021017],[-72.7842803259999,-36.0675883851017],[-72.7832143619999,-36.0678472451017]]]}},{"type":"Feature","properties":{"id":"16202013002006","commune":"Cobquecura","code":"16202","gse":"E","quintil":"Q1","nse_score":580.0,"educ":8.9,"educ_score":393.3,"hacin":1.279,"hacin_class":"Hacinamiento Leve","hacin_score":791.7,"auto_score":18.5,"n_per":55,"n_hog":26,"source_year":2024,"crime_score":0.056,"crime_nivel":"Bajo","crime_color":"#cddc39"},"geometry":{"type":"Polygon","coordinates":[[[-72.7774618059999,-36.0720716321017],[-72.7780798599999,-36.0726864861017],[-72.7800811699999,-36.0725440921017],[-72.7801024029999,-36.0676742701017],[-72.7797075889999,-36.0677501741017],[-72.7795816669999,-36.0709915271017],[-72.7796573649999,-36.0720113721017],[-72.7774618059999,-36.0720716321017]]]}},{"type":"Feature","properties":{"id":"16202013002010","commune":"Cobquecura","code":"16202","gse":"D","quintil":"Q2","nse_score":639.4,"educ":9.4,"educ_score":426.7,"hacin":1.103,"hacin_class":"Hacinamiento Leve","hacin_score":829.2,"auto_score":0.0,"n_per":43,"n_hog":15,"source_year":2024,"crime_score":0.054,"crime_nivel":"Bajo","crime_color":"#cddc39"},"geometry":{"type":"Polygon","coordinates":[[[-72.7801094989999,-36.0705902171017],[-72.7801187679999,-36.0709789661017],[-72.7822001959999,-36.0706423311017],[-72.7820911809999,-36.0702591051017],[-72.7801094989999,-36.0705902171017]]]}},{"type":"Feature","properties":{"id":"16202013002011","commune":"Cobquecura","code":"16202","gse":"E","quintil":"Q1","nse_score":575.1,"educ":8.5,"educ_score":366.7,"hacin":1.706,"hacin_class":"Hacinamiento Medio","hacin_score":700.9,"auto_score":90.9,"n_per":29,"n_hog":13,"source_year":2024,"crime_score":0.0554,"crime_nivel":"Bajo","crime_color":"#cddc39"},"geometry":{"type":"Polygon","coordinates":[[[-72.7826536659999,-36.0707083161017],[-72.7815031289999,-36.0708904041017],[-72.7819713209999,-36.0717169041016],[-72.7823277349999,-36.0715879801017],[-72.7826536659999,-36.0707083161017]]]}},{"type":"Feature","properties":{"id":"16202013002012","commune":"Cobquecura","code":"16202","gse":"E","quintil":"Q1","nse_score":567.7,"educ":9.4,"educ_score":426.7,"hacin":1.36,"hacin_class":"Hacinamiento Leve","hacin_score":774.5,"auto_score":0.0,"n_per":34,"n_hog":14,"source_year":2024,"crime_score":0.0558,"crime_nivel":"Bajo","crime_color":"#cddc39"},"geometry":{"type":"Polygon","coordinates":[[[-72.7818512079999,-36.0721895131017],[-72.7818837319999,-36.0716884361017],[-72.7813887199999,-36.0708678551017],[-72.7807778,-36.0709734501017],[-72.7813414539999,-36.0720406481017],[-72.7818512079999,-36.0721895131017]]]}},{"type":"Feature","properties":{"id":"16202013002013","commune":"Cobquecura","code":"16202","gse":"E","quintil":"Q1","nse_score":545.9,"educ":6.8,"educ_score":253.3,"hacin":0.944,"hacin_class":"Sin Hacinamiento","hacin_score":862.9,"auto_score":71.4,"n_per":34,"n_hog":14,"source_year":2024,"crime_score":0.0564,"crime_nivel":"Bajo","crime_color":"#cddc39"},"geometry":{"type":"Polygon","coordinates":[[[-72.7812122399999,-36.0720400231017],[-72.7806735119999,-36.0710381121017],[-72.7801194839999,-36.0710572761017],[-72.7801728679999,-36.0722352951016],[-72.7812122399999,-36.0720400231017]]]}},{"type":"Feature","properties":{"id":"16202013002014","commune":"Cobquecura","code":"16202","gse":"C3","quintil":"Q2","nse_score":665.1,"educ":11.0,"educ_score":533.3,"hacin":1.417,"hacin_class":"Hacinamiento Leve","hacin_score":762.4,"auto_score":0.0,"n_per":34,"n_hog":13,"source_year":2024,"crime_score":0.053,"crime_nivel":"Bajo","crime_color":"#cddc39"},"geometry":{"type":"Polygon","coordinates":[[[-72.7751395769999,-36.0721422991017],[-72.7701433589999,-36.0740287241017],[-72.7701476439999,-36.0746655731017],[-72.7731673759999,-36.0736161671017],[-72.7749814679999,-36.0727969491017],[-72.7779475759999,-36.0726760971017],[-72.7773542079999,-36.0720695191017],[-72.7751395769999,-36.0721422991017]]]}},{"type":"Feature","properties":{"id":"16202013002015","commune":"Cobquecura","code":"16202","gse":"D","quintil":"Q2","nse_score":655.4,"educ":10.0,"educ_score":466.7,"hacin":1.417,"hacin_class":"Hacinamiento Leve","hacin_score":762.4,"auto_score":150.0,"n_per":34,"n_hog":11,"source_year":2024,"crime_score":0.0533,"crime_nivel":"Bajo","crime_color":"#cddc39"},"geometry":{"type":"Polygon","coordinates":[[[-72.7815174349999,-36.0756158261016],[-72.7818117889999,-36.0764937641016],[-72.7822443859999,-36.0764538271016],[-72.7826201429999,-36.0762075531016],[-72.7830006889999,-36.0763355751016],[-72.7811157129999,-36.0727935071017],[-72.781831758,-36.0725817841017],[-72.7816484649999,-36.0722047501016],[-72.7814358769999,-36.0721474701017],[-72.7811958779999,-36.0721455931017],[-72.7813381329999,-36.0726142281017],[-72.7811521479999,-36.0721528201017],[-72.7802371059999,-36.0723410951017],[-72.7801775849999,-36.0725889311016],[-72.7804085209999,-36.0728181781017],[-72.7815116669999,-36.0755874021016],[-72.7822446149999,-36.0754272801016],[-72.7815174349999,-36.0756158261016]]]}},{"type":"Feature","properties":{"id":"16202013002016","commune":"Cobquecura","code":"16202","gse":"ABC1","quintil":"Q5","nse_score":817.2,"educ":14.7,"educ_score":780.0,"hacin":1.263,"hacin_class":"Hacinamiento Leve","hacin_score":795.1,"auto_score":111.1,"n_per":24,"n_hog":9,"source_year":2024,"crime_score":0.0484,"crime_nivel":"Bajo","crime_color":"#cddc39"},"geometry":{"type":"Polygon","coordinates":[[[-72.7795852629999,-36.0760171761016],[-72.7797023959999,-36.0763253701016],[-72.7806462409999,-36.0762090911016],[-72.7805197129999,-36.0754263081016],[-72.781275708,-36.0752810831016],[-72.780465735,-36.0731815481016],[-72.7801071919999,-36.0726445611017],[-72.7794222729999,-36.0726856071017],[-72.7795852629999,-36.0760171761016]]]}},{"type":"Feature","properties":{"id":"16202013002017","commune":"Cobquecura","code":"16202","gse":"C3","quintil":"Q2","nse_score":672.7,"educ":11.1,"educ_score":540.0,"hacin":1.5,"hacin_class":"Hacinamiento Medio","hacin_score":744.7,"auto_score":166.7,"n_per":15,"n_hog":7,"source_year":2024,"crime_score":0.0523,"crime_nivel":"Bajo","crime_color":"#cddc39"},"geometry":{"type":"Polygon","coordinates":[[[-72.778114936,-36.0737493121017],[-72.7794148879999,-36.0736999451016],[-72.7793379939999,-36.0727124481017],[-72.7780973099999,-36.0727553751017],[-72.778114936,-36.0737493121017]]]}},{"type":"Feature","properties":{"id":"16202013002020","commune":"Cobquecura","code":"16202","gse":"C2","quintil":"Q3","nse_score":705.9,"educ":10.9,"educ_score":526.7,"hacin":1.158,"hacin_class":"Hacinamiento Leve","hacin_score":817.5,"auto_score":100.0,"n_per":22,"n_hog":10,"source_year":2024,"crime_score":0.0515,"crime_nivel":"Bajo","crime_color":"#cddc39"},"geometry":{"type":"Polygon","coordinates":[[[-72.7765747239999,-36.0727550161016],[-72.7752548129999,-36.0728016341016],[-72.7752995299999,-36.0738686211016],[-72.7766239649999,-36.0738301951016],[-72.7765747239999,-36.0727550161016]]]}},{"type":"Feature","properties":{"id":"16202013002021","commune":"Cobquecura","code":"16202","gse":"C3","quintil":"Q3","nse_score":695.8,"educ":12.8,"educ_score":653.3,"hacin":1.611,"hacin_class":"Hacinamiento Medio","hacin_score":721.0,"auto_score":272.7,"n_per":29,"n_hog":10,"source_year":2024,"crime_score":0.052,"crime_nivel":"Bajo","crime_color":"#cddc39"},"geometry":{"type":"Polygon","coordinates":[[[-72.7726517449999,-36.0738672171016],[-72.7726733719999,-36.0748084541016],[-72.7744185419999,-36.0743714441017],[-72.7744671249999,-36.0749228471016],[-72.7752290469999,-36.0748948181016],[-72.7751303819999,-36.0728769671017],[-72.7726517449999,-36.0738672171016]]]}},{"type":"Feature","properties":{"id":"16202013002024","commune":"Cobquecura","code":"16202","gse":"D","quintil":"Q1","nse_score":614.5,"educ":11.8,"educ_score":586.7,"hacin":1.4,"hacin_class":"Hacinamiento Leve","hacin_score":766.0,"auto_score":0.0,"n_per":14,"n_hog":6,"source_year":2024,"crime_score":0.0539,"crime_nivel":"Bajo","crime_color":"#cddc39"},"geometry":{"type":"Polygon","coordinates":[[[-72.7690201199999,-36.0751350141016],[-72.7686961109999,-36.0751150981016],[-72.7687278989999,-36.0758835231016],[-72.7701899339999,-36.0756765661016],[-72.770172827,-36.0753907041016],[-72.7712126159999,-36.0752629301016],[-72.7712288749999,-36.0753726711017],[-72.7726204869999,-36.0751313871016],[-72.7726121829999,-36.0738811991016],[-72.7690201199999,-36.0751350141016]]]}},{"type":"Feature","properties":{"id":"16202013002025","commune":"Cobquecura","code":"16202","gse":"C2","quintil":"Q4","nse_score":747.5,"educ":14.3,"educ_score":753.3,"hacin":1.143,"hacin_class":"Hacinamiento Leve","hacin_score":820.7,"auto_score":230.8,"n_per":24,"n_hog":12,"source_year":2024,"crime_score":0.0504,"crime_nivel":"Bajo","crime_color":"#cddc39"},"geometry":{"type":"Polygon","coordinates":[[[-72.7766050429999,-36.0739198951017],[-72.7752974399999,-36.0739770661016],[-72.7753574499999,-36.0749851181016],[-72.7766862399999,-36.0749523701016],[-72.7766050429999,-36.0739198951017]]]}},{"type":"Feature","properties":{"id":"16202013002026","commune":"Cobquecura","code":"16202","gse":"C2","quintil":"Q3","nse_score":707.5,"educ":11.2,"educ_score":546.7,"hacin":0.737,"hacin_class":"Sin Hacinamiento","hacin_score":907.1,"auto_score":0.0,"n_per":14,"n_hog":6,"source_year":2024,"crime_score":0.0512,"crime_nivel":"Bajo","crime_color":"#cddc39"},"geometry":{"type":"Polygon","coordinates":[[[-72.7782425699999,-36.0760368881016],[-72.7795022299999,-36.0759751891017],[-72.7795028079999,-36.0749464771016],[-72.7781792719999,-36.0749777911016],[-72.7782425699999,-36.0760368881016]]]}},{"type":"Feature","properties":{"id":"16202013002027","commune":"Cobquecura","code":"16202","gse":"C3","quintil":"Q3","nse_score":691.4,"educ":11.6,"educ_score":573.3,"hacin":1.286,"hacin_class":"Hacinamiento Leve","hacin_score":790.3,"auto_score":0.0,"n_per":9,"n_hog":4,"source_year":2024,"crime_score":0.0516,"crime_nivel":"Bajo","crime_color":"#cddc39"},"geometry":{"type":"Polygon","coordinates":[[[-72.7780847959999,-36.0749969161016],[-72.7767691339999,-36.0750650541016],[-72.7768207339999,-36.0760704171016],[-72.7781432969999,-36.0760453921016],[-72.7780847959999,-36.0749969161016]]]}},{"type":"Feature","properties":{"id":"16202013002028","commune":"Cobquecura","code":"16202","gse":"C2","quintil":"Q4","nse_score":747.8,"educ":13.0,"educ_score":666.7,"hacin":1.222,"hacin_class":"Hacinamiento Leve","hacin_score":803.8,"auto_score":100.0,"n_per":11,"n_hog":5,"source_year":2024,"crime_score":0.05,"crime_nivel":"Bajo","crime_color":"#cddc39"},"geometry":{"type":"Polygon","coordinates":[[[-72.7753952219999,-36.0760912861016],[-72.7767321129999,-36.0760697311016],[-72.776688008,-36.0750329721016],[-72.7753533649999,-36.0750690881017],[-72.7753952219999,-36.0760912861016]]]}},{"type":"Feature","properties":{"id":"16202013002007","commune":"Cobquecura","code":"16202","gse":"D","quintil":"Q2","nse_score":650.9,"educ":10.6,"educ_score":506.7,"hacin":1.111,"hacin_class":"Hacinamiento Leve","hacin_score":827.4,"auto_score":0.0,"n_per":10,"n_hog":5,"source_year":2024,"crime_score":0.0528,"crime_nivel":"Bajo","crime_color":"#cddc39"},"geometry":{"type":"MultiPolygon","coordinates":[[[[-72.7823355309999,-36.0693020441017],[-72.7828629079999,-36.0702582491017],[-72.78300243,-36.0700128921017],[-72.7828159279999,-36.0693653841017],[-72.7828683209999,-36.0691938271017],[-72.7823355309999,-36.0693020441017]]],[[[-72.7828826689999,-36.0693598761017],[-72.7830442009999,-36.0699206811017],[-72.7832044809999,-36.0697188001017],[-72.7836089209999,-36.0696035951017],[-72.7832368819999,-36.0681628611017],[-72.7827559799999,-36.0682405881017],[-72.782952453,-36.0689940061017],[-72.7828826689999,-36.0693598761017]]]]}},{"type":"Feature","properties":{"id":"16202013002009","commune":"Cobquecura","code":"16202","gse":"D","quintil":"Q1","nse_score":613.7,"educ":10.5,"educ_score":500.0,"hacin":1.375,"hacin_class":"Hacinamiento Leve","hacin_score":771.3,"auto_score":29.4,"n_per":33,"n_hog":15,"source_year":2024,"crime_score":0.0544,"crime_nivel":"Bajo","crime_color":"#cddc39"},"geometry":{"type":"MultiPolygon","coordinates":[[[[-72.7844394429999,-36.0727078761016],[-72.7843071439999,-36.0732096811016],[-72.7865048709999,-36.0736233441017],[-72.7876979029999,-36.0736168791016],[-72.7888315209999,-36.0731880311016],[-72.7883301239999,-36.0730532751017],[-72.7865903119999,-36.0731148871016],[-72.7844394429999,-36.0727078761016]]],[[[-72.7822983659999,-36.0716746411017],[-72.7819956369999,-36.0717713741017],[-72.7820019849999,-36.0722389271017],[-72.7841192789999,-36.0725959741017],[-72.7839737589999,-36.0716978231017],[-72.7841669089999,-36.0724115041017],[-72.7857067439999,-36.0720824141017],[-72.7841713829999,-36.0724478781017],[-72.7841609999999,-36.0726033751016],[-72.7869037629999,-36.0730632131017],[-72.7838849339999,-36.0703692561017],[-72.7836733309999,-36.0696227291017],[-72.7831614319999,-36.0698195351017],[-72.7822983659999,-36.0716746411017]]]]}},{"type":"Feature","properties":{"id":"16202013002019","commune":"Cobquecura","code":"16202","gse":"C3","quintil":"Q3","nse_score":685.4,"educ":12.9,"educ_score":660.0,"hacin":1.357,"hacin_class":"Hacinamiento Leve","hacin_score":775.1,"auto_score":277.8,"n_per":19,"n_hog":8,"source_year":2024,"crime_score":0.052,"crime_nivel":"Bajo","crime_color":"#cddc39"},"geometry":{"type":"MultiPolygon","coordinates":[[[[-72.7781471999999,-36.0748632261016],[-72.7794746299999,-36.0748567091017],[-72.7794067279999,-36.0737816281017],[-72.778119795,-36.0738508701017],[-72.7781471999999,-36.0748632261016]]],[[[-72.7766950539999,-36.0738298041017],[-72.7779764299999,-36.0737817041016],[-72.7779364539999,-36.0727509431017],[-72.7766575669999,-36.0727543781017],[-72.7766950539999,-36.0738298041017]]]]}}]}