{"type":"FeatureCollection","features":[{"type":"Feature","properties":{"id":"10103013011001","commune":"Cochamó","code":"10103","gse":"C3","quintil":"Q3","nse_score":705.0,"educ":11.8,"educ_score":586.7,"hacin":0.765,"hacin_class":"Sin Hacinamiento","hacin_score":901.1,"auto_score":285.7,"n_per":13,"n_hog":7,"source_year":2024},"geometry":{"type":"Polygon","coordinates":[[[-72.3078664749999,-41.4831949910636],[-72.3081479339999,-41.4864806430636],[-72.3090694749999,-41.4867476330636],[-72.3096037189999,-41.4867480720636],[-72.3091447399999,-41.4844912480636],[-72.3083872189999,-41.4845101130636],[-72.3091383159999,-41.4844553940636],[-72.3090004819999,-41.4832420640636],[-72.3078664749999,-41.4831949910636]]]}},{"type":"Feature","properties":{"id":"10103013011002","commune":"Cochamó","code":"10103","gse":"C2","quintil":"Q4","nse_score":760.8,"educ":12.4,"educ_score":626.7,"hacin":0.794,"hacin_class":"Sin Hacinamiento","hacin_score":894.9,"auto_score":83.3,"n_per":27,"n_hog":12,"source_year":2024},"geometry":{"type":"Polygon","coordinates":[[[-72.3090404889999,-41.4834060990636],[-72.3095352399999,-41.4861425000636],[-72.3100136309999,-41.4861023740636],[-72.3095462579999,-41.4861918410636],[-72.3097702969999,-41.4869440040636],[-72.3104445939999,-41.4868524800636],[-72.3097803299999,-41.4869892170636],[-72.3098298489999,-41.4897340060636],[-72.3102688219999,-41.4894218250636],[-72.3105992999999,-41.4889839180636],[-72.3116270559999,-41.4869969180636],[-72.3118559469999,-41.4844723220636],[-72.3103707959999,-41.4844384790636],[-72.3096084559999,-41.4833911850636],[-72.3090404889999,-41.4834060990636]]]}},{"type":"Feature","properties":{"id":"10103013011003","commune":"Cochamó","code":"10103","gse":"C3","quintil":"Q3","nse_score":711.1,"educ":11.4,"educ_score":560.0,"hacin":1.071,"hacin_class":"Hacinamiento Leve","hacin_score":835.9,"auto_score":181.8,"n_per":30,"n_hog":11,"source_year":2024},"geometry":{"type":"Polygon","coordinates":[[[-72.3070053129999,-41.4875674440636],[-72.3079921179999,-41.4878625740636],[-72.3082175309999,-41.4883191700636],[-72.3085305859999,-41.4885712070636],[-72.3097297989999,-41.4887505770636],[-72.3097341189999,-41.4885077120636],[-72.3087990869999,-41.4883858630636],[-72.3097348639999,-41.4884715440636],[-72.3097405809999,-41.4881949750636],[-72.3089314699999,-41.4879745150636],[-72.3087167039999,-41.4877441920636],[-72.3089568749999,-41.4879438510636],[-72.3097413499999,-41.4881578220636],[-72.3096205119999,-41.4867930950636],[-72.3090531329999,-41.4867911330636],[-72.3073562169999,-41.4862677010636],[-72.3070053129999,-41.4875674440636]]]}},{"type":"Feature","properties":{"id":"10103013011004","commune":"Cochamó","code":"10103","gse":"C2","quintil":"Q4","nse_score":736.1,"educ":12.2,"educ_score":613.3,"hacin":1.05,"hacin_class":"Hacinamiento Leve","hacin_score":840.4,"auto_score":161.3,"n_per":63,"n_hog":31,"source_year":2024},"geometry":{"type":"Polygon","coordinates":[[[-72.3076505069999,-41.4886345380636],[-72.3056743209999,-41.4880715620636],[-72.3052230069999,-41.4891663110636],[-72.3070284639999,-41.4899213580636],[-72.3065645319999,-41.4908373650636],[-72.3034952659999,-41.4915140940636],[-72.3042601669999,-41.4920676060635],[-72.3073555459999,-41.4914418970636],[-72.3078244749999,-41.4911484400636],[-72.3074062189999,-41.4893773390636],[-72.3071784329999,-41.4891400630636],[-72.3065689859999,-41.4889679990636],[-72.3065227229999,-41.4894086120635],[-72.3066961369999,-41.4895046080636],[-72.3064621309999,-41.4894267200636],[-72.3065094329999,-41.4889635320636],[-72.3064167929999,-41.4889565850636],[-72.306391286,-41.4886611750636],[-72.3064582649999,-41.4884905590636],[-72.3064708589999,-41.4889154210636],[-72.3072130389999,-41.4891031390636],[-72.3074634509999,-41.4893637800636],[-72.3079115499999,-41.4910828470635],[-72.3075720079999,-41.4913981510636],[-72.3080418299999,-41.4924391060636],[-72.3083314619999,-41.4923136690636],[-72.3093637539999,-41.4904905610636],[-72.3091085679999,-41.4903509090636],[-72.3085448489999,-41.4904664560636],[-72.3089486249999,-41.4903058990636],[-72.3092880979999,-41.4903431980636],[-72.3093885909999,-41.4904400310636],[-72.3097403159999,-41.4897887370635],[-72.309729118,-41.4887958090636],[-72.3084158789999,-41.4885727880636],[-72.3078484799999,-41.4878667500636],[-72.3076505069999,-41.4886345380636]]]}},{"type":"Feature","properties":{"id":"10103013011006","commune":"Cochamó","code":"10103","gse":"C3","quintil":"Q3","nse_score":707.1,"educ":12.1,"educ_score":606.7,"hacin":0.95,"hacin_class":"Sin Hacinamiento","hacin_score":861.7,"auto_score":132.4,"n_per":76,"n_hog":34,"source_year":2024},"geometry":{"type":"Polygon","coordinates":[[[-72.3134507669999,-41.4882687220636],[-72.3125548819999,-41.4882279510636],[-72.3125425859999,-41.4884228200636],[-72.311449965,-41.4892500590636],[-72.3112710579999,-41.4895103230636],[-72.311335874,-41.4896181130636],[-72.3113237829999,-41.4898191050636],[-72.3112016699999,-41.4899174760636],[-72.3112369439999,-41.4895191700636],[-72.3101961859999,-41.4895650820636],[-72.3098365849999,-41.4898011600636],[-72.3096421949999,-41.4901527400636],[-72.3112953039999,-41.4904912600636],[-72.3114950659999,-41.4899560670636],[-72.3118044669999,-41.4899685170636],[-72.3120078779999,-41.4897834130636],[-72.3118203289999,-41.4899948080636],[-72.3115204169999,-41.4899785670636],[-72.3113173129999,-41.4905170010636],[-72.3108945159999,-41.4904515320636],[-72.3109354079999,-41.4909838240636],[-72.3108342309999,-41.4911523700636],[-72.3102722079999,-41.4911066670636],[-72.3108193599999,-41.4911260620636],[-72.3108582809999,-41.4904481690636],[-72.3096264029999,-41.4901868030636],[-72.3091086549999,-41.4911830290636],[-72.3099271009999,-41.4915524740636],[-72.3090916559999,-41.4912218700636],[-72.3085536219999,-41.4922077340635],[-72.3080706909999,-41.4925078760636],[-72.3088204079999,-41.4943151880635],[-72.3116495389999,-41.4937547980636],[-72.3114007869999,-41.4932372320636],[-72.3116502409999,-41.4936912640636],[-72.3117690969999,-41.4934250450635],[-72.3123688259999,-41.4927253580635],[-72.3127986789999,-41.4923592230636],[-72.3135920099999,-41.4926582260636],[-72.3137753649999,-41.4928400490636],[-72.3137571769999,-41.4933291930636],[-72.3136574009999,-41.4932189400636],[-72.3137430519999,-41.4928526740636],[-72.3135703719999,-41.4926799930636],[-72.3128246629999,-41.4923996640636],[-72.3118210919999,-41.4934474750636],[-72.3116986909999,-41.4937902660636],[-72.3088381819999,-41.4943581900636],[-72.3090434109999,-41.4948545690635],[-72.3100481749999,-41.4947518120636],[-72.310231455,-41.4948401360636],[-72.3103258559999,-41.4950811010635],[-72.3113478689999,-41.4947540150636],[-72.3106179599999,-41.4950473430636],[-72.3107719319999,-41.4953520890635],[-72.3124450249999,-41.4945946100635],[-72.3131918349999,-41.4945310140636],[-72.3134896399999,-41.4942272600636],[-72.3147310059999,-41.4940986600636],[-72.3152513119999,-41.4937910940636],[-72.3152523359999,-41.4933858370636],[-72.3140679879999,-41.4917370420636],[-72.3140991329999,-41.4913820240636],[-72.3144273999999,-41.4911014940636],[-72.3145843819999,-41.4907629250636],[-72.3139430209999,-41.4897797670636],[-72.3134507669999,-41.4882687220636]]]}},{"type":"Feature","properties":{"id":"10103013011008","commune":"Cochamó","code":"10103","gse":"D","quintil":"Q1","nse_score":640.9,"educ":11.2,"educ_score":546.7,"hacin":1.407,"hacin_class":"Hacinamiento Leve","hacin_score":764.4,"auto_score":71.4,"n_per":38,"n_hog":14,"source_year":2024},"geometry":{"type":"Polygon","coordinates":[[[-72.2964155069999,-41.4928982900635],[-72.2969338279999,-41.4933078200635],[-72.2974774169999,-41.4939860050636],[-72.2976450049999,-41.4945477250636],[-72.2987043289999,-41.4944181310635],[-72.2983853709999,-41.4940907910636],[-72.2981986639999,-41.4935868340635],[-72.2984173569999,-41.4940781440636],[-72.2987434609999,-41.4944125890635],[-72.3016625489999,-41.4938485890636],[-72.3013788129999,-41.4933097260636],[-72.3014367909999,-41.4926561430635],[-72.3014146129999,-41.4933059760635],[-72.3016972029999,-41.4938402650636],[-72.3046258989999,-41.4931623770635],[-72.3042513419999,-41.4920938250636],[-72.3034597119999,-41.4915219340636],[-72.2991371029999,-41.4925201480636],[-72.2964155069999,-41.4928982900635]]]}},{"type":"Feature","properties":{"id":"10103013011009","commune":"Cochamó","code":"10103","gse":"C3","quintil":"Q3","nse_score":705.5,"educ":11.4,"educ_score":560.0,"hacin":0.947,"hacin_class":"Sin Hacinamiento","hacin_score":862.3,"auto_score":57.1,"n_per":72,"n_hog":35,"source_year":2024},"geometry":{"type":"Polygon","coordinates":[[[-72.3051715589999,-41.4919286660636],[-72.3054998789999,-41.4929874060636],[-72.3079857299999,-41.4924548710636],[-72.307892664,-41.4922486710635],[-72.3057599819999,-41.4925324000636],[-72.3054299169999,-41.4918299550636],[-72.3051715589999,-41.4919286660636]]]}},{"type":"Feature","properties":{"id":"10103013011010","commune":"Cochamó","code":"10103","gse":"C2","quintil":"Q4","nse_score":725.6,"educ":11.9,"educ_score":593.3,"hacin":0.875,"hacin_class":"Sin Hacinamiento","hacin_score":877.7,"auto_score":25.0,"n_per":49,"n_hog":20,"source_year":2024},"geometry":{"type":"Polygon","coordinates":[[[-72.3054261099999,-41.4930024310635],[-72.3050787739999,-41.4919240340636],[-72.3043125479999,-41.4921009180636],[-72.3046835939999,-41.4931503340636],[-72.3054261099999,-41.4930024310635]]]}},{"type":"Feature","properties":{"id":"10103013011011","commune":"Cochamó","code":"10103","gse":"D","quintil":"Q2","nse_score":664.6,"educ":11.6,"educ_score":573.3,"hacin":1.0,"hacin_class":"Hacinamiento Leve","hacin_score":851.1,"auto_score":0.0,"n_per":12,"n_hog":4,"source_year":2024},"geometry":{"type":"Polygon","coordinates":[[[-72.3052860139999,-41.4934491180636],[-72.3054922169999,-41.4937876730635],[-72.3082937719999,-41.4931950820636],[-72.3080145459999,-41.4925236540636],[-72.3047141669999,-41.4932187520636],[-72.3052860139999,-41.4934491180636]]]}},{"type":"Feature","properties":{"id":"10103013011012","commune":"Cochamó","code":"10103","gse":"C2","quintil":"Q3","nse_score":714.9,"educ":11.1,"educ_score":540.0,"hacin":0.542,"hacin_class":"Sin Hacinamiento","hacin_score":948.6,"auto_score":0.0,"n_per":13,"n_hog":7,"source_year":2024},"geometry":{"type":"Polygon","coordinates":[[[-72.2963666049999,-41.4929085850636],[-72.2932053549999,-41.4937131940636],[-72.2928196119999,-41.4938310800636],[-72.293433047,-41.4941642340635],[-72.2940014659999,-41.4954112420636],[-72.2965235369999,-41.4947584220636],[-72.2964019499999,-41.4941465050636],[-72.2960832339999,-41.4938971770636],[-72.2964344529999,-41.4941344820636],[-72.2965576779999,-41.4947494790636],[-72.2976082689999,-41.4945520310636],[-72.2972235439999,-41.4943447270636],[-72.2970746759999,-41.4940541860635],[-72.2973682409999,-41.4944156750635],[-72.2975326589999,-41.4944233240636],[-72.2974155509999,-41.4940098000636],[-72.2968254449999,-41.4932816850636],[-72.2963666049999,-41.4929085850636]]]}},{"type":"Feature","properties":{"id":"10103013011013","commune":"Cochamó","code":"10103","gse":"E","quintil":"Q1","nse_score":611.0,"educ":9.0,"educ_score":400.0,"hacin":0.843,"hacin_class":"Sin Hacinamiento","hacin_score":884.4,"auto_score":53.6,"n_per":43,"n_hog":24,"source_year":2024},"geometry":{"type":"Polygon","coordinates":[[[-72.3031071619999,-41.4935682590635],[-72.3034354319999,-41.4941144580636],[-72.3037296669999,-41.4940934140636],[-72.3040276879999,-41.4943703410635],[-72.30400384,-41.4945342620636],[-72.303764241,-41.4946134070635],[-72.3037450939999,-41.4947313450635],[-72.3041532319999,-41.4948414930636],[-72.3037102339999,-41.4947435240636],[-72.3037319149999,-41.4945999330636],[-72.303972084,-41.4945162510635],[-72.3039918859999,-41.4943792470635],[-72.3037112489999,-41.4941192020635],[-72.3034103479999,-41.4941372840635],[-72.3030722209999,-41.4935756750635],[-72.2987762079999,-41.4944812310636],[-72.2987758869999,-41.4945859100636],[-72.2991813199999,-41.4944806580636],[-72.2992881889999,-41.4945126300635],[-72.2998621539999,-41.4948537790635],[-72.3009317979999,-41.4949863500635],[-72.2998446929999,-41.4948881030636],[-72.2991828329999,-41.4945174830635],[-72.2988516769999,-41.4945835070636],[-72.2969215139999,-41.4956489640636],[-72.297078687,-41.4958846690636],[-72.2975031279999,-41.4960680060635],[-72.2987554069999,-41.4953003950636],[-72.299988401,-41.4954104220636],[-72.3003762119999,-41.4951943770636],[-72.3011527689999,-41.4951900990636],[-72.3032341599999,-41.4958198570636],[-72.3034892109999,-41.4957898160636],[-72.3037081559999,-41.4954752320635],[-72.3045976259999,-41.4950412800636],[-72.3052395189999,-41.4949436220636],[-72.305193346,-41.4946459110636],[-72.3049442499999,-41.4944459910636],[-72.3054692709999,-41.4940563120636],[-72.3052443729999,-41.4934820560636],[-72.3046562299999,-41.4932307430635],[-72.3031071619999,-41.4935682590635]]]}},{"type":"Feature","properties":{"id":"10103013011015","commune":"Cochamó","code":"10103","gse":"C3","quintil":"Q2","nse_score":668.4,"educ":9.7,"educ_score":446.7,"hacin":0.462,"hacin_class":"Sin Hacinamiento","hacin_score":965.6,"auto_score":0.0,"n_per":6,"n_hog":6,"source_year":2024},"geometry":{"type":"Polygon","coordinates":[[[-72.3078213709999,-41.4952427070635],[-72.3090748199999,-41.4952162140635],[-72.3085295589999,-41.4937630000636],[-72.3072080979999,-41.4941433450636],[-72.3072425499999,-41.4942948790636],[-72.3071459879999,-41.4944111460636],[-72.3067333579999,-41.4944918720635],[-72.3071817009999,-41.4942856410635],[-72.3068618849999,-41.4935456660635],[-72.3055147969999,-41.4938296580635],[-72.3055222009999,-41.4940790280636],[-72.3050071549999,-41.4944444700636],[-72.3052486899999,-41.4946255530636],[-72.3052875179999,-41.4949430400636],[-72.3058515559999,-41.4949896240635],[-72.3071938089999,-41.4954984100635],[-72.3107297649999,-41.4953688000635],[-72.3105737479999,-41.4950612360635],[-72.3096813809999,-41.4952459000635],[-72.3078213709999,-41.4952427070635]]]}},{"type":"Feature","properties":{"id":"10103013011016","commune":"Cochamó","code":"10103","gse":"D","quintil":"Q1","nse_score":626.8,"educ":8.9,"educ_score":393.3,"hacin":0.778,"hacin_class":"Sin Hacinamiento","hacin_score":898.3,"auto_score":100.0,"n_per":7,"n_hog":5,"source_year":2024},"geometry":{"type":"Polygon","coordinates":[[[-72.2928321499999,-41.4948305070636],[-72.2922483209999,-41.4949672220636],[-72.2926661489999,-41.4966315970635],[-72.292916552,-41.4968147240635],[-72.2931265049999,-41.4964974830635],[-72.2929051499999,-41.4958382590635],[-72.2931415919999,-41.4964457450636],[-72.2933260329999,-41.4958055270636],[-72.2939676409999,-41.4954203330635],[-72.2932702229999,-41.4940260440636],[-72.2929466599999,-41.4943765470636],[-72.2928321499999,-41.4948305070636]]]}},{"type":"Feature","properties":{"id":"10103013011017","commune":"Cochamó","code":"10103","gse":"D","quintil":"Q1","nse_score":630.0,"educ":9.7,"educ_score":446.7,"hacin":0.931,"hacin_class":"Sin Hacinamiento","hacin_score":865.7,"auto_score":41.7,"n_per":54,"n_hog":24,"source_year":2024},"geometry":{"type":"Polygon","coordinates":[[[-72.293410805,-41.4958395140636],[-72.2932606479999,-41.4963741970636],[-72.2962574129999,-41.4958720250635],[-72.2984219029999,-41.4948372280636],[-72.2987278959999,-41.4946182810636],[-72.2987282959999,-41.4944880170635],[-72.2971588299999,-41.4946706780635],[-72.2937540479999,-41.4955657540635],[-72.293410805,-41.4958395140636]]]}},{"type":"Feature","properties":{"id":"10103013011018","commune":"Cochamó","code":"10103","gse":"C3","quintil":"Q2","nse_score":679.0,"educ":10.0,"educ_score":466.7,"hacin":0.733,"hacin_class":"Sin Hacinamiento","hacin_score":907.8,"auto_score":0.0,"n_per":22,"n_hog":10,"source_year":2024},"geometry":{"type":"Polygon","coordinates":[[[-72.3091346859999,-41.4951979810635],[-72.3096770499999,-41.4952009770636],[-72.3102685729999,-41.4950943650636],[-72.3100402619999,-41.4947967710635],[-72.3090614819999,-41.4948982110636],[-72.3091346859999,-41.4951979810635]]]}},{"type":"Feature","properties":{"id":"10103013011019","commune":"Cochamó","code":"10103","gse":"D","quintil":"Q1","nse_score":620.1,"educ":8.8,"educ_score":386.7,"hacin":0.962,"hacin_class":"Sin Hacinamiento","hacin_score":859.2,"auto_score":0.0,"n_per":25,"n_hog":12,"source_year":2024},"geometry":{"type":"Polygon","coordinates":[[[-72.2928982189999,-41.4976171360635],[-72.2929869539999,-41.4979746160636],[-72.2933157189999,-41.4976851540636],[-72.2948160189999,-41.4970405070636],[-72.2952934119999,-41.4969932030635],[-72.2956466699999,-41.4965106760636],[-72.2958562919999,-41.4964210430635],[-72.2975040059999,-41.4960468990636],[-72.297078687,-41.4958846690636],[-72.2969215139999,-41.4956489640636],[-72.2960260329999,-41.4959725040636],[-72.293249209,-41.4964131980635],[-72.2928982189999,-41.4976171360635]]]}}]}