{"type":"FeatureCollection","features":[{"type":"Feature","properties":{"id":"11301011001001","commune":"Cochrane","code":"11301","gse":"D","quintil":"Q2","nse_score":660.7,"educ":10.4,"educ_score":493.3,"hacin":1.219,"hacin_class":"Hacinamiento Leve","hacin_score":804.5,"auto_score":25.4,"n_per":128,"n_hog":63,"source_year":2024},"geometry":{"type":"Polygon","coordinates":[[[-72.5640856059999,-47.2478869040597],[-72.5641111739999,-47.2483841170597],[-72.5656400369999,-47.2484002070597],[-72.5660187899999,-47.2477902390597],[-72.5657716459999,-47.2476381510597],[-72.5660866869999,-47.2476870370597],[-72.5663131069999,-47.2472937090597],[-72.5654008269999,-47.2470427880597],[-72.5650845919999,-47.2471634630597],[-72.5653895599999,-47.2469970500597],[-72.5653480929999,-47.2468084840597],[-72.5655178889999,-47.2470603170597],[-72.5646783199999,-47.2451543070597],[-72.5643969659999,-47.2451753570597],[-72.5641584939999,-47.2454132210597],[-72.5637090379999,-47.2461433920597],[-72.5637692219999,-47.2463105820597],[-72.5645333499999,-47.2468582680597],[-72.564482988,-47.2470455690597],[-72.563128333,-47.2475019690597],[-72.5629423739999,-47.2476209220597],[-72.5629038529999,-47.2478823620597],[-72.5604703419999,-47.2481740900597],[-72.5612075989999,-47.2502731710597],[-72.5621798399999,-47.2501073840597],[-72.5621445319999,-47.2499102860597],[-72.5622362539999,-47.2498328310597],[-72.5632091459999,-47.2498818950597],[-72.5622505359999,-47.2498675010597],[-72.5622074949999,-47.2501384880597],[-72.5612218769999,-47.2503077960598],[-72.5616118159999,-47.2513711890597],[-72.5634721339999,-47.2513379770597],[-72.564207543,-47.2511563760597],[-72.5638041509999,-47.2509255520597],[-72.5641032459999,-47.2509909570597],[-72.5640743379999,-47.2508284520597],[-72.5643241069999,-47.2511280590597],[-72.5654225039999,-47.2509635960597],[-72.5652696429999,-47.2503815330597],[-72.5654619169999,-47.2509643330598],[-72.566255237,-47.2510773210597],[-72.565801458,-47.2499279090597],[-72.5645058419999,-47.2498961650597],[-72.5658307739999,-47.2497912030597],[-72.5658674629999,-47.2493772570597],[-72.5644265129999,-47.2494915470597],[-72.5658519819999,-47.2493425370597],[-72.5655025729999,-47.2486193600598],[-72.565617099,-47.2484337320598],[-72.5642170389999,-47.2484239950597],[-72.5640655219999,-47.2487651850597],[-72.5637874699999,-47.2490812700597],[-72.5641610669999,-47.2484225180597],[-72.5640471259999,-47.2483510060597],[-72.5640856059999,-47.2478869040597]]]}},{"type":"Feature","properties":{"id":"11301011001005","commune":"Cochrane","code":"11301","gse":"C3","quintil":"Q3","nse_score":693.2,"educ":10.8,"educ_score":520.0,"hacin":1.229,"hacin_class":"Hacinamiento Leve","hacin_score":802.4,"auto_score":83.3,"n_per":43,"n_hog":18,"source_year":2024},"geometry":{"type":"Polygon","coordinates":[[[-72.5678636509999,-47.2483284680597],[-72.5660766949999,-47.2478486820597],[-72.5658822789999,-47.2482104600597],[-72.5675883299999,-47.2487299720597],[-72.5678636509999,-47.2483284680597]]]}},{"type":"Feature","properties":{"id":"11301011001006","commune":"Cochrane","code":"11301","gse":"D","quintil":"Q1","nse_score":633.6,"educ":8.7,"educ_score":380.0,"hacin":1.111,"hacin_class":"Hacinamiento Leve","hacin_score":827.4,"auto_score":83.3,"n_per":40,"n_hog":18,"source_year":2024},"geometry":{"type":"Polygon","coordinates":[[[-72.5677153389999,-47.2487366350597],[-72.5686332009999,-47.2490059830597],[-72.5691774319999,-47.2480961800597],[-72.5682571229999,-47.2478476190597],[-72.5677153389999,-47.2487366350597]]]}},{"type":"Feature","properties":{"id":"11301011001007","commune":"Cochrane","code":"11301","gse":"C2","quintil":"Q4","nse_score":735.3,"educ":11.7,"educ_score":580.0,"hacin":0.875,"hacin_class":"Sin Hacinamiento","hacin_score":877.7,"auto_score":0.0,"n_per":21,"n_hog":10,"source_year":2024},"geometry":{"type":"Polygon","coordinates":[[[-72.5687096029999,-47.2490260330597],[-72.5696030279999,-47.2493556250597],[-72.5704329419999,-47.2485387490597],[-72.5692522679999,-47.2481504170597],[-72.5687096029999,-47.2490260330597]]]}},{"type":"Feature","properties":{"id":"11301011001008","commune":"Cochrane","code":"11301","gse":"C2","quintil":"Q4","nse_score":715.4,"educ":12.5,"educ_score":633.3,"hacin":1.188,"hacin_class":"Hacinamiento Leve","hacin_score":811.2,"auto_score":0.0,"n_per":38,"n_hog":14,"source_year":2024},"geometry":{"type":"Polygon","coordinates":[[[-72.5658751809999,-47.2483202390597],[-72.5656058279999,-47.2486326130597],[-72.5656537219999,-47.2487399560597],[-72.5671934099999,-47.2490934220597],[-72.5672434679999,-47.2487016830597],[-72.5658751809999,-47.2483202390597]]]}},{"type":"Feature","properties":{"id":"11301011001011","commune":"Cochrane","code":"11301","gse":"D","quintil":"Q1","nse_score":619.2,"educ":9.1,"educ_score":406.7,"hacin":1.276,"hacin_class":"Hacinamiento Leve","hacin_score":792.4,"auto_score":156.2,"n_per":37,"n_hog":16,"source_year":2024},"geometry":{"type":"Polygon","coordinates":[[[-72.5702284099999,-47.2488687300597],[-72.5713119459999,-47.2495214690597],[-72.5717055399999,-47.2492843980597],[-72.5705766979999,-47.2486076100597],[-72.5702284099999,-47.2488687300597]]]}},{"type":"Feature","properties":{"id":"11301011001013","commune":"Cochrane","code":"11301","gse":"ABC1","quintil":"Q5","nse_score":834.3,"educ":14.4,"educ_score":760.0,"hacin":1.0,"hacin_class":"Hacinamiento Leve","hacin_score":851.1,"auto_score":0.0,"n_per":6,"n_hog":4,"source_year":2024},"geometry":{"type":"Polygon","coordinates":[[[-72.5657267359999,-47.2488079240597],[-72.5659671129999,-47.2494286110597],[-72.5659109079999,-47.2498243000597],[-72.5671562439999,-47.2496218860597],[-72.5671341479999,-47.2491925990597],[-72.5657267359999,-47.2488079240597]]]}},{"type":"Feature","properties":{"id":"11301011001014","commune":"Cochrane","code":"11301","gse":"D","quintil":"Q2","nse_score":656.2,"educ":10.5,"educ_score":500.0,"hacin":1.355,"hacin_class":"Hacinamiento Leve","hacin_score":775.6,"auto_score":0.0,"n_per":42,"n_hog":16,"source_year":2024},"geometry":{"type":"Polygon","coordinates":[[[-72.5695728509999,-47.2494484920597],[-72.5676640399999,-47.2488392350597],[-72.5676023899999,-47.2495135730597],[-72.5696286519999,-47.2496327300597],[-72.5695728509999,-47.2494484920597]]]}},{"type":"Feature","properties":{"id":"11301011001015","commune":"Cochrane","code":"11301","gse":"C2","quintil":"Q4","nse_score":746.0,"educ":12.1,"educ_score":606.7,"hacin":1.118,"hacin_class":"Hacinamiento Leve","hacin_score":826.0,"auto_score":277.8,"n_per":19,"n_hog":9,"source_year":2024},"geometry":{"type":"Polygon","coordinates":[[[-72.5699630419999,-47.2491763610597],[-72.5709156519999,-47.2497335890597],[-72.5712567329999,-47.2496061080598],[-72.5710284899999,-47.2493464520597],[-72.5702093499999,-47.2489472990597],[-72.5699630419999,-47.2491763610597]]]}},{"type":"Feature","properties":{"id":"11301011001017","commune":"Cochrane","code":"11301","gse":"C1","quintil":"Q5","nse_score":761.9,"educ":12.6,"educ_score":640.0,"hacin":1.348,"hacin_class":"Hacinamiento Leve","hacin_score":777.1,"auto_score":227.3,"n_per":31,"n_hog":11,"source_year":2024},"geometry":{"type":"Polygon","coordinates":[[[-72.5586865629999,-47.2500621390598],[-72.5606792909999,-47.2511246120597],[-72.561465671,-47.2513347580597],[-72.5607363079999,-47.2492756080597],[-72.5592068249999,-47.2495780480597],[-72.5586865629999,-47.2500621390598]]]}},{"type":"Feature","properties":{"id":"11301011001018","commune":"Cochrane","code":"11301","gse":"C3","quintil":"Q3","nse_score":687.8,"educ":10.4,"educ_score":493.3,"hacin":1.389,"hacin_class":"Hacinamiento Leve","hacin_score":768.3,"auto_score":200.0,"n_per":25,"n_hog":10,"source_year":2024},"geometry":{"type":"Polygon","coordinates":[[[-72.5714271479999,-47.2496233450597],[-72.5718267039999,-47.2499319160597],[-72.5722457159999,-47.2496459660597],[-72.5718237069999,-47.2493211260597],[-72.5714271479999,-47.2496233450597]]]}},{"type":"Feature","properties":{"id":"11301011001019","commune":"Cochrane","code":"11301","gse":"E","quintil":"Q1","nse_score":599.5,"educ":7.8,"educ_score":320.0,"hacin":1.04,"hacin_class":"Hacinamiento Leve","hacin_score":842.6,"auto_score":31.2,"n_per":26,"n_hog":15,"source_year":2024},"geometry":{"type":"Polygon","coordinates":[[[-72.5696224799999,-47.2497170890597],[-72.5676161249999,-47.2496243440597],[-72.5679678119999,-47.2503134830597],[-72.569309959,-47.2504266910597],[-72.5696224799999,-47.2497170890597]]]}},{"type":"Feature","properties":{"id":"11301011001021","commune":"Cochrane","code":"11301","gse":"D","quintil":"Q1","nse_score":634.0,"educ":9.5,"educ_score":433.3,"hacin":1.364,"hacin_class":"Hacinamiento Leve","hacin_score":773.7,"auto_score":0.0,"n_per":15,"n_hog":7,"source_year":2024},"geometry":{"type":"Polygon","coordinates":[[[-72.5713911099999,-47.2501915890597],[-72.5717512819999,-47.2499592890597],[-72.5713550499999,-47.2496247330597],[-72.5709354239999,-47.2498370390597],[-72.5713911099999,-47.2501915890597]]]}},{"type":"Feature","properties":{"id":"11301011001026","commune":"Cochrane","code":"11301","gse":"C2","quintil":"Q3","nse_score":708.6,"educ":11.6,"educ_score":573.3,"hacin":1.565,"hacin_class":"Hacinamiento Medio","hacin_score":730.8,"auto_score":400.0,"n_per":36,"n_hog":10,"source_year":2024},"geometry":{"type":"Polygon","coordinates":[[[-72.5578866979999,-47.2504525060597],[-72.5591833709999,-47.2505084320597],[-72.5593008279999,-47.2505173340597],[-72.5585021219999,-47.2500768580597],[-72.557919061,-47.2500759250597],[-72.5578866979999,-47.2504525060597]]]}},{"type":"Feature","properties":{"id":"11301011001027","commune":"Cochrane","code":"11301","gse":"C3","quintil":"Q2","nse_score":663.8,"educ":10.7,"educ_score":513.3,"hacin":1.412,"hacin_class":"Hacinamiento Leve","hacin_score":763.5,"auto_score":264.7,"n_per":48,"n_hog":16,"source_year":2024},"geometry":{"type":"Polygon","coordinates":[[[-72.575022568,-47.2513223950597],[-72.5750012629999,-47.2518913010597],[-72.5752913219999,-47.2523113480597],[-72.5756532969999,-47.2522947580597],[-72.5756262979999,-47.2519355690597],[-72.5758321429999,-47.2516110820597],[-72.5756383739999,-47.2520389970597],[-72.5756898519999,-47.2522909110597],[-72.5777305729999,-47.2520701720597],[-72.5779122509999,-47.2518824990597],[-72.5774320619999,-47.2517580830597],[-72.5778103419999,-47.2517277830597],[-72.5777726649999,-47.2518138040597],[-72.5779332659999,-47.2518557310597],[-72.5784298669999,-47.2511354720597],[-72.5783452879999,-47.2502536320597],[-72.5772347089999,-47.2507712820597],[-72.5773697239999,-47.2509358790597],[-72.5772024779999,-47.2512745560597],[-72.576396971,-47.2514025990597],[-72.5758187669999,-47.2510634890597],[-72.575022568,-47.2513223950597]]]}},{"type":"Feature","properties":{"id":"11301011001028","commune":"Cochrane","code":"11301","gse":"C2","quintil":"Q4","nse_score":717.6,"educ":11.5,"educ_score":566.7,"hacin":0.964,"hacin_class":"Sin Hacinamiento","hacin_score":858.7,"auto_score":166.7,"n_per":27,"n_hog":12,"source_year":2024},"geometry":{"type":"Polygon","coordinates":[[[-72.56953705,-47.2509592170597],[-72.5694683829999,-47.2505277370597],[-72.568031662,-47.2503886550597],[-72.5682505019999,-47.2511192060597],[-72.56953705,-47.2509592170597]]]}},{"type":"Feature","properties":{"id":"11301011001029","commune":"Cochrane","code":"11301","gse":"E","quintil":"Q1","nse_score":486.2,"educ":4.5,"educ_score":100.0,"hacin":1.143,"hacin_class":"Hacinamiento Leve","hacin_score":820.7,"auto_score":0.0,"n_per":8,"n_hog":5,"source_year":2024},"geometry":{"type":"Polygon","coordinates":[[[-72.5671091149999,-47.2511794580598],[-72.568087321,-47.2511324690597],[-72.5679934519999,-47.2504808810597],[-72.5670521139999,-47.2507233160597],[-72.5671091149999,-47.2511794580598]]]}},{"type":"Feature","properties":{"id":"11301011001036","commune":"Cochrane","code":"11301","gse":"C3","quintil":"Q3","nse_score":701.6,"educ":10.7,"educ_score":513.3,"hacin":1.067,"hacin_class":"Hacinamiento Leve","hacin_score":836.9,"auto_score":0.0,"n_per":64,"n_hog":34,"source_year":2024},"geometry":{"type":"Polygon","coordinates":[[[-72.5728674379999,-47.2513371720597],[-72.5725783059999,-47.2510984450597],[-72.5717978189999,-47.2509108660597],[-72.5700348869999,-47.2510490750597],[-72.5703094969999,-47.2517028760597],[-72.5720411609999,-47.2515350390597],[-72.5715349809999,-47.2512299290597],[-72.5718670059999,-47.2513017660597],[-72.5722727949999,-47.2516533920597],[-72.5728674379999,-47.2513371720597]]]}},{"type":"Feature","properties":{"id":"11301011001037","commune":"Cochrane","code":"11301","gse":"C2","quintil":"Q3","nse_score":708.8,"educ":11.3,"educ_score":553.3,"hacin":1.486,"hacin_class":"Hacinamiento Leve","hacin_score":747.6,"auto_score":0.0,"n_per":55,"n_hog":19,"source_year":2024},"geometry":{"type":"Polygon","coordinates":[[[-72.5578430079999,-47.2512668910597],[-72.5595299909999,-47.2513550100597],[-72.5595535509999,-47.2510089600597],[-72.5579150809999,-47.2509173230597],[-72.5578430079999,-47.2512668910597]]]}},{"type":"Feature","properties":{"id":"11301011001038","commune":"Cochrane","code":"11301","gse":"D","quintil":"Q1","nse_score":635.3,"educ":10.1,"educ_score":473.3,"hacin":1.146,"hacin_class":"Hacinamiento Leve","hacin_score":819.9,"auto_score":83.3,"n_per":47,"n_hog":28,"source_year":2024},"geometry":{"type":"Polygon","coordinates":[[[-72.5797871339999,-47.2511066260598],[-72.5802092009999,-47.2528976120597],[-72.581663165,-47.2527593590597],[-72.5814515409999,-47.2517635630597],[-72.5809243959999,-47.2517714940597],[-72.5809302509999,-47.2520267070597],[-72.5808537549999,-47.2517870080597],[-72.5807023979999,-47.2517651040597],[-72.5814435909999,-47.2517218510597],[-72.5812313179999,-47.2509270480597],[-72.5797871339999,-47.2511066260598]]]}},{"type":"Feature","properties":{"id":"11301011001040","commune":"Cochrane","code":"11301","gse":"C3","quintil":"Q3","nse_score":683.0,"educ":13.1,"educ_score":673.3,"hacin":2.73,"hacin_class":"Hacinamiento Crítico","hacin_score":483.0,"auto_score":187.5,"n_per":101,"n_hog":16,"source_year":2024},"geometry":{"type":"Polygon","coordinates":[[[-72.5633900159999,-47.2514136670597],[-72.5637857429999,-47.2520220300597],[-72.5634025759999,-47.2515723880597],[-72.5632167329999,-47.2516671990597],[-72.5633107299999,-47.2520766070597],[-72.5623793479999,-47.2523745590597],[-72.5632783989999,-47.2520308660597],[-72.5631673439999,-47.2516646970598],[-72.5633557489999,-47.2515456610598],[-72.5632932809999,-47.2514561260597],[-72.5613866869999,-47.2521569290598],[-72.5615621229999,-47.2526342260597],[-72.5615621229999,-47.2529207460597],[-72.5615221929999,-47.2529594650597],[-72.5609327469999,-47.2529684990598],[-72.5608661969999,-47.2533827880597],[-72.5596226559999,-47.2533982760597],[-72.5596055439999,-47.2529775340597],[-72.5615012769999,-47.2529220370598],[-72.5614993759999,-47.2525387190597],[-72.561319996,-47.2521825770597],[-72.5601857299999,-47.2525859900597],[-72.5586916539999,-47.2527006200597],[-72.5545186059999,-47.2534974360597],[-72.5551173889999,-47.2550725260597],[-72.5564264799999,-47.2545682360598],[-72.5582126269999,-47.2542873050597],[-72.5604648779999,-47.2536930790598],[-72.5613816079999,-47.2531704650597],[-72.5620798469999,-47.2529705610597],[-72.5624521529999,-47.2526657140597],[-72.5654938679999,-47.2516318170597],[-72.5660102069999,-47.2517104210597],[-72.5665177399999,-47.2519616960598],[-72.5666016599999,-47.2522750690597],[-72.567244221,-47.2530206630597],[-72.5688202409999,-47.2525597120597],[-72.5703734569999,-47.2526091040597],[-72.5703340969999,-47.2524751950597],[-72.5696054489999,-47.2521818400597],[-72.5672966409999,-47.2523647800597],[-72.5662819629999,-47.2513212130597],[-72.5655148659999,-47.2510260310597],[-72.5638345539999,-47.2512909730597],[-72.5633900159999,-47.2514136670597]]]}},{"type":"Feature","properties":{"id":"11301011001041","commune":"Cochrane","code":"11301","gse":"C3","quintil":"Q2","nse_score":667.9,"educ":10.7,"educ_score":513.3,"hacin":1.2,"hacin_class":"Hacinamiento Leve","hacin_score":808.5,"auto_score":150.0,"n_per":24,"n_hog":10,"source_year":2024},"geometry":{"type":"Polygon","coordinates":[[[-72.5683376109999,-47.2515971870597],[-72.5700237969999,-47.2514473440597],[-72.5700797979999,-47.2513991620597],[-72.5698931669999,-47.2510266280597],[-72.5682635429999,-47.2511640130597],[-72.5683376109999,-47.2515971870597]]]}},{"type":"Feature","properties":{"id":"11301011001042","commune":"Cochrane","code":"11301","gse":"C3","quintil":"Q3","nse_score":686.2,"educ":10.8,"educ_score":520.0,"hacin":1.111,"hacin_class":"Hacinamiento Leve","hacin_score":827.4,"auto_score":50.0,"n_per":20,"n_hog":10,"source_year":2024},"geometry":{"type":"Polygon","coordinates":[[[-72.5779521369999,-47.2520438150597],[-72.5797955759999,-47.2518603160597],[-72.5796850049999,-47.2511031230597],[-72.5785904189999,-47.2511738440597],[-72.5779521369999,-47.2520438150597]]]}},{"type":"Feature","properties":{"id":"11301011001044","commune":"Cochrane","code":"11301","gse":"E","quintil":"Q1","nse_score":612.8,"educ":7.5,"educ_score":300.0,"hacin":1.0,"hacin_class":"Hacinamiento Leve","hacin_score":851.1,"auto_score":62.5,"n_per":15,"n_hog":8,"source_year":2024},"geometry":{"type":"Polygon","coordinates":[[[-72.5671323159999,-47.2512952730597],[-72.5673263069999,-47.2522680800598],[-72.568271105,-47.2522103890597],[-72.5681420889999,-47.2512162410598],[-72.5671323159999,-47.2512952730597]]]}},{"type":"Feature","properties":{"id":"11301011001047","commune":"Cochrane","code":"11301","gse":"C2","quintil":"Q3","nse_score":702.9,"educ":11.6,"educ_score":573.3,"hacin":1.259,"hacin_class":"Hacinamiento Leve","hacin_score":795.9,"auto_score":413.0,"n_per":68,"n_hog":23,"source_year":2024},"geometry":{"type":"Polygon","coordinates":[[[-72.5578259169999,-47.2516981860597],[-72.5595193849999,-47.2517191590597],[-72.5595419639999,-47.2514190810597],[-72.5578241339999,-47.2514160160597],[-72.5578259169999,-47.2516981860597]]]}},{"type":"Feature","properties":{"id":"11301011001049","commune":"Cochrane","code":"11301","gse":"C2","quintil":"Q4","nse_score":718.2,"educ":11.4,"educ_score":560.0,"hacin":1.231,"hacin_class":"Hacinamiento Leve","hacin_score":802.0,"auto_score":303.6,"n_per":80,"n_hog":28,"source_year":2024},"geometry":{"type":"Polygon","coordinates":[[[-72.5613260839999,-47.2514586880597],[-72.5596190319999,-47.2514121940597],[-72.5595906889999,-47.2517086730597],[-72.5613780399999,-47.2517530390597],[-72.5613260839999,-47.2514586880597]]]}},{"type":"Feature","properties":{"id":"11301011001051","commune":"Cochrane","code":"11301","gse":"D","quintil":"Q1","nse_score":629.5,"educ":9.8,"educ_score":453.3,"hacin":1.36,"hacin_class":"Hacinamiento Leve","hacin_score":774.5,"auto_score":0.0,"n_per":34,"n_hog":19,"source_year":2024},"geometry":{"type":"Polygon","coordinates":[[[-72.5683570919999,-47.2516478410598],[-72.5684528589999,-47.2521899490597],[-72.5702408309999,-47.2520075870597],[-72.570047498,-47.2515013040597],[-72.5683570919999,-47.2516478410598]]]}},{"type":"Feature","properties":{"id":"11301011001053","commune":"Cochrane","code":"11301","gse":"C2","quintil":"Q4","nse_score":730.1,"educ":12.7,"educ_score":646.7,"hacin":1.46,"hacin_class":"Hacinamiento Leve","hacin_score":753.2,"auto_score":68.2,"n_per":73,"n_hog":21,"source_year":2024},"geometry":{"type":"Polygon","coordinates":[[[-72.5595098769999,-47.2517659460597],[-72.5578103479999,-47.2517327140597],[-72.5577783809999,-47.2520529000598],[-72.5594927639999,-47.2520937170597],[-72.5595098769999,-47.2517659460597]]]}},{"type":"Feature","properties":{"id":"11301011001054","commune":"Cochrane","code":"11301","gse":"C2","quintil":"Q4","nse_score":712.8,"educ":11.5,"educ_score":566.7,"hacin":1.263,"hacin_class":"Hacinamiento Leve","hacin_score":795.1,"auto_score":357.1,"n_per":48,"n_hog":21,"source_year":2024},"geometry":{"type":"Polygon","coordinates":[[[-72.5613445399999,-47.2521082130597],[-72.5613770889999,-47.2518101510597],[-72.5595973439999,-47.2517843370597],[-72.5595930649999,-47.2521035580597],[-72.5613445399999,-47.2521082130597]]]}},{"type":"Feature","properties":{"id":"11301011001055","commune":"Cochrane","code":"11301","gse":"C2","quintil":"Q4","nse_score":752.1,"educ":12.1,"educ_score":606.7,"hacin":1.122,"hacin_class":"Hacinamiento Leve","hacin_score":825.1,"auto_score":214.3,"n_per":46,"n_hog":21,"source_year":2024},"geometry":{"type":"Polygon","coordinates":[[[-72.5786747049999,-47.2530707170598],[-72.5800913269999,-47.2529288770597],[-72.5798738709999,-47.2519336980598],[-72.5784340089999,-47.2520791020597],[-72.5786747049999,-47.2530707170598]]]}},{"type":"Feature","properties":{"id":"11301011001057","commune":"Cochrane","code":"11301","gse":"C2","quintil":"Q4","nse_score":719.1,"educ":10.8,"educ_score":520.0,"hacin":1.04,"hacin_class":"Hacinamiento Leve","hacin_score":842.6,"auto_score":83.3,"n_per":26,"n_hog":12,"source_year":2024},"geometry":{"type":"Polygon","coordinates":[[[-72.5782690059999,-47.2520944800597],[-72.5768799699999,-47.2522590260597],[-72.5770784979999,-47.2532172560597],[-72.5784757049999,-47.2530881020597],[-72.5782690059999,-47.2520944800597]]]}},{"type":"Feature","properties":{"id":"11301011001060","commune":"Cochrane","code":"11301","gse":"C2","quintil":"Q4","nse_score":723.0,"educ":13.2,"educ_score":680.0,"hacin":1.353,"hacin_class":"Hacinamiento Leve","hacin_score":776.0,"auto_score":181.8,"n_per":23,"n_hog":9,"source_year":2024},"geometry":{"type":"Polygon","coordinates":[[[-72.5595360769999,-47.2526125260597],[-72.5601553499999,-47.2525355920598],[-72.5611318039999,-47.2521779850597],[-72.5595859349999,-47.2521663700597],[-72.5595360769999,-47.2526125260597]]]}},{"type":"Feature","properties":{"id":"11301011001061","commune":"Cochrane","code":"11301","gse":"ABC1","quintil":"Q5","nse_score":809.1,"educ":15.3,"educ_score":820.0,"hacin":1.222,"hacin_class":"Hacinamiento Leve","hacin_score":803.8,"auto_score":0.0,"n_per":11,"n_hog":5,"source_year":2024},"geometry":{"type":"Polygon","coordinates":[[[-72.5767151089999,-47.2522595210597],[-72.5752959989999,-47.2524047580597],[-72.5755098729999,-47.2533799920598],[-72.5769347759999,-47.2532409180598],[-72.5767151089999,-47.2522595210597]]]}},{"type":"Feature","properties":{"id":"11301011001062","commune":"Cochrane","code":"11301","gse":"C2","quintil":"Q4","nse_score":716.5,"educ":11.3,"educ_score":553.3,"hacin":0.857,"hacin_class":"Sin Hacinamiento","hacin_score":881.5,"auto_score":76.9,"n_per":24,"n_hog":13,"source_year":2024},"geometry":{"type":"Polygon","coordinates":[[[-72.5753777269999,-47.2533995520598],[-72.5751425019999,-47.2524122490597],[-72.573698282,-47.2525953210597],[-72.5739514409999,-47.2535470100597],[-72.5753777269999,-47.2533995520598]]]}},{"type":"Feature","properties":{"id":"11301011001063","commune":"Cochrane","code":"11301","gse":"C3","quintil":"Q3","nse_score":689.5,"educ":12.7,"educ_score":646.7,"hacin":1.263,"hacin_class":"Hacinamiento Leve","hacin_score":795.1,"auto_score":115.4,"n_per":24,"n_hog":12,"source_year":2024},"geometry":{"type":"Polygon","coordinates":[[[-72.5691835639999,-47.2563928830597],[-72.5691859689999,-47.2567840020598],[-72.5691293859999,-47.2563984030597],[-72.5681863099999,-47.2563995940598],[-72.5677410359999,-47.2565278630597],[-72.5673149409999,-47.2570771710597],[-72.5672525319999,-47.2575489540598],[-72.5670495819999,-47.2577904810597],[-72.5672250049999,-47.2574687030597],[-72.5672380959999,-47.2571237020597],[-72.567506965,-47.2566929830597],[-72.5677768889999,-47.2564654520597],[-72.5681321439999,-47.2563841950598],[-72.5673982429999,-47.2532123430597],[-72.5703792779999,-47.2528416550597],[-72.5703734569999,-47.2526091040597],[-72.5688202409999,-47.2525597120597],[-72.5672442339999,-47.2530206870597],[-72.567448984,-47.2544951120597],[-72.5671955589999,-47.2550357300597],[-72.5671880069999,-47.2561624880597],[-72.5670347649999,-47.2566203680597],[-72.5658813979999,-47.2568632650597],[-72.5649543879999,-47.2577631020598],[-72.564877609,-47.2581230810598],[-72.565953868,-47.2584659160597],[-72.5666234149999,-47.2583672190597],[-72.5672773469999,-47.2585421340597],[-72.5679801589999,-47.2583207550598],[-72.5685667649999,-47.2583896730598],[-72.5696723299999,-47.2581266450598],[-72.5718826409999,-47.2582321800597],[-72.5726866429999,-47.2576871370598],[-72.5720264619999,-47.2577017490597],[-72.5717680169999,-47.2579361130597],[-72.5714503609999,-47.2579158870597],[-72.5717417549999,-47.2579087990597],[-72.572047445,-47.2576690290597],[-72.5726952619999,-47.2576528860598],[-72.5727780579999,-47.2561235690598],[-72.5691835639999,-47.2563928830597]]]}},{"type":"Feature","properties":{"id":"11301011001065","commune":"Cochrane","code":"11301","gse":"C1","quintil":"Q5","nse_score":778.1,"educ":13.6,"educ_score":706.7,"hacin":1.654,"hacin_class":"Hacinamiento Medio","hacin_score":711.9,"auto_score":0.0,"n_per":43,"n_hog":11,"source_year":2024},"geometry":{"type":"Polygon","coordinates":[[[-72.5719742999999,-47.2527258440597],[-72.5714433999999,-47.2527829050597],[-72.5715061929999,-47.2533066050597],[-72.571393397,-47.2527882790598],[-72.5705672699999,-47.2528840070597],[-72.5706925599999,-47.2535177190597],[-72.5714485799999,-47.2534328040597],[-72.5707043819999,-47.2535715360597],[-72.5707698139999,-47.2538420910598],[-72.5722316309999,-47.2537308040597],[-72.5719742999999,-47.2527258440597]]]}},{"type":"Feature","properties":{"id":"11301011001066","commune":"Cochrane","code":"11301","gse":"C2","quintil":"Q4","nse_score":739.1,"educ":13.1,"educ_score":673.3,"hacin":1.609,"hacin_class":"Hacinamiento Medio","hacin_score":721.6,"auto_score":100.0,"n_per":37,"n_hog":14,"source_year":2024},"geometry":{"type":"Polygon","coordinates":[[[-72.5804700649999,-47.2539753950597],[-72.5818793959999,-47.2538353480597],[-72.5816751749999,-47.2528266520598],[-72.5802162159999,-47.2529966570597],[-72.5804700649999,-47.2539753950597]]]}},{"type":"Feature","properties":{"id":"11301011001067","commune":"Cochrane","code":"11301","gse":"C3","quintil":"Q3","nse_score":701.4,"educ":10.8,"educ_score":520.0,"hacin":1.188,"hacin_class":"Hacinamiento Leve","hacin_score":811.2,"auto_score":150.0,"n_per":19,"n_hog":10,"source_year":2024},"geometry":{"type":"Polygon","coordinates":[[[-72.5704279269999,-47.2528987540597],[-72.5689959469999,-47.2530628020597],[-72.5692235609999,-47.2540041970597],[-72.5706603199999,-47.2538870740597],[-72.5704279269999,-47.2528987540597]]]}},{"type":"Feature","properties":{"id":"11301011001068","commune":"Cochrane","code":"11301","gse":"ABC1","quintil":"Q5","nse_score":793.7,"educ":13.5,"educ_score":700.0,"hacin":1.478,"hacin_class":"Hacinamiento Leve","hacin_score":749.3,"auto_score":222.2,"n_per":34,"n_hog":9,"source_year":2024},"geometry":{"type":"Polygon","coordinates":[[[-72.5596873049999,-47.2533660100597],[-72.5608281679999,-47.2533466510598],[-72.5608566899999,-47.2529878590597],[-72.559694911,-47.2529904400598],[-72.5596873049999,-47.2533660100597]]]}},{"type":"Feature","properties":{"id":"11301011001069","commune":"Cochrane","code":"11301","gse":"C3","quintil":"Q2","nse_score":672.6,"educ":10.9,"educ_score":526.7,"hacin":1.158,"hacin_class":"Hacinamiento Leve","hacin_score":817.5,"auto_score":166.7,"n_per":22,"n_hog":11,"source_year":2024},"geometry":{"type":"Polygon","coordinates":[[[-72.5789185819999,-47.2541209620597],[-72.580320346,-47.2539991040598],[-72.5801058999999,-47.2529948690598],[-72.5786738699999,-47.2531759640597],[-72.5789185819999,-47.2541209620597]]]}},{"type":"Feature","properties":{"id":"11301011001070","commune":"Cochrane","code":"11301","gse":"C2","quintil":"Q4","nse_score":737.3,"educ":11.7,"educ_score":580.0,"hacin":1.0,"hacin_class":"Hacinamiento Leve","hacin_score":851.1,"auto_score":35.7,"n_per":31,"n_hog":14,"source_year":2024},"geometry":{"type":"Polygon","coordinates":[[[-72.5688569509999,-47.2530757300597],[-72.5674880309999,-47.2532318920597],[-72.5676974519999,-47.2542030700598],[-72.5690871939999,-47.2540599970598],[-72.5688569509999,-47.2530757300597]]]}},{"type":"Feature","properties":{"id":"11301011001071","commune":"Cochrane","code":"11301","gse":"E","quintil":"Q1","nse_score":581.1,"educ":9.2,"educ_score":413.3,"hacin":1.5,"hacin_class":"Hacinamiento Medio","hacin_score":744.7,"auto_score":115.4,"n_per":30,"n_hog":13,"source_year":2024},"geometry":{"type":"Polygon","coordinates":[[[-72.5773363229999,-47.2543075710597],[-72.5787307939999,-47.2541538150597],[-72.5785273859999,-47.2531838150597],[-72.5771030199999,-47.2533289770598],[-72.5773363229999,-47.2543075710597]]]}},{"type":"Feature","properties":{"id":"11301011001072","commune":"Cochrane","code":"11301","gse":"C2","quintil":"Q4","nse_score":732.7,"educ":12.6,"educ_score":640.0,"hacin":1.292,"hacin_class":"Hacinamiento Leve","hacin_score":789.0,"auto_score":150.0,"n_per":31,"n_hog":10,"source_year":2024},"geometry":{"type":"Polygon","coordinates":[[[-72.5757623819999,-47.2544832310597],[-72.5771356529999,-47.2543319440597],[-72.5769890429999,-47.2533508570597],[-72.5755384729999,-47.2534740050597],[-72.5757623819999,-47.2544832310597]]]}},{"type":"Feature","properties":{"id":"11301011001073","commune":"Cochrane","code":"11301","gse":"C3","quintil":"Q3","nse_score":702.0,"educ":11.0,"educ_score":533.3,"hacin":1.0,"hacin_class":"Hacinamiento Leve","hacin_score":851.1,"auto_score":0.0,"n_per":17,"n_hog":9,"source_year":2024},"geometry":{"type":"Polygon","coordinates":[[[-72.5756224919999,-47.2545013100598],[-72.5754008559999,-47.2534926850597],[-72.5739410639999,-47.2536439570598],[-72.5742018349999,-47.2546169990597],[-72.5756224919999,-47.2545013100598]]]}},{"type":"Feature","properties":{"id":"11301011001077","commune":"Cochrane","code":"11301","gse":"C3","quintil":"Q3","nse_score":685.3,"educ":12.6,"educ_score":640.0,"hacin":1.407,"hacin_class":"Hacinamiento Leve","hacin_score":764.4,"auto_score":0.0,"n_per":38,"n_hog":15,"source_year":2024},"geometry":{"type":"Polygon","coordinates":[[[-72.5806938679999,-47.2550379910597],[-72.5821140019999,-47.2548809310597],[-72.5819048739999,-47.2539141750597],[-72.580454244,-47.2540697130597],[-72.5806938679999,-47.2550379910597]]]}},{"type":"Feature","properties":{"id":"11301011001078","commune":"Cochrane","code":"11301","gse":"C1","quintil":"Q5","nse_score":788.4,"educ":13.2,"educ_score":680.0,"hacin":0.957,"hacin_class":"Sin Hacinamiento","hacin_score":860.3,"auto_score":0.0,"n_per":22,"n_hog":12,"source_year":2024},"geometry":{"type":"Polygon","coordinates":[[[-72.5709063489999,-47.2549469290597],[-72.5706941099999,-47.2539776580597],[-72.569252317,-47.2541332580597],[-72.5695151389999,-47.2551107630597],[-72.5709063489999,-47.2549469290597]]]}},{"type":"Feature","properties":{"id":"11301011001079","commune":"Cochrane","code":"11301","gse":"C2","quintil":"Q4","nse_score":711.2,"educ":12.1,"educ_score":606.7,"hacin":1.263,"hacin_class":"Hacinamiento Leve","hacin_score":795.1,"auto_score":100.0,"n_per":24,"n_hog":9,"source_year":2024},"geometry":{"type":"Polygon","coordinates":[[[-72.5791318999999,-47.2551974360597],[-72.5805379449999,-47.2550479590598],[-72.5803543019999,-47.2540837520597],[-72.5789288849999,-47.2542181340597],[-72.5791318999999,-47.2551974360597]]]}},{"type":"Feature","properties":{"id":"11301011001080","commune":"Cochrane","code":"11301","gse":"D","quintil":"Q2","nse_score":651.1,"educ":10.6,"educ_score":506.7,"hacin":1.238,"hacin_class":"Hacinamiento Leve","hacin_score":800.4,"auto_score":0.0,"n_per":26,"n_hog":12,"source_year":2024},"geometry":{"type":"Polygon","coordinates":[[[-72.5679855179999,-47.2552851830598],[-72.5693346099999,-47.2551296200597],[-72.5691319759999,-47.2541645930597],[-72.5677370149999,-47.2542999700597],[-72.5679855179999,-47.2552851830598]]]}},{"type":"Feature","properties":{"id":"11301011001081","commune":"Cochrane","code":"11301","gse":"C3","quintil":"Q2","nse_score":672.1,"educ":10.2,"educ_score":480.0,"hacin":1.308,"hacin_class":"Hacinamiento Leve","hacin_score":785.6,"auto_score":0.0,"n_per":17,"n_hog":9,"source_year":2024},"geometry":{"type":"Polygon","coordinates":[[[-72.577529534,-47.2553258480597],[-72.5789556059999,-47.2551978020597],[-72.5787583889999,-47.2542359990597],[-72.5773370519999,-47.2544080150598],[-72.577529534,-47.2553258480597]]]}},{"type":"Feature","properties":{"id":"11301011001082","commune":"Cochrane","code":"11301","gse":"C3","quintil":"Q2","nse_score":666.2,"educ":12.5,"educ_score":633.3,"hacin":1.273,"hacin_class":"Hacinamiento Leve","hacin_score":793.0,"auto_score":62.5,"n_per":14,"n_hog":7,"source_year":2024},"geometry":{"type":"Polygon","coordinates":[[[-72.5759638489999,-47.2554962910597],[-72.57739928,-47.2553708270597],[-72.5772095479999,-47.2544366860597],[-72.5757935519999,-47.2545740640597],[-72.5759638489999,-47.2554962910597]]]}},{"type":"Feature","properties":{"id":"11301011001083","commune":"Cochrane","code":"11301","gse":"C1","quintil":"Q5","nse_score":782.0,"educ":14.0,"educ_score":733.3,"hacin":1.0,"hacin_class":"Hacinamiento Leve","hacin_score":851.1,"auto_score":0.0,"n_per":15,"n_hog":8,"source_year":2024},"geometry":{"type":"Polygon","coordinates":[[[-72.5743559339999,-47.2556225740597],[-72.5758150389999,-47.2555216990597],[-72.5756583869999,-47.2546018640597],[-72.5741941759999,-47.2547337880598],[-72.5743559339999,-47.2556225740597]]]}},{"type":"Feature","properties":{"id":"11301011001084","commune":"Cochrane","code":"11301","gse":"E","quintil":"Q1","nse_score":506.3,"educ":8.9,"educ_score":393.3,"hacin":1.688,"hacin_class":"Hacinamiento Medio","hacin_score":704.8,"auto_score":0.0,"n_per":27,"n_hog":9,"source_year":2024},"geometry":{"type":"Polygon","coordinates":[[[-72.5728055879999,-47.2558064200597],[-72.5742493399999,-47.2556560810597],[-72.5740732679999,-47.2547636260597],[-72.5726409679999,-47.2548986050597],[-72.5728055879999,-47.2558064200597]]]}},{"type":"Feature","properties":{"id":"11301011001085","commune":"Cochrane","code":"11301","gse":"C3","quintil":"Q2","nse_score":662.3,"educ":13.3,"educ_score":686.7,"hacin":1.538,"hacin_class":"Hacinamiento Medio","hacin_score":736.5,"auto_score":83.3,"n_per":20,"n_hog":6,"source_year":2024},"geometry":{"type":"Polygon","coordinates":[[[-72.5726501509999,-47.2558937030597],[-72.5725137469999,-47.2549237460597],[-72.5710623759999,-47.2550518460598],[-72.5712799289999,-47.2559907690597],[-72.5726501509999,-47.2558937030597]]]}},{"type":"Feature","properties":{"id":"11301011001089","commune":"Cochrane","code":"11301","gse":"E","quintil":"Q1","nse_score":596.3,"educ":11.7,"educ_score":580.0,"hacin":1.643,"hacin_class":"Hacinamiento Medio","hacin_score":714.3,"auto_score":0.0,"n_per":23,"n_hog":10,"source_year":2024},"geometry":{"type":"Polygon","coordinates":[[[-72.5810425859999,-47.2552448560597],[-72.5811274309999,-47.2554622130597],[-72.5819672439999,-47.2553783830597],[-72.5821397829999,-47.2554380490598],[-72.5811334269999,-47.2555130850598],[-72.5811661189999,-47.2556350120597],[-72.5816464659999,-47.2556796060598],[-72.5820315349999,-47.2555498400598],[-72.581772854,-47.2557190220597],[-72.5814055209999,-47.2557112650597],[-72.5810908269999,-47.2556603830598],[-72.5809667479999,-47.2552725240598],[-72.5806984449999,-47.2552993090598],[-72.580662076,-47.2560431610597],[-72.5833880839999,-47.2557679660598],[-72.5823533539999,-47.2551113900597],[-72.5810425859999,-47.2552448560597]]]}},{"type":"Feature","properties":{"id":"11301011001091","commune":"Cochrane","code":"11301","gse":"C2","quintil":"Q3","nse_score":710.9,"educ":11.5,"educ_score":566.7,"hacin":1.07,"hacin_class":"Hacinamiento Leve","hacin_score":836.2,"auto_score":27.8,"n_per":46,"n_hog":19,"source_year":2024},"geometry":{"type":"Polygon","coordinates":[[[-72.5681465469999,-47.2563047720598],[-72.5695630459999,-47.2562110090597],[-72.5693912129999,-47.2552541320597],[-72.5679905819999,-47.2553667940597],[-72.5681465469999,-47.2563047720598]]]}},{"type":"Feature","properties":{"id":"11301011001093","commune":"Cochrane","code":"11301","gse":"C2","quintil":"Q4","nse_score":744.7,"educ":13.4,"educ_score":693.3,"hacin":1.438,"hacin_class":"Hacinamiento Leve","hacin_score":758.0,"auto_score":300.0,"n_per":23,"n_hog":10,"source_year":2024},"geometry":{"type":"Polygon","coordinates":[[[-72.5791171249999,-47.2561183420597],[-72.5805413179999,-47.2560214310598],[-72.5805737339999,-47.2553129890598],[-72.5791683209999,-47.2554910060597],[-72.5791171249999,-47.2561183420597]]]}},{"type":"Feature","properties":{"id":"11301011001095","commune":"Cochrane","code":"11301","gse":"D","quintil":"Q2","nse_score":660.8,"educ":12.3,"educ_score":620.0,"hacin":1.353,"hacin_class":"Hacinamiento Leve","hacin_score":776.0,"auto_score":0.0,"n_per":23,"n_hog":10,"source_year":2024},"geometry":{"type":"Polygon","coordinates":[[[-72.5776297259999,-47.2556613190598],[-72.5775942539999,-47.2568082840597],[-72.5797809029999,-47.2567028720598],[-72.5797798359999,-47.2561500300598],[-72.5791363009999,-47.2562073750597],[-72.5790868879999,-47.2565121450597],[-72.578994883,-47.2565095530598],[-72.5790622679999,-47.2554825970597],[-72.5776297259999,-47.2556613190598]]]}},{"type":"Feature","properties":{"id":"11301011001096","commune":"Cochrane","code":"11301","gse":"C2","quintil":"Q4","nse_score":749.1,"educ":12.6,"educ_score":640.0,"hacin":0.8,"hacin_class":"Sin Hacinamiento","hacin_score":893.6,"auto_score":0.0,"n_per":8,"n_hog":4,"source_year":2024},"geometry":{"type":"Polygon","coordinates":[[[-72.5745303139999,-47.2558735240597],[-72.5758589079999,-47.2557424860597],[-72.5759428729999,-47.2556598550597],[-72.574517108,-47.2557605920598],[-72.5745303139999,-47.2558735240597]]]}},{"type":"Feature","properties":{"id":"11301011001097","commune":"Cochrane","code":"11301","gse":"D","quintil":"Q2","nse_score":655.4,"educ":12.3,"educ_score":620.0,"hacin":2.273,"hacin_class":"Hacinamiento Medio","hacin_score":580.3,"auto_score":416.7,"n_per":25,"n_hog":5,"source_year":2024},"geometry":{"type":"Polygon","coordinates":[[[-72.5774709149999,-47.2556435790597],[-72.5761103669999,-47.2557737120598],[-72.5760210149999,-47.2563059010598],[-72.5774104969999,-47.2562128550597],[-72.5774709149999,-47.2556435790597]]]}},{"type":"Feature","properties":{"id":"11301011001099","commune":"Cochrane","code":"11301","gse":"C3","quintil":"Q3","nse_score":682.9,"educ":10.4,"educ_score":493.3,"hacin":1.467,"hacin_class":"Hacinamiento Leve","hacin_score":751.8,"auto_score":50.0,"n_per":22,"n_hog":10,"source_year":2024},"geometry":{"type":"Polygon","coordinates":[[[-72.5758448049999,-47.2558071700597],[-72.5744723049999,-47.2559474530597],[-72.5743884009999,-47.2564913290597],[-72.5758770839999,-47.2563774860598],[-72.5758448049999,-47.2558071700597]]]}},{"type":"Feature","properties":{"id":"11301011001100","commune":"Cochrane","code":"11301","gse":"C1","quintil":"Q5","nse_score":769.3,"educ":12.9,"educ_score":660.0,"hacin":1.0,"hacin_class":"Hacinamiento Leve","hacin_score":851.1,"auto_score":214.3,"n_per":29,"n_hog":14,"source_year":2024},"geometry":{"type":"Polygon","coordinates":[[[-72.5743156789999,-47.2559625410597],[-72.5728947889999,-47.2561533380597],[-72.5728670049999,-47.2566934320598],[-72.5742849009999,-47.2565216970597],[-72.5743156789999,-47.2559625410597]]]}},{"type":"Feature","properties":{"id":"11301011001102","commune":"Cochrane","code":"11301","gse":"C3","quintil":"Q3","nse_score":699.4,"educ":11.2,"educ_score":546.7,"hacin":1.385,"hacin_class":"Hacinamiento Leve","hacin_score":769.2,"auto_score":0.0,"n_per":18,"n_hog":6,"source_year":2024},"geometry":{"type":"Polygon","coordinates":[[[-72.5798526109999,-47.2566955890598],[-72.5805687689999,-47.2566119800598],[-72.5805481899999,-47.2560913480597],[-72.5798740929999,-47.2561543180597],[-72.5798526109999,-47.2566955890598]]]}},{"type":"Feature","properties":{"id":"11301011001106","commune":"Cochrane","code":"11301","gse":"ABC1","quintil":"Q5","nse_score":816.2,"educ":14.3,"educ_score":753.3,"hacin":1.074,"hacin_class":"Hacinamiento Leve","hacin_score":835.3,"auto_score":178.6,"n_per":29,"n_hog":14,"source_year":2024},"geometry":{"type":"Polygon","coordinates":[[[-72.5743143539999,-47.2570934460597],[-72.5759512649999,-47.2569456910598],[-72.5759204279999,-47.2564466490597],[-72.5743981869999,-47.2565883360597],[-72.5743143539999,-47.2570934460597]]]}},{"type":"Feature","properties":{"id":"11301011001108","commune":"Cochrane","code":"11301","gse":"C2","quintil":"Q4","nse_score":723.1,"educ":12.2,"educ_score":613.3,"hacin":1.333,"hacin_class":"Hacinamiento Leve","hacin_score":780.1,"auto_score":62.5,"n_per":40,"n_hog":16,"source_year":2024},"geometry":{"type":"Polygon","coordinates":[[[-72.5727638269999,-47.2572425470597],[-72.5741788109999,-47.2571178550597],[-72.5742678899999,-47.2566110970598],[-72.5728472489999,-47.2567571300597],[-72.5727638269999,-47.2572425470597]]]}},{"type":"Feature","properties":{"id":"11301011001109","commune":"Cochrane","code":"11301","gse":"C3","quintil":"Q3","nse_score":698.2,"educ":11.5,"educ_score":566.7,"hacin":1.122,"hacin_class":"Hacinamiento Leve","hacin_score":825.1,"auto_score":160.0,"n_per":46,"n_hog":22,"source_year":2024},"geometry":{"type":"Polygon","coordinates":[[[-72.5765591219999,-47.2569243160597],[-72.5766829709999,-47.2577319640598],[-72.5774208159999,-47.2577475750598],[-72.5774448109999,-47.2572218180597],[-72.5768724199999,-47.2572113330597],[-72.5774469489999,-47.2571749680598],[-72.5774322819999,-47.2568255530597],[-72.5765591219999,-47.2569243160597]]]}},{"type":"Feature","properties":{"id":"11301011001110","commune":"Cochrane","code":"11301","gse":"C3","quintil":"Q3","nse_score":694.4,"educ":11.5,"educ_score":566.7,"hacin":1.239,"hacin_class":"Hacinamiento Leve","hacin_score":800.3,"auto_score":212.8,"n_per":109,"n_hog":47,"source_year":2024},"geometry":{"type":"Polygon","coordinates":[[[-72.5743132469999,-47.2575810400597],[-72.5761476679999,-47.2573871620597],[-72.5742776509999,-47.2576507300598],[-72.5743501289999,-47.2578675520597],[-72.5765918129999,-47.2577170090597],[-72.5764395399999,-47.2569452330598],[-72.5742803369999,-47.2571678870597],[-72.5743132469999,-47.2575810400597]]]}},{"type":"Feature","properties":{"id":"11301011001111","commune":"Cochrane","code":"11301","gse":"D","quintil":"Q1","nse_score":612.9,"educ":9.2,"educ_score":413.3,"hacin":0.947,"hacin_class":"Sin Hacinamiento","hacin_score":862.3,"auto_score":222.2,"n_per":18,"n_hog":9,"source_year":2024},"geometry":{"type":"Polygon","coordinates":[[[-72.5742504469999,-47.2578698870597],[-72.5741765569999,-47.2571806220598],[-72.5734069729999,-47.2572559020597],[-72.5735900469999,-47.2581099600597],[-72.5741343179999,-47.2580282920598],[-72.5742504469999,-47.2578698870597]]]}},{"type":"Feature","properties":{"id":"11301011001112","commune":"Cochrane","code":"11301","gse":"C2","quintil":"Q4","nse_score":726.3,"educ":12.6,"educ_score":640.0,"hacin":1.05,"hacin_class":"Hacinamiento Leve","hacin_score":840.4,"auto_score":90.9,"n_per":21,"n_hog":11,"source_year":2024},"geometry":{"type":"Polygon","coordinates":[[[-72.5733131839999,-47.2572648080598],[-72.5727147619999,-47.2573532120597],[-72.5727184759999,-47.2575828330598],[-72.5731967599999,-47.2581782450598],[-72.5735435579999,-47.2581035940597],[-72.5733131839999,-47.2572648080598]]]}},{"type":"Feature","properties":{"id":"11301011001113","commune":"Cochrane","code":"11301","gse":"C3","quintil":"Q3","nse_score":685.8,"educ":12.1,"educ_score":606.7,"hacin":1.375,"hacin_class":"Hacinamiento Leve","hacin_score":771.3,"auto_score":29.4,"n_per":33,"n_hog":17,"source_year":2024},"geometry":{"type":"Polygon","coordinates":[[[-72.5723306319999,-47.2580634370597],[-72.5737941979999,-47.2587337050597],[-72.5741547569999,-47.2596298210597],[-72.5753380739999,-47.2593445400597],[-72.5762682989999,-47.2597753650598],[-72.5770070469999,-47.2597485780597],[-72.5770362709999,-47.2596337630598],[-72.5779805749999,-47.2593593720598],[-72.5780030959999,-47.2587741470597],[-72.5774095519999,-47.2587565020597],[-72.577578361,-47.2588192740598],[-72.5774578349999,-47.2588324300597],[-72.5776929559999,-47.2590993790598],[-72.5773675949999,-47.2587811490598],[-72.5771446359999,-47.2588417760598],[-72.5774096149999,-47.2586971610597],[-72.5773824849999,-47.2577986050598],[-72.5743528589999,-47.2579069800597],[-72.574149142,-47.2580816720598],[-72.5732711089999,-47.2582185950598],[-72.5727501829999,-47.2577518920597],[-72.5723306319999,-47.2580634370597]]]}},{"type":"Feature","properties":{"id":"11301011001009","commune":"Cochrane","code":"11301","gse":"D","quintil":"Q1","nse_score":627.2,"educ":10.1,"educ_score":473.3,"hacin":1.273,"hacin_class":"Hacinamiento Leve","hacin_score":793.0,"auto_score":0.0,"n_per":14,"n_hog":6,"source_year":2024},"geometry":{"type":"MultiPolygon","coordinates":[[[[-72.5786122539999,-47.2510583050597],[-72.5796453649999,-47.2510039120597],[-72.5794422249999,-47.2500143600597],[-72.5786122539999,-47.2510583050597]]],[[[-72.5785592309999,-47.2509448230597],[-72.5793808139999,-47.2498233860597],[-72.5793056709999,-47.2493766810597],[-72.579423931,-47.2491103760597],[-72.5789397109999,-47.2489310540597],[-72.5787850669999,-47.2485057910597],[-72.5780965719999,-47.2483352930597],[-72.5780166479999,-47.2483779470597],[-72.578524108,-47.2485808250597],[-72.5787157609999,-47.2489679000597],[-72.5786742029999,-47.2493055070597],[-72.5788315629999,-47.2497274880598],[-72.578401261,-47.2502201090597],[-72.5785592309999,-47.2509448230597]]]]}},{"type":"Feature","properties":{"id":"11301011001016","commune":"Cochrane","code":"11301","gse":"C3","quintil":"Q3","nse_score":697.1,"educ":10.8,"educ_score":520.0,"hacin":1.143,"hacin_class":"Hacinamiento Leve","hacin_score":820.7,"auto_score":357.1,"n_per":16,"n_hog":7,"source_year":2024},"geometry":{"type":"MultiPolygon","coordinates":[[[[-72.5705364699999,-47.2499900170597],[-72.5713260069999,-47.2504440660597],[-72.5714197269999,-47.2502465640597],[-72.5708886539999,-47.2498582580598],[-72.5705364699999,-47.2499900170597]]],[[[-72.5697316079999,-47.2496716150597],[-72.5706209359999,-47.2499221390597],[-72.5708780209999,-47.2497617220597],[-72.5707553469999,-47.2496038310597],[-72.5698606969999,-47.2492163080597],[-72.569666761,-47.2493990960597],[-72.5697316079999,-47.2496716150597]]]]}},{"type":"Feature","properties":{"id":"11301011001064","commune":"Cochrane","code":"11301","gse":"C2","quintil":"Q4","nse_score":721.4,"educ":11.1,"educ_score":540.0,"hacin":1.111,"hacin_class":"Hacinamiento Leve","hacin_score":827.4,"auto_score":0.0,"n_per":20,"n_hog":7,"source_year":2024},"geometry":{"type":"MultiPolygon","coordinates":[[[[-72.5710733069999,-47.2549396190597],[-72.5724557079999,-47.2547833590597],[-72.5722556289999,-47.2538265810597],[-72.570817314,-47.2539632260597],[-72.5710733069999,-47.2549396190597]]],[[[-72.5723511829999,-47.2537097890597],[-72.5737901829999,-47.2535624870598],[-72.5736033899999,-47.2525933100597],[-72.5721289279999,-47.2527239900597],[-72.5723511829999,-47.2537097890597]]]]}},{"type":"Feature","properties":{"id":"11301011001022","commune":"Cochrane","code":"11301","gse":"D","quintil":"Q2","nse_score":658.3,"educ":10.8,"educ_score":520.0,"hacin":1.32,"hacin_class":"Hacinamiento Leve","hacin_score":783.0,"auto_score":115.4,"n_per":33,"n_hog":13,"source_year":2024},"geometry":{"type":"MultiPolygon","coordinates":[[[[-72.5711768299999,-47.2505700010597],[-72.5707787839999,-47.2509039510597],[-72.5717043439999,-47.2508424960598],[-72.5711768299999,-47.2505700010597]]],[[[-72.5694589779999,-47.2504591340597],[-72.5706339479999,-47.2509341140598],[-72.5711721999999,-47.2504308770597],[-72.5696936019999,-47.2497466480597],[-72.5694589779999,-47.2504591340597]]]]}},{"type":"Feature","properties":{"id":"11301011001002","commune":"Cochrane","code":"11301","gse":"D","quintil":"Q1","nse_score":642.1,"educ":10.6,"educ_score":506.7,"hacin":1.473,"hacin_class":"Hacinamiento Leve","hacin_score":750.5,"auto_score":285.7,"n_per":81,"n_hog":26,"source_year":2024},"geometry":{"type":"MultiPolygon","coordinates":[[[[-72.5661758969999,-47.2477086390597],[-72.5678453549999,-47.2482284770597],[-72.5681568269999,-47.2478428560597],[-72.5664244989999,-47.2473453790597],[-72.5661758969999,-47.2477086390597]]],[[[-72.5655212209999,-47.2470622700597],[-72.5665097759999,-47.2472797870597],[-72.5663562069999,-47.2468750340597],[-72.5664938789999,-47.2465931170597],[-72.5655212209999,-47.2470622700597]]]]}},{"type":"Feature","properties":{"id":"11301011001004","commune":"Cochrane","code":"11301","gse":"E","quintil":"Q1","nse_score":596.7,"educ":9.3,"educ_score":420.0,"hacin":1.357,"hacin_class":"Hacinamiento Leve","hacin_score":775.1,"auto_score":0.0,"n_per":57,"n_hog":26,"source_year":2024},"geometry":{"type":"MultiPolygon","coordinates":[[[[-72.5803002849999,-47.2493034270597],[-72.5794617419999,-47.2492703860597],[-72.5794001819999,-47.2493648290597],[-72.5797645249999,-47.2509724380598],[-72.5806737089999,-47.2509124650597],[-72.5805738509999,-47.2504738050597],[-72.5807224499999,-47.2509081970597],[-72.5814987129999,-47.2508003650597],[-72.5809340899999,-47.2486252360597],[-72.5802158489999,-47.2483570960597],[-72.579804883,-47.2486694230597],[-72.5794844349999,-47.2492352750597],[-72.5803002849999,-47.2493034270597]]],[[[-72.5777930429999,-47.2477516530598],[-72.5783595589999,-47.2483137010597],[-72.5788932709999,-47.2485179040597],[-72.5790005789999,-47.2489014160597],[-72.579301229,-47.2489651880597],[-72.5795177189999,-47.2489513900597],[-72.5797593789999,-47.2486074080597],[-72.5807129709999,-47.2479082730597],[-72.5792141839999,-47.2479206590597],[-72.5789904989999,-47.2475335680597],[-72.5777930429999,-47.2477516530598]]]]}},{"type":"Feature","properties":{"id":"11301011001031","commune":"Cochrane","code":"11301","gse":"C2","quintil":"Q4","nse_score":751.2,"educ":12.8,"educ_score":653.3,"hacin":1.241,"hacin_class":"Hacinamiento Leve","hacin_score":799.7,"auto_score":333.3,"n_per":36,"n_hog":11,"source_year":2024},"geometry":{"type":"MultiPolygon","coordinates":[[[[-72.5596142709999,-47.2513580500598],[-72.5613424419999,-47.2514022190597],[-72.5601282539999,-47.2509510070597],[-72.5596213089999,-47.2509545270597],[-72.5596142709999,-47.2513580500598]]],[[[-72.5586715039999,-47.2508658860597],[-72.5600013439999,-47.2509058550597],[-72.5593699589999,-47.2505565800598],[-72.5586380259999,-47.2505741150597],[-72.5586715039999,-47.2508658860597]]]]}},{"type":"Feature","properties":{"id":"11301011001048","commune":"Cochrane","code":"11301","gse":"D","quintil":"Q1","nse_score":627.0,"educ":8.0,"educ_score":333.3,"hacin":1.182,"hacin_class":"Hacinamiento Leve","hacin_score":812.4,"auto_score":41.7,"n_per":26,"n_hog":12,"source_year":2024},"geometry":{"type":"MultiPolygon","coordinates":[[[[-72.5704192919999,-47.2523709980597],[-72.571093275,-47.2523042980597],[-72.572194496,-47.2516870680598],[-72.5720500219999,-47.2515851450597],[-72.5703450819999,-47.2517570880597],[-72.5704192919999,-47.2523709980597]]],[[[-72.5721325239999,-47.2526453620598],[-72.5750768909999,-47.2523580710597],[-72.5751200669999,-47.2523303440597],[-72.5748879719999,-47.2519456400597],[-72.5746547289999,-47.2518206180597],[-72.5729617949999,-47.2513829210598],[-72.5719299279999,-47.2519359450597],[-72.5721325239999,-47.2526453620598]]]]}}]}