{"type":"FeatureCollection","features":[{"type":"Feature","properties":{"id":"8204011001001","commune":"Contulmo","code":"08204","gse":"C2","quintil":"Q3","nse_score":736.8,"educ":11.8,"educ_score":586.7,"hacin":0.939,"hacin_class":"Sin Hacinamiento","hacin_score":864.1,"auto_score":71.4,"n_per":46,"n_hog":21,"source_year":2024,"crime_score":0.3063,"crime_nivel":"Medio","crime_color":"#ff9800"},"geometry":{"type":"Polygon","coordinates":[[[-73.2314222689999,-38.0134848340842],[-73.2311461319999,-38.0126799290842],[-73.2308312989999,-38.0123780240842],[-73.2308019399999,-38.0119449560842],[-73.2309603749999,-38.0118662180843],[-73.2310371959999,-38.0113812480843],[-73.2289622299999,-38.0110601040843],[-73.2291200019999,-38.0135245630842],[-73.2300805419999,-38.0135184070842],[-73.2300688789999,-38.0126695750842],[-73.2301106819999,-38.0135156880842],[-73.2314222689999,-38.0134848340842]]]}},{"type":"Feature","properties":{"id":"8204011001002","commune":"Contulmo","code":"08204","gse":"D","quintil":"Q1","nse_score":655.1,"educ":9.2,"educ_score":413.3,"hacin":1.057,"hacin_class":"Hacinamiento Leve","hacin_score":838.9,"auto_score":0.0,"n_per":37,"n_hog":21,"source_year":2024,"crime_score":0.3191,"crime_nivel":"Medio","crime_color":"#ff9800"},"geometry":{"type":"Polygon","coordinates":[[[-73.2279095899999,-38.0125143160843],[-73.228939109,-38.0124770110842],[-73.2289056239999,-38.0115263750843],[-73.2278479559999,-38.0115686030843],[-73.2279095899999,-38.0125143160843]]]}},{"type":"Feature","properties":{"id":"8204011001003","commune":"Contulmo","code":"08204","gse":"C3","quintil":"Q3","nse_score":717.5,"educ":10.9,"educ_score":526.7,"hacin":1.022,"hacin_class":"Hacinamiento Leve","hacin_score":846.4,"auto_score":73.5,"n_per":94,"n_hog":34,"source_year":2024,"crime_score":0.3169,"crime_nivel":"Medio","crime_color":"#ff9800"},"geometry":{"type":"Polygon","coordinates":[[[-73.2258642169999,-38.0159192690842],[-73.2264132719999,-38.0165354570842],[-73.2265665329999,-38.0165553730842],[-73.2264546609999,-38.0137274070842],[-73.2266091329999,-38.0136129090843],[-73.2278305389999,-38.0135449070842],[-73.2278076019999,-38.0115489240843],[-73.2273336969999,-38.0115456420842],[-73.2273612339999,-38.0125456850843],[-73.2256583939999,-38.0143859950842],[-73.2258642169999,-38.0159192690842]]]}},{"type":"Feature","properties":{"id":"8204011001004","commune":"Contulmo","code":"08204","gse":"C2","quintil":"Q3","nse_score":737.5,"educ":11.6,"educ_score":573.3,"hacin":0.956,"hacin_class":"Sin Hacinamiento","hacin_score":860.5,"auto_score":62.5,"n_per":43,"n_hog":16,"source_year":2024,"crime_score":0.3057,"crime_nivel":"Medio","crime_color":"#ff9800"},"geometry":{"type":"Polygon","coordinates":[[[-73.2279841669999,-38.0135747110842],[-73.2290038689999,-38.0135308540843],[-73.2289638539999,-38.0125576700842],[-73.2278850419999,-38.0125950490842],[-73.2279841669999,-38.0135747110842]]]}},{"type":"Feature","properties":{"id":"8204011001005","commune":"Contulmo","code":"08204","gse":"C3","quintil":"Q2","nse_score":698.0,"educ":10.9,"educ_score":526.7,"hacin":1.184,"hacin_class":"Hacinamiento Leve","hacin_score":811.9,"auto_score":0.0,"n_per":45,"n_hog":16,"source_year":2024,"crime_score":0.3129,"crime_nivel":"Medio","crime_color":"#ff9800"},"geometry":{"type":"Polygon","coordinates":[[[-73.2333847879999,-38.0135058280842],[-73.2330289459999,-38.0140218530842],[-73.2332910409999,-38.0135231490842],[-73.2325722779999,-38.0135313700842],[-73.2330130039999,-38.0145201850842],[-73.2333522579999,-38.0144965090842],[-73.2338645429999,-38.0135303100843],[-73.2333847879999,-38.0135058280842]]]}},{"type":"Feature","properties":{"id":"8204011001006","commune":"Contulmo","code":"08204","gse":"D","quintil":"Q2","nse_score":678.5,"educ":10.7,"educ_score":513.3,"hacin":1.111,"hacin_class":"Hacinamiento Leve","hacin_score":827.4,"auto_score":62.5,"n_per":20,"n_hog":8,"source_year":2024,"crime_score":0.3124,"crime_nivel":"Medio","crime_color":"#ff9800"},"geometry":{"type":"Polygon","coordinates":[[[-73.2353170329999,-38.0172901560842],[-73.2351057059999,-38.0167414440842],[-73.2341686369999,-38.0169507860842],[-73.2339543649999,-38.0160645080842],[-73.2339280119999,-38.0149316620842],[-73.2341876829999,-38.0149961160843],[-73.2345732779999,-38.0137439310843],[-73.2339939299999,-38.0135063310842],[-73.232605997,-38.0160761750842],[-73.2332699939999,-38.0176304140842],[-73.2353170329999,-38.0172901560842]]]}},{"type":"Feature","properties":{"id":"8204011001007","commune":"Contulmo","code":"08204","gse":"C3","quintil":"Q3","nse_score":713.4,"educ":10.7,"educ_score":513.3,"hacin":1.03,"hacin_class":"Hacinamiento Leve","hacin_score":844.6,"auto_score":188.7,"n_per":135,"n_hog":53,"source_year":2024,"crime_score":0.3239,"crime_nivel":"Medio","crime_color":"#ff9800"},"geometry":{"type":"Polygon","coordinates":[[[-73.2324772989999,-38.0135154670842],[-73.2303021779999,-38.0135674790843],[-73.2303582269999,-38.0145766420842],[-73.2329004549999,-38.0145182780842],[-73.232730838,-38.0141326080842],[-73.2318792159999,-38.0141376040842],[-73.23187293,-38.0137903910842],[-73.2319142549999,-38.0140818170842],[-73.2326954239999,-38.0140643470842],[-73.2324772989999,-38.0135154670842]]]}},{"type":"Feature","properties":{"id":"8204011001008","commune":"Contulmo","code":"08204","gse":"C3","quintil":"Q3","nse_score":730.3,"educ":13.3,"educ_score":686.7,"hacin":1.107,"hacin_class":"Hacinamiento Leve","hacin_score":828.3,"auto_score":0.0,"n_per":31,"n_hog":14,"source_year":2024,"crime_score":0.3052,"crime_nivel":"Medio","crime_color":"#ff9800"},"geometry":{"type":"Polygon","coordinates":[[[-73.2291998779999,-38.0146173340842],[-73.2302514754999,-38.0145710290842],[-73.2302002729999,-38.0135751010842],[-73.2291066019999,-38.0136085430842],[-73.2291998779999,-38.0146173340842]]]}},{"type":"Feature","properties":{"id":"8204011001009","commune":"Contulmo","code":"08204","gse":"C1","quintil":"Q5","nse_score":807.4,"educ":12.5,"educ_score":633.3,"hacin":0.607,"hacin_class":"Sin Hacinamiento","hacin_score":934.8,"auto_score":78.9,"n_per":37,"n_hog":19,"source_year":2024,"crime_score":0.2927,"crime_nivel":"Medio","crime_color":"#ff9800"},"geometry":{"type":"Polygon","coordinates":[[[-73.228019533,-38.0146558600842],[-73.2290563449999,-38.0146115000842],[-73.2290083069999,-38.0136175000842],[-73.2279361639999,-38.0136465960842],[-73.228019533,-38.0146558600842]]]}},{"type":"Feature","properties":{"id":"8204011001010","commune":"Contulmo","code":"08204","gse":"C2","quintil":"Q4","nse_score":753.9,"educ":11.9,"educ_score":593.3,"hacin":1.118,"hacin_class":"Hacinamiento Leve","hacin_score":826.0,"auto_score":125.0,"n_per":38,"n_hog":16,"source_year":2024,"crime_score":0.3021,"crime_nivel":"Medio","crime_color":"#ff9800"},"geometry":{"type":"Polygon","coordinates":[[[-73.2266008419999,-38.0147069370842],[-73.2278819229999,-38.0146481940843],[-73.2278346149999,-38.0136431880842],[-73.2265309429999,-38.0137174010843],[-73.2266008419999,-38.0147069370842]]]}},{"type":"Feature","properties":{"id":"8204011001011","commune":"Contulmo","code":"08204","gse":"C2","quintil":"Q4","nse_score":787.7,"educ":12.5,"educ_score":633.3,"hacin":0.98,"hacin_class":"Sin Hacinamiento","hacin_score":855.4,"auto_score":166.7,"n_per":48,"n_hog":18,"source_year":2024,"crime_score":0.2978,"crime_nivel":"Medio","crime_color":"#ff9800"},"geometry":{"type":"Polygon","coordinates":[[[-73.2310840749999,-38.0154220660842],[-73.2316572679999,-38.0154226960842],[-73.2310933129999,-38.0154667190842],[-73.231153317,-38.0164153650842],[-73.2319961879999,-38.0163535050842],[-73.2324894539999,-38.0160582890842],[-73.233275998,-38.0146143420842],[-73.2310971009999,-38.0146301590842],[-73.2310840749999,-38.0154220660842]]]}},{"type":"Feature","properties":{"id":"8204011001012","commune":"Contulmo","code":"08204","gse":"D","quintil":"Q2","nse_score":674.0,"educ":9.7,"educ_score":446.7,"hacin":1.0,"hacin_class":"Hacinamiento Leve","hacin_score":851.1,"auto_score":250.0,"n_per":24,"n_hog":10,"source_year":2024,"crime_score":0.3138,"crime_nivel":"Medio","crime_color":"#ff9800"},"geometry":{"type":"Polygon","coordinates":[[[-73.2302275979999,-38.0154942220842],[-73.2310070699999,-38.0154569610842],[-73.2309843479999,-38.0146536910842],[-73.2301578979999,-38.0146686510843],[-73.2302275979999,-38.0154942220842]]]}},{"type":"Feature","properties":{"id":"8204011001013","commune":"Contulmo","code":"08204","gse":"C2","quintil":"Q3","nse_score":738.0,"educ":13.2,"educ_score":680.0,"hacin":0.833,"hacin_class":"Sin Hacinamiento","hacin_score":886.5,"auto_score":0.0,"n_per":25,"n_hog":10,"source_year":2024,"crime_score":0.303,"crime_nivel":"Medio","crime_color":"#ff9800"},"geometry":{"type":"Polygon","coordinates":[[[-73.2291943639999,-38.0154819240842],[-73.2300880599999,-38.0154844560843],[-73.2300639699999,-38.0146795490842],[-73.2291600929999,-38.0147132300842],[-73.2291943639999,-38.0154819240842]]]}},{"type":"Feature","properties":{"id":"8204011001014","commune":"Contulmo","code":"08204","gse":"D","quintil":"Q1","nse_score":652.2,"educ":10.6,"educ_score":506.7,"hacin":1.091,"hacin_class":"Hacinamiento Leve","hacin_score":831.7,"auto_score":375.0,"n_per":12,"n_hog":4,"source_year":2024,"crime_score":0.3157,"crime_nivel":"Medio","crime_color":"#ff9800"},"geometry":{"type":"Polygon","coordinates":[[[-73.2280660089999,-38.0155596170842],[-73.2291048979999,-38.0155175290842],[-73.2290620509999,-38.0147063840843],[-73.2279931619999,-38.0147350080842],[-73.2280660089999,-38.0155596170842]]]}},{"type":"Feature","properties":{"id":"8204011001016","commune":"Contulmo","code":"08204","gse":"C2","quintil":"Q4","nse_score":757.8,"educ":14.5,"educ_score":766.7,"hacin":1.067,"hacin_class":"Hacinamiento Leve","hacin_score":836.9,"auto_score":76.9,"n_per":32,"n_hog":11,"source_year":2024,"crime_score":0.3006,"crime_nivel":"Medio","crime_color":"#ff9800"},"geometry":{"type":"Polygon","coordinates":[[[-73.2302658879999,-38.0164547380842],[-73.2310631969999,-38.0164251740842],[-73.2310231599999,-38.0155516870842],[-73.2302042339999,-38.0155736540842],[-73.2302658879999,-38.0164547380842]]]}},{"type":"Feature","properties":{"id":"8204011001020","commune":"Contulmo","code":"08204","gse":"C2","quintil":"Q3","nse_score":743.9,"educ":12.1,"educ_score":606.7,"hacin":0.988,"hacin_class":"Sin Hacinamiento","hacin_score":853.6,"auto_score":88.7,"n_per":165,"n_hog":64,"source_year":2024,"crime_score":0.3228,"crime_nivel":"Medio","crime_color":"#ff9800"},"geometry":{"type":"Polygon","coordinates":[[[-73.2311720379999,-38.0164884740842],[-73.2312083749999,-38.0173122960842],[-73.2318826819999,-38.0172875420842],[-73.2311964089999,-38.0173930160842],[-73.2325642149999,-38.0203621900842],[-73.232640865,-38.0207823960842],[-73.2329293429999,-38.0209689010842],[-73.2333083479999,-38.0205770710842],[-73.2332731689999,-38.0201893630842],[-73.2331044509999,-38.0199530700842],[-73.2341473649999,-38.0197910370842],[-73.2325974929999,-38.0161609350842],[-73.2318139809999,-38.0164566740842],[-73.2311720379999,-38.0164884740842]]]}},{"type":"Feature","properties":{"id":"8204011001021","commune":"Contulmo","code":"08204","gse":"C2","quintil":"Q3","nse_score":743.9,"educ":12.1,"educ_score":606.7,"hacin":1.042,"hacin_class":"Hacinamiento Leve","hacin_score":842.2,"auto_score":118.1,"n_per":201,"n_hog":73,"source_year":2024,"crime_score":0.3282,"crime_nivel":"Medio","crime_color":"#ff9800"},"geometry":{"type":"Polygon","coordinates":[[[-73.2285509709999,-38.0191994600842],[-73.2285486059999,-38.0199670550842],[-73.2304839779999,-38.0198553990842],[-73.2308541209999,-38.0202166230842],[-73.2308909289999,-38.0212634890842],[-73.2313627349999,-38.0208169800842],[-73.2313139829999,-38.0195917710842],[-73.2311612199999,-38.0194403630842],[-73.2307320019999,-38.0191839140842],[-73.2302236369999,-38.0190725130842],[-73.2292114079999,-38.0192238260842],[-73.2291681709999,-38.0194373220842],[-73.2291239179999,-38.0187767660842],[-73.2287039839999,-38.0188957550842],[-73.2293807129999,-38.0186122520842],[-73.2293003319999,-38.0174453700842],[-73.22878055,-38.0174645070842],[-73.2288190749999,-38.0183629150842],[-73.2287809329999,-38.0184480000842],[-73.2287658909999,-38.0180734130842],[-73.228457482,-38.0180576620842],[-73.2279338239999,-38.0178213460842],[-73.2287424879999,-38.0180460940842],[-73.2287225759999,-38.0174572870842],[-73.2275497289999,-38.0174628710842],[-73.2274616859999,-38.0166118340842],[-73.226484921,-38.0166240680842],[-73.2262376699999,-38.0163946480842],[-73.2263139549999,-38.0181324950842],[-73.2275825339999,-38.0181080990842],[-73.2280794269999,-38.0183239540842],[-73.2285509709999,-38.0191994600842]]]}},{"type":"Feature","properties":{"id":"8204011001022","commune":"Contulmo","code":"08204","gse":"C3","quintil":"Q3","nse_score":725.6,"educ":12.0,"educ_score":600.0,"hacin":0.895,"hacin_class":"Sin Hacinamiento","hacin_score":873.5,"auto_score":29.4,"n_per":34,"n_hog":17,"source_year":2024,"crime_score":0.3064,"crime_nivel":"Medio","crime_color":"#ff9800"},"geometry":{"type":"Polygon","coordinates":[[[-73.2303172269999,-38.0173490630842],[-73.2310897069999,-38.0173065490842],[-73.2310669509999,-38.0165063980842],[-73.2302591919999,-38.0165286920842],[-73.2303172269999,-38.0173490630842]]]}},{"type":"Feature","properties":{"id":"8204011001024","commune":"Contulmo","code":"08204","gse":"C2","quintil":"Q3","nse_score":741.2,"educ":12.2,"educ_score":613.3,"hacin":1.259,"hacin_class":"Hacinamiento Leve","hacin_score":795.9,"auto_score":35.7,"n_per":34,"n_hog":14,"source_year":2024,"crime_score":0.3037,"crime_nivel":"Medio","crime_color":"#ff9800"},"geometry":{"type":"Polygon","coordinates":[[[-73.2276642139999,-38.0174330420842],[-73.2292839959999,-38.0173814840842],[-73.2292585939999,-38.0165856000842],[-73.2275732259999,-38.0166090490842],[-73.2276642139999,-38.0174330420842]]]}},{"type":"Feature","properties":{"id":"8204011001025","commune":"Contulmo","code":"08204","gse":"C3","quintil":"Q3","nse_score":719.6,"educ":13.0,"educ_score":666.7,"hacin":0.842,"hacin_class":"Sin Hacinamiento","hacin_score":884.7,"auto_score":62.5,"n_per":16,"n_hog":8,"source_year":2024,"crime_score":0.3048,"crime_nivel":"Medio","crime_color":"#ff9800"},"geometry":{"type":"Polygon","coordinates":[[[-73.2333152579999,-38.0176659920842],[-73.2341816509999,-38.0197673800842],[-73.2361787489999,-38.0194754260842],[-73.2353265179999,-38.0173144990842],[-73.2333152579999,-38.0176659920842]]]}},{"type":"Feature","properties":{"id":"8204011001028","commune":"Contulmo","code":"08204","gse":"C2","quintil":"Q3","nse_score":735.2,"educ":12.0,"educ_score":600.0,"hacin":1.166,"hacin_class":"Hacinamiento Leve","hacin_score":815.7,"auto_score":100.0,"n_per":302,"n_hog":106,"source_year":2024,"crime_score":0.3446,"crime_nivel":"Medio","crime_color":"#ff9800"},"geometry":{"type":"Polygon","coordinates":[[[-73.2308932439999,-38.0214235330842],[-73.2310508409999,-38.0239988610842],[-73.2307603889999,-38.0245583670841],[-73.231926702,-38.0248929640842],[-73.2320726059999,-38.0246410540841],[-73.2315529509999,-38.0244157470841],[-73.2320965119999,-38.0245853820841],[-73.2322484279999,-38.0243332550841],[-73.2317084889999,-38.0241015190842],[-73.2322595639999,-38.0242864720841],[-73.2324154419999,-38.0241570560841],[-73.2323433239999,-38.0243109270841],[-73.2331168619999,-38.0245749960842],[-73.2323175529999,-38.0243474740842],[-73.2321857169999,-38.0246173150842],[-73.2329709379999,-38.0249088850842],[-73.2321625529999,-38.0246647240841],[-73.2320157679999,-38.0249094130841],[-73.2328604429999,-38.0252207420841],[-73.2319862269999,-38.0249718430842],[-73.2318428529999,-38.0252415340841],[-73.2330038739999,-38.0255543180841],[-73.2333703149999,-38.0247607560841],[-73.2333426679999,-38.0245344030842],[-73.2326495769999,-38.0236266830841],[-73.2320852809999,-38.0236520360842],[-73.2321058539999,-38.0238170300841],[-73.2325456439999,-38.0239876090842],[-73.2320764919999,-38.0238563040841],[-73.2320274619999,-38.0237856670841],[-73.2320640039999,-38.0228529660842],[-73.2325970389999,-38.0227620890842],[-73.2325899349999,-38.0223154170842],[-73.2315916279999,-38.0223565760842],[-73.2325714429999,-38.0222787830842],[-73.2325765269999,-38.0217772370842],[-73.2314099389999,-38.0218265510842],[-73.2325638899999,-38.0217445900842],[-73.2325453429999,-38.0205422160842],[-73.2319550969999,-38.0191969160842],[-73.2313337819999,-38.0196856590842],[-73.2314036139999,-38.0207844090842],[-73.2308932439999,-38.0214235330842]]]}},{"type":"Feature","properties":{"id":"8204011001029","commune":"Contulmo","code":"08204","gse":"C1","quintil":"Q5","nse_score":820.9,"educ":13.4,"educ_score":693.3,"hacin":0.714,"hacin_class":"Sin Hacinamiento","hacin_score":911.9,"auto_score":150.0,"n_per":20,"n_hog":10,"source_year":2024,"crime_score":0.288,"crime_nivel":"Medio","crime_color":"#ff9800"},"geometry":{"type":"Polygon","coordinates":[[[-73.2337453649999,-38.0244821810841],[-73.2331111419999,-38.0240069050842],[-73.2329491399999,-38.0236169080842],[-73.2329848719999,-38.0233560530842],[-73.2333216669999,-38.0232168620841],[-73.2332273629999,-38.0230757450841],[-73.2333445729999,-38.0227665300842],[-73.2329789679999,-38.0222339760842],[-73.2329291349999,-38.0215260600842],[-73.2328192719999,-38.0214118370842],[-73.2329172369999,-38.0209854240842],[-73.2326464079999,-38.0208855870842],[-73.2327213829999,-38.0236217260842],[-73.2335038149999,-38.0246201280841],[-73.2337453649999,-38.0244821810841]]]}},{"type":"Feature","properties":{"id":"8204011001030","commune":"Contulmo","code":"08204","gse":"D","quintil":"Q2","nse_score":684.1,"educ":11.3,"educ_score":553.3,"hacin":0.882,"hacin_class":"Sin Hacinamiento","hacin_score":876.1,"auto_score":0.0,"n_per":15,"n_hog":6,"source_year":2024,"crime_score":0.3107,"crime_nivel":"Medio","crime_color":"#ff9800"},"geometry":{"type":"Polygon","coordinates":[[[-73.2325935139999,-38.0231921310841],[-73.2326009069999,-38.0228448810841],[-73.2321275739999,-38.0228532910842],[-73.2321031189999,-38.0231773980841],[-73.2325935139999,-38.0231921310841]]]}},{"type":"Feature","properties":{"id":"8204011001031","commune":"Contulmo","code":"08204","gse":"D","quintil":"Q2","nse_score":676.0,"educ":11.4,"educ_score":560.0,"hacin":1.5,"hacin_class":"Hacinamiento Medio","hacin_score":744.7,"auto_score":71.4,"n_per":18,"n_hog":7,"source_year":2024,"crime_score":0.3125,"crime_nivel":"Medio","crime_color":"#ff9800"},"geometry":{"type":"Polygon","coordinates":[[[-73.2326125549999,-38.0235706790841],[-73.2326111399999,-38.0232420100841],[-73.2320937839999,-38.0232506570842],[-73.2321097429999,-38.0235746570841],[-73.2326125549999,-38.0235706790841]]]}},{"type":"Feature","properties":{"id":"8204011001032","commune":"Contulmo","code":"08204","gse":"C3","quintil":"Q3","nse_score":731.9,"educ":12.1,"educ_score":606.7,"hacin":0.783,"hacin_class":"Sin Hacinamiento","hacin_score":897.3,"auto_score":50.0,"n_per":18,"n_hog":10,"source_year":2024,"crime_score":0.303,"crime_nivel":"Medio","crime_color":"#ff9800"},"geometry":{"type":"Polygon","coordinates":[[[-73.2344906499999,-38.0255864540842],[-73.2360931709999,-38.0258968600841],[-73.2366008219999,-38.0261331560842],[-73.2366656199999,-38.0260073070841],[-73.2360207219999,-38.0256783070842],[-73.2357506889999,-38.0257395520841],[-73.2347154599999,-38.0255863460841],[-73.2346145669999,-38.0254523270841],[-73.2347255979999,-38.0249555560842],[-73.2337922979999,-38.0245005700841],[-73.2335241369999,-38.0246418150842],[-73.2344906499999,-38.0255864540842]]]}},{"type":"Feature","properties":{"id":"8204011001033","commune":"Contulmo","code":"08204","gse":"D","quintil":"Q2","nse_score":670.5,"educ":10.3,"educ_score":486.7,"hacin":1.042,"hacin_class":"Hacinamiento Leve","hacin_score":842.1,"auto_score":87.0,"n_per":174,"n_hog":69,"source_year":2024,"crime_score":0.3377,"crime_nivel":"Medio","crime_color":"#ff9800"},"geometry":{"type":"Polygon","coordinates":[[[-73.2307603889999,-38.0245583670841],[-73.2302432429999,-38.0255545550841],[-73.2299682829999,-38.0256011930841],[-73.2291152999999,-38.0268217540842],[-73.2304210529999,-38.0273476870841],[-73.2314627739999,-38.0272477640841],[-73.2316903429999,-38.0270917080841],[-73.230194664,-38.0266624530841],[-73.2298953129999,-38.0270175100841],[-73.2301823039999,-38.0266212180841],[-73.2310078499999,-38.0268452670841],[-73.2311340479999,-38.0264909250842],[-73.2302954049999,-38.0262578100841],[-73.2311447949999,-38.0264609480842],[-73.2312896729999,-38.0261902900841],[-73.2304290589999,-38.0259536720841],[-73.2304494139999,-38.0259067790842],[-73.2313366559999,-38.0261545130841],[-73.231419275,-38.0258876760842],[-73.2305905489999,-38.0256289060842],[-73.2314781709999,-38.0258568370841],[-73.2315729319999,-38.0255854240841],[-73.2307503349999,-38.0253525540841],[-73.2307714879999,-38.0253068700842],[-73.2316156759999,-38.0255591010841],[-73.2319183069999,-38.0249456850841],[-73.2307603889999,-38.0245583670841]]]}},{"type":"Feature","properties":{"id":"8204011001034","commune":"Contulmo","code":"08204","gse":"E","quintil":"Q1","nse_score":611.4,"educ":8.2,"educ_score":346.7,"hacin":0.962,"hacin_class":"Sin Hacinamiento","hacin_score":859.1,"auto_score":100.0,"n_per":51,"n_hog":20,"source_year":2024,"crime_score":0.3289,"crime_nivel":"Medio","crime_color":"#ff9800"},"geometry":{"type":"Polygon","coordinates":[[[-73.2334895939999,-38.0246558430841],[-73.2330526529999,-38.0256873880841],[-73.2335171499999,-38.0258773890842],[-73.2337706899999,-38.0254219180842],[-73.2335900219999,-38.0258964860842],[-73.2345456599999,-38.0262728820841],[-73.234933081,-38.0257236410842],[-73.2343931729999,-38.0255675160842],[-73.2334895939999,-38.0246558430841]]]}},{"type":"Feature","properties":{"id":"8204011001035","commune":"Contulmo","code":"08204","gse":"D","quintil":"Q2","nse_score":683.2,"educ":10.2,"educ_score":480.0,"hacin":1.065,"hacin_class":"Hacinamiento Leve","hacin_score":837.3,"auto_score":158.3,"n_per":165,"n_hog":60,"source_year":2024,"crime_score":0.334,"crime_nivel":"Medio","crime_color":"#ff9800"},"geometry":{"type":"Polygon","coordinates":[[[-73.2316290379999,-38.0266882950841],[-73.2315588859999,-38.0270106440841],[-73.2317257489999,-38.0270585740842],[-73.2324860559999,-38.0265266010841],[-73.2329334459999,-38.0256520970841],[-73.2318034879999,-38.0253263630841],[-73.2317084789999,-38.0255975590842],[-73.2324532039999,-38.0258048910841],[-73.2316634309999,-38.0256309600841],[-73.2315672999999,-38.0259002960841],[-73.2323111379999,-38.0261097810841],[-73.2315116659999,-38.0259381430842],[-73.2314214869999,-38.0262020420842],[-73.2320599369999,-38.0263803980842],[-73.2313799519999,-38.0262345750841],[-73.2310807169999,-38.0268637420841],[-73.2315163029999,-38.0269975470841],[-73.2316290379999,-38.0266882950841]]]}},{"type":"Feature","properties":{"id":"8204011001036","commune":"Contulmo","code":"08204","gse":"D","quintil":"Q1","nse_score":647.1,"educ":8.8,"educ_score":386.7,"hacin":1.161,"hacin_class":"Hacinamiento Leve","hacin_score":816.8,"auto_score":201.8,"n_per":173,"n_hog":57,"source_year":2024,"crime_score":0.3419,"crime_nivel":"Medio","crime_color":"#ff9800"},"geometry":{"type":"Polygon","coordinates":[[[-73.2304875869999,-38.0273742490841],[-73.2348557829999,-38.0291018550841],[-73.2365863639999,-38.0261612350842],[-73.2360422889999,-38.0259092710841],[-73.2350240489999,-38.0257102520842],[-73.2343833479999,-38.0267983400841],[-73.2346805609999,-38.0269129290841],[-73.2343603859999,-38.0268360650841],[-73.2333736209999,-38.0284994750841],[-73.2330470429999,-38.0281646590841],[-73.2316448639999,-38.0275978960841],[-73.2314368489999,-38.0273251000841],[-73.2304875869999,-38.0273742490841]]]}},{"type":"Feature","properties":{"id":"8204011001037","commune":"Contulmo","code":"08204","gse":"D","quintil":"Q1","nse_score":650.5,"educ":8.9,"educ_score":393.3,"hacin":0.833,"hacin_class":"Sin Hacinamiento","hacin_score":886.5,"auto_score":0.0,"n_per":25,"n_hog":11,"source_year":2024,"crime_score":0.318,"crime_nivel":"Medio","crime_color":"#ff9800"},"geometry":{"type":"Polygon","coordinates":[[[-73.2335057609999,-38.0259211640842],[-73.2329689529999,-38.0257387410841],[-73.2327867749999,-38.0261355750842],[-73.2332732019999,-38.0263642630841],[-73.2335057609999,-38.0259211640842]]]}},{"type":"Feature","properties":{"id":"8204011001038","commune":"Contulmo","code":"08204","gse":"D","quintil":"Q2","nse_score":680.5,"educ":10.1,"educ_score":473.3,"hacin":0.96,"hacin_class":"Sin Hacinamiento","hacin_score":859.6,"auto_score":0.0,"n_per":24,"n_hog":8,"source_year":2024,"crime_score":0.3127,"crime_nivel":"Medio","crime_color":"#ff9800"},"geometry":{"type":"Polygon","coordinates":[[[-73.233777658,-38.0265593770841],[-73.2340134059999,-38.0261138700842],[-73.233581479,-38.0259363620841],[-73.2333621109999,-38.0263841140841],[-73.233777658,-38.0265593770841]]]}},{"type":"Feature","properties":{"id":"8204011001039","commune":"Contulmo","code":"08204","gse":"D","quintil":"Q1","nse_score":646.9,"educ":9.7,"educ_score":446.7,"hacin":1.4,"hacin_class":"Hacinamiento Leve","hacin_score":766.0,"auto_score":230.8,"n_per":56,"n_hog":13,"source_year":2024,"crime_score":0.3235,"crime_nivel":"Medio","crime_color":"#ff9800"},"geometry":{"type":"Polygon","coordinates":[[[-73.2339239649999,-38.0266182150841],[-73.2343251539999,-38.0267573690841],[-73.2345530389999,-38.0263333220841],[-73.2340604459999,-38.0261427210841],[-73.2339239649999,-38.0266182150841]]]}},{"type":"Feature","properties":{"id":"8204011001040","commune":"Contulmo","code":"08204","gse":"D","quintil":"Q1","nse_score":662.4,"educ":9.2,"educ_score":413.3,"hacin":1.286,"hacin_class":"Hacinamiento Leve","hacin_score":790.3,"auto_score":250.0,"n_per":36,"n_hog":10,"source_year":2024,"crime_score":0.3177,"crime_nivel":"Medio","crime_color":"#ff9800"},"geometry":{"type":"Polygon","coordinates":[[[-73.2329948669999,-38.0268296420841],[-73.2332593359999,-38.0264080370842],[-73.2327451789999,-38.0262238240841],[-73.2324882929999,-38.0266154470841],[-73.2329948669999,-38.0268296420841]]]}},{"type":"Feature","properties":{"id":"8204011001041","commune":"Contulmo","code":"08204","gse":"E","quintil":"Q1","nse_score":610.6,"educ":9.0,"educ_score":400.0,"hacin":1.231,"hacin_class":"Hacinamiento Leve","hacin_score":802.0,"auto_score":200.0,"n_per":32,"n_hog":10,"source_year":2024,"crime_score":0.326,"crime_nivel":"Medio","crime_color":"#ff9800"},"geometry":{"type":"Polygon","coordinates":[[[-73.2335397789999,-38.0270408540841],[-73.2337703299999,-38.0266012710841],[-73.2333383429999,-38.0264346470841],[-73.2331378689999,-38.0268767960841],[-73.2335397789999,-38.0270408540841]]]}},{"type":"Feature","properties":{"id":"8204011001042","commune":"Contulmo","code":"08204","gse":"D","quintil":"Q1","nse_score":637.7,"educ":8.8,"educ_score":386.7,"hacin":1.136,"hacin_class":"Hacinamiento Leve","hacin_score":822.1,"auto_score":45.5,"n_per":25,"n_hog":11,"source_year":2024,"crime_score":0.3202,"crime_nivel":"Medio","crime_color":"#ff9800"},"geometry":{"type":"Polygon","coordinates":[[[-73.2339894439999,-38.0272248250841],[-73.2342837059999,-38.0268117060841],[-73.2338233169999,-38.0266301380841],[-73.2336136859999,-38.0270654490842],[-73.2339894439999,-38.0272248250841]]]}},{"type":"Feature","properties":{"id":"8204011001044","commune":"Contulmo","code":"08204","gse":"E","quintil":"Q1","nse_score":593.5,"educ":8.8,"educ_score":386.7,"hacin":1.171,"hacin_class":"Hacinamiento Leve","hacin_score":814.7,"auto_score":83.3,"n_per":48,"n_hog":18,"source_year":2024,"crime_score":0.3315,"crime_nivel":"Medio","crime_color":"#ff9800"},"geometry":{"type":"Polygon","coordinates":[[[-73.2333305559999,-38.0283106240841],[-73.2339814869999,-38.0273091370841],[-73.2335561969999,-38.0270885240842],[-73.2329820949999,-38.0280330280841],[-73.2333305559999,-38.0283106240841]]]}},{"type":"Feature","properties":{"id":"8204011001015","commune":"Contulmo","code":"08204","gse":"C3","quintil":"Q2","nse_score":689.1,"educ":12.2,"educ_score":613.3,"hacin":1.273,"hacin_class":"Hacinamiento Leve","hacin_score":793.0,"auto_score":0.0,"n_per":28,"n_hog":15,"source_year":2024,"crime_score":0.3118,"crime_nivel":"Medio","crime_color":"#ff9800"},"geometry":{"type":"MultiPolygon","coordinates":[[[[-73.2266681399999,-38.0165681220842],[-73.2279527239999,-38.0165207320842],[-73.227936096,-38.0156539060842],[-73.2266384199999,-38.0156854530842],[-73.2266681399999,-38.0165681220842]]],[[[-73.2266550339999,-38.0156117050842],[-73.2279213739999,-38.0155665300842],[-73.227893719,-38.0147422590842],[-73.2265849229999,-38.0147675720842],[-73.2266550339999,-38.0156117050842]]]]}},{"type":"Feature","properties":{"id":"8204011001026","commune":"Contulmo","code":"08204","gse":"C1","quintil":"Q5","nse_score":802.4,"educ":13.1,"educ_score":673.3,"hacin":0.9,"hacin_class":"Sin Hacinamiento","hacin_score":872.3,"auto_score":142.9,"n_per":18,"n_hog":7,"source_year":2024,"crime_score":0.2909,"crime_nivel":"Medio","crime_color":"#ff9800"},"geometry":{"type":"MultiPolygon","coordinates":[[[[-73.2292121879999,-38.0191892480842],[-73.2294031039999,-38.0191358670842],[-73.2293768709999,-38.0186589970842],[-73.2291594099999,-38.0187409580842],[-73.2292121879999,-38.0191892480842]]],[[[-73.2293685819999,-38.0174365720842],[-73.229481372,-38.0191319640842],[-73.2305451869999,-38.0190916940842],[-73.2313561259999,-38.0195556540842],[-73.2319039039999,-38.0191342990842],[-73.2310904909999,-38.0173840770842],[-73.2293685819999,-38.0174365720842]]]]}},{"type":"Feature","properties":{"id":"8204011001017","commune":"Contulmo","code":"08204","gse":"C2","quintil":"Q4","nse_score":780.1,"educ":12.2,"educ_score":613.3,"hacin":0.8,"hacin_class":"Sin Hacinamiento","hacin_score":893.6,"auto_score":0.0,"n_per":20,"n_hog":9,"source_year":2024,"crime_score":0.295,"crime_nivel":"Medio","crime_color":"#ff9800"},"geometry":{"type":"MultiPolygon","coordinates":[[[[-73.2293740139999,-38.0173766960842],[-73.2302072199999,-38.0173314110842],[-73.2301497939999,-38.0165391400842],[-73.2293203109999,-38.0165699500842],[-73.2293740139999,-38.0173766960842]]],[[[-73.2292764889999,-38.0164789670842],[-73.2301494989999,-38.0164540780842],[-73.2301081959999,-38.0155858330842],[-73.2292127509999,-38.0156087400842],[-73.2292764889999,-38.0164789670842]]]]}},{"type":"Feature","properties":{"id":"8204013018001","commune":"Contulmo","code":"08204","gse":"D","quintil":"Q1","nse_score":657.9,"educ":10.1,"educ_score":473.3,"hacin":0.868,"hacin_class":"Sin Hacinamiento","hacin_score":879.2,"auto_score":214.3,"n_per":46,"n_hog":21,"source_year":2024,"crime_score":0.32,"crime_nivel":"Medio","crime_color":"#ff9800"},"geometry":{"type":"Polygon","coordinates":[[[-73.2123374399999,-38.0057992200843],[-73.2085416499999,-38.0062891900843],[-73.2087240769999,-38.0063820640843],[-73.2106464929999,-38.0061584650843],[-73.2123808129999,-38.0068198510843],[-73.2130742979999,-38.0069097080843],[-73.2136930279999,-38.0072712630843],[-73.2141471129999,-38.0065861020843],[-73.2132745679999,-38.0061335950843],[-73.2123342249999,-38.0060227180843],[-73.2132826069999,-38.0060942460843],[-73.214007008,-38.0064147990843],[-73.2140639279999,-38.0060470310843],[-73.2133192029999,-38.0058713860843],[-73.2123374399999,-38.0057992200843]]]}},{"type":"Feature","properties":{"id":"8204013018002","commune":"Contulmo","code":"08204","gse":"C3","quintil":"Q3","nse_score":711.6,"educ":11.1,"educ_score":540.0,"hacin":0.797,"hacin_class":"Sin Hacinamiento","hacin_score":894.3,"auto_score":90.9,"n_per":47,"n_hog":22,"source_year":2024,"crime_score":0.3108,"crime_nivel":"Medio","crime_color":"#ff9800"},"geometry":{"type":"Polygon","coordinates":[[[-73.2180613799999,-38.0081053120843],[-73.2189704909999,-38.0068246910843],[-73.2140063219999,-38.0059872460843],[-73.2141736029999,-38.0061229940843],[-73.2140672529999,-38.0064454730843],[-73.2180613799999,-38.0081053120843]]]}},{"type":"Feature","properties":{"id":"8204013018003","commune":"Contulmo","code":"08204","gse":"D","quintil":"Q2","nse_score":676.1,"educ":10.2,"educ_score":480.0,"hacin":0.833,"hacin_class":"Sin Hacinamiento","hacin_score":886.5,"auto_score":159.1,"n_per":105,"n_hog":44,"source_year":2024,"crime_score":0.326,"crime_nivel":"Medio","crime_color":"#ff9800"},"geometry":{"type":"Polygon","coordinates":[[[-73.2087661799999,-38.0064034990843],[-73.2129236729999,-38.0085156770843],[-73.2190144349999,-38.0110636200843],[-73.2190340759999,-38.0126899710842],[-73.2192369249999,-38.0123195690842],[-73.2198037239999,-38.0118293070842],[-73.220184818,-38.0110768400843],[-73.2210165959999,-38.0105072690843],[-73.2209834719999,-38.0103846240842],[-73.220647374,-38.0102716710843],[-73.2204125449999,-38.0106139240842],[-73.2206062069999,-38.0102329770843],[-73.2140146519999,-38.0074839500843],[-73.2130239269999,-38.0069200460843],[-73.2123878279999,-38.0068612000843],[-73.2106371099999,-38.0061845200843],[-73.2087661799999,-38.0064034990843]]]}},{"type":"Feature","properties":{"id":"8204013018004","commune":"Contulmo","code":"08204","gse":"D","quintil":"Q1","nse_score":655.7,"educ":10.2,"educ_score":480.0,"hacin":1.252,"hacin_class":"Hacinamiento Leve","hacin_score":797.4,"auto_score":188.9,"n_per":129,"n_hog":44,"source_year":2024,"crime_score":0.3334,"crime_nivel":"Medio","crime_color":"#ff9800"},"geometry":{"type":"Polygon","coordinates":[[[-73.2222945929999,-38.0081317540843],[-73.2224276819999,-38.0080820880843],[-73.2224754839999,-38.0075643070843],[-73.2211036649999,-38.0077408030843],[-73.2220644919999,-38.0075914100843],[-73.2221675509999,-38.0066113580843],[-73.2200583589999,-38.0068739090843],[-73.2190898659999,-38.0068592420843],[-73.2175984639999,-38.0088931340843],[-73.2212984689999,-38.0104631370843],[-73.2213312299999,-38.0124068740843],[-73.2224184309999,-38.0124966810842],[-73.222355606,-38.0111366320842],[-73.2223856379999,-38.0111369050843],[-73.2224397679999,-38.0125070870843],[-73.2213320949999,-38.0124326490843],[-73.2213887049999,-38.0135084310842],[-73.221807022,-38.0136947190842],[-73.222582611,-38.0131699460842],[-73.2240339619999,-38.0117922200843],[-73.2231788509999,-38.0114410840843],[-73.223210332,-38.0111983270842],[-73.2214185819999,-38.0104693160843],[-73.2216278309999,-38.0084570420843],[-73.223393842,-38.0082427570843],[-73.2235925019999,-38.0064325710843],[-73.2232680859999,-38.0064725760843],[-73.2231202129999,-38.0079854260843],[-73.2222945929999,-38.0081317540843]]]}},{"type":"Feature","properties":{"id":"8204013018005","commune":"Contulmo","code":"08204","gse":"C2","quintil":"Q3","nse_score":735.5,"educ":12.6,"educ_score":640.0,"hacin":1.143,"hacin_class":"Hacinamiento Leve","hacin_score":820.7,"auto_score":83.3,"n_per":16,"n_hog":6,"source_year":2024,"crime_score":0.302,"crime_nivel":"Medio","crime_color":"#ff9800"},"geometry":{"type":"Polygon","coordinates":[[[-73.2222138769999,-38.0066054700843],[-73.2221109589999,-38.0075841930843],[-73.2225203099999,-38.0075333670843],[-73.2224737809999,-38.0080774640843],[-73.2230484999999,-38.0079985340843],[-73.2232224919999,-38.0064781980843],[-73.2222138769999,-38.0066054700843]]]}},{"type":"Feature","properties":{"id":"8204013018006","commune":"Contulmo","code":"08204","gse":"C3","quintil":"Q3","nse_score":715.0,"educ":10.6,"educ_score":506.7,"hacin":1.087,"hacin_class":"Hacinamiento Leve","hacin_score":832.6,"auto_score":0.0,"n_per":25,"n_hog":8,"source_year":2024,"crime_score":0.3069,"crime_nivel":"Medio","crime_color":"#ff9800"},"geometry":{"type":"Polygon","coordinates":[[[-73.2151083899999,-38.0078654370843],[-73.2155770969999,-38.0071260050843],[-73.2142448939999,-38.0065974890843],[-73.2137879269999,-38.0073038820843],[-73.2151083899999,-38.0078654370843]]]}},{"type":"Feature","properties":{"id":"8204013018007","commune":"Contulmo","code":"08204","gse":"D","quintil":"Q1","nse_score":652.6,"educ":9.8,"educ_score":453.3,"hacin":0.75,"hacin_class":"Sin Hacinamiento","hacin_score":904.3,"auto_score":222.2,"n_per":39,"n_hog":18,"source_year":2024,"crime_score":0.3198,"crime_nivel":"Medio","crime_color":"#ff9800"},"geometry":{"type":"Polygon","coordinates":[[[-73.2180448479999,-38.0081670150842],[-73.2156636859999,-38.0071677510843],[-73.2151848369999,-38.0078738180843],[-73.2175293529999,-38.0088797570843],[-73.2180448479999,-38.0081670150842]]]}},{"type":"Feature","properties":{"id":"8204013018008","commune":"Contulmo","code":"08204","gse":"E","quintil":"Q1","nse_score":604.6,"educ":8.5,"educ_score":366.7,"hacin":0.958,"hacin_class":"Sin Hacinamiento","hacin_score":859.9,"auto_score":0.0,"n_per":23,"n_hog":10,"source_year":2024,"crime_score":0.3256,"crime_nivel":"Medio","crime_color":"#ff9800"},"geometry":{"type":"Polygon","coordinates":[[[-73.2190607059999,-38.0133897020842],[-73.2208243649999,-38.0139708950842],[-73.2213473529999,-38.0135785350843],[-73.2211948139999,-38.0105163100843],[-73.2201934969999,-38.0111324900843],[-73.2198335569999,-38.0118392760842],[-73.2192652379999,-38.0123347220842],[-73.2190366039999,-38.0127570950842],[-73.2190607059999,-38.0133897020842]]]}},{"type":"Feature","properties":{"id":"8204043003001","commune":"Contulmo","code":"08204","gse":"E","quintil":"Q1","nse_score":618.0,"educ":9.4,"educ_score":426.7,"hacin":1.125,"hacin_class":"Hacinamiento Leve","hacin_score":824.5,"auto_score":93.8,"n_per":45,"n_hog":16,"source_year":2024,"crime_score":0.3268,"crime_nivel":"Medio","crime_color":"#ff9800"},"geometry":{"type":"Polygon","coordinates":[[[-73.2303588479999,-37.9519272830847],[-73.2295248729999,-37.9525728480847],[-73.2303871809999,-37.9529815450847],[-73.2303761269999,-37.9531364060847],[-73.2299235539999,-37.9536298740847],[-73.2301176619999,-37.9540773240847],[-73.2336435259999,-37.9538726390847],[-73.2337353709999,-37.9541556600847],[-73.234153251,-37.9541746270847],[-73.2343697249999,-37.9563832870847],[-73.2357108089999,-37.9563276110847],[-73.235690486,-37.9546854690847],[-73.2348090139999,-37.9547808470847],[-73.2346987599999,-37.9535233810847],[-73.2329301979999,-37.9531833040847],[-73.2315584019999,-37.9532652830847],[-73.2314724299999,-37.9520071210847],[-73.2306431389999,-37.9521439880847],[-73.2303588479999,-37.9519272830847]]]}},{"type":"Feature","properties":{"id":"8204043003002","commune":"Contulmo","code":"08204","gse":"D","quintil":"Q2","nse_score":677.9,"educ":9.7,"educ_score":446.7,"hacin":0.977,"hacin_class":"Sin Hacinamiento","hacin_score":856.0,"auto_score":90.9,"n_per":84,"n_hog":33,"source_year":2024,"crime_score":0.3224,"crime_nivel":"Medio","crime_color":"#ff9800"},"geometry":{"type":"Polygon","coordinates":[[[-73.2286462599999,-37.9548384640847],[-73.227025394,-37.9550356040847],[-73.2247837339999,-37.9546127740847],[-73.2231951219999,-37.9549390320847],[-73.2226839969999,-37.9548943670847],[-73.2219202299999,-37.9557378700847],[-73.222042643,-37.9562233970847],[-73.2225000449999,-37.9562205430847],[-73.2222610319999,-37.9556577810847],[-73.2225612999999,-37.9562701120847],[-73.2235560349999,-37.9563987820847],[-73.2241474609999,-37.9563432450847],[-73.2240955919999,-37.9558542240847],[-73.2235455889999,-37.9558051990847],[-73.2241281869999,-37.9558290220847],[-73.2242623319999,-37.9564000110847],[-73.2250580619999,-37.9563872620847],[-73.2250956549999,-37.9557773920847],[-73.2251884179999,-37.9564049410847],[-73.225945582,-37.9563920100847],[-73.2260499079999,-37.9557562920847],[-73.2272641619999,-37.9557690030847],[-73.2275574039999,-37.9563874150847],[-73.2284052559999,-37.9563602760847],[-73.2294155209999,-37.9560247880847],[-73.2294948039999,-37.9559082470847],[-73.2291734479999,-37.9545531950847],[-73.2303151569999,-37.9531120430847],[-73.2302912719999,-37.9529454480847],[-73.2294681409999,-37.9526046440847],[-73.2290225319999,-37.9528543910847],[-73.2296197339999,-37.9531734580847],[-73.2287437529999,-37.9542513670847],[-73.2286462599999,-37.9548384640847]]]}},{"type":"Feature","properties":{"id":"8204043003003","commune":"Contulmo","code":"08204","gse":"D","quintil":"Q1","nse_score":664.6,"educ":8.9,"educ_score":393.3,"hacin":0.707,"hacin_class":"Sin Hacinamiento","hacin_score":913.3,"auto_score":125.0,"n_per":29,"n_hog":12,"source_year":2024,"crime_score":0.3162,"crime_nivel":"Medio","crime_color":"#ff9800"},"geometry":{"type":"Polygon","coordinates":[[[-73.229644661,-37.9559365650847],[-73.2305301389999,-37.9556575070847],[-73.2298946299999,-37.9536990380847],[-73.2292276409999,-37.9546191780847],[-73.229644661,-37.9559365650847]]]}},{"type":"Feature","properties":{"id":"8204043003004","commune":"Contulmo","code":"08204","gse":"D","quintil":"Q1","nse_score":640.9,"educ":10.3,"educ_score":486.7,"hacin":1.143,"hacin_class":"Hacinamiento Leve","hacin_score":820.7,"auto_score":166.7,"n_per":16,"n_hog":6,"source_year":2024,"crime_score":0.3182,"crime_nivel":"Medio","crime_color":"#ff9800"},"geometry":{"type":"Polygon","coordinates":[[[-73.2328966739999,-37.9539689340847],[-73.2331317669999,-37.9564327980847],[-73.2342828209999,-37.9564065110847],[-73.2341087749999,-37.9541843120847],[-73.2337049739999,-37.9541829320847],[-73.2335946439999,-37.9538994210847],[-73.2328966739999,-37.9539689340847]]]}},{"type":"Feature","properties":{"id":"8204043003005","commune":"Contulmo","code":"08204","gse":"E","quintil":"Q1","nse_score":628.3,"educ":9.0,"educ_score":400.0,"hacin":0.946,"hacin_class":"Sin Hacinamiento","hacin_score":862.5,"auto_score":47.6,"n_per":53,"n_hog":21,"source_year":2024,"crime_score":0.3263,"crime_nivel":"Medio","crime_color":"#ff9800"},"geometry":{"type":"Polygon","coordinates":[[[-73.2305419999999,-37.9565827860847],[-73.233067564,-37.9564525490847],[-73.2328488759999,-37.9539455140847],[-73.2301708849999,-37.9541440450847],[-73.2305804739999,-37.9556714750847],[-73.2296156159999,-37.9560469470847],[-73.2299447539999,-37.9564019970847],[-73.2305419999999,-37.9565827860847]]]}},{"type":"Feature","properties":{"id":"8204043003007","commune":"Contulmo","code":"08204","gse":"D","quintil":"Q1","nse_score":645.0,"educ":9.2,"educ_score":413.3,"hacin":1.0,"hacin_class":"Hacinamiento Leve","hacin_score":851.1,"auto_score":94.6,"n_per":91,"n_hog":36,"source_year":2024,"crime_score":0.3293,"crime_nivel":"Medio","crime_color":"#ff9800"},"geometry":{"type":"Polygon","coordinates":[[[-73.2284133979999,-37.9563957820847],[-73.2227750869999,-37.9563854540847],[-73.2228091629999,-37.9566792170847],[-73.2222865729999,-37.9567378600847],[-73.2227654689999,-37.9566508460847],[-73.2226811049999,-37.9563881980847],[-73.2225122999999,-37.9562572390847],[-73.2221139249999,-37.9562456580847],[-73.2210221099999,-37.9564665250847],[-73.2210409379999,-37.9569582270847],[-73.2216103619999,-37.9573348440847],[-73.2239148509999,-37.9573052880847],[-73.2249892929999,-37.9577077820847],[-73.2273994079999,-37.9570431160847],[-73.2299773489999,-37.9574682150847],[-73.2298971859999,-37.9573363010847],[-73.2292578989999,-37.9573248330847],[-73.2277369859999,-37.9569515080847],[-73.2292690389999,-37.9572899170847],[-73.2298746669999,-37.9572957420847],[-73.2296924689999,-37.9567032000847],[-73.2284905599999,-37.9569543300847],[-73.2296816179999,-37.9566499200847],[-73.2294915609999,-37.9560548830847],[-73.2284133979999,-37.9563957820847]]]}},{"type":"Feature","properties":{"id":"8204043003009","commune":"Contulmo","code":"08204","gse":"E","quintil":"Q1","nse_score":618.0,"educ":9.4,"educ_score":426.7,"hacin":1.125,"hacin_class":"Hacinamiento Leve","hacin_score":824.5,"auto_score":0.0,"n_per":36,"n_hog":13,"source_year":2024,"crime_score":0.3253,"crime_nivel":"Medio","crime_color":"#ff9800"},"geometry":{"type":"Polygon","coordinates":[[[-73.2298643429999,-37.9566998080847],[-73.2300482539999,-37.9574692820847],[-73.2314483859999,-37.9573544330847],[-73.2328474819999,-37.9577831960846],[-73.2331911829999,-37.9577669010847],[-73.2333672309999,-37.9575835610847],[-73.2332561279999,-37.9565183450847],[-73.2298643429999,-37.9566998080847]]]}}]}