{"type":"FeatureCollection","features":[{"type":"Feature","properties":{"id":"10204013007001","commune":"Curaco De Vélez","code":"10204","gse":"C2","quintil":"Q3","nse_score":718.9,"educ":12.9,"educ_score":660.0,"hacin":1.231,"hacin_class":"Hacinamiento Leve","hacin_score":802.0,"auto_score":642.9,"n_per":16,"n_hog":6,"source_year":2024},"geometry":{"type":"Polygon","coordinates":[[[-73.5937473119999,-42.4371977410603],[-73.5945374909999,-42.4372935490603],[-73.5946407679999,-42.4372009680603],[-73.5941915069999,-42.4361747820604],[-73.5941832229999,-42.4359953120603],[-73.5944092329999,-42.4357040810603],[-73.5940482119999,-42.4350905210603],[-73.5928223019999,-42.4356003900603],[-73.5937473119999,-42.4371977410603]]]}},{"type":"Feature","properties":{"id":"10204013007002","commune":"Curaco De Vélez","code":"10204","gse":"C2","quintil":"Q4","nse_score":756.7,"educ":13.1,"educ_score":673.3,"hacin":0.889,"hacin_class":"Sin Hacinamiento","hacin_score":874.7,"auto_score":312.5,"n_per":16,"n_hog":8,"source_year":2024},"geometry":{"type":"Polygon","coordinates":[[[-73.5915925979999,-42.4380857790603],[-73.5941062439999,-42.4380710710604],[-73.5936408939999,-42.4372610800603],[-73.5926267059999,-42.4374119950603],[-73.5936361469999,-42.4372251870603],[-73.5927059799999,-42.4356492530603],[-73.5911579829999,-42.4363124990603],[-73.5919764689999,-42.4377062310603],[-73.5915925979999,-42.4380857790603]]]}},{"type":"Feature","properties":{"id":"10204013007003","commune":"Curaco De Vélez","code":"10204","gse":"C2","quintil":"Q3","nse_score":722.0,"educ":12.3,"educ_score":620.0,"hacin":1.333,"hacin_class":"Hacinamiento Leve","hacin_score":780.1,"auto_score":250.0,"n_per":28,"n_hog":10,"source_year":2024},"geometry":{"type":"Polygon","coordinates":[[[-73.594689404,-42.4372023490603],[-73.5945389929999,-42.4373300360603],[-73.5937700499999,-42.4372369950603],[-73.5947429419999,-42.4388091170603],[-73.5948702289999,-42.4388968600603],[-73.5953649179999,-42.4387410890603],[-73.5952994639999,-42.4383733900603],[-73.5954132299999,-42.4387365570603],[-73.5956655599999,-42.4387111760603],[-73.5955761319999,-42.4382118740603],[-73.5951965519999,-42.4381306860603],[-73.595087857,-42.4379982160603],[-73.5955698249999,-42.4381739340604],[-73.5956696309999,-42.4377825320603],[-73.5944304999999,-42.4357407370603],[-73.5942397009999,-42.4361688170603],[-73.594689404,-42.4372023490603]]]}},{"type":"Feature","properties":{"id":"10204013007005","commune":"Curaco De Vélez","code":"10204","gse":"D","quintil":"Q1","nse_score":646.5,"educ":10.5,"educ_score":500.0,"hacin":1.25,"hacin_class":"Hacinamiento Leve","hacin_score":797.9,"auto_score":142.9,"n_per":40,"n_hog":14,"source_year":2024},"geometry":{"type":"Polygon","coordinates":[[[-73.5980133699999,-42.4374720950603],[-73.5984551969999,-42.4375033010603],[-73.5985447989999,-42.4368903740603],[-73.5981136329999,-42.4368549400603],[-73.5980133699999,-42.4374720950603]]]}},{"type":"Feature","properties":{"id":"10204013007006","commune":"Curaco De Vélez","code":"10204","gse":"D","quintil":"Q1","nse_score":635.3,"educ":9.6,"educ_score":440.0,"hacin":1.161,"hacin_class":"Hacinamiento Leve","hacin_score":816.7,"auto_score":35.7,"n_per":36,"n_hog":14,"source_year":2024},"geometry":{"type":"Polygon","coordinates":[[[-73.5985004539999,-42.4375064970603],[-73.5989383289999,-42.4375374210603],[-73.5990470479999,-42.4369316490603],[-73.5985899789999,-42.4368940870603],[-73.5985004539999,-42.4375064970603]]]}},{"type":"Feature","properties":{"id":"10204013007007","commune":"Curaco De Vélez","code":"10204","gse":"D","quintil":"Q1","nse_score":646.8,"educ":10.9,"educ_score":526.7,"hacin":1.3,"hacin_class":"Hacinamiento Leve","hacin_score":787.2,"auto_score":45.5,"n_per":26,"n_hog":10,"source_year":2024},"geometry":{"type":"Polygon","coordinates":[[[-73.5989802459999,-42.4375403810604],[-73.5994154879999,-42.4375711160603],[-73.5994951149999,-42.4369684680603],[-73.5990888789999,-42.4369350870603],[-73.5989802459999,-42.4375403810604]]]}},{"type":"Feature","properties":{"id":"10204013007008","commune":"Curaco De Vélez","code":"10204","gse":"C3","quintil":"Q3","nse_score":695.6,"educ":12.9,"educ_score":660.0,"hacin":1.121,"hacin_class":"Hacinamiento Leve","hacin_score":825.3,"auto_score":40.0,"n_per":37,"n_hog":19,"source_year":2024},"geometry":{"type":"Polygon","coordinates":[[[-73.5993707519999,-42.4383471360603],[-73.5991540329999,-42.4384717520603],[-73.5997708659999,-42.4383327210603],[-73.5999170369999,-42.4383681160603],[-73.6000056709999,-42.4384682470603],[-73.5997717469999,-42.4383603560603],[-73.5991062379999,-42.4384952760603],[-73.5989751929999,-42.4387811750603],[-73.5994158979999,-42.4388874090603],[-73.5996962089999,-42.4386157770603],[-73.6001789129999,-42.4389892980603],[-73.6000162219999,-42.4391662610603],[-73.5999764339999,-42.4391445500603],[-73.6001165569999,-42.4389931340603],[-73.5997003809999,-42.4386710930603],[-73.5994520439999,-42.4389120850603],[-73.5989682879999,-42.4400005340603],[-73.5997241749999,-42.4401848710603],[-73.5997789259999,-42.4399301890603],[-73.5997705169999,-42.4401961720603],[-73.5998922069999,-42.4402258480603],[-73.6009225509999,-42.4389706400603],[-73.6004446759999,-42.4386963190603],[-73.6009446029999,-42.4389377290603],[-73.6019092719999,-42.4377607250603],[-73.6012399269999,-42.4376448700603],[-73.6000202389999,-42.4369937030603],[-73.5995229899999,-42.4374857270603],[-73.5993707519999,-42.4383471360603]]]}},{"type":"Feature","properties":{"id":"10204013007011","commune":"Curaco De Vélez","code":"10204","gse":"D","quintil":"Q1","nse_score":637.4,"educ":10.4,"educ_score":493.3,"hacin":1.381,"hacin_class":"Hacinamiento Leve","hacin_score":770.0,"auto_score":45.5,"n_per":29,"n_hog":11,"source_year":2024},"geometry":{"type":"Polygon","coordinates":[[[-73.5979148449999,-42.4379983060603],[-73.5983702769999,-42.4380324260603],[-73.5984435479999,-42.4375621970603],[-73.5979984239999,-42.4375307590603],[-73.5979148449999,-42.4379983060603]]]}},{"type":"Feature","properties":{"id":"10204013007012","commune":"Curaco De Vélez","code":"10204","gse":"D","quintil":"Q1","nse_score":625.3,"educ":9.8,"educ_score":453.3,"hacin":1.526,"hacin_class":"Hacinamiento Medio","hacin_score":739.1,"auto_score":388.9,"n_per":29,"n_hog":9,"source_year":2024},"geometry":{"type":"Polygon","coordinates":[[[-73.5984200549999,-42.4380360550603],[-73.5988569849999,-42.4380679120603],[-73.5989330219999,-42.4375967660603],[-73.5984933429999,-42.4375657140603],[-73.5984200549999,-42.4380360550603]]]}},{"type":"Feature","properties":{"id":"10204013007013","commune":"Curaco De Vélez","code":"10204","gse":"C2","quintil":"Q3","nse_score":718.4,"educ":13.7,"educ_score":713.3,"hacin":1.348,"hacin_class":"Hacinamiento Leve","hacin_score":777.1,"auto_score":227.3,"n_per":31,"n_hog":10,"source_year":2024},"geometry":{"type":"Polygon","coordinates":[[[-73.5976344159999,-42.4375948250603],[-73.595724818,-42.4377772600603],[-73.5956190009999,-42.4381227440603],[-73.5957187169999,-42.4386990240603],[-73.5977597859999,-42.4384895730603],[-73.5988942939999,-42.4387617660603],[-73.5990246559999,-42.4384634710603],[-73.5993316539999,-42.4382728240604],[-73.5993591959999,-42.4381316320604],[-73.5976495059999,-42.4380069670603],[-73.5976344159999,-42.4375948250603]]]}},{"type":"Feature","properties":{"id":"10204013007014","commune":"Curaco De Vélez","code":"10204","gse":"E","quintil":"Q1","nse_score":586.6,"educ":8.4,"educ_score":360.0,"hacin":1.2,"hacin_class":"Hacinamiento Leve","hacin_score":808.5,"auto_score":142.9,"n_per":18,"n_hog":7,"source_year":2024},"geometry":{"type":"Polygon","coordinates":[[[-73.5993324619999,-42.4381025820603],[-73.5994076699999,-42.4376302840603],[-73.598979288,-42.4376000330603],[-73.5989032359999,-42.4380712830603],[-73.5993324619999,-42.4381025820603]]]}},{"type":"Feature","properties":{"id":"10204013007015","commune":"Curaco De Vélez","code":"10204","gse":"D","quintil":"Q1","nse_score":642.9,"educ":11.7,"educ_score":580.0,"hacin":1.5,"hacin_class":"Hacinamiento Medio","hacin_score":744.7,"auto_score":0.0,"n_per":15,"n_hog":7,"source_year":2024},"geometry":{"type":"Polygon","coordinates":[[[-73.6010917909999,-42.4388934410603],[-73.6022846849999,-42.4395215650603],[-73.6032841429999,-42.4386979920603],[-73.6032018899999,-42.4380564340603],[-73.6020064739999,-42.4377775490603],[-73.6010917909999,-42.4388934410603]]]}},{"type":"Feature","properties":{"id":"10204013007017","commune":"Curaco De Vélez","code":"10204","gse":"C2","quintil":"Q3","nse_score":716.9,"educ":11.8,"educ_score":586.7,"hacin":1.25,"hacin_class":"Hacinamiento Leve","hacin_score":797.9,"auto_score":35.7,"n_per":30,"n_hog":14,"source_year":2024},"geometry":{"type":"Polygon","coordinates":[[[-73.594052959,-42.4381091450603],[-73.5915476529999,-42.4381302190603],[-73.5906542899999,-42.4389418210603],[-73.5901707969999,-42.4386298680603],[-73.5894227009999,-42.4394021680603],[-73.5901679309999,-42.4399320650603],[-73.5917791869999,-42.4401247830603],[-73.5919078759999,-42.4400724810603],[-73.5907423879999,-42.4390482690603],[-73.5908044419999,-42.4388891320603],[-73.5911985089999,-42.4386789280603],[-73.5914722169999,-42.4386899100603],[-73.5922629639999,-42.4399281650603],[-73.5925066309999,-42.4398291340603],[-73.5922440889999,-42.4392973000603],[-73.5922985189999,-42.4392614640603],[-73.5925600309999,-42.4398051430603],[-73.5936139989999,-42.4393749840603],[-73.5933613819999,-42.4391232050603],[-73.5936644639999,-42.4393648970603],[-73.5941625409999,-42.4390715210603],[-73.5943499119999,-42.4386044130603],[-73.594052959,-42.4381091450603]]]}},{"type":"Feature","properties":{"id":"10204013007018","commune":"Curaco De Vélez","code":"10204","gse":"C3","quintil":"Q3","nse_score":701.5,"educ":11.7,"educ_score":580.0,"hacin":1.091,"hacin_class":"Hacinamiento Leve","hacin_score":831.7,"auto_score":100.0,"n_per":12,"n_hog":5,"source_year":2024},"geometry":{"type":"Polygon","coordinates":[[[-73.5977628999999,-42.4385281800603],[-73.5971992959999,-42.4395728270603],[-73.5989204779999,-42.4399929180603],[-73.5993972089999,-42.4389202820603],[-73.5977628999999,-42.4385281800603]]]}},{"type":"Feature","properties":{"id":"10204013007023","commune":"Curaco De Vélez","code":"10204","gse":"D","quintil":"Q2","nse_score":665.9,"educ":11.3,"educ_score":553.3,"hacin":1.462,"hacin_class":"Hacinamiento Leve","hacin_score":752.9,"auto_score":62.5,"n_per":38,"n_hog":16,"source_year":2024},"geometry":{"type":"Polygon","coordinates":[[[-73.6010394899999,-42.4389829340603],[-73.6003012669999,-42.4398789850603],[-73.6005813389999,-42.4400180370603],[-73.6002758069999,-42.4399098880603],[-73.5999970469999,-42.4402482370603],[-73.6011779269999,-42.4405232950603],[-73.601282582,-42.4404293800603],[-73.6011315169999,-42.4403067420603],[-73.6013136289999,-42.4404015180603],[-73.6018533719999,-42.4399171550603],[-73.6014418969999,-42.4396622140603],[-73.6018844369999,-42.4398892770603],[-73.602235145,-42.4395745470603],[-73.6010394899999,-42.4389829340603]]]}},{"type":"Feature","properties":{"id":"10204013007024","commune":"Curaco De Vélez","code":"10204","gse":"D","quintil":"Q1","nse_score":623.0,"educ":11.4,"educ_score":560.0,"hacin":1.222,"hacin_class":"Hacinamiento Leve","hacin_score":803.8,"auto_score":105.3,"n_per":22,"n_hog":13,"source_year":2024},"geometry":{"type":"Polygon","coordinates":[[[-73.5943900699999,-42.4391998930604],[-73.5917850539999,-42.4402439370603],[-73.5922628969999,-42.4403993820603],[-73.5943023039999,-42.4404780270603],[-73.5950514379999,-42.4407571220603],[-73.5955743209999,-42.4413850050603],[-73.5964709509999,-42.4411843550603],[-73.5971607699999,-42.4411928000603],[-73.5980459509999,-42.4415053240603],[-73.5990481379999,-42.4420579230603],[-73.6001551449999,-42.4422380550603],[-73.6002779669999,-42.4413747230603],[-73.5984436659999,-42.4408486540603],[-73.6002863889999,-42.4413482440603],[-73.6006029509999,-42.4404884430603],[-73.5988629489999,-42.4400780600603],[-73.5987381059999,-42.4402493530603],[-73.5988158959999,-42.4400669620603],[-73.5950110919999,-42.4391610440603],[-73.5943900699999,-42.4391998930604]]]}},{"type":"Feature","properties":{"id":"10204013007026","commune":"Curaco De Vélez","code":"10204","gse":"C3","quintil":"Q2","nse_score":673.5,"educ":10.4,"educ_score":493.3,"hacin":1.3,"hacin_class":"Hacinamiento Leve","hacin_score":787.2,"auto_score":50.0,"n_per":39,"n_hog":20,"source_year":2024},"geometry":{"type":"Polygon","coordinates":[[[-73.6029918229999,-42.4409328980603],[-73.6028904389999,-42.4411806740603],[-73.6030946289999,-42.4411451620603],[-73.6037580579999,-42.4407947730603],[-73.6033486739999,-42.4401767360603],[-73.6023201949999,-42.4396219500603],[-73.6011953919999,-42.4406092470603],[-73.6006516069999,-42.4404937480603],[-73.6002538189999,-42.4415803020603],[-73.6001995689999,-42.4422385980603],[-73.6007104479999,-42.4422380740603],[-73.6014735019999,-42.4415607100603],[-73.6020033499999,-42.4414500990603],[-73.6029918229999,-42.4409328980603]]]}},{"type":"Feature","properties":{"id":"10204013007028","commune":"Curaco De Vélez","code":"10204","gse":"D","quintil":"Q2","nse_score":661.2,"educ":11.3,"educ_score":553.3,"hacin":1.406,"hacin_class":"Hacinamiento Leve","hacin_score":764.6,"auto_score":131.6,"n_per":45,"n_hog":15,"source_year":2024},"geometry":{"type":"Polygon","coordinates":[[[-73.6042198649999,-42.4414257180603],[-73.6051753149999,-42.4425870300603],[-73.6058913949999,-42.4426921150603],[-73.6068287799999,-42.4425009700603],[-73.6077477989999,-42.4415341720603],[-73.6062120369999,-42.4411414630603],[-73.6060916819999,-42.4413971270603],[-73.6061635259999,-42.4411373850603],[-73.6047771159999,-42.4410178950603],[-73.6038697899999,-42.4407325030603],[-73.6042198649999,-42.4414257180603]]]}},{"type":"Feature","properties":{"id":"10204013007029","commune":"Curaco De Vélez","code":"10204","gse":"C2","quintil":"Q4","nse_score":756.7,"educ":12.8,"educ_score":653.3,"hacin":1.267,"hacin_class":"Hacinamiento Leve","hacin_score":794.3,"auto_score":285.7,"n_per":19,"n_hog":7,"source_year":2024},"geometry":{"type":"Polygon","coordinates":[[[-73.6027802559999,-42.4412367740603],[-73.6029918229999,-42.4409328980603],[-73.6013486499999,-42.4416715430603],[-73.6016732409999,-42.4419428270603],[-73.6024057889999,-42.4419306740603],[-73.6032105859999,-42.4415717780603],[-73.6042332599999,-42.4429053200603],[-73.6045826869999,-42.4432081580603],[-73.6052946009999,-42.4433964010603],[-73.6056338239999,-42.4434164510603],[-73.6067654059999,-42.4425422370603],[-73.6058924029999,-42.4427283070603],[-73.6051463609999,-42.4426173760603],[-73.6045099389999,-42.4419386840603],[-73.6037793309999,-42.4408285200603],[-73.6027802559999,-42.4412367740603]]]}},{"type":"Feature","properties":{"id":"10204013007004","commune":"Curaco De Vélez","code":"10204","gse":"C3","quintil":"Q3","nse_score":686.5,"educ":11.9,"educ_score":593.3,"hacin":1.292,"hacin_class":"Hacinamiento Leve","hacin_score":789.0,"auto_score":312.5,"n_per":31,"n_hog":8,"source_year":2024},"geometry":{"type":"MultiPolygon","coordinates":[[[[-73.5975788479999,-42.4379662260603],[-73.5978695279999,-42.4379948510603],[-73.5979531439999,-42.4375272050603],[-73.5976391419999,-42.4375204000603],[-73.5975788479999,-42.4379662260603]]],[[[-73.5977064969999,-42.4366542190603],[-73.5976433749999,-42.4374663980603],[-73.5979657239999,-42.4374738590603],[-73.5980672629999,-42.4368511290603],[-73.5978275589999,-42.4367814790603],[-73.5995720249999,-42.4369393840603],[-73.5995185849999,-42.4373160070603],[-73.5998988299999,-42.4369509040603],[-73.5990583409999,-42.4366546100603],[-73.5977064969999,-42.4366542190603]]]]}},{"type":"Feature","properties":{"id":"10204013007019","commune":"Curaco De Vélez","code":"10204","gse":"D","quintil":"Q2","nse_score":662.5,"educ":10.6,"educ_score":506.7,"hacin":1.19,"hacin_class":"Hacinamiento Leve","hacin_score":810.5,"auto_score":125.0,"n_per":25,"n_hog":11,"source_year":2024},"geometry":{"type":"MultiPolygon","coordinates":[[[[-73.5949114679999,-42.4389227730603],[-73.5960514479999,-42.4392820240603],[-73.595694035,-42.4387434020603],[-73.5949114679999,-42.4389227730603]]],[[[-73.5961173869999,-42.4392997350603],[-73.597157707,-42.4395528500603],[-73.5977099339999,-42.4385292920603],[-73.5957447229999,-42.4387382100603],[-73.5961173869999,-42.4392997350603]]]]}},{"type":"Feature","properties":{"id":"10204023007002","commune":"Curaco De Vélez","code":"10204","gse":"D","quintil":"Q1","nse_score":646.3,"educ":10.5,"educ_score":500.0,"hacin":1.184,"hacin_class":"Hacinamiento Leve","hacin_score":811.9,"auto_score":202.7,"n_per":103,"n_hog":34,"source_year":2024},"geometry":{"type":"Polygon","coordinates":[[[-73.5990056389999,-42.4344906920603],[-73.5993690119999,-42.4357948820603],[-73.6005757339999,-42.4359317350603],[-73.6006803699999,-42.4357498570603],[-73.6005774659999,-42.4354372180603],[-73.59956854,-42.4355550010604],[-73.5993361859999,-42.4347020730603],[-73.5998975139999,-42.4346237860603],[-73.600112668,-42.4354360710603],[-73.6005490379999,-42.4353683500603],[-73.6002872559999,-42.4343117510603],[-73.5990056389999,-42.4344906920603]]]}},{"type":"Feature","properties":{"id":"10204023007003","commune":"Curaco De Vélez","code":"10204","gse":"C3","quintil":"Q3","nse_score":690.7,"educ":12.4,"educ_score":626.7,"hacin":1.24,"hacin_class":"Hacinamiento Leve","hacin_score":800.0,"auto_score":35.7,"n_per":31,"n_hog":14,"source_year":2024},"geometry":{"type":"Polygon","coordinates":[[[-73.5996118429999,-42.4354770670603],[-73.6000651009999,-42.4354437010603],[-73.5998591199999,-42.4346658000604],[-73.5994217089999,-42.4347258500603],[-73.5996118429999,-42.4354770670603]]]}},{"type":"Feature","properties":{"id":"10204023007004","commune":"Curaco De Vélez","code":"10204","gse":"C3","quintil":"Q3","nse_score":700.0,"educ":11.8,"educ_score":586.7,"hacin":1.067,"hacin_class":"Hacinamiento Leve","hacin_score":836.9,"auto_score":0.0,"n_per":16,"n_hog":7,"source_year":2024},"geometry":{"type":"Polygon","coordinates":[[[-73.6004744799999,-42.4362807740603],[-73.602172703,-42.4374515710603],[-73.6023764429999,-42.4371907460603],[-73.6017427289999,-42.4364499960603],[-73.6015412209999,-42.4358443640603],[-73.6006876669999,-42.4354065720603],[-73.6007561099999,-42.4357994530603],[-73.6004744799999,-42.4362807740603]]]}},{"type":"Feature","properties":{"id":"10204023007005","commune":"Curaco De Vélez","code":"10204","gse":"D","quintil":"Q1","nse_score":632.0,"educ":9.0,"educ_score":400.0,"hacin":1.0,"hacin_class":"Hacinamiento Leve","hacin_score":851.1,"auto_score":83.3,"n_per":14,"n_hog":6,"source_year":2024},"geometry":{"type":"Polygon","coordinates":[[[-73.5981760539999,-42.4355452700603],[-73.5973498749999,-42.4354694210603],[-73.5970039839999,-42.4359969280603],[-73.5996674649999,-42.4362602610603],[-73.5997162189999,-42.4359335120603],[-73.5981760539999,-42.4355452700603]]]}},{"type":"Feature","properties":{"id":"10204023007006","commune":"Curaco De Vélez","code":"10204","gse":"C3","quintil":"Q3","nse_score":688.0,"educ":11.4,"educ_score":560.0,"hacin":1.226,"hacin_class":"Hacinamiento Leve","hacin_score":803.0,"auto_score":153.8,"n_per":38,"n_hog":13,"source_year":2024},"geometry":{"type":"Polygon","coordinates":[[[-73.5997185689999,-42.4362456320603],[-73.6003459519999,-42.4362967830603],[-73.6005106649999,-42.4360436090604],[-73.5997629259999,-42.4359483410603],[-73.5997185689999,-42.4362456320603]]]}},{"type":"Feature","properties":{"id":"10204023007007","commune":"Curaco De Vélez","code":"10204","gse":"C2","quintil":"Q4","nse_score":740.9,"educ":12.1,"educ_score":606.7,"hacin":1.0,"hacin_class":"Hacinamiento Leve","hacin_score":851.1,"auto_score":285.7,"n_per":20,"n_hog":7,"source_year":2024},"geometry":{"type":"Polygon","coordinates":[[[-73.5968914419999,-42.4367423950603],[-73.5990583409999,-42.4366546100603],[-73.5999419179999,-42.4369660930603],[-73.6003411579999,-42.4363682230603],[-73.5969778449999,-42.4360661070603],[-73.5968914419999,-42.4367423950603]]]}},{"type":"Feature","properties":{"id":"10204023007008","commune":"Curaco De Vélez","code":"10204","gse":"C3","quintil":"Q3","nse_score":702.2,"educ":11.5,"educ_score":566.7,"hacin":1.286,"hacin_class":"Hacinamiento Leve","hacin_score":790.3,"auto_score":38.5,"n_per":27,"n_hog":13,"source_year":2024},"geometry":{"type":"Polygon","coordinates":[[[-73.6000202389999,-42.4369937030603],[-73.6012399269999,-42.4376448700603],[-73.6019074239999,-42.4377604060603],[-73.6021373549999,-42.4374763740603],[-73.6016290149999,-42.4370353440603],[-73.6004541909999,-42.4363543220603],[-73.6000202389999,-42.4369937030603]]]}},{"type":"Feature","properties":{"id":"10204023007010","commune":"Curaco De Vélez","code":"10204","gse":"E","quintil":"Q1","nse_score":618.7,"educ":8.9,"educ_score":393.3,"hacin":1.353,"hacin_class":"Hacinamiento Leve","hacin_score":776.0,"auto_score":71.4,"n_per":23,"n_hog":8,"source_year":2024},"geometry":{"type":"Polygon","coordinates":[[[-73.6020081499999,-42.4377778400604],[-73.6032018899999,-42.4380564340603],[-73.6032331899999,-42.4378969750603],[-73.6032018719999,-42.4376847200603],[-73.6024251259999,-42.4372461270603],[-73.6020081499999,-42.4377778400604]]]}}]}