{"type":"FeatureCollection","features":[{"type":"Feature","properties":{"id":"7103011001002","commune":"Curepto","code":"07103","gse":"C3","quintil":"Q3","nse_score":680.0,"educ":11.2,"educ_score":546.7,"hacin":1.167,"hacin_class":"Hacinamiento Leve","hacin_score":815.6,"auto_score":83.3,"n_per":21,"n_hog":12,"source_year":2024},"geometry":{"type":"Polygon","coordinates":[[[-72.020423751,-35.0884358281121],[-72.0209402339999,-35.0890064221121],[-72.0245098529999,-35.0870738901121],[-72.0242459539999,-35.0866639481121],[-72.0210820729999,-35.0883281171121],[-72.0209389709999,-35.0881573361121],[-72.020423751,-35.0884358281121]]]}},{"type":"Feature","properties":{"id":"7103011001003","commune":"Curepto","code":"07103","gse":"C3","quintil":"Q3","nse_score":676.1,"educ":11.0,"educ_score":533.3,"hacin":1.187,"hacin_class":"Hacinamiento Leve","hacin_score":811.3,"auto_score":133.1,"n_per":362,"n_hog":138,"source_year":2024},"geometry":{"type":"Polygon","coordinates":[[[-72.0245805059999,-35.0871923021121],[-72.0227800409999,-35.0880971451121],[-72.0232256779999,-35.0887115011121],[-72.0227378259999,-35.0881203971121],[-72.0222875449999,-35.0883951941121],[-72.0235402569999,-35.0900887641121],[-72.0260010779999,-35.089332977112],[-72.0256217009999,-35.0887272111121],[-72.0250847389999,-35.0889227721121],[-72.0251383929999,-35.089179895112],[-72.0249230989999,-35.0887855801121],[-72.0250712159999,-35.0889037571121],[-72.0255814919999,-35.0886689071121],[-72.025281806,-35.0882427311121],[-72.0248919749999,-35.0883763351121],[-72.0250116089999,-35.0885886251121],[-72.0248341079999,-35.0883977751121],[-72.0245144309999,-35.0885343041121],[-72.0246414789999,-35.0887532281121],[-72.0244534639999,-35.0885604801121],[-72.0238593179999,-35.0887569701121],[-72.0239788119999,-35.0890541531121],[-72.0238181029999,-35.0888071141121],[-72.0236284809999,-35.0887856621121],[-72.0234289199999,-35.0885172651121],[-72.0237179999999,-35.0887794391121],[-72.0240227039999,-35.0886521691121],[-72.0238442319999,-35.0882868341121],[-72.0240981199999,-35.0886311621121],[-72.0244130299999,-35.0885038941121],[-72.0242146809999,-35.0881226771121],[-72.0244783719999,-35.0884792771121],[-72.0247965869999,-35.0883427111121],[-72.0245994489999,-35.0879672931121],[-72.024872178,-35.0883168941121],[-72.0251961549999,-35.0881828751121],[-72.0245805059999,-35.0871923021121]]]}},{"type":"Feature","properties":{"id":"7103011001005","commune":"Curepto","code":"07103","gse":"C3","quintil":"Q3","nse_score":692.0,"educ":11.4,"educ_score":560.0,"hacin":1.3,"hacin_class":"Hacinamiento Leve","hacin_score":787.2,"auto_score":159.1,"n_per":52,"n_hog":22,"source_year":2024},"geometry":{"type":"Polygon","coordinates":[[[-72.0179624299999,-35.0893216091121],[-72.0181498899999,-35.0897291421121],[-72.0177206559999,-35.090375013112],[-72.0177571379999,-35.0906979811121],[-72.0179688719999,-35.0905844371121],[-72.0178720099999,-35.090433698112],[-72.0180031849999,-35.0905666251121],[-72.0207991369999,-35.0890415351121],[-72.0201377319999,-35.0881800131121],[-72.0179624299999,-35.0893216091121]]]}},{"type":"Feature","properties":{"id":"7103011001006","commune":"Curepto","code":"07103","gse":"C2","quintil":"Q3","nse_score":721.1,"educ":12.5,"educ_score":633.3,"hacin":1.327,"hacin_class":"Hacinamiento Leve","hacin_score":781.6,"auto_score":16.7,"n_per":65,"n_hog":30,"source_year":2024},"geometry":{"type":"Polygon","coordinates":[[[-72.0209657699999,-35.0891182721121],[-72.0213775319999,-35.0896194381121],[-72.021812183,-35.0893990211121],[-72.021794988,-35.0892236531121],[-72.0224214429999,-35.0899262141121],[-72.0223227129999,-35.089996614112],[-72.0218560299999,-35.0894302191121],[-72.0214137759999,-35.0896709781121],[-72.0220959729999,-35.0905773711121],[-72.0235098229999,-35.0901003141121],[-72.0222515239999,-35.0884057561121],[-72.0209657699999,-35.0891182721121]]]}},{"type":"Feature","properties":{"id":"7103011001007","commune":"Curepto","code":"07103","gse":"C3","quintil":"Q2","nse_score":654.1,"educ":11.4,"educ_score":560.0,"hacin":1.059,"hacin_class":"Hacinamiento Leve","hacin_score":838.5,"auto_score":250.0,"n_per":36,"n_hog":13,"source_year":2024},"geometry":{"type":"Polygon","coordinates":[[[-72.0295090519999,-35.0897256921121],[-72.0288893239999,-35.0887087511121],[-72.0288328359999,-35.0887188951121],[-72.0295705639999,-35.0900746421121],[-72.0301181839999,-35.090101272112],[-72.0305995449999,-35.0899575601121],[-72.0305075289999,-35.0897763351121],[-72.0300972289999,-35.0898358471121],[-72.0295427069999,-35.0885466941121],[-72.0289523409999,-35.0887075741121],[-72.0295090519999,-35.0897256921121]]]}},{"type":"Feature","properties":{"id":"7103011001009","commune":"Curepto","code":"07103","gse":"C3","quintil":"Q3","nse_score":682.0,"educ":11.5,"educ_score":566.7,"hacin":1.216,"hacin_class":"Hacinamiento Leve","hacin_score":805.2,"auto_score":137.9,"n_per":62,"n_hog":29,"source_year":2024},"geometry":{"type":"Polygon","coordinates":[[[-72.0199236679999,-35.091248125112],[-72.0219675819999,-35.0906561681121],[-72.0208756039999,-35.0891371461121],[-72.0191552009999,-35.0900258861121],[-72.0199236679999,-35.091248125112]]]}},{"type":"Feature","properties":{"id":"7103011001010","commune":"Curepto","code":"07103","gse":"C3","quintil":"Q3","nse_score":676.4,"educ":11.8,"educ_score":586.7,"hacin":0.9,"hacin_class":"Sin Hacinamiento","hacin_score":872.3,"auto_score":200.0,"n_per":36,"n_hog":15,"source_year":2024},"geometry":{"type":"Polygon","coordinates":[[[-72.0261506509999,-35.0893949121121],[-72.0268113159999,-35.090958958112],[-72.0274917009999,-35.090791064112],[-72.0274580159999,-35.089979414112],[-72.0271047099999,-35.0891519891121],[-72.0261506509999,-35.0893949121121]]]}},{"type":"Feature","properties":{"id":"7103011001012","commune":"Curepto","code":"07103","gse":"C3","quintil":"Q3","nse_score":688.2,"educ":11.7,"educ_score":580.0,"hacin":1.341,"hacin_class":"Hacinamiento Leve","hacin_score":778.4,"auto_score":102.3,"n_per":110,"n_hog":45,"source_year":2024},"geometry":{"type":"Polygon","coordinates":[[[-72.0261410629999,-35.0911264221121],[-72.0267434619999,-35.0909522451121],[-72.0262313029999,-35.0897949771121],[-72.0260454019999,-35.0894262951121],[-72.0254320469999,-35.0895678741121],[-72.0261410629999,-35.0911264221121]]]}},{"type":"Feature","properties":{"id":"7103011001013","commune":"Curepto","code":"07103","gse":"D","quintil":"Q2","nse_score":652.2,"educ":11.2,"educ_score":546.7,"hacin":1.375,"hacin_class":"Hacinamiento Leve","hacin_score":771.2,"auto_score":78.0,"n_per":381,"n_hog":140,"source_year":2024},"geometry":{"type":"Polygon","coordinates":[[[-72.0253180019999,-35.0896149411121],[-72.0209510909999,-35.091044127112],[-72.0215155829999,-35.092649801112],[-72.0218839979999,-35.092675211112],[-72.0227579399999,-35.0923205711121],[-72.0226826219999,-35.092177238112],[-72.0228361619999,-35.092123805112],[-72.0227336909999,-35.091894569112],[-72.0223084539999,-35.092011298112],[-72.0226834089999,-35.091852900112],[-72.022627644,-35.091717767112],[-72.02280436,-35.0917963051121],[-72.0243240899999,-35.091301586112],[-72.0242297149999,-35.091071672112],[-72.0240430259999,-35.0911073341121],[-72.0240030559999,-35.0906380691121],[-72.0241136589999,-35.090600491112],[-72.0245697099999,-35.0915884301121],[-72.0253550099999,-35.091315577112],[-72.0252204769999,-35.090947666112],[-72.0258238079999,-35.0907549621121],[-72.025670998,-35.0904211851121],[-72.0251725489999,-35.090550947112],[-72.0256483169999,-35.0903720481121],[-72.025504038,-35.0900053721121],[-72.0249768559999,-35.0901466111121],[-72.0254904639999,-35.0899787241121],[-72.0253180019999,-35.0896149411121]]]}},{"type":"Feature","properties":{"id":"7103011001014","commune":"Curepto","code":"07103","gse":"D","quintil":"Q1","nse_score":604.0,"educ":10.9,"educ_score":526.7,"hacin":1.259,"hacin_class":"Hacinamiento Leve","hacin_score":795.9,"auto_score":227.3,"n_per":34,"n_hog":11,"source_year":2024},"geometry":{"type":"Polygon","coordinates":[[[-72.0308135329999,-35.0917538511121],[-72.0307839989999,-35.092280238112],[-72.0313092919999,-35.092937765112],[-72.0314532689999,-35.0936167241121],[-72.0315632389999,-35.093754602112],[-72.0320867489999,-35.093559140112],[-72.0318915639999,-35.0927157241121],[-72.0313943309999,-35.0921257361121],[-72.0314306199999,-35.091864524112],[-72.0312973649999,-35.091747324112],[-72.0314382099999,-35.091791287112],[-72.031402409,-35.0915370001121],[-72.0311240119999,-35.091198621112],[-72.0306116519999,-35.0899793671121],[-72.0299980699999,-35.0901371331121],[-72.0305391329999,-35.0914418961121],[-72.0308135329999,-35.0917538511121]]]}},{"type":"Feature","properties":{"id":"7103011001015","commune":"Curepto","code":"07103","gse":"D","quintil":"Q2","nse_score":652.3,"educ":11.3,"educ_score":553.3,"hacin":1.233,"hacin_class":"Hacinamiento Leve","hacin_score":801.6,"auto_score":119.0,"n_per":53,"n_hog":21,"source_year":2024},"geometry":{"type":"Polygon","coordinates":[[[-72.0187194119999,-35.091270663112],[-72.0188764409999,-35.0909977491121],[-72.0187605509999,-35.0912580341121],[-72.0190090109999,-35.0913661481121],[-72.0198092949999,-35.0912457731121],[-72.0190725089999,-35.0900713511121],[-72.0177886239999,-35.0907393251121],[-72.0188000799999,-35.091393095112],[-72.0189477369999,-35.091371490112],[-72.0187194119999,-35.091270663112]]]}},{"type":"Feature","properties":{"id":"7103011001016","commune":"Curepto","code":"07103","gse":"E","quintil":"Q1","nse_score":546.3,"educ":8.8,"educ_score":386.7,"hacin":1.174,"hacin_class":"Hacinamiento Leve","hacin_score":814.1,"auto_score":105.3,"n_per":54,"n_hog":19,"source_year":2024},"geometry":{"type":"Polygon","coordinates":[[[-72.0307908319999,-35.094000430112],[-72.0315413639999,-35.093763356112],[-72.0312841479999,-35.092941715112],[-72.0307379839999,-35.092291507112],[-72.0307586839999,-35.0917177161121],[-72.0305039419999,-35.0914484251121],[-72.030139302,-35.0904611091121],[-72.0299575749999,-35.0901469821121],[-72.0295819299999,-35.0901217521121],[-72.0300588089999,-35.0911348251121],[-72.0292964509999,-35.0914914971121],[-72.0307908319999,-35.094000430112]]]}},{"type":"Feature","properties":{"id":"7103011001017","commune":"Curepto","code":"07103","gse":"C3","quintil":"Q3","nse_score":687.6,"educ":11.9,"educ_score":593.3,"hacin":1.667,"hacin_class":"Hacinamiento Medio","hacin_score":709.2,"auto_score":0.0,"n_per":20,"n_hog":8,"source_year":2024},"geometry":{"type":"Polygon","coordinates":[[[-72.0291332259999,-35.093716485112],[-72.0279510749999,-35.091745921112],[-72.0288607679999,-35.091386410112],[-72.0286556109999,-35.0910454931121],[-72.0279042489999,-35.091264558112],[-72.0286394909999,-35.091018062112],[-72.0284658549999,-35.090720375112],[-72.0268175759999,-35.0910213401121],[-72.0275047349999,-35.092606977112],[-72.0279564249999,-35.0926926111121],[-72.0281664599999,-35.092450159112],[-72.0288967359999,-35.093825552112],[-72.0291332259999,-35.093716485112]]]}},{"type":"Feature","properties":{"id":"7103011001020","commune":"Curepto","code":"07103","gse":"C2","quintil":"Q4","nse_score":736.9,"educ":12.8,"educ_score":653.3,"hacin":1.467,"hacin_class":"Hacinamiento Leve","hacin_score":751.8,"auto_score":166.7,"n_per":22,"n_hog":12,"source_year":2024},"geometry":{"type":"Polygon","coordinates":[[[-72.0254233499999,-35.091309568112],[-72.0259996749999,-35.091150483112],[-72.0258652209999,-35.090821444112],[-72.0253056559999,-35.0909654331121],[-72.0254233499999,-35.091309568112]]]}},{"type":"Feature","properties":{"id":"7103011001021","commune":"Curepto","code":"07103","gse":"C3","quintil":"Q3","nse_score":698.2,"educ":11.9,"educ_score":593.3,"hacin":1.347,"hacin_class":"Hacinamiento Leve","hacin_score":777.2,"auto_score":60.2,"n_per":229,"n_hog":83,"source_year":2024},"geometry":{"type":"Polygon","coordinates":[[[-72.0258416499999,-35.091280721112],[-72.0259825529999,-35.091606851112],[-72.0263382589999,-35.0915291471121],[-72.0256235509999,-35.091763159112],[-72.025681259,-35.0919826941121],[-72.0263980799999,-35.091705349112],[-72.0264695449999,-35.0917745081121],[-72.0257385769999,-35.0920538921121],[-72.0257937759999,-35.0921932101121],[-72.0256901519999,-35.092235146112],[-72.0256163969999,-35.092104041112],[-72.0241790239999,-35.092739087112],[-72.0241773409999,-35.0926464441121],[-72.0250410899999,-35.092277666112],[-72.024695188,-35.0916166801121],[-72.0228210599999,-35.092217662112],[-72.0228125339999,-35.092345440112],[-72.0222263129999,-35.0926623071121],[-72.0227559339999,-35.092905171112],[-72.0229137599999,-35.093302173112],[-72.0239254369999,-35.092840185112],[-72.0243855259999,-35.0927941951121],[-72.0263864349999,-35.091956945112],[-72.0267044789999,-35.092383757112],[-72.0273374129999,-35.092224274112],[-72.0267978959999,-35.0910264981121],[-72.0258416499999,-35.091280721112]]]}},{"type":"Feature","properties":{"id":"7103011001022","commune":"Curepto","code":"07103","gse":"D","quintil":"Q1","nse_score":624.2,"educ":10.6,"educ_score":506.7,"hacin":1.333,"hacin_class":"Hacinamiento Leve","hacin_score":780.1,"auto_score":62.5,"n_per":16,"n_hog":8,"source_year":2024},"geometry":{"type":"Polygon","coordinates":[[[-72.0212427639999,-35.0921866201121],[-72.0208553209999,-35.0910639751121],[-72.0199526959999,-35.091300856112],[-72.0201639829999,-35.0916780251121],[-72.0204349549999,-35.091641929112],[-72.0201532199999,-35.0917146241121],[-72.0199064419999,-35.0913153111121],[-72.0188822339999,-35.0914452751121],[-72.0196784549999,-35.0919489931121],[-72.0200514969999,-35.0923409921121],[-72.0209160919999,-35.0920537061121],[-72.0212427639999,-35.0921866201121]]]}},{"type":"Feature","properties":{"id":"7103011001023","commune":"Curepto","code":"07103","gse":"C2","quintil":"Q4","nse_score":772.4,"educ":13.3,"educ_score":686.7,"hacin":1.381,"hacin_class":"Hacinamiento Leve","hacin_score":770.0,"auto_score":0.0,"n_per":29,"n_hog":9,"source_year":2024},"geometry":{"type":"Polygon","coordinates":[[[-72.0180276359999,-35.0929232601121],[-72.0184327759999,-35.091758896112],[-72.017230976,-35.0912621911121],[-72.0167991079999,-35.092460023112],[-72.0180276359999,-35.0929232601121]]]}},{"type":"Feature","properties":{"id":"7103011001024","commune":"Curepto","code":"07103","gse":"C3","quintil":"Q3","nse_score":703.6,"educ":11.9,"educ_score":593.3,"hacin":1.5,"hacin_class":"Hacinamiento Medio","hacin_score":744.7,"auto_score":142.9,"n_per":18,"n_hog":7,"source_year":2024},"geometry":{"type":"Polygon","coordinates":[[[-72.0255869489999,-35.0917444141121],[-72.0259592179999,-35.091615292112],[-72.0258117269999,-35.091268270112],[-72.025448992,-35.0913824831121],[-72.0255869489999,-35.0917444141121]]]}},{"type":"Feature","properties":{"id":"7103011001025","commune":"Curepto","code":"07103","gse":"C3","quintil":"Q2","nse_score":668.1,"educ":10.9,"educ_score":526.7,"hacin":1.259,"hacin_class":"Hacinamiento Leve","hacin_score":796.0,"auto_score":127.9,"n_per":107,"n_hog":43,"source_year":2024},"geometry":{"type":"Polygon","coordinates":[[[-72.0229230889999,-35.092109215112],[-72.0244611349999,-35.0916246461121],[-72.0244731669999,-35.0915969211121],[-72.0243486129999,-35.0913669271121],[-72.0228231279999,-35.0918551131121],[-72.0229230889999,-35.092109215112]]]}},{"type":"Feature","properties":{"id":"7103011001026","commune":"Curepto","code":"07103","gse":"C3","quintil":"Q2","nse_score":662.4,"educ":11.0,"educ_score":533.3,"hacin":1.412,"hacin_class":"Hacinamiento Leve","hacin_score":763.5,"auto_score":100.0,"n_per":48,"n_hog":15,"source_year":2024},"geometry":{"type":"Polygon","coordinates":[[[-72.0256148689999,-35.092035485112],[-72.0253743389999,-35.091388292112],[-72.0248365409999,-35.091565492112],[-72.0251358529999,-35.0922219181121],[-72.0256148689999,-35.092035485112]]]}},{"type":"Feature","properties":{"id":"7103011001028","commune":"Curepto","code":"07103","gse":"C3","quintil":"Q3","nse_score":678.4,"educ":12.5,"educ_score":633.3,"hacin":1.474,"hacin_class":"Hacinamiento Leve","hacin_score":750.3,"auto_score":125.0,"n_per":28,"n_hog":12,"source_year":2024},"geometry":{"type":"Polygon","coordinates":[[[-72.0206177239999,-35.092341466112],[-72.0210978899999,-35.092254363112],[-72.0209340649999,-35.092143056112],[-72.0200457049999,-35.0924354411121],[-72.0196026109999,-35.0920134071121],[-72.0187434019999,-35.0914735221121],[-72.0186707329999,-35.091489450112],[-72.0194249449999,-35.091946792112],[-72.0193157889999,-35.093234188112],[-72.0202455339999,-35.093377656112],[-72.0206177239999,-35.092341466112]]]}},{"type":"Feature","properties":{"id":"7103011001029","commune":"Curepto","code":"07103","gse":"C2","quintil":"Q4","nse_score":739.4,"educ":13.9,"educ_score":726.7,"hacin":1.593,"hacin_class":"Hacinamiento Medio","hacin_score":725.0,"auto_score":218.8,"n_per":43,"n_hog":18,"source_year":2024},"geometry":{"type":"Polygon","coordinates":[[[-72.0186280499999,-35.0915106361121],[-72.0181307379999,-35.092946778112],[-72.0192343989999,-35.093213708112],[-72.0193817559999,-35.091961632112],[-72.0186280499999,-35.0915106361121]]]}},{"type":"Feature","properties":{"id":"7103011001033","commune":"Curepto","code":"07103","gse":"C2","quintil":"Q4","nse_score":727.8,"educ":13.5,"educ_score":700.0,"hacin":1.118,"hacin_class":"Hacinamiento Leve","hacin_score":826.0,"auto_score":62.5,"n_per":19,"n_hog":9,"source_year":2024},"geometry":{"type":"Polygon","coordinates":[[[-72.0218565889999,-35.092859932112],[-72.0212597579999,-35.092653442112],[-72.0211057679999,-35.092267936112],[-72.0206674959999,-35.092344853112],[-72.0203250519999,-35.093389346112],[-72.0217394539999,-35.093600514112],[-72.0218565889999,-35.092859932112]]]}},{"type":"Feature","properties":{"id":"7103011001034","commune":"Curepto","code":"07103","gse":"E","quintil":"Q1","nse_score":477.6,"educ":7.0,"educ_score":266.7,"hacin":2.769,"hacin_class":"Hacinamiento Crítico","hacin_score":474.6,"auto_score":0.0,"n_per":36,"n_hog":7,"source_year":2024},"geometry":{"type":"Polygon","coordinates":[[[-72.0167936059999,-35.0925447911121],[-72.0164460029999,-35.093696311112],[-72.0177673159999,-35.093747412112],[-72.0180369249999,-35.092990366112],[-72.0167936059999,-35.0925447911121]]]}},{"type":"Feature","properties":{"id":"7103011001036","commune":"Curepto","code":"07103","gse":"D","quintil":"Q1","nse_score":607.2,"educ":11.6,"educ_score":573.3,"hacin":1.273,"hacin_class":"Hacinamiento Leve","hacin_score":793.0,"auto_score":200.0,"n_per":14,"n_hog":5,"source_year":2024},"geometry":{"type":"Polygon","coordinates":[[[-72.0222485069999,-35.092697106112],[-72.0219116619999,-35.092873150112],[-72.0218144249999,-35.093613281112],[-72.0226890969999,-35.093766985112],[-72.02303208,-35.094108720112],[-72.0231393999999,-35.094185175112],[-72.0233256959999,-35.094263318112],[-72.0228549969999,-35.093832092112],[-72.0228112599999,-35.093016419112],[-72.0222485069999,-35.092697106112]]]}},{"type":"Feature","properties":{"id":"7103011001037","commune":"Curepto","code":"07103","gse":"C3","quintil":"Q3","nse_score":676.4,"educ":13.0,"educ_score":666.7,"hacin":1.436,"hacin_class":"Hacinamiento Leve","hacin_score":758.3,"auto_score":111.1,"n_per":112,"n_hog":47,"source_year":2024},"geometry":{"type":"Polygon","coordinates":[[[-72.0182748979999,-35.093486718112],[-72.0198412639999,-35.096360433112],[-72.0213450429999,-35.095954972112],[-72.0217264409999,-35.093653732112],[-72.0181212459999,-35.093011640112],[-72.0180370489999,-35.093393256112],[-72.0182748979999,-35.093486718112]]]}},{"type":"Feature","properties":{"id":"7103011001042","commune":"Curepto","code":"07103","gse":"C2","quintil":"Q4","nse_score":763.7,"educ":12.2,"educ_score":613.3,"hacin":1.188,"hacin_class":"Hacinamiento Leve","hacin_score":811.2,"auto_score":62.5,"n_per":19,"n_hog":8,"source_year":2024},"geometry":{"type":"Polygon","coordinates":[[[-72.0316247009999,-35.095922119112],[-72.0303294389999,-35.093611985112],[-72.0299659159999,-35.093822339112],[-72.0304822159999,-35.094419908112],[-72.0308911699999,-35.095745640112],[-72.0303100469999,-35.096036803112],[-72.0301100529999,-35.096287959112],[-72.0316247009999,-35.095922119112]]]}},{"type":"Feature","properties":{"id":"7103011001043","commune":"Curepto","code":"07103","gse":"E","quintil":"Q1","nse_score":585.4,"educ":10.4,"educ_score":493.3,"hacin":1.407,"hacin_class":"Hacinamiento Leve","hacin_score":764.4,"auto_score":0.0,"n_per":76,"n_hog":35,"source_year":2024},"geometry":{"type":"Polygon","coordinates":[[[-72.0219039509999,-35.095890628112],[-72.0221273599999,-35.096185344112],[-72.0219239849999,-35.096601615112],[-72.0217764689999,-35.096368373112],[-72.0208592559999,-35.096668485112],[-72.0209544459999,-35.097048026112],[-72.021796676,-35.096845017112],[-72.0209757009999,-35.097075981112],[-72.0210447769999,-35.097498511112],[-72.0219074109999,-35.097206687112],[-72.0218263169999,-35.097009734112],[-72.0220674149999,-35.096717331112],[-72.0226039849999,-35.096584199112],[-72.0228310729999,-35.094732664112],[-72.0231192529999,-35.094780605112],[-72.0232966859999,-35.094286833112],[-72.0226680249999,-35.093794588112],[-72.0218229319999,-35.093660070112],[-72.0214228919999,-35.095913524112],[-72.0220148099999,-35.095847721112],[-72.0219039509999,-35.095890628112]]]}},{"type":"Feature","properties":{"id":"7103011001044","commune":"Curepto","code":"07103","gse":"C3","quintil":"Q2","nse_score":664.2,"educ":12.0,"educ_score":600.0,"hacin":1.075,"hacin_class":"Hacinamiento Leve","hacin_score":835.1,"auto_score":144.7,"n_per":86,"n_hog":38,"source_year":2024},"geometry":{"type":"Polygon","coordinates":[[[-72.0164350049999,-35.093739303112],[-72.0159580589999,-35.097171089112],[-72.0166583249999,-35.096752768112],[-72.0165200739999,-35.095944847112],[-72.0166224909999,-35.095978492112],[-72.0167113219999,-35.096718096112],[-72.017692371,-35.096164962112],[-72.0189054519999,-35.096078551112],[-72.0195111329999,-35.095909857112],[-72.0184530029999,-35.093976910112],[-72.0178991949999,-35.093947235112],[-72.0177665079999,-35.093790655112],[-72.0164350049999,-35.093739303112]]]}},{"type":"Feature","properties":{"id":"7103011001046","commune":"Curepto","code":"07103","gse":"E","quintil":"Q1","nse_score":485.5,"educ":7.4,"educ_score":293.3,"hacin":1.111,"hacin_class":"Hacinamiento Leve","hacin_score":827.4,"auto_score":0.0,"n_per":10,"n_hog":5,"source_year":2024},"geometry":{"type":"Polygon","coordinates":[[[-72.0218831189999,-35.096536555112],[-72.0220977919999,-35.096186082112],[-72.0218793999999,-35.095893372112],[-72.0207576169999,-35.096198023112],[-72.0208502259999,-35.096612291112],[-72.0217770559999,-35.096345850112],[-72.0218831189999,-35.096536555112]]]}},{"type":"Feature","properties":{"id":"7103011001047","commune":"Curepto","code":"07103","gse":"D","quintil":"Q1","nse_score":600.8,"educ":12.2,"educ_score":613.3,"hacin":1.044,"hacin_class":"Hacinamiento Leve","hacin_score":841.8,"auto_score":205.9,"n_per":96,"n_hog":36,"source_year":2024},"geometry":{"type":"Polygon","coordinates":[[[-72.0195688159999,-35.095988158112],[-72.017719972,-35.096220081112],[-72.0163463529999,-35.097036926112],[-72.0167450249999,-35.097968416112],[-72.0179243569999,-35.097939139112],[-72.0177162059999,-35.097370835112],[-72.0178825499999,-35.097255357112],[-72.0199107819999,-35.097052788112],[-72.0195688159999,-35.095988158112]]]}},{"type":"Feature","properties":{"id":"7103011001048","commune":"Curepto","code":"07103","gse":"D","quintil":"Q1","nse_score":597.5,"educ":10.9,"educ_score":526.7,"hacin":1.113,"hacin_class":"Hacinamiento Leve","hacin_score":827.1,"auto_score":129.0,"n_per":79,"n_hog":31,"source_year":2024},"geometry":{"type":"Polygon","coordinates":[[[-72.0206883739999,-35.096217321112],[-72.0198608499999,-35.096412831112],[-72.0199313889999,-35.096836741112],[-72.0201074519999,-35.097407548112],[-72.0207918959999,-35.098274592112],[-72.021188058,-35.098243324112],[-72.0206883739999,-35.096217321112]]]}},{"type":"Feature","properties":{"id":"7103011001049","commune":"Curepto","code":"07103","gse":"D","quintil":"Q1","nse_score":612.8,"educ":10.3,"educ_score":486.7,"hacin":1.094,"hacin_class":"Hacinamiento Leve","hacin_score":831.1,"auto_score":125.0,"n_per":35,"n_hog":16,"source_year":2024},"geometry":{"type":"Polygon","coordinates":[[[-72.0177839579999,-35.097320138112],[-72.018183485,-35.098002751112],[-72.0194148289999,-35.097848499112],[-72.0205561889999,-35.098016427112],[-72.0198933199999,-35.097107038112],[-72.0177839579999,-35.097320138112]]]}},{"type":"Feature","properties":{"id":"7103011001050","commune":"Curepto","code":"07103","gse":"C2","quintil":"Q4","nse_score":727.4,"educ":11.7,"educ_score":580.0,"hacin":1.267,"hacin_class":"Hacinamiento Leve","hacin_score":794.3,"auto_score":214.3,"n_per":19,"n_hog":7,"source_year":2024},"geometry":{"type":"Polygon","coordinates":[[[-72.0159129479999,-35.097290123112],[-72.0163617109999,-35.098091270112],[-72.0163806259999,-35.098721269112],[-72.0165396909999,-35.0991768791119],[-72.0170812939999,-35.099086608112],[-72.016328944,-35.097192594112],[-72.0162203059999,-35.097125294112],[-72.0159129479999,-35.097290123112]]]}},{"type":"Feature","properties":{"id":"7103011001051","commune":"Curepto","code":"07103","gse":"D","quintil":"Q2","nse_score":646.7,"educ":11.0,"educ_score":533.3,"hacin":1.207,"hacin_class":"Hacinamiento Leve","hacin_score":807.1,"auto_score":122.8,"n_per":146,"n_hog":57,"source_year":2024},"geometry":{"type":"Polygon","coordinates":[[[-72.0219217719999,-35.097726854112],[-72.0229624059999,-35.097640953112],[-72.0230128539999,-35.097472114112],[-72.023283579,-35.0982299221119],[-72.0231068449999,-35.0980115171119],[-72.0216833139999,-35.098137971112],[-72.0217508519999,-35.098411496112],[-72.0216653299999,-35.0984187911119],[-72.0216059879999,-35.098133450112],[-72.0213356809999,-35.098146638112],[-72.0213947499999,-35.0985467321119],[-72.0212868899999,-35.098831770112],[-72.0212784269999,-35.098288270112],[-72.0208012329999,-35.098355489112],[-72.0204050379999,-35.1020709971119],[-72.0214317379999,-35.1020712131119],[-72.0215593789999,-35.101557199112],[-72.0210519899999,-35.1015175231119],[-72.0214088699999,-35.098768164112],[-72.0237996659999,-35.098426883112],[-72.0233858249999,-35.097308390112],[-72.021906467,-35.097455343112],[-72.0219217719999,-35.097726854112]]]}},{"type":"Feature","properties":{"id":"7103011001052","commune":"Curepto","code":"07103","gse":"C3","quintil":"Q3","nse_score":705.0,"educ":10.8,"educ_score":520.0,"hacin":1.025,"hacin_class":"Hacinamiento Leve","hacin_score":845.8,"auto_score":175.7,"n_per":83,"n_hog":37,"source_year":2024},"geometry":{"type":"Polygon","coordinates":[[[-72.0230101369999,-35.097694492112],[-72.0211866919999,-35.097898268112],[-72.0213235319999,-35.098082707112],[-72.0230909519999,-35.097932893112],[-72.0230101369999,-35.097694492112]]]}},{"type":"Feature","properties":{"id":"7103011001056","commune":"Curepto","code":"07103","gse":"E","quintil":"Q1","nse_score":503.9,"educ":8.9,"educ_score":393.3,"hacin":1.79,"hacin_class":"Hacinamiento Medio","hacin_score":683.1,"auto_score":125.0,"n_per":34,"n_hog":13,"source_year":2024},"geometry":{"type":"Polygon","coordinates":[[[-72.0222637499999,-35.1036226741119],[-72.0220635359999,-35.1033038031119],[-72.0213065789999,-35.1026458551119],[-72.0212014749999,-35.1021061941119],[-72.0204089519999,-35.102104250112],[-72.0206914549999,-35.102798144112],[-72.0210954339999,-35.1032240481119],[-72.0222637499999,-35.1036226741119]]]}},{"type":"Feature","properties":{"id":"7103011001059","commune":"Curepto","code":"07103","gse":"E","quintil":"Q1","nse_score":492.8,"educ":8.5,"educ_score":366.7,"hacin":1.667,"hacin_class":"Hacinamiento Medio","hacin_score":709.2,"auto_score":83.3,"n_per":15,"n_hog":6,"source_year":2024},"geometry":{"type":"Polygon","coordinates":[[[-72.0238538939999,-35.1029420861119],[-72.0232448289999,-35.1030964721119],[-72.0235407949999,-35.1037114161119],[-72.0236933499999,-35.1045065291119],[-72.0234792709999,-35.1048078521119],[-72.0236779239999,-35.1050477381119],[-72.0247206449999,-35.1039046411119],[-72.0242692139999,-35.1030011591119],[-72.0238538939999,-35.1029420861119]]]}},{"type":"Feature","properties":{"id":"7103011001061","commune":"Curepto","code":"07103","gse":"E","quintil":"Q1","nse_score":431.6,"educ":6.3,"educ_score":220.0,"hacin":1.444,"hacin_class":"Hacinamiento Leve","hacin_score":756.5,"auto_score":166.7,"n_per":13,"n_hog":6,"source_year":2024},"geometry":{"type":"Polygon","coordinates":[[[-72.0232617369999,-35.1032454501119],[-72.0222856819999,-35.1036517551119],[-72.0223104489999,-35.1037411721119],[-72.0211306549999,-35.1032537561119],[-72.0216715129999,-35.1037854911119],[-72.0215890769999,-35.1047603971119],[-72.0222016909999,-35.1048548651119],[-72.0236087029999,-35.1043748171119],[-72.0235048259999,-35.1036852121119],[-72.0232617369999,-35.1032454501119]]]}},{"type":"Feature","properties":{"id":"7103011001062","commune":"Curepto","code":"07103","gse":"E","quintil":"Q1","nse_score":592.3,"educ":8.0,"educ_score":333.3,"hacin":1.37,"hacin_class":"Hacinamiento Leve","hacin_score":772.3,"auto_score":227.3,"n_per":37,"n_hog":11,"source_year":2024},"geometry":{"type":"Polygon","coordinates":[[[-72.0227331279999,-35.1086061081119],[-72.0232644209999,-35.1083329441119],[-72.0226578079999,-35.1077353601119],[-72.0223228309999,-35.1070372531119],[-72.0221533709999,-35.1053284031119],[-72.0235022059999,-35.1049354441119],[-72.0234425729999,-35.1047553951119],[-72.0236481119999,-35.1045260481119],[-72.0235961489999,-35.1044049531119],[-72.0222197829999,-35.1048791041119],[-72.0215644449999,-35.1048374851119],[-72.0215142779999,-35.1055697891119],[-72.0216737229999,-35.1070473971119],[-72.0220381919999,-35.1078907941119],[-72.0227331279999,-35.1086061081119]]]}},{"type":"Feature","properties":{"id":"7103011001064","commune":"Curepto","code":"07103","gse":"D","quintil":"Q1","nse_score":621.0,"educ":9.6,"educ_score":440.0,"hacin":1.323,"hacin_class":"Hacinamiento Leve","hacin_score":782.3,"auto_score":172.4,"n_per":86,"n_hog":29,"source_year":2024},"geometry":{"type":"Polygon","coordinates":[[[-72.0226220859999,-35.1086620021119],[-72.0219304249999,-35.1086152771119],[-72.0226841109999,-35.1086140851119],[-72.0219809499999,-35.1079266101119],[-72.0216461039999,-35.1071673131119],[-72.021471232,-35.1050525161119],[-72.0206387339999,-35.1050202551119],[-72.0207780019999,-35.1071569211119],[-72.0211441719999,-35.1080885031118],[-72.0217326389999,-35.1088237941118],[-72.0220567909999,-35.1089780471118],[-72.0226220859999,-35.1086620021119]]]}},{"type":"Feature","properties":{"id":"7103011001031","commune":"Curepto","code":"07103","gse":"C2","quintil":"Q4","nse_score":773.8,"educ":13.6,"educ_score":706.7,"hacin":1.222,"hacin_class":"Hacinamiento Leve","hacin_score":803.8,"auto_score":125.0,"n_per":11,"n_hog":4,"source_year":2024},"geometry":{"type":"MultiPolygon","coordinates":[[[[-72.0290319859999,-35.094624736112],[-72.0297145119999,-35.096382559112],[-72.0300434199999,-35.096303896112],[-72.0302857979999,-35.096008793112],[-72.0308398739999,-35.095770770112],[-72.0304574159999,-35.094443843112],[-72.0295337789999,-35.094647622112],[-72.0296218559999,-35.094618160112],[-72.0294706149999,-35.094084951112],[-72.0298932759999,-35.093886944112],[-72.0300156739999,-35.093697310112],[-72.0297817879999,-35.0934815091121],[-72.0288992819999,-35.093856538112],[-72.0290319859999,-35.094624736112]]],[[[-72.0288964879999,-35.093351828112],[-72.0291646509999,-35.0936968601121],[-72.0297096109999,-35.093454673112],[-72.0297991849999,-35.093457631112],[-72.0300423769999,-35.093681424112],[-72.0303108889999,-35.093591093112],[-72.0292879089999,-35.0920073441121],[-72.0283505369999,-35.092288072112],[-72.0287878549999,-35.092909560112],[-72.0288964879999,-35.093351828112]]]]}},{"type":"Feature","properties":{"id":"7103011001008","commune":"Curepto","code":"07103","gse":"C2","quintil":"Q3","nse_score":713.3,"educ":13.7,"educ_score":713.3,"hacin":1.429,"hacin_class":"Hacinamiento Leve","hacin_score":759.9,"auto_score":0.0,"n_per":10,"n_hog":4,"source_year":2024},"geometry":{"type":"MultiPolygon","coordinates":[[[[-72.0280236249999,-35.091767172112],[-72.0283143779999,-35.0922517751121],[-72.0292666109999,-35.091972490112],[-72.0288959319999,-35.0914325011121],[-72.0280236249999,-35.091767172112]]],[[[-72.0287413249999,-35.0887954681121],[-72.0271367589999,-35.089145510112],[-72.0274993329999,-35.089977156112],[-72.0275165829999,-35.0907219131121],[-72.0278067939999,-35.0907970501121],[-72.0284961949999,-35.090693668112],[-72.0306734769999,-35.094110672112],[-72.0308068999999,-35.094057278112],[-72.0287998019999,-35.0908456861121],[-72.0292496779999,-35.091434324112],[-72.0299361809999,-35.0910930811121],[-72.0294493379999,-35.089925905112],[-72.0287413249999,-35.0887954681121]]]]}},{"type":"Feature","properties":{"id":"7103011001011","commune":"Curepto","code":"07103","gse":"C3","quintil":"Q3","nse_score":694.3,"educ":11.0,"educ_score":533.3,"hacin":1.381,"hacin_class":"Hacinamiento Leve","hacin_score":770.0,"auto_score":150.0,"n_per":29,"n_hog":10,"source_year":2024},"geometry":{"type":"MultiPolygon","coordinates":[[[[-72.0176980429999,-35.0907883641121],[-72.0172728379999,-35.0912053431121],[-72.0184706319999,-35.091673858112],[-72.0186679829999,-35.091423069112],[-72.0176980429999,-35.0907883641121]]],[[[-72.0178730259999,-35.0893776481121],[-72.0162719439999,-35.0907140801121],[-72.0157167909999,-35.0921790411121],[-72.0145595549999,-35.0917769801121],[-72.0142689749999,-35.094805270112],[-72.0161956689999,-35.094619601112],[-72.0163229799999,-35.093712726112],[-72.016701984,-35.092545155112],[-72.0159585169999,-35.0922553871121],[-72.0167455369999,-35.092436831112],[-72.0171932069999,-35.091169763112],[-72.0174283489999,-35.0908871551121],[-72.0168691219999,-35.0905843021121],[-72.0165979749999,-35.090962087112],[-72.0170327999999,-35.0902133451121],[-72.0168951279999,-35.0905754141121],[-72.017455632,-35.0908704141121],[-72.0176661479999,-35.090746687112],[-72.0176208489999,-35.090349675112],[-72.0180342119999,-35.0896555541121],[-72.0178730259999,-35.0893776481121]]]]}},{"type":"Feature","properties":{"id":"7103011001058","commune":"Curepto","code":"07103","gse":"E","quintil":"Q1","nse_score":487.8,"educ":6.3,"educ_score":220.0,"hacin":1.4,"hacin_class":"Hacinamiento Leve","hacin_score":766.0,"auto_score":0.0,"n_per":21,"n_hog":11,"source_year":2024},"geometry":{"type":"MultiPolygon","coordinates":[[[[-72.0248825449999,-35.1053574421119],[-72.0246921909999,-35.1053524991119],[-72.0254338819999,-35.1055256751119],[-72.0258016179999,-35.1049229211119],[-72.0250771669999,-35.1051150601119],[-72.0250000729999,-35.1052599701119],[-72.0248825449999,-35.1053574421119]]],[[[-72.0250645579999,-35.1028825561119],[-72.0243703419999,-35.1030889301119],[-72.0247526049999,-35.1039522051119],[-72.0237176829999,-35.1050624151119],[-72.0246626989999,-35.1053296391119],[-72.0248472939999,-35.1049127751119],[-72.0247028059999,-35.1053300021119],[-72.0249972509999,-35.1052257541119],[-72.0252274109999,-35.1048433351119],[-72.0251716329999,-35.1043540651119],[-72.0254379829999,-35.1041564591119],[-72.0251023749999,-35.1037100881119],[-72.0250645579999,-35.1028825561119]]]]}},{"type":"Feature","properties":{"id":"7103011001054","commune":"Curepto","code":"07103","gse":"E","quintil":"Q1","nse_score":594.0,"educ":10.0,"educ_score":466.7,"hacin":1.36,"hacin_class":"Hacinamiento Leve","hacin_score":774.5,"auto_score":25.0,"n_per":204,"n_hog":80,"source_year":2024},"geometry":{"type":"MultiPolygon","coordinates":[[[[-72.0183891689999,-35.099433690112],[-72.017924192,-35.099574566112],[-72.0176693299999,-35.099586889112],[-72.0177508799999,-35.0998899661119],[-72.0183929169999,-35.099747555112],[-72.0185462609999,-35.099504841112],[-72.0183891689999,-35.099433690112]]],[[[-72.0192118259999,-35.097883104112],[-72.0179851539999,-35.098001203112],[-72.0178992329999,-35.098141841112],[-72.0179556179999,-35.097996150112],[-72.0166895709999,-35.098064125112],[-72.0169864469999,-35.098784022112],[-72.0176506599999,-35.098747400112],[-72.0170094669999,-35.098832997112],[-72.0173784759999,-35.099430170112],[-72.0177726839999,-35.099428976112],[-72.0174126019999,-35.099468775112],[-72.0175469319999,-35.0995413941119],[-72.0179003699999,-35.099563164112],[-72.0192809529999,-35.099193688112],[-72.0196190549999,-35.099214216112],[-72.0199725519999,-35.0993645171119],[-72.0192840679999,-35.0992295331119],[-72.0185266599999,-35.0994154071119],[-72.0185900609999,-35.099510773112],[-72.0182897179999,-35.100333536112],[-72.0189632259999,-35.100125629112],[-72.0199501279999,-35.1012347671119],[-72.0195674089999,-35.1014487801119],[-72.0193314989999,-35.101403914112],[-72.0192021649999,-35.1024007221119],[-72.0189342219999,-35.102452710112],[-72.0185847479999,-35.1023398001119],[-72.0183384969999,-35.1021146201119],[-72.0186127719999,-35.1023128701119],[-72.0191606109999,-35.1023755261119],[-72.0192855859999,-35.1014153441119],[-72.0181726139999,-35.1016777901119],[-72.0179148619999,-35.1023794171119],[-72.018659694,-35.1026062231119],[-72.0187038379999,-35.1027237171119],[-72.0193678449999,-35.1025463971119],[-72.019795729,-35.1033797331119],[-72.0200137779999,-35.1034130371119],[-72.0207513329999,-35.1039901391119],[-72.0206387339999,-35.1050202551119],[-72.0214745769999,-35.1050243881119],[-72.0215952629999,-35.1037741521119],[-72.0206947569999,-35.1029153601119],[-72.020340255,-35.1021390251119],[-72.0205197459999,-35.100469810112],[-72.0202149389999,-35.1004398761119],[-72.0202373949999,-35.100659220112],[-72.0200736579999,-35.1004830061119],[-72.0203075699999,-35.1003259151119],[-72.0202327719999,-35.1000850171119],[-72.0195998159999,-35.099971891112],[-72.0202235429999,-35.1000559791119],[-72.0203480819999,-35.100378233112],[-72.0205280799999,-35.100414788112],[-72.0206635209999,-35.098227528112],[-72.0204128869999,-35.097964321112],[-72.0192346379999,-35.097883462112],[-72.0192241219999,-35.098179677112],[-72.0190585349999,-35.0985328661119],[-72.0186121349999,-35.098676190112],[-72.019040818,-35.098515259112],[-72.0192118259999,-35.097883104112]]]]}},{"type":"Feature","properties":{"id":"7103011001001","commune":"Curepto","code":"07103","gse":"C3","quintil":"Q3","nse_score":697.1,"educ":11.8,"educ_score":586.7,"hacin":1.37,"hacin_class":"Hacinamiento Leve","hacin_score":772.3,"auto_score":346.2,"n_per":37,"n_hog":13,"source_year":2024},"geometry":{"type":"MultiPolygon","coordinates":[[[[-72.0290125889999,-35.0885370971121],[-72.0293073939999,-35.0885320791121],[-72.0291525689999,-35.0880347651121],[-72.0287479659999,-35.0881005191121],[-72.0289151039999,-35.0883135851121],[-72.0290125889999,-35.0885370971121]]],[[[-72.0242080499999,-35.0865678571121],[-72.0260656589999,-35.0893272831121],[-72.0289982539999,-35.0886140251121],[-72.0287212689999,-35.0881055051121],[-72.0265061849999,-35.0886078731121],[-72.0260689349999,-35.0880146321121],[-72.0256285399999,-35.0881610301121],[-72.0245078759999,-35.0864521451121],[-72.0242080499999,-35.0865678571121]]]]}},{"type":"Feature","properties":{"id":"7103063042001","commune":"Curepto","code":"07103","gse":"D","quintil":"Q1","nse_score":595.7,"educ":8.7,"educ_score":380.0,"hacin":1.182,"hacin_class":"Hacinamiento Leve","hacin_score":812.4,"auto_score":65.2,"n_per":52,"n_hog":24,"source_year":2024},"geometry":{"type":"Polygon","coordinates":[[[-71.9827436019999,-35.2422025171104],[-71.980990845,-35.2451607811103],[-71.9810962509999,-35.2452034171103],[-71.9806977299999,-35.2457283771103],[-71.9803918889999,-35.2466333961103],[-71.9808890859999,-35.2467685731103],[-71.9813745439999,-35.2459667601103],[-71.9810911319999,-35.2458400201104],[-71.9813718589999,-35.2453643761104],[-71.9817436989999,-35.2454778641104],[-71.9834461979999,-35.2425995521104],[-71.9827436019999,-35.2422025171104]]]}},{"type":"Feature","properties":{"id":"7103063042002","commune":"Curepto","code":"07103","gse":"E","quintil":"Q1","nse_score":572.6,"educ":8.8,"educ_score":386.7,"hacin":1.429,"hacin_class":"Hacinamiento Leve","hacin_score":759.9,"auto_score":0.0,"n_per":20,"n_hog":9,"source_year":2024},"geometry":{"type":"Polygon","coordinates":[[[-71.9823469099999,-35.2445996641104],[-71.9849069219999,-35.2455952071104],[-71.9853204029999,-35.2448944661104],[-71.9829470059999,-35.2439070431104],[-71.9836698159999,-35.2426960081104],[-71.9835168559999,-35.2426147441104],[-71.9823469099999,-35.2445996641104]]]}},{"type":"Feature","properties":{"id":"7103063042003","commune":"Curepto","code":"07103","gse":"E","quintil":"Q1","nse_score":592.0,"educ":9.1,"educ_score":406.7,"hacin":1.183,"hacin_class":"Hacinamiento Leve","hacin_score":812.1,"auto_score":35.7,"n_per":71,"n_hog":27,"source_year":2024},"geometry":{"type":"Polygon","coordinates":[[[-71.9859011499999,-35.2440519731104],[-71.9843181479999,-35.2467363201104],[-71.9866756249999,-35.2476053061104],[-71.987407372,-35.2474145831104],[-71.9879631089999,-35.2461588411104],[-71.9889016629999,-35.2464558701103],[-71.9892417479999,-35.2455261991103],[-71.9879708949999,-35.2449398851104],[-71.9876280669999,-35.2458891771103],[-71.986311069,-35.2453455071104],[-71.9868448739999,-35.2444399661104],[-71.9859011499999,-35.2440519731104]]]}},{"type":"Feature","properties":{"id":"7103063042004","commune":"Curepto","code":"07103","gse":"E","quintil":"Q1","nse_score":509.3,"educ":6.9,"educ_score":260.0,"hacin":1.0,"hacin_class":"Hacinamiento Leve","hacin_score":851.1,"auto_score":62.5,"n_per":14,"n_hog":8,"source_year":2024},"geometry":{"type":"Polygon","coordinates":[[[-71.9819189279999,-35.2458289041104],[-71.9829199599999,-35.2462036141104],[-71.9835330129999,-35.2451582121103],[-71.9823183269999,-35.2446483811104],[-71.9818044849999,-35.2454989741103],[-71.9820298999999,-35.2455834251104],[-71.9819189279999,-35.2458289041104]]]}},{"type":"Feature","properties":{"id":"7103063042005","commune":"Curepto","code":"07103","gse":"C2","quintil":"Q3","nse_score":715.2,"educ":15.3,"educ_score":820.0,"hacin":0.5,"hacin_class":"Sin Hacinamiento","hacin_score":957.4,"auto_score":0.0,"n_per":6,"n_hog":4,"source_year":2024},"geometry":{"type":"Polygon","coordinates":[[[-71.9829797209999,-35.2462263801103],[-71.9842584069999,-35.2467135131103],[-71.9848784139999,-35.2456439741104],[-71.9835926289999,-35.2451815451103],[-71.9829797209999,-35.2462263801103]]]}},{"type":"Feature","properties":{"id":"7103063042007","commune":"Curepto","code":"07103","gse":"E","quintil":"Q1","nse_score":593.7,"educ":10.4,"educ_score":493.3,"hacin":1.727,"hacin_class":"Hacinamiento Medio","hacin_score":696.3,"auto_score":125.0,"n_per":19,"n_hog":8,"source_year":2024},"geometry":{"type":"Polygon","coordinates":[[[-71.9817608939999,-35.2460896751104],[-71.9814349889999,-35.2459884401104],[-71.9809499859999,-35.2467895011104],[-71.9822457579999,-35.2473086851103],[-71.9828828369999,-35.2462689341103],[-71.9818845429999,-35.2458952621103],[-71.9817608939999,-35.2460896751104]]]}},{"type":"Feature","properties":{"id":"7103063042009","commune":"Curepto","code":"07103","gse":"D","quintil":"Q2","nse_score":649.9,"educ":9.0,"educ_score":400.0,"hacin":0.85,"hacin_class":"Sin Hacinamiento","hacin_score":883.0,"auto_score":187.5,"n_per":17,"n_hog":8,"source_year":2024},"geometry":{"type":"Polygon","coordinates":[[[-71.9834791099999,-35.2478078001103],[-71.9842188459999,-35.2467779041103],[-71.9829425979999,-35.2462917011104],[-71.9823041789999,-35.2473336821103],[-71.9834791099999,-35.2478078001103]]]}},{"type":"Feature","properties":{"id":"7103063042010","commune":"Curepto","code":"07103","gse":"E","quintil":"Q1","nse_score":533.7,"educ":7.9,"educ_score":326.7,"hacin":1.25,"hacin_class":"Hacinamiento Leve","hacin_score":797.9,"auto_score":272.7,"n_per":30,"n_hog":10,"source_year":2024},"geometry":{"type":"Polygon","coordinates":[[[-71.9880315179999,-35.2476546331104],[-71.9884769629999,-35.2477484131104],[-71.9888836489999,-35.2465080231103],[-71.9885189259999,-35.2463983511103],[-71.9880315179999,-35.2476546331104]]]}},{"type":"Feature","properties":{"id":"7103063042011","commune":"Curepto","code":"07103","gse":"D","quintil":"Q1","nse_score":617.1,"educ":8.8,"educ_score":386.7,"hacin":0.889,"hacin_class":"Sin Hacinamiento","hacin_score":874.7,"auto_score":125.0,"n_per":8,"n_hog":4,"source_year":2024},"geometry":{"type":"Polygon","coordinates":[[[-71.9880737259999,-35.2472725421104],[-71.9883228499999,-35.2467255121103],[-71.9878330409999,-35.2465523441104],[-71.9876110309999,-35.2470852991103],[-71.9880737259999,-35.2472725421104]]]}},{"type":"Feature","properties":{"id":"7103063042013","commune":"Curepto","code":"07103","gse":"E","quintil":"Q1","nse_score":545.3,"educ":7.4,"educ_score":293.3,"hacin":1.037,"hacin_class":"Hacinamiento Leve","hacin_score":843.2,"auto_score":125.0,"n_per":28,"n_hog":12,"source_year":2024},"geometry":{"type":"Polygon","coordinates":[[[-71.9842786709999,-35.2468007391103],[-71.983609096,-35.2478617571103],[-71.9859598259999,-35.2488162951103],[-71.9883506869999,-35.2478396331103],[-71.9874248049999,-35.2474855271103],[-71.9864697699999,-35.2476660121104],[-71.9842786709999,-35.2468007391103]]]}},{"type":"Feature","properties":{"id":"7103063042014","commune":"Curepto","code":"07103","gse":"E","quintil":"Q1","nse_score":498.2,"educ":7.6,"educ_score":306.7,"hacin":0.857,"hacin_class":"Sin Hacinamiento","hacin_score":881.5,"auto_score":0.0,"n_per":18,"n_hog":9,"source_year":2024},"geometry":{"type":"Polygon","coordinates":[[[-71.980913288,-35.2468350821104],[-71.9806177829999,-35.2478315731103],[-71.9800573729999,-35.2480259001104],[-71.9802367189999,-35.2483220401103],[-71.9798702169999,-35.2490999411103],[-71.9809470049999,-35.2493447691103],[-71.9812072819999,-35.2489322831103],[-71.9804086839999,-35.2487545901103],[-71.9812295119999,-35.2489001851103],[-71.9822154739999,-35.2473566921103],[-71.980913288,-35.2468350821104]]]}},{"type":"Feature","properties":{"id":"7103063042016","commune":"Curepto","code":"07103","gse":"D","quintil":"Q1","nse_score":610.7,"educ":11.3,"educ_score":553.3,"hacin":1.25,"hacin_class":"Hacinamiento Leve","hacin_score":797.9,"auto_score":250.0,"n_per":20,"n_hog":8,"source_year":2024},"geometry":{"type":"Polygon","coordinates":[[[-71.9816095959999,-35.2484390041103],[-71.9828744349999,-35.2489210061103],[-71.9835221579999,-35.2478862491103],[-71.9822738769999,-35.2473817171103],[-71.9816095959999,-35.2484390041103]]]}},{"type":"Feature","properties":{"id":"7103063042017","commune":"Curepto","code":"07103","gse":"E","quintil":"Q1","nse_score":542.2,"educ":9.5,"educ_score":433.3,"hacin":1.613,"hacin_class":"Hacinamiento Medio","hacin_score":720.7,"auto_score":184.2,"n_per":50,"n_hog":19,"source_year":2024},"geometry":{"type":"Polygon","coordinates":[[[-71.9839147909999,-35.2488655131103],[-71.9833399429999,-35.2487450131103],[-71.9831578939999,-35.2486036651103],[-71.9829248019999,-35.2489582681103],[-71.9834130019999,-35.2490823391103],[-71.9838093669999,-35.2492644601103],[-71.9829035689999,-35.2489905711103],[-71.9818798139999,-35.2506506481103],[-71.9826678809999,-35.2509627611103],[-71.9835618699999,-35.2494728921103],[-71.9841354689999,-35.2497254651103],[-71.9843039259999,-35.2494291191103],[-71.9855061709999,-35.2499741951103],[-71.9859200439999,-35.2488610431103],[-71.9835809749999,-35.2479106641103],[-71.9831787609999,-35.2485719191103],[-71.9839147909999,-35.2488655131103]]]}},{"type":"Feature","properties":{"id":"7103063042018","commune":"Curepto","code":"07103","gse":"D","quintil":"Q1","nse_score":610.0,"educ":11.1,"educ_score":540.0,"hacin":1.333,"hacin_class":"Hacinamiento Leve","hacin_score":780.1,"auto_score":0.0,"n_per":8,"n_hog":4,"source_year":2024},"geometry":{"type":"Polygon","coordinates":[[[-71.9807817629999,-35.2497602841103],[-71.9821133669999,-35.2502676301103],[-71.98284315,-35.2489686001103],[-71.9815779829999,-35.2484867681103],[-71.9807817629999,-35.2497602841103]]]}},{"type":"Feature","properties":{"id":"7103103057001","commune":"Curepto","code":"07103","gse":"E","quintil":"Q1","nse_score":586.9,"educ":8.7,"educ_score":380.0,"hacin":1.2,"hacin_class":"Hacinamiento Leve","hacin_score":808.5,"auto_score":230.8,"n_per":78,"n_hog":26,"source_year":2024},"geometry":{"type":"Polygon","coordinates":[[[-71.6952094949999,-35.1118638911118],[-71.6951918199999,-35.1130822311118],[-71.6959680129999,-35.1128406171118],[-71.6952005359999,-35.1131184581118],[-71.6952672599999,-35.1134532621118],[-71.6956405889999,-35.1132914191118],[-71.6952726099999,-35.1134936271118],[-71.6951387339999,-35.1139053581118],[-71.6962487069999,-35.1134963191118],[-71.6936583599999,-35.1145568261118],[-71.6948373769999,-35.1155347961118],[-71.6951780089999,-35.1159626971118],[-71.6968085679999,-35.1151879461118],[-71.6966900929999,-35.1150061891118],[-71.6961346239999,-35.1152587011118],[-71.6952765089999,-35.1154773601118],[-71.6968127289999,-35.1148999781118],[-71.6965457929999,-35.1147338231118],[-71.6962463259999,-35.1143650901118],[-71.6968494629999,-35.1148471711118],[-71.6968524999999,-35.1149177891118],[-71.6967345939999,-35.1149871511118],[-71.6968474359999,-35.1151712111118],[-71.6979143809999,-35.1147031981118],[-71.6970763639999,-35.1136166071118],[-71.6966417189999,-35.1125772851118],[-71.6956717979999,-35.1117341711119],[-71.6952094949999,-35.1118638911118]]]}},{"type":"Feature","properties":{"id":"7103103057002","commune":"Curepto","code":"07103","gse":"D","quintil":"Q1","nse_score":607.9,"educ":7.7,"educ_score":313.3,"hacin":1.2,"hacin_class":"Hacinamiento Leve","hacin_score":808.5,"auto_score":300.0,"n_per":24,"n_hog":10,"source_year":2024},"geometry":{"type":"Polygon","coordinates":[[[-71.6928490539999,-35.1125261991118],[-71.6932150809999,-35.1129525131118],[-71.6923071269999,-35.1132314961118],[-71.6928043849999,-35.1135615601118],[-71.6950858289999,-35.1127935371118],[-71.6950923589999,-35.1125875911118],[-71.6933332199999,-35.1130549081118],[-71.6951294039999,-35.1125198491119],[-71.6951428969999,-35.1118825791118],[-71.6928490539999,-35.1125261991118]]]}},{"type":"Feature","properties":{"id":"7103103057003","commune":"Curepto","code":"07103","gse":"D","quintil":"Q1","nse_score":612.3,"educ":8.5,"educ_score":366.7,"hacin":1.321,"hacin_class":"Hacinamiento Leve","hacin_score":782.7,"auto_score":153.8,"n_per":37,"n_hog":13,"source_year":2024},"geometry":{"type":"Polygon","coordinates":[[[-71.6939253209999,-35.1138397131118],[-71.6938041839999,-35.1137767191118],[-71.6935477839999,-35.1133506151118],[-71.6928563119999,-35.1136018081118],[-71.6936165269999,-35.1145143691118],[-71.6950537029999,-35.1139330541118],[-71.6952163529999,-35.1135685271118],[-71.6950890589999,-35.1128485601118],[-71.6935879019999,-35.1133360411118],[-71.6939253209999,-35.1138397131118]]]}},{"type":"Feature","properties":{"id":"7103103057004","commune":"Curepto","code":"07103","gse":"E","quintil":"Q1","nse_score":583.9,"educ":8.7,"educ_score":380.0,"hacin":1.244,"hacin_class":"Hacinamiento Leve","hacin_score":799.2,"auto_score":225.5,"n_per":153,"n_hog":54,"source_year":2024},"geometry":{"type":"Polygon","coordinates":[[[-71.6917673219999,-35.1146188341118],[-71.6914455359999,-35.1167846151118],[-71.6899291369999,-35.1171143591117],[-71.6898741389999,-35.1155667321118],[-71.689566651,-35.1156506861118],[-71.6893555289999,-35.1162223241118],[-71.6885461109999,-35.1169387061118],[-71.6893900609999,-35.1171540961118],[-71.689485224,-35.1178647081118],[-71.6896476279999,-35.1178956641118],[-71.6897395589999,-35.1163510671118],[-71.6897126729999,-35.1179101371118],[-71.6900066919999,-35.1179126431118],[-71.6921542219999,-35.1171711091117],[-71.6919605519999,-35.1164255121118],[-71.6921130969999,-35.1166640861118],[-71.6925195539999,-35.1165021921118],[-71.6925266679999,-35.1163753301118],[-71.6926689429999,-35.1163873421118],[-71.6925801319999,-35.1165379961117],[-71.6921205489999,-35.1167211991118],[-71.6922170479999,-35.1171539511117],[-71.6935293739999,-35.1167173961118],[-71.6951202029999,-35.1159887201118],[-71.6946289379999,-35.1154236251118],[-71.6937405289999,-35.1157708351117],[-71.6945420009999,-35.1153433331118],[-71.6941034069999,-35.1155007061118],[-71.6936687229999,-35.1154190371118],[-71.6917985429999,-35.1161227711118],[-71.6936449969999,-35.1153685921118],[-71.6940971599999,-35.1154463521118],[-71.6944888789999,-35.1153037741118],[-71.6938407039999,-35.1147906481118],[-71.6934760769999,-35.1150228921118],[-71.6938085789999,-35.1147655091118],[-71.6935135109999,-35.1144930531118],[-71.6931996609999,-35.1146046101118],[-71.6922986249999,-35.1147605551118],[-71.6934864649999,-35.1144641781118],[-71.6927948249999,-35.1136234731118],[-71.6920491889999,-35.1131045671118],[-71.6919669139999,-35.1145874841118],[-71.6917673219999,-35.1146188341118]]]}},{"type":"Feature","properties":{"id":"7103103057005","commune":"Curepto","code":"07103","gse":"E","quintil":"Q1","nse_score":589.4,"educ":11.1,"educ_score":540.0,"hacin":1.5,"hacin_class":"Hacinamiento Medio","hacin_score":744.7,"auto_score":62.5,"n_per":21,"n_hog":7,"source_year":2024},"geometry":{"type":"Polygon","coordinates":[[[-71.6966578179999,-35.1177952771117],[-71.6967128669999,-35.1178721661117],[-71.6981082999999,-35.1172604711118],[-71.6978949529999,-35.1162024691117],[-71.6979420389999,-35.1147723421118],[-71.6953513039999,-35.1159653261118],[-71.6958349939999,-35.1166072681118],[-71.6962305119999,-35.1164502171118],[-71.695856466,-35.1166405921118],[-71.6960476169999,-35.1171964691118],[-71.6966076819999,-35.1176889201118],[-71.6970393519999,-35.1174549681118],[-71.6966578179999,-35.1177952771117]]]}},{"type":"Feature","properties":{"id":"7103103057006","commune":"Curepto","code":"07103","gse":"C3","quintil":"Q2","nse_score":663.7,"educ":10.7,"educ_score":513.3,"hacin":1.422,"hacin_class":"Hacinamiento Leve","hacin_score":761.2,"auto_score":175.0,"n_per":64,"n_hog":21,"source_year":2024},"geometry":{"type":"Polygon","coordinates":[[[-71.6921692829999,-35.1184554801118],[-71.694523123,-35.1172788581118],[-71.6957813209999,-35.1166386031118],[-71.6952944099999,-35.1159924911118],[-71.6934859229999,-35.1168105351118],[-71.6917903209999,-35.1173464561118],[-71.6921692829999,-35.1184554801118]]]}},{"type":"Feature","properties":{"id":"7103103057008","commune":"Curepto","code":"07103","gse":"D","quintil":"Q1","nse_score":625.3,"educ":9.9,"educ_score":460.0,"hacin":1.023,"hacin_class":"Hacinamiento Leve","hacin_score":846.1,"auto_score":312.5,"n_per":44,"n_hog":16,"source_year":2024},"geometry":{"type":"Polygon","coordinates":[[[-71.6924480309999,-35.1193536541118],[-71.6961142149999,-35.1173223601118],[-71.6959301099999,-35.1171620701118],[-71.6957994039999,-35.1166963131117],[-71.692187466,-35.1185261791118],[-71.6924480309999,-35.1193536541118]]]}},{"type":"Feature","properties":{"id":"7103103057009","commune":"Curepto","code":"07103","gse":"E","quintil":"Q1","nse_score":563.7,"educ":7.8,"educ_score":320.0,"hacin":1.308,"hacin_class":"Hacinamiento Leve","hacin_score":785.6,"auto_score":142.9,"n_per":17,"n_hog":6,"source_year":2024},"geometry":{"type":"Polygon","coordinates":[[[-71.6886640649999,-35.1171292551118],[-71.6887833349999,-35.1178472481117],[-71.6894194689999,-35.1178579321118],[-71.6893903149999,-35.1172394801118],[-71.6885915679999,-35.1169952741118],[-71.6884358829999,-35.1172143761118],[-71.6881165229999,-35.1172147351118],[-71.6879251219999,-35.1184402571117],[-71.6887417109999,-35.1178603361117],[-71.6886640649999,-35.1171292551118]]]}},{"type":"Feature","properties":{"id":"7103103057010","commune":"Curepto","code":"07103","gse":"D","quintil":"Q1","nse_score":604.5,"educ":10.6,"educ_score":506.7,"hacin":1.286,"hacin_class":"Hacinamiento Leve","hacin_score":790.3,"auto_score":382.4,"n_per":45,"n_hog":17,"source_year":2024},"geometry":{"type":"Polygon","coordinates":[[[-71.6961483629999,-35.1173469701117],[-71.6924622529999,-35.1194006451117],[-71.6925728919999,-35.1198052961117],[-71.6932777959999,-35.1194596121117],[-71.6925828099999,-35.1198426831117],[-71.6926484139999,-35.1200608211117],[-71.696607319,-35.1177810501118],[-71.6961483629999,-35.1173469701117]]]}},{"type":"Feature","properties":{"id":"7103103057011","commune":"Curepto","code":"07103","gse":"D","quintil":"Q1","nse_score":616.4,"educ":9.5,"educ_score":433.3,"hacin":1.343,"hacin_class":"Hacinamiento Leve","hacin_score":778.1,"auto_score":173.1,"n_per":141,"n_hog":51,"source_year":2024},"geometry":{"type":"Polygon","coordinates":[[[-71.6916822929999,-35.1205658151117],[-71.6925893869999,-35.1200899191118],[-71.692469393,-35.1196620941117],[-71.6914047319999,-35.1201826311117],[-71.6924599639999,-35.1196248851118],[-71.6917275879999,-35.1173627861118],[-71.6902324839999,-35.1179343211118],[-71.6897082059999,-35.1179838241118],[-71.6897339829999,-35.1209859071117],[-71.6896177679999,-35.1210382641117],[-71.6887108669999,-35.1211275571117],[-71.6896029769999,-35.1210041731117],[-71.6896649649999,-35.1207946181117],[-71.6889779389999,-35.1208510671117],[-71.6888649119999,-35.1195493901117],[-71.6885034039999,-35.1195549711118],[-71.6896414989999,-35.1193313561117],[-71.6896308579999,-35.1186678871118],[-71.6889587999999,-35.1187687671118],[-71.6886426369999,-35.1187463931117],[-71.6896302719999,-35.1186312571118],[-71.6896430899999,-35.1179693351118],[-71.6887876309999,-35.1179219711117],[-71.6879022959999,-35.1185620001117],[-71.6877316579999,-35.1197210661118],[-71.6884020879999,-35.1194868831117],[-71.6887959609999,-35.1222503381117],[-71.6916832699999,-35.1206396571117],[-71.6915607919999,-35.1204096301117],[-71.6916822929999,-35.1205658151117]]]}},{"type":"Feature","properties":{"id":"7103103057012","commune":"Curepto","code":"07103","gse":"D","quintil":"Q2","nse_score":644.4,"educ":9.4,"educ_score":426.7,"hacin":1.074,"hacin_class":"Hacinamiento Leve","hacin_score":835.3,"auto_score":115.4,"n_per":29,"n_hog":13,"source_year":2024},"geometry":{"type":"Polygon","coordinates":[[[-71.6890218099999,-35.1208061061117],[-71.6896640919999,-35.1207401591117],[-71.6896423869999,-35.1193867841117],[-71.6889355019999,-35.1195314551117],[-71.6890218099999,-35.1208061061117]]]}}]}