{"type":"FeatureCollection","features":[{"type":"Feature","properties":{"id":"10205011001001","commune":"Dalcahue","code":"10205","gse":"D","quintil":"Q2","nse_score":661.6,"educ":11.3,"educ_score":553.3,"hacin":1.393,"hacin_class":"Hacinamiento Leve","hacin_score":767.5,"auto_score":283.3,"n_per":78,"n_hog":27,"source_year":2024,"crime_score":0.1728,"crime_nivel":"Bajo","crime_color":"#cddc39"},"geometry":{"type":"Polygon","coordinates":[[[-73.6690941849999,-42.3638433360605],[-73.6664982159999,-42.3645851520606],[-73.6667312119999,-42.3651035100605],[-73.669373317,-42.3643682690605],[-73.6667465419999,-42.3651376650606],[-73.6670892569999,-42.3659267480605],[-73.6680435179999,-42.3656933470605],[-73.6682784389999,-42.3650901330606],[-73.6687971209999,-42.3649460480605],[-73.6687509849999,-42.3647745110605],[-73.6694689009999,-42.3645622620605],[-73.6693890629999,-42.3643244490605],[-73.6692856019999,-42.3643586860606],[-73.6690941849999,-42.3638433360605]]]}},{"type":"Feature","properties":{"id":"10205011001002","commune":"Dalcahue","code":"10205","gse":"E","quintil":"Q1","nse_score":546.7,"educ":9.1,"educ_score":406.7,"hacin":1.222,"hacin_class":"Hacinamiento Leve","hacin_score":803.8,"auto_score":142.9,"n_per":11,"n_hog":5,"source_year":2024,"crime_score":0.1777,"crime_nivel":"Bajo","crime_color":"#cddc39"},"geometry":{"type":"Polygon","coordinates":[[[-73.6657986689999,-42.3663953030605],[-73.6662156739999,-42.3663034770605],[-73.6661768339999,-42.3661609420606],[-73.6670491409999,-42.3660376960605],[-73.6664325429999,-42.3646094800606],[-73.6644910269999,-42.3652703460605],[-73.6657986689999,-42.3663953030605]]]}},{"type":"Feature","properties":{"id":"10205011001003","commune":"Dalcahue","code":"10205","gse":"E","quintil":"Q1","nse_score":596.2,"educ":8.8,"educ_score":386.7,"hacin":1.552,"hacin_class":"Hacinamiento Medio","hacin_score":733.7,"auto_score":71.4,"n_per":45,"n_hog":14,"source_year":2024,"crime_score":0.1761,"crime_nivel":"Bajo","crime_color":"#cddc39"},"geometry":{"type":"Polygon","coordinates":[[[-73.6647363299999,-42.3686521550605],[-73.6644235919999,-42.3679489840605],[-73.6643920679999,-42.3669035740605],[-73.6649737349999,-42.3669664480605],[-73.6652402009999,-42.3666703920605],[-73.6644380379999,-42.3665565920605],[-73.6652597899999,-42.3666362690605],[-73.665521796,-42.3661959250605],[-73.6645108249999,-42.3653225270605],[-73.6645954059999,-42.3656632880606],[-73.6644845549999,-42.3659113730605],[-73.6644550279999,-42.3653082290605],[-73.6642770819999,-42.3655181470605],[-73.664405756,-42.3657731870605],[-73.6643465219999,-42.3660662060605],[-73.6636599859999,-42.3668023750606],[-73.6639040309999,-42.3671947840605],[-73.6640854959999,-42.3683894370606],[-73.6642874229999,-42.3685964640605],[-73.6647363299999,-42.3686521550605]]]}},{"type":"Feature","properties":{"id":"10205011001004","commune":"Dalcahue","code":"10205","gse":"C3","quintil":"Q2","nse_score":674.3,"educ":11.9,"educ_score":593.3,"hacin":1.406,"hacin_class":"Hacinamiento Leve","hacin_score":764.6,"auto_score":179.2,"n_per":135,"n_hog":48,"source_year":2024,"crime_score":0.1763,"crime_nivel":"Bajo","crime_color":"#cddc39"},"geometry":{"type":"Polygon","coordinates":[[[-73.6655471509999,-42.3711498170605],[-73.6657796739999,-42.3705172340605],[-73.6648222109999,-42.3700953300605],[-73.6647745959999,-42.3702089600605],[-73.6650838549999,-42.3703507450605],[-73.6647227459999,-42.3702380350605],[-73.6647686109999,-42.3700717730605],[-73.6642462169999,-42.3698065640605],[-73.6638718039999,-42.3708680630605],[-73.6661428939999,-42.3720653880605],[-73.6665968929999,-42.3716994110605],[-73.666773368,-42.3713643980605],[-73.6666931799999,-42.3704672630605],[-73.6668489109999,-42.3690914340605],[-73.6664115889999,-42.3687377160605],[-73.6644853729999,-42.3686556510605],[-73.6640980629999,-42.3684538400605],[-73.6638799289999,-42.3671973470605],[-73.6636352369999,-42.3668040550605],[-73.6643235029999,-42.3660597990605],[-73.6643814999999,-42.3657743360605],[-73.6642660389999,-42.3655360060606],[-73.6627912779999,-42.3681198650605],[-73.6636017429999,-42.3683523110605],[-73.6637656119999,-42.3686182810605],[-73.6636790769999,-42.3689019010605],[-73.6651246949999,-42.3696161030605],[-73.6636390269999,-42.3689245650605],[-73.6637171839999,-42.3686234440605],[-73.6635728009999,-42.3683876850605],[-73.6627972289999,-42.3681736250605],[-73.6628000289999,-42.3686096470605],[-73.6626364529999,-42.3689348140605],[-73.6657620409999,-42.3704415660605],[-73.6658478119999,-42.3705665700605],[-73.6655471509999,-42.3711498170605]]]}},{"type":"Feature","properties":{"id":"10205011001006","commune":"Dalcahue","code":"10205","gse":"C3","quintil":"Q2","nse_score":674.7,"educ":11.0,"educ_score":533.3,"hacin":1.267,"hacin_class":"Hacinamiento Leve","hacin_score":794.3,"auto_score":76.9,"n_per":114,"n_hog":37,"source_year":2024,"crime_score":0.1746,"crime_nivel":"Bajo","crime_color":"#cddc39"},"geometry":{"type":"Polygon","coordinates":[[[-73.6626805059999,-42.3682923690605],[-73.6623073939999,-42.3687473020605],[-73.6614201179999,-42.3694191490605],[-73.6599724139999,-42.3715911010605],[-73.6591793919999,-42.3723380600605],[-73.6590941799999,-42.3730308820605],[-73.6599561379999,-42.3729088750605],[-73.6602468879999,-42.3723998940605],[-73.6601498149999,-42.3719937900605],[-73.6599727949999,-42.3723095990605],[-73.6600990249999,-42.3719888420605],[-73.6609141929999,-42.3707963280605],[-73.6614712589999,-42.3702369430605],[-73.6618743929999,-42.3695042870605],[-73.6625856809999,-42.3689160200605],[-73.6627539389999,-42.3686022500605],[-73.6626805059999,-42.3682923690605]]]}},{"type":"Feature","properties":{"id":"10205011001007","commune":"Dalcahue","code":"10205","gse":"C3","quintil":"Q2","nse_score":684.2,"educ":11.7,"educ_score":580.0,"hacin":1.44,"hacin_class":"Hacinamiento Leve","hacin_score":757.4,"auto_score":416.7,"n_per":36,"n_hog":11,"source_year":2024,"crime_score":0.1672,"crime_nivel":"Bajo","crime_color":"#cddc39"},"geometry":{"type":"Polygon","coordinates":[[[-73.6621984329999,-42.3693314090605],[-73.6640316759999,-42.3702830650605],[-73.6642052919999,-42.3697857870605],[-73.6626129399999,-42.3689773510605],[-73.6621984329999,-42.3693314090605]]]}},{"type":"Feature","properties":{"id":"10205011001008","commune":"Dalcahue","code":"10205","gse":"D","quintil":"Q2","nse_score":651.2,"educ":10.6,"educ_score":506.7,"hacin":1.263,"hacin_class":"Hacinamiento Leve","hacin_score":795.1,"auto_score":100.0,"n_per":24,"n_hog":9,"source_year":2024,"crime_score":0.1693,"crime_nivel":"Bajo","crime_color":"#cddc39"},"geometry":{"type":"Polygon","coordinates":[[[-73.661797567,-42.3697994350605],[-73.663822637,-42.3708427340605],[-73.6639989049999,-42.3703298150605],[-73.6621585239999,-42.3693670160605],[-73.6618864079999,-42.3695619090605],[-73.661797567,-42.3697994350605]]]}},{"type":"Feature","properties":{"id":"10205011001009","commune":"Dalcahue","code":"10205","gse":"C3","quintil":"Q2","nse_score":669.9,"educ":10.7,"educ_score":513.3,"hacin":1.279,"hacin_class":"Hacinamiento Leve","hacin_score":791.8,"auto_score":170.0,"n_per":257,"n_hog":100,"source_year":2024,"crime_score":0.1869,"crime_nivel":"Bajo","crime_color":"#cddc39"},"geometry":{"type":"Polygon","coordinates":[[[-73.6617356199999,-42.3698222520605],[-73.6602247209999,-42.3718963420605],[-73.6602934859999,-42.3724167200605],[-73.6600389929999,-42.3728445320605],[-73.6607288779999,-42.3725733440605],[-73.6607837619999,-42.3724434350605],[-73.6616968959999,-42.3716270810605],[-73.6608211579999,-42.3724970630605],[-73.6611256979999,-42.3725673840605],[-73.6616387289999,-42.3720155460605],[-73.6611599749999,-42.3725780310605],[-73.661673817,-42.3726987590605],[-73.6620985669999,-42.3719460010605],[-73.6618551329999,-42.3724472970605],[-73.6624543399999,-42.3726265280605],[-73.6624602879999,-42.3727960640605],[-73.6624216219999,-42.3726473480605],[-73.6618351559999,-42.3724827000605],[-73.6616490089999,-42.3727444460605],[-73.6608821799999,-42.3725310800605],[-73.6611338669999,-42.3727237920605],[-73.6613124179999,-42.3731414120605],[-73.6624040699999,-42.3731609440605],[-73.6627574139999,-42.3726248130605],[-73.6641602389999,-42.3727464340605],[-73.6634124209999,-42.3727931830605],[-73.6627639519999,-42.3726614930605],[-73.6624497829999,-42.3731755020605],[-73.662828052,-42.3734902070605],[-73.6631643559999,-42.3735203530605],[-73.663380189,-42.3737390530605],[-73.6637320359999,-42.3738081630605],[-73.6644244549999,-42.3735657150605],[-73.6644477729999,-42.3733555440605],[-73.6646716249999,-42.3730543250605],[-73.6643054269999,-42.3729185260605],[-73.6646269299999,-42.3729586600605],[-73.6647122379999,-42.3730966930605],[-73.6644091729999,-42.3736258530605],[-73.6637352719999,-42.3738351740605],[-73.6633745959999,-42.3737659000605],[-73.6629022089999,-42.3741279040605],[-73.6628601969999,-42.3743704380605],[-73.6626387589999,-42.3745680220605],[-73.6626958209999,-42.3747934030605],[-73.6625744869999,-42.3749610100605],[-73.6612993459999,-42.3751488360605],[-73.6611156539999,-42.3755127520605],[-73.6602214429999,-42.3756659040605],[-73.6591833509999,-42.3753343080605],[-73.6587533169999,-42.3759396490605],[-73.6581549799999,-42.3757157410605],[-73.6577673609999,-42.3763381060605],[-73.6586464469999,-42.3766541940605],[-73.659198908,-42.3762474390605],[-73.6599080819999,-42.3759829590605],[-73.6600214779999,-42.3760392510605],[-73.6600683169999,-42.3763659150605],[-73.6607134899999,-42.3764103210605],[-73.6614001409999,-42.3760665850605],[-73.6615778659999,-42.3758008940605],[-73.6624683619999,-42.3752337780605],[-73.6630697679999,-42.3750300650605],[-73.6632950869999,-42.3746918940605],[-73.6652952439999,-42.3745403520605],[-73.6660393259999,-42.3740662860605],[-73.6661047919999,-42.3735208600605],[-73.6659749439999,-42.3728290070605],[-73.6661428939999,-42.3720653880605],[-73.6617356199999,-42.3698222520605]]]}},{"type":"Feature","properties":{"id":"10205011001010","commune":"Dalcahue","code":"10205","gse":"C3","quintil":"Q2","nse_score":668.8,"educ":11.3,"educ_score":553.3,"hacin":1.385,"hacin_class":"Hacinamiento Leve","hacin_score":769.1,"auto_score":187.0,"n_per":381,"n_hog":120,"source_year":2024,"crime_score":0.1905,"crime_nivel":"Bajo","crime_color":"#cddc39"},"geometry":{"type":"Polygon","coordinates":[[[-73.6598064639999,-42.3730258870605],[-73.6590626639999,-42.3731207670605],[-73.6594763679999,-42.3734896660605],[-73.6601458229999,-42.3732558260605],[-73.6594703529999,-42.3735181420605],[-73.6590371639999,-42.3731401780605],[-73.6587821239999,-42.3733402500605],[-73.6593540439999,-42.3736621120605],[-73.6587631259999,-42.3733521740605],[-73.6583211499999,-42.3736306860605],[-73.6589514749999,-42.3738412240605],[-73.6589504669999,-42.3741747240605],[-73.6599111199999,-42.3742998480605],[-73.6596058499999,-42.3743056140605],[-73.6596093029999,-42.3749810780605],[-73.6580271839999,-42.3746180400605],[-73.6573921249999,-42.3753709210605],[-73.6581407539999,-42.3756595050605],[-73.6585989419999,-42.3750910660605],[-73.6581837289999,-42.3756761680605],[-73.6587298249999,-42.3758890770605],[-73.6592245289999,-42.3751732280605],[-73.6592161309999,-42.3752861510605],[-73.6601397879999,-42.3756114180605],[-73.6602494759999,-42.3744412260605],[-73.6602632369999,-42.3745541540605],[-73.6610616699999,-42.3744367120605],[-73.6609583649999,-42.3740748660605],[-73.6600839129999,-42.3742741460605],[-73.6602475009999,-42.3741313780605],[-73.6609434929999,-42.3740391740605],[-73.6608927539999,-42.3737864140605],[-73.6610854939999,-42.3744332070605],[-73.6628503459999,-42.3741735910605],[-73.6633327519999,-42.3737465920605],[-73.6624075999999,-42.3731977710605],[-73.6612857069999,-42.3731717560605],[-73.6610308029999,-42.3726566030605],[-73.6608176839999,-42.3725455000605],[-73.6598064639999,-42.3730258870605]]]}},{"type":"Feature","properties":{"id":"10205011001011","commune":"Dalcahue","code":"10205","gse":"C3","quintil":"Q3","nse_score":702.2,"educ":11.4,"educ_score":560.0,"hacin":1.205,"hacin_class":"Hacinamiento Leve","hacin_score":807.5,"auto_score":153.8,"n_per":100,"n_hog":39,"source_year":2024,"crime_score":0.1708,"crime_nivel":"Bajo","crime_color":"#cddc39"},"geometry":{"type":"Polygon","coordinates":[[[-73.6576391159999,-42.3740622490605],[-73.6566186129999,-42.3750733760605],[-73.6573916329999,-42.3753413610605],[-73.65841803,-42.3741101630605],[-73.658075187,-42.3745932180605],[-73.6589161699999,-42.3748334770605],[-73.6588801229999,-42.3738420130605],[-73.6582743939999,-42.3736552130605],[-73.6576391159999,-42.3740622490605]]]}},{"type":"Feature","properties":{"id":"10205011001012","commune":"Dalcahue","code":"10205","gse":"C2","quintil":"Q3","nse_score":718.4,"educ":12.5,"educ_score":633.3,"hacin":1.071,"hacin_class":"Hacinamiento Leve","hacin_score":835.9,"auto_score":71.4,"n_per":15,"n_hog":7,"source_year":2024,"crime_score":0.1624,"crime_nivel":"Bajo","crime_color":"#cddc39"},"geometry":{"type":"Polygon","coordinates":[[[-73.6589661659999,-42.3748454730605],[-73.6595505309999,-42.3749788320605],[-73.6595552129999,-42.3742956820605],[-73.658949618,-42.3742107840605],[-73.6589661659999,-42.3748454730605]]]}},{"type":"Feature","properties":{"id":"10205011001013","commune":"Dalcahue","code":"10205","gse":"D","quintil":"Q1","nse_score":623.5,"educ":9.2,"educ_score":413.3,"hacin":1.24,"hacin_class":"Hacinamiento Leve","hacin_score":800.0,"auto_score":45.5,"n_per":62,"n_hog":22,"source_year":2024,"crime_score":0.175,"crime_nivel":"Bajo","crime_color":"#cddc39"},"geometry":{"type":"Polygon","coordinates":[[[-73.6628291679999,-42.3742186120605],[-73.6617510649999,-42.3743711360605],[-73.6617998419999,-42.3746875520605],[-73.6625970489999,-42.3745428720605],[-73.6628291679999,-42.3742186120605]]]}},{"type":"Feature","properties":{"id":"10205011001015","commune":"Dalcahue","code":"10205","gse":"D","quintil":"Q1","nse_score":621.2,"educ":10.0,"educ_score":466.7,"hacin":1.611,"hacin_class":"Hacinamiento Medio","hacin_score":721.0,"auto_score":136.4,"n_per":29,"n_hog":11,"source_year":2024,"crime_score":0.1724,"crime_nivel":"Bajo","crime_color":"#cddc39"},"geometry":{"type":"Polygon","coordinates":[[[-73.6602767339999,-42.3745831130605],[-73.6602499559999,-42.3748900710605],[-73.6611250719999,-42.3747757250605],[-73.6610425899999,-42.3744716360605],[-73.6602767339999,-42.3745831130605]]]}},{"type":"Feature","properties":{"id":"10205011001016","commune":"Dalcahue","code":"10205","gse":"D","quintil":"Q1","nse_score":635.0,"educ":10.5,"educ_score":500.0,"hacin":1.319,"hacin_class":"Hacinamiento Leve","hacin_score":783.2,"auto_score":220.0,"n_per":62,"n_hog":22,"source_year":2024,"crime_score":0.174,"crime_nivel":"Bajo","crime_color":"#cddc39"},"geometry":{"type":"Polygon","coordinates":[[[-73.6612857989999,-42.3751125260605],[-73.6625484859999,-42.3749336920605],[-73.6626392329999,-42.3746996120605],[-73.6626006519999,-42.3745975330605],[-73.6612054809999,-42.3748164210605],[-73.6612857989999,-42.3751125260605]]]}},{"type":"Feature","properties":{"id":"10205011001017","commune":"Dalcahue","code":"10205","gse":"D","quintil":"Q2","nse_score":660.4,"educ":9.8,"educ_score":453.3,"hacin":1.324,"hacin_class":"Hacinamiento Leve","hacin_score":782.1,"auto_score":166.7,"n_per":49,"n_hog":17,"source_year":2024,"crime_score":0.1705,"crime_nivel":"Bajo","crime_color":"#cddc39"},"geometry":{"type":"Polygon","coordinates":[[[-73.6602454379999,-42.3749418640605],[-73.6602185279999,-42.3752503220605],[-73.6612186649999,-42.3751211940605],[-73.6611377169999,-42.3748252760605],[-73.6602454379999,-42.3749418640605]]]}},{"type":"Feature","properties":{"id":"10205011001018","commune":"Dalcahue","code":"10205","gse":"D","quintil":"Q1","nse_score":641.1,"educ":8.5,"educ_score":366.7,"hacin":1.04,"hacin_class":"Hacinamiento Leve","hacin_score":842.6,"auto_score":41.7,"n_per":26,"n_hog":12,"source_year":2024,"crime_score":0.1704,"crime_nivel":"Bajo","crime_color":"#cddc39"},"geometry":{"type":"Polygon","coordinates":[[[-73.643127004,-42.3751046490605],[-73.6434418629999,-42.3758269180605],[-73.643846472,-42.3759145820605],[-73.6439955769999,-42.3757651010605],[-73.643127004,-42.3751046490605]]]}},{"type":"Feature","properties":{"id":"10205011001019","commune":"Dalcahue","code":"10205","gse":"C3","quintil":"Q2","nse_score":680.2,"educ":11.6,"educ_score":573.3,"hacin":1.412,"hacin_class":"Hacinamiento Leve","hacin_score":763.3,"auto_score":181.0,"n_per":274,"n_hog":99,"source_year":2024,"crime_score":0.1872,"crime_nivel":"Bajo","crime_color":"#cddc39"},"geometry":{"type":"Polygon","coordinates":[[[-73.6567968289999,-42.3763277170605],[-73.6560117029999,-42.3757367570605],[-73.6553813229999,-42.3762536340605],[-73.6546644089999,-42.3772323470605],[-73.6556727369999,-42.3777309540605],[-73.6561123469999,-42.3772069410605],[-73.6557275459999,-42.3770821720605],[-73.6561409149999,-42.3771886560605],[-73.6554701989999,-42.3780434740605],[-73.6552355609999,-42.3782019540605],[-73.6542367779999,-42.3778937700605],[-73.6536460689999,-42.3785986160605],[-73.6548422149999,-42.3791510520605],[-73.6557606019999,-42.3780877100605],[-73.6559995359999,-42.3778853660605],[-73.6563499989999,-42.3777042660605],[-73.6571007029999,-42.3774255930605],[-73.6572991449999,-42.3773602500605],[-73.6575193439999,-42.3773583890605],[-73.6580992299999,-42.3777803710605],[-73.6581027139999,-42.3780766830605],[-73.6575393259999,-42.3779983470605],[-73.6576648609999,-42.3775501360605],[-73.6575558509999,-42.3774041090605],[-73.6571171569999,-42.3774497330605],[-73.6560094839999,-42.3779173430605],[-73.6552818119999,-42.3787142070605],[-73.6559823539999,-42.3790893580605],[-73.6552687099999,-42.3787293810605],[-73.6548729819999,-42.3791655510605],[-73.6565285159999,-42.3799596550605],[-73.6564170299999,-42.3798252700605],[-73.6565414519999,-42.3797345790605],[-73.6572500279999,-42.3796285680605],[-73.6573256759999,-42.3794083830605],[-73.6577983379999,-42.3790761880605],[-73.6577101109999,-42.3789890830605],[-73.6578075199999,-42.3787725810605],[-73.6586344799999,-42.3782389240605],[-73.6583086639999,-42.3775938640605],[-73.6585925619999,-42.3772772900605],[-73.6586464469999,-42.3766541940605],[-73.6577588389999,-42.3763550480605],[-73.6575194459999,-42.3766906460605],[-73.6577145409999,-42.3763402120605],[-73.6569146429999,-42.3760171610605],[-73.657331601,-42.3753983030605],[-73.6565686839999,-42.3751064430605],[-73.6560352369999,-42.3757158990605],[-73.6567968289999,-42.3763277170605]]]}},{"type":"Feature","properties":{"id":"10205011001020","commune":"Dalcahue","code":"10205","gse":"D","quintil":"Q1","nse_score":639.0,"educ":10.5,"educ_score":500.0,"hacin":1.343,"hacin_class":"Hacinamiento Leve","hacin_score":778.1,"auto_score":55.6,"n_per":47,"n_hog":16,"source_year":2024,"crime_score":0.1723,"crime_nivel":"Bajo","crime_color":"#cddc39"},"geometry":{"type":"Polygon","coordinates":[[[-73.6602015529999,-42.3756121400605],[-73.6610899789999,-42.3754555760605],[-73.6612292159999,-42.3751710170605],[-73.6602140129999,-42.3753020910605],[-73.6602015529999,-42.3756121400605]]]}},{"type":"Feature","properties":{"id":"10205011001021","commune":"Dalcahue","code":"10205","gse":"D","quintil":"Q1","nse_score":636.6,"educ":10.7,"educ_score":513.3,"hacin":1.331,"hacin_class":"Hacinamiento Leve","hacin_score":780.7,"auto_score":156.7,"n_per":169,"n_hog":63,"source_year":2024,"crime_score":0.1828,"crime_nivel":"Bajo","crime_color":"#cddc39"},"geometry":{"type":"Polygon","coordinates":[[[-73.6646513719999,-42.3761172240605],[-73.6624815759999,-42.3752492790605],[-73.6615967649999,-42.3758124490605],[-73.6614174679999,-42.3760795540605],[-73.660721184,-42.3764275270605],[-73.6600509259999,-42.3763788990605],[-73.6599097309999,-42.3760012970605],[-73.6592126199999,-42.3762623700605],[-73.6587692609999,-42.3765062390605],[-73.658616891,-42.3772800550605],[-73.6583329889999,-42.3775949660605],[-73.6586569819999,-42.3782460670605],[-73.6583070359999,-42.3783829240605],[-73.6577398499999,-42.3789768230605],[-73.6587488479999,-42.3795261130605],[-73.6590225809999,-42.3792995420605],[-73.6587682499999,-42.3795370010605],[-73.6591622619999,-42.3797580950605],[-73.6602534539999,-42.3791302510605],[-73.6596848269999,-42.3787379330605],[-73.6591256259999,-42.3790133660605],[-73.6590335719999,-42.3790198610605],[-73.6587203729999,-42.3789247260605],[-73.6591184899999,-42.3789957780605],[-73.6596668599999,-42.3787255580605],[-73.6594053169999,-42.3785454200605],[-73.6591195949999,-42.3786489720605],[-73.6589034879999,-42.3785837390605],[-73.6594181389999,-42.3785173800605],[-73.6596946469999,-42.3787078250605],[-73.6602529279999,-42.3783274050605],[-73.6597124989999,-42.3787201210605],[-73.6602806759999,-42.3791121310605],[-73.6613961229999,-42.3783564600605],[-73.6617800699999,-42.3778079860605],[-73.6614560589999,-42.3777814130605],[-73.6605339479999,-42.3774741840605],[-73.6604548719999,-42.3778000030605],[-73.6606929599999,-42.3781346920605],[-73.6604302139999,-42.3778017170605],[-73.6604891769999,-42.3774756510605],[-73.6606443229999,-42.3774482290605],[-73.6608755249999,-42.3774928780605],[-73.6613845119999,-42.3777422850605],[-73.6617926579999,-42.3777904340605],[-73.6622396889999,-42.3774458920605],[-73.6632095869999,-42.3771415680605],[-73.6626296459999,-42.3769526820605],[-73.6625257099999,-42.3768734060605],[-73.6632318989999,-42.3771339790605],[-73.6639650629999,-42.3767643960605],[-73.6646513719999,-42.3761172240605]]]}},{"type":"Feature","properties":{"id":"10205011001022","commune":"Dalcahue","code":"10205","gse":"C3","quintil":"Q2","nse_score":679.7,"educ":10.7,"educ_score":513.3,"hacin":1.485,"hacin_class":"Hacinamiento Leve","hacin_score":747.9,"auto_score":250.0,"n_per":49,"n_hog":16,"source_year":2024,"crime_score":0.1687,"crime_nivel":"Bajo","crime_color":"#cddc39"},"geometry":{"type":"Polygon","coordinates":[[[-73.6576845839999,-42.3762963240605],[-73.6580770749999,-42.3756916790605],[-73.6573589579999,-42.3754329470605],[-73.6569651099999,-42.3760150670605],[-73.6576845839999,-42.3762963240605]]]}},{"type":"Feature","properties":{"id":"10205011001023","commune":"Dalcahue","code":"10205","gse":"C3","quintil":"Q2","nse_score":684.9,"educ":10.9,"educ_score":526.7,"hacin":1.226,"hacin_class":"Hacinamiento Leve","hacin_score":802.9,"auto_score":129.6,"n_per":206,"n_hog":84,"source_year":2024,"crime_score":0.1811,"crime_nivel":"Bajo","crime_color":"#cddc39"},"geometry":{"type":"Polygon","coordinates":[[[-73.6430994979999,-42.3776222050605],[-73.6429349139999,-42.3784742570605],[-73.6432973679999,-42.3787441390605],[-73.6438477799999,-42.3785410500605],[-73.6449303769999,-42.3789494940605],[-73.6454763069999,-42.3796451850605],[-73.6457597789999,-42.3798197610605],[-73.6462151879999,-42.3798510410605],[-73.6463984219999,-42.3796330520605],[-73.6463626429999,-42.3799434340605],[-73.6467391389999,-42.3801248650605],[-73.6471929779999,-42.3805933550605],[-73.6483068519999,-42.3811082200605],[-73.6487130889999,-42.3808260730605],[-73.6467529439999,-42.3800178440605],[-73.6469431889999,-42.3800831470605],[-73.6472822849999,-42.3797796370605],[-73.6464620119999,-42.3793722910605],[-73.6470139739999,-42.3795907410605],[-73.6472594889999,-42.3792448010605],[-73.6459924479999,-42.3788833020605],[-73.6477572589999,-42.3793417140605],[-73.6485548449999,-42.3782847630605],[-73.6457250629999,-42.3769400070605],[-73.6451088869999,-42.3776925590605],[-73.6449376919999,-42.3781861680605],[-73.6449778519999,-42.3779473130605],[-73.6448845739999,-42.3780584720605],[-73.6442654139999,-42.3782732380605],[-73.6449015079999,-42.3780203080605],[-73.6451342129999,-42.3776174230605],[-73.6457063919999,-42.3769282580605],[-73.644744037,-42.3763055400605],[-73.6442868179999,-42.3770776380605],[-73.6434683619999,-42.3782659810605],[-73.6447143769999,-42.3762883550605],[-73.6440132909999,-42.3757775670605],[-73.6438817139999,-42.3759092770605],[-73.6441106269999,-42.3761980990605],[-73.6440810689999,-42.3767995970605],[-73.6434328279999,-42.3772296630605],[-73.6430994979999,-42.3776222050605]]]}},{"type":"Feature","properties":{"id":"10205011001024","commune":"Dalcahue","code":"10205","gse":"C3","quintil":"Q2","nse_score":674.5,"educ":11.6,"educ_score":573.3,"hacin":1.323,"hacin_class":"Hacinamiento Leve","hacin_score":782.2,"auto_score":236.8,"n_per":45,"n_hog":19,"source_year":2024,"crime_score":0.1689,"crime_nivel":"Bajo","crime_color":"#cddc39"},"geometry":{"type":"Polygon","coordinates":[[[-73.6652109099999,-42.3763601420605],[-73.6646847379999,-42.3761305700605],[-73.6644490099999,-42.3763144400605],[-73.6649263209999,-42.3765655420605],[-73.6645036599999,-42.3770914250605],[-73.6648654879999,-42.3765713570605],[-73.6644127439999,-42.3763451930605],[-73.6638775359999,-42.3768601390605],[-73.6628653989999,-42.3772796510605],[-73.6626226139999,-42.3778040820605],[-73.6635112609999,-42.3780089780605],[-73.6645787229999,-42.3772051980605],[-73.6647247999999,-42.3772565910605],[-73.6653319239999,-42.3765362490605],[-73.6651328309999,-42.3764509890605],[-73.6652109099999,-42.3763601420605]]]}},{"type":"Feature","properties":{"id":"10205011001025","commune":"Dalcahue","code":"10205","gse":"C2","quintil":"Q4","nse_score":745.0,"educ":12.5,"educ_score":633.3,"hacin":1.312,"hacin_class":"Hacinamiento Leve","hacin_score":784.6,"auto_score":187.5,"n_per":42,"n_hog":15,"source_year":2024,"crime_score":0.1621,"crime_nivel":"Bajo","crime_color":"#cddc39"},"geometry":{"type":"Polygon","coordinates":[[[-73.6551895919999,-42.3781606030605],[-73.6556533159999,-42.3777541920605],[-73.6546476089999,-42.3772563250605],[-73.6542525199999,-42.3778693590605],[-73.6551895919999,-42.3781606030605]]]}},{"type":"Feature","properties":{"id":"10205011001026","commune":"Dalcahue","code":"10205","gse":"D","quintil":"Q1","nse_score":631.9,"educ":10.1,"educ_score":473.3,"hacin":1.258,"hacin_class":"Hacinamiento Leve","hacin_score":796.1,"auto_score":138.9,"n_per":112,"n_hog":48,"source_year":2024,"crime_score":0.1785,"crime_nivel":"Bajo","crime_color":"#cddc39"},"geometry":{"type":"Polygon","coordinates":[[[-73.6621892109999,-42.3784043050605],[-73.6619577989999,-42.3789708580605],[-73.6630322179999,-42.3792928980605],[-73.6637327349999,-42.3795872260605],[-73.6640783029999,-42.3793559250605],[-73.6644337259999,-42.3794979140605],[-73.6648797349999,-42.3790563500605],[-73.6644667759999,-42.3789034610605],[-73.6640427939999,-42.3783311690605],[-73.6635112609999,-42.3780089780605],[-73.6626226139999,-42.3778040820605],[-73.6624654989999,-42.3781818730605],[-73.6628172679999,-42.3772940070605],[-73.6622034509999,-42.3775006300605],[-73.6621784189999,-42.3777585250605],[-73.6621485919999,-42.3775321320605],[-73.6614246629999,-42.3783734200605],[-73.6604283799999,-42.3790501190605],[-73.6614537999999,-42.3796087930605],[-73.6625395889999,-42.3799205960605],[-73.6629984569999,-42.3793118060605],[-73.6619181199999,-42.3789854700605],[-73.6621892109999,-42.3784043050605]]]}},{"type":"Feature","properties":{"id":"10205011001028","commune":"Dalcahue","code":"10205","gse":"C2","quintil":"Q4","nse_score":746.4,"educ":12.0,"educ_score":600.0,"hacin":0.952,"hacin_class":"Sin Hacinamiento","hacin_score":861.2,"auto_score":134.6,"n_per":120,"n_hog":52,"source_year":2024,"crime_score":0.1682,"crime_nivel":"Bajo","crime_color":"#cddc39"},"geometry":{"type":"Polygon","coordinates":[[[-73.647810638,-42.3804121750605],[-73.6492279229999,-42.3810036310605],[-73.6493859879999,-42.3807495570605],[-73.6492498469999,-42.3810113900605],[-73.6502041429999,-42.3811482650605],[-73.6516295529999,-42.3793147840605],[-73.6485865019999,-42.3782981360605],[-73.6477921489999,-42.3793507360605],[-73.6482363979999,-42.3795231640605],[-73.647810638,-42.3804121750605]]]}},{"type":"Feature","properties":{"id":"10205011001029","commune":"Dalcahue","code":"10205","gse":"C2","quintil":"Q4","nse_score":765.1,"educ":11.8,"educ_score":586.7,"hacin":1.167,"hacin_class":"Hacinamiento Leve","hacin_score":815.6,"auto_score":0.0,"n_per":14,"n_hog":7,"source_year":2024,"crime_score":0.1581,"crime_nivel":"Bajo","crime_color":"#cddc39"},"geometry":{"type":"Polygon","coordinates":[[[-73.6527086719999,-42.3796084840605],[-73.6539803849999,-42.3800720890605],[-73.6548218459999,-42.3791734750605],[-73.6536257819999,-42.3786210740605],[-73.6527086719999,-42.3796084840605]]]}},{"type":"Feature","properties":{"id":"10205011001030","commune":"Dalcahue","code":"10205","gse":"D","quintil":"Q1","nse_score":632.9,"educ":10.5,"educ_score":500.0,"hacin":1.351,"hacin_class":"Hacinamiento Leve","hacin_score":776.3,"auto_score":194.4,"n_per":50,"n_hog":18,"source_year":2024,"crime_score":0.1731,"crime_nivel":"Bajo","crime_color":"#cddc39"},"geometry":{"type":"Polygon","coordinates":[[[-73.6570041109999,-42.3797625550605],[-73.6565519949999,-42.3797510550605],[-73.65644169,-42.3798265640605],[-73.6565468989999,-42.3799714690605],[-73.6560646829999,-42.3801651920605],[-73.6558892999999,-42.3808614310605],[-73.6577834889999,-42.3809423270605],[-73.6584752989999,-42.3801302260605],[-73.6591275589999,-42.3797724450605],[-73.6583940909999,-42.3793608610605],[-73.6579718209999,-42.3798471490605],[-73.6583746429999,-42.3793499470605],[-73.6577398499999,-42.3789768230605],[-73.6578222329999,-42.3790802320605],[-73.6576818409999,-42.3792506860605],[-73.6570041109999,-42.3797625550605]]]}},{"type":"Feature","properties":{"id":"10205011001031","commune":"Dalcahue","code":"10205","gse":"D","quintil":"Q2","nse_score":663.0,"educ":10.6,"educ_score":506.7,"hacin":1.387,"hacin_class":"Hacinamiento Leve","hacin_score":768.7,"auto_score":180.2,"n_per":276,"n_hog":112,"source_year":2024,"crime_score":0.1891,"crime_nivel":"Bajo","crime_color":"#cddc39"},"geometry":{"type":"Polygon","coordinates":[[[-73.6615532339999,-42.3802426360605],[-73.6605015139999,-42.3798039040605],[-73.6601274759999,-42.3803629280605],[-73.6597126429999,-42.3801898720605],[-73.6592801649999,-42.3802325520605],[-73.6596510409999,-42.3801644530605],[-73.6598965029999,-42.3795502840605],[-73.6597130519999,-42.3794082340605],[-73.6585023449999,-42.3801485300605],[-73.6578242959999,-42.3809438760605],[-73.6601614009999,-42.3810397860605],[-73.660212999,-42.3806960710605],[-73.6601856929999,-42.3810407770605],[-73.6617927799999,-42.3811122020605],[-73.6618227509999,-42.3807595870605],[-73.6625198619999,-42.3799438810605],[-73.6614367319999,-42.3796328710605],[-73.6604006079999,-42.3790686040605],[-73.6597420169999,-42.3793916020605],[-73.6615532339999,-42.3802426360605]]]}},{"type":"Feature","properties":{"id":"10205011001032","commune":"Dalcahue","code":"10205","gse":"D","quintil":"Q1","nse_score":620.5,"educ":10.8,"educ_score":520.0,"hacin":1.386,"hacin_class":"Hacinamiento Leve","hacin_score":768.9,"auto_score":113.6,"n_per":61,"n_hog":20,"source_year":2024,"crime_score":0.1752,"crime_nivel":"Bajo","crime_color":"#cddc39"},"geometry":{"type":"Polygon","coordinates":[[[-73.6548526149999,-42.3791879550605],[-73.6540110729999,-42.3800882680605],[-73.6552173499999,-42.3807222070605],[-73.6558650639999,-42.3808601260605],[-73.6560431289999,-42.3801567800605],[-73.6565285159999,-42.3799596550605],[-73.6558140069999,-42.3796514910605],[-73.6555085919999,-42.3800319960605],[-73.6549047579999,-42.3797570780605],[-73.6552443729999,-42.3793768090605],[-73.6548526149999,-42.3791879550605]]]}},{"type":"Feature","properties":{"id":"10205011001034","commune":"Dalcahue","code":"10205","gse":"C3","quintil":"Q2","nse_score":668.1,"educ":11.6,"educ_score":573.3,"hacin":1.133,"hacin_class":"Hacinamiento Leve","hacin_score":822.7,"auto_score":160.0,"n_per":51,"n_hog":21,"source_year":2024,"crime_score":0.17,"crime_nivel":"Bajo","crime_color":"#cddc39"},"geometry":{"type":"Polygon","coordinates":[[[-73.6516634449999,-42.3793255010605],[-73.6507159859999,-42.3805237180605],[-73.6502432029999,-42.3811516850605],[-73.6521455239999,-42.3812983170605],[-73.6530259809999,-42.3797416650605],[-73.6516634449999,-42.3793255010605]]]}},{"type":"Feature","properties":{"id":"10205011001035","commune":"Dalcahue","code":"10205","gse":"E","quintil":"Q1","nse_score":604.8,"educ":11.1,"educ_score":540.0,"hacin":1.571,"hacin_class":"Hacinamiento Medio","hacin_score":729.5,"auto_score":150.0,"n_per":22,"n_hog":8,"source_year":2024,"crime_score":0.1734,"crime_nivel":"Bajo","crime_color":"#cddc39"},"geometry":{"type":"Polygon","coordinates":[[[-73.663402017,-42.3794969430605],[-73.6630175159999,-42.3793428090605],[-73.6625733629999,-42.3799311500605],[-73.6629690919999,-42.3800620500605],[-73.663402017,-42.3794969430605]]]}},{"type":"Feature","properties":{"id":"10205011001036","commune":"Dalcahue","code":"10205","gse":"D","quintil":"Q1","nse_score":646.3,"educ":10.8,"educ_score":520.0,"hacin":1.441,"hacin_class":"Hacinamiento Leve","hacin_score":757.2,"auto_score":250.0,"n_per":49,"n_hog":18,"source_year":2024,"crime_score":0.1718,"crime_nivel":"Bajo","crime_color":"#cddc39"},"geometry":{"type":"Polygon","coordinates":[[[-73.663211939,-42.3801411370605],[-73.6631638769999,-42.3802293220605],[-73.6625542659999,-42.3799544130605],[-73.6620792499999,-42.3805050030605],[-73.6628128979999,-42.3806562450605],[-73.6630152369999,-42.3804205560605],[-73.6628156529999,-42.3806754740605],[-73.6620656949999,-42.3805208700605],[-73.6618373239999,-42.3808013240605],[-73.6618291999999,-42.3811137770605],[-73.6624889589999,-42.3811403880605],[-73.663273392,-42.3801761990605],[-73.6636075419999,-42.3803058390605],[-73.6642638799999,-42.3794601020605],[-73.6644163889999,-42.3795139520605],[-73.6641969809999,-42.3793973390605],[-73.6639945269999,-42.3793964100605],[-73.6634808059999,-42.3800165730605],[-73.6637563489999,-42.3796176310605],[-73.6634616649999,-42.3795192430605],[-73.6630027249999,-42.3800730710605],[-73.663211939,-42.3801411370605]]]}},{"type":"Feature","properties":{"id":"10205011001038","commune":"Dalcahue","code":"10205","gse":"C3","quintil":"Q2","nse_score":679.8,"educ":11.5,"educ_score":566.7,"hacin":1.818,"hacin_class":"Hacinamiento Medio","hacin_score":677.0,"auto_score":250.0,"n_per":20,"n_hog":6,"source_year":2024,"crime_score":0.1663,"crime_nivel":"Bajo","crime_color":"#cddc39"},"geometry":{"type":"Polygon","coordinates":[[[-73.6549388879999,-42.3797514840605],[-73.6555008019999,-42.3800073160605],[-73.6557911059999,-42.3796403680604],[-73.6552647379999,-42.3793866260605],[-73.6549388879999,-42.3797514840605]]]}},{"type":"Feature","properties":{"id":"10205011001039","commune":"Dalcahue","code":"10205","gse":"D","quintil":"Q1","nse_score":620.9,"educ":9.7,"educ_score":446.7,"hacin":1.348,"hacin_class":"Hacinamiento Leve","hacin_score":777.1,"auto_score":136.4,"n_per":31,"n_hog":11,"source_year":2024,"crime_score":0.1726,"crime_nivel":"Bajo","crime_color":"#cddc39"},"geometry":{"type":"Polygon","coordinates":[[[-73.6596994619999,-42.3801261570605],[-73.6601413419999,-42.3803280180605],[-73.6604676059999,-42.3797938860605],[-73.6599268759999,-42.3795679910605],[-73.6596994619999,-42.3801261570605]]]}},{"type":"Feature","properties":{"id":"10205011001040","commune":"Dalcahue","code":"10205","gse":"D","quintil":"Q2","nse_score":663.9,"educ":9.8,"educ_score":453.3,"hacin":1.0,"hacin_class":"Hacinamiento Leve","hacin_score":851.1,"auto_score":90.9,"n_per":22,"n_hog":11,"source_year":2024,"crime_score":0.1679,"crime_nivel":"Bajo","crime_color":"#cddc39"},"geometry":{"type":"Polygon","coordinates":[[[-73.6539243129999,-42.3800904660605],[-73.6530597409999,-42.3797518360605],[-73.6526293129999,-42.3805042020605],[-73.6535330099999,-42.3807933290605],[-73.6539243129999,-42.3800904660605]]]}},{"type":"Feature","properties":{"id":"10205011001042","commune":"Dalcahue","code":"10205","gse":"C3","quintil":"Q2","nse_score":678.6,"educ":10.2,"educ_score":480.0,"hacin":1.0,"hacin_class":"Hacinamiento Leve","hacin_score":851.1,"auto_score":31.2,"n_per":38,"n_hog":16,"source_year":2024,"crime_score":0.1679,"crime_nivel":"Bajo","crime_color":"#cddc39"},"geometry":{"type":"Polygon","coordinates":[[[-73.6535671409999,-42.3808029890605],[-73.6544795329999,-42.3810702880605],[-73.6547904179999,-42.3805275270605],[-73.6539850009999,-42.3801187200605],[-73.6535671409999,-42.3808029890605]]]}},{"type":"Feature","properties":{"id":"10205011001047","commune":"Dalcahue","code":"10205","gse":"C2","quintil":"Q4","nse_score":757.4,"educ":13.4,"educ_score":693.3,"hacin":1.2,"hacin_class":"Hacinamiento Leve","hacin_score":808.5,"auto_score":312.5,"n_per":18,"n_hog":8,"source_year":2024,"crime_score":0.1591,"crime_nivel":"Bajo","crime_color":"#cddc39"},"geometry":{"type":"Polygon","coordinates":[[[-73.6566873769999,-42.3814924130605],[-73.6575401719999,-42.3814815710605],[-73.6580596449999,-42.3816130480605],[-73.6607710239999,-42.3826196680605],[-73.6611969179999,-42.3826526330605],[-73.6616570649999,-42.3818325780605],[-73.6618110439999,-42.3811491170605],[-73.6601911369999,-42.3810770730605],[-73.6601468649999,-42.3815906370605],[-73.6607100379999,-42.3816286960605],[-73.6607914239999,-42.3816752220605],[-73.6607963439999,-42.3821183990605],[-73.6607563689999,-42.3816954620605],[-73.6601054849999,-42.3816028100605],[-73.660147477,-42.3810752920605],[-73.6556338089999,-42.3809402920605],[-73.6566873769999,-42.3814924130605]]]}},{"type":"Feature","properties":{"id":"10205011001044","commune":"Dalcahue","code":"10205","gse":"D","quintil":"Q2","nse_score":666.6,"educ":9.9,"educ_score":460.0,"hacin":1.2,"hacin_class":"Hacinamiento Leve","hacin_score":808.5,"auto_score":200.0,"n_per":12,"n_hog":5,"source_year":2024,"crime_score":0.1669,"crime_nivel":"Bajo","crime_color":"#cddc39"},"geometry":{"type":"MultiPolygon","coordinates":[[[[-73.6554821329999,-42.3810402520605],[-73.6555939419999,-42.3819262190605],[-73.6557710899999,-42.3818260300605],[-73.6563654879999,-42.3819415680605],[-73.6569206769999,-42.3818148300605],[-73.6571687869999,-42.3816252710605],[-73.6555673529999,-42.3809776310605],[-73.6554821329999,-42.3810402520605]]],[[[-73.6531609889999,-42.3814241730605],[-73.6507481719999,-42.3812970550605],[-73.6495669969999,-42.3811295760605],[-73.6487338829999,-42.3808349200605],[-73.6486845479999,-42.3809446370605],[-73.6496532669999,-42.3812491390605],[-73.6523566159999,-42.3815013530605],[-73.6550732989999,-42.3819806990605],[-73.6555598899999,-42.3819379910605],[-73.6555345809999,-42.3816914020605],[-73.6551999359999,-42.3818924030605],[-73.65431043,-42.3817643840605],[-73.6542330029999,-42.3816020340605],[-73.65446592,-42.3810953460605],[-73.6535525539999,-42.3808278450605],[-73.6531609889999,-42.3814241730605]]],[[[-73.6544090219999,-42.3817719420605],[-73.65518986,-42.3818638650605],[-73.6555287769999,-42.3816083120605],[-73.6553929929999,-42.3810256420605],[-73.6548199769999,-42.3805437890605],[-73.6542670589999,-42.3816451450605],[-73.6544090219999,-42.3817719420605]]]]}},{"type":"Feature","properties":{"id":"10205011001037","commune":"Dalcahue","code":"10205","gse":"C2","quintil":"Q3","nse_score":715.3,"educ":12.0,"educ_score":600.0,"hacin":1.0,"hacin_class":"Hacinamiento Leve","hacin_score":851.1,"auto_score":100.0,"n_per":9,"n_hog":5,"source_year":2024,"crime_score":0.1622,"crime_nivel":"Bajo","crime_color":"#cddc39"},"geometry":{"type":"MultiPolygon","coordinates":[[[[-73.646973408,-42.3800984460605],[-73.6477750749999,-42.3804054570605],[-73.6479128149999,-42.3801416950605],[-73.6473110619999,-42.3797962270605],[-73.646973408,-42.3800984460605]]],[[[-73.6479098839999,-42.3801058450605],[-73.6481954599999,-42.3795123290605],[-73.6477732339999,-42.3793767590605],[-73.6474449509999,-42.3798389260605],[-73.6479098839999,-42.3801058450605]]]]}},{"type":"Feature","properties":{"id":"10205011002001","commune":"Dalcahue","code":"10205","gse":"C3","quintil":"Q2","nse_score":672.6,"educ":11.1,"educ_score":540.0,"hacin":1.194,"hacin_class":"Hacinamiento Leve","hacin_score":809.9,"auto_score":187.5,"n_per":475,"n_hog":167,"source_year":2024,"crime_score":0.1901,"crime_nivel":"Bajo","crime_color":"#cddc39"},"geometry":{"type":"Polygon","coordinates":[[[-73.656220103,-42.3705885730605],[-73.6554236349999,-42.3714020270605],[-73.6554946709999,-42.3718408370605],[-73.6550226499999,-42.3723334380605],[-73.6549885619999,-42.3727051680605],[-73.6536720059999,-42.3723877560605],[-73.6527593259999,-42.3736139320605],[-73.6521381919999,-42.3733756120605],[-73.6514961069999,-42.3736249280605],[-73.6507977619999,-42.3736507970605],[-73.6503166919999,-42.3739219410605],[-73.6501877409999,-42.3749430260605],[-73.6506145319999,-42.3756748330605],[-73.6505590439999,-42.3762979380605],[-73.6496784659999,-42.3769066210605],[-73.6500616479999,-42.3771029690605],[-73.6518614389999,-42.3774429590605],[-73.6522568349999,-42.3766870950605],[-73.6525962779999,-42.3764474910605],[-73.652591389,-42.3761862210605],[-73.6523106519999,-42.3759138480605],[-73.6523464609999,-42.3758018340605],[-73.6515453479999,-42.3754359590605],[-73.6523621899999,-42.3757773410605],[-73.6525832859999,-42.3754845780605],[-73.6517829119999,-42.3751224490605],[-73.6526014039999,-42.3754611400605],[-73.6528274299999,-42.3751687510605],[-73.6520394439999,-42.3748222040605],[-73.6528455469999,-42.3751453130605],[-73.6530714079999,-42.3748542330605],[-73.6522831389999,-42.3745064870605],[-73.6530900989999,-42.3748309590605],[-73.6533220749999,-42.3745421060605],[-73.652538407,-42.3741847610605],[-73.6533407149999,-42.3745188950605],[-73.6535609949999,-42.3742446030605],[-73.6527702079999,-42.3738994120605],[-73.6535796349999,-42.3742213920605],[-73.6538298169999,-42.3739098600605],[-73.6530614629999,-42.3735669000605],[-73.6538484579999,-42.3738866470605],[-73.6541079439999,-42.3735635270605],[-73.6534111009999,-42.3732595730605],[-73.6541265859999,-42.3735403130605],[-73.6546269289999,-42.3726471670605],[-73.6540806489999,-42.3736784760605],[-73.6559103219999,-42.3739698620605],[-73.6560860839999,-42.3735576180605],[-73.6557628059999,-42.3730761960605],[-73.6556677649999,-42.3727688790605],[-73.6556724419999,-42.3725305720605],[-73.6557976979999,-42.3730683300605],[-73.656103346,-42.3735257630605],[-73.6564865939999,-42.3727083620605],[-73.6560551329999,-42.3725455290605],[-73.6561870689999,-42.3722179620605],[-73.6560919359999,-42.3725347510605],[-73.6564970749999,-42.3726821560605],[-73.6567103129999,-42.3721685110605],[-73.6563771859999,-42.3719359860605],[-73.6564454719999,-42.3716432310605],[-73.6561185229999,-42.3715862220605],[-73.6560430819999,-42.3719025760605],[-73.6560828449999,-42.3715802270605],[-73.6558130759999,-42.3715259140605],[-73.656086963,-42.3715531810605],[-73.6562189969999,-42.3710960170605],[-73.6566598009999,-42.3710336840605],[-73.6564405849999,-42.3719625550605],[-73.6567237369999,-42.3721403510605],[-73.6568851859999,-42.3716449580605],[-73.656857037,-42.3719322540605],[-73.6580244789999,-42.3723348020605],[-73.6583026159999,-42.3720427690605],[-73.6587399379999,-42.3722935950605],[-73.658687987,-42.3727159320605],[-73.6588254699999,-42.3727866790605],[-73.6588267309999,-42.3730344080605],[-73.6589659619999,-42.3730436780605],[-73.6591159569999,-42.3722372340605],[-73.6579898949999,-42.3717991120605],[-73.6567507369999,-42.3715096290605],[-73.6571660479999,-42.3709358970605],[-73.656220103,-42.3705885730605]]]}},{"type":"Feature","properties":{"id":"10205011002002","commune":"Dalcahue","code":"10205","gse":"D","quintil":"Q1","nse_score":642.7,"educ":9.9,"educ_score":460.0,"hacin":1.143,"hacin_class":"Hacinamiento Leve","hacin_score":820.7,"auto_score":62.5,"n_per":16,"n_hog":8,"source_year":2024,"crime_score":0.1694,"crime_nivel":"Bajo","crime_color":"#cddc39"},"geometry":{"type":"Polygon","coordinates":[[[-73.6561227579999,-42.3715592640605],[-73.6564534479999,-42.3716132630605],[-73.656585102,-42.3711297080605],[-73.6561958109999,-42.3711428570605],[-73.6561227579999,-42.3715592640605]]]}},{"type":"Feature","properties":{"id":"10205011002003","commune":"Dalcahue","code":"10205","gse":"D","quintil":"Q1","nse_score":621.7,"educ":9.8,"educ_score":453.3,"hacin":1.275,"hacin_class":"Hacinamiento Leve","hacin_score":792.6,"auto_score":153.8,"n_per":102,"n_hog":39,"source_year":2024,"crime_score":0.1786,"crime_nivel":"Bajo","crime_color":"#cddc39"},"geometry":{"type":"Polygon","coordinates":[[[-73.6588866499999,-42.3731644710605],[-73.6580892329999,-42.3727868760605],[-73.6580630119999,-42.3724224460605],[-73.6579158329999,-42.3723327680605],[-73.6568444939999,-42.3719623660605],[-73.6567325309999,-42.3722238840605],[-73.6576006049999,-42.3725531600605],[-73.6571966329999,-42.3724232540605],[-73.6570311559999,-42.3727241890605],[-73.6585139409999,-42.3733611140605],[-73.6588866499999,-42.3731644710605]]]}},{"type":"Feature","properties":{"id":"10205011002004","commune":"Dalcahue","code":"10205","gse":"D","quintil":"Q2","nse_score":648.0,"educ":11.2,"educ_score":546.7,"hacin":1.25,"hacin_class":"Hacinamiento Leve","hacin_score":797.9,"auto_score":50.0,"n_per":30,"n_hog":10,"source_year":2024,"crime_score":0.1701,"crime_nivel":"Bajo","crime_color":"#cddc39"},"geometry":{"type":"Polygon","coordinates":[[[-73.6587905849999,-42.3730252090605],[-73.6587907909999,-42.3727965770605],[-73.6586527369999,-42.3727318220605],[-73.6587054369999,-42.3723047540605],[-73.6582562489999,-42.3721227810605],[-73.6580857969999,-42.3727231920605],[-73.6587905849999,-42.3730252090605]]]}},{"type":"Feature","properties":{"id":"10205011002005","commune":"Dalcahue","code":"10205","gse":"C3","quintil":"Q3","nse_score":690.8,"educ":11.2,"educ_score":546.7,"hacin":1.364,"hacin_class":"Hacinamiento Leve","hacin_score":773.7,"auto_score":0.0,"n_per":15,"n_hog":5,"source_year":2024,"crime_score":0.1649,"crime_nivel":"Bajo","crime_color":"#cddc39"},"geometry":{"type":"Polygon","coordinates":[[[-73.6565904459999,-42.3725626970605],[-73.6569982319999,-42.3727125130605],[-73.6571641129999,-42.3724108490605],[-73.6567209869999,-42.3722497680605],[-73.6565904459999,-42.3725626970605]]]}},{"type":"Feature","properties":{"id":"10205011002006","commune":"Dalcahue","code":"10205","gse":"D","quintil":"Q2","nse_score":662.1,"educ":10.5,"educ_score":500.0,"hacin":1.148,"hacin_class":"Hacinamiento Leve","hacin_score":819.5,"auto_score":129.4,"n_per":527,"n_hog":191,"source_year":2024,"crime_score":0.1912,"crime_nivel":"Bajo","crime_color":"#cddc39"},"geometry":{"type":"Polygon","coordinates":[[[-73.6466211129999,-42.3745316750605],[-73.6470116979999,-42.3748900700605],[-73.647422693,-42.3743881770605],[-73.6466182009999,-42.3755693890605],[-73.6470930599999,-42.3757354190605],[-73.6474054739999,-42.3754291570605],[-73.6483053599999,-42.3758157780605],[-73.6490735669999,-42.3748707990605],[-73.6486158379999,-42.3755694430605],[-73.6494315919999,-42.3760150770605],[-73.6492565229999,-42.3759701260605],[-73.6488106719999,-42.3764043830605],[-73.6494561959999,-42.3768163530605],[-73.6498375669999,-42.3766798700605],[-73.6494894519999,-42.3763398310605],[-73.6498655949999,-42.3766690860605],[-73.6503726359999,-42.3764026540605],[-73.6498858379999,-42.3762439750605],[-73.6504455469999,-42.3763314540605],[-73.6505156529999,-42.3755788380605],[-73.6504001619999,-42.3754688920605],[-73.6501844209999,-42.3755769410605],[-73.6499831179999,-42.3755291590605],[-73.6503825629999,-42.3754474360605],[-73.6500909389999,-42.3749480200605],[-73.6502129889999,-42.3739647580605],[-73.6487526629999,-42.3748306580605],[-73.6477598929999,-42.3745671540605],[-73.6480908629999,-42.3736985180605],[-73.6472025219999,-42.3734154010605],[-73.6473295929999,-42.3732220500605],[-73.6472136259999,-42.3731743530605],[-73.6472888769999,-42.3730188390605],[-73.6463297319999,-42.3727338270605],[-73.6460966029999,-42.3731006170605],[-73.6459139899999,-42.3729770150605],[-73.6457084569999,-42.3724524470605],[-73.6452347079999,-42.3725285690605],[-73.6447030509999,-42.3728953550605],[-73.644043156,-42.3728237860605],[-73.643328343,-42.3734352650605],[-73.6444894829999,-42.3737923860605],[-73.6448157479999,-42.3731824080605],[-73.6437212819999,-42.3755185610605],[-73.6440677049999,-42.3757661620605],[-73.6450098729999,-42.3737866700605],[-73.6452752729999,-42.3737836450605],[-73.6455603229999,-42.3734727750605],[-73.6454542149999,-42.3733184330605],[-73.6456733529999,-42.3734627140605],[-73.6458383919999,-42.3732867280605],[-73.6457048229999,-42.3735006040605],[-73.6453178649999,-42.3737950280605],[-73.6461351559999,-42.3740013850605],[-73.6462613309999,-42.3737124870605],[-73.6467714059999,-42.3732955870605],[-73.64669355,-42.3735068260605],[-73.6462982129999,-42.3737303070605],[-73.6461767449999,-42.3740114230605],[-73.6465718069999,-42.3741349400605],[-73.6456253079999,-42.3739149370605],[-73.6455576119999,-42.3740742620605],[-73.6458311509999,-42.3741461180605],[-73.6455451379999,-42.3741000380605],[-73.644788247,-42.3756505350605],[-73.6449972099999,-42.3757460840605],[-73.6447689139999,-42.3756700830605],[-73.6444264159999,-42.3760296300605],[-73.6452139129999,-42.3765401680605],[-73.6454662639999,-42.3757413210605],[-73.6458451349999,-42.3749873310605],[-73.6463127609999,-42.3742858440605],[-73.6467968819999,-42.3743992360605],[-73.6463458559999,-42.3743174320605],[-73.6457355109999,-42.3753065590605],[-73.6460532579999,-42.3753997860605],[-73.6466211129999,-42.3745316750605]]]}},{"type":"Feature","properties":{"id":"10205011002007","commune":"Dalcahue","code":"10205","gse":"E","quintil":"Q1","nse_score":580.7,"educ":9.5,"educ_score":433.3,"hacin":1.125,"hacin_class":"Hacinamiento Leve","hacin_score":824.5,"auto_score":0.0,"n_per":9,"n_hog":4,"source_year":2024,"crime_score":0.1744,"crime_nivel":"Bajo","crime_color":"#cddc39"},"geometry":{"type":"Polygon","coordinates":[[[-73.6565682049999,-42.3726183130605],[-73.6564164929999,-42.3730074560605],[-73.6567902879999,-42.3731909200605],[-73.6571550559999,-42.3728052850605],[-73.6565682049999,-42.3726183130605]]]}},{"type":"Feature","properties":{"id":"10205011002008","commune":"Dalcahue","code":"10205","gse":"C3","quintil":"Q3","nse_score":703.3,"educ":12.5,"educ_score":633.3,"hacin":1.2,"hacin_class":"Hacinamiento Leve","hacin_score":808.5,"auto_score":129.6,"n_per":66,"n_hog":27,"source_year":2024,"crime_score":0.1679,"crime_nivel":"Bajo","crime_color":"#cddc39"},"geometry":{"type":"Polygon","coordinates":[[[-73.6568749619999,-42.3731984370605],[-73.6579620199999,-42.3737159560605],[-73.6584894699999,-42.3734428590605],[-73.6572307609999,-42.3728486000605],[-73.6568749619999,-42.3731984370605]]]}},{"type":"Feature","properties":{"id":"10205011002009","commune":"Dalcahue","code":"10205","gse":"D","quintil":"Q2","nse_score":658.5,"educ":10.8,"educ_score":520.0,"hacin":1.351,"hacin_class":"Hacinamiento Leve","hacin_score":776.3,"auto_score":411.8,"n_per":50,"n_hog":17,"source_year":2024,"crime_score":0.1708,"crime_nivel":"Bajo","crime_color":"#cddc39"},"geometry":{"type":"Polygon","coordinates":[[[-73.6559530769999,-42.3739766300605],[-73.6565028929999,-42.3740771840605],[-73.6569405079999,-42.3732978960605],[-73.6563979249999,-42.3730558760605],[-73.6559530769999,-42.3739766300605]]]}},{"type":"Feature","properties":{"id":"10205011002010","commune":"Dalcahue","code":"10205","gse":"E","quintil":"Q1","nse_score":561.8,"educ":9.3,"educ_score":420.0,"hacin":1.465,"hacin_class":"Hacinamiento Leve","hacin_score":752.1,"auto_score":113.6,"n_per":63,"n_hog":22,"source_year":2024,"crime_score":0.1809,"crime_nivel":"Bajo","crime_color":"#cddc39"},"geometry":{"type":"Polygon","coordinates":[[[-73.6569551429999,-42.3733717360605],[-73.656565682,-42.3741389930605],[-73.6571592249999,-42.3742918800605],[-73.6575570749999,-42.3740142030605],[-73.6572129719999,-42.3738297960605],[-73.6570643809999,-42.3739904660605],[-73.6571946919999,-42.3737973050605],[-73.6570352159999,-42.3737090940605],[-73.6575930249999,-42.3739860310605],[-73.6579158589999,-42.3737658270605],[-73.6569551429999,-42.3733717360605]]]}},{"type":"Feature","properties":{"id":"10205011002011","commune":"Dalcahue","code":"10205","gse":"C3","quintil":"Q3","nse_score":706.2,"educ":11.0,"educ_score":533.3,"hacin":1.0,"hacin_class":"Hacinamiento Leve","hacin_score":851.1,"auto_score":187.5,"n_per":16,"n_hog":8,"source_year":2024,"crime_score":0.1636,"crime_nivel":"Bajo","crime_color":"#cddc39"},"geometry":{"type":"Polygon","coordinates":[[[-73.6431322589999,-42.3742806220605],[-73.6425859109999,-42.3746666250605],[-73.643273786,-42.3750691780605],[-73.6439301319999,-42.3736887930605],[-73.6433117029999,-42.3734976700605],[-73.6430828809999,-42.3740913370605],[-73.6431322589999,-42.3742806220605]]]}},{"type":"Feature","properties":{"id":"10205011002012","commune":"Dalcahue","code":"10205","gse":"C3","quintil":"Q3","nse_score":686.9,"educ":11.5,"educ_score":566.7,"hacin":1.222,"hacin_class":"Hacinamiento Leve","hacin_score":803.8,"auto_score":190.5,"n_per":44,"n_hog":19,"source_year":2024,"crime_score":0.1676,"crime_nivel":"Bajo","crime_color":"#cddc39"},"geometry":{"type":"Polygon","coordinates":[[[-73.6439836199999,-42.3736941160605],[-73.6432993889999,-42.3750967910605],[-73.6436941919999,-42.3754939910605],[-73.6444756149999,-42.3738210320605],[-73.6439836199999,-42.3736941160605]]]}},{"type":"Feature","properties":{"id":"10205011002013","commune":"Dalcahue","code":"10205","gse":"C3","quintil":"Q3","nse_score":687.0,"educ":11.5,"educ_score":566.7,"hacin":1.047,"hacin_class":"Hacinamiento Leve","hacin_score":841.1,"auto_score":220.0,"n_per":67,"n_hog":24,"source_year":2024,"crime_score":0.1695,"crime_nivel":"Bajo","crime_color":"#cddc39"},"geometry":{"type":"Polygon","coordinates":[[[-73.6540425279999,-42.3737492570605],[-73.652357676,-42.3758895630605],[-73.6525424779999,-42.3759892710605],[-73.6531463679999,-42.3752846650605],[-73.6535307879999,-42.3753936220605],[-73.6539626159999,-42.3749435960605],[-73.6557882239999,-42.3743394300605],[-73.6558788529999,-42.3740269640605],[-73.6540425279999,-42.3737492570605]]]}},{"type":"Feature","properties":{"id":"10205011002014","commune":"Dalcahue","code":"10205","gse":"D","quintil":"Q2","nse_score":660.6,"educ":10.4,"educ_score":493.3,"hacin":1.064,"hacin_class":"Hacinamiento Leve","hacin_score":837.5,"auto_score":100.0,"n_per":50,"n_hog":24,"source_year":2024,"crime_score":0.1706,"crime_nivel":"Bajo","crime_color":"#cddc39"},"geometry":{"type":"Polygon","coordinates":[[[-73.6450471169999,-42.3738055820605],[-73.6444296609999,-42.3751116570605],[-73.6449374949999,-42.3752750860605],[-73.6455772559999,-42.3739002220605],[-73.6450471169999,-42.3738055820605]]]}},{"type":"Feature","properties":{"id":"10205011002015","commune":"Dalcahue","code":"10205","gse":"D","quintil":"Q2","nse_score":649.2,"educ":10.3,"educ_score":486.7,"hacin":1.304,"hacin_class":"Hacinamiento Leve","hacin_score":786.4,"auto_score":97.9,"n_per":279,"n_hog":98,"source_year":2024,"crime_score":0.1908,"crime_nivel":"Bajo","crime_color":"#cddc39"},"geometry":{"type":"Polygon","coordinates":[[[-73.6559482939999,-42.3740445140605],[-73.6555591759999,-42.3749829580605],[-73.6554683889999,-42.3749508060605],[-73.6557690129999,-42.3744014430605],[-73.6539409039999,-42.3750240060605],[-73.6538765359999,-42.3750828750605],[-73.6542032759999,-42.3752456790605],[-73.6538452349999,-42.3751115030605],[-73.6535880059999,-42.3754283710605],[-73.6540441859999,-42.3756319050605],[-73.6531769379999,-42.3753458800605],[-73.6525910699999,-42.3760302810605],[-73.6526409639999,-42.3764279090605],[-73.6547572739999,-42.3768941750605],[-73.6552651259999,-42.3762357240605],[-73.6559558899999,-42.3756300440605],[-73.6546801139999,-42.3752573160605],[-73.6548870939999,-42.3752635690605],[-73.6549086279999,-42.3749818200605],[-73.6549325809999,-42.3752769610605],[-73.655999172,-42.3755857100605],[-73.6565981989999,-42.3748971780605],[-73.6562762499999,-42.3747929810605],[-73.6561180819999,-42.3749300870605],[-73.6562009369999,-42.3747946720605],[-73.6562765189999,-42.3747543150605],[-73.6566246809999,-42.3748666580605],[-73.657096109,-42.3743346040605],[-73.6559482939999,-42.3740445140605]]]}},{"type":"Feature","properties":{"id":"10205011002016","commune":"Dalcahue","code":"10205","gse":"D","quintil":"Q1","nse_score":642.7,"educ":10.6,"educ_score":506.7,"hacin":0.955,"hacin_class":"Sin Hacinamiento","hacin_score":860.7,"auto_score":90.9,"n_per":21,"n_hog":10,"source_year":2024,"crime_score":0.1698,"crime_nivel":"Bajo","crime_color":"#cddc39"},"geometry":{"type":"Polygon","coordinates":[[[-73.6465575749999,-42.3755466280605],[-73.6469917659999,-42.3749182190605],[-73.6466007539999,-42.3746353840605],[-73.6460928479999,-42.3754114210605],[-73.6465575749999,-42.3755466280605]]]}},{"type":"Feature","properties":{"id":"10205011002017","commune":"Dalcahue","code":"10205","gse":"D","quintil":"Q2","nse_score":649.7,"educ":10.8,"educ_score":520.0,"hacin":1.526,"hacin_class":"Hacinamiento Medio","hacin_score":739.1,"auto_score":100.0,"n_per":29,"n_hog":10,"source_year":2024,"crime_score":0.1698,"crime_nivel":"Bajo","crime_color":"#cddc39"},"geometry":{"type":"Polygon","coordinates":[[[-73.6449201029999,-42.3753110630605],[-73.6444152249999,-42.3751423490605],[-73.6441018769999,-42.3757900810605],[-73.6443948219999,-42.3760062100605],[-73.6449201029999,-42.3753110630605]]]}},{"type":"Feature","properties":{"id":"10205011002018","commune":"Dalcahue","code":"10205","gse":"D","quintil":"Q1","nse_score":646.4,"educ":9.9,"educ_score":460.0,"hacin":1.412,"hacin_class":"Hacinamiento Leve","hacin_score":763.5,"auto_score":111.1,"n_per":24,"n_hog":9,"source_year":2024,"crime_score":0.1697,"crime_nivel":"Bajo","crime_color":"#cddc39"},"geometry":{"type":"Polygon","coordinates":[[[-73.6457178929999,-42.3753362540605],[-73.6455099659999,-42.3757472360605],[-73.6463345139999,-42.3758888040605],[-73.6465776599999,-42.3755930610605],[-73.6457178929999,-42.3753362540605]]]}},{"type":"Feature","properties":{"id":"10205011002019","commune":"Dalcahue","code":"10205","gse":"D","quintil":"Q2","nse_score":662.5,"educ":10.6,"educ_score":506.7,"hacin":1.308,"hacin_class":"Hacinamiento Leve","hacin_score":785.4,"auto_score":151.5,"n_per":123,"n_hog":33,"source_year":2024,"crime_score":0.1765,"crime_nivel":"Bajo","crime_color":"#cddc39"},"geometry":{"type":"Polygon","coordinates":[[[-73.6471591719999,-42.3757631650605],[-73.6486775619999,-42.3764805120605],[-73.6489339929999,-42.3762307490605],[-73.6474571729999,-42.3755055710605],[-73.6471591719999,-42.3757631650605]]]}},{"type":"Feature","properties":{"id":"10205011002020","commune":"Dalcahue","code":"10205","gse":"D","quintil":"Q1","nse_score":638.9,"educ":9.5,"educ_score":433.3,"hacin":1.361,"hacin_class":"Hacinamiento Leve","hacin_score":774.2,"auto_score":194.4,"n_per":49,"n_hog":18,"source_year":2024,"crime_score":0.1725,"crime_nivel":"Bajo","crime_color":"#cddc39"},"geometry":{"type":"Polygon","coordinates":[[[-73.648578643,-42.3755979660605],[-73.6483197449999,-42.3758524220605],[-73.6489604769999,-42.3762049540605],[-73.6492189699999,-42.3759531830605],[-73.648578643,-42.3755979660605]]]}},{"type":"Feature","properties":{"id":"10205011002021","commune":"Dalcahue","code":"10205","gse":"C3","quintil":"Q2","nse_score":677.2,"educ":11.5,"educ_score":566.7,"hacin":1.278,"hacin_class":"Hacinamiento Leve","hacin_score":792.0,"auto_score":129.0,"n_per":92,"n_hog":30,"source_year":2024,"crime_score":0.1725,"crime_nivel":"Bajo","crime_color":"#cddc39"},"geometry":{"type":"Polygon","coordinates":[[[-73.6463190189999,-42.3759215660605],[-73.6454984349999,-42.3757785070605],[-73.6453650629999,-42.3761866100605],[-73.6465247459999,-42.3765002030605],[-73.6470990739999,-42.3757751930605],[-73.6466183129999,-42.3756053820605],[-73.6463190189999,-42.3759215660605]]]}},{"type":"Feature","properties":{"id":"10205011002022","commune":"Dalcahue","code":"10205","gse":"D","quintil":"Q1","nse_score":646.8,"educ":10.0,"educ_score":466.7,"hacin":1.173,"hacin_class":"Hacinamiento Leve","hacin_score":814.2,"auto_score":56.8,"n_per":115,"n_hog":44,"source_year":2024,"crime_score":0.1773,"crime_nivel":"Bajo","crime_color":"#cddc39"},"geometry":{"type":"Polygon","coordinates":[[[-73.6471784249999,-42.3761311180605],[-73.6468728569999,-42.3767289770605],[-73.6453027159999,-42.3764741520605],[-73.6452800019999,-42.3765632090605],[-73.6458623039999,-42.3769667830605],[-73.6472915439999,-42.3776182620605],[-73.6476564819999,-42.3770609890605],[-73.6473229769999,-42.3776426060605],[-73.648253167,-42.3780956120605],[-73.6494152619999,-42.3768277890605],[-73.6487836829999,-42.3764306700605],[-73.6486026199999,-42.3766070250605],[-73.6486510799999,-42.3765063060605],[-73.6481239569999,-42.3762053080605],[-73.6471371249999,-42.3757911630605],[-73.6465582899999,-42.3765217050605],[-73.6468310949999,-42.3766497660605],[-73.6471784249999,-42.3761311180605]]]}},{"type":"Feature","properties":{"id":"10205011002023","commune":"Dalcahue","code":"10205","gse":"D","quintil":"Q1","nse_score":630.1,"educ":9.5,"educ_score":433.3,"hacin":1.5,"hacin_class":"Hacinamiento Medio","hacin_score":744.7,"auto_score":55.6,"n_per":21,"n_hog":9,"source_year":2024,"crime_score":0.171,"crime_nivel":"Bajo","crime_color":"#cddc39"},"geometry":{"type":"Polygon","coordinates":[[[-73.6452904809999,-42.3764345420605],[-73.6468567719999,-42.3766898820605],[-73.6462954209999,-42.3764172660605],[-73.6453555419999,-42.3762182600605],[-73.6452904809999,-42.3764345420605]]]}},{"type":"Feature","properties":{"id":"10205011002024","commune":"Dalcahue","code":"10205","gse":"C2","quintil":"Q4","nse_score":746.6,"educ":12.9,"educ_score":660.0,"hacin":1.2,"hacin_class":"Hacinamiento Leve","hacin_score":808.5,"auto_score":250.0,"n_per":24,"n_hog":10,"source_year":2024,"crime_score":0.1605,"crime_nivel":"Bajo","crime_color":"#cddc39"},"geometry":{"type":"Polygon","coordinates":[[[-73.6545219089999,-42.3772194940605],[-73.6547068659999,-42.3769460700605],[-73.652908125,-42.3765258270605],[-73.6526065599999,-42.3764817600605],[-73.6523930029999,-42.3765988870605],[-73.6545219089999,-42.3772194940605]]]}},{"type":"Feature","properties":{"id":"10205011002025","commune":"Dalcahue","code":"10205","gse":"C2","quintil":"Q4","nse_score":740.8,"educ":12.9,"educ_score":660.0,"hacin":1.447,"hacin_class":"Hacinamiento Leve","hacin_score":755.9,"auto_score":204.5,"n_per":55,"n_hog":22,"source_year":2024,"crime_score":0.1635,"crime_nivel":"Bajo","crime_color":"#cddc39"},"geometry":{"type":"Polygon","coordinates":[[[-73.6542982749999,-42.3775358760605],[-73.6544996889999,-42.3772535770605],[-73.6523745789999,-42.3766226770605],[-73.6522507039999,-42.3767707760605],[-73.652246337,-42.3768747450605],[-73.6542982749999,-42.3775358760605]]]}},{"type":"Feature","properties":{"id":"10205011002026","commune":"Dalcahue","code":"10205","gse":"C3","quintil":"Q3","nse_score":704.9,"educ":11.2,"educ_score":546.7,"hacin":1.273,"hacin_class":"Hacinamiento Leve","hacin_score":793.0,"auto_score":51.7,"n_per":56,"n_hog":29,"source_year":2024,"crime_score":0.167,"crime_nivel":"Bajo","crime_color":"#cddc39"},"geometry":{"type":"Polygon","coordinates":[[[-73.6483302309999,-42.3781036640605],[-73.6490716349999,-42.3783945740605],[-73.6499960819999,-42.3771180300605],[-73.6494075289999,-42.3768851340605],[-73.6483302309999,-42.3781036640605]]]}},{"type":"Feature","properties":{"id":"10205011002027","commune":"Dalcahue","code":"10205","gse":"D","quintil":"Q2","nse_score":665.6,"educ":11.6,"educ_score":573.3,"hacin":1.465,"hacin_class":"Hacinamiento Leve","hacin_score":752.1,"auto_score":98.5,"n_per":167,"n_hog":62,"source_year":2024,"crime_score":0.1798,"crime_nivel":"Bajo","crime_color":"#cddc39"},"geometry":{"type":"Polygon","coordinates":[[[-73.6528156919999,-42.3775063640605],[-73.6520027449999,-42.3772752870605],[-73.6518811259999,-42.3774737580605],[-73.6516888259999,-42.3775082690605],[-73.6508214999999,-42.3789928350605],[-73.6525022029999,-42.3795325190605],[-73.6527374949999,-42.3794865590605],[-73.6536712409999,-42.3784813200605],[-73.6522620549999,-42.3779065540605],[-73.6536962929999,-42.3784504580605],[-73.6543044709999,-42.3776254490605],[-73.6521905999999,-42.3769037310605],[-73.6520198309999,-42.3772414930605],[-73.6528156919999,-42.3775063640605]]]}},{"type":"Feature","properties":{"id":"10205011002028","commune":"Dalcahue","code":"10205","gse":"C3","quintil":"Q2","nse_score":675.9,"educ":10.9,"educ_score":526.7,"hacin":1.115,"hacin_class":"Hacinamiento Leve","hacin_score":826.6,"auto_score":120.7,"n_per":68,"n_hog":29,"source_year":2024,"crime_score":0.1706,"crime_nivel":"Bajo","crime_color":"#cddc39"},"geometry":{"type":"Polygon","coordinates":[[[-73.6491667419999,-42.3784268090605],[-73.6501647649999,-42.3787501340605],[-73.6510727769999,-42.3773357210605],[-73.6500840379999,-42.3771593280605],[-73.6491667419999,-42.3784268090605]]]}},{"type":"Feature","properties":{"id":"10205011002029","commune":"Dalcahue","code":"10205","gse":"D","quintil":"Q2","nse_score":663.9,"educ":10.1,"educ_score":473.3,"hacin":1.145,"hacin_class":"Hacinamiento Leve","hacin_score":820.1,"auto_score":107.1,"n_per":63,"n_hog":28,"source_year":2024,"crime_score":0.1714,"crime_nivel":"Bajo","crime_color":"#cddc39"},"geometry":{"type":"Polygon","coordinates":[[[-73.6502562719999,-42.3788005230605],[-73.6507694289999,-42.3789631920605],[-73.6516189259999,-42.3775137630605],[-73.6511422729999,-42.3773763530605],[-73.6502562719999,-42.3788005230605]]]}},{"type":"Feature","properties":{"id":"10205013026001","commune":"Dalcahue","code":"10205","gse":"E","quintil":"Q1","nse_score":599.8,"educ":8.7,"educ_score":380.0,"hacin":1.292,"hacin_class":"Hacinamiento Leve","hacin_score":789.0,"auto_score":166.7,"n_per":93,"n_hog":36,"source_year":2024,"crime_score":0.1799,"crime_nivel":"Bajo","crime_color":"#cddc39"},"geometry":{"type":"Polygon","coordinates":[[[-73.6494751489999,-42.3676797090605],[-73.6503140489999,-42.3679370730605],[-73.6506560439999,-42.3673724510605],[-73.6495668079999,-42.3670435450605],[-73.6492114399999,-42.3675276120605],[-73.6488569229999,-42.3686182700605],[-73.6495767019999,-42.3689034620605],[-73.6488439669999,-42.3698122500605],[-73.6487168879999,-42.3703748350605],[-73.648152938,-42.3706335820605],[-73.6481375369999,-42.3710772870605],[-73.6495714089999,-42.3715952040605],[-73.6502254489999,-42.3710701160605],[-73.6508015129999,-42.3713175180606],[-73.6510345729999,-42.3709121900605],[-73.6521867869999,-42.3699911220605],[-73.6523039519999,-42.3697284150605],[-73.6513905859999,-42.3696910720605],[-73.6515157819999,-42.3698774700605],[-73.6510686329999,-42.3701213300605],[-73.6508833569999,-42.3703785150605],[-73.65010817,-42.3702137670605],[-73.649937082,-42.3703142610605],[-73.650112497,-42.3701778400605],[-73.6508604859999,-42.3703422300605],[-73.6510322499999,-42.3700974820605],[-73.6514491569999,-42.3698697490605],[-73.6513421579999,-42.3696991290605],[-73.6499106369999,-42.3697309820606],[-73.6497742789999,-42.3699872540606],[-73.649827979,-42.3697674490605],[-73.6500449409999,-42.3695819490605],[-73.6497223919999,-42.3694695590605],[-73.6500688219999,-42.3695726450605],[-73.6510060989999,-42.3694243390605],[-73.6510168549999,-42.3691320240605],[-73.6509328639999,-42.3689335850605],[-73.6505900129999,-42.3688584660605],[-73.6501001629999,-42.3685314560605],[-73.6500542339999,-42.3683341250605],[-73.6498724519999,-42.3684330450605],[-73.6503039899999,-42.3679534440606],[-73.6494751489999,-42.3676797090605]]]}},{"type":"Feature","properties":{"id":"10205013026003","commune":"Dalcahue","code":"10205","gse":"D","quintil":"Q1","nse_score":636.0,"educ":9.9,"educ_score":460.0,"hacin":1.173,"hacin_class":"Hacinamiento Leve","hacin_score":814.2,"auto_score":115.4,"n_per":61,"n_hog":25,"source_year":2024,"crime_score":0.1738,"crime_nivel":"Bajo","crime_color":"#cddc39"},"geometry":{"type":"Polygon","coordinates":[[[-73.6546377579999,-42.3676313330606],[-73.6524070789999,-42.3682556430605],[-73.6525229689999,-42.3685608950605],[-73.6524217129999,-42.3696068000605],[-73.6529909089999,-42.3694077140605],[-73.6534631739999,-42.3690033220605],[-73.6531131649999,-42.3693730330605],[-73.6524175569999,-42.3696451720605],[-73.6524474029999,-42.3697250010605],[-73.6531782729999,-42.3696411080605],[-73.6535853239999,-42.3691175480605],[-73.653949554,-42.3689464140605],[-73.6543299179999,-42.3684501360605],[-73.6545679299999,-42.3683236220605],[-73.6547626129999,-42.3683316970605],[-73.6543676409999,-42.3684733120605],[-73.654017473,-42.3689415080605],[-73.6542886239999,-42.3689411330605],[-73.6546057479999,-42.3686615150605],[-73.6550599509999,-42.3684515660605],[-73.6551377659999,-42.3682338170605],[-73.6550971439999,-42.3684527600605],[-73.6557519449999,-42.3685059440605],[-73.655857163,-42.3686411390605],[-73.6555462879999,-42.3685311400605],[-73.6555760889999,-42.3686514720605],[-73.6554847569999,-42.3688548040605],[-73.6555022439999,-42.3685288620605],[-73.6550772509999,-42.3684859770605],[-73.6543363239999,-42.3689543390605],[-73.6545501559999,-42.3691164320605],[-73.6542143559999,-42.3689715010605],[-73.6536976779999,-42.3690773790605],[-73.6531295809999,-42.3697074060605],[-73.6544442149999,-42.3701909230605],[-73.6547436079999,-42.3695501040605],[-73.6547896899999,-42.3697241730605],[-73.6544656409999,-42.3702297890605],[-73.6530847199999,-42.3697232980605],[-73.652396156,-42.3697535480605],[-73.6523755239999,-42.3698427320605],[-73.6531939679999,-42.3701892190605],[-73.6538419169999,-42.3702977560605],[-73.6540010719999,-42.3705135850605],[-73.6538375939999,-42.3711392960605],[-73.6534998679999,-42.3715497120605],[-73.6525109199999,-42.3712200780605],[-73.6520148739999,-42.3718173910605],[-73.6524727969999,-42.3719802630605],[-73.6537501869999,-42.3715394370606],[-73.6541776819999,-42.3709346100605],[-73.6541740719999,-42.3703387460605],[-73.6545831489999,-42.3704750360605],[-73.6546507629999,-42.3703207810605],[-73.6554634119999,-42.3698417770605],[-73.6557169799999,-42.3694655610605],[-73.6559827849999,-42.3684604380605],[-73.6556114129999,-42.3675263950605],[-73.6546377579999,-42.3676313330606]]]}},{"type":"Feature","properties":{"id":"10205013026005","commune":"Dalcahue","code":"10205","gse":"E","quintil":"Q1","nse_score":568.6,"educ":9.4,"educ_score":426.7,"hacin":1.273,"hacin_class":"Hacinamiento Leve","hacin_score":793.0,"auto_score":0.0,"n_per":14,"n_hog":5,"source_year":2024,"crime_score":0.176,"crime_nivel":"Bajo","crime_color":"#cddc39"},"geometry":{"type":"Polygon","coordinates":[[[-73.6509465329999,-42.3694503720605],[-73.6499496689999,-42.3696932650605],[-73.6514556879999,-42.3696312210605],[-73.6509465329999,-42.3694503720605]]]}},{"type":"Feature","properties":{"id":"10205013026006","commune":"Dalcahue","code":"10205","gse":"D","quintil":"Q2","nse_score":648.0,"educ":10.4,"educ_score":493.3,"hacin":1.617,"hacin_class":"Hacinamiento Medio","hacin_score":719.8,"auto_score":260.9,"n_per":76,"n_hog":22,"source_year":2024,"crime_score":0.1739,"crime_nivel":"Bajo","crime_color":"#cddc39"},"geometry":{"type":"Polygon","coordinates":[[[-73.6521171429999,-42.3701449140605],[-73.6531124449999,-42.3705289660605],[-73.6532856659999,-42.3702695040605],[-73.6523551689999,-42.3698963290605],[-73.6521171429999,-42.3701449140605]]]}},{"type":"Feature","properties":{"id":"10205013026007","commune":"Dalcahue","code":"10205","gse":"D","quintil":"Q2","nse_score":656.7,"educ":10.9,"educ_score":526.7,"hacin":1.288,"hacin_class":"Hacinamiento Leve","hacin_score":789.7,"auto_score":181.8,"n_per":67,"n_hog":22,"source_year":2024,"crime_score":0.1724,"crime_nivel":"Bajo","crime_color":"#cddc39"},"geometry":{"type":"Polygon","coordinates":[[[-73.6517874499999,-42.3703854050605],[-73.652854509,-42.3708317330605],[-73.6530865739999,-42.3705598470605],[-73.6520809509999,-42.3701711900605],[-73.6517874499999,-42.3703854050605]]]}},{"type":"Feature","properties":{"id":"10205013026008","commune":"Dalcahue","code":"10205","gse":"E","quintil":"Q1","nse_score":584.1,"educ":9.4,"educ_score":426.7,"hacin":1.5,"hacin_class":"Hacinamiento Medio","hacin_score":744.7,"auto_score":200.0,"n_per":30,"n_hog":9,"source_year":2024,"crime_score":0.1759,"crime_nivel":"Bajo","crime_color":"#cddc39"},"geometry":{"type":"Polygon","coordinates":[[[-73.6532058179999,-42.3705533620605],[-73.6538797569999,-42.3707252720605],[-73.6538992229999,-42.3704498560605],[-73.6533855779999,-42.3702965500605],[-73.6532058179999,-42.3705533620605]]]}},{"type":"Feature","properties":{"id":"10205013026009","commune":"Dalcahue","code":"10205","gse":"D","quintil":"Q1","nse_score":642.6,"educ":9.8,"educ_score":453.3,"hacin":1.345,"hacin_class":"Hacinamiento Leve","hacin_score":777.6,"auto_score":120.0,"n_per":74,"n_hog":25,"source_year":2024,"crime_score":0.1743,"crime_nivel":"Bajo","crime_color":"#cddc39"},"geometry":{"type":"Polygon","coordinates":[[[-73.6514365789999,-42.3706590200605],[-73.6524926889999,-42.3711248760605],[-73.6528238289999,-42.3708606910605],[-73.6517533829999,-42.3704119690605],[-73.6514365789999,-42.3706590200605]]]}},{"type":"Feature","properties":{"id":"10205013026010","commune":"Dalcahue","code":"10205","gse":"D","quintil":"Q1","nse_score":621.6,"educ":10.2,"educ_score":480.0,"hacin":1.538,"hacin_class":"Hacinamiento Medio","hacin_score":736.5,"auto_score":173.9,"n_per":60,"n_hog":21,"source_year":2024,"crime_score":0.175,"crime_nivel":"Bajo","crime_color":"#cddc39"},"geometry":{"type":"Polygon","coordinates":[[[-73.6529454459999,-42.3708596700605],[-73.6537551409999,-42.3710958060605],[-73.6538723179999,-42.3707614640605],[-73.6531797289999,-42.3705851840605],[-73.6529454459999,-42.3708596700605]]]}},{"type":"Feature","properties":{"id":"10205013026011","commune":"Dalcahue","code":"10205","gse":"C3","quintil":"Q2","nse_score":668.1,"educ":10.5,"educ_score":500.0,"hacin":1.426,"hacin_class":"Hacinamiento Leve","hacin_score":760.4,"auto_score":166.7,"n_per":87,"n_hog":30,"source_year":2024,"crime_score":0.1729,"crime_nivel":"Bajo","crime_color":"#cddc39"},"geometry":{"type":"Polygon","coordinates":[[[-73.6511296829999,-42.3709378100605],[-73.6522312849999,-42.3714329880605],[-73.6524609179999,-42.3711525820605],[-73.6514036239999,-42.3706863260605],[-73.6511296829999,-42.3709378100605]]]}},{"type":"Feature","properties":{"id":"10205013026012","commune":"Dalcahue","code":"10205","gse":"D","quintil":"Q2","nse_score":660.1,"educ":10.6,"educ_score":506.7,"hacin":1.34,"hacin_class":"Hacinamiento Leve","hacin_score":778.6,"auto_score":119.0,"n_per":63,"n_hog":21,"source_year":2024,"crime_score":0.1717,"crime_nivel":"Bajo","crime_color":"#cddc39"},"geometry":{"type":"Polygon","coordinates":[[[-73.6532730199999,-42.3714721670605],[-73.6535122469999,-42.3714377860605],[-73.6537375319999,-42.3711293600605],[-73.6529173359999,-42.3708903760605],[-73.6525833899999,-42.3711569040605],[-73.6532730199999,-42.3714721670605]]]}},{"type":"Feature","properties":{"id":"10205013026013","commune":"Dalcahue","code":"10205","gse":"C3","quintil":"Q2","nse_score":668.9,"educ":11.1,"educ_score":540.0,"hacin":1.443,"hacin_class":"Hacinamiento Leve","hacin_score":756.9,"auto_score":177.4,"n_per":88,"n_hog":29,"source_year":2024,"crime_score":0.173,"crime_nivel":"Bajo","crime_color":"#cddc39"},"geometry":{"type":"Polygon","coordinates":[[[-73.6509479219999,-42.3712499220605],[-73.6520021999999,-42.3717097510605],[-73.6522059169999,-42.3714636360605],[-73.6511058729999,-42.3709691580605],[-73.6509479219999,-42.3712499220605]]]}},{"type":"Feature","properties":{"id":"10205013026002","commune":"Dalcahue","code":"10205","gse":"E","quintil":"Q1","nse_score":610.8,"educ":9.8,"educ_score":453.3,"hacin":1.079,"hacin_class":"Hacinamiento Leve","hacin_score":834.3,"auto_score":41.7,"n_per":41,"n_hog":22,"source_year":2024,"crime_score":0.1744,"crime_nivel":"Bajo","crime_color":"#cddc39"},"geometry":{"type":"MultiPolygon","coordinates":[[[[-73.652303146,-42.3694702310605],[-73.6523840359999,-42.3688792560605],[-73.6518079119999,-42.3689639970605],[-73.6518068009999,-42.3692439240605],[-73.6520293659999,-42.3693210880605],[-73.652303146,-42.3694702310605]]],[[[-73.6501222609999,-42.3682997940605],[-73.6501177259999,-42.3685190290605],[-73.6506032799999,-42.3688429390605],[-73.6509527119999,-42.3689220100605],[-73.6510299969999,-42.3694287650605],[-73.6515688559999,-42.3696298200605],[-73.6523132439999,-42.3696926540605],[-73.6523171409999,-42.3694890430605],[-73.6517884539999,-42.3692561720605],[-73.6517280779999,-42.3690970000605],[-73.6517490519999,-42.3690093910606],[-73.6518481059999,-42.3689071900606],[-73.6523885069999,-42.3688611870605],[-73.6523732029999,-42.3683752000605],[-73.652312418,-42.3682756220605],[-73.6518278919999,-42.3683655760605],[-73.6517295069999,-42.3683506320605],[-73.6522952529999,-42.3682606140605],[-73.6512803819999,-42.3678127600605],[-73.6510138779999,-42.3674215330605],[-73.6507037749999,-42.3673805030605],[-73.6501222609999,-42.3682997940605]]]]}}]}