{"type":"FeatureCollection","features":[{"type":"Feature","properties":{"id":"16104011001001","commune":"El Carmen","code":"16104","gse":"C2","quintil":"Q3","nse_score":710.7,"educ":11.9,"educ_score":593.3,"hacin":1.5,"hacin_class":"Hacinamiento Medio","hacin_score":744.7,"auto_score":125.0,"n_per":9,"n_hog":4,"source_year":2024},"geometry":{"type":"Polygon","coordinates":[[[-72.0291200449999,-36.8914700100938],[-72.0288991179999,-36.8914813860938],[-72.0290131859999,-36.8917799840938],[-72.0300573259999,-36.8924202170938],[-72.0301219409999,-36.8919815340938],[-72.0302480689999,-36.8918526220938],[-72.0304633069999,-36.8918386650938],[-72.0301932269999,-36.8919632330938],[-72.0314718299999,-36.8919765240938],[-72.0315160979999,-36.8918091530938],[-72.0314947959999,-36.8920164240938],[-72.0301588259999,-36.8920028770938],[-72.0300944019999,-36.8924431140938],[-72.0303437989999,-36.8927920240938],[-72.0303386699999,-36.8937628790938],[-72.0311543859999,-36.8940364790938],[-72.0318727719999,-36.8944454960938],[-72.0323380859999,-36.8906192940938],[-72.031237373,-36.8914523430938],[-72.0298309889999,-36.8917010190938],[-72.0293933529999,-36.8916855630938],[-72.0291200449999,-36.8914700100938]]]}},{"type":"Feature","properties":{"id":"16104011001002","commune":"El Carmen","code":"16104","gse":"C3","quintil":"Q2","nse_score":665.9,"educ":10.4,"educ_score":493.3,"hacin":1.193,"hacin_class":"Hacinamiento Leve","hacin_score":810.0,"auto_score":148.2,"n_per":538,"n_hog":189,"source_year":2024},"geometry":{"type":"Polygon","coordinates":[[[-72.006034945,-36.8932905670938],[-72.0063473439999,-36.8961896530938],[-72.0095440609999,-36.8960636230937],[-72.0094111099999,-36.8952173460938],[-72.0095851699999,-36.8960649590938],[-72.0108534459999,-36.8961250550937],[-72.0104824149999,-36.8946007350938],[-72.0108957029999,-36.8961280800937],[-72.0116578969999,-36.8961892550938],[-72.0113815009999,-36.8948830930938],[-72.0116168999999,-36.8947563900938],[-72.0113881039999,-36.8938226560938],[-72.0116600289999,-36.8947619330938],[-72.0114247369999,-36.8948915360938],[-72.0117077129999,-36.8961939960938],[-72.0131625039999,-36.8964008370938],[-72.0129027449999,-36.8942539370938],[-72.0134136179999,-36.8941369450938],[-72.0133201659999,-36.8935544620938],[-72.013055758,-36.8935905530938],[-72.0133138279999,-36.8935149560938],[-72.0130934079999,-36.8921410840938],[-72.0131168009999,-36.8919699420938],[-72.0134518809999,-36.8941229290938],[-72.0140142769999,-36.8940526810938],[-72.0129439369999,-36.8942734420938],[-72.0131391389999,-36.8959767300937],[-72.0142797669999,-36.8959806720938],[-72.0131486009999,-36.8960157620938],[-72.0132020909999,-36.8964077360938],[-72.0174306099999,-36.8970493430937],[-72.0175455589999,-36.8959319110938],[-72.0152958419999,-36.8958210490938],[-72.0150630659999,-36.8938922860938],[-72.0140661969999,-36.8939937900938],[-72.0135793499999,-36.8912279870938],[-72.0131926619999,-36.8914615600938],[-72.0128648559999,-36.8921539290938],[-72.0125328089999,-36.8922897520938],[-72.012724181,-36.8934227190938],[-72.0095737739999,-36.8941651110938],[-72.0092979709999,-36.8929382680938],[-72.006034945,-36.8932905670938]]]}},{"type":"Feature","properties":{"id":"16104011001003","commune":"El Carmen","code":"16104","gse":"C2","quintil":"Q4","nse_score":747.3,"educ":11.6,"educ_score":573.3,"hacin":1.103,"hacin_class":"Hacinamiento Leve","hacin_score":829.2,"auto_score":76.9,"n_per":43,"n_hog":13,"source_year":2024},"geometry":{"type":"Polygon","coordinates":[[[-72.0267922009999,-36.8943456880938],[-72.0275281739999,-36.8941620080938],[-72.0285709909999,-36.8934537030938],[-72.0289553939999,-36.8934317850938],[-72.0302596799999,-36.8937305460937],[-72.0302734529999,-36.8930374350938],[-72.0282047669999,-36.8929304630938],[-72.030273329,-36.8929973640938],[-72.0302424629999,-36.8926991440938],[-72.0293772349999,-36.8921035090938],[-72.0289628229999,-36.8920783100938],[-72.0293275179999,-36.8920733880938],[-72.0289061629999,-36.8917815840938],[-72.028818553,-36.8914855340938],[-72.0277059949999,-36.8915428140938],[-72.0274958749999,-36.8940604140938],[-72.0267922009999,-36.8943456880938]]]}},{"type":"Feature","properties":{"id":"16104011001004","commune":"El Carmen","code":"16104","gse":"C3","quintil":"Q3","nse_score":679.9,"educ":9.5,"educ_score":433.3,"hacin":1.316,"hacin_class":"Hacinamiento Leve","hacin_score":783.9,"auto_score":214.3,"n_per":25,"n_hog":7,"source_year":2024},"geometry":{"type":"Polygon","coordinates":[[[-72.0250660439999,-36.8931332720938],[-72.0254251809999,-36.8935416300938],[-72.0257009439999,-36.8936309800938],[-72.0258588799999,-36.8923558360938],[-72.0257702439999,-36.8936404360938],[-72.0261903369999,-36.8936981790938],[-72.026239615,-36.8919488420938],[-72.0251100169999,-36.8922390240938],[-72.0250660439999,-36.8931332720938]]]}},{"type":"Feature","properties":{"id":"16104011001005","commune":"El Carmen","code":"16104","gse":"C3","quintil":"Q3","nse_score":685.3,"educ":11.1,"educ_score":540.0,"hacin":1.203,"hacin_class":"Hacinamiento Leve","hacin_score":807.9,"auto_score":259.6,"n_per":267,"n_hog":100,"source_year":2024},"geometry":{"type":"Polygon","coordinates":[[[-72.0166032479999,-36.8925676590938],[-72.0159806189999,-36.8924670740938],[-72.0163790329999,-36.8952215910938],[-72.0152987239999,-36.8952676700938],[-72.0153638649999,-36.8957791070938],[-72.0175453429999,-36.8957939840938],[-72.0175830839999,-36.8948462330938],[-72.0167348849999,-36.8947688650938],[-72.0175850429999,-36.8948162950938],[-72.0178460409999,-36.8921441710938],[-72.0176183849999,-36.8952866590938],[-72.0181273859999,-36.8952346140938],[-72.0182301969999,-36.8934566300938],[-72.0191137579999,-36.8934077860938],[-72.0196765789999,-36.8934105630938],[-72.018243492,-36.8934721990938],[-72.0181465129999,-36.8952420400937],[-72.0176178139999,-36.8953067040938],[-72.0176040069999,-36.8958470490938],[-72.0191804509999,-36.8959049400937],[-72.0192251789999,-36.8943909410938],[-72.0183088459999,-36.8944402340938],[-72.0185565729999,-36.8943872250938],[-72.0185702299999,-36.8935372740938],[-72.0183544749999,-36.8935246650937],[-72.0185872189999,-36.8935102140938],[-72.0185902499999,-36.8943851020938],[-72.0192654549999,-36.8943681300938],[-72.0192204519999,-36.8959055100937],[-72.0207483529999,-36.8959267590938],[-72.020961472,-36.8922851740938],[-72.0204320589999,-36.8921079100938],[-72.0193112439999,-36.8922890080938],[-72.0178643829999,-36.8920301590938],[-72.0169467059999,-36.8922442180938],[-72.0166032479999,-36.8925676590938]]]}},{"type":"Feature","properties":{"id":"16104011001007","commune":"El Carmen","code":"16104","gse":"C1","quintil":"Q5","nse_score":772.5,"educ":13.2,"educ_score":680.0,"hacin":1.016,"hacin_class":"Hacinamiento Leve","hacin_score":847.7,"auto_score":230.8,"n_per":129,"n_hog":51,"source_year":2024},"geometry":{"type":"Polygon","coordinates":[[[-72.0209031239999,-36.8942141550938],[-72.0207884169999,-36.8959276540937],[-72.0223513759999,-36.8959627310938],[-72.0223978829999,-36.8953828090938],[-72.0224006419999,-36.8959643190937],[-72.0239483969999,-36.8959980700938],[-72.0239951329999,-36.8950517860938],[-72.0234823879999,-36.8950128980938],[-72.0239989449999,-36.8950171890937],[-72.0240068079999,-36.8946849500938],[-72.0235620039999,-36.8946489580938],[-72.0240136629999,-36.8946494920938],[-72.0240461879999,-36.8944133230938],[-72.0240055689999,-36.8959993370937],[-72.0255112499999,-36.8960383020938],[-72.0257009439999,-36.8936309800938],[-72.0254251809999,-36.8935416300938],[-72.0250660439999,-36.8931332720938],[-72.0250021989999,-36.8944316100937],[-72.0209031239999,-36.8942141550938]]]}},{"type":"Feature","properties":{"id":"16104011001008","commune":"El Carmen","code":"16104","gse":"C3","quintil":"Q2","nse_score":671.8,"educ":10.6,"educ_score":506.7,"hacin":1.158,"hacin_class":"Hacinamiento Leve","hacin_score":817.5,"auto_score":114.1,"n_per":220,"n_hog":86,"source_year":2024},"geometry":{"type":"Polygon","coordinates":[[[-72.0267922009999,-36.8943456880938],[-72.0261728939999,-36.8943173960938],[-72.0261903369999,-36.8936981790938],[-72.0257702439999,-36.8936404360938],[-72.0255983589999,-36.8960398170937],[-72.02865263,-36.8960945630938],[-72.0287652989999,-36.8962158940938],[-72.0287663089999,-36.8973379410937],[-72.0302109289999,-36.8973643930937],[-72.0302330549999,-36.8951627010938],[-72.0294708079999,-36.8951220520938],[-72.0302320309999,-36.8951124670938],[-72.0302370669999,-36.8947963480938],[-72.0294407469999,-36.8947943170938],[-72.0302384049999,-36.8947508710938],[-72.0302450409999,-36.8944597340938],[-72.0293685789999,-36.8944468680938],[-72.0302455809999,-36.8944255960938],[-72.0302596799999,-36.8937305460937],[-72.0289553939999,-36.8934317850938],[-72.0285709909999,-36.8934537030938],[-72.0275281739999,-36.8941620080938],[-72.0267922009999,-36.8943456880938]]]}},{"type":"Feature","properties":{"id":"16104011001009","commune":"El Carmen","code":"16104","gse":"C3","quintil":"Q3","nse_score":689.2,"educ":10.5,"educ_score":500.0,"hacin":1.134,"hacin_class":"Hacinamiento Leve","hacin_score":822.5,"auto_score":137.5,"n_per":211,"n_hog":80,"source_year":2024},"geometry":{"type":"Polygon","coordinates":[[[-72.0325986239999,-36.8957440520938],[-72.0317598689999,-36.8957070010938],[-72.0318727719999,-36.8944454960938],[-72.0311543859999,-36.8940364790938],[-72.0303386699999,-36.8937628790938],[-72.0303210779999,-36.8946977500938],[-72.0306825749999,-36.8946942080938],[-72.0307385049999,-36.8945597280938],[-72.0307219159999,-36.8956330420937],[-72.0311010089999,-36.8956317950938],[-72.031093187,-36.8948495280938],[-72.0315439889999,-36.8948427120938],[-72.0315844649999,-36.8956754750938],[-72.0303239869999,-36.8956966580938],[-72.0302937799999,-36.8961602880937],[-72.0325476659999,-36.8961416600938],[-72.0325986239999,-36.8957440520938]]]}},{"type":"Feature","properties":{"id":"16104011001010","commune":"El Carmen","code":"16104","gse":"C1","quintil":"Q5","nse_score":783.2,"educ":12.9,"educ_score":660.0,"hacin":1.281,"hacin_class":"Hacinamiento Leve","hacin_score":791.2,"auto_score":318.2,"n_per":41,"n_hog":11,"source_year":2024},"geometry":{"type":"Polygon","coordinates":[[[-72.002863208,-36.8960016500938],[-72.0029901199999,-36.8966547310938],[-72.0063073829999,-36.8961921600938],[-72.0061509999999,-36.8947409380938],[-72.004902495,-36.8945220610937],[-72.0044490899999,-36.8950371980938],[-72.002863208,-36.8960016500938]]]}},{"type":"Feature","properties":{"id":"16104011001011","commune":"El Carmen","code":"16104","gse":"C3","quintil":"Q2","nse_score":664.7,"educ":10.6,"educ_score":506.7,"hacin":1.109,"hacin_class":"Hacinamiento Leve","hacin_score":827.9,"auto_score":136.4,"n_per":51,"n_hog":20,"source_year":2024},"geometry":{"type":"Polygon","coordinates":[[[-72.0303076119999,-36.8956397370938],[-72.0306665809999,-36.8956375850938],[-72.0306859799999,-36.8947276240938],[-72.0303200669999,-36.8947248220938],[-72.0303076119999,-36.8956397370938]]]}},{"type":"Feature","properties":{"id":"16104011001012","commune":"El Carmen","code":"16104","gse":"C3","quintil":"Q2","nse_score":677.4,"educ":9.4,"educ_score":426.7,"hacin":1.019,"hacin_class":"Hacinamiento Leve","hacin_score":847.0,"auto_score":184.2,"n_per":53,"n_hog":19,"source_year":2024},"geometry":{"type":"Polygon","coordinates":[[[-72.0315066229999,-36.8955828300938],[-72.0315058769999,-36.8948749660937],[-72.0311521119999,-36.8948737800938],[-72.0311507579999,-36.8956331500937],[-72.0315066229999,-36.8955828300938]]]}},{"type":"Feature","properties":{"id":"16104011001013","commune":"El Carmen","code":"16104","gse":"C1","quintil":"Q5","nse_score":771.5,"educ":13.4,"educ_score":693.3,"hacin":1.0,"hacin_class":"Hacinamiento Leve","hacin_score":851.1,"auto_score":236.1,"n_per":84,"n_hog":33,"source_year":2024},"geometry":{"type":"Polygon","coordinates":[[[-72.0359121469999,-36.8955534560938],[-72.0339484859999,-36.8964435430937],[-72.0338525579999,-36.8974111320938],[-72.0359697159999,-36.8974244030937],[-72.0360597449999,-36.8967637530938],[-72.0361656219999,-36.8968422140938],[-72.0376306719999,-36.8964221550937],[-72.0375832559999,-36.8970687730937],[-72.0382784409999,-36.8969138380937],[-72.0381847329999,-36.8961905550937],[-72.0380388969999,-36.8959347130937],[-72.0358989399999,-36.8963877580938],[-72.0347682389999,-36.8962776470937],[-72.0342718809999,-36.8963888680937],[-72.0347613519999,-36.8962415960937],[-72.0358935329999,-36.8963516560937],[-72.0380523169999,-36.8958924690938],[-72.0382289029999,-36.8961835250937],[-72.0383222739999,-36.8969040670937],[-72.0389392519999,-36.8967665210938],[-72.0383315149999,-36.8954077460938],[-72.0358685659999,-36.8959652210938],[-72.0359121469999,-36.8955534560938]]]}},{"type":"Feature","properties":{"id":"16104011001014","commune":"El Carmen","code":"16104","gse":"C2","quintil":"Q3","nse_score":708.9,"educ":10.9,"educ_score":526.7,"hacin":0.981,"hacin_class":"Sin Hacinamiento","hacin_score":855.1,"auto_score":20.8,"n_per":52,"n_hog":23,"source_year":2024},"geometry":{"type":"Polygon","coordinates":[[[-72.017489441,-36.8970732280938],[-72.0190966069999,-36.8971628540938],[-72.0191566279999,-36.8959962580938],[-72.0176689639999,-36.8959276460938],[-72.017489441,-36.8970732280938]]]}},{"type":"Feature","properties":{"id":"16104011001015","commune":"El Carmen","code":"16104","gse":"C3","quintil":"Q2","nse_score":673.0,"educ":11.3,"educ_score":553.3,"hacin":1.231,"hacin_class":"Hacinamiento Leve","hacin_score":802.0,"auto_score":166.7,"n_per":48,"n_hog":19,"source_year":2024},"geometry":{"type":"Polygon","coordinates":[[[-72.0191447849999,-36.8971456870937],[-72.0206553339999,-36.8971849390938],[-72.0207045529999,-36.8959856240938],[-72.0192279689999,-36.8959932300937],[-72.0191447849999,-36.8971456870937]]]}},{"type":"Feature","properties":{"id":"16104011001016","commune":"El Carmen","code":"16104","gse":"C3","quintil":"Q2","nse_score":673.8,"educ":10.9,"educ_score":526.7,"hacin":0.956,"hacin_class":"Sin Hacinamiento","hacin_score":860.5,"auto_score":0.0,"n_per":43,"n_hog":20,"source_year":2024},"geometry":{"type":"Polygon","coordinates":[[[-72.0207527089999,-36.8972043070937],[-72.0222785059999,-36.8972182760937],[-72.0223448829999,-36.8960434090938],[-72.0208009279999,-36.8960040550938],[-72.0207527089999,-36.8972043070937]]]}},{"type":"Feature","properties":{"id":"16104011001017","commune":"El Carmen","code":"16104","gse":"D","quintil":"Q2","nse_score":652.4,"educ":10.5,"educ_score":500.0,"hacin":0.984,"hacin_class":"Sin Hacinamiento","hacin_score":854.6,"auto_score":100.0,"n_per":60,"n_hog":25,"source_year":2024},"geometry":{"type":"Polygon","coordinates":[[[-72.0238314939999,-36.8972536610937],[-72.0239366699999,-36.8960578660938],[-72.0224117779999,-36.8960246800937],[-72.0223654039999,-36.8972252400938],[-72.0238314939999,-36.8972536610937]]]}},{"type":"Feature","properties":{"id":"16104011001020","commune":"El Carmen","code":"16104","gse":"C3","quintil":"Q2","nse_score":668.1,"educ":10.6,"educ_score":506.7,"hacin":1.086,"hacin_class":"Hacinamiento Leve","hacin_score":832.8,"auto_score":163.9,"n_per":431,"n_hog":172,"source_year":2024},"geometry":{"type":"Polygon","coordinates":[[[-72.0091104859999,-36.8965060570938],[-72.0088822459999,-36.9019194860937],[-72.0105181089999,-36.9017466010937],[-72.0104212509999,-36.8988248620937],[-72.0115120079999,-36.8988651730937],[-72.0115639289999,-36.8976576310938],[-72.0126391809999,-36.8976187660937],[-72.0126780459999,-36.8982146890937],[-72.0156706139999,-36.8985515150937],[-72.0190033869999,-36.8984704520937],[-72.0190918959999,-36.8972430220938],[-72.0172285899999,-36.8971982110937],[-72.0154213959999,-36.8968723040938],[-72.0156607129999,-36.8981838120938],[-72.0153762579999,-36.8968665980937],[-72.0136660969999,-36.8965720540938],[-72.0136030619999,-36.8971931110937],[-72.0136364389999,-36.8965663690937],[-72.0124185699999,-36.8963594670938],[-72.0123739969999,-36.8969870820938],[-72.0123887149999,-36.8963555140938],[-72.0118236989999,-36.8962829390938],[-72.0117506449999,-36.8974531450937],[-72.0111552459999,-36.8975950060938],[-72.0111093739999,-36.8987717590937],[-72.0110142039999,-36.8986606100937],[-72.0107115279999,-36.8986556420937],[-72.0106049279999,-36.8987831810937],[-72.0106974809999,-36.8961945440938],[-72.0098719329999,-36.8961563330938],[-72.0098899579999,-36.8967240610937],[-72.0095805709999,-36.9015152970937],[-72.0098238869999,-36.8961545580937],[-72.0087682769999,-36.8961211110938],[-72.0086687219999,-36.8962849640938],[-72.0091104859999,-36.8965060570938]]]}},{"type":"Feature","properties":{"id":"16104011001021","commune":"El Carmen","code":"16104","gse":"D","quintil":"Q2","nse_score":657.6,"educ":10.0,"educ_score":466.7,"hacin":1.358,"hacin_class":"Hacinamiento Leve","hacin_score":775.0,"auto_score":134.6,"n_per":167,"n_hog":52,"source_year":2024},"geometry":{"type":"Polygon","coordinates":[[[-72.0053931849999,-36.9029354310937],[-72.005804156,-36.9018602070937],[-72.0060249829999,-36.9008399360937],[-72.0055636569999,-36.9016866700937],[-72.0060616279999,-36.9006482760937],[-72.0087082449999,-36.8961213700938],[-72.0078052699999,-36.8961641410937],[-72.0077553409999,-36.8971055240937],[-72.0077750489999,-36.8961660950938],[-72.0065377489999,-36.8962576960938],[-72.0058538349999,-36.8978442670937],[-72.0073565149999,-36.8979703690937],[-72.0058309329999,-36.8978972750937],[-72.0047002779999,-36.9005330220937],[-72.0045267349999,-36.9031101940937],[-72.0046772439999,-36.9005886600937],[-72.0038740909999,-36.9025453790937],[-72.0039655389999,-36.9025551960937],[-72.0043168749999,-36.9029621330937],[-72.0040799529999,-36.9028464740937],[-72.0039335389999,-36.9025838020937],[-72.0038294779999,-36.9026518500937],[-72.0039186659999,-36.9031563460937],[-72.0043501399999,-36.9033024030937],[-72.0051083889999,-36.9031368080937],[-72.0053931849999,-36.9029354310937]]]}},{"type":"Feature","properties":{"id":"16104011001022","commune":"El Carmen","code":"16104","gse":"C1","quintil":"Q5","nse_score":770.3,"educ":12.6,"educ_score":640.0,"hacin":0.703,"hacin_class":"Sin Hacinamiento","hacin_score":914.3,"auto_score":100.0,"n_per":26,"n_hog":10,"source_year":2024},"geometry":{"type":"Polygon","coordinates":[[[-72.0286270969999,-36.8973393950938],[-72.0286929239999,-36.8961700230938],[-72.0271871209999,-36.8961343910938],[-72.027144888,-36.8973129230938],[-72.0286270969999,-36.8973393950938]]]}},{"type":"Feature","properties":{"id":"16104011001024","commune":"El Carmen","code":"16104","gse":"C2","quintil":"Q4","nse_score":768.9,"educ":12.5,"educ_score":633.3,"hacin":1.1,"hacin_class":"Hacinamiento Leve","hacin_score":829.8,"auto_score":166.7,"n_per":66,"n_hog":24,"source_year":2024},"geometry":{"type":"Polygon","coordinates":[[[-72.0325399669999,-36.8962017250937],[-72.0302978989999,-36.8962097410938],[-72.0302909199999,-36.8973654610937],[-72.0323884819999,-36.8973837060937],[-72.0325399669999,-36.8962017250937]]]}},{"type":"Feature","properties":{"id":"16104011001026","commune":"El Carmen","code":"16104","gse":"C3","quintil":"Q3","nse_score":695.0,"educ":11.1,"educ_score":540.0,"hacin":1.29,"hacin_class":"Hacinamiento Leve","hacin_score":789.5,"auto_score":131.6,"n_per":49,"n_hog":17,"source_year":2024},"geometry":{"type":"Polygon","coordinates":[[[-72.0117536259999,-36.8964263490938],[-72.0107501319999,-36.8964128200938],[-72.0107396219999,-36.8967236550938],[-72.0117309779999,-36.8967534310937],[-72.0117536259999,-36.8964263490938]]]}},{"type":"Feature","properties":{"id":"16104011001027","commune":"El Carmen","code":"16104","gse":"C1","quintil":"Q5","nse_score":773.3,"educ":12.7,"educ_score":646.7,"hacin":0.854,"hacin_class":"Sin Hacinamiento","hacin_score":882.1,"auto_score":250.0,"n_per":41,"n_hog":20,"source_year":2024},"geometry":{"type":"Polygon","coordinates":[[[-72.0360883139999,-36.8968963340938],[-72.0360106569999,-36.8974208810938],[-72.0375417339999,-36.8970781780938],[-72.0376135449999,-36.8965386130938],[-72.0360883139999,-36.8968963340938]]]}},{"type":"Feature","properties":{"id":"16104011001028","commune":"El Carmen","code":"16104","gse":"C3","quintil":"Q2","nse_score":668.8,"educ":11.0,"educ_score":533.3,"hacin":1.075,"hacin_class":"Hacinamiento Leve","hacin_score":835.1,"auto_score":75.0,"n_per":43,"n_hog":15,"source_year":2024},"geometry":{"type":"Polygon","coordinates":[[[-72.0107275829999,-36.8970797170938],[-72.0117062699999,-36.8971102670938],[-72.0117282129999,-36.8967933660937],[-72.0107382699999,-36.8967636330937],[-72.0107275829999,-36.8970797170938]]]}},{"type":"Feature","properties":{"id":"16104011001031","commune":"El Carmen","code":"16104","gse":"C2","quintil":"Q3","nse_score":708.3,"educ":12.0,"educ_score":600.0,"hacin":0.954,"hacin_class":"Sin Hacinamiento","hacin_score":861.0,"auto_score":200.0,"n_per":41,"n_hog":18,"source_year":2024},"geometry":{"type":"Polygon","coordinates":[[[-72.0107306379999,-36.8974260170937],[-72.0116636769999,-36.8974362850937],[-72.0116959089999,-36.8971834460937],[-72.0107393419999,-36.8971370500937],[-72.0107306379999,-36.8974260170937]]]}},{"type":"Feature","properties":{"id":"16104011001034","commune":"El Carmen","code":"16104","gse":"C3","quintil":"Q2","nse_score":672.0,"educ":10.8,"educ_score":520.0,"hacin":1.077,"hacin_class":"Hacinamiento Leve","hacin_score":834.7,"auto_score":113.6,"n_per":56,"n_hog":21,"source_year":2024},"geometry":{"type":"Polygon","coordinates":[[[-72.0205733339999,-36.8985014200937],[-72.0206429579999,-36.8972824850938],[-72.019145105,-36.8972699480937],[-72.0190665329999,-36.8984565850938],[-72.0205733339999,-36.8985014200937]]]}},{"type":"Feature","properties":{"id":"16104011001036","commune":"El Carmen","code":"16104","gse":"C3","quintil":"Q3","nse_score":684.7,"educ":11.5,"educ_score":566.7,"hacin":1.016,"hacin_class":"Hacinamiento Leve","hacin_score":847.7,"auto_score":37.0,"n_per":65,"n_hog":27,"source_year":2024},"geometry":{"type":"Polygon","coordinates":[[[-72.0207008819999,-36.8985035500937],[-72.0222172549999,-36.8984934770937],[-72.0222878779999,-36.8973335430938],[-72.0207532869999,-36.8972843200937],[-72.0207008819999,-36.8985035500937]]]}},{"type":"Feature","properties":{"id":"16104011001037","commune":"El Carmen","code":"16104","gse":"D","quintil":"Q2","nse_score":657.0,"educ":11.0,"educ_score":533.3,"hacin":2.037,"hacin_class":"Hacinamiento Medio","hacin_score":630.4,"auto_score":0.0,"n_per":55,"n_hog":12,"source_year":2024},"geometry":{"type":"Polygon","coordinates":[[[-72.0237528619999,-36.8985512360937],[-72.0238538859999,-36.8973341430938],[-72.0223683339999,-36.8973078450938],[-72.0223038999999,-36.8985181860937],[-72.0237528619999,-36.8985512360937]]]}},{"type":"Feature","properties":{"id":"16104011001039","commune":"El Carmen","code":"16104","gse":"C1","quintil":"Q5","nse_score":779.8,"educ":12.8,"educ_score":653.3,"hacin":0.932,"hacin_class":"Sin Hacinamiento","hacin_score":865.6,"auto_score":0.0,"n_per":41,"n_hog":17,"source_year":2024},"geometry":{"type":"Polygon","coordinates":[[[-72.0269688569999,-36.8985931730937],[-72.0270591269999,-36.8973911080938],[-72.0255081169999,-36.8973643190938],[-72.0254032799999,-36.8985386730938],[-72.0269688569999,-36.8985931730937]]]}},{"type":"Feature","properties":{"id":"16104011001041","commune":"El Carmen","code":"16104","gse":"C2","quintil":"Q4","nse_score":750.5,"educ":12.2,"educ_score":613.3,"hacin":0.968,"hacin_class":"Sin Hacinamiento","hacin_score":857.8,"auto_score":108.7,"n_per":61,"n_hog":23,"source_year":2024},"geometry":{"type":"Polygon","coordinates":[[[-72.027105274,-36.8985862590938],[-72.0286338559999,-36.8986164780938],[-72.0286692269999,-36.8974201610938],[-72.0271534089999,-36.8974038470938],[-72.027105274,-36.8985862590938]]]}},{"type":"Feature","properties":{"id":"16104011001042","commune":"El Carmen","code":"16104","gse":"C3","quintil":"Q2","nse_score":661.6,"educ":10.8,"educ_score":520.0,"hacin":1.268,"hacin_class":"Hacinamiento Leve","hacin_score":794.1,"auto_score":134.6,"n_per":71,"n_hog":26,"source_year":2024},"geometry":{"type":"Polygon","coordinates":[[[-72.0287219779999,-36.8986325030937],[-72.0301729889999,-36.8986487740937],[-72.0301982269999,-36.8974441780937],[-72.0287637339999,-36.8974233500938],[-72.0287219779999,-36.8986325030937]]]}},{"type":"Feature","properties":{"id":"16104011001044","commune":"El Carmen","code":"16104","gse":"C3","quintil":"Q3","nse_score":699.9,"educ":11.4,"educ_score":560.0,"hacin":1.069,"hacin_class":"Hacinamiento Leve","hacin_score":836.3,"auto_score":31.2,"n_per":77,"n_hog":30,"source_year":2024},"geometry":{"type":"Polygon","coordinates":[[[-72.0302809769999,-36.8986339910937],[-72.0323513069999,-36.8986688120937],[-72.0324811069999,-36.8975000960937],[-72.0303133919999,-36.8974456580937],[-72.0302809769999,-36.8986339910937]]]}},{"type":"Feature","properties":{"id":"16104011001046","commune":"El Carmen","code":"16104","gse":"E","quintil":"Q1","nse_score":595.4,"educ":9.5,"educ_score":433.3,"hacin":1.235,"hacin_class":"Hacinamiento Leve","hacin_score":801.0,"auto_score":45.5,"n_per":21,"n_hog":8,"source_year":2024},"geometry":{"type":"Polygon","coordinates":[[[-72.0107457919999,-36.8985966310937],[-72.0110487599999,-36.8985467180937],[-72.0110255349999,-36.8974776540937],[-72.0107457789999,-36.8975336540937],[-72.0107457919999,-36.8985966310937]]]}},{"type":"Feature","properties":{"id":"16104011001048","commune":"El Carmen","code":"16104","gse":"E","quintil":"Q1","nse_score":371.5,"educ":0.0,"educ_score":0.0,"hacin":2.0,"hacin_class":"Hacinamiento Medio","hacin_score":638.3,"auto_score":0.0,"n_per":6,"n_hog":0,"source_year":2024},"geometry":{"type":"Polygon","coordinates":[[[-72.0355115349999,-36.8987107500938],[-72.0355352449999,-36.8975079300938],[-72.0342878189999,-36.8974993470938],[-72.0341670639999,-36.8986711070937],[-72.0355115349999,-36.8987107500938]]]}},{"type":"Feature","properties":{"id":"16104011001050","commune":"El Carmen","code":"16104","gse":"D","quintil":"Q1","nse_score":623.0,"educ":7.8,"educ_score":320.0,"hacin":1.031,"hacin_class":"Hacinamiento Leve","hacin_score":844.4,"auto_score":83.3,"n_per":33,"n_hog":12,"source_year":2024},"geometry":{"type":"Polygon","coordinates":[[[-72.034106317,-36.8980991750937],[-72.0341918609999,-36.8975480400938],[-72.0333340769999,-36.8975354170937],[-72.0332916119999,-36.8980840640937],[-72.034106317,-36.8980991750937]]]}},{"type":"Feature","properties":{"id":"16104011001055","commune":"El Carmen","code":"16104","gse":"E","quintil":"Q1","nse_score":587.7,"educ":8.6,"educ_score":373.3,"hacin":0.952,"hacin_class":"Sin Hacinamiento","hacin_score":861.2,"auto_score":0.0,"n_per":20,"n_hog":9,"source_year":2024},"geometry":{"type":"Polygon","coordinates":[[[-72.0324383959999,-36.8986858250937],[-72.033118021,-36.8986875030938],[-72.0332001279999,-36.8981466570937],[-72.0325038639999,-36.8981188520937],[-72.0324383959999,-36.8986858250937]]]}},{"type":"Feature","properties":{"id":"16104011001056","commune":"El Carmen","code":"16104","gse":"C3","quintil":"Q2","nse_score":673.8,"educ":9.9,"educ_score":460.0,"hacin":1.062,"hacin_class":"Hacinamiento Leve","hacin_score":837.8,"auto_score":269.2,"n_per":34,"n_hog":13,"source_year":2024},"geometry":{"type":"Polygon","coordinates":[[[-72.033236444,-36.8986808140937],[-72.0341098669999,-36.8986693350938],[-72.0341222759999,-36.8981436980938],[-72.0332701149999,-36.8981331290937],[-72.033236444,-36.8986808140937]]]}},{"type":"Feature","properties":{"id":"16104011001057","commune":"El Carmen","code":"16104","gse":"D","quintil":"Q2","nse_score":644.9,"educ":10.4,"educ_score":493.3,"hacin":1.05,"hacin_class":"Hacinamiento Leve","hacin_score":840.5,"auto_score":192.3,"n_per":148,"n_hog":64,"source_year":2024},"geometry":{"type":"Polygon","coordinates":[[[-72.0210344969999,-36.9045377430937],[-72.0216411559999,-36.9047411940937],[-72.0220211059999,-36.9046990040937],[-72.0220481719999,-36.9038407270937],[-72.0215572179999,-36.9038285010937],[-72.0215467109999,-36.9044146810937],[-72.0214645989999,-36.9044887910937],[-72.0215269059999,-36.9030087610937],[-72.0215578579999,-36.9037924720937],[-72.022049438,-36.9038047140937],[-72.0221616139999,-36.8998242460937],[-72.0206700089999,-36.8997921890937],[-72.0206374519999,-36.9029420720937],[-72.0205326239999,-36.9011092460937],[-72.0206151659999,-36.8985622490938],[-72.0190797629999,-36.8985322370937],[-72.0189897929999,-36.8991980290937],[-72.019049633,-36.8985316480938],[-72.0181571639999,-36.8985005900937],[-72.0181435249999,-36.8994711560937],[-72.0199198029999,-36.8995490380937],[-72.0199402369999,-36.9038626070937],[-72.0210598289999,-36.9038241360937],[-72.0210344969999,-36.9045377430937]]]}},{"type":"Feature","properties":{"id":"16104011001058","commune":"El Carmen","code":"16104","gse":"D","quintil":"Q2","nse_score":649.1,"educ":11.3,"educ_score":553.3,"hacin":0.75,"hacin_class":"Sin Hacinamiento","hacin_score":904.3,"auto_score":65.2,"n_per":36,"n_hog":19,"source_year":2024},"geometry":{"type":"Polygon","coordinates":[[[-72.0220824159999,-36.8997527540938],[-72.0221766629999,-36.8985817350937],[-72.0206925319999,-36.8985690650937],[-72.0206848889999,-36.8997149230937],[-72.0220824159999,-36.8997527540938]]]}},{"type":"Feature","properties":{"id":"16104011001059","commune":"El Carmen","code":"16104","gse":"C2","quintil":"Q3","nse_score":713.4,"educ":11.4,"educ_score":560.0,"hacin":1.036,"hacin_class":"Hacinamiento Leve","hacin_score":843.3,"auto_score":181.8,"n_per":57,"n_hog":22,"source_year":2024},"geometry":{"type":"Polygon","coordinates":[[[-72.0237339189999,-36.8998051610937],[-72.0238168529999,-36.8986358390938],[-72.0223009679999,-36.8986096670938],[-72.0222570749999,-36.8997610250937],[-72.0237339189999,-36.8998051610937]]]}},{"type":"Feature","properties":{"id":"16104011001060","commune":"El Carmen","code":"16104","gse":"C1","quintil":"Q5","nse_score":793.5,"educ":12.7,"educ_score":646.7,"hacin":1.037,"hacin_class":"Hacinamiento Leve","hacin_score":843.2,"auto_score":227.3,"n_per":28,"n_hog":11,"source_year":2024},"geometry":{"type":"Polygon","coordinates":[[[-72.0252311859999,-36.8998536610937],[-72.0253236989999,-36.8986336380937],[-72.0238730719999,-36.8986256420938],[-72.0238806279999,-36.8998095020937],[-72.0252311859999,-36.8998536610937]]]}},{"type":"Feature","properties":{"id":"16104011001061","commune":"El Carmen","code":"16104","gse":"C3","quintil":"Q2","nse_score":663.5,"educ":9.9,"educ_score":460.0,"hacin":0.882,"hacin_class":"Sin Hacinamiento","hacin_score":876.1,"auto_score":138.9,"n_per":45,"n_hog":18,"source_year":2024},"geometry":{"type":"Polygon","coordinates":[[[-72.0254313719999,-36.8986441710937],[-72.0254238619999,-36.8998645480937],[-72.0261898169999,-36.8998793600937],[-72.0262170659999,-36.8995538830937],[-72.0262323119999,-36.8998801200937],[-72.0269564589999,-36.8998908830937],[-72.0270182099999,-36.8986931240937],[-72.0254313719999,-36.8986441710937]]]}},{"type":"Feature","properties":{"id":"16104011001062","commune":"El Carmen","code":"16104","gse":"D","quintil":"Q1","nse_score":629.1,"educ":10.2,"educ_score":480.0,"hacin":0.946,"hacin_class":"Sin Hacinamiento","hacin_score":862.7,"auto_score":43.5,"n_per":52,"n_hog":21,"source_year":2024},"geometry":{"type":"Polygon","coordinates":[[[-72.0285374359999,-36.8999366990938],[-72.0286447499999,-36.8987101020937],[-72.0271044259999,-36.8986992570937],[-72.0270641219999,-36.8999004800937],[-72.0285374359999,-36.8999366990938]]]}},{"type":"Feature","properties":{"id":"16104011001063","commune":"El Carmen","code":"16104","gse":"C2","quintil":"Q4","nse_score":737.4,"educ":11.6,"educ_score":573.3,"hacin":0.87,"hacin_class":"Sin Hacinamiento","hacin_score":878.7,"auto_score":111.1,"n_per":87,"n_hog":36,"source_year":2024},"geometry":{"type":"Polygon","coordinates":[[[-72.0299661989999,-36.9012163350937],[-72.0301995389999,-36.8987252470938],[-72.0287223169999,-36.8986936810937],[-72.0285512979999,-36.9011815690937],[-72.0299661989999,-36.9012163350937]]]}},{"type":"Feature","properties":{"id":"16104011001065","commune":"El Carmen","code":"16104","gse":"C2","quintil":"Q4","nse_score":728.0,"educ":11.2,"educ_score":546.7,"hacin":0.938,"hacin_class":"Sin Hacinamiento","hacin_score":864.4,"auto_score":0.0,"n_per":15,"n_hog":6,"source_year":2024},"geometry":{"type":"Polygon","coordinates":[[[-72.0324974989999,-36.8987527040937],[-72.0324053349999,-36.8992833490937],[-72.0331190369999,-36.8992965100937],[-72.0331499579999,-36.8987606150938],[-72.0324974989999,-36.8987527040937]]]}},{"type":"Feature","properties":{"id":"16104011001066","commune":"El Carmen","code":"16104","gse":"D","quintil":"Q1","nse_score":617.1,"educ":8.6,"educ_score":373.3,"hacin":1.118,"hacin_class":"Hacinamiento Leve","hacin_score":826.0,"auto_score":133.3,"n_per":38,"n_hog":15,"source_year":2024},"geometry":{"type":"Polygon","coordinates":[[[-72.0331755669999,-36.8993002610937],[-72.0340447139999,-36.8992988580938],[-72.0340857319999,-36.8987653130938],[-72.0332271499999,-36.8987615790937],[-72.0331755669999,-36.8993002610937]]]}},{"type":"Feature","properties":{"id":"16104011001067","commune":"El Carmen","code":"16104","gse":"C2","quintil":"Q4","nse_score":728.2,"educ":11.6,"educ_score":573.3,"hacin":1.204,"hacin_class":"Hacinamiento Leve","hacin_score":807.7,"auto_score":65.2,"n_per":65,"n_hog":23,"source_year":2024},"geometry":{"type":"Polygon","coordinates":[[[-72.0343702089999,-36.8995280990937],[-72.0344473679999,-36.8987893530937],[-72.0341678349999,-36.8987712970937],[-72.0340937229999,-36.8995202280937],[-72.0343702089999,-36.8995280990937]]]}},{"type":"Feature","properties":{"id":"16104011001068","commune":"El Carmen","code":"16104","gse":"C2","quintil":"Q4","nse_score":756.0,"educ":12.3,"educ_score":620.0,"hacin":1.037,"hacin_class":"Hacinamiento Leve","hacin_score":843.2,"auto_score":50.0,"n_per":56,"n_hog":20,"source_year":2024},"geometry":{"type":"Polygon","coordinates":[[[-72.0347126739999,-36.8995400800937],[-72.0347834959999,-36.8987905070937],[-72.0345073359999,-36.8987781840937],[-72.0344341109999,-36.8995287400937],[-72.0347126739999,-36.8995400800937]]]}},{"type":"Feature","properties":{"id":"16104011001069","commune":"El Carmen","code":"16104","gse":"C1","quintil":"Q5","nse_score":788.1,"educ":12.8,"educ_score":653.3,"hacin":1.0,"hacin_class":"Hacinamiento Leve","hacin_score":851.1,"auto_score":142.9,"n_per":19,"n_hog":7,"source_year":2024},"geometry":{"type":"Polygon","coordinates":[[[-72.035602019,-36.8995660490937],[-72.0355828529999,-36.8987873530937],[-72.0351568159999,-36.8987938080937],[-72.0351044149999,-36.8995569110937],[-72.035602019,-36.8995660490937]]]}},{"type":"Feature","properties":{"id":"16104011001070","commune":"El Carmen","code":"16104","gse":"C2","quintil":"Q4","nse_score":768.9,"educ":12.4,"educ_score":626.7,"hacin":1.037,"hacin_class":"Hacinamiento Leve","hacin_score":843.2,"auto_score":152.2,"n_per":56,"n_hog":23,"source_year":2024},"geometry":{"type":"Polygon","coordinates":[[[-72.0347732219999,-36.8995426900937],[-72.0350588579999,-36.8995443780937],[-72.0350977829999,-36.8987935540937],[-72.034829655,-36.8987850450938],[-72.0347732219999,-36.8995426900937]]]}},{"type":"Feature","properties":{"id":"16104011001071","commune":"El Carmen","code":"16104","gse":"D","quintil":"Q2","nse_score":647.5,"educ":8.6,"educ_score":373.3,"hacin":1.034,"hacin_class":"Hacinamiento Leve","hacin_score":843.9,"auto_score":25.0,"n_per":61,"n_hog":20,"source_year":2024},"geometry":{"type":"Polygon","coordinates":[[[-72.0329886409999,-36.8999491040937],[-72.0331075779999,-36.8993902750937],[-72.0324008599999,-36.8993718180938],[-72.0323623629999,-36.8999244190937],[-72.0329886409999,-36.8999491040937]]]}},{"type":"Feature","properties":{"id":"16104011001072","commune":"El Carmen","code":"16104","gse":"D","quintil":"Q1","nse_score":612.7,"educ":7.8,"educ_score":320.0,"hacin":1.0,"hacin_class":"Hacinamiento Leve","hacin_score":851.1,"auto_score":117.6,"n_per":44,"n_hog":17,"source_year":2024},"geometry":{"type":"Polygon","coordinates":[[[-72.0331644519999,-36.8993918630937],[-72.0331309839999,-36.8999333690937],[-72.0335502799999,-36.8999396050937],[-72.0336045189999,-36.8996900350937],[-72.0335879779999,-36.8999400710937],[-72.0339942779999,-36.8999409640937],[-72.034038054,-36.8994098780937],[-72.0331644519999,-36.8993918630937]]]}},{"type":"Feature","properties":{"id":"16104011001073","commune":"El Carmen","code":"16104","gse":"C3","quintil":"Q2","nse_score":669.8,"educ":10.2,"educ_score":480.0,"hacin":1.235,"hacin_class":"Hacinamiento Leve","hacin_score":801.1,"auto_score":137.5,"n_per":326,"n_hog":123,"source_year":2024},"geometry":{"type":"Polygon","coordinates":[[[-72.0340963539999,-36.8995864580937],[-72.033979772,-36.9005835810937],[-72.0341102979999,-36.9006628920937],[-72.0343607269999,-36.9006196370937],[-72.0343915809999,-36.9003726420937],[-72.0344091039999,-36.9006239450937],[-72.0347769859999,-36.9005974910937],[-72.0348112119999,-36.9004699370937],[-72.0348251439999,-36.9006007960937],[-72.0352066599999,-36.9005756770937],[-72.0352271539999,-36.9003160150937],[-72.0354277119999,-36.9003960350937],[-72.0354345779999,-36.9005869410937],[-72.033964023,-36.9006908230937],[-72.0339009769999,-36.9009121250937],[-72.0339315679999,-36.9004903260937],[-72.0333598889999,-36.9004459470937],[-72.0339399329999,-36.9004565180937],[-72.0339794669999,-36.9000205970937],[-72.0331004139999,-36.9000008560938],[-72.0330378199999,-36.9002626710937],[-72.0330431499999,-36.8999979370938],[-72.0323692079999,-36.8999848970938],[-72.0323335379999,-36.9002012010938],[-72.0301779349999,-36.9002425140937],[-72.0300845029999,-36.9011061420937],[-72.0315994999999,-36.9011183610937],[-72.0315455699999,-36.9019737240937],[-72.0330311869999,-36.9019902570937],[-72.0330760509999,-36.9009951040937],[-72.0356669749999,-36.9008286000937],[-72.0356237669999,-36.8996221720937],[-72.0340963539999,-36.8995864580937]]]}},{"type":"Feature","properties":{"id":"16104011001074","commune":"El Carmen","code":"16104","gse":"C3","quintil":"Q3","nse_score":681.7,"educ":10.7,"educ_score":513.3,"hacin":1.127,"hacin_class":"Hacinamiento Leve","hacin_score":824.0,"auto_score":208.3,"n_per":71,"n_hog":23,"source_year":2024},"geometry":{"type":"Polygon","coordinates":[[[-72.0222020279999,-36.9010925670937],[-72.0237110049999,-36.9010971070937],[-72.0237719169999,-36.8998984900937],[-72.0222300529999,-36.8998612140937],[-72.0222020279999,-36.9010925670937]]]}},{"type":"Feature","properties":{"id":"16104011001075","commune":"El Carmen","code":"16104","gse":"C2","quintil":"Q4","nse_score":731.6,"educ":11.9,"educ_score":593.3,"hacin":1.225,"hacin_class":"Hacinamiento Leve","hacin_score":803.2,"auto_score":166.7,"n_per":49,"n_hog":16,"source_year":2024},"geometry":{"type":"Polygon","coordinates":[[[-72.023899077,-36.8998711810937],[-72.02381994,-36.9010924010937],[-72.025172988,-36.9010835280937],[-72.0252425149999,-36.8999048710937],[-72.023899077,-36.8998711810937]]]}},{"type":"Feature","properties":{"id":"16104011001076","commune":"El Carmen","code":"16104","gse":"D","quintil":"Q2","nse_score":649.1,"educ":9.3,"educ_score":420.0,"hacin":1.067,"hacin_class":"Hacinamiento Leve","hacin_score":836.9,"auto_score":25.0,"n_per":48,"n_hog":21,"source_year":2024},"geometry":{"type":"Polygon","coordinates":[[[-72.0267950309999,-36.9011658010937],[-72.0269371389999,-36.8999613240937],[-72.0253566849999,-36.8999341950937],[-72.025258747,-36.9010873570937],[-72.0267950309999,-36.9011658010937]]]}},{"type":"Feature","properties":{"id":"16104011001077","commune":"El Carmen","code":"16104","gse":"C2","quintil":"Q4","nse_score":739.6,"educ":12.0,"educ_score":600.0,"hacin":0.9,"hacin_class":"Sin Hacinamiento","hacin_score":872.3,"auto_score":69.0,"n_per":72,"n_hog":29,"source_year":2024},"geometry":{"type":"Polygon","coordinates":[[[-72.0284432449999,-36.9011890690937],[-72.0285508759999,-36.8999877290937],[-72.027066826,-36.8999603870937],[-72.0269620719999,-36.9011228560937],[-72.0284432449999,-36.9011890690937]]]}},{"type":"Feature","properties":{"id":"16104011001079","commune":"El Carmen","code":"16104","gse":"C3","quintil":"Q3","nse_score":688.7,"educ":10.5,"educ_score":500.0,"hacin":0.882,"hacin_class":"Sin Hacinamiento","hacin_score":876.3,"auto_score":112.9,"n_per":67,"n_hog":31,"source_year":2024},"geometry":{"type":"Polygon","coordinates":[[[-72.0262608339999,-36.9032257320937],[-72.0263905799999,-36.9023638100937],[-72.0298639969999,-36.9024580460937],[-72.0299901959999,-36.9012709930937],[-72.0286079479999,-36.9012375100937],[-72.0285421149999,-36.9019546830937],[-72.0285768919999,-36.9012368500937],[-72.0252564799999,-36.9011796100937],[-72.0250052939999,-36.9031312110937],[-72.0262608339999,-36.9032257320937]]]}},{"type":"Feature","properties":{"id":"16104011001025","commune":"El Carmen","code":"16104","gse":"C2","quintil":"Q3","nse_score":709.2,"educ":11.5,"educ_score":566.7,"hacin":1.357,"hacin_class":"Hacinamiento Leve","hacin_score":775.1,"auto_score":150.0,"n_per":38,"n_hog":10,"source_year":2024},"geometry":{"type":"MultiPolygon","coordinates":[[[[-72.033150266,-36.8980859210938],[-72.0332588589999,-36.8975318130938],[-72.0325482739999,-36.8975194550938],[-72.0325021949999,-36.8980496140938],[-72.033150266,-36.8980859210938]]],[[[-72.0325533729999,-36.8964117870937],[-72.0324287319999,-36.8973843060937],[-72.0338170479999,-36.8974104630937],[-72.0339042789999,-36.8964503460937],[-72.0325533729999,-36.8964117870937]]]]}},{"type":"Feature","properties":{"id":"16104011001018","commune":"El Carmen","code":"16104","gse":"E","quintil":"Q1","nse_score":499.5,"educ":5.9,"educ_score":193.3,"hacin":1.833,"hacin_class":"Hacinamiento Medio","hacin_score":673.8,"auto_score":100.0,"n_per":44,"n_hog":10,"source_year":2024},"geometry":{"type":"MultiPolygon","coordinates":[[[[-72.0270360519999,-36.8973105590938],[-72.0271144659999,-36.8961241410937],[-72.0255984699999,-36.8961219800937],[-72.0255580799999,-36.8972719690937],[-72.0270360519999,-36.8973105590938]]],[[[-72.0254031649999,-36.8972696990938],[-72.0255141949999,-36.8960983980937],[-72.0239980229999,-36.8960591610938],[-72.0239384659999,-36.8972553570938],[-72.0254031649999,-36.8972696990938]]]]}},{"type":"Feature","properties":{"id":"16104041001002","commune":"El Carmen","code":"16104","gse":"C2","quintil":"Q3","nse_score":711.2,"educ":11.4,"educ_score":560.0,"hacin":1.16,"hacin_class":"Hacinamiento Leve","hacin_score":817.1,"auto_score":197.4,"n_per":109,"n_hog":37,"source_year":2024},"geometry":{"type":"Polygon","coordinates":[[[-72.0044727739999,-36.8964579110937],[-72.0042372199999,-36.8982656970937],[-72.0042378719999,-36.8979542260938],[-72.0024712139999,-36.8982129990938],[-72.0023510749999,-36.8968346790938],[-72.0021547869999,-36.8969026070938],[-72.0022209389999,-36.8982491950937],[-72.0045570289999,-36.8983770530937],[-72.0048282859999,-36.8964167560938],[-72.0044727739999,-36.8964579110937]]]}},{"type":"Feature","properties":{"id":"16104041001004","commune":"El Carmen","code":"16104","gse":"C3","quintil":"Q3","nse_score":699.3,"educ":11.5,"educ_score":566.7,"hacin":1.241,"hacin_class":"Hacinamiento Leve","hacin_score":799.7,"auto_score":96.2,"n_per":144,"n_hog":50,"source_year":2024},"geometry":{"type":"Polygon","coordinates":[[[-72.0024499919999,-36.8971743750938],[-72.0043468209999,-36.8968808690937],[-72.0044067269999,-36.8966258890938],[-72.0024241759999,-36.8968902110937],[-72.0024499919999,-36.8971743750938]]]}},{"type":"Feature","properties":{"id":"16104041001006","commune":"El Carmen","code":"16104","gse":"C3","quintil":"Q2","nse_score":676.3,"educ":10.9,"educ_score":526.7,"hacin":1.118,"hacin_class":"Hacinamiento Leve","hacin_score":826.0,"auto_score":133.3,"n_per":114,"n_hog":41,"source_year":2024},"geometry":{"type":"Polygon","coordinates":[[[-72.0024757999999,-36.8975053250937],[-72.0043010249999,-36.8972192390937],[-72.0043641579999,-36.8969484480937],[-72.0024469319999,-36.8972119640938],[-72.0024757999999,-36.8975053250937]]]}},{"type":"Feature","properties":{"id":"16104041001007","commune":"El Carmen","code":"16104","gse":"C3","quintil":"Q3","nse_score":682.7,"educ":11.0,"educ_score":533.3,"hacin":1.139,"hacin_class":"Hacinamiento Leve","hacin_score":821.5,"auto_score":166.7,"n_per":131,"n_hog":46,"source_year":2024},"geometry":{"type":"Polygon","coordinates":[[[-72.0025131399999,-36.8978458050937],[-72.0042492339999,-36.8975753030937],[-72.0043248619999,-36.8972817790938],[-72.0024794729999,-36.8975414540938],[-72.0025131399999,-36.8978458050937]]]}},{"type":"Feature","properties":{"id":"16104041001008","commune":"El Carmen","code":"16104","gse":"D","quintil":"Q2","nse_score":658.1,"educ":10.0,"educ_score":466.7,"hacin":1.112,"hacin_class":"Hacinamiento Leve","hacin_score":827.2,"auto_score":186.0,"n_per":119,"n_hog":41,"source_year":2024},"geometry":{"type":"Polygon","coordinates":[[[-72.0025307969999,-36.8981831650937],[-72.0042235539999,-36.8979199940937],[-72.0042777449999,-36.8976394670937],[-72.0025015619999,-36.8978850690937],[-72.0025307969999,-36.8981831650937]]]}},{"type":"Feature","properties":{"id":"16104041001001","commune":"El Carmen","code":"16104","gse":"D","quintil":"Q1","nse_score":635.8,"educ":9.3,"educ_score":420.0,"hacin":1.11,"hacin_class":"Hacinamiento Leve","hacin_score":827.7,"auto_score":77.9,"n_per":192,"n_hog":71,"source_year":2024},"geometry":{"type":"MultiPolygon","coordinates":[[[[-72.0021214589999,-36.9025310380937],[-72.0021858429999,-36.9031012570937],[-72.0029183309999,-36.9028992350937],[-72.0032290659999,-36.9030983890937],[-72.0038577089999,-36.9031541890937],[-72.0037762929999,-36.9026891020937],[-72.0034182299999,-36.9026084220937],[-72.0025189629999,-36.9026973370937],[-72.0034182009999,-36.9025723310937],[-72.0037681849999,-36.9026476700937],[-72.0041188249999,-36.9017926290937],[-72.0038197479999,-36.9017224930937],[-72.0042727579999,-36.9003311940937],[-72.0021837649999,-36.9002926450937],[-72.001836636,-36.9022944660937],[-72.0021214589999,-36.9025310380937]]],[[[-72.0056751099999,-36.8972229110937],[-72.0057728689999,-36.8963121070937],[-72.0053633329999,-36.8963455530938],[-72.0053272979999,-36.8967354310938],[-72.0053330489999,-36.8963472420937],[-72.004890342,-36.8964071050938],[-72.0041278509999,-36.9016060480937],[-72.0042121529999,-36.9007274270937],[-72.0039371539999,-36.9017315760937],[-72.0041335909999,-36.9017580900937],[-72.0051718999999,-36.8992575250937],[-72.0048945089999,-36.8992149850937],[-72.0048505659999,-36.8991562120937],[-72.0051841299999,-36.8992290420937],[-72.0053823499999,-36.8987673950937],[-72.0052066219999,-36.8987141160938],[-72.005262651,-36.8982626010937],[-72.0052379319999,-36.8987001980937],[-72.0053943379999,-36.8987394740938],[-72.0064472969999,-36.8962634140937],[-72.0058032949999,-36.8963092510937],[-72.0056751099999,-36.8972229110937]]]]}}]}