{"type":"FeatureCollection","features":[{"type":"Feature","properties":{"id":"14202011001001","commune":"Futrono","code":"14202","gse":"C3","quintil":"Q2","nse_score":673.3,"educ":10.6,"educ_score":506.7,"hacin":1.319,"hacin_class":"Hacinamiento Leve","hacin_score":783.1,"auto_score":222.2,"n_per":347,"n_hog":128,"source_year":2024},"geometry":{"type":"Polygon","coordinates":[[[-72.3877508399999,-40.1183679870701],[-72.3878122089999,-40.1195465990701],[-72.3896701889999,-40.1190393480701],[-72.3899431099999,-40.1197322910701],[-72.3896494799999,-40.1190738440701],[-72.3889304619999,-40.1192602580701],[-72.3891052319999,-40.1193640090701],[-72.3893802229999,-40.1201395420701],[-72.3889355739999,-40.1193168090701],[-72.3878106399999,-40.1196048830701],[-72.3877705749999,-40.1203916430701],[-72.3876046469999,-40.1206568800701],[-72.3865867659999,-40.1210002180701],[-72.3868026409999,-40.1213465950701],[-72.3865439539999,-40.1210247430701],[-72.3856097899999,-40.1216105410701],[-72.3857812119999,-40.1222708920701],[-72.3863725289999,-40.1218987770701],[-72.3866362939999,-40.12183330707],[-72.3861717109999,-40.1220975420701],[-72.3863225119999,-40.1221123570701],[-72.3864493229999,-40.1223265150701],[-72.3862429499999,-40.1221353470701],[-72.3857991379999,-40.1223232960701],[-72.3860048429999,-40.1228233860701],[-72.3872375409999,-40.1223600140701],[-72.3869088029999,-40.1217913330701],[-72.3873204009999,-40.12232891507],[-72.3877028429999,-40.1221808570701],[-72.3875040439999,-40.1217370500701],[-72.3877680979999,-40.1221471030701],[-72.388130756,-40.1220076140701],[-72.3879079719999,-40.1215451580701],[-72.3881932059999,-40.1219808940701],[-72.3885777769999,-40.1218365400701],[-72.3883108129999,-40.1212455360701],[-72.3886803769999,-40.1218077770701],[-72.3891144569999,-40.12169326007],[-72.3885139129999,-40.1200903110701],[-72.3889487369999,-40.1210801990701],[-72.3898305649999,-40.1209073430701],[-72.3889654839999,-40.12113287207],[-72.3895001959999,-40.1224675800701],[-72.3911779519999,-40.1219367870701],[-72.3892874659999,-40.1173233130701],[-72.3873516629999,-40.1179138340701],[-72.3877508399999,-40.1183679870701]]]}},{"type":"Feature","properties":{"id":"14202011001002","commune":"Futrono","code":"14202","gse":"D","quintil":"Q1","nse_score":626.6,"educ":9.4,"educ_score":426.7,"hacin":1.331,"hacin_class":"Hacinamiento Leve","hacin_score":780.7,"auto_score":58.3,"n_per":165,"n_hog":60,"source_year":2024},"geometry":{"type":"Polygon","coordinates":[[[-72.3857763009999,-40.12019533307],[-72.3859052669999,-40.1205599180701],[-72.385043133,-40.1208152230701],[-72.3852793499999,-40.12129140407],[-72.3849879119999,-40.1213968840701],[-72.3852005829999,-40.1218111370701],[-72.3840832249999,-40.1222835080701],[-72.3841943759999,-40.1224589880701],[-72.3838812919999,-40.1226208050701],[-72.3824223279999,-40.12314122107],[-72.3827765469999,-40.12406449507],[-72.3831219569999,-40.1239472030701],[-72.3828373069999,-40.1234634320701],[-72.3831690169999,-40.1239317820701],[-72.3834845049999,-40.12381064107],[-72.3832110069999,-40.1233184290701],[-72.3835502469999,-40.1237851160701],[-72.3840436579999,-40.1235807860701],[-72.3836537479999,-40.1228951110701],[-72.3856292899999,-40.1220780480701],[-72.3855709999999,-40.1215509740701],[-72.3869336269999,-40.1208320300701],[-72.3868958589999,-40.1204565360701],[-72.3870039109999,-40.1208208110701],[-72.3876234099999,-40.1205554720701],[-72.3877447779999,-40.1200700520701],[-72.3876241899999,-40.1182622760701],[-72.3862116689999,-40.1186763390701],[-72.3861649279999,-40.1188733850701],[-72.3865553409999,-40.1199448150701],[-72.3857763009999,-40.12019533307]]]}},{"type":"Feature","properties":{"id":"14202011001003","commune":"Futrono","code":"14202","gse":"C2","quintil":"Q4","nse_score":728.8,"educ":13.7,"educ_score":713.3,"hacin":1.37,"hacin_class":"Hacinamiento Leve","hacin_score":772.3,"auto_score":176.5,"n_per":37,"n_hog":14,"source_year":2024},"geometry":{"type":"Polygon","coordinates":[[[-72.3890705749999,-40.1226127990701],[-72.3894456869999,-40.1225147260701],[-72.3891156689999,-40.1217596770701],[-72.3887122439999,-40.1218826320701],[-72.3890705749999,-40.1226127990701]]]}},{"type":"Feature","properties":{"id":"14202011001004","commune":"Futrono","code":"14202","gse":"E","quintil":"Q1","nse_score":608.0,"educ":9.7,"educ_score":446.7,"hacin":1.382,"hacin_class":"Hacinamiento Leve","hacin_score":769.8,"auto_score":0.0,"n_per":123,"n_hog":52,"source_year":2024},"geometry":{"type":"Polygon","coordinates":[[[-72.3877275569999,-40.12308910407],[-72.3875964329999,-40.1229863350701],[-72.3868424119999,-40.1234606990701],[-72.3864327419999,-40.1227541660701],[-72.3860448819999,-40.1229298640701],[-72.3865367219999,-40.12398779107],[-72.3889738219999,-40.12263899107],[-72.3886268779999,-40.1219025960701],[-72.3882193569999,-40.12203960107],[-72.3884002929999,-40.12252606107],[-72.3876019449999,-40.1228332330701],[-72.3877275569999,-40.12308910407]]]}},{"type":"Feature","properties":{"id":"14202011001005","commune":"Futrono","code":"14202","gse":"C3","quintil":"Q2","nse_score":681.2,"educ":11.2,"educ_score":546.7,"hacin":1.625,"hacin_class":"Hacinamiento Medio","hacin_score":718.1,"auto_score":29.4,"n_per":52,"n_hog":17,"source_year":2024},"geometry":{"type":"Polygon","coordinates":[[[-72.389526498,-40.1225320440701],[-72.3896063099999,-40.1227133200701],[-72.3903351049999,-40.1227003030701],[-72.3908537069999,-40.1228373700701],[-72.3907921229999,-40.1226751240701],[-72.3911528069999,-40.1229127140701],[-72.3903089369999,-40.1227399280701],[-72.3896247739999,-40.12275525907],[-72.3905390029999,-40.1247646790701],[-72.3911612759999,-40.1247680320701],[-72.3906645259999,-40.1235737080701],[-72.3917406129999,-40.12332621407],[-72.3911779519999,-40.1219367870701],[-72.389526498,-40.1225320440701]]]}},{"type":"Feature","properties":{"id":"14202011001006","commune":"Futrono","code":"14202","gse":"C3","quintil":"Q3","nse_score":691.4,"educ":11.3,"educ_score":553.3,"hacin":1.238,"hacin_class":"Hacinamiento Leve","hacin_score":800.4,"auto_score":200.0,"n_per":26,"n_hog":11,"source_year":2024},"geometry":{"type":"Polygon","coordinates":[[[-72.3877924999999,-40.12223295907],[-72.3880178299999,-40.1226144500701],[-72.3883492609999,-40.1224840490701],[-72.3881579499999,-40.1220752370701],[-72.3877924999999,-40.12223295907]]]}},{"type":"Feature","properties":{"id":"14202011001007","commune":"Futrono","code":"14202","gse":"D","quintil":"Q2","nse_score":648.1,"educ":10.1,"educ_score":473.3,"hacin":1.265,"hacin_class":"Hacinamiento Leve","hacin_score":794.7,"auto_score":101.9,"n_per":148,"n_hog":49,"source_year":2024},"geometry":{"type":"Polygon","coordinates":[[[-72.3851070839999,-40.1223332480701],[-72.3847147679999,-40.12249364407],[-72.3848006139999,-40.12271519907],[-72.3846469109999,-40.1225203730701],[-72.3836986939999,-40.12293783407],[-72.3839399559999,-40.1232465870701],[-72.3857767039999,-40.1224873690701],[-72.3856193439999,-40.1221385370701],[-72.3851604039999,-40.1223136440701],[-72.3852881099999,-40.1225146150701],[-72.3851070839999,-40.1223332480701]]]}},{"type":"Feature","properties":{"id":"14202011001008","commune":"Futrono","code":"14202","gse":"E","quintil":"Q1","nse_score":561.0,"educ":8.1,"educ_score":340.0,"hacin":1.355,"hacin_class":"Hacinamiento Leve","hacin_score":775.6,"auto_score":153.8,"n_per":42,"n_hog":12,"source_year":2024},"geometry":{"type":"Polygon","coordinates":[[[-72.3875825679999,-40.1227792920701],[-72.3879505919999,-40.1226333780701],[-72.3877239149999,-40.1222462640701],[-72.3873532489999,-40.12239955907],[-72.3875825679999,-40.1227792920701]]]}},{"type":"Feature","properties":{"id":"14202011001009","commune":"Futrono","code":"14202","gse":"E","quintil":"Q1","nse_score":600.4,"educ":9.2,"educ_score":413.3,"hacin":1.429,"hacin_class":"Hacinamiento Leve","hacin_score":759.9,"auto_score":0.0,"n_per":30,"n_hog":13,"source_year":2024},"geometry":{"type":"Polygon","coordinates":[[[-72.3872436729999,-40.12314646107],[-72.3875725259999,-40.1229303960701],[-72.3872571719999,-40.1224234230701],[-72.3869054889999,-40.1225661820701],[-72.3872436729999,-40.12314646107]]]}},{"type":"Feature","properties":{"id":"14202011001010","commune":"Futrono","code":"14202","gse":"D","quintil":"Q1","nse_score":618.2,"educ":9.5,"educ_score":433.3,"hacin":1.348,"hacin_class":"Hacinamiento Leve","hacin_score":777.0,"auto_score":107.8,"n_per":120,"n_hog":45,"source_year":2024},"geometry":{"type":"Polygon","coordinates":[[[-72.3841591449999,-40.12354655307],[-72.3859279059999,-40.1228713720701],[-72.3858071329999,-40.1225506620701],[-72.3839708019999,-40.1232806140701],[-72.3841591449999,-40.12354655307]]]}},{"type":"Feature","properties":{"id":"14202011001011","commune":"Futrono","code":"14202","gse":"D","quintil":"Q2","nse_score":665.0,"educ":10.9,"educ_score":526.7,"hacin":1.351,"hacin_class":"Hacinamiento Leve","hacin_score":776.3,"auto_score":95.2,"n_per":223,"n_hog":79,"source_year":2024},"geometry":{"type":"Polygon","coordinates":[[[-72.3893943169999,-40.1233547050701],[-72.3889882069999,-40.1227015610701],[-72.3865297489999,-40.1240717690701],[-72.3874378559999,-40.12628373907],[-72.3897480899999,-40.1250487670701],[-72.3904784759999,-40.1248363930701],[-72.3902402559999,-40.12428197407],[-72.3899350679999,-40.12434715307],[-72.3902298239999,-40.1242600580701],[-72.3901010159999,-40.1239968180701],[-72.389829958,-40.1240520220701],[-72.3900911229999,-40.1239752930701],[-72.3899257989999,-40.1235888650701],[-72.3894450379999,-40.1238230040701],[-72.3899116289999,-40.1235560160701],[-72.3894656389999,-40.1225765800701],[-72.3890900799999,-40.12268566307],[-72.3893943169999,-40.1233547050701]]]}},{"type":"Feature","properties":{"id":"14202011001012","commune":"Futrono","code":"14202","gse":"E","quintil":"Q1","nse_score":605.2,"educ":8.6,"educ_score":373.3,"hacin":1.482,"hacin_class":"Hacinamiento Leve","hacin_score":748.6,"auto_score":62.5,"n_per":40,"n_hog":16,"source_year":2024},"geometry":{"type":"Polygon","coordinates":[[[-72.3868538329999,-40.1233616890701],[-72.3871786629999,-40.1231709540701],[-72.3868309539999,-40.1225898170701],[-72.3864951349999,-40.1227290080701],[-72.3868538329999,-40.1233616890701]]]}},{"type":"Feature","properties":{"id":"14202011001013","commune":"Futrono","code":"14202","gse":"E","quintil":"Q1","nse_score":612.8,"educ":9.0,"educ_score":400.0,"hacin":1.627,"hacin_class":"Hacinamiento Medio","hacin_score":717.7,"auto_score":112.5,"n_per":122,"n_hog":41,"source_year":2024},"geometry":{"type":"Polygon","coordinates":[[[-72.3843156909999,-40.1238522200701],[-72.3860395549999,-40.1231621250701],[-72.3859739829999,-40.1229488910701],[-72.3841820919999,-40.1235846350701],[-72.3843156909999,-40.1238522200701]]]}},{"type":"Feature","properties":{"id":"14202011001014","commune":"Futrono","code":"14202","gse":"D","quintil":"Q1","nse_score":627.0,"educ":8.5,"educ_score":366.7,"hacin":1.0,"hacin_class":"Hacinamiento Leve","hacin_score":851.1,"auto_score":125.0,"n_per":6,"n_hog":4,"source_year":2024},"geometry":{"type":"Polygon","coordinates":[[[-72.3819439339999,-40.1232754750701],[-72.3823172739999,-40.1241367700701],[-72.3827260939999,-40.1240689460701],[-72.3823786609999,-40.1231545870701],[-72.3819439339999,-40.1232754750701]]]}},{"type":"Feature","properties":{"id":"14202011001015","commune":"Futrono","code":"14202","gse":"D","quintil":"Q1","nse_score":628.9,"educ":9.8,"educ_score":453.3,"hacin":1.461,"hacin_class":"Hacinamiento Leve","hacin_score":753.0,"auto_score":96.4,"n_per":206,"n_hog":77,"source_year":2024},"geometry":{"type":"Polygon","coordinates":[[[-72.3860767049999,-40.12320944607],[-72.3843566729999,-40.12390143207],[-72.3845553559999,-40.1242591320701],[-72.3848734559999,-40.1242124880701],[-72.3845817119999,-40.1243094490701],[-72.3848319009999,-40.1248300020701],[-72.3866323679999,-40.1245387190701],[-72.3863906119999,-40.1239846620701],[-72.385063096,-40.12430139407],[-72.3851547509999,-40.12422786407],[-72.3850663899999,-40.1239192650701],[-72.3853335209999,-40.1238527340701],[-72.385104753,-40.12396608807],[-72.3852226789999,-40.12421315707],[-72.3863833389999,-40.12392987507],[-72.3860767049999,-40.12320944607]]]}},{"type":"Feature","properties":{"id":"14202011001016","commune":"Futrono","code":"14202","gse":"D","quintil":"Q1","nse_score":624.8,"educ":9.7,"educ_score":446.7,"hacin":1.51,"hacin_class":"Hacinamiento Medio","hacin_score":742.6,"auto_score":66.7,"n_per":77,"n_hog":27,"source_year":2024},"geometry":{"type":"Polygon","coordinates":[[[-72.3829906999999,-40.12438381607],[-72.3842616349999,-40.1238766070701],[-72.3842596709999,-40.1238442880701],[-72.3840639349999,-40.1236303380701],[-72.3828467159999,-40.12412951607],[-72.3829906999999,-40.12438381607]]]}},{"type":"Feature","properties":{"id":"14202011001017","commune":"Futrono","code":"14202","gse":"D","quintil":"Q2","nse_score":665.0,"educ":10.1,"educ_score":473.3,"hacin":1.333,"hacin_class":"Hacinamiento Leve","hacin_score":780.1,"auto_score":208.3,"n_per":112,"n_hog":36,"source_year":2024},"geometry":{"type":"Polygon","coordinates":[[[-72.3842932949999,-40.12392492007],[-72.3829538839999,-40.1244520340701],[-72.3830895919999,-40.1248606660701],[-72.3839269429999,-40.1245019310701],[-72.3838916569999,-40.1242783960701],[-72.3842389839999,-40.1249358970701],[-72.3847602529999,-40.12483576207],[-72.3842932949999,-40.12392492007]]]}},{"type":"Feature","properties":{"id":"14202011001018","commune":"Futrono","code":"14202","gse":"C2","quintil":"Q4","nse_score":768.2,"educ":12.4,"educ_score":626.7,"hacin":1.2,"hacin_class":"Hacinamiento Leve","hacin_score":808.5,"auto_score":375.0,"n_per":12,"n_hog":4,"source_year":2024},"geometry":{"type":"Polygon","coordinates":[[[-72.3839503519999,-40.1245540020701],[-72.3830985229999,-40.12488756007],[-72.3832103419999,-40.1251407020701],[-72.3841618249999,-40.12494457507],[-72.3839503519999,-40.1245540020701]]]}},{"type":"Feature","properties":{"id":"14202011001019","commune":"Futrono","code":"14202","gse":"C3","quintil":"Q3","nse_score":709.7,"educ":11.5,"educ_score":566.7,"hacin":1.264,"hacin_class":"Hacinamiento Leve","hacin_score":794.8,"auto_score":172.7,"n_per":263,"n_hog":105,"source_year":2024},"geometry":{"type":"Polygon","coordinates":[[[-72.3851731379999,-40.12517365407],[-72.3850467629999,-40.1248367850701],[-72.3844782239999,-40.12494117707],[-72.3845782819999,-40.12539501007],[-72.384425641,-40.12494449307],[-72.3832242729999,-40.1251712980701],[-72.3839783149999,-40.1269171260701],[-72.3845482489999,-40.12784223007],[-72.3848327709999,-40.12873444107],[-72.3862193339999,-40.12846651907],[-72.3848562019999,-40.12878442407],[-72.3849757359999,-40.12905566207],[-72.3854036509999,-40.12900761307],[-72.3849765389999,-40.12911088307],[-72.3851481139999,-40.12953571107],[-72.3878401209999,-40.12921907907],[-72.3876772809999,-40.1287537580701],[-72.3869640289999,-40.1287108860701],[-72.3876560639999,-40.12870194507],[-72.3871483919999,-40.12744680307],[-72.387718978,-40.12717935507],[-72.3874640089999,-40.1265692540701],[-72.3869662279999,-40.1266703910701],[-72.3874451199999,-40.1265172120701],[-72.3871077129999,-40.1256785150701],[-72.3852529399999,-40.1260751080701],[-72.3857008279999,-40.12592623607],[-72.3855335869999,-40.1255190680701],[-72.3857614969999,-40.12589711007],[-72.3861460389999,-40.1258074570701],[-72.3860490189999,-40.1254135500701],[-72.3862170889999,-40.12580054107],[-72.3865976469999,-40.1257081650701],[-72.3865055119999,-40.1253128440701],[-72.3866695109999,-40.1256956240701],[-72.3870756009999,-40.12560698707],[-72.3866573439999,-40.1245790080701],[-72.3850976769999,-40.1248320340701],[-72.3851731379999,-40.12517365407]]]}},{"type":"Feature","properties":{"id":"14202011001020","commune":"Futrono","code":"14202","gse":"D","quintil":"Q2","nse_score":664.1,"educ":10.1,"educ_score":473.3,"hacin":1.348,"hacin_class":"Hacinamiento Leve","hacin_score":777.1,"auto_score":166.7,"n_per":93,"n_hog":36,"source_year":2024},"geometry":{"type":"Polygon","coordinates":[[[-72.3814243019999,-40.12569652907],[-72.3816895449999,-40.1255026650701],[-72.3815016319999,-40.1249751290701],[-72.3817855319999,-40.12547498607],[-72.382114139,-40.1252961290701],[-72.3819858829999,-40.12485074807],[-72.382190352,-40.12526930807],[-72.3825520199999,-40.1251245190701],[-72.3824600719999,-40.1247292630701],[-72.3826221879999,-40.12509410907],[-72.38301508,-40.1249784850701],[-72.3829109849999,-40.1245778920701],[-72.3812150539999,-40.1250113500701],[-72.3814243019999,-40.12569652907]]]}},{"type":"Feature","properties":{"id":"14202011001021","commune":"Futrono","code":"14202","gse":"C3","quintil":"Q2","nse_score":684.6,"educ":10.5,"educ_score":500.0,"hacin":1.269,"hacin_class":"Hacinamiento Leve","hacin_score":793.8,"auto_score":91.5,"n_per":184,"n_hog":72,"source_year":2024},"geometry":{"type":"Polygon","coordinates":[[[-72.3905485719999,-40.1248185610701],[-72.3909605969999,-40.1248840640701],[-72.3911718789999,-40.12534961707],[-72.3908600999999,-40.12488460407],[-72.3898804269999,-40.12505692207],[-72.3901044879999,-40.1255144580701],[-72.3906960879999,-40.1253667280701],[-72.3901310339999,-40.1255715200701],[-72.3902481049999,-40.12581778507],[-72.3907548169999,-40.1257198800701],[-72.3902724149999,-40.1258685010701],[-72.3904369099999,-40.12622052707],[-72.3907096539999,-40.1261168570701],[-72.3903539699999,-40.1263961020701],[-72.3906615959999,-40.12699567507],[-72.390269181,-40.12781754507],[-72.3906616979999,-40.12785033807],[-72.3902361029999,-40.1278785040701],[-72.3897695039999,-40.12873121807],[-72.3898134989999,-40.12895840207],[-72.3904458149999,-40.12888585007],[-72.3903842429999,-40.12853604007],[-72.3901697399999,-40.1285392390701],[-72.3903922389999,-40.1284776790701],[-72.3905307009999,-40.12887502107],[-72.3909587879999,-40.12882040707],[-72.3909053419999,-40.1282672450701],[-72.3910286939999,-40.1288112130701],[-72.3927608609999,-40.1285751610701],[-72.3918182709999,-40.1260445720701],[-72.3926983859999,-40.1256914100701],[-72.3923988299999,-40.1249516720701],[-72.3919688059999,-40.1250527500701],[-72.3920145409999,-40.1252577390701],[-72.3918878199999,-40.12504483607],[-72.3915880669999,-40.12490962507],[-72.3912839459999,-40.12483292907],[-72.3905485719999,-40.1248185610701]]]}},{"type":"Feature","properties":{"id":"14202011001022","commune":"Futrono","code":"14202","gse":"D","quintil":"Q1","nse_score":644.5,"educ":9.5,"educ_score":433.3,"hacin":1.333,"hacin_class":"Hacinamiento Leve","hacin_score":780.1,"auto_score":205.1,"n_per":196,"n_hog":79,"source_year":2024},"geometry":{"type":"Polygon","coordinates":[[[-72.3752731589999,-40.1255865320701],[-72.3805182389999,-40.13005028207],[-72.3806657749999,-40.13004139707],[-72.3804872869999,-40.12927447107],[-72.380078711,-40.12868078307],[-72.3788912649999,-40.12784274807],[-72.3801053939999,-40.12859410007],[-72.3801887809999,-40.12802370407],[-72.3797893249999,-40.12780444807],[-72.3801922149999,-40.1279649160701],[-72.3801285709999,-40.1276078000701],[-72.3797024089999,-40.1276902750701],[-72.3801069119999,-40.12755402607],[-72.3800153029999,-40.1273441830701],[-72.3797114729999,-40.1273920030701],[-72.3799687249999,-40.1272316110701],[-72.3788988059999,-40.1276813950701],[-72.3780877549999,-40.12704277307],[-72.377118477,-40.1265277300701],[-72.3760695359999,-40.1256575400701],[-72.3747126569999,-40.12489998807],[-72.3752731589999,-40.1255865320701]]]}},{"type":"Feature","properties":{"id":"14202011001023","commune":"Futrono","code":"14202","gse":"D","quintil":"Q1","nse_score":640.3,"educ":10.8,"educ_score":520.0,"hacin":1.882,"hacin_class":"Hacinamiento Medio","hacin_score":663.3,"auto_score":333.3,"n_per":32,"n_hog":9,"source_year":2024},"geometry":{"type":"Polygon","coordinates":[[[-72.3746300899999,-40.1249548640701],[-72.3738902669999,-40.1252596570701],[-72.3749128469999,-40.1264512750701],[-72.3746207969999,-40.1266484820701],[-72.3758309669999,-40.1273959750701],[-72.3758565749999,-40.12785034207],[-72.3764888869999,-40.1278739740701],[-72.3775177779999,-40.12761297407],[-72.3752013449999,-40.12563290407],[-72.3746300899999,-40.1249548640701]]]}},{"type":"Feature","properties":{"id":"14202011001024","commune":"Futrono","code":"14202","gse":"E","quintil":"Q1","nse_score":556.2,"educ":10.4,"educ_score":493.3,"hacin":1.484,"hacin_class":"Hacinamiento Leve","hacin_score":748.0,"auto_score":362.1,"n_per":95,"n_hog":29,"source_year":2024},"geometry":{"type":"Polygon","coordinates":[[[-72.3823063429999,-40.1263594750701],[-72.3835073419999,-40.12604672507],[-72.3830728249999,-40.1250396990701],[-72.3822153589999,-40.1253403260701],[-72.3824271359999,-40.12587271707],[-72.3820039639999,-40.1260310380701],[-72.3823063429999,-40.1263594750701]]]}},{"type":"Feature","properties":{"id":"14202011001025","commune":"Futrono","code":"14202","gse":"C3","quintil":"Q2","nse_score":669.2,"educ":10.1,"educ_score":473.3,"hacin":1.366,"hacin_class":"Hacinamiento Leve","hacin_score":773.1,"auto_score":116.4,"n_per":194,"n_hog":73,"source_year":2024},"geometry":{"type":"Polygon","coordinates":[[[-72.3892572709999,-40.12595589007],[-72.3888689029999,-40.12561211907],[-72.3874748919999,-40.1263645660701],[-72.3878119729999,-40.12719458007],[-72.388354477,-40.12714144107],[-72.3893460559999,-40.1264382190701],[-72.3883919709999,-40.1271872120701],[-72.3872260999999,-40.12743702707],[-72.3879534659999,-40.12919766507],[-72.3897571049999,-40.12897530307],[-72.3897377209999,-40.1286786150701],[-72.3905528749999,-40.12715356607],[-72.3897796479999,-40.12695068507],[-72.3893940399999,-40.12716599607],[-72.3901660079999,-40.12661337407],[-72.3898148369999,-40.1269144120701],[-72.3906052759999,-40.12706601907],[-72.3905683739999,-40.12685277807],[-72.390039768,-40.12622255507],[-72.3902857539999,-40.1263618790701],[-72.3903686599999,-40.12624331807],[-72.390052507,-40.1255640260701],[-72.389640944,-40.1257859620701],[-72.3897304969999,-40.12599080407],[-72.3895688549999,-40.1258208620701],[-72.3900283009999,-40.1255095910701],[-72.3898171179999,-40.1250806370701],[-72.3889257999999,-40.12558028607],[-72.3892572709999,-40.12595589007]]]}},{"type":"Feature","properties":{"id":"14202011001026","commune":"Futrono","code":"14202","gse":"C3","quintil":"Q2","nse_score":685.3,"educ":11.3,"educ_score":553.3,"hacin":1.536,"hacin_class":"Hacinamiento Medio","hacin_score":737.1,"auto_score":250.0,"n_per":43,"n_hog":14,"source_year":2024},"geometry":{"type":"Polygon","coordinates":[[[-72.3819714269999,-40.12598636807],[-72.3823810639999,-40.1258658400701],[-72.3821614479999,-40.1253694320701],[-72.3815918479999,-40.1256555960701],[-72.3819714269999,-40.12598636807]]]}},{"type":"Feature","properties":{"id":"14202011001027","commune":"Futrono","code":"14202","gse":"C3","quintil":"Q3","nse_score":704.2,"educ":11.2,"educ_score":546.7,"hacin":1.327,"hacin_class":"Hacinamiento Leve","hacin_score":781.5,"auto_score":266.7,"n_per":134,"n_hog":45,"source_year":2024},"geometry":{"type":"Polygon","coordinates":[[[-72.3814243019999,-40.12569652907],[-72.3820836819999,-40.12785556507],[-72.3827846839999,-40.12771266607],[-72.3826676559999,-40.12729033107],[-72.3820996309999,-40.12739110707],[-72.3821314349999,-40.1272979870701],[-72.3826285139999,-40.12725099007],[-72.3826218829999,-40.12710200607],[-72.3824932869999,-40.1268479130701],[-72.3820462979999,-40.12686916207],[-72.3819373249999,-40.12652185907],[-72.3822223399999,-40.1264022240701],[-72.3815090549999,-40.12565363607],[-72.3814243019999,-40.12569652907]]]}},{"type":"Feature","properties":{"id":"14202011001028","commune":"Futrono","code":"14202","gse":"C2","quintil":"Q3","nse_score":722.8,"educ":12.5,"educ_score":633.3,"hacin":1.127,"hacin_class":"Hacinamiento Leve","hacin_score":824.0,"auto_score":277.8,"n_per":62,"n_hog":24,"source_year":2024},"geometry":{"type":"Polygon","coordinates":[[[-72.3931815989999,-40.12592428507],[-72.3927879659999,-40.12591262207],[-72.3927180869999,-40.12574006107],[-72.3918869399999,-40.1260251900701],[-72.3920373159999,-40.12644544807],[-72.3926792979999,-40.12628698407],[-72.3920566449999,-40.12649806907],[-72.3923318299999,-40.12726040407],[-72.3929136819999,-40.12709631807],[-72.3923441499999,-40.1272956760701],[-72.3928312649999,-40.12855948807],[-72.3936913619999,-40.12831416707],[-72.3946815339999,-40.1275778070701],[-72.3941165609999,-40.1266916710701],[-72.3931996319999,-40.12700413707],[-72.3935648499999,-40.12678842407],[-72.3931936999999,-40.12608176407],[-72.3936499169999,-40.1267641260701],[-72.3941213299999,-40.12662736407],[-72.3936524269999,-40.12571772907],[-72.3931815989999,-40.12592428507]]]}},{"type":"Feature","properties":{"id":"14202011001030","commune":"Futrono","code":"14202","gse":"C2","quintil":"Q3","nse_score":722.5,"educ":11.4,"educ_score":560.0,"hacin":1.208,"hacin_class":"Hacinamiento Leve","hacin_score":806.7,"auto_score":239.1,"n_per":58,"n_hog":23,"source_year":2024},"geometry":{"type":"Polygon","coordinates":[[[-72.3827277439999,-40.1270891120701],[-72.3838183919999,-40.12680733807],[-72.3838310889999,-40.1267858150701],[-72.3836745389999,-40.12646738707],[-72.3825635579999,-40.1267519310701],[-72.3827277439999,-40.1270891120701]]]}},{"type":"Feature","properties":{"id":"14202011001032","commune":"Futrono","code":"14202","gse":"C3","quintil":"Q2","nse_score":684.5,"educ":11.4,"educ_score":560.0,"hacin":1.462,"hacin_class":"Hacinamiento Leve","hacin_score":752.9,"auto_score":269.2,"n_per":76,"n_hog":24,"source_year":2024},"geometry":{"type":"Polygon","coordinates":[[[-72.3829145149999,-40.12764547707],[-72.3839731449999,-40.12709298607],[-72.3838597469999,-40.12684973207],[-72.3827282679999,-40.12712874507],[-72.3829145149999,-40.12764547707]]]}},{"type":"Feature","properties":{"id":"14202011001037","commune":"Futrono","code":"14202","gse":"C3","quintil":"Q3","nse_score":714.2,"educ":11.2,"educ_score":546.7,"hacin":1.27,"hacin_class":"Hacinamiento Leve","hacin_score":793.7,"auto_score":194.4,"n_per":146,"n_hog":54,"source_year":2024},"geometry":{"type":"Polygon","coordinates":[[[-72.3833886229999,-40.12751048307],[-72.3836181249999,-40.1279937080701],[-72.3830135749999,-40.1279719500701],[-72.3830589109999,-40.12828403007],[-72.3836499689999,-40.12829831707],[-72.3836996179999,-40.1283897060701],[-72.3823427119999,-40.12838580707],[-72.3823689769999,-40.1286814900701],[-72.3828876249999,-40.12879462007],[-72.3833211599999,-40.12865007707],[-72.3837861499999,-40.12858797307],[-72.3829172749999,-40.12881038007],[-72.3831495439999,-40.12890114407],[-72.3832966089999,-40.12921551607],[-72.3848371579999,-40.1290178410701],[-72.3843086879999,-40.12760199707],[-72.3839322699999,-40.12763376007],[-72.383767314,-40.12728529307],[-72.3833886229999,-40.12751048307]]]}},{"type":"Feature","properties":{"id":"14202011001038","commune":"Futrono","code":"14202","gse":"D","quintil":"Q2","nse_score":655.0,"educ":9.6,"educ_score":440.0,"hacin":1.077,"hacin_class":"Hacinamiento Leve","hacin_score":834.7,"auto_score":142.9,"n_per":14,"n_hog":7,"source_year":2024},"geometry":{"type":"Polygon","coordinates":[[[-72.3829925109999,-40.1279328780701],[-72.3834629999999,-40.12792082507],[-72.3833388959999,-40.12751911107],[-72.3829147129999,-40.12772263007],[-72.3829925109999,-40.1279328780701]]]}},{"type":"Feature","properties":{"id":"14202011001041","commune":"Futrono","code":"14202","gse":"C2","quintil":"Q4","nse_score":740.3,"educ":12.2,"educ_score":613.3,"hacin":1.193,"hacin_class":"Hacinamiento Leve","hacin_score":810.0,"auto_score":300.0,"n_per":68,"n_hog":25,"source_year":2024},"geometry":{"type":"Polygon","coordinates":[[[-72.3765416819999,-40.1279204080701],[-72.3768724249999,-40.12842044607],[-72.3774228409999,-40.1287114150701],[-72.3776347699999,-40.12833407607],[-72.3780384419999,-40.1284566950701],[-72.3776607559999,-40.12837305607],[-72.377443706,-40.12875472607],[-72.3781780759999,-40.12903532407],[-72.3775385519999,-40.12890114207],[-72.3770925929999,-40.13006315707],[-72.3771062029999,-40.13057322707],[-72.3774832039999,-40.13130637707],[-72.3781459999999,-40.13063835107],[-72.3805281689999,-40.13022646007],[-72.3775726699999,-40.12765442207],[-72.3765416819999,-40.1279204080701]]]}},{"type":"Feature","properties":{"id":"14202011001042","commune":"Futrono","code":"14202","gse":"E","quintil":"Q1","nse_score":606.3,"educ":9.8,"educ_score":453.3,"hacin":1.426,"hacin_class":"Hacinamiento Leve","hacin_score":760.4,"auto_score":218.8,"n_per":77,"n_hog":30,"source_year":2024},"geometry":{"type":"Polygon","coordinates":[[[-72.3802424769999,-40.12824050207],[-72.3801862879999,-40.1285747630701],[-72.3804624009999,-40.12853341707],[-72.3801735849999,-40.12866410507],[-72.3806279539999,-40.12944230507],[-72.3811885339999,-40.12930906907],[-72.3811121639999,-40.12910643807],[-72.3812334989999,-40.12929877607],[-72.3829739729999,-40.1288733740701],[-72.3802424769999,-40.12824050207]]]}},{"type":"Feature","properties":{"id":"14202011001043","commune":"Futrono","code":"14202","gse":"C3","quintil":"Q3","nse_score":696.0,"educ":12.2,"educ_score":613.3,"hacin":1.333,"hacin_class":"Hacinamiento Leve","hacin_score":780.1,"auto_score":500.0,"n_per":16,"n_hog":6,"source_year":2024},"geometry":{"type":"Polygon","coordinates":[[[-72.3769054489999,-40.12848098607],[-72.3763107349999,-40.13040696107],[-72.3751134919999,-40.13090203307],[-72.3753985619999,-40.13099006007],[-72.3756467929999,-40.13125812807],[-72.3762548589999,-40.13093333807],[-72.3771196529999,-40.13071245207],[-72.3770470969999,-40.13005645007],[-72.3774965699999,-40.12888408407],[-72.3769054489999,-40.12848098607]]]}},{"type":"Feature","properties":{"id":"14202011001045","commune":"Futrono","code":"14202","gse":"D","quintil":"Q2","nse_score":649.4,"educ":10.8,"educ_score":520.0,"hacin":1.479,"hacin_class":"Hacinamiento Leve","hacin_score":749.1,"auto_score":33.3,"n_per":71,"n_hog":28,"source_year":2024},"geometry":{"type":"Polygon","coordinates":[[[-72.3830879479999,-40.12893443207],[-72.3822877549999,-40.1291041630701],[-72.3823306509999,-40.12955026807],[-72.3822303039999,-40.12911805407],[-72.3806280459999,-40.12949926907],[-72.3807548769999,-40.13006503307],[-72.3832867639999,-40.12980540707],[-72.3830879479999,-40.12893443207]]]}},{"type":"Feature","properties":{"id":"14202011001046","commune":"Futrono","code":"14202","gse":"C3","quintil":"Q2","nse_score":676.3,"educ":11.1,"educ_score":540.0,"hacin":1.382,"hacin_class":"Hacinamiento Leve","hacin_score":769.7,"auto_score":147.1,"n_per":47,"n_hog":16,"source_year":2024},"geometry":{"type":"Polygon","coordinates":[[[-72.3834098229999,-40.12979125407],[-72.3850251399999,-40.12957784207],[-72.3850515229999,-40.12952983507],[-72.3848589089999,-40.12908715407],[-72.3833330809999,-40.1292742620701],[-72.3834098229999,-40.12979125407]]]}},{"type":"Feature","properties":{"id":"14202011001047","commune":"Futrono","code":"14202","gse":"D","quintil":"Q2","nse_score":661.1,"educ":9.6,"educ_score":440.0,"hacin":1.178,"hacin_class":"Hacinamiento Leve","hacin_score":813.2,"auto_score":147.1,"n_per":53,"n_hog":17,"source_year":2024},"geometry":{"type":"Polygon","coordinates":[[[-72.3756812149999,-40.13129459107],[-72.3760733459999,-40.13176545607],[-72.3774553029999,-40.13133042207],[-72.3771413179999,-40.1307542690701],[-72.3762791159999,-40.13097434707],[-72.3756812149999,-40.13129459107]]]}},{"type":"Feature","properties":{"id":"14202011001048","commune":"Futrono","code":"14202","gse":"E","quintil":"Q1","nse_score":564.5,"educ":7.8,"educ_score":320.0,"hacin":1.406,"hacin_class":"Hacinamiento Leve","hacin_score":764.6,"auto_score":142.9,"n_per":45,"n_hog":14,"source_year":2024},"geometry":{"type":"Polygon","coordinates":[[[-72.3751158169999,-40.13093268707],[-72.3741726469999,-40.13141735807],[-72.3745958789999,-40.13185825707],[-72.3739113629999,-40.13269640807],[-72.3739940699999,-40.13289967707],[-72.37506142,-40.13248017207],[-72.375288167,-40.13209740307],[-72.3756409649999,-40.1319419050701],[-72.3752756109999,-40.13151864507],[-72.3746875119999,-40.13185287007],[-72.3756106589999,-40.13127456307],[-72.3752816489999,-40.1309525660701],[-72.3751158169999,-40.13093268707]]]}},{"type":"Feature","properties":{"id":"14202011001049","commune":"Futrono","code":"14202","gse":"D","quintil":"Q1","nse_score":638.3,"educ":9.9,"educ_score":460.0,"hacin":1.8,"hacin_class":"Hacinamiento Medio","hacin_score":680.9,"auto_score":83.3,"n_per":18,"n_hog":6,"source_year":2024},"geometry":{"type":"Polygon","coordinates":[[[-72.3756416649999,-40.13131311207],[-72.3752587919999,-40.13148357407],[-72.3756824079999,-40.13192484007],[-72.3760316629999,-40.13178230207],[-72.3756416649999,-40.13131311207]]]}},{"type":"Feature","properties":{"id":"14202011001034","commune":"Futrono","code":"14202","gse":"E","quintil":"Q1","nse_score":609.0,"educ":10.1,"educ_score":473.3,"hacin":1.42,"hacin_class":"Hacinamiento Leve","hacin_score":761.8,"auto_score":111.1,"n_per":115,"n_hog":40,"source_year":2024},"geometry":{"type":"MultiPolygon","coordinates":[[[[-72.3801993289999,-40.12760140607],[-72.3802947869999,-40.12819349007],[-72.3823432209999,-40.12867707507],[-72.3823622689999,-40.12830154107],[-72.3829768669999,-40.1282899120701],[-72.3828112539999,-40.12778407707],[-72.381981676,-40.12791448607],[-72.3801993289999,-40.12760140607]]],[[[-72.3799586309999,-40.12702407807],[-72.3801749739999,-40.1275398870701],[-72.3804491019999,-40.12757465607],[-72.380418743,-40.1273300760701],[-72.380580414,-40.12733488407],[-72.3804677059999,-40.1269402020701],[-72.3799586309999,-40.12702407807]]]]}},{"type":"Feature","properties":{"id":"14202011001035","commune":"Futrono","code":"14202","gse":"C2","quintil":"Q4","nse_score":730.0,"educ":14.1,"educ_score":740.0,"hacin":1.333,"hacin_class":"Hacinamiento Leve","hacin_score":780.1,"auto_score":388.9,"n_per":24,"n_hog":9,"source_year":2024},"geometry":{"type":"MultiPolygon","coordinates":[[[[-72.3744683329999,-40.12761429407],[-72.3742365679999,-40.12829721707],[-72.3754715139999,-40.12866698107],[-72.3768520009999,-40.12870713807],[-72.3768595089999,-40.12848955907],[-72.3764913609999,-40.12792815007],[-72.3759384099999,-40.12792828107],[-72.3744683329999,-40.12761429407]]],[[[-72.3752281479999,-40.12739881707],[-72.3751780029999,-40.12751466907],[-72.3746827809999,-40.12741949507],[-72.3746280729999,-40.12759030307],[-72.3757705429999,-40.1278309780701],[-72.3757746729999,-40.12742894907],[-72.375105329,-40.12702167407],[-72.3749740929999,-40.12715838807],[-72.3752281479999,-40.12739881707]]]]}},{"type":"Feature","properties":{"id":"14202011001029","commune":"Futrono","code":"14202","gse":"D","quintil":"Q2","nse_score":654.6,"educ":10.4,"educ_score":493.3,"hacin":1.46,"hacin_class":"Hacinamiento Leve","hacin_score":753.3,"auto_score":250.0,"n_per":54,"n_hog":16,"source_year":2024},"geometry":{"type":"MultiPolygon","coordinates":[[[[-72.3821244569999,-40.1268685090701],[-72.3824704459999,-40.12679544407],[-72.38227122,-40.1264756520701],[-72.3819822719999,-40.12653217407],[-72.3821244569999,-40.1268685090701]]],[[[-72.3825465359999,-40.1267179820701],[-72.3836586019999,-40.1264318710701],[-72.3835360889999,-40.1261004630701],[-72.3823314909999,-40.12639177607],[-72.3825465359999,-40.1267179820701]]]]}},{"type":"Feature","properties":{"id":"14202011002003","commune":"Futrono","code":"14202","gse":"C2","quintil":"Q4","nse_score":778.1,"educ":13.1,"educ_score":673.3,"hacin":1.089,"hacin_class":"Hacinamiento Leve","hacin_score":832.2,"auto_score":181.8,"n_per":49,"n_hog":22,"source_year":2024},"geometry":{"type":"Polygon","coordinates":[[[-72.3936295629999,-40.12848185607],[-72.3918563829999,-40.1299311590701],[-72.3926099339999,-40.13089698307],[-72.3927861889999,-40.13095018307],[-72.392577275,-40.13092493107],[-72.3918231669999,-40.12995868407],[-72.3902916719999,-40.13114867107],[-72.3906831169999,-40.13150592907],[-72.3910339949999,-40.13129764607],[-72.3915123879999,-40.13168280207],[-72.3907480319999,-40.1322591730701],[-72.3908681839999,-40.13246766407],[-72.3915884979999,-40.13232305507],[-72.3920629659999,-40.13241738107],[-72.3923640879999,-40.13221464807],[-72.392619453,-40.13230346907],[-72.3928527989999,-40.13212555807],[-72.3920082339999,-40.13154520707],[-72.3929949359999,-40.13116140807],[-72.3929863579999,-40.13095145907],[-72.39344116,-40.13093506007],[-72.3937253419999,-40.13112605107],[-72.3936931839999,-40.13098066807],[-72.3941035429999,-40.13061301407],[-72.3942411279999,-40.1301235540701],[-72.3940080289999,-40.12931526907],[-72.3934767929999,-40.12931609507],[-72.3939960019999,-40.12927994107],[-72.3938097689999,-40.1287187280701],[-72.3935036249999,-40.1288054600701],[-72.3937814879999,-40.12859661607],[-72.3936295629999,-40.12848185607]]]}},{"type":"Feature","properties":{"id":"14202011002004","commune":"Futrono","code":"14202","gse":"C3","quintil":"Q3","nse_score":708.1,"educ":12.0,"educ_score":600.0,"hacin":1.321,"hacin_class":"Hacinamiento Leve","hacin_score":782.7,"auto_score":200.0,"n_per":37,"n_hog":15,"source_year":2024},"geometry":{"type":"Polygon","coordinates":[[[-72.3919431369999,-40.12969939907],[-72.392639615,-40.1291718200701],[-72.3934121419999,-40.12849947907],[-72.3915026899999,-40.12882039607],[-72.3917363739999,-40.12948431307],[-72.3919431369999,-40.12969939907]]]}},{"type":"Feature","properties":{"id":"14202011002005","commune":"Futrono","code":"14202","gse":"C2","quintil":"Q4","nse_score":781.3,"educ":12.6,"educ_score":640.0,"hacin":1.286,"hacin_class":"Hacinamiento Leve","hacin_score":790.3,"auto_score":382.4,"n_per":54,"n_hog":17,"source_year":2024},"geometry":{"type":"Polygon","coordinates":[[[-72.3911032579999,-40.13038300307],[-72.3918847749999,-40.12977708407],[-72.3913867329999,-40.12883532807],[-72.390422671,-40.12898601107],[-72.3911032579999,-40.13038300307]]]}},{"type":"Feature","properties":{"id":"14202011002006","commune":"Futrono","code":"14202","gse":"C2","quintil":"Q3","nse_score":719.3,"educ":11.8,"educ_score":586.7,"hacin":1.231,"hacin_class":"Hacinamiento Leve","hacin_score":802.0,"auto_score":220.0,"n_per":64,"n_hog":23,"source_year":2024},"geometry":{"type":"Polygon","coordinates":[[[-72.3901825849999,-40.1310859480701],[-72.3910196259999,-40.13044939907],[-72.3903188729999,-40.12899060707],[-72.3894914039999,-40.12908481507],[-72.3897849119999,-40.13045326507],[-72.3901825849999,-40.1310859480701]]]}},{"type":"Feature","properties":{"id":"14202011002008","commune":"Futrono","code":"14202","gse":"D","quintil":"Q2","nse_score":666.7,"educ":11.7,"educ_score":580.0,"hacin":1.323,"hacin_class":"Hacinamiento Leve","hacin_score":782.4,"auto_score":90.9,"n_per":41,"n_hog":19,"source_year":2024},"geometry":{"type":"Polygon","coordinates":[[[-72.3869734119999,-40.13060457007],[-72.3884223129999,-40.13058809207],[-72.3878839029999,-40.12930112907],[-72.3867594539999,-40.12945680407],[-72.3869734119999,-40.13060457007]]]}},{"type":"Feature","properties":{"id":"14202011002009","commune":"Futrono","code":"14202","gse":"D","quintil":"Q1","nse_score":624.0,"educ":10.5,"educ_score":500.0,"hacin":1.333,"hacin_class":"Hacinamiento Leve","hacin_score":780.1,"auto_score":16.7,"n_per":60,"n_hog":25,"source_year":2024},"geometry":{"type":"Polygon","coordinates":[[[-72.3856024909999,-40.13061648707],[-72.3868295319999,-40.13059240407],[-72.3866627559999,-40.12946597107],[-72.3851929129999,-40.12962992407],[-72.3856024909999,-40.13061648707]]]}},{"type":"Feature","properties":{"id":"14202011002010","commune":"Futrono","code":"14202","gse":"D","quintil":"Q2","nse_score":648.5,"educ":10.1,"educ_score":473.3,"hacin":1.177,"hacin_class":"Hacinamiento Leve","hacin_score":813.5,"auto_score":15.2,"n_per":80,"n_hog":32,"source_year":2024},"geometry":{"type":"Polygon","coordinates":[[[-72.3834164809999,-40.12986645707],[-72.383520685,-40.13035802107],[-72.3846615909999,-40.13020435507],[-72.3848646639999,-40.13069043707],[-72.3854658399999,-40.13060556307],[-72.3850837389999,-40.12964310307],[-72.3834164809999,-40.12986645707]]]}},{"type":"Feature","properties":{"id":"14202011002011","commune":"Futrono","code":"14202","gse":"D","quintil":"Q2","nse_score":658.5,"educ":10.5,"educ_score":500.0,"hacin":1.19,"hacin_class":"Hacinamiento Leve","hacin_score":810.5,"auto_score":38.5,"n_per":25,"n_hog":11,"source_year":2024},"geometry":{"type":"Polygon","coordinates":[[[-72.3824036679999,-40.13049670707],[-72.3834248779999,-40.13037030207],[-72.3833265929999,-40.12990206207],[-72.3822803649999,-40.13001245007],[-72.3824036679999,-40.13049670707]]]}},{"type":"Feature","properties":{"id":"14202011002012","commune":"Futrono","code":"14202","gse":"D","quintil":"Q1","nse_score":636.7,"educ":9.9,"educ_score":460.0,"hacin":1.373,"hacin_class":"Hacinamiento Leve","hacin_score":771.7,"auto_score":15.2,"n_per":81,"n_hog":31,"source_year":2024},"geometry":{"type":"Polygon","coordinates":[[[-72.3806958939999,-40.13027160207],[-72.3812131749999,-40.13083901007],[-72.3823336309999,-40.13129395207],[-72.3827051779999,-40.13069574307],[-72.3818052749999,-40.13033787207],[-72.3822639479999,-40.13044958807],[-72.3821984239999,-40.13002171607],[-72.3806958939999,-40.13027160207]]]}},{"type":"Feature","properties":{"id":"14202011002014","commune":"Futrono","code":"14202","gse":"C3","quintil":"Q2","nse_score":683.4,"educ":11.3,"educ_score":553.3,"hacin":1.355,"hacin_class":"Hacinamiento Leve","hacin_score":775.6,"auto_score":58.8,"n_per":42,"n_hog":16,"source_year":2024},"geometry":{"type":"Polygon","coordinates":[[[-72.3836286369999,-40.13085076707],[-72.3847784379999,-40.13070497307],[-72.3846394819999,-40.13026413007],[-72.3835245359999,-40.13041403107],[-72.3836286369999,-40.13085076707]]]}},{"type":"Feature","properties":{"id":"14202011002015","commune":"Futrono","code":"14202","gse":"C3","quintil":"Q2","nse_score":680.5,"educ":10.6,"educ_score":506.7,"hacin":1.292,"hacin_class":"Hacinamiento Leve","hacin_score":788.9,"auto_score":117.6,"n_per":221,"n_hog":85,"source_year":2024},"geometry":{"type":"Polygon","coordinates":[[[-72.3825075539999,-40.13144326407],[-72.3812675699999,-40.13096374507],[-72.3805707679999,-40.13030622707],[-72.3781922769999,-40.1307016150701],[-72.3775608969999,-40.13134772307],[-72.3777573669999,-40.13141552607],[-72.3781636999999,-40.13098353407],[-72.3793299729999,-40.13104059907],[-72.3805521129999,-40.13150540107],[-72.3805548989999,-40.13224794107],[-72.3809092329999,-40.13228506407],[-72.3809399499999,-40.13178268007],[-72.3808299249999,-40.13169576307],[-72.3817321529999,-40.13203803007],[-72.3817752719999,-40.13229755607],[-72.3820339179999,-40.13230512107],[-72.3825075539999,-40.13144326407]]]}},{"type":"Feature","properties":{"id":"14202011002017","commune":"Futrono","code":"14202","gse":"D","quintil":"Q1","nse_score":641.0,"educ":10.4,"educ_score":493.3,"hacin":1.476,"hacin_class":"Hacinamiento Leve","hacin_score":749.7,"auto_score":62.5,"n_per":31,"n_hog":15,"source_year":2024},"geometry":{"type":"Polygon","coordinates":[[[-72.3860643049999,-40.1317423780701],[-72.3870977449999,-40.13173013407],[-72.3868492849999,-40.1306649140701],[-72.3855982779999,-40.13069268907],[-72.3860643049999,-40.1317423780701]]]}},{"type":"Feature","properties":{"id":"14202011002018","commune":"Futrono","code":"14202","gse":"C3","quintil":"Q3","nse_score":712.3,"educ":12.0,"educ_score":600.0,"hacin":0.846,"hacin_class":"Sin Hacinamiento","hacin_score":883.8,"auto_score":178.6,"n_per":22,"n_hog":13,"source_year":2024},"geometry":{"type":"Polygon","coordinates":[[[-72.3869690729999,-40.13066878907],[-72.3872218449999,-40.13175626707],[-72.3888820309999,-40.13177608107],[-72.3884579559999,-40.13068086807],[-72.3869690729999,-40.13066878907]]]}},{"type":"Feature","properties":{"id":"14202011002019","commune":"Futrono","code":"14202","gse":"E","quintil":"Q1","nse_score":610.4,"educ":10.2,"educ_score":480.0,"hacin":1.333,"hacin_class":"Hacinamiento Leve","hacin_score":780.1,"auto_score":78.1,"n_per":60,"n_hog":25,"source_year":2024},"geometry":{"type":"Polygon","coordinates":[[[-72.3849792029999,-40.1312724570701],[-72.3848035959999,-40.13077724507],[-72.3841769129999,-40.13085397307],[-72.3843778739999,-40.13176791207],[-72.3858913969999,-40.13170676507],[-72.3854850219999,-40.13068067207],[-72.384875055,-40.13076041407],[-72.3849792029999,-40.1312724570701]]]}},{"type":"Feature","properties":{"id":"14202011002021","commune":"Futrono","code":"14202","gse":"D","quintil":"Q1","nse_score":621.1,"educ":8.6,"educ_score":373.3,"hacin":1.414,"hacin_class":"Hacinamiento Leve","hacin_score":763.0,"auto_score":71.4,"n_per":41,"n_hog":14,"source_year":2024},"geometry":{"type":"Polygon","coordinates":[[[-72.3841060689999,-40.13086344807],[-72.3834151099999,-40.13094606407],[-72.3830954609999,-40.13156718807],[-72.3836763259999,-40.13174886107],[-72.3842977879999,-40.13177479907],[-72.3841060689999,-40.13086344807]]]}},{"type":"Feature","properties":{"id":"14202011002025","commune":"Futrono","code":"14202","gse":"C3","quintil":"Q2","nse_score":683.7,"educ":10.9,"educ_score":526.7,"hacin":1.327,"hacin_class":"Hacinamiento Leve","hacin_score":781.4,"auto_score":222.8,"n_per":531,"n_hog":187,"source_year":2024},"geometry":{"type":"Polygon","coordinates":[[[-72.3825936239999,-40.13149788607],[-72.382187229,-40.13226389607],[-72.3826277059999,-40.13231023507],[-72.3825835059999,-40.13239703107],[-72.3820870019999,-40.13242102707],[-72.3814171069999,-40.13371012807],[-72.3813367219999,-40.13369701807],[-72.3814131669999,-40.13354591407],[-72.3807235599999,-40.13342621307],[-72.3808234219999,-40.13309008807],[-72.3806561419999,-40.13302486107],[-72.3816469969999,-40.13304095707],[-72.3817808789999,-40.13277284507],[-72.3805639699999,-40.13274406007],[-72.381831959,-40.13268552207],[-72.3819788439999,-40.13239875507],[-72.3806455549999,-40.13234533607],[-72.380677579,-40.13251541907],[-72.3805476609999,-40.13234917007],[-72.3800644539999,-40.13245524207],[-72.3797808999999,-40.13297263507],[-72.3797760019999,-40.13339026907],[-72.3798334819999,-40.13353943607],[-72.3801220749999,-40.13356533807],[-72.3803641469999,-40.13439815507],[-72.3848288149999,-40.13368593307],[-72.3847876799999,-40.13330235007],[-72.3834404109999,-40.13315940307],[-72.3848032889999,-40.13323572507],[-72.3848780799999,-40.13183916107],[-72.3837289549999,-40.13183820207],[-72.3825936239999,-40.13149788607]]]}},{"type":"Feature","properties":{"id":"14202011002026","commune":"Futrono","code":"14202","gse":"C3","quintil":"Q2","nse_score":679.3,"educ":10.4,"educ_score":493.3,"hacin":1.294,"hacin_class":"Hacinamiento Leve","hacin_score":788.5,"auto_score":227.3,"n_per":22,"n_hog":11,"source_year":2024},"geometry":{"type":"Polygon","coordinates":[[[-72.3855753009999,-40.13280085107],[-72.3870013109999,-40.13270919807],[-72.3875294619999,-40.13264077007],[-72.3871021379999,-40.13184517507],[-72.3849487299999,-40.13183521307],[-72.3849105959999,-40.13255556107],[-72.3855753009999,-40.13280085107]]]}},{"type":"Feature","properties":{"id":"14202011002027","commune":"Futrono","code":"14202","gse":"C3","quintil":"Q2","nse_score":683.3,"educ":10.5,"educ_score":500.0,"hacin":1.39,"hacin_class":"Hacinamiento Leve","hacin_score":768.0,"auto_score":323.5,"n_per":57,"n_hog":17,"source_year":2024},"geometry":{"type":"Polygon","coordinates":[[[-72.3816743849999,-40.13206702907],[-72.3810311459999,-40.13182589107],[-72.3809909679999,-40.13226673107],[-72.3816759559999,-40.13229621407],[-72.3816743849999,-40.13206702907]]]}},{"type":"Feature","properties":{"id":"14202011002028","commune":"Futrono","code":"14202","gse":"C3","quintil":"Q3","nse_score":707.3,"educ":10.9,"educ_score":526.7,"hacin":1.049,"hacin_class":"Hacinamiento Leve","hacin_score":840.7,"auto_score":263.9,"n_per":86,"n_hog":36,"source_year":2024},"geometry":{"type":"Polygon","coordinates":[[[-72.3872613939999,-40.13187570507],[-72.3891182629999,-40.13542325307],[-72.3909479719999,-40.13675519107],[-72.3911659309999,-40.13654407007],[-72.3893859539999,-40.13532195707],[-72.3883791649999,-40.13357608807],[-72.3902063079999,-40.13350948307],[-72.3904072659999,-40.13398636207],[-72.3909725679999,-40.13390973207],[-72.3915017839999,-40.13371355707],[-72.3912251389999,-40.13338194707],[-72.3924210819999,-40.13258747907],[-72.3916987339999,-40.13237632507],[-72.3912620799999,-40.13250172307],[-72.3913844689999,-40.13273777507],[-72.3917701569999,-40.13291796107],[-72.3913338199999,-40.13277600907],[-72.3911241459999,-40.13246395807],[-72.3908398879999,-40.13253902907],[-72.3906699119999,-40.13230541607],[-72.3897008519999,-40.13257584107],[-72.3897777579999,-40.13289208207],[-72.3896325859999,-40.13258905807],[-72.3893495899999,-40.13264626207],[-72.3895052699999,-40.13297734107],[-72.3900889089999,-40.13305879607],[-72.3901391029999,-40.13314780007],[-72.3894185349999,-40.13298653207],[-72.3889727889999,-40.13186388407],[-72.3872613939999,-40.13187570507]]]}},{"type":"Feature","properties":{"id":"14202011002030","commune":"Futrono","code":"14202","gse":"C3","quintil":"Q2","nse_score":672.6,"educ":14.0,"educ_score":733.3,"hacin":1.194,"hacin_class":"Hacinamiento Leve","hacin_score":809.9,"auto_score":287.9,"n_per":74,"n_hog":32,"source_year":2024},"geometry":{"type":"Polygon","coordinates":[[[-72.3849096819999,-40.13264078407],[-72.3849070049999,-40.13377590207],[-72.3846403299999,-40.13421438007],[-72.3847935559999,-40.13428876907],[-72.3846621819999,-40.13447247207],[-72.3851208519999,-40.13503733607],[-72.3853623499999,-40.13589879907],[-72.3865035809999,-40.13550430407],[-72.386845778,-40.13569255807],[-72.3876097189999,-40.13528766107],[-72.3873095369999,-40.13492236407],[-72.388066207,-40.13479300207],[-72.3884187199999,-40.13438946807],[-72.3875911189999,-40.13276214907],[-72.3867685559999,-40.13279582407],[-72.3871751369999,-40.13392758007],[-72.3856675769999,-40.13440043607],[-72.3857889849999,-40.13467455807],[-72.3857819629999,-40.13472787507],[-72.3856441719999,-40.13479057607],[-72.3857582989999,-40.13467605707],[-72.385640969,-40.13441397407],[-72.3853581399999,-40.13450205607],[-72.3852471499999,-40.13485942907],[-72.3855010359999,-40.13486732207],[-72.3855305549999,-40.13491193307],[-72.3852842979999,-40.13490204807],[-72.385215909,-40.13487592107],[-72.3851983049999,-40.13473566407],[-72.3853244229999,-40.13451312807],[-72.3852377309999,-40.13448363207],[-72.386097376,-40.13420377007],[-72.3858717799999,-40.13371857907],[-72.3861308749999,-40.13419328607],[-72.3871120449999,-40.13388345807],[-72.3866313309999,-40.13281812807],[-72.3854915159999,-40.13286796007],[-72.3855356609999,-40.13319801907],[-72.3851616069999,-40.13329676307],[-72.3854427079999,-40.13314304207],[-72.3853836049999,-40.13286336007],[-72.3849096819999,-40.13264078407]]]}},{"type":"Feature","properties":{"id":"14202011002031","commune":"Futrono","code":"14202","gse":"C2","quintil":"Q3","nse_score":725.3,"educ":11.6,"educ_score":573.3,"hacin":1.365,"hacin_class":"Hacinamiento Leve","hacin_score":773.3,"auto_score":340.0,"n_per":71,"n_hog":25,"source_year":2024},"geometry":{"type":"Polygon","coordinates":[[[-72.3813540279999,-40.13350464007],[-72.3815923889999,-40.13311958907],[-72.3808674989999,-40.13309108807],[-72.3807543269999,-40.13340863207],[-72.3813540279999,-40.13350464007]]]}},{"type":"Feature","properties":{"id":"14202011002032","commune":"Futrono","code":"14202","gse":"D","quintil":"Q2","nse_score":666.7,"educ":11.0,"educ_score":533.3,"hacin":1.422,"hacin_class":"Hacinamiento Leve","hacin_score":761.3,"auto_score":281.2,"n_per":91,"n_hog":32,"source_year":2024},"geometry":{"type":"Polygon","coordinates":[[[-72.3800683899999,-40.13358544607],[-72.3794346409999,-40.13364575707],[-72.3795107299999,-40.13395036507],[-72.3797565789999,-40.13391790307],[-72.3799339379999,-40.13448649907],[-72.3803082469999,-40.13441260507],[-72.3800683899999,-40.13358544607]]]}},{"type":"Feature","properties":{"id":"14202011002033","commune":"Futrono","code":"14202","gse":"C3","quintil":"Q3","nse_score":692.9,"educ":11.2,"educ_score":546.7,"hacin":1.4,"hacin_class":"Hacinamiento Leve","hacin_score":766.0,"auto_score":425.9,"n_per":91,"n_hog":27,"source_year":2024},"geometry":{"type":"Polygon","coordinates":[[[-72.3793871799999,-40.13367885207],[-72.3787875709999,-40.13372827907],[-72.3790602459999,-40.13462489207],[-72.3794567809999,-40.13456493307],[-72.3792983239999,-40.13398995407],[-72.3794672269999,-40.13395783107],[-72.3793871799999,-40.13367885207]]]}},{"type":"Feature","properties":{"id":"14202011002034","commune":"Futrono","code":"14202","gse":"D","quintil":"Q2","nse_score":660.7,"educ":9.6,"educ_score":440.0,"hacin":1.383,"hacin_class":"Hacinamiento Leve","hacin_score":769.6,"auto_score":153.8,"n_per":65,"n_hog":25,"source_year":2024},"geometry":{"type":"Polygon","coordinates":[[[-72.3781765399999,-40.13403710707],[-72.3784372339999,-40.13408020407],[-72.3786243759999,-40.13468483407],[-72.3789908689999,-40.13463443307],[-72.3787164039999,-40.13373192807],[-72.378092051,-40.13380056207],[-72.3781765399999,-40.13403710707]]]}},{"type":"Feature","properties":{"id":"14202011002035","commune":"Futrono","code":"14202","gse":"D","quintil":"Q1","nse_score":639.8,"educ":9.2,"educ_score":413.3,"hacin":1.333,"hacin_class":"Hacinamiento Leve","hacin_score":780.1,"auto_score":212.8,"n_per":124,"n_hog":47,"source_year":2024},"geometry":{"type":"Polygon","coordinates":[[[-72.3819862139999,-40.13417577407],[-72.3823523979999,-40.13616754407],[-72.3829068579999,-40.13567404107],[-72.3828333629999,-40.13546235507],[-72.3829527949999,-40.13563203207],[-72.3832199539999,-40.13539325707],[-72.3828913779999,-40.13519526007],[-72.3832661959999,-40.13535142507],[-72.3833699069999,-40.13525610807],[-72.3828911649999,-40.13503393907],[-72.3827575209999,-40.13463802007],[-72.3829772519999,-40.13501493507],[-72.3832784929999,-40.13489456907],[-72.3831034519999,-40.13506675207],[-72.3834162899999,-40.13521458307],[-72.3838331499999,-40.13485450607],[-72.3835174069999,-40.13469500807],[-72.3833279829999,-40.13478405507],[-72.3835165409999,-40.13462775607],[-72.3838802699999,-40.13481309107],[-72.3841204739999,-40.13459654607],[-72.3839877109999,-40.13449419207],[-72.3841666389999,-40.13455573707],[-72.3843199409999,-40.13442270407],[-72.3848353579999,-40.13374069807],[-72.3832031399999,-40.13396376207],[-72.3832576619999,-40.13411574107],[-72.3830812819999,-40.13422081107],[-72.3831341929999,-40.13397517907],[-72.3827333699999,-40.13404536907],[-72.3827348639999,-40.13424654407],[-72.382664497,-40.13405693407],[-72.3819862139999,-40.13417577407]]]}},{"type":"Feature","properties":{"id":"14202011002036","commune":"Futrono","code":"14202","gse":"D","quintil":"Q1","nse_score":627.5,"educ":9.3,"educ_score":420.0,"hacin":1.327,"hacin_class":"Hacinamiento Leve","hacin_score":781.6,"auto_score":291.7,"n_per":65,"n_hog":23,"source_year":2024},"geometry":{"type":"Polygon","coordinates":[[[-72.3777646089999,-40.13480711707],[-72.3781477879999,-40.13475043207],[-72.3779747129999,-40.13412546907],[-72.3781508239999,-40.13409452107],[-72.3780478549999,-40.13380623407],[-72.3774878379999,-40.13387808107],[-72.3777646089999,-40.13480711707]]]}},{"type":"Feature","properties":{"id":"14202011002037","commune":"Futrono","code":"14202","gse":"E","quintil":"Q1","nse_score":535.2,"educ":10.1,"educ_score":473.3,"hacin":1.304,"hacin_class":"Hacinamiento Leve","hacin_score":786.3,"auto_score":200.0,"n_per":30,"n_hog":10,"source_year":2024},"geometry":{"type":"Polygon","coordinates":[[[-72.3793677189999,-40.13407812807],[-72.3795004099999,-40.13455791407],[-72.3798907579999,-40.13449502307],[-72.3797220749999,-40.13395066407],[-72.3793677189999,-40.13407812807]]]}},{"type":"Feature","properties":{"id":"14202011002038","commune":"Futrono","code":"14202","gse":"E","quintil":"Q1","nse_score":468.1,"educ":9.4,"educ_score":426.7,"hacin":1.438,"hacin_class":"Hacinamiento Leve","hacin_score":758.0,"auto_score":200.0,"n_per":23,"n_hog":9,"source_year":2024},"geometry":{"type":"Polygon","coordinates":[[[-72.3785745819999,-40.13469168207],[-72.3783994419999,-40.13410967207],[-72.3780269139999,-40.13414956507],[-72.3781916749999,-40.13474433807],[-72.3785745819999,-40.13469168207]]]}},{"type":"Feature","properties":{"id":"14202011002039","commune":"Futrono","code":"14202","gse":"C3","quintil":"Q3","nse_score":698.9,"educ":11.2,"educ_score":546.7,"hacin":1.173,"hacin_class":"Hacinamiento Leve","hacin_score":814.2,"auto_score":240.0,"n_per":61,"n_hog":25,"source_year":2024},"geometry":{"type":"Polygon","coordinates":[[[-72.3814102299999,-40.13535167707],[-72.3811231449999,-40.13433228507],[-72.3802046839999,-40.13447878907],[-72.3803086949999,-40.13510211407],[-72.3808202699999,-40.13501555107],[-72.3809579639999,-40.13557238607],[-72.3821891109999,-40.13539664307],[-72.3819405349999,-40.13418396407],[-72.3811691769999,-40.13432417607],[-72.3814102299999,-40.13535167707]]]}},{"type":"Feature","properties":{"id":"14202011002040","commune":"Futrono","code":"14202","gse":"D","quintil":"Q1","nse_score":642.3,"educ":10.5,"educ_score":500.0,"hacin":1.4,"hacin_class":"Hacinamiento Leve","hacin_score":766.0,"auto_score":250.0,"n_per":21,"n_hog":8,"source_year":2024},"geometry":{"type":"Polygon","coordinates":[[[-72.3795461359999,-40.13459655507],[-72.3780881319999,-40.13480510507],[-72.3783298229999,-40.13526438307],[-72.3796366539999,-40.13496705107],[-72.3795461359999,-40.13459655507]]]}},{"type":"Feature","properties":{"id":"14202011002041","commune":"Futrono","code":"14202","gse":"D","quintil":"Q1","nse_score":623.4,"educ":9.9,"educ_score":460.0,"hacin":1.526,"hacin_class":"Hacinamiento Medio","hacin_score":739.1,"auto_score":117.6,"n_per":58,"n_hog":17,"source_year":2024},"geometry":{"type":"Polygon","coordinates":[[[-72.3761513259999,-40.13477378507],[-72.3762682479999,-40.13521837007],[-72.3774931059999,-40.13513412607],[-72.378254851,-40.13555496507],[-72.3796928169999,-40.13528503307],[-72.379661327,-40.13504105707],[-72.3783157379999,-40.13530091807],[-72.3780416359999,-40.13481198407],[-72.3774003189999,-40.13493506107],[-72.3766522179999,-40.13467295707],[-72.3761513259999,-40.13477378507]]]}},{"type":"Feature","properties":{"id":"14202011002002","commune":"Futrono","code":"14202","gse":"C1","quintil":"Q5","nse_score":794.7,"educ":14.5,"educ_score":766.7,"hacin":1.409,"hacin_class":"Hacinamiento Leve","hacin_score":764.0,"auto_score":264.7,"n_per":31,"n_hog":16,"source_year":2024},"geometry":{"type":"MultiPolygon","coordinates":[[[[-72.39488302,-40.13075775307],[-72.3942537279999,-40.13041416707],[-72.3940859129999,-40.13069249607],[-72.3943355909999,-40.13088122007],[-72.3944691499999,-40.13079459207],[-72.3943691649999,-40.13090659707],[-72.3944416409999,-40.13096137807],[-72.3940572769999,-40.13072123907],[-72.3937173619999,-40.13104507907],[-72.3947212689999,-40.13179537907],[-72.3950130299999,-40.13155918307],[-72.3946654889999,-40.13130659007],[-72.3949758199999,-40.13105400807],[-72.3960685289999,-40.13182160907],[-72.3963243919999,-40.13153546007],[-72.3956051759999,-40.13090440207],[-72.3943124459999,-40.13009984707],[-72.3942637709999,-40.13037411907],[-72.39488302,-40.13075775307]]],[[[-72.3944793649999,-40.12781919907],[-72.393789636,-40.12837114907],[-72.3941178659999,-40.12935435507],[-72.3949938899999,-40.12962135507],[-72.3951465159999,-40.12941603107],[-72.3955843709999,-40.12958134207],[-72.395148747,-40.12945695107],[-72.3950267199999,-40.12965208407],[-72.3957409809999,-40.12987517707],[-72.3959180129999,-40.12968291707],[-72.3957587279999,-40.1299154370701],[-72.3941336599999,-40.1293979210701],[-72.3943435119999,-40.13001163807],[-72.3952171689999,-40.13061005907],[-72.3956808489999,-40.12992951007],[-72.3960651299999,-40.1301088910701],[-72.3965585209999,-40.1294757520701],[-72.3956940799999,-40.12909529707],[-72.3948839239999,-40.12893986207],[-72.3961893569999,-40.12816040407],[-72.3963261619999,-40.1279096910701],[-72.3960790079999,-40.1278580860701],[-72.3963234859999,-40.12782899107],[-72.3964713769999,-40.12760473407],[-72.3958230549999,-40.12706099807],[-72.3944793649999,-40.12781919907]]]]}},{"type":"Feature","properties":{"id":"14202011002007","commune":"Futrono","code":"14202","gse":"C2","quintil":"Q4","nse_score":760.0,"educ":11.7,"educ_score":580.0,"hacin":1.143,"hacin_class":"Hacinamiento Leve","hacin_score":820.7,"auto_score":0.0,"n_per":24,"n_hog":11,"source_year":2024},"geometry":{"type":"MultiPolygon","coordinates":[[[[-72.3893614549999,-40.13256014307],[-72.3906861799999,-40.13220465707],[-72.3903313479999,-40.13183525507],[-72.3906292409999,-40.13154894207],[-72.390201568,-40.13122158607],[-72.3890601399999,-40.13185369407],[-72.3893614549999,-40.13256014307]]],[[[-72.3890264539999,-40.13175573807],[-72.3894606899999,-40.13160816407],[-72.3901087099999,-40.13113959107],[-72.3897120779999,-40.1304674770701],[-72.3894102469999,-40.12913397007],[-72.3880018859999,-40.12927057407],[-72.3890264539999,-40.13175573807]]]]}},{"type":"Feature","properties":{"id":"14202011002022","commune":"Futrono","code":"14202","gse":"D","quintil":"Q1","nse_score":626.9,"educ":9.9,"educ_score":460.0,"hacin":1.451,"hacin_class":"Hacinamiento Leve","hacin_score":755.1,"auto_score":163.3,"n_per":267,"n_hog":94,"source_year":2024},"geometry":{"type":"MultiPolygon","coordinates":[[[[-72.3750281369999,-40.13516123207],[-72.3756939229999,-40.13521076307],[-72.3756682919999,-40.13495015507],[-72.3750688109999,-40.13491967307],[-72.3750281369999,-40.13516123207]]],[[[-72.3793146089999,-40.13106514707],[-72.3781105149999,-40.13103551007],[-72.377753562,-40.13145220207],[-72.3776903209999,-40.13178898307],[-72.3777986239999,-40.13227302507],[-72.377658934,-40.13179562507],[-72.3777126049999,-40.13145862607],[-72.3775331389999,-40.13137164407],[-72.3761556919999,-40.13181325907],[-72.3764271599999,-40.13211217007],[-72.3761142109999,-40.13183034707],[-72.3753583629999,-40.13214603507],[-72.3751658639999,-40.13250552407],[-72.3746035819999,-40.13271052907],[-72.3743372869999,-40.13296349607],[-72.3744127859999,-40.13321851307],[-72.3742932649999,-40.13297600907],[-72.3745465699999,-40.13273710007],[-72.3741116209999,-40.13289150207],[-72.3740319139999,-40.13298806307],[-72.3743978689999,-40.13384276407],[-72.3747980699999,-40.13386692107],[-72.3747717399999,-40.13425743507],[-72.374487385,-40.13425743407],[-72.3743900439999,-40.13502271607],[-72.3749688059999,-40.13511158507],[-72.3749898499999,-40.13487747607],[-72.3747391979999,-40.13483031007],[-72.374744055,-40.13454923907],[-72.3745164269999,-40.13433689207],[-72.3748088899999,-40.13452578707],[-72.3748089759999,-40.13480613007],[-72.375403892,-40.13487673107],[-72.3754956589999,-40.13436036107],[-72.3753576929999,-40.13423174507],[-72.3755541809999,-40.13435087807],[-72.3754621079999,-40.13488362507],[-72.3757453399999,-40.13490054707],[-72.3757874729999,-40.13419072507],[-72.3755035579999,-40.13396481407],[-72.3758515749999,-40.13416817107],[-72.3758070769999,-40.13487133607],[-72.3765822749999,-40.13461804007],[-72.3774890539999,-40.13487940007],[-72.3777074779999,-40.13481731707],[-72.3774534269999,-40.13383685407],[-72.3797820079999,-40.13354081207],[-72.3797321849999,-40.13294542007],[-72.3800179609999,-40.13242065707],[-72.3804987649999,-40.13226052507],[-72.3805174329999,-40.13155464907],[-72.3793146089999,-40.13106514707]]]]}},{"type":"Feature","properties":{"id":"14202021001001","commune":"Futrono","code":"14202","gse":"C3","quintil":"Q3","nse_score":697.1,"educ":10.6,"educ_score":506.7,"hacin":1.347,"hacin_class":"Hacinamiento Leve","hacin_score":777.2,"auto_score":258.1,"n_per":97,"n_hog":31,"source_year":2024},"geometry":{"type":"Polygon","coordinates":[[[-72.5509496729999,-40.0582317140704],[-72.5511277289999,-40.0578532530704],[-72.5503422359999,-40.0576351380705],[-72.5519752369999,-40.0579568860704],[-72.5520975129999,-40.0576233810704],[-72.5507101969999,-40.0573229970704],[-72.5510818179999,-40.0573474370704],[-72.5513289979999,-40.0566914230705],[-72.5523676979999,-40.0568635670704],[-72.5524935639999,-40.0565067930704],[-72.5507051779999,-40.0561300390704],[-72.5494454979999,-40.0569763700704],[-72.5488761829999,-40.0575404710704],[-72.5490210209999,-40.0578811840704],[-72.5509496729999,-40.0582317140704]]]}},{"type":"Feature","properties":{"id":"14202021001002","commune":"Futrono","code":"14202","gse":"C3","quintil":"Q3","nse_score":709.6,"educ":11.2,"educ_score":546.7,"hacin":1.226,"hacin_class":"Hacinamiento Leve","hacin_score":803.0,"auto_score":166.7,"n_per":38,"n_hog":12,"source_year":2024},"geometry":{"type":"Polygon","coordinates":[[[-72.5511495129999,-40.0573620870704],[-72.5516045519999,-40.0574605650704],[-72.5518321059999,-40.0568065520704],[-72.5513702309999,-40.0567362120704],[-72.5511495129999,-40.0573620870704]]]}},{"type":"Feature","properties":{"id":"14202021001003","commune":"Futrono","code":"14202","gse":"C3","quintil":"Q3","nse_score":710.8,"educ":11.6,"educ_score":573.3,"hacin":1.444,"hacin_class":"Hacinamiento Leve","hacin_score":756.5,"auto_score":45.5,"n_per":39,"n_hog":11,"source_year":2024},"geometry":{"type":"Polygon","coordinates":[[[-72.5516722369999,-40.0574752130704],[-72.5521160469999,-40.0575712610704],[-72.552349165,-40.0569156850704],[-72.5518999089999,-40.0568208630704],[-72.5516722369999,-40.0574752130704]]]}},{"type":"Feature","properties":{"id":"14202021001005","commune":"Futrono","code":"14202","gse":"C3","quintil":"Q3","nse_score":699.8,"educ":11.8,"educ_score":586.7,"hacin":1.5,"hacin_class":"Hacinamiento Medio","hacin_score":744.7,"auto_score":41.7,"n_per":36,"n_hog":12,"source_year":2024},"geometry":{"type":"Polygon","coordinates":[[[-72.5479685489999,-40.0595828500704],[-72.5470413599999,-40.0589635670704],[-72.5460816269999,-40.0597206240705],[-72.5464579249999,-40.0599822640704],[-72.5472431189999,-40.0593813120704],[-72.5480019649999,-40.0598971570705],[-72.5484795639999,-40.0595171720704],[-72.5479653459999,-40.0591197830704],[-72.5485943809999,-40.0586154020704],[-72.5493672629999,-40.0592613320704],[-72.5506492349999,-40.0582344910704],[-72.5487998139999,-40.0579415390704],[-72.5481029389999,-40.0581133900705],[-72.5470628389999,-40.0589471810704],[-72.5479685489999,-40.0595828500704]]]}},{"type":"Feature","properties":{"id":"14202021001006","commune":"Futrono","code":"14202","gse":"E","quintil":"Q1","nse_score":605.8,"educ":9.6,"educ_score":440.0,"hacin":1.684,"hacin_class":"Hacinamiento Medio","hacin_score":705.5,"auto_score":45.5,"n_per":32,"n_hog":11,"source_year":2024},"geometry":{"type":"Polygon","coordinates":[[[-72.5472231339999,-40.0605658410704],[-72.546057716,-40.0597404310704],[-72.5455371099999,-40.0601827110704],[-72.5457595549999,-40.0603724980704],[-72.5455135459999,-40.0602027600704],[-72.5450963029999,-40.0605586660704],[-72.5462895229999,-40.0613720740704],[-72.5472231339999,-40.0605658410704]]]}},{"type":"Feature","properties":{"id":"14202041001001","commune":"Futrono","code":"14202","gse":"D","quintil":"Q1","nse_score":620.5,"educ":9.2,"educ_score":413.3,"hacin":1.356,"hacin_class":"Hacinamiento Leve","hacin_score":775.4,"auto_score":119.7,"n_per":202,"n_hog":71,"source_year":2024},"geometry":{"type":"Polygon","coordinates":[[[-72.5430805389999,-40.0504943390705],[-72.5435461469999,-40.0509165530704],[-72.5442641069999,-40.0504211570705],[-72.5435564609999,-40.0509277530705],[-72.543694318,-40.0510679420704],[-72.5444150039999,-40.0505838960705],[-72.543715243,-40.0510821130705],[-72.5438499199999,-40.0512128660705],[-72.5445735669999,-40.0507209010705],[-72.54387177,-40.0512340800704],[-72.5444223049999,-40.0517685670705],[-72.5449615059999,-40.0514432870704],[-72.5444441349999,-40.0517897600705],[-72.5449626459999,-40.0522775140705],[-72.5454437149999,-40.0519407280704],[-72.5449803679999,-40.0522940740704],[-72.5453624279999,-40.0527642200704],[-72.5445987529999,-40.0535019860705],[-72.5457125009999,-40.0543263100705],[-72.5467939049999,-40.0536118610704],[-72.5457321419999,-40.0543414420705],[-72.5461141259999,-40.0546140100705],[-72.5470217699999,-40.0540100600705],[-72.54613158,-40.0546253610704],[-72.5469670699999,-40.0552360470705],[-72.5475914519999,-40.0547606110705],[-72.5473948609999,-40.0545642770705],[-72.5476269529999,-40.0547668530704],[-72.5469809559999,-40.0552473240705],[-72.5474239819999,-40.0555602890704],[-72.5478390779999,-40.0552488660704],[-72.5474498999999,-40.0555785980704],[-72.5478998009999,-40.0558992090705],[-72.548373593,-40.0555448640705],[-72.5479301409999,-40.0559161510705],[-72.5494102259999,-40.0569431940704],[-72.5497409589999,-40.0567060690704],[-72.5440620189999,-40.0498830100704],[-72.5430805389999,-40.0504943390705]]]}},{"type":"Feature","properties":{"id":"14202041001002","commune":"Futrono","code":"14202","gse":"E","quintil":"Q1","nse_score":612.1,"educ":8.8,"educ_score":386.7,"hacin":1.462,"hacin_class":"Hacinamiento Leve","hacin_score":752.9,"auto_score":0.0,"n_per":114,"n_hog":38,"source_year":2024},"geometry":{"type":"Polygon","coordinates":[[[-72.5426317499999,-40.0521128240705],[-72.5444529149999,-40.0534202790705],[-72.5453060019999,-40.0527438070705],[-72.5436295729999,-40.0510802950705],[-72.5427179529999,-40.0516996250704],[-72.5436155909999,-40.0510717630705],[-72.5430805389999,-40.0504943390705],[-72.5426019139999,-40.0509263130705],[-72.5426317499999,-40.0521128240705]]]}},{"type":"Feature","properties":{"id":"14202041001003","commune":"Futrono","code":"14202","gse":"E","quintil":"Q1","nse_score":605.2,"educ":9.1,"educ_score":406.7,"hacin":1.456,"hacin_class":"Hacinamiento Leve","hacin_score":754.1,"auto_score":58.1,"n_per":115,"n_hog":42,"source_year":2024},"geometry":{"type":"Polygon","coordinates":[[[-72.5428991749999,-40.0534462160705],[-72.541868657,-40.0543837840704],[-72.5417836999999,-40.0546283360705],[-72.5414168489999,-40.0547812020705],[-72.5416638439999,-40.0549844720705],[-72.541595975,-40.0552827800704],[-72.5422525189999,-40.0557688400704],[-72.543364961,-40.0548678380705],[-72.5430981599999,-40.0545363290704],[-72.5438429739999,-40.0550847170704],[-72.5444574549999,-40.0545871260705],[-72.5429319279999,-40.0534586410705],[-72.5436110429999,-40.0528890520705],[-72.5426296109999,-40.0521709580704],[-72.5426131279999,-40.0528822720704],[-72.5429249509999,-40.0531898650704],[-72.5428991749999,-40.0534462160705]]]}},{"type":"Feature","properties":{"id":"14202041001004","commune":"Futrono","code":"14202","gse":"D","quintil":"Q1","nse_score":629.2,"educ":9.5,"educ_score":433.3,"hacin":1.103,"hacin_class":"Hacinamiento Leve","hacin_score":829.1,"auto_score":71.4,"n_per":32,"n_hog":15,"source_year":2024},"geometry":{"type":"Polygon","coordinates":[[[-72.5429692649999,-40.0534593140705],[-72.5444834269999,-40.0545602240704],[-72.5451184299999,-40.0540877710705],[-72.5451118569999,-40.0539723290704],[-72.5436879,-40.0529373530705],[-72.5429692649999,-40.0534593140705]]]}},{"type":"Feature","properties":{"id":"14202041001006","commune":"Futrono","code":"14202","gse":"E","quintil":"Q1","nse_score":584.9,"educ":8.4,"educ_score":360.0,"hacin":1.333,"hacin_class":"Hacinamiento Leve","hacin_score":780.1,"auto_score":120.7,"n_per":68,"n_hog":27,"source_year":2024},"geometry":{"type":"Polygon","coordinates":[[[-72.5422945469999,-40.0558029720704],[-72.5426370419999,-40.0560418400704],[-72.5437592989999,-40.0550948100705],[-72.5434222409999,-40.0548986460704],[-72.5422945469999,-40.0558029720704]]]}},{"type":"Feature","properties":{"id":"14202041001007","commune":"Futrono","code":"14202","gse":"E","quintil":"Q1","nse_score":583.9,"educ":9.4,"educ_score":426.7,"hacin":1.6,"hacin_class":"Hacinamiento Medio","hacin_score":723.4,"auto_score":0.0,"n_per":64,"n_hog":23,"source_year":2024},"geometry":{"type":"Polygon","coordinates":[[[-72.5465213079999,-40.0552710960705],[-72.5461901749999,-40.0550633030704],[-72.5458674379999,-40.0553149960704],[-72.5462481189999,-40.0555936740705],[-72.5458430099999,-40.0553340480705],[-72.5453518749999,-40.0557949590705],[-72.5470387919999,-40.0569758710705],[-72.5477706489999,-40.0564425640704],[-72.5475891149999,-40.0562802720704],[-72.5477932979999,-40.0564249800704],[-72.5480998109999,-40.0561543650704],[-72.5464279409999,-40.0549142130705],[-72.546214431,-40.0550443870705],[-72.5465213079999,-40.0552710960705]]]}},{"type":"Feature","properties":{"id":"14202041001010","commune":"Futrono","code":"14202","gse":"E","quintil":"Q1","nse_score":604.7,"educ":9.5,"educ_score":433.3,"hacin":1.532,"hacin_class":"Hacinamiento Medio","hacin_score":737.8,"auto_score":50.0,"n_per":95,"n_hog":31,"source_year":2024},"geometry":{"type":"Polygon","coordinates":[[[-72.5481946659999,-40.0561770020704],[-72.5471470999999,-40.0570697410705],[-72.5474939999999,-40.0573232760704],[-72.5479883419999,-40.0569817330704],[-72.5475154999999,-40.0573389890704],[-72.5482401659999,-40.0578378610704],[-72.5493317449999,-40.0570026950704],[-72.5481946659999,-40.0561770020704]]]}},{"type":"Feature","properties":{"id":"14202041001011","commune":"Futrono","code":"14202","gse":"E","quintil":"Q1","nse_score":607.0,"educ":9.5,"educ_score":433.3,"hacin":1.514,"hacin_class":"Hacinamiento Medio","hacin_score":741.8,"auto_score":83.3,"n_per":56,"n_hog":18,"source_year":2024},"geometry":{"type":"Polygon","coordinates":[[[-72.5457903789999,-40.0579380070705],[-72.5469809839999,-40.0570442250704],[-72.5461206009999,-40.0564082440705],[-72.5449253059999,-40.0573713080704],[-72.5457903789999,-40.0579380070705]]]}},{"type":"Feature","properties":{"id":"14202041001012","commune":"Futrono","code":"14202","gse":"C3","quintil":"Q2","nse_score":674.4,"educ":9.4,"educ_score":426.7,"hacin":1.182,"hacin_class":"Hacinamiento Leve","hacin_score":812.4,"auto_score":125.0,"n_per":52,"n_hog":21,"source_year":2024},"geometry":{"type":"Polygon","coordinates":[[[-72.5470212999999,-40.0577225460704],[-72.5466005689999,-40.0574175050704],[-72.545918163,-40.0580019600704],[-72.5471265479999,-40.0587704810704],[-72.5481953759999,-40.0578935860704],[-72.5470640799999,-40.0570885590705],[-72.5466170309999,-40.0574046790704],[-72.5470212999999,-40.0577225460704]]]}},{"type":"Feature","properties":{"id":"14202041001008","commune":"Futrono","code":"14202","gse":"D","quintil":"Q1","nse_score":645.6,"educ":9.1,"educ_score":406.7,"hacin":1.057,"hacin_class":"Hacinamiento Leve","hacin_score":838.9,"auto_score":93.8,"n_per":37,"n_hog":16,"source_year":2024},"geometry":{"type":"MultiPolygon","coordinates":[[[[-72.5448364079999,-40.0573321890705],[-72.5460755969999,-40.0563734400705],[-72.5453478569999,-40.0558468900704],[-72.5451485089999,-40.0558782050704],[-72.5440266749999,-40.0567581950704],[-72.5448364079999,-40.0573321890705]]],[[[-72.5440873219999,-40.0549721260705],[-72.5426832299999,-40.0560483060704],[-72.5426787839999,-40.0561116000704],[-72.5430759829999,-40.0564152880704],[-72.5439479349999,-40.0567373850705],[-72.5451888279999,-40.0557928490704],[-72.5440873219999,-40.0549721260705]]]]}},{"type":"Feature","properties":{"id":"14202033080001","commune":"Futrono","code":"14202","gse":"D","quintil":"Q2","nse_score":654.9,"educ":10.7,"educ_score":513.3,"hacin":1.306,"hacin_class":"Hacinamiento Leve","hacin_score":785.9,"auto_score":51.7,"n_per":64,"n_hog":29,"source_year":2024},"geometry":{"type":"Polygon","coordinates":[[[-72.2543306689999,-40.1884217560697],[-72.2551097839999,-40.1884110950697],[-72.2543763609999,-40.1885231350697],[-72.2545306529999,-40.1894378750697],[-72.2537357269999,-40.1895984470697],[-72.2544016409999,-40.1907214980697],[-72.2571191819999,-40.1906742830697],[-72.258785224,-40.1904248400697],[-72.2600037049999,-40.1906037040697],[-72.2610082829999,-40.1911643030697],[-72.2614226149999,-40.1920757490697],[-72.2623732249999,-40.1927358860697],[-72.2624548849999,-40.1929468270697],[-72.2620948209999,-40.1925539900697],[-72.2619638339999,-40.1927717560697],[-72.2620371899999,-40.1925173220697],[-72.2614340189999,-40.1921437180697],[-72.2614761049999,-40.1927147870697],[-72.261168171,-40.1931167410697],[-72.2611943249999,-40.1940462610697],[-72.2607736579999,-40.1957448260697],[-72.2615851569999,-40.1957066550697],[-72.2607561259999,-40.1957995080697],[-72.2605242839999,-40.1964874850696],[-72.262367449,-40.1962184710697],[-72.2620918449999,-40.1955578780697],[-72.2617938939999,-40.1955401930697],[-72.2617630429999,-40.1952396390697],[-72.2621256799999,-40.1942790550697],[-72.2626425969999,-40.1937437630697],[-72.2628665369999,-40.1936226420697],[-72.2630225009999,-40.1940868780697],[-72.2646533859999,-40.1935606640697],[-72.2631231959999,-40.1925584370697],[-72.2624861469999,-40.1923890330697],[-72.2614498409999,-40.1910285490697],[-72.2609305029999,-40.1906744400697],[-72.2600331919999,-40.1903436580697],[-72.2593451389999,-40.1902530680697],[-72.2562540679999,-40.1902937560697],[-72.2558041969999,-40.1899859140697],[-72.2555914399999,-40.1891500390697],[-72.2555948049999,-40.1883661710697],[-72.2543306689999,-40.1884217560697]]]}},{"type":"Feature","properties":{"id":"14202033080002","commune":"Futrono","code":"14202","gse":"D","quintil":"Q2","nse_score":662.3,"educ":10.4,"educ_score":493.3,"hacin":1.33,"hacin_class":"Hacinamiento Leve","hacin_score":780.8,"auto_score":19.2,"n_per":141,"n_hog":52,"source_year":2024},"geometry":{"type":"Polygon","coordinates":[[[-72.2589403999999,-40.1904632520697],[-72.2573146369999,-40.1906953490697],[-72.2577539399999,-40.1911261390697],[-72.2572624159999,-40.1907061610697],[-72.2551409189999,-40.1906797790697],[-72.2544713929999,-40.1908525280697],[-72.2554077639999,-40.1924285260697],[-72.2568982869999,-40.1921526140697],[-72.2554221779999,-40.1924535890697],[-72.2569087679999,-40.1950031110697],[-72.2583505779999,-40.1946602430697],[-72.2582294019999,-40.1941794310697],[-72.2583954559999,-40.1946495700697],[-72.2587878489999,-40.1945618030697],[-72.2589363079999,-40.1948398330697],[-72.2610224439999,-40.1945398470697],[-72.2611291839999,-40.1939257620697],[-72.2589615939999,-40.1941088610697],[-72.2611307479999,-40.1938891350697],[-72.2611290019999,-40.1935604790697],[-72.2606575329999,-40.1936053610697],[-72.2605819109999,-40.1934468280697],[-72.2599599759999,-40.1934898710697],[-72.2606150009999,-40.1934094470697],[-72.2606889989999,-40.1935663510697],[-72.2611270689999,-40.1935249220697],[-72.2611138549999,-40.1930715900697],[-72.2607912169999,-40.1927859240697],[-72.2603257749999,-40.1917168220697],[-72.2590390499999,-40.1918859790697],[-72.2593028009999,-40.1930539150697],[-72.2589926509999,-40.1918917270697],[-72.2578115419999,-40.1919586960697],[-72.2602466989999,-40.1916576050697],[-72.2598788699999,-40.1914350070697],[-72.2590938159999,-40.1912429880697],[-72.2594288289999,-40.1912352030697],[-72.2599026649999,-40.1914034900697],[-72.2603657019999,-40.1916962080697],[-72.2608314739999,-40.1927640210697],[-72.2611392399999,-40.1930220420697],[-72.261416574,-40.1926206860697],[-72.2610922799999,-40.1913113280697],[-72.2599908729999,-40.1906309980697],[-72.2589403999999,-40.1904632520697]]]}},{"type":"Feature","properties":{"id":"14202033080003","commune":"Futrono","code":"14202","gse":"D","quintil":"Q1","nse_score":642.6,"educ":10.3,"educ_score":486.7,"hacin":1.41,"hacin_class":"Hacinamiento Leve","hacin_score":763.9,"auto_score":109.4,"n_per":86,"n_hog":32,"source_year":2024},"geometry":{"type":"Polygon","coordinates":[[[-72.2537069429999,-40.1929107480697],[-72.2543668009999,-40.1933774440697],[-72.2545125759999,-40.1938261350697],[-72.254282697,-40.1941644050697],[-72.2533616819999,-40.1948261510696],[-72.2532163949999,-40.1954098730697],[-72.2543264679999,-40.1958324250697],[-72.2561022069999,-40.1963007400697],[-72.2574568999999,-40.1961522210697],[-72.2568500909999,-40.1951103850697],[-72.2560267799999,-40.1952525220697],[-72.2555625329999,-40.1952586180696],[-72.2555150629999,-40.1960338570697],[-72.2555155759999,-40.1952549350696],[-72.2546180679999,-40.1950813760697],[-72.2543236099999,-40.1957521960697],[-72.2545725759999,-40.1950723980697],[-72.2535414449999,-40.1949003800697],[-72.2555418009999,-40.1952228650697],[-72.2568268329999,-40.1950783650696],[-72.2550298209999,-40.1919544440697],[-72.2546390719999,-40.1921107130697],[-72.2549207629999,-40.1928119980697],[-72.2549079599999,-40.1928745760697],[-72.2548600479999,-40.1929524770697],[-72.2544248789999,-40.1930749190697],[-72.2548737739999,-40.1928635430697],[-72.2546069009999,-40.1921179690697],[-72.2550019809999,-40.1919131570697],[-72.2543427929999,-40.1908051010697],[-72.2537727329999,-40.1909923900697],[-72.2544168239999,-40.1921445190697],[-72.2540421709999,-40.1922511570697],[-72.2542932919999,-40.1927406020697],[-72.2537069429999,-40.1929107480697]]]}},{"type":"Feature","properties":{"id":"14202033080006","commune":"Futrono","code":"14202","gse":"D","quintil":"Q1","nse_score":617.6,"educ":9.5,"educ_score":433.3,"hacin":1.435,"hacin_class":"Hacinamiento Leve","hacin_score":758.6,"auto_score":166.7,"n_per":33,"n_hog":12,"source_year":2024},"geometry":{"type":"Polygon","coordinates":[[[-72.2608715439999,-40.1978829260696],[-72.2610482169999,-40.1986513160697],[-72.2627240889999,-40.1982662470697],[-72.2625882279999,-40.1977066510696],[-72.2627919359999,-40.1982514390696],[-72.2630754259999,-40.1981893000697],[-72.2630189349999,-40.1978235900697],[-72.2631445169999,-40.1981745240697],[-72.2636874759999,-40.1980598220697],[-72.2640333789999,-40.1978082530697],[-72.2646128119999,-40.1977728720696],[-72.2643270889999,-40.1971675590696],[-72.2637306399999,-40.1971846800697],[-72.2608715439999,-40.1978829260696]]]}},{"type":"Feature","properties":{"id":"14202033080007","commune":"Futrono","code":"14202","gse":"C3","quintil":"Q3","nse_score":699.4,"educ":12.6,"educ_score":640.0,"hacin":1.5,"hacin_class":"Hacinamiento Medio","hacin_score":744.7,"auto_score":100.0,"n_per":12,"n_hog":5,"source_year":2024},"geometry":{"type":"Polygon","coordinates":[[[-72.2627147389999,-40.1995342230697],[-72.2635344989999,-40.1993063710696],[-72.2635002029999,-40.1990329650697],[-72.2640387999999,-40.1986224700696],[-72.2641348959999,-40.1983297580697],[-72.2640481199999,-40.1978839800696],[-72.2637293899999,-40.1981070990696],[-72.2623152189999,-40.1984113870697],[-72.2625700109999,-40.1991274740697],[-72.2632202379999,-40.1990252900697],[-72.2625879329999,-40.1991778410696],[-72.2627147389999,-40.1995342230697]]]}},{"type":"Feature","properties":{"id":"14202033080008","commune":"Futrono","code":"14202","gse":"D","quintil":"Q2","nse_score":650.8,"educ":10.3,"educ_score":486.7,"hacin":1.409,"hacin_class":"Hacinamiento Leve","hacin_score":764.1,"auto_score":144.2,"n_per":162,"n_hog":52,"source_year":2024},"geometry":{"type":"Polygon","coordinates":[[[-72.2636887629999,-40.2038537860697],[-72.2639131579999,-40.2052756870696],[-72.2647481799999,-40.2051894060696],[-72.2647481409999,-40.2047640810696],[-72.2645349729999,-40.2041256780696],[-72.263165737,-40.2027631400696],[-72.2636265679999,-40.2024811320696],[-72.2632355979999,-40.2022574050696],[-72.262540698,-40.2011911380697],[-72.2628846479999,-40.2010675170697],[-72.2621093679999,-40.1997024840696],[-72.2626324149999,-40.1995092540697],[-72.262247967,-40.1984265780697],[-72.2610560489999,-40.1987061720697],[-72.2611024879999,-40.1992924270696],[-72.2622279979999,-40.1990425980697],[-72.2597070579999,-40.1998620770696],[-72.2598368749999,-40.2001937410697],[-72.2602087029999,-40.2001282730697],[-72.2602181279999,-40.2000248580697],[-72.261179695,-40.1997380310696],[-72.2602481959999,-40.2000448620696],[-72.2602488129999,-40.2001466430696],[-72.2598637749999,-40.2002429530696],[-72.2600796319999,-40.2005725800696],[-72.2615152269999,-40.2000535110697],[-72.2601245269999,-40.2005835010696],[-72.2605759599999,-40.2011670200697],[-72.2615530029999,-40.2008212390696],[-72.2623404429999,-40.2006222110696],[-72.2606012059999,-40.2011974800697],[-72.2608847039999,-40.2015185590697],[-72.2619935339999,-40.2011285330696],[-72.26090955,-40.2015533830696],[-72.2630526809999,-40.2028765570697],[-72.2636887629999,-40.2038537860697]]]}},{"type":"Feature","properties":{"id":"14202033080012","commune":"Futrono","code":"14202","gse":"D","quintil":"Q1","nse_score":646.1,"educ":10.8,"educ_score":520.0,"hacin":1.4,"hacin_class":"Hacinamiento Leve","hacin_score":766.0,"auto_score":41.7,"n_per":28,"n_hog":12,"source_year":2024},"geometry":{"type":"Polygon","coordinates":[[[-72.2592863279999,-40.2030129190696],[-72.2594583979999,-40.2032747100696],[-72.2609285509999,-40.2026013750696],[-72.2612644779999,-40.2029424730696],[-72.2607464039999,-40.2031762770696],[-72.2611192239999,-40.2037272780696],[-72.260533355,-40.2039232720696],[-72.260628461,-40.2040641050696],[-72.2626951459999,-40.2036293110696],[-72.2634740349999,-40.2035949110696],[-72.2628736809999,-40.2028224440696],[-72.2611708999999,-40.2018399750696],[-72.2606212739999,-40.2021964200696],[-72.2606641309999,-40.2023326850696],[-72.2592863279999,-40.2030129190696]]]}},{"type":"Feature","properties":{"id":"14202033080013","commune":"Futrono","code":"14202","gse":"E","quintil":"Q1","nse_score":585.5,"educ":9.2,"educ_score":413.3,"hacin":1.55,"hacin_class":"Hacinamiento Medio","hacin_score":734.0,"auto_score":0.0,"n_per":31,"n_hog":13,"source_year":2024},"geometry":{"type":"Polygon","coordinates":[[[-72.253263435,-40.2019511730696],[-72.2529769009999,-40.2030405860696],[-72.2560869249999,-40.2036510690696],[-72.2559287869999,-40.2039789720696],[-72.2580794749999,-40.2045061460696],[-72.258265262,-40.2037512420696],[-72.2581609809999,-40.2034792910696],[-72.2582519089999,-40.2034425890696],[-72.2579117579999,-40.2031455800696],[-72.2569055279999,-40.2028002590696],[-72.2566714129999,-40.2036580970696],[-72.256859673,-40.2027896470696],[-72.253263435,-40.2019511730696]]]}},{"type":"Feature","properties":{"id":"14202033080014","commune":"Futrono","code":"14202","gse":"E","quintil":"Q1","nse_score":594.8,"educ":8.1,"educ_score":340.0,"hacin":1.571,"hacin_class":"Hacinamiento Medio","hacin_score":729.5,"auto_score":0.0,"n_per":11,"n_hog":5,"source_year":2024},"geometry":{"type":"Polygon","coordinates":[[[-72.2584338539999,-40.2034331250696],[-72.2588465929999,-40.2040887380696],[-72.2592987879999,-40.2043176220697],[-72.2599666599999,-40.2040884000696],[-72.2592475659999,-40.2030320260696],[-72.2584338539999,-40.2034331250696]]]}},{"type":"Feature","properties":{"id":"14202033080015","commune":"Futrono","code":"14202","gse":"D","quintil":"Q1","nse_score":634.5,"educ":10.8,"educ_score":520.0,"hacin":1.8,"hacin_class":"Hacinamiento Medio","hacin_score":680.9,"auto_score":55.6,"n_per":27,"n_hog":9,"source_year":2024},"geometry":{"type":"Polygon","coordinates":[[[-72.2634895309999,-40.2036197930696],[-72.2622856759999,-40.2037470870696],[-72.2624488969999,-40.2052161820696],[-72.2617515539999,-40.2051741400696],[-72.2614888979999,-40.2059020460696],[-72.2622726129999,-40.2074767100696],[-72.2644613949999,-40.2067359030696],[-72.2638439419999,-40.2056290300696],[-72.2637186029999,-40.2042040100696],[-72.2634895309999,-40.2036197930696]]]}},{"type":"Feature","properties":{"id":"14202033080004","commune":"Futrono","code":"14202","gse":"C2","quintil":"Q4","nse_score":736.1,"educ":12.3,"educ_score":620.0,"hacin":1.207,"hacin_class":"Hacinamiento Leve","hacin_score":807.0,"auto_score":162.2,"n_per":99,"n_hog":37,"source_year":2024},"geometry":{"type":"MultiPolygon","coordinates":[[[[-72.2566242979999,-40.1972961430697],[-72.2576724199999,-40.1991661820697],[-72.2549996929999,-40.1993400330696],[-72.2533365139999,-40.1996431060696],[-72.2535452559999,-40.2003283270697],[-72.2558787389999,-40.2002125890696],[-72.2558177069999,-40.1996843660696],[-72.2559156179999,-40.2002117400696],[-72.2595856119999,-40.1999787230697],[-72.2580603779999,-40.1972141540697],[-72.2573499659999,-40.1974772640697],[-72.2578503809999,-40.1985927550697],[-72.2575450229999,-40.1981525470697],[-72.2573047429999,-40.1974742250697],[-72.2580302619999,-40.1971668450696],[-72.257892136,-40.1969053640696],[-72.2566242979999,-40.1972961430697]]],[[[-72.2589206039999,-40.1948794890697],[-72.2587711719999,-40.1945979150697],[-72.2569280319999,-40.1950362260697],[-72.2571872119999,-40.1954729810697],[-72.2574146729999,-40.1954530240697],[-72.2572097389999,-40.1955171220697],[-72.2576966629999,-40.1963776150697],[-72.2594410769999,-40.1958842870697],[-72.2577051839999,-40.1963915810697],[-72.2581418379999,-40.1971445250697],[-72.2590170759999,-40.1969121030697],[-72.2581696739999,-40.1971911060697],[-72.2596828339999,-40.1998113480696],[-72.2609953609999,-40.1993585960697],[-72.2610388159999,-40.1991977690697],[-72.2604944209999,-40.1968370900696],[-72.2601165299999,-40.1969082080697],[-72.2604832729999,-40.1967819600697],[-72.2604568979999,-40.1964383290697],[-72.2597427229999,-40.1966176720697],[-72.2604677509999,-40.1963941180697],[-72.2607865119999,-40.1954700590697],[-72.2599330189999,-40.1957165390697],[-72.259585221,-40.1950194890697],[-72.2599456529999,-40.1949586540697],[-72.2596393179999,-40.1950335720697],[-72.2599575749999,-40.1956773020697],[-72.2607986619999,-40.1954278540697],[-72.2610147529999,-40.1945767680697],[-72.2589206039999,-40.1948794890697]]]]}},{"type":"Feature","properties":{"id":"14202033080010","commune":"Futrono","code":"14202","gse":"D","quintil":"Q2","nse_score":648.3,"educ":10.7,"educ_score":513.3,"hacin":1.234,"hacin_class":"Hacinamiento Leve","hacin_score":801.2,"auto_score":138.2,"n_per":179,"n_hog":75,"source_year":2024},"geometry":{"type":"MultiPolygon","coordinates":[[[[-72.252168992,-40.2012609230696],[-72.2529001939999,-40.2012738310696],[-72.2528565049999,-40.2011880720696],[-72.2527673239999,-40.2010677100697],[-72.2526143299999,-40.2005936170696],[-72.2520536189999,-40.2006837810696],[-72.252168992,-40.2012609230696]]],[[[-72.2570773929999,-40.2002334960697],[-72.2571613989999,-40.2010938360696],[-72.2570188919999,-40.2002381760696],[-72.25674412,-40.2002694250696],[-72.2567783009999,-40.2009756540696],[-72.2566771279999,-40.2002480890697],[-72.2560876589999,-40.2002603330697],[-72.2561053629999,-40.2006209660696],[-72.2560652579999,-40.2006745070696],[-72.2559179959999,-40.2007442290697],[-72.2560798459999,-40.2006167790696],[-72.2560262049999,-40.2002618190696],[-72.2534947089999,-40.2003846840696],[-72.2535468529999,-40.2006785450697],[-72.2534237639999,-40.2003963430697],[-72.2526477929999,-40.2005822850696],[-72.253159965,-40.2017512870696],[-72.2533741869999,-40.2019593960696],[-72.2558447859999,-40.2025853020696],[-72.2568641039999,-40.2027605580697],[-72.256923636,-40.2024225080696],[-72.2571744479999,-40.2024400240696],[-72.2572837669999,-40.2020169960696],[-72.2572187909999,-40.2024560540696],[-72.2569658219999,-40.2024439970696],[-72.2569098259999,-40.2027701010696],[-72.2573599689999,-40.2028974200696],[-72.2579924349999,-40.2023241300697],[-72.2580152099999,-40.2017532010696],[-72.2580265529999,-40.2023330340696],[-72.2573956279999,-40.2029077220696],[-72.257948042,-40.2031286190696],[-72.2583219879999,-40.2034414430696],[-72.2606181709999,-40.2023298170697],[-72.2606005939999,-40.2021720610696],[-72.2611474569999,-40.2018255350696],[-72.2606092419999,-40.2013279270697],[-72.2598475879999,-40.2018046750696],[-72.2590407169999,-40.2021282320696],[-72.2587110169999,-40.2014766120697],[-72.2591080129999,-40.2020938100696],[-72.2605695609999,-40.2012825730697],[-72.2600638129999,-40.2006613390697],[-72.2597525719999,-40.2008025670696],[-72.2600481629999,-40.2006423780696],[-72.2594943059999,-40.2001975200697],[-72.2570773929999,-40.2002334960697]]]]}}]}