{"type":"FeatureCollection","features":[{"type":"Feature","properties":{"id":"9106011001001","commune":"Galvarino","code":"09106","gse":"C3","quintil":"Q2","nse_score":677.4,"educ":12.1,"educ_score":606.7,"hacin":1.323,"hacin_class":"Hacinamiento Leve","hacin_score":782.3,"auto_score":153.1,"n_per":131,"n_hog":45,"source_year":2024,"crime_score":0.244,"crime_nivel":"Medio","crime_color":"#ff9800"},"geometry":{"type":"Polygon","coordinates":[[[-72.7894819329999,-38.4066729030812],[-72.7883688639999,-38.4073879590812],[-72.7874798649999,-38.4074264570812],[-72.7860726019999,-38.4084371730812],[-72.7847772349999,-38.4096200970812],[-72.7836034079999,-38.4100858380812],[-72.7820074899999,-38.4102247290812],[-72.7820344549999,-38.4105022210812],[-72.7846117129999,-38.4104358200812],[-72.7838634489999,-38.4103598810812],[-72.7846151659999,-38.4103218060812],[-72.7846226459999,-38.4099012710812],[-72.7859252059999,-38.4088526920812],[-72.78749418,-38.4084721450812],[-72.7872242979999,-38.4078682300812],[-72.7875715869999,-38.4084474120812],[-72.7879767789999,-38.4083505370812],[-72.7877453669999,-38.4075530190812],[-72.7882103669999,-38.4075357080812],[-72.7885286449999,-38.4082056820812],[-72.7888637679999,-38.4082011900812],[-72.7889679769999,-38.4081483300812],[-72.7886704949999,-38.4073834880812],[-72.7894521539999,-38.4071780480812],[-72.7898592069999,-38.4080560860812],[-72.7900077299999,-38.4079381870812],[-72.7894819329999,-38.4066729030812]]]}},{"type":"Feature","properties":{"id":"9106011001002","commune":"Galvarino","code":"09106","gse":"E","quintil":"Q1","nse_score":561.0,"educ":10.5,"educ_score":500.0,"hacin":1.607,"hacin_class":"Hacinamiento Medio","hacin_score":721.9,"auto_score":194.4,"n_per":45,"n_hog":15,"source_year":2024,"crime_score":0.2491,"crime_nivel":"Medio","crime_color":"#ff9800"},"geometry":{"type":"Polygon","coordinates":[[[-72.7897555139999,-38.4079196340812],[-72.7894796279999,-38.4072425880812],[-72.7891293029999,-38.4072755460812],[-72.7894102909999,-38.4080301450812],[-72.7897555139999,-38.4079196340812]]]}},{"type":"Feature","properties":{"id":"9106011001003","commune":"Galvarino","code":"09106","gse":"D","quintil":"Q2","nse_score":654.4,"educ":11.2,"educ_score":546.7,"hacin":1.394,"hacin_class":"Hacinamiento Leve","hacin_score":767.2,"auto_score":27.8,"n_per":46,"n_hog":17,"source_year":2024,"crime_score":0.2373,"crime_nivel":"Medio","crime_color":"#ff9800"},"geometry":{"type":"Polygon","coordinates":[[[-72.7893553339999,-38.4080255600812],[-72.7890548979999,-38.4073139330812],[-72.7887168249999,-38.4074017340812],[-72.7890138799999,-38.4081227970812],[-72.7893553339999,-38.4080255600812]]]}},{"type":"Feature","properties":{"id":"9106011001004","commune":"Galvarino","code":"09106","gse":"D","quintil":"Q2","nse_score":653.4,"educ":11.0,"educ_score":533.3,"hacin":1.146,"hacin_class":"Hacinamiento Leve","hacin_score":819.9,"auto_score":0.0,"n_per":47,"n_hog":14,"source_year":2024,"crime_score":0.2375,"crime_nivel":"Medio","crime_color":"#ff9800"},"geometry":{"type":"Polygon","coordinates":[[[-72.7877644809999,-38.4075864110812],[-72.7880524629999,-38.4083253240812],[-72.7884616519999,-38.4082332890812],[-72.7881844469999,-38.4075674520812],[-72.7877644809999,-38.4075864110812]]]}},{"type":"Feature","properties":{"id":"9106011001005","commune":"Galvarino","code":"09106","gse":"D","quintil":"Q1","nse_score":624.9,"educ":10.8,"educ_score":520.0,"hacin":1.488,"hacin_class":"Hacinamiento Leve","hacin_score":747.3,"auto_score":138.7,"n_per":366,"n_hog":122,"source_year":2024,"crime_score":0.271,"crime_nivel":"Medio","crime_color":"#ff9800"},"geometry":{"type":"Polygon","coordinates":[[[-72.7898805149999,-38.4080934080812],[-72.7911373279999,-38.4109964730812],[-72.7912980919999,-38.4110186660812],[-72.7903006769999,-38.4112225140812],[-72.789222289,-38.4087640350812],[-72.7889198649999,-38.4090304950812],[-72.789885249,-38.4113041570812],[-72.7896335529999,-38.4108747350812],[-72.7891000059999,-38.4109706590812],[-72.7892736019999,-38.4117299140812],[-72.7883111129999,-38.4119414160812],[-72.7884851329999,-38.4124388860812],[-72.7887001349999,-38.4124653330812],[-72.7871890079999,-38.4127750930812],[-72.7874110809999,-38.4134248840812],[-72.7869412249999,-38.4136145870812],[-72.7874339019999,-38.4148135260812],[-72.7901177379999,-38.4132925810812],[-72.7891113809999,-38.4122046590812],[-72.7893067929999,-38.4119458950811],[-72.7903647549999,-38.4117877040812],[-72.7902162169999,-38.4113526710812],[-72.7914619519999,-38.4113374690812],[-72.7900077299999,-38.4079381870812],[-72.7898805149999,-38.4080934080812]]]}},{"type":"Feature","properties":{"id":"9106011001007","commune":"Galvarino","code":"09106","gse":"D","quintil":"Q1","nse_score":634.0,"educ":10.4,"educ_score":493.3,"hacin":1.108,"hacin_class":"Hacinamiento Leve","hacin_score":828.1,"auto_score":0.0,"n_per":41,"n_hog":15,"source_year":2024,"crime_score":0.2393,"crime_nivel":"Medio","crime_color":"#ff9800"},"geometry":{"type":"Polygon","coordinates":[[[-72.7898401669999,-38.4090503630812],[-72.7901678419999,-38.4089566280812],[-72.7898219819999,-38.4081618860812],[-72.7895522419999,-38.4084323020812],[-72.7898401669999,-38.4090503630812]]]}},{"type":"Feature","properties":{"id":"9106011001008","commune":"Galvarino","code":"09106","gse":"D","quintil":"Q2","nse_score":661.1,"educ":11.2,"educ_score":546.7,"hacin":1.333,"hacin_class":"Hacinamiento Leve","hacin_score":780.1,"auto_score":250.0,"n_per":32,"n_hog":11,"source_year":2024,"crime_score":0.2348,"crime_nivel":"Medio","crime_color":"#ff9800"},"geometry":{"type":"Polygon","coordinates":[[[-72.7888549649999,-38.4089387190812],[-72.7891652299999,-38.4086699910812],[-72.7891334059999,-38.4085390640812],[-72.7889879749999,-38.4082171890812],[-72.7885779629999,-38.4082524470812],[-72.7888549649999,-38.4089387190812]]]}},{"type":"Feature","properties":{"id":"9106011001009","commune":"Galvarino","code":"09106","gse":"C2","quintil":"Q4","nse_score":721.4,"educ":12.4,"educ_score":626.7,"hacin":1.368,"hacin_class":"Hacinamiento Leve","hacin_score":772.7,"auto_score":250.0,"n_per":52,"n_hog":18,"source_year":2024,"crime_score":0.2293,"crime_nivel":"Medio","crime_color":"#ff9800"},"geometry":{"type":"Polygon","coordinates":[[[-72.7888068969999,-38.4090331320812],[-72.7884922289999,-38.4083063880812],[-72.788092763,-38.4084022560812],[-72.7885299049999,-38.4092859790812],[-72.7888068969999,-38.4090331320812]]]}},{"type":"Feature","properties":{"id":"9106011001010","commune":"Galvarino","code":"09106","gse":"D","quintil":"Q1","nse_score":622.6,"educ":10.3,"educ_score":486.7,"hacin":1.351,"hacin_class":"Hacinamiento Leve","hacin_score":776.3,"auto_score":175.0,"n_per":50,"n_hog":17,"source_year":2024,"crime_score":0.2418,"crime_nivel":"Medio","crime_color":"#ff9800"},"geometry":{"type":"Polygon","coordinates":[[[-72.7881370229999,-38.4096796620812],[-72.788453865,-38.4093970720812],[-72.7884289739999,-38.4092522670812],[-72.7880228899999,-38.4084281750812],[-72.7876118659999,-38.4085190640812],[-72.7881370229999,-38.4096796620812]]]}},{"type":"Feature","properties":{"id":"9106011001011","commune":"Galvarino","code":"09106","gse":"E","quintil":"Q1","nse_score":608.8,"educ":11.6,"educ_score":573.3,"hacin":1.667,"hacin_class":"Hacinamiento Medio","hacin_score":709.2,"auto_score":125.0,"n_per":30,"n_hog":9,"source_year":2024,"crime_score":0.2412,"crime_nivel":"Medio","crime_color":"#ff9800"},"geometry":{"type":"Polygon","coordinates":[[[-72.7894645109999,-38.4091540760812],[-72.7897969789999,-38.4090623520812],[-72.7894989449999,-38.4084616700812],[-72.7892678379999,-38.4087406950812],[-72.7894645109999,-38.4091540760812]]]}},{"type":"Feature","properties":{"id":"9106011001012","commune":"Galvarino","code":"09106","gse":"D","quintil":"Q2","nse_score":646.8,"educ":10.7,"educ_score":513.3,"hacin":1.478,"hacin_class":"Hacinamiento Leve","hacin_score":749.3,"auto_score":125.0,"n_per":34,"n_hog":12,"source_year":2024,"crime_score":0.2368,"crime_nivel":"Medio","crime_color":"#ff9800"},"geometry":{"type":"Polygon","coordinates":[[[-72.7875069959999,-38.4085436100812],[-72.786975965,-38.4086592090812],[-72.7870668639999,-38.4092252410812],[-72.7875916169999,-38.4087371910812],[-72.7875069959999,-38.4085436100812]]]}},{"type":"Feature","properties":{"id":"9106011001013","commune":"Galvarino","code":"09106","gse":"D","quintil":"Q2","nse_score":656.8,"educ":10.8,"educ_score":520.0,"hacin":1.432,"hacin_class":"Hacinamiento Leve","hacin_score":759.1,"auto_score":210.5,"n_per":53,"n_hog":18,"source_year":2024,"crime_score":0.2378,"crime_nivel":"Medio","crime_color":"#ff9800"},"geometry":{"type":"Polygon","coordinates":[[[-72.7869786449999,-38.4093298250812],[-72.786875199,-38.4086762540812],[-72.7864342429999,-38.4087568970812],[-72.7865841099999,-38.4097099420812],[-72.7869786449999,-38.4093298250812]]]}},{"type":"Feature","properties":{"id":"9106011001014","commune":"Galvarino","code":"09106","gse":"D","quintil":"Q2","nse_score":648.5,"educ":11.0,"educ_score":533.3,"hacin":1.1,"hacin_class":"Hacinamiento Leve","hacin_score":829.8,"auto_score":0.0,"n_per":77,"n_hog":27,"source_year":2024,"crime_score":0.2416,"crime_nivel":"Medio","crime_color":"#ff9800"},"geometry":{"type":"Polygon","coordinates":[[[-72.7860956119999,-38.4101295520812],[-72.7864995439999,-38.4097895420812],[-72.7863564299999,-38.4087766220812],[-72.7859408219999,-38.4089936980812],[-72.7860956119999,-38.4101295520812]]]}},{"type":"Feature","properties":{"id":"9106011001015","commune":"Galvarino","code":"09106","gse":"E","quintil":"Q1","nse_score":597.6,"educ":11.5,"educ_score":566.7,"hacin":1.538,"hacin_class":"Hacinamiento Medio","hacin_score":736.5,"auto_score":93.8,"n_per":40,"n_hog":12,"source_year":2024,"crime_score":0.2438,"crime_nivel":"Medio","crime_color":"#ff9800"},"geometry":{"type":"Polygon","coordinates":[[[-72.7878138419999,-38.4091324210812],[-72.7876278669999,-38.4088036490812],[-72.7871003859999,-38.4093331580812],[-72.7874227859999,-38.4095218700812],[-72.7878138419999,-38.4091324210812]]]}},{"type":"Feature","properties":{"id":"9106011001016","commune":"Galvarino","code":"09106","gse":"D","quintil":"Q1","nse_score":641.4,"educ":10.2,"educ_score":480.0,"hacin":0.971,"hacin_class":"Sin Hacinamiento","hacin_score":857.1,"auto_score":0.0,"n_per":34,"n_hog":12,"source_year":2024,"crime_score":0.2375,"crime_nivel":"Medio","crime_color":"#ff9800"},"geometry":{"type":"Polygon","coordinates":[[[-72.7858953149999,-38.4089306420812],[-72.7847194139999,-38.4099366080812],[-72.7848542949999,-38.4114916570812],[-72.7858979449999,-38.4114209780812],[-72.7858500659999,-38.4109872610812],[-72.7859347129999,-38.4114178250812],[-72.7865074329999,-38.4113842840812],[-72.7860308229999,-38.4101542080812],[-72.7858953149999,-38.4089306420812]]]}},{"type":"Feature","properties":{"id":"9106011001017","commune":"Galvarino","code":"09106","gse":"D","quintil":"Q1","nse_score":619.2,"educ":11.1,"educ_score":540.0,"hacin":1.48,"hacin_class":"Hacinamiento Leve","hacin_score":748.9,"auto_score":178.6,"n_per":37,"n_hog":12,"source_year":2024,"crime_score":0.2407,"crime_nivel":"Medio","crime_color":"#ff9800"},"geometry":{"type":"Polygon","coordinates":[[[-72.7901490129999,-38.4097640290812],[-72.7904638209999,-38.4096379740812],[-72.7901498849999,-38.4090492850812],[-72.7898845009999,-38.4091429280812],[-72.7901490129999,-38.4097640290812]]]}},{"type":"Feature","properties":{"id":"9106011001018","commune":"Galvarino","code":"09106","gse":"D","quintil":"Q2","nse_score":658.5,"educ":11.4,"educ_score":560.0,"hacin":1.5,"hacin_class":"Hacinamiento Medio","hacin_score":744.7,"auto_score":277.8,"n_per":21,"n_hog":8,"source_year":2024,"crime_score":0.2338,"crime_nivel":"Medio","crime_color":"#ff9800"},"geometry":{"type":"Polygon","coordinates":[[[-72.7888876409999,-38.4091346220812],[-72.788585742,-38.4094092980812],[-72.7888000249999,-38.4098845720812],[-72.7891443179999,-38.4098023590812],[-72.7888876409999,-38.4091346220812]]]}},{"type":"Feature","properties":{"id":"9106011001019","commune":"Galvarino","code":"09106","gse":"E","quintil":"Q1","nse_score":566.5,"educ":11.2,"educ_score":546.7,"hacin":1.565,"hacin_class":"Hacinamiento Medio","hacin_score":730.8,"auto_score":214.3,"n_per":36,"n_hog":11,"source_year":2024,"crime_score":0.2473,"crime_nivel":"Medio","crime_color":"#ff9800"},"geometry":{"type":"Polygon","coordinates":[[[-72.7897586109999,-38.4098666150812],[-72.7901055769999,-38.4097754430812],[-72.7898162209999,-38.4091464080812],[-72.7894997489999,-38.4092405690812],[-72.7897586109999,-38.4098666150812]]]}},{"type":"Feature","properties":{"id":"9106011001020","commune":"Galvarino","code":"09106","gse":"C3","quintil":"Q3","nse_score":684.1,"educ":12.5,"educ_score":633.3,"hacin":1.385,"hacin_class":"Hacinamiento Leve","hacin_score":769.2,"auto_score":214.3,"n_per":18,"n_hog":6,"source_year":2024,"crime_score":0.2302,"crime_nivel":"Medio","crime_color":"#ff9800"},"geometry":{"type":"Polygon","coordinates":[[[-72.7880315969999,-38.4096915340812],[-72.7878694259999,-38.4091657170812],[-72.7874911999999,-38.4095607090812],[-72.7879619169999,-38.4098495090812],[-72.7880315969999,-38.4096915340812]]]}},{"type":"Feature","properties":{"id":"9106011001021","commune":"Galvarino","code":"09106","gse":"C3","quintil":"Q2","nse_score":669.8,"educ":11.7,"educ_score":580.0,"hacin":1.488,"hacin_class":"Hacinamiento Leve","hacin_score":747.3,"auto_score":45.5,"n_per":61,"n_hog":22,"source_year":2024,"crime_score":0.237,"crime_nivel":"Medio","crime_color":"#ff9800"},"geometry":{"type":"Polygon","coordinates":[[[-72.7870402899999,-38.4093855510812],[-72.7867908139999,-38.4096630790812],[-72.787621338,-38.4101787020812],[-72.7878766519999,-38.4099603380812],[-72.7870402899999,-38.4093855510812]]]}},{"type":"Feature","properties":{"id":"9106011001022","commune":"Galvarino","code":"09106","gse":"D","quintil":"Q2","nse_score":656.0,"educ":10.5,"educ_score":500.0,"hacin":1.593,"hacin_class":"Hacinamiento Medio","hacin_score":725.0,"auto_score":115.4,"n_per":43,"n_hog":13,"source_year":2024,"crime_score":0.2367,"crime_nivel":"Medio","crime_color":"#ff9800"},"geometry":{"type":"Polygon","coordinates":[[[-72.7888073699999,-38.4102272740812],[-72.7884806339999,-38.4094863020812],[-72.7882334029999,-38.4097659440812],[-72.7884245149999,-38.4103517190812],[-72.7888073699999,-38.4102272740812]]]}},{"type":"Feature","properties":{"id":"9106011001023","commune":"Galvarino","code":"09106","gse":"C3","quintil":"Q2","nse_score":674.2,"educ":10.8,"educ_score":520.0,"hacin":1.256,"hacin_class":"Hacinamiento Leve","hacin_score":796.6,"auto_score":68.2,"n_per":54,"n_hog":21,"source_year":2024,"crime_score":0.2356,"crime_nivel":"Medio","crime_color":"#ff9800"},"geometry":{"type":"Polygon","coordinates":[[[-72.7867335589999,-38.4096971340812],[-72.7861352619999,-38.4102108330812],[-72.7862662619999,-38.4105583150812],[-72.787043304,-38.4099049760812],[-72.7867335589999,-38.4096971340812]]]}},{"type":"Feature","properties":{"id":"9106011001025","commune":"Galvarino","code":"09106","gse":"E","quintil":"Q1","nse_score":573.5,"educ":10.2,"educ_score":480.0,"hacin":1.507,"hacin_class":"Hacinamiento Medio","hacin_score":743.2,"auto_score":182.9,"n_per":110,"n_hog":35,"source_year":2024,"crime_score":0.2554,"crime_nivel":"Medio","crime_color":"#ff9800"},"geometry":{"type":"Polygon","coordinates":[[[-72.788672415,-38.4117953020811],[-72.7881394029999,-38.4098243200812],[-72.7865441699999,-38.4113916990812],[-72.7866640339999,-38.4114326750812],[-72.7869690559999,-38.4121694110812],[-72.788672415,-38.4117953020811]]]}},{"type":"Feature","properties":{"id":"9106011001026","commune":"Galvarino","code":"09106","gse":"E","quintil":"Q1","nse_score":584.7,"educ":10.1,"educ_score":473.3,"hacin":1.667,"hacin_class":"Hacinamiento Medio","hacin_score":709.2,"auto_score":21.7,"n_per":65,"n_hog":20,"source_year":2024,"crime_score":0.2485,"crime_nivel":"Medio","crime_color":"#ff9800"},"geometry":{"type":"Polygon","coordinates":[[[-72.7890888469999,-38.4109007110812],[-72.7895856809999,-38.4107837360812],[-72.7891416569999,-38.4098601330812],[-72.7888214139999,-38.4099760170812],[-72.7890888469999,-38.4109007110812]]]}},{"type":"Feature","properties":{"id":"9106011001027","commune":"Galvarino","code":"09106","gse":"E","quintil":"Q1","nse_score":546.7,"educ":9.1,"educ_score":406.7,"hacin":1.333,"hacin_class":"Hacinamiento Leve","hacin_score":780.1,"auto_score":83.3,"n_per":24,"n_hog":9,"source_year":2024,"crime_score":0.2484,"crime_nivel":"Medio","crime_color":"#ff9800"},"geometry":{"type":"Polygon","coordinates":[[[-72.7899944239999,-38.4103255310812],[-72.7906764029999,-38.4101441910812],[-72.7905910939999,-38.4098975060812],[-72.7898740859999,-38.4100683150812],[-72.7899944239999,-38.4103255310812]]]}},{"type":"Feature","properties":{"id":"9106011001028","commune":"Galvarino","code":"09106","gse":"E","quintil":"Q1","nse_score":577.8,"educ":10.1,"educ_score":473.3,"hacin":1.263,"hacin_class":"Hacinamiento Leve","hacin_score":795.1,"auto_score":350.0,"n_per":24,"n_hog":8,"source_year":2024,"crime_score":0.2444,"crime_nivel":"Medio","crime_color":"#ff9800"},"geometry":{"type":"Polygon","coordinates":[[[-72.7875819329999,-38.4102510740812],[-72.7871393659999,-38.4099397560812],[-72.7868677089999,-38.4101265440812],[-72.7873249989999,-38.4104477310812],[-72.7875819329999,-38.4102510740812]]]}},{"type":"Feature","properties":{"id":"9106011001029","commune":"Galvarino","code":"09106","gse":"C2","quintil":"Q4","nse_score":755.8,"educ":13.9,"educ_score":726.7,"hacin":1.368,"hacin_class":"Hacinamiento Leve","hacin_score":772.7,"auto_score":55.6,"n_per":26,"n_hog":9,"source_year":2024,"crime_score":0.222,"crime_nivel":"Medio","crime_color":"#ff9800"},"geometry":{"type":"Polygon","coordinates":[[[-72.7776567879999,-38.4107658190812],[-72.777913785,-38.4107475500812],[-72.7779356569999,-38.4106471670812],[-72.7804997489999,-38.4105249670812],[-72.7805539639999,-38.4102253640812],[-72.7792869979999,-38.4100065830812],[-72.7783523179999,-38.4099975740812],[-72.7780025939999,-38.4102075280812],[-72.7776567879999,-38.4107658190812]]]}},{"type":"Feature","properties":{"id":"9106011001030","commune":"Galvarino","code":"09106","gse":"D","quintil":"Q1","nse_score":629.3,"educ":10.3,"educ_score":486.7,"hacin":1.444,"hacin_class":"Hacinamiento Leve","hacin_score":756.5,"auto_score":192.3,"n_per":39,"n_hog":15,"source_year":2024,"crime_score":0.2397,"crime_nivel":"Medio","crime_color":"#ff9800"},"geometry":{"type":"Polygon","coordinates":[[[-72.7901192159999,-38.4106187970812],[-72.7908055379999,-38.4104378600812],[-72.7907212269999,-38.4101957120812],[-72.7900030189999,-38.4103632470812],[-72.7901192159999,-38.4106187970812]]]}},{"type":"Feature","properties":{"id":"9106011001031","commune":"Galvarino","code":"09106","gse":"D","quintil":"Q2","nse_score":648.5,"educ":11.0,"educ_score":533.3,"hacin":1.577,"hacin_class":"Hacinamiento Medio","hacin_score":728.3,"auto_score":125.0,"n_per":41,"n_hog":12,"source_year":2024,"crime_score":0.2374,"crime_nivel":"Medio","crime_color":"#ff9800"},"geometry":{"type":"Polygon","coordinates":[[[-72.787304994,-38.4105149140812],[-72.7868396689999,-38.4101870870812],[-72.7866153839999,-38.4103585350812],[-72.7870997889999,-38.4106800130812],[-72.787304994,-38.4105149140812]]]}},{"type":"Feature","properties":{"id":"9106011001033","commune":"Galvarino","code":"09106","gse":"D","quintil":"Q1","nse_score":629.0,"educ":10.4,"educ_score":493.3,"hacin":1.232,"hacin_class":"Hacinamiento Leve","hacin_score":801.8,"auto_score":220.6,"n_per":101,"n_hog":30,"source_year":2024,"crime_score":0.247,"crime_nivel":"Medio","crime_color":"#ff9800"},"geometry":{"type":"Polygon","coordinates":[[[-72.7887763659999,-38.4117704870812],[-72.7892220679999,-38.4116664740812],[-72.7888247689999,-38.4103108280812],[-72.7884487379999,-38.4104527600812],[-72.7887763659999,-38.4117704870812]]]}},{"type":"Feature","properties":{"id":"9106011001034","commune":"Galvarino","code":"09106","gse":"D","quintil":"Q2","nse_score":650.7,"educ":10.1,"educ_score":473.3,"hacin":1.296,"hacin_class":"Hacinamiento Leve","hacin_score":788.0,"auto_score":250.0,"n_per":35,"n_hog":11,"source_year":2024,"crime_score":0.2364,"crime_nivel":"Medio","crime_color":"#ff9800"},"geometry":{"type":"Polygon","coordinates":[[[-72.7862989959999,-38.4106257080812],[-72.7865437579999,-38.4112445580812],[-72.7868045199999,-38.4110195390812],[-72.7865217229999,-38.4108236240812],[-72.7868537919999,-38.4109634080812],[-72.7870562599999,-38.4107329950812],[-72.7865294889999,-38.4104202640812],[-72.7862989959999,-38.4106257080812]]]}},{"type":"Feature","properties":{"id":"9106011001035","commune":"Galvarino","code":"09106","gse":"E","quintil":"Q1","nse_score":551.0,"educ":9.3,"educ_score":420.0,"hacin":1.546,"hacin_class":"Hacinamiento Medio","hacin_score":735.0,"auto_score":0.0,"n_per":17,"n_hog":7,"source_year":2024,"crime_score":0.247,"crime_nivel":"Medio","crime_color":"#ff9800"},"geometry":{"type":"Polygon","coordinates":[[[-72.7902577389999,-38.4109159200812],[-72.7909389819999,-38.4107398600812],[-72.7908510859999,-38.4104909150812],[-72.7901312959999,-38.4106560530812],[-72.7902577389999,-38.4109159200812]]]}},{"type":"Feature","properties":{"id":"9106011001036","commune":"Galvarino","code":"09106","gse":"D","quintil":"Q1","nse_score":629.2,"educ":10.6,"educ_score":506.7,"hacin":1.294,"hacin_class":"Hacinamiento Leve","hacin_score":788.5,"auto_score":150.0,"n_per":22,"n_hog":8,"source_year":2024,"crime_score":0.2377,"crime_nivel":"Medio","crime_color":"#ff9800"},"geometry":{"type":"Polygon","coordinates":[[[-72.7847253549999,-38.4114576550812],[-72.7846246669999,-38.4104954900812],[-72.7833918459999,-38.4105574590812],[-72.7835085969999,-38.4115452460812],[-72.7847253549999,-38.4114576550812]]]}},{"type":"Feature","properties":{"id":"9106011001038","commune":"Galvarino","code":"09106","gse":"D","quintil":"Q2","nse_score":664.3,"educ":11.3,"educ_score":553.3,"hacin":1.417,"hacin_class":"Hacinamiento Leve","hacin_score":762.4,"auto_score":71.4,"n_per":34,"n_hog":13,"source_year":2024,"crime_score":0.2346,"crime_nivel":"Medio","crime_color":"#ff9800"},"geometry":{"type":"Polygon","coordinates":[[[-72.7821895729999,-38.4116239970812],[-72.7833927479999,-38.4115525320812],[-72.7832955479999,-38.4105556370812],[-72.7820528389999,-38.4106067660812],[-72.7821895729999,-38.4116239970812]]]}},{"type":"Feature","properties":{"id":"9106011001043","commune":"Galvarino","code":"09106","gse":"C2","quintil":"Q4","nse_score":736.2,"educ":12.7,"educ_score":646.7,"hacin":1.477,"hacin_class":"Hacinamiento Leve","hacin_score":749.5,"auto_score":131.6,"n_per":65,"n_hog":19,"source_year":2024,"crime_score":0.2288,"crime_nivel":"Medio","crime_color":"#ff9800"},"geometry":{"type":"Polygon","coordinates":[[[-72.779418829,-38.4117641310812],[-72.7806330649999,-38.4116989480812],[-72.7805391499999,-38.4107162190812],[-72.7793166409999,-38.4107751960812],[-72.779418829,-38.4117641310812]]]}},{"type":"Feature","properties":{"id":"9106011001045","commune":"Galvarino","code":"09106","gse":"D","quintil":"Q1","nse_score":633.3,"educ":9.2,"educ_score":413.3,"hacin":1.25,"hacin_class":"Hacinamiento Leve","hacin_score":797.9,"auto_score":142.9,"n_per":35,"n_hog":15,"source_year":2024,"crime_score":0.2387,"crime_nivel":"Medio","crime_color":"#ff9800"},"geometry":{"type":"Polygon","coordinates":[[[-72.7776567879999,-38.4107658190812],[-72.777345781,-38.4110427450812],[-72.7764058029999,-38.4113623470812],[-72.7765793229999,-38.4119068490812],[-72.7779899699999,-38.4118345100812],[-72.777913785,-38.4107475500812],[-72.7776567879999,-38.4107658190812]]]}},{"type":"Feature","properties":{"id":"9106011001046","commune":"Galvarino","code":"09106","gse":"C3","quintil":"Q2","nse_score":674.5,"educ":11.1,"educ_score":540.0,"hacin":1.235,"hacin_class":"Hacinamiento Leve","hacin_score":801.0,"auto_score":272.7,"n_per":21,"n_hog":9,"source_year":2024,"crime_score":0.2318,"crime_nivel":"Medio","crime_color":"#ff9800"},"geometry":{"type":"Polygon","coordinates":[[[-72.7792050429999,-38.4107605440812],[-72.7780083739999,-38.4108410220812],[-72.7780718179999,-38.4118156290812],[-72.7793174639999,-38.4117640230812],[-72.7792050429999,-38.4107605440812]]]}},{"type":"Feature","properties":{"id":"9106011001047","commune":"Galvarino","code":"09106","gse":"E","quintil":"Q1","nse_score":539.1,"educ":10.1,"educ_score":473.3,"hacin":1.4,"hacin_class":"Hacinamiento Leve","hacin_score":766.0,"auto_score":0.0,"n_per":14,"n_hog":6,"source_year":2024,"crime_score":0.2481,"crime_nivel":"Medio","crime_color":"#ff9800"},"geometry":{"type":"Polygon","coordinates":[[[-72.7903977849999,-38.4112107670812],[-72.7910693979999,-38.4110342830812],[-72.7909840729999,-38.4107931920812],[-72.7902618899999,-38.4109540770812],[-72.7903977849999,-38.4112107670812]]]}},{"type":"Feature","properties":{"id":"9106011001049","commune":"Galvarino","code":"09106","gse":"E","quintil":"Q1","nse_score":605.7,"educ":9.4,"educ_score":426.7,"hacin":1.243,"hacin_class":"Hacinamiento Leve","hacin_score":799.3,"auto_score":35.7,"n_per":92,"n_hog":39,"source_year":2024,"crime_score":0.249,"crime_nivel":"Medio","crime_color":"#ff9800"},"geometry":{"type":"Polygon","coordinates":[[[-72.7848410999999,-38.4115329410812],[-72.7849269889999,-38.4122877900812],[-72.7855204409999,-38.4122544590812],[-72.7849438259999,-38.4123224260812],[-72.7849488449999,-38.4124783330812],[-72.7858768439999,-38.4124323970811],[-72.7858736879999,-38.4120553100812],[-72.7859087269999,-38.4124291530812],[-72.7861733219999,-38.4124110700812],[-72.7856911799999,-38.4125077560812],[-72.7857502339999,-38.4131359680812],[-72.7860781639999,-38.4132056460812],[-72.7861678619999,-38.4134708750811],[-72.7868987709999,-38.4135795410812],[-72.7873493989999,-38.4134145730812],[-72.7866012939999,-38.4114458110812],[-72.7848410999999,-38.4115329410812]]]}},{"type":"Feature","properties":{"id":"9106011001051","commune":"Galvarino","code":"09106","gse":"C2","quintil":"Q4","nse_score":732.9,"educ":13.1,"educ_score":673.3,"hacin":1.447,"hacin_class":"Hacinamiento Leve","hacin_score":755.9,"auto_score":184.2,"n_per":55,"n_hog":18,"source_year":2024,"crime_score":0.2282,"crime_nivel":"Medio","crime_color":"#ff9800"},"geometry":{"type":"Polygon","coordinates":[[[-72.7847333809999,-38.4115648050812],[-72.7834881439999,-38.4116178330812],[-72.7835831449999,-38.4125493370811],[-72.7848267779999,-38.4124838840812],[-72.7847333809999,-38.4115648050812]]]}},{"type":"Feature","properties":{"id":"9106011001054","commune":"Galvarino","code":"09106","gse":"C3","quintil":"Q2","nse_score":678.4,"educ":11.3,"educ_score":553.3,"hacin":0.972,"hacin_class":"Sin Hacinamiento","hacin_score":857.0,"auto_score":35.7,"n_per":35,"n_hog":13,"source_year":2024,"crime_score":0.2329,"crime_nivel":"Medio","crime_color":"#ff9800"},"geometry":{"type":"Polygon","coordinates":[[[-72.7822546189999,-38.4126211680812],[-72.7835018459999,-38.4125287320812],[-72.7834016219999,-38.4116171040812],[-72.7821388389999,-38.4116769930812],[-72.7822546189999,-38.4126211680812]]]}},{"type":"Feature","properties":{"id":"9106011001057","commune":"Galvarino","code":"09106","gse":"C3","quintil":"Q3","nse_score":709.0,"educ":12.2,"educ_score":613.3,"hacin":1.0,"hacin_class":"Hacinamiento Leve","hacin_score":851.1,"auto_score":0.0,"n_per":19,"n_hog":10,"source_year":2024,"crime_score":0.2272,"crime_nivel":"Medio","crime_color":"#ff9800"},"geometry":{"type":"Polygon","coordinates":[[[-72.7794898169999,-38.4127624910812],[-72.780738992,-38.4126999760812],[-72.7806456529999,-38.4117638760812],[-72.7794065059999,-38.4118246210812],[-72.7794898169999,-38.4127624910812]]]}},{"type":"Feature","properties":{"id":"9106011001059","commune":"Galvarino","code":"09106","gse":"E","quintil":"Q1","nse_score":599.3,"educ":9.2,"educ_score":413.3,"hacin":1.518,"hacin_class":"Hacinamiento Medio","hacin_score":740.7,"auto_score":58.8,"n_per":41,"n_hog":17,"source_year":2024,"crime_score":0.2437,"crime_nivel":"Medio","crime_color":"#ff9800"},"geometry":{"type":"Polygon","coordinates":[[[-72.7781736859999,-38.4128570210812],[-72.7794243729999,-38.4127916910812],[-72.7793315949999,-38.4118320150812],[-72.7780689589999,-38.4118874030812],[-72.7781736859999,-38.4128570210812]]]}},{"type":"Feature","properties":{"id":"9106011001060","commune":"Galvarino","code":"09106","gse":"D","quintil":"Q2","nse_score":649.3,"educ":10.0,"educ_score":466.7,"hacin":1.153,"hacin_class":"Hacinamiento Leve","hacin_score":818.6,"auto_score":234.0,"n_per":136,"n_hog":47,"source_year":2024,"crime_score":0.2484,"crime_nivel":"Medio","crime_color":"#ff9800"},"geometry":{"type":"Polygon","coordinates":[[[-72.7774523559999,-38.4127140740812],[-72.7773671729999,-38.4119329060812],[-72.7765947819999,-38.4119823760811],[-72.7766243159999,-38.4122817900812],[-72.7770840229999,-38.4122653580812],[-72.7766265759999,-38.4123210030812],[-72.7766582379999,-38.4125954330812],[-72.7771286939999,-38.4125882030812],[-72.7766688249999,-38.4126394870812],[-72.7767058449999,-38.4129576310812],[-72.7780631599999,-38.4128892030812],[-72.7779903739999,-38.4118927690812],[-72.7774155549999,-38.4119249570812],[-72.7774523559999,-38.4127140740812]]]}},{"type":"Feature","properties":{"id":"9106011001061","commune":"Galvarino","code":"09106","gse":"E","quintil":"Q1","nse_score":602.8,"educ":11.8,"educ_score":586.7,"hacin":1.19,"hacin_class":"Hacinamiento Leve","hacin_score":810.5,"auto_score":83.3,"n_per":25,"n_hog":10,"source_year":2024,"crime_score":0.2414,"crime_nivel":"Medio","crime_color":"#ff9800"},"geometry":{"type":"Polygon","coordinates":[[[-72.7878227029999,-38.4125764070812],[-72.7884003459999,-38.4124661910812],[-72.7882357579999,-38.4119636150812],[-72.7876118709999,-38.4120896420812],[-72.7878227029999,-38.4125764070812]]]}},{"type":"Feature","properties":{"id":"9106011001062","commune":"Galvarino","code":"09106","gse":"C3","quintil":"Q2","nse_score":683.1,"educ":11.1,"educ_score":540.0,"hacin":1.151,"hacin_class":"Hacinamiento Leve","hacin_score":818.8,"auto_score":178.6,"n_per":38,"n_hog":14,"source_year":2024,"crime_score":0.2326,"crime_nivel":"Medio","crime_color":"#ff9800"},"geometry":{"type":"Polygon","coordinates":[[[-72.7871536559999,-38.4127154260811],[-72.7877394329999,-38.4125882340812],[-72.7875416709999,-38.4121080940812],[-72.7869844459999,-38.4122341110811],[-72.7871536559999,-38.4127154260811]]]}},{"type":"Feature","properties":{"id":"9106011001063","commune":"Galvarino","code":"09106","gse":"D","quintil":"Q2","nse_score":652.2,"educ":9.9,"educ_score":460.0,"hacin":1.167,"hacin_class":"Hacinamiento Leve","hacin_score":815.6,"auto_score":147.1,"n_per":49,"n_hog":17,"source_year":2024,"crime_score":0.2379,"crime_nivel":"Medio","crime_color":"#ff9800"},"geometry":{"type":"Polygon","coordinates":[[[-72.7849765289999,-38.4125218460812],[-72.7850695579999,-38.4135407510811],[-72.7860947659999,-38.4134732170812],[-72.7860546009999,-38.4132370350812],[-72.7856887719999,-38.4131320290812],[-72.7856163239999,-38.4124832480812],[-72.7849765289999,-38.4125218460812]]]}},{"type":"Feature","properties":{"id":"9106011001065","commune":"Galvarino","code":"09106","gse":"D","quintil":"Q2","nse_score":647.1,"educ":10.9,"educ_score":526.7,"hacin":1.344,"hacin_class":"Hacinamiento Leve","hacin_score":777.8,"auto_score":60.6,"n_per":82,"n_hog":32,"source_year":2024,"crime_score":0.2424,"crime_nivel":"Medio","crime_color":"#ff9800"},"geometry":{"type":"Polygon","coordinates":[[[-72.7848314969999,-38.4125512150812],[-72.7839483109999,-38.4125829420811],[-72.7839637089999,-38.4130703480812],[-72.7839180579999,-38.4125845290812],[-72.7836030079999,-38.4126109620811],[-72.783661445,-38.4135995450812],[-72.7849379269999,-38.4135412160812],[-72.7848314969999,-38.4125512150812]]]}},{"type":"Feature","properties":{"id":"9106011001067","commune":"Galvarino","code":"09106","gse":"C3","quintil":"Q3","nse_score":711.0,"educ":12.3,"educ_score":620.0,"hacin":1.467,"hacin_class":"Hacinamiento Leve","hacin_score":751.8,"auto_score":0.0,"n_per":44,"n_hog":16,"source_year":2024,"crime_score":0.2298,"crime_nivel":"Medio","crime_color":"#ff9800"},"geometry":{"type":"Polygon","coordinates":[[[-72.7823703369999,-38.4136854580811],[-72.7835973779999,-38.4136171310812],[-72.7835127939999,-38.4126337630812],[-72.7822499059999,-38.4126953450811],[-72.7823703369999,-38.4136854580811]]]}},{"type":"Feature","properties":{"id":"9106011001069","commune":"Galvarino","code":"09106","gse":"C3","quintil":"Q3","nse_score":686.4,"educ":11.3,"educ_score":553.3,"hacin":1.216,"hacin_class":"Hacinamiento Leve","hacin_score":805.1,"auto_score":58.8,"n_per":45,"n_hog":16,"source_year":2024,"crime_score":0.233,"crime_nivel":"Medio","crime_color":"#ff9800"},"geometry":{"type":"Polygon","coordinates":[[[-72.7809744739999,-38.4137435680811],[-72.782246815,-38.4136745290812],[-72.7821286999999,-38.4127098470812],[-72.7808888099999,-38.4127684350811],[-72.7809744739999,-38.4137435680811]]]}},{"type":"Feature","properties":{"id":"9106011001071","commune":"Galvarino","code":"09106","gse":"C3","quintil":"Q2","nse_score":672.9,"educ":11.9,"educ_score":593.3,"hacin":1.125,"hacin_class":"Hacinamiento Leve","hacin_score":824.5,"auto_score":117.6,"n_per":36,"n_hog":16,"source_year":2024,"crime_score":0.2337,"crime_nivel":"Medio","crime_color":"#ff9800"},"geometry":{"type":"Polygon","coordinates":[[[-72.7808354159999,-38.4137334710812],[-72.7807127039999,-38.4127862430811],[-72.779512511,-38.4128632900812],[-72.7795420719999,-38.4133538120811],[-72.7801214669999,-38.4133755440812],[-72.7795503429999,-38.4134249830811],[-72.7796233919999,-38.4138020610812],[-72.7808354159999,-38.4137334710812]]]}},{"type":"Feature","properties":{"id":"9106011001073","commune":"Galvarino","code":"09106","gse":"C3","quintil":"Q3","nse_score":701.3,"educ":11.4,"educ_score":560.0,"hacin":1.296,"hacin_class":"Hacinamiento Leve","hacin_score":788.0,"auto_score":22.7,"n_per":35,"n_hog":23,"source_year":2024,"crime_score":0.23,"crime_nivel":"Medio","crime_color":"#ff9800"},"geometry":{"type":"Polygon","coordinates":[[[-72.7782864629999,-38.4138322180812],[-72.7795277359999,-38.4138060300812],[-72.7794272089999,-38.4128651430811],[-72.7781813149999,-38.4129467500812],[-72.7782864629999,-38.4138322180812]]]}},{"type":"Feature","properties":{"id":"9106011001075","commune":"Galvarino","code":"09106","gse":"E","quintil":"Q1","nse_score":544.9,"educ":9.7,"educ_score":446.7,"hacin":1.571,"hacin_class":"Hacinamiento Medio","hacin_score":729.5,"auto_score":52.6,"n_per":33,"n_hog":13,"source_year":2024,"crime_score":0.2497,"crime_nivel":"Medio","crime_color":"#ff9800"},"geometry":{"type":"Polygon","coordinates":[[[-72.7664258659999,-38.4134297120811],[-72.7658759839999,-38.4147626040811],[-72.7652166929999,-38.4151913640812],[-72.7644021179999,-38.4153426920812],[-72.7642981559999,-38.4155401140812],[-72.7685022249999,-38.4153218990811],[-72.7684870809999,-38.4152046050811],[-72.7681277169999,-38.4152330440811],[-72.7678526559999,-38.4151766600811],[-72.7674279329999,-38.4150362240812],[-72.7670250429999,-38.4147934360812],[-72.7669396549999,-38.4149936350811],[-72.7669682349999,-38.4147949800812],[-72.7661554119999,-38.4148329300811],[-72.7669786359999,-38.4147542850812],[-72.7667124019999,-38.4144015990811],[-72.7664874099999,-38.4137859360812],[-72.7668575239999,-38.4145725300812],[-72.7672276319999,-38.4148891290812],[-72.7678687119999,-38.4151390790811],[-72.7684819609999,-38.4151649490811],[-72.7677823459999,-38.4150679890812],[-72.7670713639999,-38.4147041200812],[-72.7666620979999,-38.4141068750812],[-72.7666143189999,-38.4132964620812],[-72.7664258659999,-38.4134297120811]]]}},{"type":"Feature","properties":{"id":"9106011001076","commune":"Galvarino","code":"09106","gse":"E","quintil":"Q1","nse_score":561.0,"educ":9.7,"educ_score":446.7,"hacin":1.346,"hacin_class":"Hacinamiento Leve","hacin_score":777.5,"auto_score":132.1,"n_per":109,"n_hog":42,"source_year":2024,"crime_score":0.2569,"crime_nivel":"Medio","crime_color":"#ff9800"},"geometry":{"type":"Polygon","coordinates":[[[-72.7865092739999,-38.4140862810811],[-72.7864335779999,-38.4135048330812],[-72.7860455189999,-38.4135219850812],[-72.7860802099999,-38.4140959750812],[-72.7859819589999,-38.4135267900812],[-72.7850752839999,-38.4135910690812],[-72.7852479689999,-38.4150256580811],[-72.7864475369999,-38.4150339610812],[-72.7873275689999,-38.4148903680811],[-72.7870475909999,-38.4138329820811],[-72.786731572,-38.4135119170812],[-72.7864994429999,-38.4135014580812],[-72.7865092739999,-38.4140862810811]]]}},{"type":"Feature","properties":{"id":"9106011001078","commune":"Galvarino","code":"09106","gse":"E","quintil":"Q1","nse_score":597.5,"educ":9.9,"educ_score":460.0,"hacin":1.375,"hacin_class":"Hacinamiento Leve","hacin_score":771.3,"auto_score":17.9,"n_per":66,"n_hog":28,"source_year":2024,"crime_score":0.247,"crime_nivel":"Medio","crime_color":"#ff9800"},"geometry":{"type":"Polygon","coordinates":[[[-72.7838361189999,-38.4146311530812],[-72.7850703849999,-38.4145636690812],[-72.7849584879999,-38.4136121600812],[-72.7837013379999,-38.4136734740812],[-72.7838361189999,-38.4146311530812]]]}},{"type":"Feature","properties":{"id":"9106011001080","commune":"Galvarino","code":"09106","gse":"D","quintil":"Q1","nse_score":635.8,"educ":10.1,"educ_score":473.3,"hacin":1.312,"hacin_class":"Hacinamiento Leve","hacin_score":784.6,"auto_score":55.6,"n_per":21,"n_hog":8,"source_year":2024,"crime_score":0.2367,"crime_nivel":"Medio","crime_color":"#ff9800"},"geometry":{"type":"Polygon","coordinates":[[[-72.7825019699999,-38.4147062940811],[-72.7837280879999,-38.4146271970812],[-72.7836073269999,-38.4136879490812],[-72.7823702189999,-38.4137501160812],[-72.7825019699999,-38.4147062940811]]]}},{"type":"Feature","properties":{"id":"9106011001082","commune":"Galvarino","code":"09106","gse":"E","quintil":"Q1","nse_score":601.8,"educ":10.7,"educ_score":513.3,"hacin":1.4,"hacin_class":"Hacinamiento Leve","hacin_score":766.0,"auto_score":111.1,"n_per":14,"n_hog":7,"source_year":2024,"crime_score":0.2402,"crime_nivel":"Medio","crime_color":"#ff9800"},"geometry":{"type":"Polygon","coordinates":[[[-72.7810669909999,-38.4147625890812],[-72.7823532609999,-38.4146889190812],[-72.7822631689999,-38.4137502970812],[-72.7809692969999,-38.4138088270811],[-72.7810669909999,-38.4147625890812]]]}},{"type":"Feature","properties":{"id":"9106011001084","commune":"Galvarino","code":"09106","gse":"C2","quintil":"Q3","nse_score":716.3,"educ":12.5,"educ_score":633.3,"hacin":1.216,"hacin_class":"Hacinamiento Leve","hacin_score":805.1,"auto_score":107.1,"n_per":45,"n_hog":14,"source_year":2024,"crime_score":0.2292,"crime_nivel":"Medio","crime_color":"#ff9800"},"geometry":{"type":"Polygon","coordinates":[[[-72.7809336959999,-38.4147670110811],[-72.7808151979999,-38.4138236740812],[-72.7796149719999,-38.4138896670811],[-72.7797418669999,-38.4148286950811],[-72.7809336959999,-38.4147670110811]]]}},{"type":"Feature","properties":{"id":"9106011001086","commune":"Galvarino","code":"09106","gse":"C2","quintil":"Q4","nse_score":728.4,"educ":12.0,"educ_score":600.0,"hacin":1.135,"hacin_class":"Hacinamiento Leve","hacin_score":822.3,"auto_score":0.0,"n_per":42,"n_hog":12,"source_year":2024,"crime_score":0.2273,"crime_nivel":"Medio","crime_color":"#ff9800"},"geometry":{"type":"Polygon","coordinates":[[[-72.7783340239999,-38.4139398490811],[-72.7784541849999,-38.4149137880811],[-72.7796210889999,-38.4148513330812],[-72.7795479049999,-38.4138940220812],[-72.7783340239999,-38.4139398490811]]]}},{"type":"Feature","properties":{"id":"9106011001087","commune":"Galvarino","code":"09106","gse":"D","quintil":"Q2","nse_score":645.4,"educ":9.3,"educ_score":420.0,"hacin":1.242,"hacin_class":"Hacinamiento Leve","hacin_score":799.5,"auto_score":218.8,"n_per":41,"n_hog":16,"source_year":2024,"crime_score":0.2378,"crime_nivel":"Medio","crime_color":"#ff9800"},"geometry":{"type":"Polygon","coordinates":[[[-72.7769355589999,-38.4149062120812],[-72.778339533,-38.4148978350811],[-72.7782362009999,-38.4139545270812],[-72.7768095409999,-38.4140304510811],[-72.7769355589999,-38.4149062120812]]]}},{"type":"Feature","properties":{"id":"9106011001088","commune":"Galvarino","code":"09106","gse":"D","quintil":"Q1","nse_score":620.9,"educ":9.7,"educ_score":446.7,"hacin":1.326,"hacin_class":"Hacinamiento Leve","hacin_score":781.6,"auto_score":97.4,"n_per":191,"n_hog":69,"source_year":2024,"crime_score":0.2587,"crime_nivel":"Medio","crime_color":"#ff9800"},"geometry":{"type":"Polygon","coordinates":[[[-72.7872060199999,-38.4149966130811],[-72.7853572589999,-38.4151390250811],[-72.7853845739999,-38.4153023800812],[-72.7861907499999,-38.4181931180811],[-72.7853112909999,-38.4151376750811],[-72.7845934729999,-38.4152232040811],[-72.7845764129999,-38.4156130880811],[-72.7845092909999,-38.4152823700812],[-72.7840820019999,-38.4155803770811],[-72.7843516369999,-38.4159239260811],[-72.7844682829999,-38.4162424240812],[-72.7840478339999,-38.4156045650812],[-72.7831835339999,-38.4159195970811],[-72.7833536739999,-38.4163661740812],[-72.7836165539999,-38.4163641810812],[-72.7836816769999,-38.4165025220811],[-72.7833266,-38.4164003720811],[-72.783140134,-38.4159316460811],[-72.7826172619999,-38.4161087300812],[-72.7827808629999,-38.4172560610811],[-72.7850680049999,-38.4165987960812],[-72.7849099679999,-38.4167174470811],[-72.7852833749999,-38.4176577420812],[-72.7848303219999,-38.4178368710811],[-72.7843766679999,-38.4168214780811],[-72.7827617309999,-38.4173180740811],[-72.7829325379999,-38.4178131480811],[-72.7844011439999,-38.4173844050811],[-72.7829474019999,-38.4178512630811],[-72.7834414119999,-38.4191113550811],[-72.786580162,-38.4181553720811],[-72.7862593519999,-38.4173072050811],[-72.7863606279999,-38.4159674410812],[-72.7873355059999,-38.4158698980811],[-72.7881619509999,-38.4156108830811],[-72.7902889109999,-38.4143782270812],[-72.7887234929999,-38.4142051470812],[-72.7872060199999,-38.4149966130811]]]}},{"type":"Feature","properties":{"id":"9106011001089","commune":"Galvarino","code":"09106","gse":"E","quintil":"Q1","nse_score":517.8,"educ":8.6,"educ_score":373.3,"hacin":1.421,"hacin_class":"Hacinamiento Leve","hacin_score":761.5,"auto_score":200.0,"n_per":27,"n_hog":8,"source_year":2024,"crime_score":0.2524,"crime_nivel":"Medio","crime_color":"#ff9800"},"geometry":{"type":"Polygon","coordinates":[[[-72.7763999609999,-38.4149526750812],[-72.776831022,-38.4148678520811],[-72.7767512989999,-38.4142632000812],[-72.7763307089999,-38.4142725000811],[-72.7763999609999,-38.4149526750812]]]}},{"type":"Feature","properties":{"id":"9106011001090","commune":"Galvarino","code":"09106","gse":"D","quintil":"Q1","nse_score":638.6,"educ":10.1,"educ_score":473.3,"hacin":1.318,"hacin_class":"Hacinamiento Leve","hacin_score":783.4,"auto_score":71.4,"n_per":29,"n_hog":12,"source_year":2024,"crime_score":0.2373,"crime_nivel":"Medio","crime_color":"#ff9800"},"geometry":{"type":"Polygon","coordinates":[[[-72.7756070659999,-38.4143120250812],[-72.7756247649999,-38.4146192720811],[-72.7763019959999,-38.4145644080811],[-72.7762508129999,-38.4142771610811],[-72.7756070659999,-38.4143120250812]]]}},{"type":"Feature","properties":{"id":"9106011001091","commune":"Galvarino","code":"09106","gse":"E","quintil":"Q1","nse_score":588.4,"educ":9.5,"educ_score":433.3,"hacin":1.706,"hacin_class":"Hacinamiento Medio","hacin_score":700.7,"auto_score":195.1,"n_per":157,"n_hog":40,"source_year":2024,"crime_score":0.2591,"crime_nivel":"Medio","crime_color":"#ff9800"},"geometry":{"type":"Polygon","coordinates":[[[-72.7750235579999,-38.4147890630812],[-72.7749822869999,-38.4146747920811],[-72.7735577559999,-38.4146224850812],[-72.7733343529999,-38.4144321680812],[-72.7688780799999,-38.4146716340812],[-72.7685534309999,-38.4148827630811],[-72.7686320669999,-38.4157931960811],[-72.7684131199999,-38.4160164250812],[-72.7688266989999,-38.4160605430812],[-72.7688735379999,-38.4163495820812],[-72.7697170769999,-38.4159886860811],[-72.7705809439999,-38.4158970950811],[-72.7705295639999,-38.4151856300811],[-72.7695018939999,-38.4152280580812],[-72.7695463329999,-38.4157171940812],[-72.7694430059999,-38.4152587800811],[-72.7695288329999,-38.4151729430812],[-72.7707565379999,-38.4151429790812],[-72.7712314929999,-38.4152982350812],[-72.7717272699999,-38.4151310720812],[-72.7755794129999,-38.4150082030812],[-72.7755289399999,-38.4143478910811],[-72.7750241819999,-38.4143513450812],[-72.7750235579999,-38.4147890630812]]]}},{"type":"Feature","properties":{"id":"9106011001092","commune":"Galvarino","code":"09106","gse":"D","quintil":"Q1","nse_score":623.6,"educ":9.7,"educ_score":446.7,"hacin":1.524,"hacin_class":"Hacinamiento Medio","hacin_score":739.6,"auto_score":153.8,"n_per":32,"n_hog":12,"source_year":2024,"crime_score":0.2396,"crime_nivel":"Medio","crime_color":"#ff9800"},"geometry":{"type":"Polygon","coordinates":[[[-72.7749782739999,-38.4146457770811],[-72.7749665849999,-38.4143541770812],[-72.7733848939999,-38.4144304490812],[-72.7734851879999,-38.4145716420812],[-72.7741449979999,-38.4146859630812],[-72.7749782739999,-38.4146457770811]]]}},{"type":"Feature","properties":{"id":"9106011001093","commune":"Galvarino","code":"09106","gse":"C3","quintil":"Q3","nse_score":705.7,"educ":11.4,"educ_score":560.0,"hacin":1.174,"hacin_class":"Hacinamiento Leve","hacin_score":814.1,"auto_score":312.5,"n_per":27,"n_hog":8,"source_year":2024,"crime_score":0.2285,"crime_nivel":"Medio","crime_color":"#ff9800"},"geometry":{"type":"Polygon","coordinates":[[[-72.7756196249999,-38.4150050270812],[-72.7763400149999,-38.4149596140811],[-72.7763149469999,-38.4146348180812],[-72.7755949769999,-38.4146663320812],[-72.7756196249999,-38.4150050270812]]]}},{"type":"Feature","properties":{"id":"9106011001094","commune":"Galvarino","code":"09106","gse":"C3","quintil":"Q3","nse_score":686.6,"educ":11.7,"educ_score":580.0,"hacin":1.207,"hacin_class":"Hacinamiento Leve","hacin_score":807.0,"auto_score":187.5,"n_per":35,"n_hog":14,"source_year":2024,"crime_score":0.2319,"crime_nivel":"Medio","crime_color":"#ff9800"},"geometry":{"type":"Polygon","coordinates":[[[-72.7850825089999,-38.4146578550811],[-72.7838380319999,-38.4146993750812],[-72.7839224239999,-38.4155373160811],[-72.784716521,-38.4151098160811],[-72.7851207729999,-38.4150668020812],[-72.7850825089999,-38.4146578550811]]]}},{"type":"Feature","properties":{"id":"9106011001097","commune":"Galvarino","code":"09106","gse":"D","quintil":"Q1","nse_score":629.0,"educ":10.5,"educ_score":500.0,"hacin":1.292,"hacin_class":"Hacinamiento Leve","hacin_score":789.0,"auto_score":38.5,"n_per":31,"n_hog":13,"source_year":2024,"crime_score":0.2388,"crime_nivel":"Medio","crime_color":"#ff9800"},"geometry":{"type":"Polygon","coordinates":[[[-72.7826617249999,-38.4160138280812],[-72.7838548989999,-38.4156425850811],[-72.7837196039999,-38.4147032020811],[-72.7824796579999,-38.4147799150812],[-72.7826617249999,-38.4160138280812]]]}},{"type":"Feature","properties":{"id":"9106011001099","commune":"Galvarino","code":"09106","gse":"C1","quintil":"Q5","nse_score":789.2,"educ":12.4,"educ_score":626.7,"hacin":1.263,"hacin_class":"Hacinamiento Leve","hacin_score":795.1,"auto_score":83.3,"n_per":24,"n_hog":6,"source_year":2024,"crime_score":0.2176,"crime_nivel":"Medio","crime_color":"#ff9800"},"geometry":{"type":"Polygon","coordinates":[[[-72.7825012009999,-38.4160877040812],[-72.7823544829999,-38.4147867400812],[-72.7810661869999,-38.4148724120812],[-72.7811982719999,-38.4161217510811],[-72.7825012009999,-38.4160877040812]]]}},{"type":"Feature","properties":{"id":"9106011001101","commune":"Galvarino","code":"09106","gse":"D","quintil":"Q2","nse_score":646.2,"educ":10.5,"educ_score":500.0,"hacin":1.143,"hacin_class":"Hacinamiento Leve","hacin_score":820.7,"auto_score":232.1,"n_per":64,"n_hog":26,"source_year":2024,"crime_score":0.2404,"crime_nivel":"Medio","crime_color":"#ff9800"},"geometry":{"type":"Polygon","coordinates":[[[-72.7810969569999,-38.4161281050811],[-72.7809475759999,-38.4148632480812],[-72.7797375089999,-38.4149207730812],[-72.7798934299999,-38.4162048810811],[-72.7810969569999,-38.4161281050811]]]}},{"type":"Feature","properties":{"id":"9106011001103","commune":"Galvarino","code":"09106","gse":"E","quintil":"Q1","nse_score":607.1,"educ":9.3,"educ_score":420.0,"hacin":1.38,"hacin_class":"Hacinamiento Leve","hacin_score":770.2,"auto_score":100.0,"n_per":69,"n_hog":25,"source_year":2024,"crime_score":0.2461,"crime_nivel":"Medio","crime_color":"#ff9800"},"geometry":{"type":"Polygon","coordinates":[[[-72.7785469449999,-38.4160878440811],[-72.7797958669999,-38.4162030320811],[-72.7796255659999,-38.4149137490811],[-72.7784229089999,-38.4149840920811],[-72.7785469449999,-38.4160878440811]]]}},{"type":"Feature","properties":{"id":"9106011001104","commune":"Galvarino","code":"09106","gse":"D","quintil":"Q1","nse_score":636.7,"educ":10.6,"educ_score":506.7,"hacin":1.333,"hacin_class":"Hacinamiento Leve","hacin_score":780.1,"auto_score":138.9,"n_per":40,"n_hog":16,"source_year":2024,"crime_score":0.2388,"crime_nivel":"Medio","crime_color":"#ff9800"},"geometry":{"type":"Polygon","coordinates":[[[-72.7768142759999,-38.4149277500812],[-72.7730411199999,-38.4151536370812],[-72.7730171709999,-38.4158682930812],[-72.7734406869999,-38.4160260010811],[-72.7741191779999,-38.4159141420812],[-72.7757671489999,-38.4161923800811],[-72.7769468949999,-38.4160432740811],[-72.7777398089999,-38.4161168030812],[-72.7795065599999,-38.4165062630811],[-72.7800137569999,-38.4162802590812],[-72.7790317909999,-38.4162965820811],[-72.7769075869999,-38.4158577120811],[-72.7755493559999,-38.4159277730812],[-72.7754540429999,-38.4155081460811],[-72.7738029219999,-38.4155976630811],[-72.7736952889999,-38.4158760950811],[-72.7734573429999,-38.4159617560812],[-72.7736476999999,-38.4158404030811],[-72.7737521289999,-38.4155630780811],[-72.7754123619999,-38.4154799830812],[-72.7754166009999,-38.4151427830812],[-72.7768569999999,-38.4150557210812],[-72.7768142759999,-38.4149277500812]]]}},{"type":"Feature","properties":{"id":"9106011001105","commune":"Galvarino","code":"09106","gse":"D","quintil":"Q2","nse_score":647.2,"educ":10.1,"educ_score":473.3,"hacin":1.273,"hacin_class":"Hacinamiento Leve","hacin_score":793.0,"auto_score":180.0,"n_per":70,"n_hog":24,"source_year":2024,"crime_score":0.241,"crime_nivel":"Medio","crime_color":"#ff9800"},"geometry":{"type":"Polygon","coordinates":[[[-72.778342403,-38.4149678580812],[-72.7769375369999,-38.4150446620812],[-72.7769763219999,-38.4152990980811],[-72.777593211,-38.4152870070812],[-72.7769830009999,-38.4153407940811],[-72.7769796599999,-38.4157884810811],[-72.7784887719999,-38.4160883750812],[-72.778342403,-38.4149678580812]]]}},{"type":"Feature","properties":{"id":"9106011001106","commune":"Galvarino","code":"09106","gse":"C2","quintil":"Q4","nse_score":739.6,"educ":13.0,"educ_score":666.7,"hacin":1.247,"hacin_class":"Hacinamiento Leve","hacin_score":798.6,"auto_score":66.7,"n_per":91,"n_hog":31,"source_year":2024,"crime_score":0.2313,"crime_nivel":"Medio","crime_color":"#ff9800"},"geometry":{"type":"Polygon","coordinates":[[[-72.7768854179999,-38.4153301890811],[-72.7768594099999,-38.4150789990812],[-72.7754251469999,-38.4151655510811],[-72.7753774539999,-38.4153407700812],[-72.775444595,-38.4154783700812],[-72.7768854179999,-38.4153301890811]]]}},{"type":"Feature","properties":{"id":"9106011001107","commune":"Galvarino","code":"09106","gse":"D","quintil":"Q1","nse_score":632.0,"educ":9.0,"educ_score":400.0,"hacin":0.923,"hacin_class":"Sin Hacinamiento","hacin_score":867.4,"auto_score":29.4,"n_per":36,"n_hog":17,"source_year":2024,"crime_score":0.239,"crime_nivel":"Medio","crime_color":"#ff9800"},"geometry":{"type":"Polygon","coordinates":[[[-72.7769132759999,-38.4157784330812],[-72.7768766159999,-38.4154212660812],[-72.7755169589999,-38.4155287850812],[-72.7756000649999,-38.4158886850811],[-72.7769132759999,-38.4157784330812]]]}},{"type":"Feature","properties":{"id":"9106011001110","commune":"Galvarino","code":"09106","gse":"E","quintil":"Q1","nse_score":606.4,"educ":10.2,"educ_score":480.0,"hacin":1.548,"hacin_class":"Hacinamiento Medio","hacin_score":734.4,"auto_score":58.8,"n_per":48,"n_hog":15,"source_year":2024,"crime_score":0.2437,"crime_nivel":"Medio","crime_color":"#ff9800"},"geometry":{"type":"Polygon","coordinates":[[[-72.7813183679999,-38.4162020950812],[-72.7813986039999,-38.4168524230812],[-72.7825849059999,-38.4167076810811],[-72.7825082989999,-38.4161652160812],[-72.7813183679999,-38.4162020950812]]]}},{"type":"Feature","properties":{"id":"9106011001111","commune":"Galvarino","code":"09106","gse":"D","quintil":"Q2","nse_score":650.8,"educ":10.6,"educ_score":506.7,"hacin":1.337,"hacin_class":"Hacinamiento Leve","hacin_score":779.3,"auto_score":154.8,"n_per":107,"n_hog":39,"source_year":2024,"crime_score":0.2448,"crime_nivel":"Medio","crime_color":"#ff9800"},"geometry":{"type":"Polygon","coordinates":[[[-72.7805252639999,-38.4172235790811],[-72.7783803429999,-38.4186154220812],[-72.7784082139999,-38.4190727460811],[-72.7800377089999,-38.4181097470811],[-72.7822361249999,-38.4184253870811],[-72.7830083729999,-38.4183208010811],[-72.7825924489999,-38.4167882520811],[-72.7813964729999,-38.4168836180811],[-72.7814505339999,-38.4174218830811],[-72.7813446449999,-38.4174249230811],[-72.7811958079999,-38.4162099090811],[-72.7807890619999,-38.4162417570812],[-72.7805252639999,-38.4172235790811]]]}},{"type":"Feature","properties":{"id":"9106011001112","commune":"Galvarino","code":"09106","gse":"C2","quintil":"Q3","nse_score":718.1,"educ":13.7,"educ_score":713.3,"hacin":1.667,"hacin_class":"Hacinamiento Medio","hacin_score":709.2,"auto_score":200.0,"n_per":15,"n_hog":4,"source_year":2024,"crime_score":0.2256,"crime_nivel":"Medio","crime_color":"#ff9800"},"geometry":{"type":"Polygon","coordinates":[[[-72.7852514929999,-38.4176446790811],[-72.7848914139999,-38.4167565990811],[-72.7844897409999,-38.4167916590812],[-72.78486412,-38.4177912720811],[-72.7852514929999,-38.4176446790811]]]}},{"type":"Feature","properties":{"id":"9106011001048","commune":"Galvarino","code":"09106","gse":"D","quintil":"Q2","nse_score":644.1,"educ":10.1,"educ_score":473.3,"hacin":1.4,"hacin_class":"Hacinamiento Leve","hacin_score":766.0,"auto_score":0.0,"n_per":7,"n_hog":4,"source_year":2024,"crime_score":0.234,"crime_nivel":"Medio","crime_color":"#ff9800"},"geometry":{"type":"MultiPolygon","coordinates":[[[[-72.7768221879999,-38.4139670620811],[-72.7782138339999,-38.4138839850811],[-72.7780983799999,-38.4129554320812],[-72.776706552,-38.4130185940812],[-72.7768221879999,-38.4139670620811]]],[[[-72.7763646069999,-38.4113741050812],[-72.7748983939999,-38.4116031850812],[-72.7753032379999,-38.4143005730812],[-72.7767552479999,-38.4141724080812],[-72.7765282949999,-38.4116831700812],[-72.7763646069999,-38.4113741050812]]]]}}]}