{"type":"FeatureCollection","features":[{"type":"Feature","properties":{"id":"11203011001001","commune":"Guaitecas","code":"11203","gse":"C3","quintil":"Q3","nse_score":695.1,"educ":11.9,"educ_score":593.3,"hacin":1.118,"hacin_class":"Hacinamiento Leve","hacin_score":826.0,"auto_score":250.0,"n_per":19,"n_hog":10,"source_year":2024,"crime_score":0.4006,"crime_nivel":"Muy Bajo","crime_color":"#4caf50"},"geometry":{"type":"Polygon","coordinates":[[[-73.74154956,-43.8825768340574],[-73.7414202599999,-43.8846338390574],[-73.7399929699999,-43.8842765720573],[-73.7409336429999,-43.8850078560574],[-73.7416040459999,-43.8866907810573],[-73.7421015379999,-43.8870539700574],[-73.7421449909999,-43.8852712960573],[-73.7420165409999,-43.8846511200573],[-73.7421046569999,-43.8832890660573],[-73.7416587289999,-43.8831629100574],[-73.7418266919999,-43.8831106910574],[-73.7421517359999,-43.8832700740574],[-73.7420662939999,-43.8846495580573],[-73.7421946139999,-43.8852672880574],[-73.7422375289999,-43.8864917990573],[-73.7421200459999,-43.8877440950574],[-73.7429818409999,-43.8876475090573],[-73.7421295199999,-43.8877961360574],[-73.7422340699999,-43.8882558930573],[-73.7425083659999,-43.8888390950573],[-73.7430332359999,-43.8888425170573],[-73.7436854679999,-43.8892250290573],[-73.7436893159999,-43.8886112090573],[-73.7434186619999,-43.8880300320574],[-73.7432446719999,-43.8869799000573],[-73.7427453979999,-43.8870999930573],[-73.7427911779999,-43.8852050490573],[-73.7426659679999,-43.8846434590574],[-73.7432891439999,-43.8831180210573],[-73.74154956,-43.8825768340574]]]}},{"type":"Feature","properties":{"id":"11203011001002","commune":"Guaitecas","code":"11203","gse":"D","quintil":"Q2","nse_score":646.3,"educ":12.5,"educ_score":633.3,"hacin":1.454,"hacin_class":"Hacinamiento Leve","hacin_score":754.4,"auto_score":83.3,"n_per":16,"n_hog":6,"source_year":2024,"crime_score":0.4108,"crime_nivel":"Muy Bajo","crime_color":"#4caf50"},"geometry":{"type":"Polygon","coordinates":[[[-73.7413418149999,-43.8876919850574],[-73.7420464159999,-43.8876969850573],[-73.7420985929999,-43.8870972980574],[-73.7415582759999,-43.8867054020574],[-73.7408927209999,-43.8850288400574],[-73.7397272589999,-43.8842100590573],[-73.7394302229999,-43.8843655160573],[-73.7405860439999,-43.8852519920574],[-73.7408359679999,-43.8861796880573],[-73.7406611199999,-43.8868612280573],[-73.7412665539999,-43.8872762800573],[-73.7413418149999,-43.8876919850574]]]}},{"type":"Feature","properties":{"id":"11203011001003","commune":"Guaitecas","code":"11203","gse":"C3","quintil":"Q2","nse_score":677.3,"educ":11.5,"educ_score":566.7,"hacin":1.153,"hacin_class":"Hacinamiento Leve","hacin_score":818.4,"auto_score":204.1,"n_per":248,"n_hog":97,"source_year":2024,"crime_score":0.4505,"crime_nivel":"Muy Bajo","crime_color":"#4caf50"},"geometry":{"type":"Polygon","coordinates":[[[-73.7420340299999,-43.8948270180573],[-73.7431716389999,-43.8951433870574],[-73.7438509639999,-43.8955409430574],[-73.7443019269999,-43.8959711160573],[-73.7444080049999,-43.8959939260574],[-73.7445938619999,-43.8956805420573],[-73.7446306389999,-43.8955294380573],[-73.7444471169999,-43.8952329810573],[-73.7433816949999,-43.8943894030573],[-73.7425039589999,-43.8932381940573],[-73.7424382559999,-43.8930730990573],[-73.7425467669999,-43.8927693710573],[-73.7431470029999,-43.8928927030573],[-73.7431110899999,-43.8927207890573],[-73.7433592199999,-43.8924903370573],[-73.7427505039999,-43.8918871030573],[-73.7427291419999,-43.8910491520573],[-73.7416668859999,-43.8908191370573],[-73.7405957049999,-43.8904161750573],[-73.7422449859999,-43.8884071190574],[-73.7420056899999,-43.8877709090573],[-73.7413141559999,-43.8877363590573],[-73.7407016339999,-43.8887716580573],[-73.7399668599999,-43.8893544320574],[-73.7383212359999,-43.8889431710573],[-73.7382639829999,-43.8894162150573],[-73.7378030789999,-43.8894990230573],[-73.7376742439999,-43.8898443110573],[-73.7372517769999,-43.8900252070574],[-73.7367136759999,-43.8899264770574],[-73.7364985399999,-43.8895627370573],[-73.7360399039999,-43.8895381310573],[-73.7360299139999,-43.8893719900573],[-73.735678258,-43.8893973990574],[-73.7356677519999,-43.8892556680573],[-73.7354992949999,-43.8892391540573],[-73.7350549539999,-43.8898153430574],[-73.7348237749999,-43.8898909160574],[-73.7347846459999,-43.8901444120573],[-73.7344836309999,-43.8903290840573],[-73.7344482529999,-43.8907242360573],[-73.7347456319999,-43.8910302920573],[-73.7347650899999,-43.8913869850573],[-73.7349704409999,-43.8915748230573],[-73.7349323449999,-43.8917794980573],[-73.7352527049999,-43.8922762540574],[-73.7359269159999,-43.8926450760574],[-73.7357922419999,-43.8929463480573],[-73.7359461459999,-43.8936512390573],[-73.7358798079999,-43.8939142020574],[-73.7363806139999,-43.8945008490573],[-73.7361453259999,-43.8950891200573],[-73.7362991369999,-43.8957988940573],[-73.7370982059999,-43.8966525320574],[-73.7369360049999,-43.8969779170573],[-73.7365947729999,-43.8968276470573],[-73.7364644289999,-43.8969238700574],[-73.7366451259999,-43.8975908830574],[-73.7366619149999,-43.8983067190573],[-73.7365170779999,-43.8990161510573],[-73.7370013819999,-43.8991630970573],[-73.7376166959999,-43.9001610340573],[-73.73810642,-43.9003542060573],[-73.7384783339999,-43.9003248840573],[-73.7385219869999,-43.8989063740573],[-73.7387939309999,-43.8986173630573],[-73.7401397939999,-43.8984168820573],[-73.741859986,-43.8986283790573],[-73.741921568,-43.8983101950573],[-73.7419211629999,-43.8986334680574],[-73.7422363549999,-43.8986369080573],[-73.7424200219999,-43.8980616190573],[-73.7411043799999,-43.8972918440573],[-73.7409143309999,-43.8974851900573],[-73.7410985939999,-43.8979648520573],[-73.741094846,-43.8982208980573],[-73.7410488599999,-43.8982144360573],[-73.7408729089999,-43.8974966450573],[-73.7410816469999,-43.8972750980574],[-73.7401202219999,-43.8969031310573],[-73.7397108309999,-43.8969177010573],[-73.7401192769999,-43.8968697220574],[-73.7408704229999,-43.8970628260574],[-73.7409211469999,-43.8965159050573],[-73.7410879969999,-43.8962207920573],[-73.7408415899999,-43.8956738740574],[-73.7410062109999,-43.8950407850573],[-73.7413621019999,-43.8948172390574],[-73.741990874,-43.8948305630573],[-73.7418726889999,-43.8943521510574],[-73.7415247779999,-43.8940939710574],[-73.7415361069999,-43.8939660430573],[-73.7416071649999,-43.8938402890573],[-73.7411998699999,-43.8929241490573],[-73.7411733749999,-43.8925388490573],[-73.7416319339999,-43.8938377840573],[-73.7415487549999,-43.8940875780573],[-73.7418950779999,-43.8943442440574],[-73.7420340299999,-43.8948270180573]]]}},{"type":"Feature","properties":{"id":"11203011001004","commune":"Guaitecas","code":"11203","gse":"C3","quintil":"Q3","nse_score":695.4,"educ":11.6,"educ_score":573.3,"hacin":1.194,"hacin_class":"Hacinamiento Leve","hacin_score":809.9,"auto_score":269.2,"n_per":37,"n_hog":13,"source_year":2024,"crime_score":0.4041,"crime_nivel":"Muy Bajo","crime_color":"#4caf50"},"geometry":{"type":"Polygon","coordinates":[[[-73.7424498539999,-43.8888235050573],[-73.7422814809999,-43.8884631970574],[-73.7406546389999,-43.8904313180573],[-73.7410901879999,-43.8905647620573],[-73.7421082689999,-43.8893572960573],[-73.7424052539999,-43.8892686610574],[-73.7424498539999,-43.8888235050573]]]}},{"type":"Feature","properties":{"id":"11203011001005","commune":"Guaitecas","code":"11203","gse":"D","quintil":"Q1","nse_score":633.3,"educ":9.2,"educ_score":413.3,"hacin":1.149,"hacin_class":"Hacinamiento Leve","hacin_score":819.3,"auto_score":129.6,"n_per":77,"n_hog":27,"source_year":2024,"crime_score":0.4262,"crime_nivel":"Muy Bajo","crime_color":"#4caf50"},"geometry":{"type":"Polygon","coordinates":[[[-73.7428909049999,-43.8903954240574],[-73.7427759259999,-43.8911578450574],[-73.7429487879999,-43.8912186170573],[-73.7434985529999,-43.8910728070573],[-73.7427639009999,-43.8913684060573],[-73.7427887799999,-43.8918241440573],[-73.7444195849999,-43.8935600530573],[-73.7452399059999,-43.8933638560573],[-73.7462184869999,-43.8946802400574],[-73.7479515169999,-43.8955446410574],[-73.7483858939999,-43.8955076620573],[-73.7486327119999,-43.8952843650573],[-73.7481043139999,-43.8946351900573],[-73.7481092399999,-43.8944672710573],[-73.7483563319999,-43.8943651230573],[-73.748881503,-43.8944289010573],[-73.7492409199999,-43.8947443490573],[-73.7494227479999,-43.8954062090573],[-73.7498327609999,-43.8955563430573],[-73.7498693729999,-43.8954247080573],[-73.7496789649999,-43.8953702960574],[-73.7496380169999,-43.8951913200573],[-73.7488773149999,-43.8943195940574],[-73.7481657679999,-43.8943533550574],[-73.747965555,-43.8944619680573],[-73.7481459099999,-43.8952334660573],[-73.7477797759999,-43.8952366360573],[-73.7467871079999,-43.8947385940573],[-73.7454680639999,-43.8932533920574],[-73.7440385129999,-43.8919222020573],[-73.7442414779999,-43.8913143530573],[-73.7435129949999,-43.8903313350573],[-73.7434868429999,-43.8891866260573],[-73.7430759949999,-43.8888951050574],[-73.7428136249999,-43.8888559630573],[-73.7425089109999,-43.8888933980573],[-73.7424673149999,-43.8891354200573],[-73.7428909049999,-43.8903954240574]]]}},{"type":"Feature","properties":{"id":"11203011001006","commune":"Guaitecas","code":"11203","gse":"D","quintil":"Q1","nse_score":630.9,"educ":9.7,"educ_score":446.7,"hacin":1.179,"hacin_class":"Hacinamiento Leve","hacin_score":813.1,"auto_score":125.0,"n_per":33,"n_hog":12,"source_year":2024,"crime_score":0.4177,"crime_nivel":"Muy Bajo","crime_color":"#4caf50"},"geometry":{"type":"Polygon","coordinates":[[[-73.7417332609999,-43.8907992710573],[-73.7426128069999,-43.8898349290574],[-73.7424096709999,-43.8893183920573],[-73.7421378829999,-43.8893840390573],[-73.7411567089999,-43.8905735340573],[-73.7417332609999,-43.8907992710573]]]}},{"type":"Feature","properties":{"id":"11203011001009","commune":"Guaitecas","code":"11203","gse":"D","quintil":"Q1","nse_score":627.1,"educ":10.2,"educ_score":480.0,"hacin":1.317,"hacin_class":"Hacinamiento Leve","hacin_score":783.6,"auto_score":71.4,"n_per":54,"n_hog":21,"source_year":2024,"crime_score":0.4229,"crime_nivel":"Muy Bajo","crime_color":"#4caf50"},"geometry":{"type":"Polygon","coordinates":[[[-73.7434192369999,-43.8925508240573],[-73.743191883,-43.8927346570573],[-73.7433342429999,-43.8930647260573],[-73.7446011369999,-43.8945293510574],[-73.7451315359999,-43.8949130700573],[-73.7453172939999,-43.8946800780573],[-73.7434192369999,-43.8925508240573]]]}},{"type":"Feature","properties":{"id":"11203011001010","commune":"Guaitecas","code":"11203","gse":"D","quintil":"Q2","nse_score":646.8,"educ":11.0,"educ_score":533.3,"hacin":1.241,"hacin_class":"Hacinamiento Leve","hacin_score":799.9,"auto_score":153.2,"n_per":165,"n_hog":62,"source_year":2024,"crime_score":0.4411,"crime_nivel":"Muy Bajo","crime_color":"#4caf50"},"geometry":{"type":"Polygon","coordinates":[[[-73.7446846039999,-43.8955075790573],[-73.7444518129999,-43.8960037350574],[-73.7451020919999,-43.8964514110573],[-73.7452452739999,-43.8962332820573],[-73.7452865619999,-43.8956544400573],[-73.7451053099999,-43.8950005170573],[-73.7442090629999,-43.8940436150573],[-73.7438536439999,-43.8941874680573],[-73.7441985609999,-43.8940272320573],[-73.743209266,-43.8929300320573],[-73.7425916719999,-43.8928270380574],[-73.7425832519999,-43.8932271550573],[-73.7434287519999,-43.8943575270574],[-73.7445269179999,-43.8952475480573],[-73.7446846039999,-43.8955075790573]]]}},{"type":"Feature","properties":{"id":"11203011001011","commune":"Guaitecas","code":"11203","gse":"E","quintil":"Q1","nse_score":577.1,"educ":6.8,"educ_score":253.3,"hacin":0.821,"hacin_class":"Sin Hacinamiento","hacin_score":889.1,"auto_score":45.5,"n_per":23,"n_hog":11,"source_year":2024,"crime_score":0.4277,"crime_nivel":"Muy Bajo","crime_color":"#4caf50"},"geometry":{"type":"Polygon","coordinates":[[[-73.7454366589999,-43.8946978150573],[-73.7459736589999,-43.8945060480573],[-73.7452509689999,-43.8934648390573],[-73.7444942159999,-43.8936105880573],[-73.7454366589999,-43.8946978150573]]]}},{"type":"Feature","properties":{"id":"11203011001012","commune":"Guaitecas","code":"11203","gse":"E","quintil":"Q1","nse_score":606.5,"educ":8.3,"educ_score":353.3,"hacin":0.846,"hacin_class":"Sin Hacinamiento","hacin_score":883.8,"auto_score":0.0,"n_per":11,"n_hog":4,"source_year":2024,"crime_score":0.4186,"crime_nivel":"Muy Bajo","crime_color":"#4caf50"},"geometry":{"type":"Polygon","coordinates":[[[-73.7488183899999,-43.8952988760573],[-73.7493924379999,-43.8953407960573],[-73.7491296619999,-43.8946519390573],[-73.7487648809999,-43.8944222540573],[-73.7481872339999,-43.8944545320573],[-73.7481425699999,-43.8946262810573],[-73.7488183899999,-43.8952988760573]]]}},{"type":"Feature","properties":{"id":"11203011001013","commune":"Guaitecas","code":"11203","gse":"C3","quintil":"Q3","nse_score":685.2,"educ":12.2,"educ_score":613.3,"hacin":1.333,"hacin_class":"Hacinamiento Leve","hacin_score":780.1,"auto_score":29.4,"n_per":44,"n_hog":17,"source_year":2024,"crime_score":0.4078,"crime_nivel":"Muy Bajo","crime_color":"#4caf50"},"geometry":{"type":"Polygon","coordinates":[[[-73.7461884699999,-43.8955179030573],[-73.7469737929999,-43.8950951400574],[-73.7460155989999,-43.8945594430573],[-73.7454991529999,-43.8947229400573],[-73.7461884699999,-43.8955179030573]]]}},{"type":"Feature","properties":{"id":"11203011001014","commune":"Guaitecas","code":"11203","gse":"C3","quintil":"Q3","nse_score":684.1,"educ":10.6,"educ_score":506.7,"hacin":0.931,"hacin_class":"Sin Hacinamiento","hacin_score":865.7,"auto_score":65.2,"n_per":54,"n_hog":23,"source_year":2024,"crime_score":0.41,"crime_nivel":"Muy Bajo","crime_color":"#4caf50"},"geometry":{"type":"Polygon","coordinates":[[[-73.7451792969999,-43.8949078520574],[-73.7453635229999,-43.8956875230573],[-73.7455450999999,-43.8958686630573],[-73.7466488929999,-43.8964815010573],[-73.7467882889999,-43.8961212170573],[-73.7454092999999,-43.8947713960573],[-73.7451792969999,-43.8949078520574]]]}},{"type":"Feature","properties":{"id":"11203011001015","commune":"Guaitecas","code":"11203","gse":"C3","quintil":"Q2","nse_score":674.0,"educ":11.5,"educ_score":566.7,"hacin":1.218,"hacin_class":"Hacinamiento Leve","hacin_score":804.7,"auto_score":73.5,"n_per":95,"n_hog":34,"source_year":2024,"crime_score":0.4206,"crime_nivel":"Muy Bajo","crime_color":"#4caf50"},"geometry":{"type":"Polygon","coordinates":[[[-73.7429467429999,-43.8967785720574],[-73.7432925429999,-43.8965388930573],[-73.7434906329999,-43.8966137280573],[-73.7433039639999,-43.8965891000573],[-73.7428880349999,-43.8968886740574],[-73.7426829249999,-43.8973612350573],[-73.7432345619999,-43.8975290540574],[-73.7449108659999,-43.8964265780573],[-73.7431215549999,-43.8951674280573],[-73.7422425519999,-43.8948585510573],[-73.7414904499999,-43.8948448950574],[-73.7410927419999,-43.8950123170574],[-73.7409033749999,-43.8956720550573],[-73.7411495539999,-43.8962203290574],[-73.7409818539999,-43.8965223840573],[-73.740931439,-43.8970764950574],[-73.7426443779999,-43.8973579040573],[-73.7426518729999,-43.8971491060573],[-73.7429303649999,-43.8967921420573],[-73.7426114759999,-43.8966725550573],[-73.7424126079999,-43.8966782180573],[-73.7418097719999,-43.8964995860573],[-73.7412828889999,-43.8959152690573],[-73.7415667199999,-43.8960849330573],[-73.7418260579999,-43.8964854180573],[-73.7426182589999,-43.8966550090573],[-73.7429467429999,-43.8967785720574]]]}},{"type":"Feature","properties":{"id":"11203011001016","commune":"Guaitecas","code":"11203","gse":"E","quintil":"Q1","nse_score":609.2,"educ":8.6,"educ_score":373.3,"hacin":1.125,"hacin_class":"Hacinamiento Leve","hacin_score":824.5,"auto_score":187.5,"n_per":18,"n_hog":8,"source_year":2024,"crime_score":0.4195,"crime_nivel":"Muy Bajo","crime_color":"#4caf50"},"geometry":{"type":"Polygon","coordinates":[[[-73.7468792489999,-43.8961207080573],[-73.7478623049999,-43.8955869080573],[-73.7478754319999,-43.8955628940574],[-73.7470244919999,-43.8951188770574],[-73.7462874899999,-43.8955498640573],[-73.7468792489999,-43.8961207080573]]]}},{"type":"Feature","properties":{"id":"11203011001017","commune":"Guaitecas","code":"11203","gse":"D","quintil":"Q2","nse_score":655.3,"educ":11.2,"educ_score":546.7,"hacin":1.414,"hacin_class":"Hacinamiento Leve","hacin_score":763.0,"auto_score":76.9,"n_per":41,"n_hog":12,"source_year":2024,"crime_score":0.4139,"crime_nivel":"Muy Bajo","crime_color":"#4caf50"},"geometry":{"type":"Polygon","coordinates":[[[-73.7488387789999,-43.8964913530573],[-73.7493157429999,-43.8961762020573],[-73.7491574859999,-43.8957865030574],[-73.7493029819999,-43.8954026780573],[-73.748762343,-43.8953299720573],[-73.7483698439999,-43.8955720060573],[-73.7488387789999,-43.8964913530573]]]}},{"type":"Feature","properties":{"id":"11203011001018","commune":"Guaitecas","code":"11203","gse":"D","quintil":"Q2","nse_score":656.9,"educ":9.9,"educ_score":460.0,"hacin":1.066,"hacin_class":"Hacinamiento Leve","hacin_score":837.1,"auto_score":43.5,"n_per":65,"n_hog":23,"source_year":2024,"crime_score":0.4184,"crime_nivel":"Muy Bajo","crime_color":"#4caf50"},"geometry":{"type":"Polygon","coordinates":[[[-73.749804933,-43.8956563970573],[-73.7493897369999,-43.8954368760573],[-73.7492446789999,-43.8957217170573],[-73.7493535069999,-43.8960557510573],[-73.7496388459999,-43.8961175750573],[-73.7493917989999,-43.8961114390573],[-73.7490612789999,-43.8964200650573],[-73.7492455289999,-43.8966297830573],[-73.7489957349999,-43.8964473820574],[-73.7487581599999,-43.8966213770573],[-73.7476508169999,-43.8969278840573],[-73.7472697989999,-43.8976424270573],[-73.7474265849999,-43.8979536220573],[-73.7470814839999,-43.8977289950574],[-73.7474260389999,-43.8973081940574],[-73.7474590119999,-43.8970784840574],[-73.746699481,-43.8974621590573],[-73.7466279489999,-43.8978160160573],[-73.7459491579999,-43.8985759420573],[-73.7462112569999,-43.8986799890573],[-73.7461387709999,-43.8987682750573],[-73.7458549819999,-43.8986704220573],[-73.7448066489999,-43.8995422240574],[-73.7442505879999,-43.8995960400573],[-73.7435013099999,-43.8993887510573],[-73.742230075,-43.8987138710573],[-73.7404127299999,-43.8984774760573],[-73.7396046739999,-43.8985152690573],[-73.7388293579999,-43.8986652580573],[-73.7386248239999,-43.8988381130573],[-73.7384783339999,-43.9003248840573],[-73.7386981449999,-43.9000513940573],[-73.7388116889999,-43.8991092200573],[-73.7392141269999,-43.8988997350573],[-73.7403780989999,-43.8987109600574],[-73.7411823319999,-43.8989275930573],[-73.7413586709999,-43.8988418100573],[-73.7422693499999,-43.8989564930573],[-73.7430320929999,-43.8996282110573],[-73.7441925549999,-43.8999103020574],[-73.7449559769999,-43.9005512330573],[-73.7448746719999,-43.9003687340573],[-73.7450800839999,-43.8998107820573],[-73.7456168539999,-43.8996904750573],[-73.7455462479999,-43.8996065920573],[-73.7456782779999,-43.8996034250573],[-73.7456695859999,-43.8993078340573],[-73.7460352769999,-43.8991240870573],[-73.7469235549999,-43.8980749760573],[-73.7473334029999,-43.8981194850573],[-73.7475245319999,-43.8980217770573],[-73.7476056519999,-43.8974175910574],[-73.7480766559999,-43.8971842030573],[-73.7482798049999,-43.8972402950574],[-73.7486237129999,-43.8969778090574],[-73.7493244899999,-43.8969516230573],[-73.749833426,-43.8965324190573],[-73.7498336739999,-43.8961172020573],[-73.7495300289999,-43.8957749720573],[-73.7495816089999,-43.8956493360574],[-73.749804933,-43.8956563970573]]]}},{"type":"Feature","properties":{"id":"11203011001019","commune":"Guaitecas","code":"11203","gse":"E","quintil":"Q1","nse_score":600.8,"educ":8.8,"educ_score":386.7,"hacin":1.256,"hacin_class":"Hacinamiento Leve","hacin_score":796.5,"auto_score":35.7,"n_per":49,"n_hog":14,"source_year":2024,"crime_score":0.4278,"crime_nivel":"Muy Bajo","crime_color":"#4caf50"},"geometry":{"type":"Polygon","coordinates":[[[-73.7482859289999,-43.8955943670573],[-73.7479274899999,-43.8955972130573],[-73.7470817239999,-43.8960955480573],[-73.7473648469999,-43.8963374740573],[-73.7470454599999,-43.8961194890573],[-73.7468987169999,-43.8961954590573],[-73.7467061129999,-43.8965523420573],[-73.7475039969999,-43.8969246490573],[-73.7487444049999,-43.8965806450573],[-73.7486049629999,-43.8960848600573],[-73.7482859289999,-43.8955943670573]]]}},{"type":"Feature","properties":{"id":"11203011001020","commune":"Guaitecas","code":"11203","gse":"D","quintil":"Q1","nse_score":625.2,"educ":8.9,"educ_score":393.3,"hacin":1.0,"hacin_class":"Hacinamiento Leve","hacin_score":851.1,"auto_score":62.5,"n_per":23,"n_hog":8,"source_year":2024,"crime_score":0.417,"crime_nivel":"Muy Bajo","crime_color":"#4caf50"},"geometry":{"type":"Polygon","coordinates":[[[-73.7458745329999,-43.8962168630574],[-73.7452995809999,-43.8957493380573],[-73.7452851559999,-43.8962480130573],[-73.7451402639999,-43.8964637930573],[-73.7454525079999,-43.8964959370573],[-73.7458745329999,-43.8962168630574]]]}},{"type":"Feature","properties":{"id":"11203011001021","commune":"Guaitecas","code":"11203","gse":"C2","quintil":"Q4","nse_score":731.2,"educ":11.8,"educ_score":586.7,"hacin":1.25,"hacin_class":"Hacinamiento Leve","hacin_score":797.9,"auto_score":0.0,"n_per":25,"n_hog":7,"source_year":2024,"crime_score":0.3938,"crime_nivel":"Muy Bajo","crime_color":"#4caf50"},"geometry":{"type":"Polygon","coordinates":[[[-73.7455090139999,-43.8965412300573],[-73.7456137209999,-43.8967288400573],[-73.7458621259999,-43.8965714820574],[-73.7456344259999,-43.8967492640573],[-73.7462510379999,-43.8971984640573],[-73.7466008639999,-43.8965751600573],[-73.7459930579999,-43.8962457300573],[-73.7455090139999,-43.8965412300573]]]}},{"type":"Feature","properties":{"id":"11203011001022","commune":"Guaitecas","code":"11203","gse":"E","quintil":"Q1","nse_score":609.5,"educ":8.5,"educ_score":366.7,"hacin":0.882,"hacin_class":"Sin Hacinamiento","hacin_score":876.1,"auto_score":0.0,"n_per":15,"n_hog":5,"source_year":2024,"crime_score":0.4188,"crime_nivel":"Muy Bajo","crime_color":"#4caf50"},"geometry":{"type":"Polygon","coordinates":[[[-73.7449730909999,-43.8964804820573],[-73.7434959659999,-43.8973934180573],[-73.7432980249999,-43.8975639630573],[-73.7436877739999,-43.8977967580573],[-73.743931416,-43.8977811990573],[-73.7448674409999,-43.8972937010574],[-73.7449125279999,-43.8971954980573],[-73.7447598949999,-43.8970585640574],[-73.7449546229999,-43.8971691400574],[-73.7455038809999,-43.8967359850574],[-73.7449730909999,-43.8964804820573]]]}},{"type":"Feature","properties":{"id":"11203011001023","commune":"Guaitecas","code":"11203","gse":"D","quintil":"Q1","nse_score":634.9,"educ":8.6,"educ_score":373.3,"hacin":1.048,"hacin_class":"Hacinamiento Leve","hacin_score":840.9,"auto_score":55.6,"n_per":22,"n_hog":9,"source_year":2024,"crime_score":0.4146,"crime_nivel":"Muy Bajo","crime_color":"#4caf50"},"geometry":{"type":"Polygon","coordinates":[[[-73.7465893289999,-43.8974490750573],[-73.747133431,-43.8971869960573],[-73.7474265099999,-43.8969654180573],[-73.7466642319999,-43.8965922910573],[-73.7463346309999,-43.8972278770573],[-73.7465893289999,-43.8974490750573]]]}},{"type":"Feature","properties":{"id":"11203011001024","commune":"Guaitecas","code":"11203","gse":"C3","quintil":"Q3","nse_score":698.2,"educ":11.8,"educ_score":586.7,"hacin":1.133,"hacin_class":"Hacinamiento Leve","hacin_score":822.7,"auto_score":0.0,"n_per":17,"n_hog":6,"source_year":2024,"crime_score":0.3995,"crime_nivel":"Muy Bajo","crime_color":"#4caf50"},"geometry":{"type":"Polygon","coordinates":[[[-73.7452039319999,-43.8978945150574],[-73.7462099859999,-43.8972623350573],[-73.746208953,-43.8972359070573],[-73.7455657539999,-43.8967762930574],[-73.7446809449999,-43.8974591890574],[-73.7452039319999,-43.8978945150574]]]}},{"type":"Feature","properties":{"id":"11203011001025","commune":"Guaitecas","code":"11203","gse":"C3","quintil":"Q3","nse_score":686.7,"educ":11.5,"educ_score":566.7,"hacin":0.926,"hacin_class":"Sin Hacinamiento","hacin_score":866.8,"auto_score":125.0,"n_per":25,"n_hog":12,"source_year":2024,"crime_score":0.4037,"crime_nivel":"Muy Bajo","crime_color":"#4caf50"},"geometry":{"type":"Polygon","coordinates":[[[-73.7430754199999,-43.8975390310573],[-73.7427633159999,-43.8974014750573],[-73.7408271499999,-43.8970853980573],[-73.7420521739999,-43.8978539540573],[-73.7422572259999,-43.8976596100573],[-73.7421046669999,-43.8978872980573],[-73.7424368249999,-43.8980191730574],[-73.7430754199999,-43.8975390310573]]]}},{"type":"Feature","properties":{"id":"11203011001027","commune":"Guaitecas","code":"11203","gse":"C3","quintil":"Q3","nse_score":681.6,"educ":11.1,"educ_score":540.0,"hacin":1.257,"hacin_class":"Hacinamiento Leve","hacin_score":796.4,"auto_score":100.0,"n_per":44,"n_hog":15,"source_year":2024,"crime_score":0.4086,"crime_nivel":"Muy Bajo","crime_color":"#4caf50"},"geometry":{"type":"Polygon","coordinates":[[[-73.7452599209999,-43.8979514110573],[-73.7454836189999,-43.8981158220573],[-73.7456769869999,-43.8979847050573],[-73.7455009669999,-43.8981217550573],[-73.7459660599999,-43.8984193830573],[-73.7464617499999,-43.8979060230573],[-73.7459766949999,-43.8974818320573],[-73.7452599209999,-43.8979514110573]]]}},{"type":"Feature","properties":{"id":"11203011001028","commune":"Guaitecas","code":"11203","gse":"C3","quintil":"Q3","nse_score":679.6,"educ":11.2,"educ_score":546.7,"hacin":1.033,"hacin_class":"Hacinamiento Leve","hacin_score":844.0,"auto_score":115.4,"n_per":31,"n_hog":13,"source_year":2024,"crime_score":0.4065,"crime_nivel":"Muy Bajo","crime_color":"#4caf50"},"geometry":{"type":"Polygon","coordinates":[[[-73.7438687459999,-43.8984254810573],[-73.7444159759999,-43.8984096090573],[-73.7451378239999,-43.8979144400573],[-73.744571704,-43.8975134610574],[-73.7441123169999,-43.8977949310574],[-73.7438687459999,-43.8984254810573]]]}},{"type":"Feature","properties":{"id":"11203011001029","commune":"Guaitecas","code":"11203","gse":"C3","quintil":"Q3","nse_score":695.6,"educ":11.6,"educ_score":573.3,"hacin":1.177,"hacin_class":"Hacinamiento Leve","hacin_score":813.5,"auto_score":55.6,"n_per":20,"n_hog":9,"source_year":2024,"crime_score":0.4007,"crime_nivel":"Muy Bajo","crime_color":"#4caf50"},"geometry":{"type":"Polygon","coordinates":[[[-73.7431260639999,-43.8975665960573],[-73.7425268929999,-43.8980458080573],[-73.7438052009999,-43.8984374000573],[-73.7440516449999,-43.8977733750573],[-73.7436684079999,-43.8978218740573],[-73.7431260639999,-43.8975665960573]]]}},{"type":"Feature","properties":{"id":"11203011001031","commune":"Guaitecas","code":"11203","gse":"D","quintil":"Q2","nse_score":653.8,"educ":10.3,"educ_score":486.7,"hacin":0.94,"hacin_class":"Sin Hacinamiento","hacin_score":863.8,"auto_score":111.1,"n_per":47,"n_hog":18,"source_year":2024,"crime_score":0.4155,"crime_nivel":"Muy Bajo","crime_color":"#4caf50"},"geometry":{"type":"Polygon","coordinates":[[[-73.7422800859999,-43.8986723650573],[-73.7433029289999,-43.8992579820573],[-73.7437782539999,-43.8984828030573],[-73.7424708109999,-43.8980893540573],[-73.7422800859999,-43.8986723650573]]]}},{"type":"Feature","properties":{"id":"11203011001033","commune":"Guaitecas","code":"11203","gse":"D","quintil":"Q2","nse_score":649.1,"educ":9.7,"educ_score":446.7,"hacin":1.333,"hacin_class":"Hacinamiento Leve","hacin_score":780.1,"auto_score":90.9,"n_per":32,"n_hog":11,"source_year":2024,"crime_score":0.4135,"crime_nivel":"Muy Bajo","crime_color":"#4caf50"},"geometry":{"type":"Polygon","coordinates":[[[-73.7444777069999,-43.8984378700573],[-73.7438499089999,-43.8984985570573],[-73.7436423479999,-43.8988890580573],[-73.7444984389999,-43.8989245030573],[-73.7449269269999,-43.8986798450573],[-73.7444777069999,-43.8984378700573]]]}},{"type":"Feature","properties":{"id":"11203011001034","commune":"Guaitecas","code":"11203","gse":"D","quintil":"Q2","nse_score":649.8,"educ":9.3,"educ_score":420.0,"hacin":0.79,"hacin_class":"Sin Hacinamiento","hacin_score":895.7,"auto_score":0.0,"n_per":49,"n_hog":23,"source_year":2024,"crime_score":0.4168,"crime_nivel":"Muy Bajo","crime_color":"#4caf50"},"geometry":{"type":"Polygon","coordinates":[[[-73.7444106569999,-43.8989850160573],[-73.7436117709999,-43.8989404510573],[-73.7433702939999,-43.8992813690573],[-73.7442642029999,-43.8995428080573],[-73.7447644559999,-43.8994961210573],[-73.7454195739999,-43.8989719820573],[-73.7449869509999,-43.8987123490573],[-73.7444106569999,-43.8989850160573]]]}},{"type":"Feature","properties":{"id":"11203011001030","commune":"Guaitecas","code":"11203","gse":"D","quintil":"Q1","nse_score":614.4,"educ":10.0,"educ_score":466.7,"hacin":1.433,"hacin_class":"Hacinamiento Leve","hacin_score":758.9,"auto_score":45.5,"n_per":43,"n_hog":11,"source_year":2024,"crime_score":0.4235,"crime_nivel":"Muy Bajo","crime_color":"#4caf50"},"geometry":{"type":"MultiPolygon","coordinates":[[[[-73.7454745109999,-43.8989277900573],[-73.7459402129999,-43.8984588190573],[-73.7456111669999,-43.8982447180573],[-73.745028767,-43.8986713490573],[-73.7454745109999,-43.8989277900573]]],[[[-73.7445352159999,-43.8984224220573],[-73.7449893539999,-43.8986571330573],[-73.7455561619999,-43.8982165470574],[-73.7451864109999,-43.8979724270573],[-73.7445352159999,-43.8984224220573]]]]}}]}