{"type":"FeatureCollection","features":[{"type":"Feature","properties":{"id":"1404011001001","commune":"Huara","code":"01404","gse":"C3","quintil":"Q2","nse_score":685.8,"educ":12.7,"educ_score":646.7,"hacin":1.158,"hacin_class":"Hacinamiento Leve","hacin_score":817.5,"auto_score":90.9,"n_per":22,"n_hog":9,"source_year":2024},"geometry":{"type":"Polygon","coordinates":[[[-69.7704638899999,-19.993586532393],[-69.7707122169999,-19.9918677733931],[-69.7697372459999,-19.991755345393],[-69.7684618779999,-19.994371508393],[-69.7696073579999,-19.994587110393],[-69.7697337799999,-19.993569055393],[-69.7704638899999,-19.993586532393]]]}},{"type":"Feature","properties":{"id":"1404011001002","commune":"Huara","code":"01404","gse":"D","quintil":"Q2","nse_score":653.0,"educ":11.5,"educ_score":566.7,"hacin":1.22,"hacin_class":"Hacinamiento Leve","hacin_score":804.3,"auto_score":100.0,"n_per":61,"n_hog":22,"source_year":2024},"geometry":{"type":"Polygon","coordinates":[[[-69.7717093039999,-19.9923365913931],[-69.7717222949999,-19.9920037533931],[-69.7707462409999,-19.9919094583931],[-69.7707172629999,-19.9922511333931],[-69.7717093039999,-19.9923365913931]]]}},{"type":"Feature","properties":{"id":"1404011001003","commune":"Huara","code":"01404","gse":"D","quintil":"Q1","nse_score":582.2,"educ":12.4,"educ_score":626.7,"hacin":1.765,"hacin_class":"Hacinamiento Medio","hacin_score":688.4,"auto_score":175.0,"n_per":60,"n_hog":16,"source_year":2024},"geometry":{"type":"Polygon","coordinates":[[[-69.7727853419999,-19.9928930123931],[-69.7728812299999,-19.9921589033931],[-69.7718016919999,-19.9920326663931],[-69.7717319289999,-19.992822162393],[-69.7727853419999,-19.9928930123931]]]}},{"type":"Feature","properties":{"id":"1404011001004","commune":"Huara","code":"01404","gse":"D","quintil":"Q2","nse_score":632.7,"educ":12.7,"educ_score":646.7,"hacin":1.333,"hacin_class":"Hacinamiento Leve","hacin_score":780.1,"auto_score":150.0,"n_per":20,"n_hog":6,"source_year":2024},"geometry":{"type":"Polygon","coordinates":[[[-69.7734314769999,-19.9926517593931],[-69.7734877909999,-19.992255066393],[-69.7729459589999,-19.992171779393],[-69.7729112609999,-19.992578923393],[-69.7734314769999,-19.9926517593931]]]}},{"type":"Feature","properties":{"id":"1404011001006","commune":"Huara","code":"01404","gse":"D","quintil":"Q1","nse_score":573.0,"educ":8.8,"educ_score":386.7,"hacin":1.267,"hacin_class":"Hacinamiento Leve","hacin_score":794.3,"auto_score":0.0,"n_per":19,"n_hog":5,"source_year":2024},"geometry":{"type":"Polygon","coordinates":[[[-69.7681953259999,-19.992227480393],[-69.7670477159999,-19.993616873393],[-69.7650305049999,-19.995514140393],[-69.766626131,-19.9958447203929],[-69.7674255239999,-19.995767979393],[-69.7691663939999,-19.992709700393],[-69.7681953259999,-19.992227480393]]]}},{"type":"Feature","properties":{"id":"1404011001007","commune":"Huara","code":"01404","gse":"C3","quintil":"Q3","nse_score":707.9,"educ":13.1,"educ_score":673.3,"hacin":1.262,"hacin_class":"Hacinamiento Leve","hacin_score":795.3,"auto_score":157.9,"n_per":53,"n_hog":18,"source_year":2024},"geometry":{"type":"Polygon","coordinates":[[[-69.7716434519999,-19.992831835393],[-69.7716866089999,-19.992400715393],[-69.7706919199999,-19.9923038483931],[-69.7706503279999,-19.992720053393],[-69.7716434519999,-19.992831835393]]]}},{"type":"Feature","properties":{"id":"1404011001008","commune":"Huara","code":"01404","gse":"C2","quintil":"Q4","nse_score":734.0,"educ":12.3,"educ_score":620.0,"hacin":1.042,"hacin_class":"Hacinamiento Leve","hacin_score":842.2,"auto_score":55.6,"n_per":25,"n_hog":9,"source_year":2024},"geometry":{"type":"Polygon","coordinates":[[[-69.773398256,-19.993025919393],[-69.773432022,-19.992691140393],[-69.7728991539999,-19.992629493393],[-69.7728639989999,-19.992977743393],[-69.773398256,-19.993025919393]]]}},{"type":"Feature","properties":{"id":"1404011001009","commune":"Huara","code":"01404","gse":"C3","quintil":"Q3","nse_score":701.9,"educ":12.2,"educ_score":613.3,"hacin":0.98,"hacin_class":"Sin Hacinamiento","hacin_score":855.2,"auto_score":173.9,"n_per":50,"n_hog":22,"source_year":2024},"geometry":{"type":"Polygon","coordinates":[[[-69.7716122439999,-19.993192983393],[-69.7716378599999,-19.992871004393],[-69.7706266789999,-19.9927762293931],[-69.7706106329999,-19.9930957003931],[-69.7716122439999,-19.993192983393]]]}},{"type":"Feature","properties":{"id":"1404011001010","commune":"Huara","code":"01404","gse":"D","quintil":"Q2","nse_score":621.3,"educ":10.7,"educ_score":513.3,"hacin":1.224,"hacin_class":"Hacinamiento Leve","hacin_score":803.3,"auto_score":83.3,"n_per":60,"n_hog":18,"source_year":2024},"geometry":{"type":"Polygon","coordinates":[[[-69.7726824919999,-19.993910433393],[-69.7727943499999,-19.9929643663931],[-69.7717175339999,-19.992899760393],[-69.7715950559999,-19.993804071393],[-69.7726824919999,-19.993910433393]]]}},{"type":"Feature","properties":{"id":"1404011001014","commune":"Huara","code":"01404","gse":"C3","quintil":"Q3","nse_score":704.1,"educ":12.6,"educ_score":640.0,"hacin":0.852,"hacin_class":"Sin Hacinamiento","hacin_score":882.6,"auto_score":0.0,"n_per":23,"n_hog":11,"source_year":2024},"geometry":{"type":"Polygon","coordinates":[[[-69.7703066959999,-19.994657337393],[-69.7704392439999,-19.993728796393],[-69.7697978559999,-19.993631777393],[-69.7697034019999,-19.994592388393],[-69.7703066959999,-19.994657337393]]]}},{"type":"Feature","properties":{"id":"1404011001015","commune":"Huara","code":"01404","gse":"C2","quintil":"Q4","nse_score":728.7,"educ":14.6,"educ_score":773.3,"hacin":1.562,"hacin_class":"Hacinamiento Medio","hacin_score":731.4,"auto_score":200.0,"n_per":25,"n_hog":8,"source_year":2024},"geometry":{"type":"Polygon","coordinates":[[[-69.7704977829999,-19.993755690393],[-69.7703698749999,-19.994686086393],[-69.7709222849999,-19.994759746393],[-69.7710193059999,-19.994277937393],[-69.7709778199999,-19.994764322393],[-69.7714009829999,-19.994820161393],[-69.7715080389999,-19.993870428393],[-69.7704977829999,-19.993755690393]]]}},{"type":"Feature","properties":{"id":"1404011001019","commune":"Huara","code":"01404","gse":"D","quintil":"Q2","nse_score":625.9,"educ":10.5,"educ_score":500.0,"hacin":1.2,"hacin_class":"Hacinamiento Leve","hacin_score":808.5,"auto_score":83.3,"n_per":18,"n_hog":6,"source_year":2024},"geometry":{"type":"Polygon","coordinates":[[[-69.769228144,-19.994652863393],[-69.7684321799999,-19.994503427393],[-69.7679997389999,-19.995416928393],[-69.769071058,-19.9955573433929],[-69.769228144,-19.994652863393]]]}},{"type":"Feature","properties":{"id":"1404011001020","commune":"Huara","code":"01404","gse":"C3","quintil":"Q2","nse_score":684.3,"educ":12.2,"educ_score":613.3,"hacin":1.256,"hacin_class":"Hacinamiento Leve","hacin_score":796.5,"auto_score":100.0,"n_per":49,"n_hog":14,"source_year":2024},"geometry":{"type":"Polygon","coordinates":[[[-69.7695012579999,-19.995627200393],[-69.7696376319999,-19.994679213393],[-69.7693107789999,-19.994617435393],[-69.7691490219999,-19.995562984393],[-69.7695012579999,-19.995627200393]]]}},{"type":"Feature","properties":{"id":"1404011001021","commune":"Huara","code":"01404","gse":"D","quintil":"Q1","nse_score":584.2,"educ":10.8,"educ_score":520.0,"hacin":1.25,"hacin_class":"Hacinamiento Leve","hacin_score":797.9,"auto_score":26.3,"n_per":40,"n_hog":14,"source_year":2024},"geometry":{"type":"Polygon","coordinates":[[[-69.7701464649999,-19.995710001393],[-69.7702885819999,-19.994760532393],[-69.7697116729999,-19.994673264393],[-69.7695881459999,-19.995624845393],[-69.7701464649999,-19.995710001393]]]}},{"type":"Feature","properties":{"id":"1404011001022","commune":"Huara","code":"01404","gse":"D","quintil":"Q1","nse_score":555.7,"educ":10.5,"educ_score":500.0,"hacin":1.323,"hacin_class":"Hacinamiento Leve","hacin_score":782.2,"auto_score":105.3,"n_per":45,"n_hog":16,"source_year":2024},"geometry":{"type":"Polygon","coordinates":[[[-69.7712804759999,-19.995842159393],[-69.7713900719999,-19.994898892393],[-69.7703561309999,-19.994765116393],[-69.7702299109999,-19.9957168363929],[-69.7712804759999,-19.995842159393]]]}},{"type":"Feature","properties":{"id":"1404011001023","commune":"Huara","code":"01404","gse":"D","quintil":"Q2","nse_score":651.6,"educ":11.9,"educ_score":593.3,"hacin":1.294,"hacin_class":"Hacinamiento Leve","hacin_score":788.5,"auto_score":111.1,"n_per":22,"n_hog":9,"source_year":2024},"geometry":{"type":"Polygon","coordinates":[[[-69.7724341059999,-19.996006824393],[-69.7725412549999,-19.995051716393],[-69.7714624629999,-19.994911827393],[-69.7713436089999,-19.9958723113929],[-69.7724341059999,-19.996006824393]]]}},{"type":"Feature","properties":{"id":"1404011001025","commune":"Huara","code":"01404","gse":"C3","quintil":"Q2","nse_score":673.5,"educ":10.5,"educ_score":500.0,"hacin":1.143,"hacin_class":"Hacinamiento Leve","hacin_score":820.7,"auto_score":136.4,"n_per":24,"n_hog":13,"source_year":2024},"geometry":{"type":"Polygon","coordinates":[[[-69.7683439689999,-19.9970908283929],[-69.7685960039999,-19.995573961393],[-69.7680027139999,-19.995477476393],[-69.7674054739999,-19.9966231573929],[-69.7683439689999,-19.9970908283929]]]}},{"type":"Feature","properties":{"id":"1404011001026","commune":"Huara","code":"01404","gse":"D","quintil":"Q2","nse_score":623.6,"educ":12.3,"educ_score":620.0,"hacin":1.367,"hacin_class":"Hacinamiento Leve","hacin_score":773.0,"auto_score":0.0,"n_per":41,"n_hog":13,"source_year":2024},"geometry":{"type":"Polygon","coordinates":[[[-69.7689194629999,-19.996578551393],[-69.7690751379999,-19.995644046393],[-69.7686750069999,-19.995570806393],[-69.7685146789999,-19.9965031013929],[-69.7689194629999,-19.996578551393]]]}},{"type":"Feature","properties":{"id":"1404011001027","commune":"Huara","code":"01404","gse":"C3","quintil":"Q3","nse_score":690.0,"educ":11.8,"educ_score":586.7,"hacin":1.0,"hacin_class":"Hacinamiento Leve","hacin_score":851.1,"auto_score":0.0,"n_per":4,"n_hog":4,"source_year":2024},"geometry":{"type":"Polygon","coordinates":[[[-69.7642447269999,-19.996538045393],[-69.7660843539999,-19.9973219953929],[-69.7662014819999,-19.9971226643929],[-69.7666594389999,-19.9971078103929],[-69.7672522999999,-19.996070646393],[-69.7650164639999,-19.995600765393],[-69.7642447269999,-19.996538045393]]]}},{"type":"Feature","properties":{"id":"1404011001028","commune":"Huara","code":"01404","gse":"D","quintil":"Q2","nse_score":635.4,"educ":11.0,"educ_score":533.3,"hacin":1.613,"hacin_class":"Hacinamiento Medio","hacin_score":720.7,"auto_score":147.1,"n_per":50,"n_hog":17,"source_year":2024},"geometry":{"type":"Polygon","coordinates":[[[-69.7693718319999,-19.996618560393],[-69.7695134489999,-19.995702312393],[-69.7691533279999,-19.995638451393],[-69.7689998349999,-19.9965741563929],[-69.7693718319999,-19.996618560393]]]}},{"type":"Feature","properties":{"id":"1404011001029","commune":"Huara","code":"01404","gse":"D","quintil":"Q2","nse_score":650.0,"educ":10.5,"educ_score":500.0,"hacin":1.083,"hacin_class":"Hacinamiento Leve","hacin_score":833.3,"auto_score":166.7,"n_per":13,"n_hog":6,"source_year":2024},"geometry":{"type":"Polygon","coordinates":[[[-69.7700176309999,-19.9967124523929],[-69.7701486449999,-19.9957805303929],[-69.7695882389999,-19.995697275393],[-69.769429967,-19.9966407503929],[-69.7700176309999,-19.9967124523929]]]}},{"type":"Feature","properties":{"id":"1404011001030","commune":"Huara","code":"01404","gse":"D","quintil":"Q1","nse_score":590.7,"educ":10.8,"educ_score":520.0,"hacin":1.615,"hacin_class":"Hacinamiento Medio","hacin_score":720.1,"auto_score":100.0,"n_per":84,"n_hog":27,"source_year":2024},"geometry":{"type":"Polygon","coordinates":[[[-69.7709210689999,-19.996361937393],[-69.770144522,-19.9962861533929],[-69.7700767309999,-19.9967362103929],[-69.7711446449999,-19.9968609943929],[-69.7712600039999,-19.995929159393],[-69.7702235329999,-19.995782306393],[-69.7701507199999,-19.9962418393929],[-69.7709210689999,-19.996361937393]]]}},{"type":"Feature","properties":{"id":"1404011001032","commune":"Huara","code":"01404","gse":"E","quintil":"Q1","nse_score":493.5,"educ":10.8,"educ_score":520.0,"hacin":1.667,"hacin_class":"Hacinamiento Medio","hacin_score":709.2,"auto_score":45.5,"n_per":25,"n_hog":12,"source_year":2024},"geometry":{"type":"Polygon","coordinates":[[[-69.7722860299999,-19.9970252993929],[-69.7724145519999,-19.996087260393],[-69.7713324419999,-19.9959422243929],[-69.7712076559999,-19.996890284393],[-69.7722860299999,-19.9970252993929]]]}},{"type":"Feature","properties":{"id":"1404011001035","commune":"Huara","code":"01404","gse":"E","quintil":"Q1","nse_score":467.8,"educ":9.6,"educ_score":440.0,"hacin":1.647,"hacin_class":"Hacinamiento Medio","hacin_score":713.4,"auto_score":55.6,"n_per":28,"n_hog":7,"source_year":2024},"geometry":{"type":"Polygon","coordinates":[[[-69.7693133699999,-19.9975222743929],[-69.7693598079999,-19.9967139213929],[-69.7690012869999,-19.9966507533929],[-69.7688921549999,-19.9973319493929],[-69.7693133699999,-19.9975222743929]]]}},{"type":"Feature","properties":{"id":"1404011001037","commune":"Huara","code":"01404","gse":"D","quintil":"Q2","nse_score":635.1,"educ":10.7,"educ_score":513.3,"hacin":1.588,"hacin_class":"Hacinamiento Medio","hacin_score":725.9,"auto_score":120.0,"n_per":81,"n_hog":25,"source_year":2024},"geometry":{"type":"Polygon","coordinates":[[[-69.7709843289999,-19.9979630933929],[-69.7711252409999,-19.9969490623929],[-69.7700708039999,-19.9968113493929],[-69.7700037889999,-19.9973239203929],[-69.7706143289999,-19.9974109853929],[-69.7705778309999,-19.9979148643929],[-69.7709843289999,-19.9979630933929]]]}},{"type":"Feature","properties":{"id":"1404011001038","commune":"Huara","code":"01404","gse":"D","quintil":"Q2","nse_score":633.7,"educ":11.6,"educ_score":573.3,"hacin":1.436,"hacin_class":"Hacinamiento Leve","hacin_score":758.2,"auto_score":57.7,"n_per":79,"n_hog":25,"source_year":2024},"geometry":{"type":"Polygon","coordinates":[[[-69.7722382849999,-19.9971137073929],[-69.771194293,-19.9969553493929],[-69.7710729009999,-19.9979653913929],[-69.7721113139999,-19.9980943963929],[-69.7722382849999,-19.9971137073929]]]}},{"type":"Feature","properties":{"id":"1404011001039","commune":"Huara","code":"01404","gse":"C2","quintil":"Q4","nse_score":744.7,"educ":13.9,"educ_score":726.7,"hacin":1.333,"hacin_class":"Hacinamiento Leve","hacin_score":780.1,"auto_score":100.0,"n_per":20,"n_hog":5,"source_year":2024},"geometry":{"type":"Polygon","coordinates":[[[-69.7728922129999,-19.9972134023929],[-69.7723107849999,-19.9971021743929],[-69.7721680499999,-19.9981008513929],[-69.7727710629999,-19.9981584433929],[-69.7728922129999,-19.9972134023929]]]}},{"type":"Feature","properties":{"id":"1404011001040","commune":"Huara","code":"01404","gse":"D","quintil":"Q1","nse_score":536.9,"educ":8.3,"educ_score":353.3,"hacin":1.454,"hacin_class":"Hacinamiento Leve","hacin_score":754.4,"auto_score":0.0,"n_per":32,"n_hog":13,"source_year":2024},"geometry":{"type":"Polygon","coordinates":[[[-69.7698563273333,-19.9978565883929],[-69.7699251409999,-19.9973666103929],[-69.7694012989999,-19.9973020553929],[-69.7693708449999,-19.9976028083929],[-69.7698563273333,-19.9978565883929]]]}},{"type":"Feature","properties":{"id":"1404011001043","commune":"Huara","code":"01404","gse":"D","quintil":"Q2","nse_score":635.2,"educ":11.8,"educ_score":586.7,"hacin":1.306,"hacin_class":"Hacinamiento Leve","hacin_score":786.1,"auto_score":88.2,"n_per":47,"n_hog":14,"source_year":2024},"geometry":{"type":"Polygon","coordinates":[[[-69.7721043719999,-19.9981480153929],[-69.7710421789999,-19.9980315913929],[-69.7709277719999,-19.9990045173929],[-69.7719719089999,-19.9990965633929],[-69.7721043719999,-19.9981480153929]]]}},{"type":"Feature","properties":{"id":"1404011001044","commune":"Huara","code":"01404","gse":"E","quintil":"Q1","nse_score":515.4,"educ":12.3,"educ_score":620.0,"hacin":1.333,"hacin_class":"Hacinamiento Leve","hacin_score":780.1,"auto_score":0.0,"n_per":32,"n_hog":12,"source_year":2024},"geometry":{"type":"Polygon","coordinates":[[[-69.7726378509999,-19.9991554683929],[-69.7727607159999,-19.9982369463929],[-69.7721611079999,-19.9981544713929],[-69.7720475759999,-19.9991037013929],[-69.7726378509999,-19.9991554683929]]]}},{"type":"Feature","properties":{"id":"1404011001046","commune":"Huara","code":"01404","gse":"D","quintil":"Q2","nse_score":628.7,"educ":11.3,"educ_score":553.3,"hacin":1.556,"hacin_class":"Hacinamiento Medio","hacin_score":732.9,"auto_score":125.0,"n_per":28,"n_hog":7,"source_year":2024},"geometry":{"type":"Polygon","coordinates":[[[-69.7726826789999,-19.9992527073929],[-69.7720280689999,-19.9991820163929],[-69.7719374159999,-20.0000416803928],[-69.7725623119999,-20.0000833493929],[-69.7726826789999,-19.9992527073929]]]}},{"type":"Feature","properties":{"id":"1404011001005","commune":"Huara","code":"01404","gse":"D","quintil":"Q2","nse_score":613.0,"educ":11.5,"educ_score":566.7,"hacin":1.083,"hacin_class":"Hacinamiento Leve","hacin_score":833.3,"auto_score":45.5,"n_per":13,"n_hog":6,"source_year":2024},"geometry":{"type":"MultiPolygon","coordinates":[[[[-69.7729507569999,-19.9972057523929],[-69.7728260169999,-19.9981787933929],[-69.7734489019999,-19.9982405003929],[-69.7735585419999,-19.9984723833929],[-69.7737281629999,-19.9984995873929],[-69.7737107029999,-19.9990194483929],[-69.7736956759999,-19.9985283963929],[-69.7735362109999,-19.9985026433929],[-69.7734234989999,-19.9982727023929],[-69.7728212099999,-19.9982153103929],[-69.7726937459999,-19.9991682213929],[-69.774292424,-19.9995729403929],[-69.7745132249999,-19.9973295003929],[-69.7736702479999,-19.9972386623929],[-69.7737079189999,-19.9962351413929],[-69.7725127609999,-19.996083956393],[-69.7723747519999,-19.9970459443929],[-69.7729507569999,-19.9972057523929]]],[[[-69.7732963709999,-19.994005130393],[-69.7733269039999,-19.993490043393],[-69.7728044389999,-19.993415052393],[-69.7727336129999,-19.993956548393],[-69.7732963709999,-19.994005130393]]],[[[-69.7733332239999,-19.9934390653931],[-69.7733773419999,-19.993088597393],[-69.7728496759999,-19.993025987393],[-69.7728154069999,-19.993369281393],[-69.7733332239999,-19.9934390653931]]],[[[-69.7735604809999,-19.992214462393],[-69.7731070109999,-19.996126482393],[-69.7744829839999,-19.9962145303929],[-69.7749529649999,-19.9923954603931],[-69.7735604809999,-19.992214462393]]]]}},{"type":"Feature","properties":{"id":"1404011001036","commune":"Huara","code":"01404","gse":"D","quintil":"Q2","nse_score":646.5,"educ":10.8,"educ_score":520.0,"hacin":1.263,"hacin_class":"Hacinamiento Leve","hacin_score":795.1,"auto_score":0.0,"n_per":24,"n_hog":8,"source_year":2024},"geometry":{"type":"MultiPolygon","coordinates":[[[[-69.7705073489999,-19.9979188853929],[-69.7705731159999,-19.9974470933929],[-69.7699963939999,-19.9973782753929],[-69.7699490249999,-19.9978592073929],[-69.7705073489999,-19.9979188853929]]],[[[-69.7694286599999,-19.996718637393],[-69.769403957,-19.9972491853929],[-69.7699321429999,-19.9973138603929],[-69.769997928,-19.996800326393],[-69.7694286599999,-19.996718637393]]]]}},{"type":"Feature","properties":{"id":"1404011001042","commune":"Huara","code":"01404","gse":"D","quintil":"Q2","nse_score":632.5,"educ":11.9,"educ_score":593.3,"hacin":1.316,"hacin_class":"Hacinamiento Leve","hacin_score":783.9,"auto_score":50.0,"n_per":25,"n_hog":8,"source_year":2024},"geometry":{"type":"MultiPolygon","coordinates":[[[[-69.7718312769999,-20.0000315583928],[-69.771960212,-19.9991630003929],[-69.7709198679999,-19.9990580463929],[-69.7707948359999,-19.9999269963929],[-69.7718312769999,-20.0000315583928]]],[[[-69.7708290339999,-19.9989944933929],[-69.7709790649999,-19.9980280863929],[-69.7698018009999,-19.9979100863929],[-69.7703001329999,-19.9984636333929],[-69.7708290339999,-19.9989944933929]]]]}},{"type":"Feature","properties":{"id":"1404011001012","commune":"Huara","code":"01404","gse":"D","quintil":"Q1","nse_score":609.4,"educ":10.4,"educ_score":493.3,"hacin":1.364,"hacin_class":"Hacinamiento Leve","hacin_score":773.7,"auto_score":200.0,"n_per":30,"n_hog":10,"source_year":2024},"geometry":{"type":"MultiPolygon","coordinates":[[[[-69.7725676129999,-19.994960230393],[-69.7726794929999,-19.994028055393],[-69.7715806339999,-19.993881864393],[-69.7714739909999,-19.994832649393],[-69.7725676129999,-19.994960230393]]],[[[-69.7715005269999,-19.993798748393],[-69.7715888909999,-19.993257509393],[-69.7705861939999,-19.993145243393],[-69.7705269309999,-19.993661553393],[-69.7715005269999,-19.993798748393]]]]}}]}