{"type":"FeatureCollection","features":[{"type":"Feature","properties":{"id":"5104013004001","commune":"Juan Fernández","code":"05104","gse":"C3","quintil":"Q2","nse_score":681.2,"educ":12.7,"educ_score":646.7,"hacin":1.376,"hacin_class":"Hacinamiento Leve","hacin_score":771.0,"auto_score":73.5,"n_per":161,"n_hog":67,"source_year":2024},"geometry":{"type":"Polygon","coordinates":[[[-78.8287579529999,-33.6315488341294],[-78.829008455,-33.6327099201294],[-78.8290141619999,-33.6341240501294],[-78.8293228019999,-33.6350494931294],[-78.8302001329999,-33.6359800091294],[-78.8305607869999,-33.6359190281294],[-78.8297743839999,-33.6353844331294],[-78.8296317809999,-33.6351649541294],[-78.8304210589999,-33.6350591201294],[-78.8303702529999,-33.6345477821294],[-78.8304893329999,-33.6350518741294],[-78.8314312529999,-33.6349252711294],[-78.8310704769999,-33.6333656441294],[-78.8293920699999,-33.6328197361294],[-78.8293331689999,-33.6327591061294],[-78.8293265769999,-33.6324170171295],[-78.8292054949999,-33.6323602491294],[-78.8291680769999,-33.6323048471294],[-78.8293451659999,-33.6324081861294],[-78.8294021339999,-33.6328021911294],[-78.8310408989999,-33.6333048441294],[-78.8311836659999,-33.6335642051294],[-78.8316647929999,-33.6334904421294],[-78.8320800229999,-33.6337755101294],[-78.8322886629999,-33.6334786691294],[-78.8321958889999,-33.6333939541294],[-78.8322371799999,-33.6332911461294],[-78.8324074429999,-33.6336639631294],[-78.8322554009999,-33.6335719421294],[-78.8320888049999,-33.6337955761294],[-78.8318719439999,-33.6337491531294],[-78.8316609859999,-33.6335151881294],[-78.8311844629999,-33.6335929331294],[-78.8312597809999,-33.6337179171294],[-78.8315141689999,-33.6337002101294],[-78.8312480269999,-33.6338088711294],[-78.8314129209999,-33.6345636161294],[-78.8318066579999,-33.6345948301294],[-78.8314623179999,-33.6346539051294],[-78.8315133579999,-33.6349082901294],[-78.8320690889999,-33.6348206831294],[-78.8319867179999,-33.6343652361294],[-78.8320136399999,-33.6342603341294],[-78.8321176549999,-33.6348159211294],[-78.8328191519999,-33.6347063031294],[-78.8326311479999,-33.6341077481294],[-78.8324743309999,-33.6340880941294],[-78.8323907499999,-33.6340148881294],[-78.8323934549999,-33.6339836171294],[-78.8326456589999,-33.6340931891294],[-78.8327582349999,-33.6343309311294],[-78.8329021629999,-33.6342461711294],[-78.8334132779999,-33.6341067921294],[-78.8327829349999,-33.6343472531294],[-78.8328833519999,-33.6347011331294],[-78.8338885489999,-33.6345512831294],[-78.8337618569999,-33.6336755291294],[-78.8339321529999,-33.6345319701294],[-78.8345377549999,-33.6344363971294],[-78.8343592949999,-33.6333239991294],[-78.8345828779999,-33.6344307211294],[-78.8351978849999,-33.6343111221294],[-78.8350989419999,-33.6338333891294],[-78.8352651789999,-33.6343117841294],[-78.8366632069999,-33.6339798371294],[-78.8362753479999,-33.6338345261294],[-78.8362212609999,-33.6336951871294],[-78.8363250989999,-33.6338427321294],[-78.8366734139999,-33.6339364201294],[-78.8366805509999,-33.6339914901294],[-78.8365134629999,-33.6341018311294],[-78.8371916429999,-33.6339678461294],[-78.8372605659999,-33.6338322701294],[-78.8375460949999,-33.6337345911294],[-78.8368983139999,-33.6334918271294],[-78.8375708829999,-33.6337308781294],[-78.8371986839999,-33.6339865781294],[-78.8366299039999,-33.6341019521294],[-78.8368415649999,-33.6346090151294],[-78.8374038009999,-33.6346184571294],[-78.8372617109999,-33.6354026461294],[-78.837835632,-33.6359967271294],[-78.8375247219999,-33.6361664871294],[-78.8376553769999,-33.6362023661294],[-78.8380612159999,-33.6361209081294],[-78.8382020359999,-33.6361541901294],[-78.8375009449999,-33.6362446281294],[-78.8364478109999,-33.6360944821294],[-78.8365535299999,-33.6364986521294],[-78.8380421479999,-33.6365503561293],[-78.8389700079999,-33.6367664331294],[-78.839747729,-33.6371633251294],[-78.8407430699999,-33.6369280531294],[-78.8411732439999,-33.6366727581293],[-78.8406164539999,-33.6366482041293],[-78.8402061169999,-33.6364396251294],[-78.839933158,-33.6360785791294],[-78.8395397879999,-33.6358596171294],[-78.8392825179999,-33.6351707991294],[-78.8388861049999,-33.6351722831294],[-78.8389100619999,-33.6349511031294],[-78.8386852089999,-33.6348877821294],[-78.8388048649999,-33.6344254181294],[-78.8385201699999,-33.6341621261294],[-78.8380331519999,-33.6340119031294],[-78.8378505309999,-33.6335332531294],[-78.8382018919999,-33.6327941851294],[-78.8381491569999,-33.6323720141294],[-78.8372926499999,-33.6324760701294],[-78.8371777429999,-33.6322740401294],[-78.8332201109999,-33.6328657581294],[-78.8287579529999,-33.6315488341294]]]}},{"type":"Feature","properties":{"id":"5104013004003","commune":"Juan Fernández","code":"05104","gse":"D","quintil":"Q2","nse_score":668.8,"educ":12.2,"educ_score":613.3,"hacin":1.286,"hacin_class":"Hacinamiento Leve","hacin_score":790.3,"auto_score":113.6,"n_per":45,"n_hog":21,"source_year":2024},"geometry":{"type":"Polygon","coordinates":[[[-78.8372356179999,-33.6354050771294],[-78.8373764139999,-33.6346292151294],[-78.8368162339999,-33.6346165761294],[-78.8366349839999,-33.6341486551294],[-78.8345993999999,-33.6345717431294],[-78.8347810999999,-33.6348853261294],[-78.8347672109999,-33.6352258251294],[-78.8352326089999,-33.6353831421294],[-78.8351663559999,-33.6356674031294],[-78.8348806719999,-33.6358203121294],[-78.8356881149999,-33.6361206301294],[-78.8366567799999,-33.6360722261294],[-78.8375978409999,-33.6362183801294],[-78.8374718749999,-33.6361208201293],[-78.8377974199999,-33.6359818331294],[-78.8372356179999,-33.6354050771294]]]}},{"type":"Feature","properties":{"id":"5104013004004","commune":"Juan Fernández","code":"05104","gse":"D","quintil":"Q1","nse_score":626.1,"educ":11.7,"educ_score":580.0,"hacin":1.591,"hacin_class":"Hacinamiento Medio","hacin_score":725.3,"auto_score":29.4,"n_per":35,"n_hog":15,"source_year":2024},"geometry":{"type":"Polygon","coordinates":[[[-78.8327412579999,-33.6350122331294],[-78.8329797789999,-33.6350299921294],[-78.8333757549999,-33.6351564891294],[-78.8327664119999,-33.6350611481294],[-78.8326872629999,-33.6353775641294],[-78.8335815609999,-33.6357675111294],[-78.8335682729999,-33.6354481891294],[-78.8342659019999,-33.6353603631294],[-78.8346570339999,-33.6351570461294],[-78.8347493579999,-33.6348844801294],[-78.834522563,-33.6345537681294],[-78.8326943159999,-33.6348409281294],[-78.8327412579999,-33.6350122331294]]]}},{"type":"Feature","properties":{"id":"5104013004008","commune":"Juan Fernández","code":"05104","gse":"E","quintil":"Q1","nse_score":502.6,"educ":5.8,"educ_score":186.7,"hacin":1.429,"hacin_class":"Hacinamiento Leve","hacin_score":759.9,"auto_score":125.0,"n_per":10,"n_hog":4,"source_year":2024},"geometry":{"type":"Polygon","coordinates":[[[-78.8347129889999,-33.6350878811294],[-78.8340938119999,-33.6354619231294],[-78.8335823399999,-33.6354675361294],[-78.833612705,-33.6357495581294],[-78.834821427,-33.6358063761294],[-78.8351504589999,-33.6356531241294],[-78.8351950199999,-33.6353721181294],[-78.8348479209999,-33.6353093841294],[-78.8347129889999,-33.6350878811294]]]}},{"type":"Feature","properties":{"id":"5104013004014","commune":"Juan Fernández","code":"05104","gse":"C3","quintil":"Q3","nse_score":704.9,"educ":13.7,"educ_score":713.3,"hacin":1.231,"hacin_class":"Hacinamiento Leve","hacin_score":802.0,"auto_score":52.6,"n_per":32,"n_hog":18,"source_year":2024},"geometry":{"type":"Polygon","coordinates":[[[-78.836260363,-33.6361328661294],[-78.8361826729999,-33.6367230771294],[-78.8357199809999,-33.6366268351294],[-78.8357080499999,-33.6368497691293],[-78.8356632199999,-33.6366263561294],[-78.8352610409999,-33.6366737321294],[-78.8352569509999,-33.6368741431294],[-78.8352149099999,-33.6366787801294],[-78.8349895679999,-33.6367152531293],[-78.8350056539999,-33.6369091611294],[-78.8349523219999,-33.6367217391294],[-78.8347018219999,-33.6367738751294],[-78.8347595579999,-33.6369585911294],[-78.8346675149999,-33.6367815351294],[-78.8341842369999,-33.6368554291293],[-78.8342798109999,-33.6371519961294],[-78.8341493109999,-33.6368687101294],[-78.8339182309999,-33.6369566991294],[-78.8340034149999,-33.6371836531294],[-78.8338934809999,-33.6369623381294],[-78.8336607499999,-33.6369907321294],[-78.8337270349999,-33.6372670731293],[-78.8336272209999,-33.6369976431293],[-78.8333719469999,-33.6370176201294],[-78.8334340569999,-33.6372948761294],[-78.8333517589999,-33.6370292761294],[-78.833263154,-33.6370420461293],[-78.8330904659999,-33.6371387021294],[-78.8331892859999,-33.6373881831294],[-78.8330664219999,-33.6371500221294],[-78.8328231599999,-33.6372062751294],[-78.8324486439999,-33.6374329521293],[-78.8324195199999,-33.6376456301294],[-78.833099752,-33.6383226151293],[-78.8376338379999,-33.6375525081294],[-78.838124407,-33.6378905701294],[-78.8390351839999,-33.6382110221294],[-78.8403464579999,-33.6382670521294],[-78.8406790689999,-33.6378241811293],[-78.839499799,-33.6374168611294],[-78.8389508009999,-33.6367813781294],[-78.837827365,-33.6365389551294],[-78.8365621069999,-33.6365276841293],[-78.8363793189999,-33.6360935491294],[-78.836260363,-33.6361328661294]]]}},{"type":"Feature","properties":{"id":"5104013004015","commune":"Juan Fernández","code":"05104","gse":"C2","quintil":"Q3","nse_score":735.7,"educ":13.2,"educ_score":680.0,"hacin":1.182,"hacin_class":"Hacinamiento Leve","hacin_score":812.4,"auto_score":200.0,"n_per":13,"n_hog":5,"source_year":2024},"geometry":{"type":"Polygon","coordinates":[[[-78.8319789219999,-33.6372423821294],[-78.8320367169999,-33.6368615861294],[-78.8316088179999,-33.6367568621293],[-78.8314229959999,-33.6381453741293],[-78.8316563659999,-33.6382914211294],[-78.8321042149999,-33.6383136191293],[-78.8321968499999,-33.6381608441293],[-78.8323723979999,-33.6381463871294],[-78.8318287069999,-33.6379241611294],[-78.8318176529999,-33.6377901971294],[-78.8319579849999,-33.6374623881294],[-78.8320101959999,-33.6374066581293],[-78.8318455179999,-33.6379127701294],[-78.8328002469999,-33.6382576211293],[-78.8330590139999,-33.6385077601293],[-78.8330332469999,-33.6382851981294],[-78.8325766969999,-33.6379030521294],[-78.8323894569999,-33.6374957001294],[-78.8326236729999,-33.6372559001294],[-78.8335947309999,-33.6369797071294],[-78.8335900309999,-33.6366891441294],[-78.8330353709999,-33.6364872061293],[-78.8329991809999,-33.6369540421294],[-78.8330128939999,-33.6364793741294],[-78.8324762509999,-33.6363688821294],[-78.8324898509999,-33.6368672111293],[-78.8321517099999,-33.6374007541294],[-78.8322217859999,-33.6376357171294],[-78.8321263259999,-33.6373799031294],[-78.8324574199999,-33.6368497281294],[-78.8324468129999,-33.6363516061294],[-78.8323211299999,-33.6362603061294],[-78.8319789219999,-33.6372423821294]]]}},{"type":"Feature","properties":{"id":"5104013004017","commune":"Juan Fernández","code":"05104","gse":"D","quintil":"Q1","nse_score":642.2,"educ":12.4,"educ_score":626.7,"hacin":2.0,"hacin_class":"Hacinamiento Medio","hacin_score":638.3,"auto_score":0.0,"n_per":16,"n_hog":6,"source_year":2024},"geometry":{"type":"Polygon","coordinates":[[[-78.8325649249999,-33.6386010681294],[-78.8323507039999,-33.6385645041293],[-78.8323374159999,-33.6384033011293],[-78.8314070659999,-33.6381890821293],[-78.8313937609999,-33.6383195541294],[-78.8323418379999,-33.6391547091294],[-78.8330245689999,-33.6401863091293],[-78.8337231219999,-33.6398927581293],[-78.8337209789999,-33.6397128721293],[-78.8333249629999,-33.6393731181293],[-78.8332007469999,-33.6387682961294],[-78.8328987829999,-33.6383510181293],[-78.8322095139999,-33.6381784921293],[-78.832170474,-33.6383260651294],[-78.8323557149999,-33.6383920051294],[-78.8323685399999,-33.6385528151294],[-78.8325649249999,-33.6386010681294]]]}},{"type":"Feature","properties":{"id":"5104013004018","commune":"Juan Fernández","code":"05104","gse":"D","quintil":"Q2","nse_score":675.2,"educ":13.7,"educ_score":713.3,"hacin":1.308,"hacin_class":"Hacinamiento Leve","hacin_score":785.6,"auto_score":20.8,"n_per":51,"n_hog":18,"source_year":2024},"geometry":{"type":"Polygon","coordinates":[[[-78.8308943659999,-33.6384512091293],[-78.8305750359999,-33.6387573831293],[-78.8304826629999,-33.6390745401294],[-78.8311341699999,-33.6398199851293],[-78.831226135,-33.6403859531293],[-78.8319752099999,-33.6410355961293],[-78.8322605129999,-33.6410499941293],[-78.8325895199999,-33.6407041161293],[-78.8324903669999,-33.6406118891293],[-78.8324187159999,-33.6403322651293],[-78.8323015159999,-33.6402093901293],[-78.8324189689999,-33.6402959671293],[-78.8326077389999,-33.6406655321293],[-78.8329941439999,-33.6401742491293],[-78.8324148449999,-33.6393008081293],[-78.8320339829999,-33.6394981261293],[-78.8320023699999,-33.6397270171293],[-78.8319618979999,-33.6397630281293],[-78.8320187899999,-33.6394849861294],[-78.8323706269999,-33.6392490811293],[-78.8316296019999,-33.6385243331294],[-78.8312357629999,-33.6385210011294],[-78.8310800269999,-33.6386416751293],[-78.8313423269999,-33.6389424101293],[-78.8310480329999,-33.6387080751294],[-78.8310636759999,-33.6386296761293],[-78.8312049829999,-33.6385091541294],[-78.8315502079999,-33.6384514381294],[-78.831297489,-33.6383455491293],[-78.8308943659999,-33.6384512091293]]]}},{"type":"Feature","properties":{"id":"5104013004019","commune":"Juan Fernández","code":"05104","gse":"C3","quintil":"Q3","nse_score":703.2,"educ":13.0,"educ_score":666.7,"hacin":1.105,"hacin_class":"Hacinamiento Leve","hacin_score":828.8,"auto_score":0.0,"n_per":74,"n_hog":33,"source_year":2024},"geometry":{"type":"Polygon","coordinates":[[[-78.8313510879999,-33.6420298621293],[-78.8320874419999,-33.6411910911293],[-78.8318706959999,-33.6409730051293],[-78.8318212809999,-33.6411938671293],[-78.8315904729999,-33.6414747401293],[-78.8318210929999,-33.6410693901293],[-78.8313330709999,-33.6414486061293],[-78.8318473929999,-33.6409478371293],[-78.8317617139999,-33.6408806941293],[-78.8314151429999,-33.6411792541293],[-78.8317476199999,-33.6408524721293],[-78.8311917409999,-33.6403838301293],[-78.8311322169999,-33.6401758331293],[-78.8309810479999,-33.6401755871293],[-78.8303738039999,-33.6409297301293],[-78.830695407,-33.6412835171293],[-78.8306931909999,-33.6413718811293],[-78.8300581609999,-33.6408306251293],[-78.8303709999999,-33.6408807891293],[-78.8300031679999,-33.6406078231293],[-78.8301092319999,-33.6397638541294],[-78.8304430129999,-33.6388516081293],[-78.8298527359999,-33.6401062971293],[-78.8291575349999,-33.6407959881293],[-78.82937426,-33.6410121751293],[-78.829356474,-33.6411146471293],[-78.8291331409999,-33.6413017221293],[-78.8290326789999,-33.6413487061293],[-78.8293490159999,-33.6410736251293],[-78.8291208219999,-33.6408131131293],[-78.8282924239999,-33.6414083201293],[-78.8289494309999,-33.6419094451293],[-78.8293979339999,-33.6418175921293],[-78.8298086469999,-33.6420462291293],[-78.8297403689999,-33.6419117251293],[-78.8297557679999,-33.6417703961293],[-78.8298525349999,-33.6420681171293],[-78.8303371989999,-33.6421170011293],[-78.8301747209999,-33.6419937271293],[-78.8301291159999,-33.6417429501293],[-78.8301853709999,-33.6416455061293],[-78.8302155809999,-33.6420091751293],[-78.8310484669999,-33.6423200141293],[-78.8312045009999,-33.6423058101293],[-78.8313540139999,-33.6420514571293],[-78.8306793849999,-33.6416582531293],[-78.8313510879999,-33.6420298621293]]]}},{"type":"Feature","properties":{"id":"5104013004020","commune":"Juan Fernández","code":"05104","gse":"D","quintil":"Q1","nse_score":650.8,"educ":11.7,"educ_score":580.0,"hacin":1.571,"hacin_class":"Hacinamiento Medio","hacin_score":729.5,"auto_score":125.0,"n_per":55,"n_hog":16,"source_year":2024},"geometry":{"type":"Polygon","coordinates":[[[-78.8306619049999,-33.6393372861293],[-78.8304540019999,-33.6390755891294],[-78.8301809789999,-33.6396266091293],[-78.8304812939999,-33.6397737871294],[-78.8301804589999,-33.6396696261293],[-78.8301305199999,-33.6397698991293],[-78.8300771899999,-33.6401079191293],[-78.8302870369999,-33.6402208671293],[-78.8300769019999,-33.6401464681293],[-78.8300458489999,-33.6403205711293],[-78.8300432099999,-33.6406769621293],[-78.8303808199999,-33.6408403871293],[-78.8311409909999,-33.6399621821293],[-78.8307012399999,-33.6393612521293],[-78.8305686499999,-33.6395198791293],[-78.8306619049999,-33.6393372861293]]]}},{"type":"Feature","properties":{"id":"5104013004021","commune":"Juan Fernández","code":"05104","gse":"D","quintil":"Q1","nse_score":636.9,"educ":12.6,"educ_score":640.0,"hacin":1.631,"hacin_class":"Hacinamiento Medio","hacin_score":716.9,"auto_score":97.6,"n_per":106,"n_hog":38,"source_year":2024},"geometry":{"type":"Polygon","coordinates":[[[-78.833733531,-33.6401222621293],[-78.8341831799999,-33.6402862231293],[-78.8344214669999,-33.6404791711293],[-78.834157263,-33.6403078001293],[-78.8338259479999,-33.6408038721293],[-78.8350216119999,-33.6412837611293],[-78.8351690029999,-33.6411511631293],[-78.8344752479999,-33.6407612851293],[-78.8351922879999,-33.6411419611293],[-78.8350804629999,-33.6413007421293],[-78.8352059449999,-33.6413875441293],[-78.8352330119999,-33.6415407221293],[-78.8351050709999,-33.6418044121293],[-78.8355964199999,-33.6420304891293],[-78.8358685109999,-33.6416948301293],[-78.8355604539999,-33.6421077231293],[-78.8350811199999,-33.6418105161293],[-78.8350254209999,-33.6418855411293],[-78.8351996909999,-33.6414338211293],[-78.8348595989999,-33.6412646821293],[-78.8346538939999,-33.6415145051293],[-78.8349016069999,-33.6416889821293],[-78.8346244559999,-33.6415366341293],[-78.83450425,-33.6418626741293],[-78.8351642619999,-33.6424276001293],[-78.8353616429999,-33.6423451301293],[-78.8354829959999,-33.6423701141293],[-78.8363431709999,-33.6430411221293],[-78.8353687809999,-33.6423808221293],[-78.8346015419999,-33.6430603311293],[-78.8348002159999,-33.6434155071292],[-78.8350510159999,-33.6435671381293],[-78.8355577989999,-33.6430370621293],[-78.8352783059999,-33.6428340321293],[-78.8355751289999,-33.6430038331293],[-78.8357196459999,-33.6428562521293],[-78.8354432739999,-33.6426390751293],[-78.8361750429999,-33.6430851691293],[-78.8357463379999,-33.6428621951293],[-78.8356137079999,-33.6430286591293],[-78.8359156009999,-33.6432346101293],[-78.8355808229999,-33.6430489291293],[-78.8350874099999,-33.6435728101293],[-78.8355526199999,-33.6436662701293],[-78.8359688219999,-33.6439479591293],[-78.8362013949999,-33.6445742051292],[-78.8364612319999,-33.6448886761292],[-78.8380406799999,-33.6423130861293],[-78.837627284,-33.6421439491293],[-78.8374300769999,-33.6417006471293],[-78.8375471199999,-33.6413794811293],[-78.8380212299999,-33.6408288991293],[-78.8379736239999,-33.6403306611293],[-78.8377742849999,-33.6400639811294],[-78.8369264409999,-33.6404308211293],[-78.8362853669999,-33.6405157401293],[-78.8349724589999,-33.6403612621293],[-78.833760175,-33.6398931401293],[-78.833733531,-33.6401222621293]]]}},{"type":"Feature","properties":{"id":"5104013004022","commune":"Juan Fernández","code":"05104","gse":"D","quintil":"Q1","nse_score":648.5,"educ":11.2,"educ_score":546.7,"hacin":1.4,"hacin_class":"Hacinamiento Leve","hacin_score":766.0,"auto_score":0.0,"n_per":14,"n_hog":4,"source_year":2024},"geometry":{"type":"Polygon","coordinates":[[[-78.8333560259999,-33.6403124661294],[-78.8332492069999,-33.6402397771293],[-78.8332248359999,-33.6401256551293],[-78.8330539429999,-33.6402275301293],[-78.8335489529999,-33.6410482961293],[-78.8337926369999,-33.6408213681293],[-78.8336465969999,-33.6406468061293],[-78.8337897939999,-33.6407326371293],[-78.8340607199999,-33.6403662181293],[-78.8337130079999,-33.6401302921293],[-78.8337259899999,-33.6399162311293],[-78.8332622879999,-33.6401009911293],[-78.8333560259999,-33.6403124661294]]]}},{"type":"Feature","properties":{"id":"5104013004024","commune":"Juan Fernández","code":"05104","gse":"D","quintil":"Q1","nse_score":638.9,"educ":11.8,"educ_score":586.7,"hacin":1.591,"hacin_class":"Hacinamiento Medio","hacin_score":725.3,"auto_score":66.7,"n_per":35,"n_hog":15,"source_year":2024},"geometry":{"type":"Polygon","coordinates":[[[-78.8327161459999,-33.6409500651293],[-78.8326346619999,-33.6407403601293],[-78.832796346,-33.6404962731293],[-78.832268698,-33.6410675071293],[-78.8319949279999,-33.6410586351293],[-78.8322193349999,-33.6412642111293],[-78.8326818659999,-33.6419711121293],[-78.8326736999999,-33.6420279941293],[-78.8321803659999,-33.6424559841293],[-78.8321545659999,-33.6423131531293],[-78.8326386429999,-33.6419772071293],[-78.832433395,-33.6416549581293],[-78.8322032749999,-33.6419361811293],[-78.8322093329999,-33.6417643211293],[-78.8324153249999,-33.6416273411293],[-78.8321264329999,-33.6412685501293],[-78.831486546,-33.6420779801293],[-78.8321504749999,-33.6429494741293],[-78.8332641879999,-33.6419144231293],[-78.8334701089999,-33.6420894461293],[-78.8334268159999,-33.6426877741293],[-78.8335627859999,-33.6429086691293],[-78.8342152959999,-33.6431932461293],[-78.8348249349999,-33.6437119681293],[-78.8356113589999,-33.6439699271293],[-78.8356362069999,-33.6437582751293],[-78.8348265429999,-33.6434758391293],[-78.8346655719999,-33.6431621071293],[-78.8342157859999,-33.6427941201293],[-78.8338219859999,-33.6416597121293],[-78.8330282999999,-33.6402649851293],[-78.8326573809999,-33.6407374101293],[-78.8327161459999,-33.6409500651293]]]}},{"type":"Feature","properties":{"id":"5104013004025","commune":"Juan Fernández","code":"05104","gse":"D","quintil":"Q2","nse_score":655.9,"educ":12.3,"educ_score":620.0,"hacin":1.533,"hacin_class":"Hacinamiento Medio","hacin_score":737.6,"auto_score":100.0,"n_per":46,"n_hog":15,"source_year":2024},"geometry":{"type":"Polygon","coordinates":[[[-78.835119173,-33.6425102031293],[-78.8344810669999,-33.6418650701293],[-78.8347686499999,-33.6412197081293],[-78.8338100059999,-33.6408553011293],[-78.8335653269999,-33.6411303111293],[-78.8342428509999,-33.6427785211293],[-78.8345821159999,-33.6430380101293],[-78.835119173,-33.6425102031293]]]}},{"type":"Feature","properties":{"id":"5104013004012","commune":"Juan Fernández","code":"05104","gse":"D","quintil":"Q2","nse_score":665.3,"educ":13.3,"educ_score":686.7,"hacin":1.231,"hacin_class":"Hacinamiento Leve","hacin_score":802.0,"auto_score":62.5,"n_per":16,"n_hog":6,"source_year":2024},"geometry":{"type":"MultiPolygon","coordinates":[[[[-78.8271325769999,-33.6412747391293],[-78.8275371329999,-33.6418562381293],[-78.8277378079999,-33.6419169191293],[-78.8279846579999,-33.6415890211293],[-78.8279173019999,-33.6415196261293],[-78.8281431979999,-33.6414890371293],[-78.8286791459999,-33.6410191321293],[-78.8271325769999,-33.6412747391293]]],[[[-78.8302825959999,-33.6360078241294],[-78.8310736939999,-33.6367447221294],[-78.8310349069999,-33.6373747391294],[-78.8301957379999,-33.6386820731293],[-78.8298817469999,-33.6397785221293],[-78.8295933129999,-33.6402137741294],[-78.8288296209999,-33.6407766631293],[-78.8271277989999,-33.6410567111293],[-78.8256668709999,-33.6416295311293],[-78.8257402509999,-33.6417387471293],[-78.8273749819999,-33.6411125691293],[-78.8286985569999,-33.6409579041293],[-78.8291982439999,-33.6407348301293],[-78.8295759839999,-33.6403749361293],[-78.8299269539999,-33.6398365831293],[-78.8303255139999,-33.6388491071293],[-78.8312016069999,-33.6383112921294],[-78.8312915839999,-33.6381203281294],[-78.8315207299999,-33.6367548411293],[-78.8312147879999,-33.6367335601294],[-78.8311860239999,-33.6372941671294],[-78.8310893929999,-33.6361451611294],[-78.8307693339999,-33.6359657351294],[-78.8302825959999,-33.6360078241294]]]]}},{"type":"Feature","properties":{"id":"5104013004027","commune":"Juan Fernández","code":"05104","gse":"D","quintil":"Q2","nse_score":665.2,"educ":13.7,"educ_score":713.3,"hacin":1.556,"hacin_class":"Hacinamiento Medio","hacin_score":732.9,"auto_score":33.3,"n_per":28,"n_hog":16,"source_year":2024},"geometry":{"type":"MultiPolygon","coordinates":[[[[-78.8246887879999,-33.6422890311293],[-78.8248392409999,-33.6434184901293],[-78.8256983859999,-33.6432399791293],[-78.8260380559999,-33.6428325721293],[-78.8257915299999,-33.6424494351293],[-78.8257112279999,-33.6419280981293],[-78.8246887879999,-33.6422890311293]]],[[[-78.8263603799999,-33.6417603371293],[-78.8263609929999,-33.6415767311293],[-78.8258199349999,-33.6418573471293],[-78.8259359609999,-33.6424048731293],[-78.8262803839999,-33.6428800861293],[-78.8262111439999,-33.6434154151293],[-78.8260684959999,-33.6435284331293],[-78.8265369649999,-33.6436908181293],[-78.8297661889999,-33.6425587581293],[-78.8295748179999,-33.6419188521293],[-78.8293423479999,-33.6418329481293],[-78.8289591839999,-33.6419372441293],[-78.8282600229999,-33.6414434721293],[-78.8277405019999,-33.6419274681293],[-78.8275119339999,-33.6418553401293],[-78.8273182949999,-33.6414263431293],[-78.8271200929999,-33.6412894271293],[-78.8263978269999,-33.6415639531293],[-78.8263603799999,-33.6417603371293]]]]}},{"type":"Feature","properties":{"id":"5104013004005","commune":"Juan Fernández","code":"05104","gse":"D","quintil":"Q2","nse_score":654.2,"educ":12.5,"educ_score":633.3,"hacin":1.44,"hacin_class":"Hacinamiento Leve","hacin_score":757.4,"auto_score":78.9,"n_per":36,"n_hog":16,"source_year":2024},"geometry":{"type":"MultiPolygon","coordinates":[[[[-78.8328452399999,-33.6354980731294],[-78.8326061689999,-33.6356206901294],[-78.8324357999999,-33.6363002641294],[-78.8329446739999,-33.6364510671294],[-78.8332598649999,-33.6361666111294],[-78.8333960339999,-33.6361261861294],[-78.8329856359999,-33.6364525631293],[-78.8335860249999,-33.6366629621294],[-78.8336341719999,-33.6369772181293],[-78.8356079049999,-33.6366089431294],[-78.8361560579999,-33.6367099581294],[-78.8362097309999,-33.6361154011294],[-78.8356798359999,-33.6361373941294],[-78.8348232119999,-33.6358325501294],[-78.8341266969999,-33.6358666901294],[-78.8337662079999,-33.6357322511294],[-78.8330672439999,-33.6358833671294],[-78.8330327809999,-33.6361058961294],[-78.8330307519999,-33.6359023691294],[-78.8326713319999,-33.6360151701294],[-78.8333768769999,-33.6357396521294],[-78.8328452399999,-33.6354980731294]]],[[[-78.8315550369999,-33.6353255121294],[-78.8322469049999,-33.6353345651294],[-78.8315730169999,-33.6354075651294],[-78.8317399379999,-33.6360335481294],[-78.8321934179999,-33.6359868051294],[-78.8324190449999,-33.6355266331294],[-78.8328109829999,-33.6354826271294],[-78.8326685579999,-33.6353800741294],[-78.8327395239999,-33.6350587741294],[-78.8326194139999,-33.6348531661294],[-78.8315127409999,-33.6350118121294],[-78.8315550369999,-33.6353255121294]]]]}}]}