{"type":"FeatureCollection","features":[{"type":"Feature","properties":{"id":"6202011001001","commune":"La Estrella","code":"06202","gse":"E","quintil":"Q1","nse_score":574.4,"educ":9.1,"educ_score":406.7,"hacin":1.347,"hacin_class":"Hacinamiento Leve","hacin_score":777.3,"auto_score":102.2,"n_per":237,"n_hog":93,"source_year":2024,"crime_score":1.0,"crime_nivel":"Muy Alto","crime_color":"#d32f2f"},"geometry":{"type":"Polygon","coordinates":[[[-71.6446557069999,-34.1975880491224],[-71.6456874289999,-34.2015684241224],[-71.6459593989999,-34.2016149791224],[-71.6452353839999,-34.1987830241224],[-71.6460058849999,-34.2016241131223],[-71.6475102239999,-34.2018905411224],[-71.6467712399999,-34.1990180481224],[-71.6459922289999,-34.1991262231224],[-71.6457977509999,-34.1985366421224],[-71.6457967069999,-34.1984239731224],[-71.6459079799999,-34.1983211871224],[-71.6465598629999,-34.1981502821224],[-71.6459298549999,-34.1983525001224],[-71.6458405059999,-34.1985303141224],[-71.6460193929999,-34.1990946251224],[-71.6467581379999,-34.1989739461224],[-71.6466953029999,-34.1985764851224],[-71.6475559339999,-34.2019002761224],[-71.6515696769999,-34.2020791391223],[-71.6523806379999,-34.2013726761224],[-71.6520915409999,-34.2011056521224],[-71.6524102309999,-34.2013463141224],[-71.6533941599999,-34.2004810091224],[-71.6540208429999,-34.2002666661224],[-71.6536626089999,-34.1995780111224],[-71.6532460319999,-34.1997257241224],[-71.6533137789999,-34.1999930891224],[-71.6519016779999,-34.2011556941224],[-71.651063614,-34.2015030771224],[-71.6495017249999,-34.2015636091224],[-71.6493989749999,-34.2011042971224],[-71.6481670019999,-34.2010915621224],[-71.6472230629999,-34.1971343911225],[-71.6446557069999,-34.1975880491224]]]}},{"type":"Feature","properties":{"id":"6202011001002","commune":"La Estrella","code":"06202","gse":"E","quintil":"Q1","nse_score":593.3,"educ":10.4,"educ_score":493.3,"hacin":1.212,"hacin_class":"Hacinamiento Leve","hacin_score":806.1,"auto_score":83.3,"n_per":63,"n_hog":24,"source_year":2024,"crime_score":0.9834,"crime_nivel":"Muy Alto","crime_color":"#d32f2f"},"geometry":{"type":"Polygon","coordinates":[[[-71.6557251799999,-34.2034482051223],[-71.6551275309999,-34.2019285951223],[-71.6551680329999,-34.2013823091224],[-71.6552961629999,-34.2012352931224],[-71.6552201599999,-34.2006013791224],[-71.6548323199999,-34.1997488431224],[-71.654229401,-34.1990102061224],[-71.6538540989999,-34.1992296371224],[-71.6538300079999,-34.1995454951224],[-71.6546990769999,-34.2023205801224],[-71.6543585929999,-34.2029102331224],[-71.653701984,-34.2035106981223],[-71.6543794539999,-34.2036281851224],[-71.6549657369999,-34.2029425731223],[-71.6555322119999,-34.2030115311224],[-71.6555204339999,-34.2034158521223],[-71.6557251799999,-34.2034482051223]]]}},{"type":"Feature","properties":{"id":"6202011001004","commune":"La Estrella","code":"06202","gse":"C3","quintil":"Q2","nse_score":676.2,"educ":10.6,"educ_score":506.7,"hacin":1.179,"hacin_class":"Hacinamiento Leve","hacin_score":813.1,"auto_score":111.1,"n_per":66,"n_hog":27,"source_year":2024,"crime_score":0.942,"crime_nivel":"Muy Alto","crime_color":"#d32f2f"},"geometry":{"type":"Polygon","coordinates":[[[-71.6516234089999,-34.2021106981224],[-71.6536435149999,-34.2034829531223],[-71.6543057449999,-34.2028786291223],[-71.654562585,-34.2025164571224],[-71.6546424389999,-34.2021347931223],[-71.654044612,-34.2003170391223],[-71.6534351749999,-34.2005232791224],[-71.6523215549999,-34.2015045841224],[-71.6526477049999,-34.2018281201224],[-71.652291751,-34.2015308021223],[-71.6516234089999,-34.2021106981224]]]}},{"type":"Feature","properties":{"id":"6202011001005","commune":"La Estrella","code":"06202","gse":"E","quintil":"Q1","nse_score":467.9,"educ":8.5,"educ_score":366.7,"hacin":1.143,"hacin_class":"Hacinamiento Leve","hacin_score":820.7,"auto_score":125.0,"n_per":8,"n_hog":4,"source_year":2024,"crime_score":1.0,"crime_nivel":"Muy Alto","crime_color":"#d32f2f"},"geometry":{"type":"Polygon","coordinates":[[[-71.6443367509999,-34.2024759971224],[-71.6451443309999,-34.2024907611223],[-71.6448849619999,-34.2014814931224],[-71.6444083009999,-34.2013986891223],[-71.6443367509999,-34.2024759971224]]]}},{"type":"Feature","properties":{"id":"6202011001006","commune":"La Estrella","code":"06202","gse":"C3","quintil":"Q2","nse_score":664.5,"educ":11.2,"educ_score":546.7,"hacin":1.292,"hacin_class":"Hacinamiento Leve","hacin_score":789.0,"auto_score":0.0,"n_per":62,"n_hog":23,"source_year":2024,"crime_score":0.9462,"crime_nivel":"Muy Alto","crime_color":"#d32f2f"},"geometry":{"type":"Polygon","coordinates":[[[-71.6451667559999,-34.2024911711224],[-71.6463899959999,-34.2025135221224],[-71.6465012209999,-34.2029377981224],[-71.6469105079999,-34.2029264951223],[-71.6470283129999,-34.2033877681223],[-71.6482657559999,-34.2033013031223],[-71.6481119549999,-34.2031230481224],[-71.6482879569999,-34.2032636511223],[-71.6486702839999,-34.2032148651224],[-71.6484172399999,-34.2020565311224],[-71.6470647319999,-34.2018628751224],[-71.6471015139999,-34.2026202451224],[-71.6475857819999,-34.2026232911224],[-71.6477222359999,-34.2031533351224],[-71.6470890929999,-34.2031789351223],[-71.6476695219999,-34.2031193751223],[-71.6475533509999,-34.2026606851224],[-71.6470619199999,-34.2026339511223],[-71.6470223109999,-34.2018552331224],[-71.6463663889999,-34.2017422891224],[-71.6465291659999,-34.2023272361223],[-71.6464528239999,-34.2026395531224],[-71.6463224829999,-34.2017347941224],[-71.6449064289999,-34.2014855171224],[-71.6451667559999,-34.2024911711224]]]}},{"type":"Feature","properties":{"id":"6202011001007","commune":"La Estrella","code":"06202","gse":"D","quintil":"Q2","nse_score":653.2,"educ":11.6,"educ_score":573.3,"hacin":1.199,"hacin_class":"Hacinamiento Leve","hacin_score":808.8,"auto_score":93.8,"n_per":169,"n_hog":64,"source_year":2024,"crime_score":1.0,"crime_nivel":"Muy Alto","crime_color":"#d32f2f"},"geometry":{"type":"Polygon","coordinates":[[[-71.6510298739999,-34.2020382201224],[-71.6484614029999,-34.2020555771224],[-71.6487160619999,-34.2032314881223],[-71.6482969699999,-34.2032989721223],[-71.6509828349999,-34.2030970831224],[-71.6524985179999,-34.2042599981223],[-71.6536800239999,-34.2046442441224],[-71.6530909499999,-34.2050490691223],[-71.6528029039999,-34.2054384421223],[-71.6517399709999,-34.2057502081223],[-71.6520674899999,-34.2062786111224],[-71.6515561339999,-34.2064771461223],[-71.6518773609999,-34.2068578601223],[-71.6512025919999,-34.2089710091223],[-71.6491988499999,-34.2093395291223],[-71.6496625779999,-34.2096771311222],[-71.6515859949999,-34.2093518631223],[-71.6515453099999,-34.2089669831223],[-71.6523577089999,-34.2067214301223],[-71.652052636,-34.2063105341223],[-71.6523852969999,-34.2067070921223],[-71.6530857509999,-34.2067226361223],[-71.6533301569999,-34.2061353981223],[-71.6544109589999,-34.2054563981224],[-71.6542719999999,-34.2050939131223],[-71.6533835339999,-34.2052863221223],[-71.6542596219999,-34.2050616251223],[-71.6537446939999,-34.2035815961223],[-71.6532387909999,-34.2033484581223],[-71.6515740679999,-34.2021467051224],[-71.6510733619999,-34.2020386021224],[-71.6510969709999,-34.2025411441224],[-71.6510458079999,-34.2026004701224],[-71.6493868289999,-34.2026355741224],[-71.6494916999999,-34.2030403151224],[-71.6509726629999,-34.2030610041224],[-71.64948634,-34.2030762361224],[-71.6493469329999,-34.2029331931223],[-71.6493461569999,-34.2025885861224],[-71.6510311519999,-34.2025663471224],[-71.6510298739999,-34.2020382201224]]]}},{"type":"Feature","properties":{"id":"6202011001008","commune":"La Estrella","code":"06202","gse":"C3","quintil":"Q2","nse_score":660.9,"educ":11.1,"educ_score":540.0,"hacin":1.556,"hacin_class":"Hacinamiento Medio","hacin_score":732.9,"auto_score":0.0,"n_per":14,"n_hog":4,"source_year":2024,"crime_score":0.926,"crime_nivel":"Muy Alto","crime_color":"#d32f2f"},"geometry":{"type":"Polygon","coordinates":[[[-71.6554773729999,-34.2034036791224],[-71.6555091909999,-34.2030427371223],[-71.6549487229999,-34.2029821841224],[-71.6547105429999,-34.2032830031224],[-71.6554773729999,-34.2034036791224]]]}},{"type":"Feature","properties":{"id":"6202011001009","commune":"La Estrella","code":"06202","gse":"D","quintil":"Q1","nse_score":611.4,"educ":11.1,"educ_score":540.0,"hacin":1.294,"hacin_class":"Hacinamiento Leve","hacin_score":788.6,"auto_score":135.3,"n_per":185,"n_hog":79,"source_year":2024,"crime_score":1.0,"crime_nivel":"Muy Alto","crime_color":"#d32f2f"},"geometry":{"type":"Polygon","coordinates":[[[-71.6543468529999,-34.2036667191224],[-71.6538184179999,-34.2035862411223],[-71.6542092039999,-34.2047361781224],[-71.6547969439999,-34.2048045961223],[-71.6547508729999,-34.2054806231223],[-71.6563788869999,-34.2056731401223],[-71.6564708369999,-34.2055835531223],[-71.6570111449999,-34.2055104471223],[-71.657077721,-34.2052274951223],[-71.6571123389999,-34.2055283281223],[-71.6575652199999,-34.2055893901223],[-71.6576341659999,-34.2053249281223],[-71.6575866349999,-34.2055922771223],[-71.658126965,-34.2056651271223],[-71.6581993839999,-34.2054062961223],[-71.6581483779999,-34.2056680141223],[-71.6585732879999,-34.2057257031223],[-71.6586471929999,-34.2054787461223],[-71.6585945749999,-34.2057291991223],[-71.6588018399999,-34.2057632371223],[-71.6570472939999,-34.2055305111223],[-71.6564882929999,-34.2056183901223],[-71.6563263629999,-34.2064028501223],[-71.6585943539999,-34.2067333251223],[-71.658661875,-34.2061000091223],[-71.6586375249999,-34.2067395851223],[-71.6587885769999,-34.2067647041223],[-71.6587997649999,-34.2065566691223],[-71.6589454869999,-34.2064310861223],[-71.6588315419999,-34.2067712761223],[-71.6604058019999,-34.2070149631223],[-71.6603346829999,-34.2063639541223],[-71.6604487019999,-34.2070221951223],[-71.6613544509999,-34.2071584561223],[-71.6633317379999,-34.2060896461223],[-71.6631742109999,-34.2057431911223],[-71.6629645929999,-34.2056440721223],[-71.6619104739999,-34.2057165501223],[-71.6620239419999,-34.2060984431223],[-71.661672285,-34.2061589501223],[-71.6612867129999,-34.2059960371223],[-71.6608161229999,-34.2062941271223],[-71.6588445599999,-34.2060193671223],[-71.6590306019999,-34.2052910381223],[-71.6568894159999,-34.2049557311223],[-71.6567906419999,-34.2052010781223],[-71.6560291009999,-34.2051658211223],[-71.655602729,-34.2039509731224],[-71.6557294599999,-34.2038492811223],[-71.6557237079999,-34.2034854611224],[-71.6546903909999,-34.2033165451224],[-71.6543468529999,-34.2036667191224]]]}},{"type":"Feature","properties":{"id":"6202011001011","commune":"La Estrella","code":"06202","gse":"D","quintil":"Q1","nse_score":625.1,"educ":10.3,"educ_score":486.7,"hacin":1.349,"hacin_class":"Hacinamiento Leve","hacin_score":776.8,"auto_score":78.9,"n_per":116,"n_hog":38,"source_year":2024,"crime_score":0.9918,"crime_nivel":"Muy Alto","crime_color":"#d32f2f"},"geometry":{"type":"Polygon","coordinates":[[[-71.6534305699999,-34.2060958621223],[-71.6522421599999,-34.2092999021223],[-71.652306215,-34.2098165541223],[-71.6534228819999,-34.2096571181223],[-71.6544283279999,-34.2067901491223],[-71.6547513939999,-34.2062187311223],[-71.6544151299999,-34.2054954751223],[-71.6534305699999,-34.2060958621223]]]}},{"type":"Feature","properties":{"id":"6202011001013","commune":"La Estrella","code":"06202","gse":"D","quintil":"Q1","nse_score":632.2,"educ":11.3,"educ_score":553.3,"hacin":1.069,"hacin_class":"Hacinamiento Leve","hacin_score":836.4,"auto_score":33.3,"n_per":31,"n_hog":13,"source_year":2024,"crime_score":0.9484,"crime_nivel":"Muy Alto","crime_color":"#d32f2f"},"geometry":{"type":"Polygon","coordinates":[[[-71.6547285809999,-34.2061494521223],[-71.656283174,-34.2063993791223],[-71.6563695749999,-34.2057373181223],[-71.6547485259999,-34.2055167271223],[-71.6547285809999,-34.2061494521223]]]}},{"type":"Feature","properties":{"id":"6202011001015","commune":"La Estrella","code":"06202","gse":"D","quintil":"Q2","nse_score":644.4,"educ":10.9,"educ_score":526.7,"hacin":1.182,"hacin_class":"Hacinamiento Leve","hacin_score":812.4,"auto_score":200.0,"n_per":26,"n_hog":10,"source_year":2024,"crime_score":0.9399,"crime_nivel":"Muy Alto","crime_color":"#d32f2f"},"geometry":{"type":"Polygon","coordinates":[[[-71.6546037539999,-34.2087174101223],[-71.6553096059999,-34.2069394531223],[-71.6551813669999,-34.2062924781224],[-71.6547980449999,-34.2062281681223],[-71.6540561859999,-34.2079127891223],[-71.6545954599999,-34.2080085521223],[-71.6546037539999,-34.2087174101223]]]}},{"type":"Feature","properties":{"id":"6202011001016","commune":"La Estrella","code":"06202","gse":"D","quintil":"Q2","nse_score":655.9,"educ":11.3,"educ_score":553.3,"hacin":1.271,"hacin_class":"Hacinamiento Leve","hacin_score":793.4,"auto_score":51.7,"n_per":75,"n_hog":30,"source_year":2024,"crime_score":0.9566,"crime_nivel":"Muy Alto","crime_color":"#d32f2f"},"geometry":{"type":"Polygon","coordinates":[[[-71.6553782209999,-34.2068682381223],[-71.6549983719999,-34.2080511571223],[-71.6553405159999,-34.2081986711223],[-71.6565415629999,-34.2082108601223],[-71.6553382749999,-34.2082166191223],[-71.6549914649999,-34.2080692181223],[-71.6543509839999,-34.2095750701223],[-71.6542219239999,-34.2101851291223],[-71.6543041959999,-34.2103161141223],[-71.6547289799999,-34.2102514711223],[-71.6551935929999,-34.2088170581223],[-71.6570329559999,-34.2087928191223],[-71.6570621619999,-34.2084541231223],[-71.6566592649999,-34.2074539671223],[-71.6577904579999,-34.2074214631223],[-71.6578035589999,-34.2071049771223],[-71.6610694569999,-34.2077184841223],[-71.6628378719999,-34.2077731141223],[-71.6628372429999,-34.2072111851223],[-71.6624936609999,-34.2070692811223],[-71.6616320329999,-34.2072577581223],[-71.6606989169999,-34.2071806211223],[-71.6552461609999,-34.2063021541223],[-71.6553782209999,-34.2068682381223]]]}},{"type":"Feature","properties":{"id":"6202011001017","commune":"La Estrella","code":"06202","gse":"E","quintil":"Q1","nse_score":602.5,"educ":9.3,"educ_score":420.0,"hacin":1.5,"hacin_class":"Hacinamiento Medio","hacin_score":744.7,"auto_score":0.0,"n_per":24,"n_hog":9,"source_year":2024,"crime_score":0.9601,"crime_nivel":"Muy Alto","crime_color":"#d32f2f"},"geometry":{"type":"Polygon","coordinates":[[[-71.6628839319999,-34.2063991171223],[-71.6614298389999,-34.2072055511223],[-71.6624944669999,-34.2070331301223],[-71.6628762279999,-34.2071944571223],[-71.6628975849999,-34.2083502801223],[-71.6627786789999,-34.2087390311223],[-71.6640695209999,-34.2088654651223],[-71.6637965359999,-34.2080194801223],[-71.6634868159999,-34.2077782981223],[-71.6635302589999,-34.2072409611223],[-71.6632641609999,-34.2069312181223],[-71.6633216769999,-34.2064494571223],[-71.6628839319999,-34.2063991171223]]]}},{"type":"Feature","properties":{"id":"6202011001019","commune":"La Estrella","code":"06202","gse":"D","quintil":"Q1","nse_score":605.6,"educ":11.0,"educ_score":533.3,"hacin":1.385,"hacin_class":"Hacinamiento Leve","hacin_score":769.2,"auto_score":19.2,"n_per":54,"n_hog":25,"source_year":2024,"crime_score":0.9728,"crime_nivel":"Muy Alto","crime_color":"#d32f2f"},"geometry":{"type":"Polygon","coordinates":[[[-71.6515894139999,-34.2090954531223],[-71.6516289849999,-34.2093469751223],[-71.6522035489999,-34.2092808831223],[-71.6530750979999,-34.2067583261223],[-71.6523719659999,-34.2067626151223],[-71.6515894139999,-34.2090954531223]]]}},{"type":"Feature","properties":{"id":"6202011001023","commune":"La Estrella","code":"06202","gse":"C3","quintil":"Q2","nse_score":663.1,"educ":13.2,"educ_score":680.0,"hacin":1.222,"hacin_class":"Hacinamiento Leve","hacin_score":803.8,"auto_score":100.0,"n_per":22,"n_hog":10,"source_year":2024,"crime_score":0.9286,"crime_nivel":"Muy Alto","crime_color":"#d32f2f"},"geometry":{"type":"Polygon","coordinates":[[[-71.6545550849999,-34.2080327051223],[-71.65404308,-34.2079473711223],[-71.6534688429999,-34.2096506571223],[-71.6542937179999,-34.2095470411223],[-71.6545678449999,-34.2088131581223],[-71.6545550849999,-34.2080327051223]]]}},{"type":"Feature","properties":{"id":"6202011001024","commune":"La Estrella","code":"06202","gse":"C3","quintil":"Q2","nse_score":678.2,"educ":11.5,"educ_score":566.7,"hacin":1.059,"hacin_class":"Hacinamiento Leve","hacin_score":838.5,"auto_score":83.3,"n_per":18,"n_hog":6,"source_year":2024,"crime_score":0.9191,"crime_nivel":"Muy Alto","crime_color":"#d32f2f"},"geometry":{"type":"MultiPolygon","coordinates":[[[[-71.6524076429999,-34.2103985481223],[-71.654122663,-34.2101957791223],[-71.6542833159999,-34.2095833611223],[-71.6523126099999,-34.2098522201223],[-71.6524076429999,-34.2103985481223]]],[[[-71.6521980639999,-34.2093179061223],[-71.6511737829999,-34.2094342531223],[-71.6512103379999,-34.2100025231223],[-71.6502697679999,-34.2101996781223],[-71.6508029939999,-34.2107076171223],[-71.6523706759999,-34.2104380661223],[-71.6521980639999,-34.2093179061223]]]]}},{"type":"Feature","properties":{"id":"6202011001025","commune":"La Estrella","code":"06202","gse":"E","quintil":"Q1","nse_score":564.8,"educ":9.8,"educ_score":453.3,"hacin":1.147,"hacin_class":"Hacinamiento Leve","hacin_score":819.8,"auto_score":93.8,"n_per":39,"n_hog":16,"source_year":2024,"crime_score":0.9865,"crime_nivel":"Muy Alto","crime_color":"#d32f2f"},"geometry":{"type":"MultiPolygon","coordinates":[[[[-71.6492242619999,-34.2097013161223],[-71.6503870879999,-34.2108576791223],[-71.6507616669999,-34.2107210181223],[-71.6494872169999,-34.2095986301223],[-71.6492242619999,-34.2097013161223]]],[[[-71.6502076889999,-34.2101503471223],[-71.6511816649999,-34.2099752091223],[-71.6511308229999,-34.2094393241223],[-71.6496991039999,-34.2096969901223],[-71.6502076889999,-34.2101503471223]]]]}},{"type":"Feature","properties":{"id":"6202011001028","commune":"La Estrella","code":"06202","gse":"D","quintil":"Q2","nse_score":655.7,"educ":11.3,"educ_score":553.3,"hacin":1.194,"hacin_class":"Hacinamiento Leve","hacin_score":809.7,"auto_score":14.3,"n_per":86,"n_hog":35,"source_year":2024,"crime_score":0.9618,"crime_nivel":"Muy Alto","crime_color":"#d32f2f"},"geometry":{"type":"MultiPolygon","coordinates":[[[[-71.6529871659999,-34.2113459411222],[-71.6532661779999,-34.2113019821223],[-71.6532361659999,-34.2109687921223],[-71.6529204169999,-34.2110108381222],[-71.6529871659999,-34.2113459411222]]],[[[-71.6529971569999,-34.2113867051222],[-71.6528839599999,-34.2112055521223],[-71.6520279479999,-34.2112742531223],[-71.6528797539999,-34.2111696231223],[-71.6528958199999,-34.2109742261223],[-71.6532258919999,-34.2109207141223],[-71.6531359379999,-34.2103854541223],[-71.6510140039999,-34.2107158861223],[-71.6497731849999,-34.2111149361223],[-71.6499747529999,-34.2116141971223],[-71.6496540459999,-34.2111385161223],[-71.6490263719999,-34.2119207171223],[-71.6504615819999,-34.2116524741222],[-71.6533258929999,-34.2113999271223],[-71.6533501219999,-34.2114858681223],[-71.6540510009999,-34.2114050991222],[-71.6542486659999,-34.2119075151223],[-71.6548537059999,-34.2117895591223],[-71.6541965959999,-34.2102156991223],[-71.6531788249999,-34.2103799611223],[-71.6533283379999,-34.2112789461223],[-71.6532628099999,-34.2113482801223],[-71.6529971569999,-34.2113867051222]]]]}}]}