{"type":"FeatureCollection","features":[{"type":"Feature","properties":{"id":"14203011001003","commune":"Lago Ranco","code":"14203","gse":"C1","quintil":"Q5","nse_score":795.5,"educ":14.6,"educ_score":773.3,"hacin":1.143,"hacin_class":"Hacinamiento Leve","hacin_score":820.7,"auto_score":0.0,"n_per":8,"n_hog":5,"source_year":2024},"geometry":{"type":"Polygon","coordinates":[[[-72.4721349539999,-40.319441184069],[-72.4737899739999,-40.320154047069],[-72.4740077069999,-40.319904625069],[-72.4723210009999,-40.319172523069],[-72.4721832349999,-40.319260457069],[-72.4721349539999,-40.319441184069]]]}},{"type":"Feature","properties":{"id":"14203011001010","commune":"Lago Ranco","code":"14203","gse":"E","quintil":"Q1","nse_score":580.7,"educ":9.8,"educ_score":453.3,"hacin":1.267,"hacin_class":"Hacinamiento Leve","hacin_score":794.3,"auto_score":55.6,"n_per":38,"n_hog":15,"source_year":2024},"geometry":{"type":"Polygon","coordinates":[[[-72.4716798729999,-40.320977020069],[-72.4722247309999,-40.321165303069],[-72.4716611489999,-40.321029160069],[-72.4715926499999,-40.321222749069],[-72.4727459209999,-40.321597989069],[-72.4733504619999,-40.321437551069],[-72.4734898049999,-40.321086711069],[-72.4726034039999,-40.320795159069],[-72.4723330289999,-40.321034927069],[-72.4729671419999,-40.320314750069],[-72.4721479399999,-40.319951287069],[-72.4719104529999,-40.320046455069],[-72.4716798729999,-40.320977020069]]]}},{"type":"Feature","properties":{"id":"14203011001017","commune":"Lago Ranco","code":"14203","gse":"D","quintil":"Q2","nse_score":667.3,"educ":10.8,"educ_score":520.0,"hacin":1.133,"hacin_class":"Hacinamiento Leve","hacin_score":822.7,"auto_score":312.5,"n_per":17,"n_hog":7,"source_year":2024},"geometry":{"type":"Polygon","coordinates":[[[-72.4684788629999,-40.321343240069],[-72.4690491059999,-40.321523475069],[-72.4695514549999,-40.320687734069],[-72.4684788629999,-40.321343240069]]]}},{"type":"Feature","properties":{"id":"14203011001018","commune":"Lago Ranco","code":"14203","gse":"E","quintil":"Q1","nse_score":594.5,"educ":10.4,"educ_score":493.3,"hacin":1.099,"hacin_class":"Hacinamiento Leve","hacin_score":830.0,"auto_score":116.1,"n_per":111,"n_hog":39,"source_year":2024},"geometry":{"type":"Polygon","coordinates":[[[-72.4691518319999,-40.321596006069],[-72.4744108609999,-40.323330503069],[-72.4752440079999,-40.322497669069],[-72.4745220999999,-40.322238560069],[-72.4744067299999,-40.322365578069],[-72.4742424859999,-40.322326683069],[-72.4739874449999,-40.322070910069],[-72.4738481869999,-40.322584544069],[-72.4738210289999,-40.322015790069],[-72.4735248089999,-40.321945756069],[-72.4733448499999,-40.322379306069],[-72.4734274739999,-40.321891530069],[-72.4704766919999,-40.320978004069],[-72.4701100479999,-40.321592602069],[-72.4704307039999,-40.320965825069],[-72.4697198399999,-40.320742051069],[-72.4691518319999,-40.321596006069]]]}},{"type":"Feature","properties":{"id":"14203011001019","commune":"Lago Ranco","code":"14203","gse":"E","quintil":"Q1","nse_score":488.7,"educ":8.5,"educ_score":366.7,"hacin":0.895,"hacin_class":"Sin Hacinamiento","hacin_score":873.5,"auto_score":75.0,"n_per":17,"n_hog":8,"source_year":2024},"geometry":{"type":"Polygon","coordinates":[[[-72.4883124989999,-40.323083156069],[-72.4878135139999,-40.322851231069],[-72.4878699389999,-40.322402552069],[-72.487668589,-40.322167611069],[-72.4814847189999,-40.320746642069],[-72.4812665629999,-40.321557731069],[-72.4848115469999,-40.322127988069],[-72.4876016809999,-40.322983783069],[-72.4883124989999,-40.323083156069]]]}},{"type":"Feature","properties":{"id":"14203011001020","commune":"Lago Ranco","code":"14203","gse":"C3","quintil":"Q2","nse_score":682.2,"educ":12.2,"educ_score":613.3,"hacin":1.21,"hacin_class":"Hacinamiento Leve","hacin_score":806.3,"auto_score":225.0,"n_per":46,"n_hog":17,"source_year":2024},"geometry":{"type":"Polygon","coordinates":[[[-72.4744006259999,-40.321204592069],[-72.4744544049999,-40.320997032069],[-72.4740213509999,-40.320812144069],[-72.4737536049999,-40.321099943069],[-72.473503708,-40.321089708069],[-72.4733659309999,-40.321440356069],[-72.4756570669999,-40.321917488069],[-72.4755858269999,-40.321549843069],[-72.4750062989999,-40.321151956069],[-72.4745205639999,-40.321015886069],[-72.4744006259999,-40.321204592069]]]}},{"type":"Feature","properties":{"id":"14203011001021","commune":"Lago Ranco","code":"14203","gse":"C2","quintil":"Q4","nse_score":756.6,"educ":14.3,"educ_score":753.3,"hacin":1.0,"hacin_class":"Hacinamiento Leve","hacin_score":851.1,"auto_score":100.0,"n_per":14,"n_hog":8,"source_year":2024},"geometry":{"type":"Polygon","coordinates":[[[-72.4781830709999,-40.321136903069],[-72.4779610699999,-40.321778987069],[-72.4790667619999,-40.322195246069],[-72.4793757009999,-40.321338849069],[-72.4781830709999,-40.321136903069]]]}},{"type":"Feature","properties":{"id":"14203011001022","commune":"Lago Ranco","code":"14203","gse":"C2","quintil":"Q4","nse_score":767.6,"educ":13.8,"educ_score":720.0,"hacin":1.143,"hacin_class":"Hacinamiento Leve","hacin_score":820.7,"auto_score":33.3,"n_per":32,"n_hog":13,"source_year":2024},"geometry":{"type":"Polygon","coordinates":[[[-72.4767456979999,-40.322175336069],[-72.4790158599999,-40.322281952069],[-72.4782529569999,-40.321911603069],[-72.4752162579999,-40.321208213069],[-72.4757020959999,-40.321592370069],[-72.4757681019999,-40.321953558069],[-72.4767456979999,-40.322175336069]]]}},{"type":"Feature","properties":{"id":"14203011001025","commune":"Lago Ranco","code":"14203","gse":"D","quintil":"Q1","nse_score":631.5,"educ":10.1,"educ_score":473.3,"hacin":1.094,"hacin_class":"Hacinamiento Leve","hacin_score":831.1,"auto_score":142.9,"n_per":35,"n_hog":13,"source_year":2024},"geometry":{"type":"Polygon","coordinates":[[[-72.4756374419999,-40.322005631069],[-72.4733440339999,-40.321495700069],[-72.472951125,-40.321615944069],[-72.4753577289999,-40.322423677069],[-72.4756374419999,-40.322005631069]]]}},{"type":"Feature","properties":{"id":"14203011001027","commune":"Lago Ranco","code":"14203","gse":"C3","quintil":"Q3","nse_score":703.6,"educ":12.8,"educ_score":653.3,"hacin":1.03,"hacin_class":"Hacinamiento Leve","hacin_score":844.6,"auto_score":138.9,"n_per":34,"n_hog":14,"source_year":2024},"geometry":{"type":"Polygon","coordinates":[[[-72.4822069349999,-40.321746487069],[-72.4818947479999,-40.322853834069],[-72.4827264929999,-40.322586441069],[-72.4844056089999,-40.322532654069],[-72.4851199029999,-40.322641876069],[-72.4853218409999,-40.322344033069],[-72.4822069349999,-40.321746487069]]]}},{"type":"Feature","properties":{"id":"14203011001028","commune":"Lago Ranco","code":"14203","gse":"C3","quintil":"Q2","nse_score":673.8,"educ":12.3,"educ_score":620.0,"hacin":1.094,"hacin_class":"Hacinamiento Leve","hacin_score":831.1,"auto_score":58.8,"n_per":35,"n_hog":13,"source_year":2024},"geometry":{"type":"Polygon","coordinates":[[[-72.4757589849999,-40.322010097069],[-72.4755026959999,-40.322470071069],[-72.4778515159999,-40.323205396069],[-72.4784361209999,-40.322674612069],[-72.4791477599999,-40.322422766069],[-72.4767375589999,-40.322230710069],[-72.4757589849999,-40.322010097069]]]}},{"type":"Feature","properties":{"id":"14203011001031","commune":"Lago Ranco","code":"14203","gse":"C3","quintil":"Q3","nse_score":702.0,"educ":11.7,"educ_score":580.0,"hacin":1.083,"hacin_class":"Hacinamiento Leve","hacin_score":833.3,"auto_score":200.0,"n_per":26,"n_hog":10,"source_year":2024},"geometry":{"type":"Polygon","coordinates":[[[-72.485226253,-40.322624080069],[-72.4871724589999,-40.323622115069],[-72.4875999499999,-40.323085217069],[-72.4854762649999,-40.322341126069],[-72.485226253,-40.322624080069]]]}},{"type":"Feature","properties":{"id":"14203011001032","commune":"Lago Ranco","code":"14203","gse":"D","quintil":"Q1","nse_score":642.2,"educ":9.7,"educ_score":446.7,"hacin":0.812,"hacin_class":"Sin Hacinamiento","hacin_score":891.2,"auto_score":153.8,"n_per":56,"n_hog":25,"source_year":2024},"geometry":{"type":"Polygon","coordinates":[[[-72.47862061,-40.322663547069],[-72.4782913599999,-40.322878778069],[-72.4780345089999,-40.323257002069],[-72.4797393209999,-40.323769973069],[-72.4803826429999,-40.322626887069],[-72.4797219119999,-40.322458579069],[-72.47862061,-40.322663547069]]]}},{"type":"Feature","properties":{"id":"14203011001033","commune":"Lago Ranco","code":"14203","gse":"D","quintil":"Q2","nse_score":647.8,"educ":12.1,"educ_score":606.7,"hacin":1.312,"hacin_class":"Hacinamiento Leve","hacin_score":784.6,"auto_score":127.9,"n_per":84,"n_hog":30,"source_year":2024},"geometry":{"type":"Polygon","coordinates":[[[-72.4746385799999,-40.323180977069],[-72.4751834379999,-40.323477942069],[-72.4768412629999,-40.323813564069],[-72.4767000009999,-40.324096529069],[-72.4773149339999,-40.324294633069],[-72.4793567039999,-40.324437387069],[-72.4797154769999,-40.323844967069],[-72.4794653449999,-40.323771932069],[-72.4793138289999,-40.323976139069],[-72.4793996139999,-40.323751731069],[-72.4787763749999,-40.323567644069],[-72.4785135069999,-40.324029021069],[-72.4787104429999,-40.323548079069],[-72.4781158339999,-40.323364148069],[-72.4779773789999,-40.323816447069],[-72.478050359,-40.323341883069],[-72.4774661869999,-40.323155021069],[-72.4773021329999,-40.323742507069],[-72.4774000199999,-40.323134288069],[-72.4761613059999,-40.322748572069],[-72.4760127529999,-40.322957777069],[-72.4756887719999,-40.323050803069],[-72.4760961569999,-40.322727630069],[-72.4754112659999,-40.322512663069],[-72.4746385799999,-40.323180977069]]]}},{"type":"Feature","properties":{"id":"14203011001034","commune":"Lago Ranco","code":"14203","gse":"D","quintil":"Q2","nse_score":665.7,"educ":11.0,"educ_score":533.3,"hacin":0.861,"hacin_class":"Sin Hacinamiento","hacin_score":880.6,"auto_score":58.8,"n_per":31,"n_hog":15,"source_year":2024},"geometry":{"type":"Polygon","coordinates":[[[-72.4822615819999,-40.322745837069],[-72.4820331919999,-40.322892538069],[-72.4842495299999,-40.323635598069],[-72.4850632199999,-40.322716481069],[-72.4840630209999,-40.322576501069],[-72.4822615819999,-40.322745837069]]]}},{"type":"Feature","properties":{"id":"14203011001036","commune":"Lago Ranco","code":"14203","gse":"E","quintil":"Q1","nse_score":593.2,"educ":11.1,"educ_score":540.0,"hacin":1.069,"hacin_class":"Hacinamiento Leve","hacin_score":836.4,"auto_score":78.9,"n_per":31,"n_hog":14,"source_year":2024},"geometry":{"type":"Polygon","coordinates":[[[-72.4804711149999,-40.322654271069],[-72.4798519859999,-40.323801250069],[-72.4816314419999,-40.324293866069],[-72.4817589589999,-40.323908974069],[-72.4816658079999,-40.323448892069],[-72.4808993219999,-40.322755933069],[-72.4804711149999,-40.322654271069]]]}},{"type":"Feature","properties":{"id":"14203011001038","commune":"Lago Ranco","code":"14203","gse":"D","quintil":"Q2","nse_score":651.2,"educ":9.9,"educ_score":460.0,"hacin":1.206,"hacin_class":"Hacinamiento Leve","hacin_score":807.3,"auto_score":0.0,"n_per":41,"n_hog":19,"source_year":2024},"geometry":{"type":"Polygon","coordinates":[[[-72.484333278,-40.323668132069],[-72.4864109379999,-40.324680389069],[-72.4871595179999,-40.323710889069],[-72.4851591779999,-40.322743500069],[-72.484333278,-40.323668132069]]]}},{"type":"Feature","properties":{"id":"14203011001040","commune":"Lago Ranco","code":"14203","gse":"D","quintil":"Q1","nse_score":628.6,"educ":10.3,"educ_score":486.7,"hacin":1.404,"hacin_class":"Hacinamiento Leve","hacin_score":765.1,"auto_score":87.0,"n_per":66,"n_hog":19,"source_year":2024},"geometry":{"type":"Polygon","coordinates":[[[-72.4817490819999,-40.323388539069],[-72.4818501999999,-40.323776191069],[-72.4837632599999,-40.324271314069],[-72.4841943409999,-40.323711593069],[-72.4818858489999,-40.322936916069],[-72.4817490819999,-40.323388539069]]]}},{"type":"Feature","properties":{"id":"14203011001042","commune":"Lago Ranco","code":"14203","gse":"D","quintil":"Q1","nse_score":625.0,"educ":11.1,"educ_score":540.0,"hacin":1.025,"hacin_class":"Hacinamiento Leve","hacin_score":845.7,"auto_score":118.4,"n_per":121,"n_hog":50,"source_year":2024},"geometry":{"type":"Polygon","coordinates":[[[-72.4903142889999,-40.325613118069],[-72.4903820219999,-40.324828485069],[-72.4892817479999,-40.324771284069],[-72.4893289069999,-40.324415794069],[-72.4895846769999,-40.324166417069],[-72.4899022679999,-40.323389610069],[-72.4896852759999,-40.323348360069],[-72.4892397279999,-40.323811824069],[-72.4883853729999,-40.323640933069],[-72.4894082229999,-40.323926404069],[-72.4894533909999,-40.323986052069],[-72.4888742089999,-40.323823052069],[-72.4888205819999,-40.3240962870689],[-72.4886404579999,-40.324261856069],[-72.4888024429999,-40.324087823069],[-72.4888013919999,-40.323796249069],[-72.4886863929999,-40.323769540069],[-72.4886485519999,-40.324090532069],[-72.4886515819999,-40.3237486070689],[-72.4873641339999,-40.323598565069],[-72.4870280749999,-40.324024099069],[-72.4885341769999,-40.324497630069],[-72.488965634,-40.324521126069],[-72.4886116289999,-40.324541683069],[-72.4869795619999,-40.324052247069],[-72.4860099219999,-40.325531286069],[-72.4868962179999,-40.325730979069],[-72.4878859759999,-40.325733480069],[-72.4878773499999,-40.325339104069],[-72.4879716479999,-40.325323138069],[-72.4879964329999,-40.324985750069],[-72.4880187129999,-40.325324061069],[-72.488368008,-40.325330213069],[-72.4883816529999,-40.324964327069],[-72.4884150889999,-40.3253300990689],[-72.4889467019999,-40.325352900069],[-72.4879250199999,-40.325358156069],[-72.4879507219999,-40.325731620069],[-72.4903142889999,-40.325613118069]]]}},{"type":"Feature","properties":{"id":"14203011001044","commune":"Lago Ranco","code":"14203","gse":"D","quintil":"Q2","nse_score":667.5,"educ":11.6,"educ_score":573.3,"hacin":1.064,"hacin_class":"Hacinamiento Leve","hacin_score":837.5,"auto_score":21.7,"n_per":50,"n_hog":18,"source_year":2024},"geometry":{"type":"Polygon","coordinates":[[[-72.4837651809999,-40.3243553010689],[-72.4818899549999,-40.323840509069],[-72.4817096509999,-40.3243227280689],[-72.4834621839999,-40.324840945069],[-72.4837651809999,-40.3243553010689]]]}},{"type":"Feature","properties":{"id":"14203011001045","commune":"Lago Ranco","code":"14203","gse":"D","quintil":"Q1","nse_score":646.5,"educ":11.5,"educ_score":566.7,"hacin":1.302,"hacin_class":"Hacinamiento Leve","hacin_score":786.8,"auto_score":58.8,"n_per":138,"n_hog":52,"source_year":2024},"geometry":{"type":"Polygon","coordinates":[[[-72.4802344459999,-40.324560292069],[-72.4793991359999,-40.324495502069],[-72.4790382199999,-40.325070265069],[-72.4794827489999,-40.325193282069],[-72.4796480809999,-40.324899660069],[-72.4798646909999,-40.324926783069],[-72.4798485609999,-40.325294513069],[-72.4805324029999,-40.325483750069],[-72.4806940219999,-40.325211296069],[-72.4813917279999,-40.325408291069],[-72.4818981729999,-40.3248782940689],[-72.4824204869999,-40.3250334710689],[-72.4824455709999,-40.3257143790689],[-72.4828512349999,-40.325820641069],[-72.4829957589999,-40.325808911069],[-72.4834848979999,-40.324924362069],[-72.4797816289999,-40.3238647190689],[-72.4794311339999,-40.324443706069],[-72.4802344459999,-40.324560292069]]]}},{"type":"Feature","properties":{"id":"14203011001047","commune":"Lago Ranco","code":"14203","gse":"C3","quintil":"Q3","nse_score":702.7,"educ":13.5,"educ_score":700.0,"hacin":1.375,"hacin_class":"Hacinamiento Leve","hacin_score":771.3,"auto_score":130.4,"n_per":44,"n_hog":17,"source_year":2024},"geometry":{"type":"Polygon","coordinates":[[[-72.4787340799999,-40.325411306069],[-72.4793240109999,-40.324489864069],[-72.4769799399999,-40.324245777069],[-72.4767952899999,-40.324506583069],[-72.4778911959999,-40.324775764069],[-72.4779607049999,-40.324882992069],[-72.4778452039999,-40.3251816620689],[-72.4787340799999,-40.325411306069]]]}},{"type":"Feature","properties":{"id":"14203011001049","commune":"Lago Ranco","code":"14203","gse":"C3","quintil":"Q2","nse_score":682.6,"educ":13.2,"educ_score":680.0,"hacin":1.429,"hacin_class":"Hacinamiento Leve","hacin_score":759.9,"auto_score":130.4,"n_per":50,"n_hog":17,"source_year":2024},"geometry":{"type":"Polygon","coordinates":[[[-72.478820159,-40.325470139069],[-72.4763508489999,-40.324795920069],[-72.4762830029999,-40.324931821069],[-72.4787046769999,-40.325651080069],[-72.478820159,-40.325470139069]]]}},{"type":"Feature","properties":{"id":"14203011001050","commune":"Lago Ranco","code":"14203","gse":"E","quintil":"Q1","nse_score":530.0,"educ":8.9,"educ_score":393.3,"hacin":1.25,"hacin_class":"Hacinamiento Leve","hacin_score":797.9,"auto_score":0.0,"n_per":15,"n_hog":6,"source_year":2024},"geometry":{"type":"Polygon","coordinates":[[[-72.4816917829999,-40.325149276069],[-72.4823894689999,-40.325359949069],[-72.4823789379999,-40.325057173069],[-72.4819022309999,-40.324917783069],[-72.4816917829999,-40.325149276069]]]}},{"type":"Feature","properties":{"id":"14203011001052","commune":"Lago Ranco","code":"14203","gse":"C2","quintil":"Q3","nse_score":721.4,"educ":12.0,"educ_score":600.0,"hacin":1.172,"hacin_class":"Hacinamiento Leve","hacin_score":814.5,"auto_score":166.7,"n_per":75,"n_hog":27,"source_year":2024},"geometry":{"type":"Polygon","coordinates":[[[-72.4835515479999,-40.324942525069],[-72.4830664399999,-40.3258076530689],[-72.484705619,-40.325857323069],[-72.4846444309999,-40.326089175069],[-72.4859424569999,-40.325949230069],[-72.4858594499999,-40.325606935069],[-72.4835515479999,-40.324942525069]]]}},{"type":"Feature","properties":{"id":"14203011001053","commune":"Lago Ranco","code":"14203","gse":"D","quintil":"Q1","nse_score":633.2,"educ":11.5,"educ_score":566.7,"hacin":1.145,"hacin_class":"Hacinamiento Leve","hacin_score":820.1,"auto_score":118.4,"n_per":63,"n_hog":27,"source_year":2024},"geometry":{"type":"Polygon","coordinates":[[[-72.4810474049999,-40.326018626069],[-72.4812037519999,-40.3257269730689],[-72.4790074869999,-40.325119208069],[-72.4788279149999,-40.325405175069],[-72.4810474049999,-40.326018626069]]]}},{"type":"Feature","properties":{"id":"14203011001054","commune":"Lago Ranco","code":"14203","gse":"D","quintil":"Q2","nse_score":663.7,"educ":11.4,"educ_score":560.0,"hacin":1.125,"hacin_class":"Hacinamiento Leve","hacin_score":824.5,"auto_score":192.3,"n_per":27,"n_hog":12,"source_year":2024},"geometry":{"type":"Polygon","coordinates":[[[-72.4814411749999,-40.325416525069],[-72.4824024789999,-40.325699423069],[-72.4823914319999,-40.3253992610689],[-72.4816638219999,-40.325179551069],[-72.4814411749999,-40.325416525069]]]}},{"type":"Feature","properties":{"id":"14203011001055","commune":"Lago Ranco","code":"14203","gse":"D","quintil":"Q2","nse_score":655.2,"educ":12.3,"educ_score":620.0,"hacin":1.611,"hacin_class":"Hacinamiento Medio","hacin_score":721.0,"auto_score":45.5,"n_per":29,"n_hog":10,"source_year":2024},"geometry":{"type":"Polygon","coordinates":[[[-72.4811597709999,-40.3256573550689],[-72.4813691999999,-40.325440296069],[-72.4807106869999,-40.325251982069],[-72.4805767129999,-40.3254960120689],[-72.4811597709999,-40.3256573550689]]]}},{"type":"Feature","properties":{"id":"14203011001056","commune":"Lago Ranco","code":"14203","gse":"E","quintil":"Q1","nse_score":595.1,"educ":11.1,"educ_score":540.0,"hacin":1.15,"hacin_class":"Hacinamiento Leve","hacin_score":819.1,"auto_score":100.0,"n_per":23,"n_hog":9,"source_year":2024},"geometry":{"type":"Polygon","coordinates":[[[-72.4822019129999,-40.325945726069],[-72.4823876039999,-40.325733620069],[-72.481413357,-40.325452965069],[-72.4812742629999,-40.325689037069],[-72.4822019129999,-40.325945726069]]]}},{"type":"Feature","properties":{"id":"14203011001057","commune":"Lago Ranco","code":"14203","gse":"C2","quintil":"Q4","nse_score":743.0,"educ":12.7,"educ_score":646.7,"hacin":0.987,"hacin_class":"Sin Hacinamiento","hacin_score":853.9,"auto_score":171.9,"n_per":75,"n_hog":32,"source_year":2024},"geometry":{"type":"Polygon","coordinates":[[[-72.4888941519999,-40.327272979069],[-72.4903379129999,-40.326755253069],[-72.4904014019999,-40.326156726069],[-72.491094341,-40.326067986069],[-72.4911251139999,-40.325619722069],[-72.4902377219999,-40.325665929069],[-72.4901811809999,-40.326501618069],[-72.4901050969999,-40.326687611069],[-72.4901748109999,-40.325669405069],[-72.4889513549999,-40.325736731069],[-72.4889719989999,-40.326687130069],[-72.4889044469999,-40.325739462069],[-72.4884381269999,-40.325767734069],[-72.4884736329999,-40.326735158069],[-72.4883912409999,-40.325770643069],[-72.4871018289999,-40.325822580069],[-72.4859954999999,-40.325683118069],[-72.4862326979999,-40.327203779069],[-72.4868349319999,-40.327171286069],[-72.4868715729999,-40.3263697280689],[-72.4868984729999,-40.3271742450689],[-72.4862424479999,-40.3272627620689],[-72.4862504869999,-40.327778787069],[-72.4880730719999,-40.3272986890689],[-72.4888941519999,-40.327272979069]]]}},{"type":"Feature","properties":{"id":"14203011001058","commune":"Lago Ranco","code":"14203","gse":"D","quintil":"Q1","nse_score":640.1,"educ":11.8,"educ_score":586.7,"hacin":1.333,"hacin_class":"Hacinamiento Leve","hacin_score":780.1,"auto_score":142.9,"n_per":28,"n_hog":10,"source_year":2024},"geometry":{"type":"Polygon","coordinates":[[[-72.4820953479999,-40.326308251069],[-72.4822617579999,-40.326019734069],[-72.4812480099999,-40.325739220069],[-72.481116084,-40.326037607069],[-72.4820953479999,-40.326308251069]]]}},{"type":"Feature","properties":{"id":"14203011001059","commune":"Lago Ranco","code":"14203","gse":"E","quintil":"Q1","nse_score":592.6,"educ":8.6,"educ_score":373.3,"hacin":1.636,"hacin_class":"Hacinamiento Medio","hacin_score":715.7,"auto_score":0.0,"n_per":18,"n_hog":7,"source_year":2024},"geometry":{"type":"Polygon","coordinates":[[[-72.4824304469999,-40.325749149069],[-72.4823295759999,-40.325981051069],[-72.4830617239999,-40.326183636069],[-72.4830016899999,-40.325848858069],[-72.4824304469999,-40.325749149069]]]}},{"type":"Feature","properties":{"id":"14203011001060","commune":"Lago Ranco","code":"14203","gse":"C3","quintil":"Q3","nse_score":692.2,"educ":9.8,"educ_score":453.3,"hacin":1.0,"hacin_class":"Hacinamiento Leve","hacin_score":851.1,"auto_score":55.6,"n_per":26,"n_hog":10,"source_year":2024},"geometry":{"type":"Polygon","coordinates":[[[-72.4831341319999,-40.3261804350689],[-72.4845418719999,-40.326095828069],[-72.4845893569999,-40.326049841069],[-72.4845679199999,-40.325911863069],[-72.483091209,-40.325859410069],[-72.4831341319999,-40.3261804350689]]]}},{"type":"Feature","properties":{"id":"14203011001061","commune":"Lago Ranco","code":"14203","gse":"E","quintil":"Q1","nse_score":514.1,"educ":11.8,"educ_score":586.7,"hacin":1.667,"hacin_class":"Hacinamiento Medio","hacin_score":709.2,"auto_score":166.7,"n_per":20,"n_hog":7,"source_year":2024},"geometry":{"type":"Polygon","coordinates":[[[-72.4821642579999,-40.326327296069],[-72.4831171289999,-40.326590634069],[-72.4830707639999,-40.326243585069],[-72.4823060149999,-40.326031980069],[-72.4821642579999,-40.326327296069]]]}},{"type":"Feature","properties":{"id":"14203011001062","commune":"Lago Ranco","code":"14203","gse":"E","quintil":"Q1","nse_score":607.0,"educ":9.8,"educ_score":453.3,"hacin":1.06,"hacin_class":"Hacinamiento Leve","hacin_score":838.3,"auto_score":209.7,"n_per":53,"n_hog":24,"source_year":2024},"geometry":{"type":"Polygon","coordinates":[[[-72.4841502909999,-40.326195178069],[-72.4842473319999,-40.326533810069],[-72.4860035059999,-40.326376556069],[-72.4859203869999,-40.3260520570689],[-72.4841502909999,-40.326195178069]]]}},{"type":"Feature","properties":{"id":"14203011001063","commune":"Lago Ranco","code":"14203","gse":"E","quintil":"Q1","nse_score":608.8,"educ":10.0,"educ_score":466.7,"hacin":1.52,"hacin_class":"Hacinamiento Medio","hacin_score":740.4,"auto_score":31.2,"n_per":38,"n_hog":15,"source_year":2024},"geometry":{"type":"Polygon","coordinates":[[[-72.4832017179999,-40.326241835069],[-72.4831861629999,-40.3265955340689],[-72.4841224929999,-40.3265218740689],[-72.4840745289999,-40.3261916850689],[-72.4832017179999,-40.326241835069]]]}},{"type":"Feature","properties":{"id":"14203011001064","commune":"Lago Ranco","code":"14203","gse":"D","quintil":"Q1","nse_score":613.4,"educ":10.8,"educ_score":520.0,"hacin":1.288,"hacin_class":"Hacinamiento Leve","hacin_score":789.9,"auto_score":131.6,"n_per":94,"n_hog":30,"source_year":2024},"geometry":{"type":"Polygon","coordinates":[[[-72.4845284869999,-40.3298968320689],[-72.4849120879999,-40.329813901069],[-72.4847694529999,-40.329263476069],[-72.4849804569999,-40.329800125069],[-72.4863051479999,-40.329506890069],[-72.4861820779999,-40.328160723069],[-72.4852761309999,-40.3281833050689],[-72.4861785289999,-40.3281247970689],[-72.4861702129999,-40.327983532069],[-72.4854788479999,-40.328001017069],[-72.4861681879999,-40.3279465560689],[-72.4860121309999,-40.326469137069],[-72.4831255439999,-40.3266580840689],[-72.4816603489999,-40.326244863069],[-72.481425123,-40.326696339069],[-72.485336388,-40.3278702190689],[-72.4853139099999,-40.327982270069],[-72.4842063749999,-40.327949868069],[-72.4843351669999,-40.3288804350689],[-72.4842023659999,-40.328904485069],[-72.4845284869999,-40.3298968320689]]]}},{"type":"Feature","properties":{"id":"14203011001066","commune":"Lago Ranco","code":"14203","gse":"E","quintil":"Q1","nse_score":579.5,"educ":10.7,"educ_score":513.3,"hacin":0.913,"hacin_class":"Sin Hacinamiento","hacin_score":869.6,"auto_score":66.7,"n_per":21,"n_hog":9,"source_year":2024},"geometry":{"type":"Polygon","coordinates":[[[-72.4838974769999,-40.330088803069],[-72.4839230419999,-40.330243455069],[-72.4851794569999,-40.3301406490689],[-72.4851631939999,-40.3309383600689],[-72.4858411709999,-40.3309502410689],[-72.4858592649999,-40.3306367940689],[-72.4865241019999,-40.3305271390689],[-72.4862934069999,-40.329568837069],[-72.4855815889999,-40.3297271740689],[-72.4857467529999,-40.3307211760689],[-72.485643734,-40.3308711520689],[-72.4854618109999,-40.3308589560689],[-72.4856761259999,-40.3307227020689],[-72.4855100439999,-40.3297435070689],[-72.4838974769999,-40.330088803069]]]}},{"type":"Feature","properties":{"id":"14203011001008","commune":"Lago Ranco","code":"14203","gse":"C2","quintil":"Q4","nse_score":745.1,"educ":14.4,"educ_score":760.0,"hacin":1.222,"hacin_class":"Hacinamiento Leve","hacin_score":803.8,"auto_score":0.0,"n_per":11,"n_hog":4,"source_year":2024},"geometry":{"type":"MultiPolygon","coordinates":[[[[-72.4812435019999,-40.321554307069],[-72.4814532739999,-40.320739396069],[-72.4805362099999,-40.320627462069],[-72.4806903229999,-40.321465178069],[-72.4812435019999,-40.321554307069]]],[[[-72.4763344509999,-40.320570736069],[-72.4784672239999,-40.321144237069],[-72.4806336709999,-40.321430919069],[-72.4804576539999,-40.320606887069],[-72.4788841899999,-40.320400310069],[-72.4789044149999,-40.320579525069],[-72.478756185,-40.320949011069],[-72.4788500689999,-40.320394635069],[-72.4773990179999,-40.320187727069],[-72.4771575069999,-40.320315974069],[-72.4763344509999,-40.320570736069]]],[[[-72.4757015869999,-40.320261519069],[-72.4762876899999,-40.320553669069],[-72.4773421479999,-40.320179052069],[-72.4761015109999,-40.319937622069],[-72.4757015869999,-40.320261519069]]]]}},{"type":"Feature","properties":{"id":"14203011001046","commune":"Lago Ranco","code":"14203","gse":"D","quintil":"Q1","nse_score":635.2,"educ":13.9,"educ_score":726.7,"hacin":1.692,"hacin_class":"Hacinamiento Medio","hacin_score":703.8,"auto_score":208.3,"n_per":22,"n_hog":6,"source_year":2024},"geometry":{"type":"MultiPolygon","coordinates":[[[[-72.4777482809999,-40.325091718069],[-72.4778411469999,-40.324822596069],[-72.4767846579999,-40.324619286069],[-72.4766521869999,-40.324768421069],[-72.4777482809999,-40.325091718069]]],[[[-72.4766630659999,-40.324170516069],[-72.4763782669999,-40.324740999069],[-72.4765697989999,-40.324750294069],[-72.4768465989999,-40.324248599069],[-72.4766630659999,-40.324170516069]]]]}},{"type":"Feature","properties":{"id":"14203011001024","commune":"Lago Ranco","code":"14203","gse":"E","quintil":"Q1","nse_score":608.5,"educ":10.3,"educ_score":486.7,"hacin":1.17,"hacin_class":"Hacinamiento Leve","hacin_score":815.0,"auto_score":153.2,"n_per":131,"n_hog":49,"source_year":2024},"geometry":{"type":"MultiPolygon","coordinates":[[[[-72.4670647639999,-40.322575896069],[-72.4662527249999,-40.322827295069],[-72.4658692719999,-40.323424072069],[-72.4663821679999,-40.323508540069],[-72.4665802199999,-40.323200434069],[-72.466819331,-40.323061738069],[-72.4670150899999,-40.323019219069],[-72.467713881,-40.323016974069],[-72.467800871,-40.322980263069],[-72.4674761479999,-40.322579868069],[-72.4670647639999,-40.322575896069]]],[[[-72.4673757059999,-40.322393027069],[-72.4678589909999,-40.322954119069],[-72.4685688499999,-40.323169758069],[-72.4678204889999,-40.323029387069],[-72.4673759119999,-40.324209168069],[-72.4673073539999,-40.324273208069],[-72.4671933379999,-40.324286076069],[-72.4668084019999,-40.324166934069],[-72.4673543979999,-40.324201494069],[-72.4677897729999,-40.323030812069],[-72.466728525,-40.323127414069],[-72.4659585049999,-40.324343870069],[-72.4669183829999,-40.324533034069],[-72.4678563659999,-40.324341726069],[-72.4692458729999,-40.324430928069],[-72.4691349939999,-40.324333280069],[-72.4692553939999,-40.3241857010689],[-72.4689632979999,-40.324060234069],[-72.4691070019999,-40.323801421069],[-72.4686773639999,-40.323705916069],[-72.4686591999999,-40.323487524069],[-72.4684639259999,-40.323397150069],[-72.468813441,-40.322882717069],[-72.469426617,-40.322485799069],[-72.4702110709999,-40.322308788069],[-72.4705220269999,-40.322119710069],[-72.4690730709999,-40.321644051069],[-72.468905048,-40.321914610069],[-72.4696886169999,-40.322181624069],[-72.4696645989999,-40.322220710069],[-72.4688892119999,-40.321947781069],[-72.4687186509999,-40.322179688069],[-72.4693620169999,-40.322398944069],[-72.4693353079999,-40.322438986069],[-72.4686372399999,-40.322156575069],[-72.4689812059999,-40.321616647069],[-72.468393536,-40.321398609069],[-72.4673010239999,-40.322048086069],[-72.4673757059999,-40.322393027069]]]]}},{"type":"Feature","properties":{"id":"14203011001037","commune":"Lago Ranco","code":"14203","gse":"D","quintil":"Q1","nse_score":636.1,"educ":11.3,"educ_score":553.3,"hacin":0.656,"hacin_class":"Sin Hacinamiento","hacin_score":924.2,"auto_score":93.8,"n_per":21,"n_hog":10,"source_year":2024},"geometry":{"type":"MultiPolygon","coordinates":[[[[-72.487728048,-40.323050338069],[-72.4874435119999,-40.323519585069],[-72.489203787,-40.323785822069],[-72.4895781509999,-40.323358140069],[-72.4884412359999,-40.323067116069],[-72.4888327639999,-40.323305634069],[-72.487728048,-40.323050338069]]],[[[-72.4893555959999,-40.322687742069],[-72.4891880199999,-40.322866508069],[-72.489354955,-40.323196584069],[-72.4895067689999,-40.323252880069],[-72.4896935429999,-40.323049469069],[-72.4896087689999,-40.323311861069],[-72.4904633389999,-40.323529096069],[-72.4908147259999,-40.323033213069],[-72.4904607109999,-40.322766076069],[-72.4893555959999,-40.322687742069]]]]}},{"type":"Feature","properties":{"id":"14203011001005","commune":"Lago Ranco","code":"14203","gse":"D","quintil":"Q1","nse_score":643.4,"educ":11.8,"educ_score":586.7,"hacin":1.077,"hacin_class":"Hacinamiento Leve","hacin_score":834.7,"auto_score":41.7,"n_per":14,"n_hog":8,"source_year":2024},"geometry":{"type":"MultiPolygon","coordinates":[[[[-72.4696761549999,-40.320638397069],[-72.4715067839999,-40.321182016069],[-72.471924397,-40.319685575069],[-72.4714836629999,-40.319501134069],[-72.4696761549999,-40.320638397069]]],[[[-72.4736576159999,-40.320559867069],[-72.4744385639999,-40.320509138069],[-72.4720696939999,-40.319506097069],[-72.4720430629999,-40.319825849069],[-72.4736576159999,-40.320559867069]]]]}},{"type":"Feature","properties":{"id":"14203011001002","commune":"Lago Ranco","code":"14203","gse":"D","quintil":"Q2","nse_score":660.2,"educ":10.5,"educ_score":500.0,"hacin":0.923,"hacin_class":"Sin Hacinamiento","hacin_score":867.4,"auto_score":0.0,"n_per":12,"n_hog":5,"source_year":2024},"geometry":{"type":"MultiPolygon","coordinates":[[[[-72.4745405509999,-40.320503344069],[-72.4749957959999,-40.320342706069],[-72.4740296979999,-40.319914294069],[-72.4738161479999,-40.320165702069],[-72.4745405509999,-40.320503344069]]],[[[-72.4682884029999,-40.317228010069],[-72.4755055969999,-40.320502915069],[-72.4759545419999,-40.319901867069],[-72.4740291399999,-40.318893219069],[-72.473840203,-40.318876218069],[-72.4736445909999,-40.318997157069],[-72.4734514189999,-40.318994781069],[-72.4721684819999,-40.318439990069],[-72.4735187359999,-40.318981938069],[-72.4737021869999,-40.318906764069],[-72.4734960909999,-40.318529435069],[-72.4737557389999,-40.318837024069],[-72.4743733619999,-40.318919065069],[-72.4742947639999,-40.318749528069],[-72.4735531439999,-40.318390592069],[-72.4734998469999,-40.318122333069],[-72.4717974009999,-40.317900750069],[-72.4697937089999,-40.317319340069],[-72.4696461769999,-40.317498435069],[-72.4694509149999,-40.317528098069],[-72.4697664309999,-40.317309793069],[-72.4685961229999,-40.316853279069],[-72.4682884029999,-40.317228010069]]]]}},{"type":"Feature","properties":{"id":"14203011001013","commune":"Lago Ranco","code":"14203","gse":"E","quintil":"Q1","nse_score":582.1,"educ":10.2,"educ_score":480.0,"hacin":1.167,"hacin_class":"Hacinamiento Leve","hacin_score":815.6,"auto_score":181.8,"n_per":21,"n_hog":7,"source_year":2024},"geometry":{"type":"MultiPolygon","coordinates":[[[[-72.4736557439999,-40.321066351069],[-72.4739608509999,-40.320777052069],[-72.4735391709999,-40.320587067069],[-72.4731872649999,-40.320965377069],[-72.4736557439999,-40.321066351069]]],[[[-72.4731124189999,-40.320947439069],[-72.4734767209999,-40.320561056069],[-72.4730498769999,-40.320351168069],[-72.4726401309999,-40.320749093069],[-72.4731124189999,-40.320947439069]]]]}},{"type":"Feature","properties":{"id":"14203011001012","commune":"Lago Ranco","code":"14203","gse":"C2","quintil":"Q4","nse_score":746.6,"educ":14.3,"educ_score":753.3,"hacin":1.158,"hacin_class":"Hacinamiento Leve","hacin_score":817.5,"auto_score":115.4,"n_per":22,"n_hog":10,"source_year":2024},"geometry":{"type":"MultiPolygon","coordinates":[[[[-72.4751430589999,-40.320402421069],[-72.4738300109999,-40.320631027069],[-72.474498121,-40.320954007069],[-72.4760551809999,-40.321285503069],[-72.4755486339999,-40.320598340069],[-72.4751430589999,-40.320402421069]]],[[[-72.4779205539999,-40.321769491069],[-72.4781443989999,-40.321128036069],[-72.4756176919999,-40.320368053069],[-72.4758621679999,-40.320958269069],[-72.4762801459999,-40.321344256069],[-72.4779205539999,-40.321769491069]]]]}},{"type":"Feature","properties":{"id":"14203033049001","commune":"Lago Ranco","code":"14203","gse":"D","quintil":"Q1","nse_score":644.7,"educ":10.2,"educ_score":480.0,"hacin":0.929,"hacin_class":"Sin Hacinamiento","hacin_score":866.3,"auto_score":0.0,"n_per":26,"n_hog":12,"source_year":2024},"geometry":{"type":"Polygon","coordinates":[[[-72.5563655009999,-40.3269534380689],[-72.5556009049999,-40.327766135069],[-72.5557091539999,-40.327865821069],[-72.5550864949999,-40.3285671490689],[-72.5562534039999,-40.329433778069],[-72.557181393,-40.328360641069],[-72.5564918259999,-40.3277833840689],[-72.5572580119999,-40.328264035069],[-72.5576740389999,-40.3277530260689],[-72.5563655009999,-40.3269534380689]]]}},{"type":"Feature","properties":{"id":"14203033049002","commune":"Lago Ranco","code":"14203","gse":"D","quintil":"Q2","nse_score":656.3,"educ":9.1,"educ_score":406.7,"hacin":0.87,"hacin_class":"Sin Hacinamiento","hacin_score":878.8,"auto_score":50.0,"n_per":20,"n_hog":10,"source_year":2024},"geometry":{"type":"Polygon","coordinates":[[[-72.5540622949999,-40.3304094940689],[-72.5548888939999,-40.330742561069],[-72.5562061629999,-40.3295299880689],[-72.5547910289999,-40.328445177069],[-72.5544457899999,-40.328710138069],[-72.5556558819999,-40.329459278069],[-72.5548136619999,-40.330319233069],[-72.554357304,-40.3300749670689],[-72.5540622949999,-40.3304094940689]]]}},{"type":"Feature","properties":{"id":"14203033049003","commune":"Lago Ranco","code":"14203","gse":"D","quintil":"Q1","nse_score":624.8,"educ":9.1,"educ_score":406.7,"hacin":1.286,"hacin_class":"Hacinamiento Leve","hacin_score":790.3,"auto_score":0.0,"n_per":9,"n_hog":4,"source_year":2024},"geometry":{"type":"Polygon","coordinates":[[[-72.5569767639999,-40.3299111290689],[-72.5574679579999,-40.3294849720689],[-72.5567843919999,-40.329092268069],[-72.5564676979999,-40.3295810190689],[-72.5569767639999,-40.3299111290689]]]}},{"type":"Feature","properties":{"id":"14203033049005","commune":"Lago Ranco","code":"14203","gse":"E","quintil":"Q1","nse_score":612.0,"educ":9.5,"educ_score":433.3,"hacin":1.0,"hacin_class":"Hacinamiento Leve","hacin_score":851.1,"auto_score":0.0,"n_per":10,"n_hog":6,"source_year":2024},"geometry":{"type":"Polygon","coordinates":[[[-72.5550006089999,-40.330817157069],[-72.5558988559999,-40.3313644330689],[-72.5564873569999,-40.3307657890689],[-72.5556373499999,-40.330229146069],[-72.5550006089999,-40.330817157069]]]}},{"type":"Feature","properties":{"id":"14203033049006","commune":"Lago Ranco","code":"14203","gse":"D","quintil":"Q2","nse_score":653.3,"educ":9.6,"educ_score":440.0,"hacin":1.368,"hacin_class":"Hacinamiento Leve","hacin_score":772.7,"auto_score":45.5,"n_per":26,"n_hog":11,"source_year":2024},"geometry":{"type":"Polygon","coordinates":[[[-72.5500393749999,-40.3323670890689],[-72.5505285629999,-40.3323590920689],[-72.5510401469999,-40.3326922160689],[-72.5517985999999,-40.3327517030689],[-72.5532262769999,-40.3321360170689],[-72.5544546739999,-40.3311247460689],[-72.5539758069999,-40.330723212069],[-72.554552827,-40.3310087480689],[-72.5547402089999,-40.3308362370689],[-72.5535910449999,-40.3303475010689],[-72.5533811529999,-40.3306717740689],[-72.5536651169999,-40.330801189069],[-72.5530815109999,-40.3314430640689],[-72.5531993569999,-40.331537737069],[-72.552893202,-40.3317854480689],[-72.5527682089999,-40.3317029100689],[-72.5516374699999,-40.3323530180689],[-72.5502458509999,-40.3318434570689],[-72.5499777029999,-40.3322705600689],[-72.5500393749999,-40.3323670890689]]]}},{"type":"Feature","properties":{"id":"14203033049008","commune":"Lago Ranco","code":"14203","gse":"D","quintil":"Q2","nse_score":659.7,"educ":9.5,"educ_score":433.3,"hacin":1.01,"hacin_class":"Hacinamiento Leve","hacin_score":849.0,"auto_score":36.6,"n_per":102,"n_hog":41,"source_year":2024},"geometry":{"type":"Polygon","coordinates":[[[-72.5561868649999,-40.332496868069],[-72.5560065409999,-40.332706710069],[-72.5570880639999,-40.3334254550689],[-72.5574915729999,-40.3330581900689],[-72.5560638039999,-40.3320613420689],[-72.5556393079999,-40.3320727630689],[-72.5559191329999,-40.3319547420689],[-72.5560999719999,-40.332028981069],[-72.5575352629999,-40.333026451069],[-72.5578043799999,-40.3328037340689],[-72.5565254199999,-40.3318787180689],[-72.554975796,-40.3309774970689],[-72.5548151819999,-40.3309537030689],[-72.554593726,-40.3311594410689],[-72.5555982499999,-40.3324427620689],[-72.5559700849999,-40.3326839210689],[-72.5561868649999,-40.332496868069]]]}},{"type":"Feature","properties":{"id":"14203033049009","commune":"Lago Ranco","code":"14203","gse":"D","quintil":"Q2","nse_score":657.2,"educ":9.7,"educ_score":446.7,"hacin":1.271,"hacin_class":"Hacinamiento Leve","hacin_score":793.3,"auto_score":162.2,"n_per":89,"n_hog":37,"source_year":2024},"geometry":{"type":"Polygon","coordinates":[[[-72.5598594719999,-40.3312383340689],[-72.5589623229999,-40.3319219400689],[-72.5582292019999,-40.331388504069],[-72.5580466439999,-40.3315382550689],[-72.5581695079999,-40.331647361069],[-72.5580318419999,-40.3315767800689],[-72.557424593,-40.3320748970689],[-72.5590108159999,-40.3332183640689],[-72.5592440709999,-40.3329813620689],[-72.5591599019999,-40.3328647410689],[-72.5594423109999,-40.332628132069],[-72.5592105349999,-40.3328723400689],[-72.5592896299999,-40.3329931390689],[-72.5590453449999,-40.3332428430689],[-72.5593792139999,-40.3334688680689],[-72.5600515629999,-40.3327639460689],[-72.5593820299999,-40.3322535370689],[-72.5598153419999,-40.3318211220689],[-72.5594272069999,-40.332224245069],[-72.5598331939999,-40.332530435069],[-72.5603404639999,-40.3320729980689],[-72.5612752059999,-40.3327098270689],[-72.5607748919999,-40.333259148069],[-72.5612093249999,-40.3336542220689],[-72.5614948899999,-40.333508084069],[-72.5604214179999,-40.3343897200689],[-72.56061969,-40.3345523040689],[-72.5606973929999,-40.334352506069],[-72.5609502449999,-40.3342362340689],[-72.5617936209999,-40.3343305920689],[-72.5619379149999,-40.3339192700689],[-72.5624334039999,-40.3337045200689],[-72.5622942869999,-40.332949378069],[-72.5598594719999,-40.3312383340689]]]}},{"type":"Feature","properties":{"id":"14203033049010","commune":"Lago Ranco","code":"14203","gse":"D","quintil":"Q1","nse_score":619.5,"educ":9.3,"educ_score":420.0,"hacin":1.451,"hacin_class":"Hacinamiento Leve","hacin_score":755.1,"auto_score":0.0,"n_per":74,"n_hog":27,"source_year":2024},"geometry":{"type":"Polygon","coordinates":[[[-72.5541910489999,-40.3324136210689],[-72.5535366979999,-40.3320507530689],[-72.5525432729999,-40.3326010040689],[-72.553489108,-40.3332256120689],[-72.553780592,-40.3331393570689],[-72.5542505359999,-40.3334576100689],[-72.5537657209999,-40.3332077660689],[-72.5534534159999,-40.333294022069],[-72.5524213249999,-40.3326426440689],[-72.5516271799999,-40.3329460250689],[-72.5514397979999,-40.3332732010689],[-72.5514569849999,-40.3338281900689],[-72.5521490109999,-40.3337060830689],[-72.5529418379999,-40.3341949420689],[-72.5532309139999,-40.3338942220689],[-72.5547039999999,-40.3346160880689],[-72.5551374539999,-40.333753821069],[-72.5562333409999,-40.3344783980689],[-72.5572684059999,-40.3349483420689],[-72.558032808,-40.3342166580689],[-72.5582067199999,-40.334268402069],[-72.5589139729999,-40.333511567069],[-72.5578957509999,-40.3328412100689],[-72.5576153319999,-40.3330975970689],[-72.5583729519999,-40.3337391000689],[-72.5575753569999,-40.3331261510689],[-72.557176147,-40.3334851200689],[-72.5574703699999,-40.3336878000689],[-72.5576927689999,-40.3335064320689],[-72.5575053999999,-40.3337119310689],[-72.5579125369999,-40.3340539340689],[-72.5565168599999,-40.3331402050689],[-72.5558217839999,-40.3339211550689],[-72.5555669329999,-40.3337456570689],[-72.5558568499999,-40.3338652960689],[-72.5564628839999,-40.333104228069],[-72.5554227629999,-40.3323946190689],[-72.5544938789999,-40.3312501300689],[-72.553637825,-40.3319763950689],[-72.5541910489999,-40.3324136210689]]]}},{"type":"Feature","properties":{"id":"14203033049012","commune":"Lago Ranco","code":"14203","gse":"D","quintil":"Q1","nse_score":636.1,"educ":9.3,"educ_score":420.0,"hacin":1.29,"hacin_class":"Hacinamiento Leve","hacin_score":789.5,"auto_score":31.2,"n_per":49,"n_hog":16,"source_year":2024},"geometry":{"type":"Polygon","coordinates":[[[-72.5598928779999,-40.3325605560689],[-72.5607252559999,-40.3332198330689],[-72.561203782,-40.3327321040689],[-72.5603502319999,-40.332130004069],[-72.5598928779999,-40.3325605560689]]]}},{"type":"Feature","properties":{"id":"14203033049013","commune":"Lago Ranco","code":"14203","gse":"C3","quintil":"Q3","nse_score":710.8,"educ":11.3,"educ_score":553.3,"hacin":1.091,"hacin_class":"Hacinamiento Leve","hacin_score":831.7,"auto_score":0.0,"n_per":12,"n_hog":5,"source_year":2024},"geometry":{"type":"Polygon","coordinates":[[[-72.5513987119999,-40.3327973490689],[-72.5510218059999,-40.3327573740689],[-72.5503422319999,-40.3323804670689],[-72.5500300459999,-40.3324585130689],[-72.5500738279999,-40.3327687950689],[-72.5503669779999,-40.332968670069],[-72.5513987119999,-40.3327973490689]]]}},{"type":"Feature","properties":{"id":"14203033049014","commune":"Lago Ranco","code":"14203","gse":"C3","quintil":"Q3","nse_score":691.5,"educ":10.1,"educ_score":473.3,"hacin":1.049,"hacin_class":"Hacinamiento Leve","hacin_score":840.7,"auto_score":100.0,"n_per":43,"n_hog":20,"source_year":2024},"geometry":{"type":"Polygon","coordinates":[[[-72.5607358629999,-40.3338118330689],[-72.5598003789999,-40.3331785740689],[-72.5594720129999,-40.3335164580689],[-72.5604571099999,-40.3342707470689],[-72.5611281179999,-40.3337306090689],[-72.5601015199999,-40.3328035140689],[-72.5598274679999,-40.333102127069],[-72.5607358629999,-40.3338118330689]]]}},{"type":"Feature","properties":{"id":"14203033049004","commune":"Lago Ranco","code":"14203","gse":"C3","quintil":"Q3","nse_score":717.5,"educ":12.2,"educ_score":613.3,"hacin":1.083,"hacin_class":"Hacinamiento Leve","hacin_score":833.3,"auto_score":111.1,"n_per":13,"n_hog":8,"source_year":2024},"geometry":{"type":"MultiPolygon","coordinates":[[[[-72.5573400159999,-40.3320126380689],[-72.5576295479999,-40.3318540100689],[-72.5567373559999,-40.3312776610689],[-72.557118666,-40.330960079069],[-72.5567816469999,-40.330636275069],[-72.5561122139999,-40.3312512110689],[-72.5573400159999,-40.3320126380689]]],[[[-72.5556829539999,-40.330187941069],[-72.5565292639999,-40.330722250069],[-72.5570885859999,-40.330192549069],[-72.5563301329999,-40.329633375069],[-72.5556829539999,-40.330187941069]]]]}}]}