{"type":"FeatureCollection","features":[{"type":"Feature","properties":{"id":"6203011001001","commune":"Litueche","code":"06203","gse":"D","quintil":"Q1","nse_score":624.5,"educ":10.5,"educ_score":500.0,"hacin":1.567,"hacin_class":"Hacinamiento Medio","hacin_score":730.4,"auto_score":337.8,"n_per":105,"n_hog":36,"source_year":2024,"crime_score":0.754,"crime_nivel":"Alto","crime_color":"#f44336"},"geometry":{"type":"Polygon","coordinates":[[[-71.7210786549999,-34.1055090701235],[-71.7213315159999,-34.1091326921235],[-71.7223126539999,-34.1091030691235],[-71.7223574969999,-34.1086940541235],[-71.7223560019999,-34.1091012011235],[-71.7226836809999,-34.1090869381235],[-71.7226830149999,-34.1087022281235],[-71.7227270169999,-34.1090867201235],[-71.7234674899999,-34.1091202411235],[-71.7235131209999,-34.1085555251235],[-71.72475492,-34.1084457891235],[-71.7245149849999,-34.1077944201235],[-71.7240402899999,-34.1077826721235],[-71.7241713729999,-34.1081603341235],[-71.7239945919999,-34.1077857001235],[-71.7235980279999,-34.1078016541235],[-71.723455155,-34.1073346621235],[-71.7236615679999,-34.1077661721235],[-71.7245022809999,-34.1077422711235],[-71.7241800859999,-34.1068843141235],[-71.7218382189999,-34.1066308571235],[-71.7217936459999,-34.1065676171235],[-71.72172015,-34.1059326371236],[-71.7215895059999,-34.1057448391235],[-71.7217435399999,-34.1059118721235],[-71.7218725679999,-34.1066209201235],[-71.7241267769999,-34.1068435521235],[-71.7236506899999,-34.1056739781235],[-71.7210786549999,-34.1055090701235]]]}},{"type":"Feature","properties":{"id":"6203011001002","commune":"Litueche","code":"06203","gse":"C3","quintil":"Q3","nse_score":684.9,"educ":11.7,"educ_score":580.0,"hacin":1.205,"hacin_class":"Hacinamiento Leve","hacin_score":807.5,"auto_score":202.1,"n_per":100,"n_hog":48,"source_year":2024,"crime_score":0.728,"crime_nivel":"Alto","crime_color":"#f44336"},"geometry":{"type":"Polygon","coordinates":[[[-71.7237274669999,-34.1056697131235],[-71.7251188209999,-34.1091297961235],[-71.7255454929999,-34.1094126251235],[-71.7259265549999,-34.1099926981235],[-71.7262666749999,-34.1109171001235],[-71.7260547719999,-34.1117777381235],[-71.7256166159999,-34.1124140171234],[-71.7258740809999,-34.1132002481234],[-71.7273137559999,-34.1127985421235],[-71.7258949639999,-34.1132514581234],[-71.7259778079999,-34.1134546101234],[-71.7270605949999,-34.1131500891234],[-71.7259938209999,-34.1134949741234],[-71.7268262919999,-34.1155356121234],[-71.7285099129999,-34.1151184391234],[-71.7285655929999,-34.1143861821234],[-71.7278486189999,-34.1133924961235],[-71.7273335329999,-34.1115746271235],[-71.7271224479999,-34.1100163161235],[-71.7262471109999,-34.1101870981235],[-71.7261828869999,-34.1100180881235],[-71.7262223339999,-34.1087829081235],[-71.7264954369999,-34.1082228531235],[-71.726431224,-34.1079966311235],[-71.7260958259999,-34.1077988021235],[-71.7249685369999,-34.1078694371235],[-71.7241015609999,-34.1055903161236],[-71.7237274669999,-34.1056697131235]]]}},{"type":"Feature","properties":{"id":"6203011001003","commune":"Litueche","code":"06203","gse":"E","quintil":"Q1","nse_score":604.2,"educ":9.1,"educ_score":406.7,"hacin":1.412,"hacin_class":"Hacinamiento Leve","hacin_score":763.5,"auto_score":62.5,"n_per":24,"n_hog":8,"source_year":2024,"crime_score":0.7328,"crime_nivel":"Alto","crime_color":"#f44336"},"geometry":{"type":"Polygon","coordinates":[[[-71.7249137749999,-34.1088925951235],[-71.7247616249999,-34.1085039031235],[-71.7243213949999,-34.1085617051235],[-71.7243516009999,-34.1089407691235],[-71.7249137749999,-34.1088925951235]]]}},{"type":"Feature","properties":{"id":"6203011001004","commune":"Litueche","code":"06203","gse":"D","quintil":"Q2","nse_score":644.0,"educ":10.7,"educ_score":513.3,"hacin":1.261,"hacin_class":"Hacinamiento Leve","hacin_score":795.6,"auto_score":227.3,"n_per":29,"n_hog":10,"source_year":2024,"crime_score":0.7192,"crime_nivel":"Alto","crime_color":"#f44336"},"geometry":{"type":"Polygon","coordinates":[[[-71.7242645849999,-34.1085344481235],[-71.7238261649999,-34.1085727841235],[-71.7238551949999,-34.1091560391235],[-71.7242793349999,-34.1091630081235],[-71.7242645849999,-34.1085344481235]]]}},{"type":"Feature","properties":{"id":"6203011001005","commune":"Litueche","code":"06203","gse":"E","quintil":"Q1","nse_score":587.1,"educ":9.6,"educ_score":440.0,"hacin":1.692,"hacin_class":"Hacinamiento Medio","hacin_score":703.8,"auto_score":142.9,"n_per":22,"n_hog":7,"source_year":2024,"crime_score":0.7387,"crime_nivel":"Alto","crime_color":"#f44336"},"geometry":{"type":"Polygon","coordinates":[[[-71.7237762479999,-34.1091484571235],[-71.7237815509999,-34.1085856931235],[-71.7235472609999,-34.1085810321235],[-71.7235332829999,-34.1091134841235],[-71.7237762479999,-34.1091484571235]]]}},{"type":"Feature","properties":{"id":"6203011001007","commune":"Litueche","code":"06203","gse":"D","quintil":"Q2","nse_score":650.9,"educ":10.9,"educ_score":526.7,"hacin":1.422,"hacin_class":"Hacinamiento Leve","hacin_score":761.2,"auto_score":245.8,"n_per":165,"n_hog":54,"source_year":2024,"crime_score":0.7646,"crime_nivel":"Alto","crime_color":"#f44336"},"geometry":{"type":"Polygon","coordinates":[[[-71.7234930209999,-34.1095291181235],[-71.7229178499999,-34.1092653721235],[-71.7226938609999,-34.1095616611235],[-71.7231884379999,-34.1098409481235],[-71.7226742119999,-34.1095876531235],[-71.7224374899999,-34.1099007821235],[-71.7229437409999,-34.1101974251235],[-71.7224179039999,-34.1099266891235],[-71.7221894299999,-34.1102289051235],[-71.7226766719999,-34.1105085011234],[-71.7221698029999,-34.1102548671235],[-71.7219402619999,-34.1105584931235],[-71.7224201079999,-34.1108052301235],[-71.7219257449999,-34.1105870101235],[-71.7217458,-34.1108274371235],[-71.7217679909999,-34.1112242991235],[-71.7222993859999,-34.1114254371235],[-71.7238856809999,-34.1092228691235],[-71.7230255419999,-34.1091196161235],[-71.7229372839999,-34.1092392561235],[-71.7234930209999,-34.1095291181235]]]}},{"type":"Feature","properties":{"id":"6203011001008","commune":"Litueche","code":"06203","gse":"E","quintil":"Q1","nse_score":602.3,"educ":10.4,"educ_score":493.3,"hacin":1.431,"hacin_class":"Hacinamiento Leve","hacin_score":759.4,"auto_score":271.4,"n_per":83,"n_hog":31,"source_year":2024,"crime_score":0.7549,"crime_nivel":"Alto","crime_color":"#f44336"},"geometry":{"type":"Polygon","coordinates":[[[-71.7229624289999,-34.1091209461235],[-71.7209284489999,-34.1091467991235],[-71.7200053289999,-34.1103678191234],[-71.7217024119999,-34.1111909481235],[-71.7216819199999,-34.1108171511235],[-71.721870469,-34.1105585881235],[-71.7215008489999,-34.1103325441235],[-71.7218953129999,-34.1105350401235],[-71.7221243279999,-34.1102321111235],[-71.7217678129999,-34.1100179271235],[-71.7221439549999,-34.1102061491235],[-71.722372774,-34.1099034761235],[-71.7220217719999,-34.1096895361235],[-71.7223923709999,-34.1098775521235],[-71.7226285389999,-34.1095651551235],[-71.7223878989999,-34.1094151791235],[-71.7226481879999,-34.1095391631235],[-71.7229624289999,-34.1091209461235]]]}},{"type":"Feature","properties":{"id":"6203011001010","commune":"Litueche","code":"06203","gse":"D","quintil":"Q1","nse_score":617.0,"educ":10.2,"educ_score":480.0,"hacin":1.294,"hacin_class":"Hacinamiento Leve","hacin_score":788.5,"auto_score":96.2,"n_per":132,"n_hog":48,"source_year":2024,"crime_score":0.7667,"crime_nivel":"Alto","crime_color":"#f44336"},"geometry":{"type":"Polygon","coordinates":[[[-71.7249212839999,-34.1113441481235],[-71.7260711949999,-34.1115092021234],[-71.7262133799999,-34.1109977611235],[-71.7241815149999,-34.1110042411235],[-71.7262021759999,-34.1109381281235],[-71.7259992239999,-34.1102588161235],[-71.7254509879999,-34.1103984821235],[-71.725989136,-34.1102339281235],[-71.7255184709999,-34.1094620441235],[-71.7244713159999,-34.1092515561235],[-71.7243712509999,-34.1093175231235],[-71.7245498719999,-34.1102523631235],[-71.7243634169999,-34.1105211441235],[-71.7226314009999,-34.1116220091234],[-71.7244586129999,-34.1124024331235],[-71.7250299489999,-34.1120725321235],[-71.7255403309999,-34.1123861431234],[-71.7260501809999,-34.1116006061235],[-71.7249212839999,-34.1113441481235]]]}},{"type":"Feature","properties":{"id":"6203011001011","commune":"Litueche","code":"06203","gse":"C2","quintil":"Q4","nse_score":730.3,"educ":12.9,"educ_score":660.0,"hacin":1.467,"hacin_class":"Hacinamiento Leve","hacin_score":751.8,"auto_score":314.8,"n_per":66,"n_hog":28,"source_year":2024,"crime_score":0.6983,"crime_nivel":"Alto","crime_color":"#f44336"},"geometry":{"type":"Polygon","coordinates":[[[-71.7236560809999,-34.1097244711235],[-71.7234501929999,-34.1099008901235],[-71.7223489599999,-34.1115040381235],[-71.7225644299999,-34.1115954621235],[-71.7231906949999,-34.1110873971235],[-71.724043719,-34.1098827861235],[-71.7236560809999,-34.1097244711235]]]}},{"type":"Feature","properties":{"id":"6203011001012","commune":"Litueche","code":"06203","gse":"C2","quintil":"Q3","nse_score":724.5,"educ":13.5,"educ_score":700.0,"hacin":1.3,"hacin_class":"Hacinamiento Leve","hacin_score":787.2,"auto_score":41.7,"n_per":26,"n_hog":11,"source_year":2024,"crime_score":0.687,"crime_nivel":"Alto","crime_color":"#f44336"},"geometry":{"type":"Polygon","coordinates":[[[-71.7244530899999,-34.1100239581235],[-71.7240769049999,-34.1099218761235],[-71.7233231869999,-34.1110453501235],[-71.7242772359999,-34.1105369811235],[-71.7244518089999,-34.1103187401235],[-71.7244530899999,-34.1100239581235]]]}},{"type":"Feature","properties":{"id":"6203011001014","commune":"Litueche","code":"06203","gse":"E","quintil":"Q1","nse_score":579.5,"educ":7.9,"educ_score":326.7,"hacin":1.364,"hacin_class":"Hacinamiento Leve","hacin_score":773.7,"auto_score":0.0,"n_per":15,"n_hog":6,"source_year":2024,"crime_score":0.7391,"crime_nivel":"Alto","crime_color":"#f44336"},"geometry":{"type":"Polygon","coordinates":[[[-71.725559083,-34.1127934511235],[-71.7254931389999,-34.1124085941234],[-71.7250667639999,-34.1121109851235],[-71.7245462739999,-34.1124060901234],[-71.725559083,-34.1127934511235]]]}},{"type":"Feature","properties":{"id":"6203011001015","commune":"Litueche","code":"06203","gse":"C3","quintil":"Q3","nse_score":708.0,"educ":10.9,"educ_score":526.7,"hacin":1.125,"hacin_class":"Hacinamiento Leve","hacin_score":824.5,"auto_score":0.0,"n_per":9,"n_hog":4,"source_year":2024,"crime_score":0.6876,"crime_nivel":"Alto","crime_color":"#f44336"},"geometry":{"type":"Polygon","coordinates":[[[-71.7240314149999,-34.1132336741235],[-71.7246779189999,-34.1128985691234],[-71.7248587939999,-34.1126309761234],[-71.7241632229999,-34.1123772621234],[-71.7240314149999,-34.1132336741235]]]}},{"type":"Feature","properties":{"id":"6203011001016","commune":"Litueche","code":"06203","gse":"D","quintil":"Q2","nse_score":647.8,"educ":10.9,"educ_score":526.7,"hacin":1.286,"hacin_class":"Hacinamiento Leve","hacin_score":790.3,"auto_score":166.7,"n_per":45,"n_hog":18,"source_year":2024,"crime_score":0.7234,"crime_nivel":"Alto","crime_color":"#f44336"},"geometry":{"type":"Polygon","coordinates":[[[-71.7264227809999,-34.1147090381234],[-71.7256973709999,-34.1130042351234],[-71.7249469479999,-34.1126610951235],[-71.7240228379999,-34.1132798861234],[-71.7250208559999,-34.1146558021234],[-71.7255917199999,-34.1145183101234],[-71.725866273,-34.1148706201234],[-71.7264227809999,-34.1147090381234]]]}},{"type":"Feature","properties":{"id":"6203011001017","commune":"Litueche","code":"06203","gse":"D","quintil":"Q2","nse_score":638.8,"educ":11.2,"educ_score":546.7,"hacin":1.29,"hacin_class":"Hacinamiento Leve","hacin_score":789.3,"auto_score":111.1,"n_per":40,"n_hog":18,"source_year":2024,"crime_score":0.7251,"crime_nivel":"Alto","crime_color":"#f44336"},"geometry":{"type":"Polygon","coordinates":[[[-71.7312405929999,-34.1148030441234],[-71.7297446739999,-34.1131247971235],[-71.728875436,-34.1133513671234],[-71.7285816309999,-34.1135834941235],[-71.7280175859999,-34.1136626141235],[-71.7285655929999,-34.1143861821234],[-71.7285099129999,-34.1151184391234],[-71.7292902329999,-34.1149211461234],[-71.7290195079999,-34.1134605861234],[-71.7294002169999,-34.1149108351234],[-71.7299103959999,-34.1149466761234],[-71.7303751899999,-34.1155314251234],[-71.7310144399999,-34.1155132691234],[-71.7314326229999,-34.1153598371234],[-71.7312405929999,-34.1148030441234]]]}},{"type":"Feature","properties":{"id":"6203011001020","commune":"Litueche","code":"06203","gse":"C3","quintil":"Q2","nse_score":673.9,"educ":11.4,"educ_score":560.0,"hacin":1.462,"hacin_class":"Hacinamiento Leve","hacin_score":752.9,"auto_score":300.0,"n_per":76,"n_hog":25,"source_year":2024,"crime_score":0.724,"crime_nivel":"Alto","crime_color":"#f44336"},"geometry":{"type":"Polygon","coordinates":[[[-71.7250863039999,-34.1147149011234],[-71.7254582389999,-34.1151548321234],[-71.7257198149999,-34.1158426511234],[-71.7267727939999,-34.1156046521234],[-71.7264521709999,-34.1147651931234],[-71.7258608609999,-34.1149075671234],[-71.7255430229999,-34.1145541771234],[-71.7250863039999,-34.1147149011234]]]}},{"type":"Feature","properties":{"id":"6203011001021","commune":"Litueche","code":"06203","gse":"C3","quintil":"Q2","nse_score":666.6,"educ":10.8,"educ_score":520.0,"hacin":1.349,"hacin_class":"Hacinamiento Leve","hacin_score":776.8,"auto_score":223.4,"n_per":116,"n_hog":47,"source_year":2024,"crime_score":0.7409,"crime_nivel":"Alto","crime_color":"#f44336"},"geometry":{"type":"Polygon","coordinates":[[[-71.723847685,-34.1156798871234],[-71.7237448319999,-34.1155030831234],[-71.7240217909999,-34.1159001981234],[-71.7254910939999,-34.1153657591234],[-71.7252907289999,-34.1150166751234],[-71.7248001259999,-34.1151238181234],[-71.7252424849999,-34.1149696221234],[-71.724989434,-34.1147124041234],[-71.7242511019999,-34.1149361021234],[-71.7244599429999,-34.1152720431234],[-71.7242334889999,-34.1149420461234],[-71.723933541,-34.1150264441235],[-71.7241521489999,-34.1154575161234],[-71.7238915849999,-34.1150366301234],[-71.7217714829999,-34.1156920791234],[-71.7219145259999,-34.1159319011234],[-71.7222270259999,-34.1158268581234],[-71.7221603019999,-34.1159039821234],[-71.7223642339999,-34.1162061841234],[-71.723847685,-34.1156798871234]]]}},{"type":"Feature","properties":{"id":"6203011001024","commune":"Litueche","code":"06203","gse":"D","quintil":"Q1","nse_score":613.8,"educ":9.9,"educ_score":460.0,"hacin":1.4,"hacin_class":"Hacinamiento Leve","hacin_score":766.0,"auto_score":125.0,"n_per":14,"n_hog":4,"source_year":2024,"crime_score":0.7255,"crime_nivel":"Alto","crime_color":"#f44336"},"geometry":{"type":"Polygon","coordinates":[[[-71.7271358899999,-34.1169257521234],[-71.7283737359999,-34.1168472201234],[-71.728490727,-34.1151851621234],[-71.7269129049999,-34.1156802871234],[-71.7271358899999,-34.1169257521234]]]}},{"type":"Feature","properties":{"id":"6203011001025","commune":"Litueche","code":"06203","gse":"D","quintil":"Q2","nse_score":648.1,"educ":10.8,"educ_score":520.0,"hacin":1.5,"hacin_class":"Hacinamiento Medio","hacin_score":744.7,"auto_score":158.3,"n_per":159,"n_hog":60,"source_year":2024,"crime_score":0.7636,"crime_nivel":"Alto","crime_color":"#f44336"},"geometry":{"type":"Polygon","coordinates":[[[-71.7220323029999,-34.1190360351234],[-71.7225949429999,-34.1184313501234],[-71.7242339129999,-34.1175907601234],[-71.7236618769999,-34.1166168941234],[-71.7224088089999,-34.1169035491234],[-71.7222992259999,-34.1167529101234],[-71.7213209809999,-34.1172470621234],[-71.7213010989999,-34.1173616101234],[-71.7206633279999,-34.1156274571234],[-71.7208296429999,-34.1158977101234],[-71.7212015219999,-34.1157803011234],[-71.7210927059999,-34.1154761851234],[-71.7212546719999,-34.1157546741234],[-71.7216366709999,-34.1156487421234],[-71.7214525369999,-34.1152603331234],[-71.720430501,-34.1156562711234],[-71.7211651609999,-34.1176498921234],[-71.7213736829999,-34.1175303461234],[-71.7220323029999,-34.1190360351234]]]}},{"type":"Feature","properties":{"id":"6203011001026","commune":"Litueche","code":"06203","gse":"D","quintil":"Q1","nse_score":628.7,"educ":10.3,"educ_score":486.7,"hacin":1.333,"hacin_class":"Hacinamiento Leve","hacin_score":780.1,"auto_score":187.5,"n_per":20,"n_hog":7,"source_year":2024,"crime_score":0.7219,"crime_nivel":"Alto","crime_color":"#f44336"},"geometry":{"type":"Polygon","coordinates":[[[-71.725501328,-34.1154313261234],[-71.7248611619999,-34.1156506651234],[-71.724990525,-34.1160390701234],[-71.7256566609999,-34.1158736961234],[-71.725501328,-34.1154313261234]]]}},{"type":"Feature","properties":{"id":"6203011001028","commune":"Litueche","code":"06203","gse":"D","quintil":"Q2","nse_score":658.0,"educ":11.5,"educ_score":566.7,"hacin":1.278,"hacin_class":"Hacinamiento Leve","hacin_score":792.0,"auto_score":218.8,"n_per":46,"n_hog":16,"source_year":2024,"crime_score":0.7198,"crime_nivel":"Alto","crime_color":"#f44336"},"geometry":{"type":"Polygon","coordinates":[[[-71.7296743119999,-34.1159067511234],[-71.7299925229999,-34.1173479801234],[-71.7311685189999,-34.1158271211234],[-71.7310198589999,-34.1156006491234],[-71.7296743119999,-34.1159067511234]]]}},{"type":"Feature","properties":{"id":"6203011001029","commune":"Litueche","code":"06203","gse":"C2","quintil":"Q3","nse_score":714.9,"educ":12.8,"educ_score":653.3,"hacin":1.34,"hacin_class":"Hacinamiento Leve","hacin_score":778.6,"auto_score":260.0,"n_per":63,"n_hog":23,"source_year":2024,"crime_score":0.7033,"crime_nivel":"Alto","crime_color":"#f44336"},"geometry":{"type":"Polygon","coordinates":[[[-71.7247295399999,-34.1170605691234],[-71.7248711349999,-34.1172700251234],[-71.7270332919999,-34.1169588981234],[-71.7268138319999,-34.1156701071234],[-71.7257667229999,-34.1159060251234],[-71.725890821,-34.1163108631234],[-71.7247295399999,-34.1170605691234]]]}},{"type":"Feature","properties":{"id":"6203011001030","commune":"Litueche","code":"06203","gse":"D","quintil":"Q2","nse_score":647.2,"educ":10.4,"educ_score":493.3,"hacin":1.454,"hacin_class":"Hacinamiento Leve","hacin_score":754.4,"auto_score":117.6,"n_per":48,"n_hog":17,"source_year":2024,"crime_score":0.7247,"crime_nivel":"Alto","crime_color":"#f44336"},"geometry":{"type":"Polygon","coordinates":[[[-71.7218467849999,-34.1159528371234],[-71.721686271,-34.1156712471234],[-71.7208419069999,-34.1159441721234],[-71.7209767099999,-34.1162528601234],[-71.7218467849999,-34.1159528371234]]]}},{"type":"Feature","properties":{"id":"6203011001031","commune":"Litueche","code":"06203","gse":"D","quintil":"Q2","nse_score":653.1,"educ":12.0,"educ_score":600.0,"hacin":1.4,"hacin_class":"Hacinamiento Leve","hacin_score":766.0,"auto_score":333.3,"n_per":14,"n_hog":5,"source_year":2024,"crime_score":0.7104,"crime_nivel":"Alto","crime_color":"#f44336"},"geometry":{"type":"Polygon","coordinates":[[[-71.7242702909999,-34.1163144281234],[-71.7249513219999,-34.1160612831234],[-71.7248267269999,-34.1156881861234],[-71.7240408169999,-34.1159415851234],[-71.7242702909999,-34.1163144281234]]]}},{"type":"Feature","properties":{"id":"6203011001032","commune":"Litueche","code":"06203","gse":"D","quintil":"Q1","nse_score":612.0,"educ":9.3,"educ_score":420.0,"hacin":1.333,"hacin_class":"Hacinamiento Leve","hacin_score":780.1,"auto_score":300.0,"n_per":28,"n_hog":10,"source_year":2024,"crime_score":0.7313,"crime_nivel":"Alto","crime_color":"#f44336"},"geometry":{"type":"Polygon","coordinates":[[[-71.7242170869999,-34.1163432381234],[-71.7238509149999,-34.1156993161234],[-71.7233087289999,-34.1158669611234],[-71.7236865159999,-34.1165426131234],[-71.7242170869999,-34.1163432381234]]]}},{"type":"Feature","properties":{"id":"6203011001035","commune":"Litueche","code":"06203","gse":"D","quintil":"Q1","nse_score":614.9,"educ":10.1,"educ_score":473.3,"hacin":1.467,"hacin_class":"Hacinamiento Leve","hacin_score":751.8,"auto_score":62.5,"n_per":22,"n_hog":8,"source_year":2024,"crime_score":0.728,"crime_nivel":"Alto","crime_color":"#f44336"},"geometry":{"type":"Polygon","coordinates":[[[-71.7230922239999,-34.1167730301234],[-71.7236319949999,-34.1165608761234],[-71.7232798339999,-34.1158963521234],[-71.7226600429999,-34.1161166181234],[-71.7230922239999,-34.1167730301234]]]}},{"type":"Feature","properties":{"id":"6203011001037","commune":"Litueche","code":"06203","gse":"D","quintil":"Q1","nse_score":621.2,"educ":9.3,"educ_score":420.0,"hacin":1.294,"hacin_class":"Hacinamiento Leve","hacin_score":788.5,"auto_score":166.7,"n_per":44,"n_hog":18,"source_year":2024,"crime_score":0.7334,"crime_nivel":"Alto","crime_color":"#f44336"},"geometry":{"type":"Polygon","coordinates":[[[-71.7246957099999,-34.1170054701234],[-71.7258429549999,-34.1163035201234],[-71.7257100749999,-34.1159389081234],[-71.7243011809999,-34.1163697681234],[-71.7246957099999,-34.1170054701234]]]}},{"type":"Feature","properties":{"id":"6203011001038","commune":"Litueche","code":"06203","gse":"D","quintil":"Q2","nse_score":644.8,"educ":10.7,"educ_score":513.3,"hacin":1.64,"hacin_class":"Hacinamiento Medio","hacin_score":714.9,"auto_score":343.8,"n_per":41,"n_hog":16,"source_year":2024,"crime_score":0.7232,"crime_nivel":"Alto","crime_color":"#f44336"},"geometry":{"type":"Polygon","coordinates":[[[-71.7210993349999,-34.1166234361234],[-71.7220177469999,-34.1163115621234],[-71.7218671459999,-34.1160076471234],[-71.7210041879999,-34.1162809871234],[-71.7210993349999,-34.1166234361234]]]}},{"type":"Feature","properties":{"id":"6203011001039","commune":"Litueche","code":"06203","gse":"C3","quintil":"Q2","nse_score":664.0,"educ":13.0,"educ_score":666.7,"hacin":1.125,"hacin_class":"Hacinamiento Leve","hacin_score":824.5,"auto_score":83.3,"n_per":9,"n_hog":4,"source_year":2024,"crime_score":0.7045,"crime_nivel":"Alto","crime_color":"#f44336"},"geometry":{"type":"Polygon","coordinates":[[[-71.7226178679999,-34.1161404841234],[-71.7221239699999,-34.1163496361234],[-71.7224248979999,-34.1168518871234],[-71.7230304659999,-34.1167800831234],[-71.7226178679999,-34.1161404841234]]]}},{"type":"Feature","properties":{"id":"6203011001040","commune":"Litueche","code":"06203","gse":"C3","quintil":"Q2","nse_score":675.4,"educ":10.8,"educ_score":520.0,"hacin":1.333,"hacin_class":"Hacinamiento Leve","hacin_score":780.1,"auto_score":250.0,"n_per":28,"n_hog":12,"source_year":2024,"crime_score":0.7067,"crime_nivel":"Alto","crime_color":"#f44336"},"geometry":{"type":"Polygon","coordinates":[[[-71.7220394999999,-34.1163435731234],[-71.7215075839999,-34.1165377641234],[-71.721747278,-34.1169939621234],[-71.7222627539999,-34.1167415881234],[-71.7220394999999,-34.1163435731234]]]}},{"type":"Feature","properties":{"id":"6203011001041","commune":"Litueche","code":"06203","gse":"D","quintil":"Q2","nse_score":654.4,"educ":10.2,"educ_score":480.0,"hacin":1.22,"hacin_class":"Hacinamiento Leve","hacin_score":804.4,"auto_score":157.9,"n_per":50,"n_hog":19,"source_year":2024,"crime_score":0.7226,"crime_nivel":"Alto","crime_color":"#f44336"},"geometry":{"type":"Polygon","coordinates":[[[-71.724790331,-34.1172738301234],[-71.7242536119999,-34.1164031841234],[-71.7237265749999,-34.1165928861234],[-71.7242895529999,-34.1175631451234],[-71.724790331,-34.1172738301234]]]}},{"type":"Feature","properties":{"id":"6203011001042","commune":"Litueche","code":"06203","gse":"C3","quintil":"Q2","nse_score":665.3,"educ":11.0,"educ_score":533.3,"hacin":1.444,"hacin_class":"Hacinamiento Leve","hacin_score":756.5,"auto_score":125.0,"n_per":26,"n_hog":12,"source_year":2024,"crime_score":0.7099,"crime_nivel":"Alto","crime_color":"#f44336"},"geometry":{"type":"Polygon","coordinates":[[[-71.7213022319999,-34.1172049831234],[-71.7217026249999,-34.1170104251234],[-71.7214541839999,-34.1165561581234],[-71.7211185599999,-34.1166984381234],[-71.7213022319999,-34.1172049831234]]]}},{"type":"Feature","properties":{"id":"6203011001043","commune":"Litueche","code":"06203","gse":"E","quintil":"Q1","nse_score":586.1,"educ":11.0,"educ_score":533.3,"hacin":1.196,"hacin_class":"Hacinamiento Leve","hacin_score":809.4,"auto_score":150.0,"n_per":55,"n_hog":21,"source_year":2024,"crime_score":0.7512,"crime_nivel":"Alto","crime_color":"#f44336"},"geometry":{"type":"Polygon","coordinates":[[[-71.729096335,-34.1168652111234],[-71.7285996589999,-34.1182462391234],[-71.7291708469999,-34.1184370021234],[-71.7298935989999,-34.1174339321234],[-71.7297363099999,-34.1168086901234],[-71.729096335,-34.1168652111234]]]}},{"type":"Feature","properties":{"id":"6203011001044","commune":"Litueche","code":"06203","gse":"D","quintil":"Q2","nse_score":642.8,"educ":10.6,"educ_score":506.7,"hacin":1.17,"hacin_class":"Hacinamiento Leve","hacin_score":814.8,"auto_score":130.4,"n_per":55,"n_hog":24,"source_year":2024,"crime_score":0.7289,"crime_nivel":"Alto","crime_color":"#f44336"},"geometry":{"type":"Polygon","coordinates":[[[-71.7283372619999,-34.1169235781234],[-71.7281336139999,-34.1173996611234],[-71.7276926279999,-34.1178892841234],[-71.7278336619999,-34.1183509751234],[-71.7283309989999,-34.1186797921234],[-71.7279877659999,-34.1190322931234],[-71.7276624869999,-34.1190550581234],[-71.7279263739999,-34.1193679351234],[-71.7278278169999,-34.1201555051234],[-71.7291229609999,-34.1185149671234],[-71.7285363729999,-34.1182488631234],[-71.7289801859999,-34.1168908911234],[-71.7283372619999,-34.1169235781234]]]}},{"type":"Feature","properties":{"id":"6203011001045","commune":"Litueche","code":"06203","gse":"C3","quintil":"Q3","nse_score":689.6,"educ":11.1,"educ_score":540.0,"hacin":1.235,"hacin_class":"Hacinamiento Leve","hacin_score":801.0,"auto_score":55.6,"n_per":21,"n_hog":9,"source_year":2024,"crime_score":0.6988,"crime_nivel":"Alto","crime_color":"#f44336"},"geometry":{"type":"Polygon","coordinates":[[[-71.7276111159999,-34.1190142991234],[-71.7279877659999,-34.1190322931234],[-71.728333888,-34.1187696941234],[-71.7282179289999,-34.1185273641234],[-71.7278336619999,-34.1183509751234],[-71.7276926279999,-34.1178892841234],[-71.7281336139999,-34.1173996611234],[-71.7283372619999,-34.1169235781234],[-71.7271521719999,-34.1170345441234],[-71.727435511,-34.1181016351234],[-71.7272142739999,-34.1186360461234],[-71.7276111159999,-34.1190142991234]]]}},{"type":"Feature","properties":{"id":"6203011001046","commune":"Litueche","code":"06203","gse":"D","quintil":"Q1","nse_score":629.4,"educ":10.9,"educ_score":526.7,"hacin":1.372,"hacin_class":"Hacinamiento Leve","hacin_score":771.9,"auto_score":150.0,"n_per":166,"n_hog":64,"source_year":2024,"crime_score":0.7738,"crime_nivel":"Alto","crime_color":"#f44336"},"geometry":{"type":"Polygon","coordinates":[[[-71.722048104,-34.1190784321234],[-71.722679937,-34.1205357331234],[-71.7233345719999,-34.1198859651233],[-71.7234331719999,-34.1195502451233],[-71.7236744539999,-34.1194263621234],[-71.7237640429999,-34.1190164171234],[-71.7242167179999,-34.1191800271233],[-71.7248563499999,-34.1189728751234],[-71.7258637549999,-34.1183495951234],[-71.7260697199999,-34.1185710501234],[-71.7264565009999,-34.1185404061234],[-71.7273740829999,-34.1180955201234],[-71.7270788319999,-34.1170508231234],[-71.726153785,-34.1171525321234],[-71.7263632989999,-34.1181744111234],[-71.7262232529999,-34.1178375381234],[-71.7257050259999,-34.1177964061234],[-71.7258240259999,-34.1182170991234],[-71.7256503069999,-34.1178023171234],[-71.7256867849999,-34.1177544681234],[-71.7262220559999,-34.1178002761234],[-71.7261043389999,-34.1171342801234],[-71.7250623909999,-34.1172800981234],[-71.7248965049999,-34.1173383821234],[-71.7254518759999,-34.1183723251234],[-71.7248177949999,-34.1173510961234],[-71.7243392529999,-34.1176424821234],[-71.7248069089999,-34.1185730891234],[-71.7242344709999,-34.1176645491234],[-71.7235540179999,-34.1180744731234],[-71.7240286279999,-34.1190575711234],[-71.7235120629999,-34.1180819841234],[-71.7227470239999,-34.1184038491234],[-71.722048104,-34.1190784321234]]]}},{"type":"Feature","properties":{"id":"6203011001049","commune":"Litueche","code":"06203","gse":"E","quintil":"Q1","nse_score":548.3,"educ":8.4,"educ_score":360.0,"hacin":1.278,"hacin_class":"Hacinamiento Leve","hacin_score":792.0,"auto_score":0.0,"n_per":23,"n_hog":6,"source_year":2024,"crime_score":0.7541,"crime_nivel":"Alto","crime_color":"#f44336"},"geometry":{"type":"Polygon","coordinates":[[[-71.7267130579999,-34.1184795771234],[-71.7260697199999,-34.1185710501234],[-71.7259329499999,-34.1183370321234],[-71.7255991189999,-34.1184684871234],[-71.7258072109999,-34.1189920201234],[-71.7254150159999,-34.1191387161234],[-71.7260046629999,-34.1202178401234],[-71.7264640039999,-34.1200507861233],[-71.726980738,-34.1192995821234],[-71.7276101669999,-34.1190676611234],[-71.7271874699999,-34.1187274311234],[-71.7271479349999,-34.1185452191234],[-71.7262074909999,-34.1188249401234],[-71.7270915349999,-34.1185135701234],[-71.7273740829999,-34.1180955201234],[-71.7267130579999,-34.1184795771234]]]}},{"type":"Feature","properties":{"id":"6203011001055","commune":"Litueche","code":"06203","gse":"D","quintil":"Q2","nse_score":652.4,"educ":10.6,"educ_score":506.7,"hacin":1.312,"hacin_class":"Hacinamiento Leve","hacin_score":784.6,"auto_score":178.6,"n_per":42,"n_hog":13,"source_year":2024,"crime_score":0.7206,"crime_nivel":"Alto","crime_color":"#f44336"},"geometry":{"type":"Polygon","coordinates":[[[-71.7277950439999,-34.1197870831234],[-71.7275114789999,-34.1197031621234],[-71.7271579619999,-34.1202634891234],[-71.7276349449999,-34.1204469341233],[-71.7277950439999,-34.1197870831234]]]}},{"type":"Feature","properties":{"id":"6203011001056","commune":"Litueche","code":"06203","gse":"D","quintil":"Q1","nse_score":636.4,"educ":10.6,"educ_score":506.7,"hacin":1.388,"hacin_class":"Hacinamiento Leve","hacin_score":768.6,"auto_score":142.9,"n_per":179,"n_hog":63,"source_year":2024,"crime_score":0.7756,"crime_nivel":"Alto","crime_color":"#f44336"},"geometry":{"type":"Polygon","coordinates":[[[-71.7251731189999,-34.1206492461233],[-71.7244917109999,-34.1207643381234],[-71.7237971769999,-34.1212195911233],[-71.723249484,-34.1213816901233],[-71.7226488599999,-34.1219698111233],[-71.7237692149999,-34.1249269221233],[-71.7239178899999,-34.1247723601233],[-71.7246288349999,-34.1247821071233],[-71.7253707469999,-34.1249632431233],[-71.7267240059999,-34.1248059621233],[-71.7265987739999,-34.1238633691233],[-71.7268604299999,-34.1226489661233],[-71.725317705,-34.1233863431233],[-71.7246947329999,-34.1218008141233],[-71.7235744119999,-34.1219981011233],[-71.7246695889999,-34.1217719931233],[-71.7245071299999,-34.1211298021233],[-71.7246687019999,-34.1215356241233],[-71.7253588069999,-34.1212236811234],[-71.7246806249999,-34.1215680971234],[-71.7249883299999,-34.1224076281233],[-71.7262158029999,-34.1218758401233],[-71.7260733969999,-34.1215477941233],[-71.7262520669999,-34.1218552941233],[-71.7261483299999,-34.1219320251233],[-71.7250034989999,-34.1224427371233],[-71.7253398619999,-34.1232841601233],[-71.7266149199999,-34.1226946601233],[-71.7265326789999,-34.1225259181233],[-71.7266087179999,-34.1219987291233],[-71.7262805629999,-34.1213920541234],[-71.7262137289999,-34.1206726101234],[-71.7263524249999,-34.1204309911233],[-71.7261513949999,-34.1206094591233],[-71.7261864569999,-34.1211263331234],[-71.7261199099999,-34.1206145461234],[-71.7266549599999,-34.1198216281234],[-71.7264640039999,-34.1200507861233],[-71.7251731189999,-34.1206492461233]]]}},{"type":"Feature","properties":{"id":"6203011001057","commune":"Litueche","code":"06203","gse":"D","quintil":"Q2","nse_score":646.5,"educ":11.0,"educ_score":533.3,"hacin":1.226,"hacin_class":"Hacinamiento Leve","hacin_score":803.0,"auto_score":307.7,"n_per":38,"n_hog":13,"source_year":2024,"crime_score":0.7214,"crime_nivel":"Alto","crime_color":"#f44336"},"geometry":{"type":"Polygon","coordinates":[[[-71.7267363779999,-34.1248627161233],[-71.7250214319999,-34.1249160771233],[-71.7253174409999,-34.1259418531233],[-71.726585053,-34.1257397331233],[-71.7267323669999,-34.1265694821233],[-71.7246841349999,-34.1269192411233],[-71.7247102969999,-34.1270557831233],[-71.7252536189999,-34.1272294811233],[-71.7270744029999,-34.1269280101233],[-71.7267363779999,-34.1248627161233]]]}},{"type":"Feature","properties":{"id":"6203011001006","commune":"Litueche","code":"06203","gse":"E","quintil":"Q1","nse_score":599.8,"educ":9.8,"educ_score":453.3,"hacin":1.353,"hacin_class":"Hacinamiento Leve","hacin_score":776.0,"auto_score":71.4,"n_per":23,"n_hog":6,"source_year":2024,"crime_score":0.7342,"crime_nivel":"Alto","crime_color":"#f44336"},"geometry":{"type":"MultiPolygon","coordinates":[[[[-71.7236503919999,-34.1096503201235],[-71.7244159129999,-34.1099134251235],[-71.7242907369999,-34.1092690851235],[-71.7239686269999,-34.1092182851235],[-71.7236503919999,-34.1096503201235]]],[[[-71.7243475429999,-34.1092080231235],[-71.7250789749999,-34.1092278081235],[-71.7249637819999,-34.1089556961235],[-71.7243278479999,-34.1089878241235],[-71.7243475429999,-34.1092080231235]]]]}},{"type":"Feature","properties":{"id":"6203011001058","commune":"Litueche","code":"06203","gse":"D","quintil":"Q2","nse_score":650.4,"educ":11.7,"educ_score":580.0,"hacin":1.467,"hacin_class":"Hacinamiento Leve","hacin_score":751.8,"auto_score":214.3,"n_per":44,"n_hog":11,"source_year":2024,"crime_score":0.722,"crime_nivel":"Alto","crime_color":"#f44336"},"geometry":{"type":"MultiPolygon","coordinates":[[[[-71.7275719159999,-34.1297643151232],[-71.7265984889999,-34.1298560621232],[-71.7265331869999,-34.1298317601233],[-71.7266379719999,-34.1305861221233],[-71.7252843489999,-34.1307674871232],[-71.7254360599999,-34.1310758081232],[-71.7253538059999,-34.1316559281232],[-71.7278443399999,-34.1313838151232],[-71.7275719159999,-34.1297643151232]]],[[[-71.7263025729999,-34.1287339151233],[-71.7265333949999,-34.1298090221233],[-71.727569592,-34.1297463951232],[-71.7273542399999,-34.1285505291233],[-71.7263025729999,-34.1287339151233]]],[[[-71.7257800949999,-34.1271849631233],[-71.7258968249999,-34.1281657691233],[-71.7266026309999,-34.1280840761233],[-71.7266803749999,-34.1286303331233],[-71.7273471819999,-34.1285140581233],[-71.7272525779999,-34.1280152401233],[-71.7266069339999,-34.1275890531233],[-71.7271004309999,-34.1278173611232],[-71.7270018829999,-34.1272838111233],[-71.7272509289999,-34.1279848721233],[-71.727082633,-34.1270199531233],[-71.7257800949999,-34.1271849631233]]]]}},{"type":"Feature","properties":{"id":"6203011001013","commune":"Litueche","code":"06203","gse":"D","quintil":"Q2","nse_score":660.2,"educ":10.8,"educ_score":520.0,"hacin":1.322,"hacin_class":"Hacinamiento Leve","hacin_score":782.5,"auto_score":293.8,"n_per":201,"n_hog":81,"source_year":2024,"crime_score":0.7734,"crime_nivel":"Alto","crime_color":"#f44336"},"geometry":{"type":"MultiPolygon","coordinates":[[[[-71.7219829749999,-34.1132852371235],[-71.7215781539999,-34.1141335391235],[-71.7225486399999,-34.1135632591234],[-71.7219829749999,-34.1132852371235]]],[[[-71.7209497389999,-34.1130330991234],[-71.7207429949999,-34.1136629451234],[-71.7216962639999,-34.1156330771234],[-71.7249574689999,-34.1146872001234],[-71.7245844149999,-34.1141638301234],[-71.7241778849999,-34.1143116761234],[-71.7245375829999,-34.1141056641235],[-71.7242801299999,-34.1137600981234],[-71.7215385059999,-34.1147334461234],[-71.7227505399999,-34.1141857841234],[-71.7225426159999,-34.1136874341234],[-71.7213730759999,-34.1142966201234],[-71.7218990499999,-34.1132757911234],[-71.7213590819999,-34.1131540561234],[-71.7209780859999,-34.1138350051234],[-71.7213814429999,-34.1130802121235],[-71.7225072429999,-34.1134105051234],[-71.722836115,-34.1141861451235],[-71.7242470979999,-34.1137016011235],[-71.723950107,-34.1131843701234],[-71.7241061699999,-34.1123609321235],[-71.7238797289999,-34.1122824311235],[-71.7233747069999,-34.1131613871234],[-71.7231429229999,-34.1133546981235],[-71.7228804209999,-34.1134016771235],[-71.7221207819999,-34.1131202781234],[-71.7228861419999,-34.1133699711234],[-71.7231376309999,-34.1133219411234],[-71.7238451739999,-34.1122721101235],[-71.7227169919999,-34.1117635411235],[-71.7213318189999,-34.1126236041235],[-71.7209497389999,-34.1130330991234]]]]}},{"type":"Feature","properties":{"id":"6203011001052","commune":"Litueche","code":"06203","gse":"E","quintil":"Q1","nse_score":570.0,"educ":9.4,"educ_score":426.7,"hacin":1.615,"hacin_class":"Hacinamiento Medio","hacin_score":720.1,"auto_score":166.7,"n_per":21,"n_hog":6,"source_year":2024,"crime_score":0.7449,"crime_nivel":"Alto","crime_color":"#f44336"},"geometry":{"type":"MultiPolygon","coordinates":[[[[-71.7266136739999,-34.1226926941233],[-71.7269123249999,-34.1225403331234],[-71.7275811219999,-34.1205360141233],[-71.7270797669999,-34.1202817491234],[-71.7274400479999,-34.1196749331234],[-71.7269828479999,-34.1196456101234],[-71.7267507059999,-34.1200543631234],[-71.7262247959999,-34.1206167441234],[-71.7262805629999,-34.1213920541234],[-71.7266328519999,-34.1221094331233],[-71.7265326789999,-34.1225259181233],[-71.7266136739999,-34.1226926941233]]],[[[-71.7268237299999,-34.1194630111234],[-71.7263578749999,-34.1203847291234],[-71.7269552969999,-34.1196089331234],[-71.7278210329999,-34.1197125261234],[-71.7278783959999,-34.1194458441234],[-71.7276101669999,-34.1190676601234],[-71.7271219759999,-34.1192064781234],[-71.7268237299999,-34.1194630111234]]]]}},{"type":"Feature","properties":{"id":"6203011001023","commune":"Litueche","code":"06203","gse":"C3","quintil":"Q3","nse_score":706.4,"educ":12.8,"educ_score":653.3,"hacin":1.421,"hacin_class":"Hacinamiento Leve","hacin_score":761.5,"auto_score":41.7,"n_per":27,"n_hog":13,"source_year":2024,"crime_score":0.6944,"crime_nivel":"Alto","crime_color":"#f44336"},"geometry":{"type":"MultiPolygon","coordinates":[[[[-71.7291220239999,-34.1167783351234],[-71.7297258949999,-34.1166905721234],[-71.7295420429999,-34.1158634341234],[-71.7289524829999,-34.1159951881234],[-71.7291220239999,-34.1167783351234]]],[[[-71.7283868459999,-34.1168197751234],[-71.7290091749999,-34.1167908781234],[-71.7288773249999,-34.1159711661234],[-71.7295378939999,-34.1158029161234],[-71.7293182779999,-34.1150221761234],[-71.728490727,-34.1151851611234],[-71.7283868459999,-34.1168197751234]]]]}},{"type":"Feature","properties":{"id":"6203041001001","commune":"Litueche","code":"06203","gse":"C3","quintil":"Q3","nse_score":682.3,"educ":12.0,"educ_score":600.0,"hacin":1.296,"hacin_class":"Hacinamiento Leve","hacin_score":788.0,"auto_score":147.1,"n_per":35,"n_hog":16,"source_year":2024,"crime_score":0.7065,"crime_nivel":"Alto","crime_color":"#f44336"},"geometry":{"type":"Polygon","coordinates":[[[-71.7321799039999,-34.1147095631234],[-71.7308831849999,-34.1164099041234],[-71.7315598239999,-34.1168158931234],[-71.7319735609999,-34.1175022641234],[-71.7323652539999,-34.1178903051234],[-71.7331467989999,-34.1179356461234],[-71.7333807649999,-34.1178796781234],[-71.7328654329999,-34.1177009951234],[-71.7325807059999,-34.1174286281233],[-71.7338328429999,-34.1158313941234],[-71.7341726209999,-34.1156681621234],[-71.7362588989999,-34.1153222101234],[-71.7374858549999,-34.1147310131234],[-71.7360137129999,-34.1137512791234],[-71.7355608929999,-34.1136400981235],[-71.7335141949999,-34.1139856921234],[-71.7326756489999,-34.1143429551234],[-71.7321799039999,-34.1147095631234]]]}},{"type":"Feature","properties":{"id":"6203041001002","commune":"Litueche","code":"06203","gse":"C3","quintil":"Q3","nse_score":710.0,"educ":12.2,"educ_score":613.3,"hacin":1.314,"hacin_class":"Hacinamiento Leve","hacin_score":784.2,"auto_score":117.6,"n_per":46,"n_hog":17,"source_year":2024,"crime_score":0.6995,"crime_nivel":"Alto","crime_color":"#f44336"},"geometry":{"type":"Polygon","coordinates":[[[-71.7300829879999,-34.1174150941234],[-71.7305951509999,-34.1176974531234],[-71.7313265669999,-34.1167264071234],[-71.7307905519999,-34.1164805531234],[-71.7300829879999,-34.1174150941234]]]}},{"type":"Feature","properties":{"id":"6203041001003","commune":"Litueche","code":"06203","gse":"D","quintil":"Q1","nse_score":625.0,"educ":10.1,"educ_score":473.3,"hacin":1.308,"hacin_class":"Hacinamiento Leve","hacin_score":785.6,"auto_score":62.5,"n_per":34,"n_hog":16,"source_year":2024,"crime_score":0.7284,"crime_nivel":"Alto","crime_color":"#f44336"},"geometry":{"type":"Polygon","coordinates":[[[-71.7314006109999,-34.1167660001234],[-71.7305721479999,-34.1178113241234],[-71.7309357869999,-34.1180407291234],[-71.7316970449999,-34.1171043381234],[-71.7314006109999,-34.1167660001234]]]}},{"type":"Feature","properties":{"id":"6203041001004","commune":"Litueche","code":"06203","gse":"D","quintil":"Q2","nse_score":653.3,"educ":11.2,"educ_score":546.7,"hacin":1.373,"hacin_class":"Hacinamiento Leve","hacin_score":771.7,"auto_score":296.9,"n_per":81,"n_hog":31,"source_year":2024,"crime_score":0.734,"crime_nivel":"Alto","crime_color":"#f44336"},"geometry":{"type":"Polygon","coordinates":[[[-71.7302017799999,-34.1199000231234],[-71.7311212089999,-34.1200821451233],[-71.7326890209999,-34.1180190481234],[-71.7324138119999,-34.1179858751234],[-71.732021518,-34.1176107251234],[-71.7318798339999,-34.1177358011234],[-71.7320004409999,-34.1175869111234],[-71.7317697649999,-34.1172279981234],[-71.7310214049999,-34.1180483411234],[-71.7313836399999,-34.1183034331234],[-71.7316561199999,-34.1180557891234],[-71.7314376279999,-34.1183335261234],[-71.7317673009999,-34.1185424941234],[-71.7315363809999,-34.1188876741234],[-71.7317161109999,-34.1185535571234],[-71.7309588839999,-34.1181251221234],[-71.7298931729999,-34.1195015881234],[-71.7302017799999,-34.1199000231234]]]}},{"type":"Feature","properties":{"id":"6203041001005","commune":"Litueche","code":"06203","gse":"E","quintil":"Q1","nse_score":593.4,"educ":9.8,"educ_score":453.3,"hacin":1.25,"hacin_class":"Hacinamiento Leve","hacin_score":797.9,"auto_score":159.1,"n_per":45,"n_hog":22,"source_year":2024,"crime_score":0.7447,"crime_nivel":"Alto","crime_color":"#f44336"},"geometry":{"type":"Polygon","coordinates":[[[-71.7289206909999,-34.1189631551234],[-71.7294389339999,-34.1192482961234],[-71.7305892509999,-34.1177048171234],[-71.7300744979999,-34.1174234921234],[-71.7289206909999,-34.1189631551234]]]}},{"type":"Feature","properties":{"id":"6203041001006","commune":"Litueche","code":"06203","gse":"D","quintil":"Q1","nse_score":620.3,"educ":11.4,"educ_score":560.0,"hacin":1.28,"hacin_class":"Hacinamiento Leve","hacin_score":791.5,"auto_score":264.7,"n_per":32,"n_hog":16,"source_year":2024,"crime_score":0.7295,"crime_nivel":"Alto","crime_color":"#f44336"},"geometry":{"type":"Polygon","coordinates":[[[-71.7298205419999,-34.1194712941234],[-71.7309079299999,-34.1181046821234],[-71.7305571509999,-34.1178523721234],[-71.7294867419999,-34.1192819351234],[-71.7298205419999,-34.1194712941234]]]}},{"type":"Feature","properties":{"id":"6203041001007","commune":"Litueche","code":"06203","gse":"D","quintil":"Q1","nse_score":606.4,"educ":9.8,"educ_score":453.3,"hacin":1.25,"hacin_class":"Hacinamiento Leve","hacin_score":797.9,"auto_score":357.1,"n_per":15,"n_hog":6,"source_year":2024,"crime_score":0.7287,"crime_nivel":"Alto","crime_color":"#f44336"},"geometry":{"type":"Polygon","coordinates":[[[-71.7323995909999,-34.1179220521234],[-71.7331417809999,-34.1180843931234],[-71.7330965709999,-34.1183461341234],[-71.7326836869999,-34.1192315131234],[-71.7321654579999,-34.1199135651234],[-71.7326521969999,-34.1202334821234],[-71.733604608,-34.1183414471234],[-71.7334156779999,-34.1179213031234],[-71.7323995909999,-34.1179220521234]]]}},{"type":"Feature","properties":{"id":"6203041001008","commune":"Litueche","code":"06203","gse":"E","quintil":"Q1","nse_score":601.7,"educ":10.0,"educ_score":466.7,"hacin":1.632,"hacin_class":"Hacinamiento Medio","hacin_score":716.7,"auto_score":230.8,"n_per":31,"n_hog":12,"source_year":2024,"crime_score":0.7363,"crime_nivel":"Alto","crime_color":"#f44336"},"geometry":{"type":"Polygon","coordinates":[[[-71.7311582369999,-34.1200991691234],[-71.7318486529999,-34.1204165951234],[-71.7326277639999,-34.1192298361234],[-71.7330894319999,-34.1180843931234],[-71.7327379719999,-34.1180229641234],[-71.7311582369999,-34.1200991691234]]]}},{"type":"Feature","properties":{"id":"6203041001009","commune":"Litueche","code":"06203","gse":"C3","quintil":"Q2","nse_score":667.1,"educ":11.2,"educ_score":546.7,"hacin":1.365,"hacin_class":"Hacinamiento Leve","hacin_score":773.5,"auto_score":118.2,"n_per":146,"n_hog":53,"source_year":2024,"crime_score":0.7512,"crime_nivel":"Alto","crime_color":"#f44336"},"geometry":{"type":"Polygon","coordinates":[[[-71.7288852489999,-34.1190428011233],[-71.7275562209999,-34.1207583691234],[-71.7268706439999,-34.1231092771233],[-71.7284202019999,-34.1227940551233],[-71.7308596279999,-34.1225329961234],[-71.7309476029999,-34.1222571761233],[-71.7305736599999,-34.1221656311233],[-71.729862781,-34.1214447201234],[-71.7295430069999,-34.1214201841233],[-71.7306494019999,-34.1200333811233],[-71.7301702589999,-34.1199475791234],[-71.7298502309999,-34.1195348071234],[-71.7294654989999,-34.1200154591234],[-71.7304203339999,-34.1202579851234],[-71.7296274229999,-34.1201469601234],[-71.7295852199999,-34.1202747011233],[-71.7299122719999,-34.1204973161234],[-71.7293408729999,-34.1212414721234],[-71.7290992369999,-34.1210372141234],[-71.7288882779999,-34.1205584031234],[-71.7298080929999,-34.1195116281234],[-71.7294520989999,-34.1193478151233],[-71.7291739199999,-34.1197003971234],[-71.7293816569999,-34.1193115021234],[-71.7288852489999,-34.1190428011233]]]}},{"type":"Feature","properties":{"id":"6203041001010","commune":"Litueche","code":"06203","gse":"D","quintil":"Q1","nse_score":619.5,"educ":9.3,"educ_score":420.0,"hacin":1.321,"hacin_class":"Hacinamiento Leve","hacin_score":782.7,"auto_score":83.3,"n_per":37,"n_hog":13,"source_year":2024,"crime_score":0.7316,"crime_nivel":"Alto","crime_color":"#f44336"},"geometry":{"type":"Polygon","coordinates":[[[-71.7290594069999,-34.1204222471234],[-71.7296451449999,-34.1207810751234],[-71.7298738069999,-34.1204926211234],[-71.7295558579999,-34.1202950511233],[-71.7295871899999,-34.1201244531234],[-71.7294333599999,-34.1200327031234],[-71.7290594069999,-34.1204222471234]]]}},{"type":"Feature","properties":{"id":"6203041001012","commune":"Litueche","code":"06203","gse":"D","quintil":"Q1","nse_score":618.0,"educ":10.1,"educ_score":473.3,"hacin":1.417,"hacin_class":"Hacinamiento Leve","hacin_score":762.4,"auto_score":250.0,"n_per":17,"n_hog":6,"source_year":2024,"crime_score":0.725,"crime_nivel":"Alto","crime_color":"#f44336"},"geometry":{"type":"Polygon","coordinates":[[[-71.7293179909999,-34.1212051141234],[-71.7296261589999,-34.1208037811234],[-71.7294494339999,-34.1206911821233],[-71.729128005,-34.1210365481234],[-71.7293179909999,-34.1212051141234]]]}},{"type":"Feature","properties":{"id":"6203041001013","commune":"Litueche","code":"06203","gse":"C3","quintil":"Q2","nse_score":675.5,"educ":11.3,"educ_score":553.3,"hacin":1.395,"hacin_class":"Hacinamiento Leve","hacin_score":767.1,"auto_score":222.2,"n_per":152,"n_hog":55,"source_year":2024,"crime_score":0.7499,"crime_nivel":"Alto","crime_color":"#f44336"},"geometry":{"type":"Polygon","coordinates":[[[-71.7280831219999,-34.1228953751233],[-71.7268340039999,-34.1231572091233],[-71.7266768129999,-34.1238796761233],[-71.7267776999999,-34.1246142111233],[-71.7306667039999,-34.1241776031233],[-71.726786263,-34.1246587111233],[-71.7271869099999,-34.1271767631233],[-71.7274970299999,-34.1271812641233],[-71.7271954019999,-34.1272278461233],[-71.7272549549999,-34.1275715051233],[-71.7319780439999,-34.1269918581233],[-71.7319092479999,-34.1267329261233],[-71.7284105629999,-34.1271630821233],[-71.7280874609999,-34.1257590201233],[-71.728371535,-34.1257114321233],[-71.7282280539999,-34.1247422841233],[-71.7307377329999,-34.1243895041233],[-71.7306595299999,-34.1239732031233],[-71.7283555559999,-34.1242922231233],[-71.7280831219999,-34.1228953751233]]]}},{"type":"Feature","properties":{"id":"6203041001014","commune":"Litueche","code":"06203","gse":"C3","quintil":"Q3","nse_score":711.1,"educ":12.4,"educ_score":626.7,"hacin":1.489,"hacin_class":"Hacinamiento Leve","hacin_score":746.9,"auto_score":295.5,"n_per":70,"n_hog":22,"source_year":2024,"crime_score":0.7072,"crime_nivel":"Alto","crime_color":"#f44336"},"geometry":{"type":"Polygon","coordinates":[[[-71.72727864,-34.1276689151233],[-71.7274217539999,-34.1281428491232],[-71.7308259119999,-34.1276716051233],[-71.7290735189999,-34.1279276181233],[-71.7291241209999,-34.1283237681232],[-71.7320019859999,-34.1279921551233],[-71.7318131159999,-34.1270432341233],[-71.72727864,-34.1276689151233]]]}},{"type":"Feature","properties":{"id":"6203041001015","commune":"Litueche","code":"06203","gse":"D","quintil":"Q2","nse_score":649.3,"educ":11.4,"educ_score":560.0,"hacin":1.667,"hacin_class":"Hacinamiento Medio","hacin_score":709.2,"auto_score":437.5,"n_per":30,"n_hog":8,"source_year":2024,"crime_score":0.7175,"crime_nivel":"Alto","crime_color":"#f44336"},"geometry":{"type":"Polygon","coordinates":[[[-71.7290893079999,-34.1283321851232],[-71.729051663,-34.1279440741232],[-71.7273720139999,-34.1281938011233],[-71.7274484209999,-34.1285359231233],[-71.7290893079999,-34.1283321851232]]]}},{"type":"Feature","properties":{"id":"6203041001016","commune":"Litueche","code":"06203","gse":"D","quintil":"Q2","nse_score":641.7,"educ":11.3,"educ_score":553.3,"hacin":1.45,"hacin_class":"Hacinamiento Leve","hacin_score":755.3,"auto_score":156.2,"n_per":29,"n_hog":13,"source_year":2024,"crime_score":0.7201,"crime_nivel":"Alto","crime_color":"#f44336"},"geometry":{"type":"Polygon","coordinates":[[[-71.7279606119999,-34.1316521281232],[-71.7300739309999,-34.1314124881233],[-71.7295398609999,-34.1282953431233],[-71.7274403439999,-34.1285716561233],[-71.7275278589999,-34.1289783141233],[-71.7285749079999,-34.1289032801232],[-71.7275191179999,-34.1290407811233],[-71.7279606119999,-34.1316521281232]]]}}]}