{"type":"FeatureCollection","features":[{"type":"Feature","properties":{"id":"9207011001001","commune":"Lumaco","code":"09207","gse":"E","quintil":"Q1","nse_score":603.8,"educ":9.4,"educ_score":426.7,"hacin":1.0,"hacin_class":"Hacinamiento Leve","hacin_score":851.1,"auto_score":277.8,"n_per":16,"n_hog":8,"source_year":2024,"crime_score":0.144,"crime_nivel":"Bajo","crime_color":"#cddc39"},"geometry":{"type":"Polygon","coordinates":[[[-72.9087302399999,-38.1563699100831],[-72.9074996649999,-38.1568110080831],[-72.9080376009999,-38.1580736100831],[-72.9085102089999,-38.1578538810831],[-72.9080660729999,-38.1581369220831],[-72.9084439419999,-38.1590122350831],[-72.9085688329999,-38.1589498510831],[-72.9085727149999,-38.1586454790831],[-72.9087394879999,-38.1585816230831],[-72.9085917189999,-38.1586545630831],[-72.9085877979999,-38.1589572800831],[-72.9084518509999,-38.1590308270831],[-72.9085485289999,-38.1592513200831],[-72.908917948,-38.1591229510831],[-72.9085566299999,-38.1592696390831],[-72.9091459409999,-38.1605916260831],[-72.9104159139999,-38.1602887530831],[-72.9087302399999,-38.1563699100831]]]}},{"type":"Feature","properties":{"id":"9207011001002","commune":"Lumaco","code":"09207","gse":"D","quintil":"Q2","nse_score":657.4,"educ":11.1,"educ_score":540.0,"hacin":1.217,"hacin_class":"Hacinamiento Leve","hacin_score":804.8,"auto_score":187.5,"n_per":28,"n_hog":8,"source_year":2024,"crime_score":0.1407,"crime_nivel":"Bajo","crime_color":"#cddc39"},"geometry":{"type":"Polygon","coordinates":[[[-72.9074040619999,-38.1568452750831],[-72.9067931389999,-38.1568054130831],[-72.9062514309999,-38.1571163900831],[-72.9071006779999,-38.1592247750831],[-72.9057170289999,-38.1595947740831],[-72.9060482679999,-38.1603398000831],[-72.9086174869999,-38.1596191540831],[-72.9074040619999,-38.1568452750831]]]}},{"type":"Feature","properties":{"id":"9207011001003","commune":"Lumaco","code":"09207","gse":"D","quintil":"Q1","nse_score":641.2,"educ":11.5,"educ_score":566.7,"hacin":1.118,"hacin_class":"Hacinamiento Leve","hacin_score":826.0,"auto_score":277.8,"n_per":19,"n_hog":7,"source_year":2024,"crime_score":0.1413,"crime_nivel":"Bajo","crime_color":"#cddc39"},"geometry":{"type":"Polygon","coordinates":[[[-72.9053559779999,-38.1616344400831],[-72.9090097729999,-38.1606317070831],[-72.9090600409999,-38.1605639140831],[-72.9086305409999,-38.1596957580831],[-72.9050244939999,-38.1606696900831],[-72.9053559779999,-38.1616344400831]]]}},{"type":"Feature","properties":{"id":"9207011001004","commune":"Lumaco","code":"09207","gse":"E","quintil":"Q1","nse_score":594.9,"educ":9.6,"educ_score":440.0,"hacin":1.222,"hacin_class":"Hacinamiento Leve","hacin_score":803.8,"auto_score":111.1,"n_per":22,"n_hog":8,"source_year":2024,"crime_score":0.1451,"crime_nivel":"Bajo","crime_color":"#cddc39"},"geometry":{"type":"Polygon","coordinates":[[[-72.9102013169999,-38.1619685260831],[-72.9108433729999,-38.1620110050831],[-72.9113114609999,-38.1623413380831],[-72.9104094959999,-38.1603681990831],[-72.9091985349999,-38.1606609360831],[-72.9095462759999,-38.1616249540831],[-72.9102013169999,-38.1619685260831]]]}},{"type":"Feature","properties":{"id":"9207011001005","commune":"Lumaco","code":"09207","gse":"D","quintil":"Q1","nse_score":636.0,"educ":9.4,"educ_score":426.7,"hacin":1.0,"hacin_class":"Hacinamiento Leve","hacin_score":851.1,"auto_score":200.0,"n_per":20,"n_hog":10,"source_year":2024,"crime_score":0.1418,"crime_nivel":"Bajo","crime_color":"#cddc39"},"geometry":{"type":"Polygon","coordinates":[[[-72.9091198319999,-38.1607205270831],[-72.9054271619999,-38.1616920400831],[-72.9057218069999,-38.162553126083],[-72.9065304809999,-38.1622582870831],[-72.9067378399999,-38.161991648083],[-72.9067646529999,-38.1616503130831],[-72.9072806009999,-38.1615129380831],[-72.907694165,-38.1617780830831],[-72.9078503199999,-38.1621233080831],[-72.9085817659999,-38.1627149350831],[-72.908887563,-38.1627680400831],[-72.9092826079999,-38.1626322070831],[-72.9093692949999,-38.1623885890831],[-72.9090480679999,-38.1622167690831],[-72.9090495259999,-38.1617207140831],[-72.9094770299999,-38.1616084960831],[-72.9091198319999,-38.1607205270831]]]}},{"type":"Feature","properties":{"id":"9207011001006","commune":"Lumaco","code":"09207","gse":"C3","quintil":"Q3","nse_score":704.5,"educ":11.5,"educ_score":566.7,"hacin":0.647,"hacin_class":"Sin Hacinamiento","hacin_score":926.2,"auto_score":0.0,"n_per":11,"n_hog":5,"source_year":2024,"crime_score":0.136,"crime_nivel":"Bajo","crime_color":"#cddc39"},"geometry":{"type":"Polygon","coordinates":[[[-72.9025529039999,-38.1613246750831],[-72.9029242309999,-38.1623435150831],[-72.9031019029999,-38.162170062083],[-72.9034366839999,-38.1622002070831],[-72.9042622569999,-38.1626646970831],[-72.9040501889999,-38.1620608390831],[-72.9052590419999,-38.1616453720831],[-72.9048618159999,-38.1607300710831],[-72.9025529039999,-38.1613246750831]]]}},{"type":"Feature","properties":{"id":"9207011001007","commune":"Lumaco","code":"09207","gse":"D","quintil":"Q1","nse_score":616.1,"educ":10.2,"educ_score":480.0,"hacin":1.175,"hacin_class":"Hacinamiento Leve","hacin_score":813.8,"auto_score":150.0,"n_per":47,"n_hog":17,"source_year":2024,"crime_score":0.1452,"crime_nivel":"Bajo","crime_color":"#cddc39"},"geometry":{"type":"Polygon","coordinates":[[[-72.9057846599999,-38.1627037455831],[-72.9062132029999,-38.163698928083],[-72.906354888,-38.1636834330831],[-72.9062433549999,-38.1637670500831],[-72.9068289429999,-38.1650660970831],[-72.9079526199999,-38.1647617240831],[-72.9077618699999,-38.1641230340831],[-72.9080893749999,-38.1647191050831],[-72.909256851,-38.1643794550831],[-72.9085298989999,-38.1627389060831],[-72.907819893,-38.1621969190831],[-72.9076479209999,-38.161837647083],[-72.9073763899999,-38.1616260940831],[-72.9067912589999,-38.1617116860831],[-72.9068618989999,-38.1619865180831],[-72.9067624429999,-38.162179752083],[-72.9057846599999,-38.1627037455831]]]}},{"type":"Feature","properties":{"id":"9207011001008","commune":"Lumaco","code":"09207","gse":"D","quintil":"Q1","nse_score":638.6,"educ":10.7,"educ_score":513.3,"hacin":1.238,"hacin_class":"Hacinamiento Leve","hacin_score":800.3,"auto_score":220.3,"n_per":161,"n_hog":55,"source_year":2024,"crime_score":0.1515,"crime_nivel":"Bajo","crime_color":"#cddc39"},"geometry":{"type":"Polygon","coordinates":[[[-72.9094253059999,-38.1625599220831],[-72.908991307,-38.1628313280831],[-72.9086509109999,-38.162835177083],[-72.9093461149999,-38.1643824340831],[-72.9115505749999,-38.163757740083],[-72.9114825859999,-38.1634047560831],[-72.9115347079999,-38.1633543830831],[-72.9117271079999,-38.1633215410831],[-72.9115156499999,-38.1634143550831],[-72.9116566739999,-38.163782580083],[-72.9108170569999,-38.1640253350831],[-72.9109545049999,-38.1643572410831],[-72.9107741329999,-38.1640376300831],[-72.9102999989999,-38.1641886560831],[-72.9104361949999,-38.164471893083],[-72.9106119399999,-38.164462531083],[-72.9102134139999,-38.1645679690831],[-72.9103930349999,-38.1644836690831],[-72.9102572069999,-38.164201195083],[-72.9093690259999,-38.1644334040831],[-72.909834998,-38.1653629940831],[-72.911965946,-38.1648035150831],[-72.9118038259999,-38.1643252480831],[-72.9120090239999,-38.164791601083],[-72.9123703129999,-38.164696082083],[-72.9121900609999,-38.164254871083],[-72.912413694,-38.164684880083],[-72.9134446569999,-38.1644066580831],[-72.9132031199999,-38.1637783360831],[-72.9123410409999,-38.1634742520831],[-72.9122466189999,-38.1632671030831],[-72.912319297,-38.162862789083],[-72.912005286,-38.1626193860831],[-72.9116099069999,-38.1625868230831],[-72.9108580609999,-38.1621631070831],[-72.9103153479999,-38.1620995760831],[-72.9092991559999,-38.1616874950831],[-72.909069944,-38.1620003950831],[-72.9091887429999,-38.1622218060831],[-72.9094414929999,-38.1623418630831],[-72.9094253059999,-38.1625599220831]]]}},{"type":"Feature","properties":{"id":"9207011001009","commune":"Lumaco","code":"09207","gse":"E","quintil":"Q1","nse_score":368.6,"educ":3.5,"educ_score":33.3,"hacin":1.0,"hacin_class":"Hacinamiento Leve","hacin_score":851.1,"auto_score":125.0,"n_per":10,"n_hog":4,"source_year":2024,"crime_score":0.1613,"crime_nivel":"Bajo","crime_color":"#cddc39"},"geometry":{"type":"Polygon","coordinates":[[[-72.9044057979999,-38.1628586080831],[-72.905189032,-38.1628900660831],[-72.9056602869999,-38.1626194600831],[-72.9052830409999,-38.1617539350831],[-72.9041092349999,-38.1620903540831],[-72.9044057979999,-38.1628586080831]]]}},{"type":"Feature","properties":{"id":"9207011001010","commune":"Lumaco","code":"09207","gse":"C2","quintil":"Q3","nse_score":711.3,"educ":12.6,"educ_score":640.0,"hacin":1.0,"hacin_class":"Hacinamiento Leve","hacin_score":851.1,"auto_score":125.0,"n_per":18,"n_hog":8,"source_year":2024,"crime_score":0.1359,"crime_nivel":"Bajo","crime_color":"#cddc39"},"geometry":{"type":"Polygon","coordinates":[[[-72.9035692049999,-38.163985155083],[-72.9047944009999,-38.1638222990831],[-72.9043810159999,-38.1629430900831],[-72.9041108559999,-38.1628086420831],[-72.9040474729999,-38.162579502083],[-72.9031561019999,-38.1622387410831],[-72.9029838379999,-38.162399260083],[-72.9035692049999,-38.163985155083]]]}},{"type":"Feature","properties":{"id":"9207011001012","commune":"Lumaco","code":"09207","gse":"E","quintil":"Q1","nse_score":530.1,"educ":7.2,"educ_score":280.0,"hacin":0.8,"hacin_class":"Sin Hacinamiento","hacin_score":893.6,"auto_score":0.0,"n_per":8,"n_hog":4,"source_year":2024,"crime_score":0.149,"crime_nivel":"Bajo","crime_color":"#cddc39"},"geometry":{"type":"Polygon","coordinates":[[[-72.9051449629999,-38.1629799960831],[-72.9044708579999,-38.1629639320831],[-72.9048877149999,-38.1638292740831],[-72.9060885459999,-38.1636995170831],[-72.9057204789999,-38.1627526030831],[-72.9051449629999,-38.1629799960831]]]}},{"type":"Feature","properties":{"id":"9207011001014","commune":"Lumaco","code":"09207","gse":"C3","quintil":"Q2","nse_score":680.2,"educ":11.6,"educ_score":573.3,"hacin":1.2,"hacin_class":"Hacinamiento Leve","hacin_score":808.5,"auto_score":83.3,"n_per":36,"n_hog":11,"source_year":2024,"crime_score":0.1395,"crime_nivel":"Bajo","crime_color":"#cddc39"},"geometry":{"type":"Polygon","coordinates":[[[-72.9061711549999,-38.163797302083],[-72.9049298209999,-38.163950873083],[-72.9055694019999,-38.165381551083],[-72.9067203799999,-38.1650957000831],[-72.9061711549999,-38.163797302083]]]}},{"type":"Feature","properties":{"id":"9207011001015","commune":"Lumaco","code":"09207","gse":"C3","quintil":"Q2","nse_score":673.6,"educ":11.6,"educ_score":573.3,"hacin":1.086,"hacin_class":"Hacinamiento Leve","hacin_score":832.8,"auto_score":111.1,"n_per":38,"n_hog":17,"source_year":2024,"crime_score":0.1402,"crime_nivel":"Bajo","crime_color":"#cddc39"},"geometry":{"type":"Polygon","coordinates":[[[-72.9042004299999,-38.165756542083],[-72.9054901419999,-38.1653837700831],[-72.9048325629999,-38.1639407160831],[-72.9036204859999,-38.1640626660831],[-72.9042004299999,-38.165756542083]]]}},{"type":"Feature","properties":{"id":"9207011001016","commune":"Lumaco","code":"09207","gse":"D","quintil":"Q1","nse_score":625.4,"educ":10.1,"educ_score":473.3,"hacin":1.04,"hacin_class":"Hacinamiento Leve","hacin_score":842.6,"auto_score":166.7,"n_per":26,"n_hog":11,"source_year":2024,"crime_score":0.143,"crime_nivel":"Bajo","crime_color":"#cddc39"},"geometry":{"type":"Polygon","coordinates":[[[-72.9026183659999,-38.165153144083],[-72.9038368399999,-38.1649766620831],[-72.903514792,-38.1640831390831],[-72.9022689199999,-38.1642102380831],[-72.9026183659999,-38.165153144083]]]}},{"type":"Feature","properties":{"id":"9207011001017","commune":"Lumaco","code":"09207","gse":"E","quintil":"Q1","nse_score":561.3,"educ":8.6,"educ_score":373.3,"hacin":1.373,"hacin_class":"Hacinamiento Leve","hacin_score":771.6,"auto_score":170.7,"n_per":114,"n_hog":39,"source_year":2024,"crime_score":0.1543,"crime_nivel":"Bajo","crime_color":"#cddc39"},"geometry":{"type":"Polygon","coordinates":[[[-72.9007852889999,-38.164339628083],[-72.9008707219999,-38.1646031490831],[-72.9007370749999,-38.1650003340831],[-72.9003437409999,-38.165240861083],[-72.9000988569999,-38.165216558083],[-72.8997208079999,-38.1648612450831],[-72.8991151919999,-38.1649563240831],[-72.8992563399999,-38.1654609460831],[-72.8995911959999,-38.165854633083],[-72.899615304,-38.166230047083],[-72.8998672859999,-38.166794984083],[-72.9003400939999,-38.166723118083],[-72.8999288449999,-38.1659295850831],[-72.9010360889999,-38.166154061083],[-72.9019625779999,-38.166006501083],[-72.9015564489999,-38.166188477083],[-72.9016961659999,-38.1664603450831],[-72.9028000449999,-38.166156634083],[-72.9025275029999,-38.1652371270831],[-72.9015279879999,-38.1653848970831],[-72.9025155179999,-38.165161089083],[-72.9021841119999,-38.164226242083],[-72.9007852889999,-38.164339628083]]]}},{"type":"Feature","properties":{"id":"9207011001018","commune":"Lumaco","code":"09207","gse":"D","quintil":"Q1","nse_score":619.5,"educ":9.7,"educ_score":446.7,"hacin":1.107,"hacin_class":"Hacinamiento Leve","hacin_score":828.3,"auto_score":115.4,"n_per":31,"n_hog":12,"source_year":2024,"crime_score":0.1438,"crime_nivel":"Bajo","crime_color":"#cddc39"},"geometry":{"type":"Polygon","coordinates":[[[-72.9085156179999,-38.165704416083],[-72.9097155549999,-38.165397350083],[-72.9093061969999,-38.1644749510831],[-72.9081087749999,-38.1648140680831],[-72.9085156179999,-38.165704416083]]]}},{"type":"Feature","properties":{"id":"9207011001019","commune":"Lumaco","code":"09207","gse":"E","quintil":"Q1","nse_score":602.2,"educ":9.8,"educ_score":453.3,"hacin":1.385,"hacin_class":"Hacinamiento Leve","hacin_score":769.0,"auto_score":21.7,"n_per":248,"n_hog":89,"source_year":2024,"crime_score":0.1607,"crime_nivel":"Bajo","crime_color":"#cddc39"},"geometry":{"type":"Polygon","coordinates":[[[-72.9095470199999,-38.167864065083],[-72.9141130159999,-38.166625345083],[-72.9135902719999,-38.165392463083],[-72.9134569899999,-38.1644654830831],[-72.9121709519999,-38.1648207660831],[-72.9128055619999,-38.166421426083],[-72.9121063469999,-38.1648387920831],[-72.9098530999999,-38.165458362083],[-72.9105040989999,-38.1670541920831],[-72.9097876399999,-38.165474723083],[-72.9086343289999,-38.1657805620831],[-72.9089278509999,-38.1658159140831],[-72.9091174539999,-38.166374126083],[-72.9088768599999,-38.165862089083],[-72.9086867159999,-38.1659012040831],[-72.908565226,-38.1657852440831],[-72.9073871849999,-38.166105901083],[-72.9074957269999,-38.166383710083],[-72.9084870069999,-38.166116601083],[-72.9075091899999,-38.166418159083],[-72.9076686659999,-38.166685763083],[-72.9085939239999,-38.166437503083],[-72.9077071329999,-38.1667134940831],[-72.9080318109999,-38.166906712083],[-72.9086749189999,-38.166742694083],[-72.9080923519999,-38.166929063083],[-72.9085366469999,-38.1670930920831],[-72.9088667419999,-38.167055386083],[-72.908530272,-38.1671299480831],[-72.9078910179999,-38.166894396083],[-72.9075522069999,-38.1666492900831],[-72.9072873729999,-38.1661308710831],[-72.9076380699999,-38.166914605083],[-72.9088504389999,-38.1673922030831],[-72.9095470199999,-38.167864065083]]]}},{"type":"Feature","properties":{"id":"9207011001020","commune":"Lumaco","code":"09207","gse":"C3","quintil":"Q2","nse_score":668.8,"educ":11.8,"educ_score":586.7,"hacin":1.071,"hacin_class":"Hacinamiento Leve","hacin_score":835.9,"auto_score":166.7,"n_per":15,"n_hog":5,"source_year":2024,"crime_score":0.139,"crime_nivel":"Bajo","crime_color":"#cddc39"},"geometry":{"type":"Polygon","coordinates":[[[-72.9068407959999,-38.165175425083],[-72.9072386729999,-38.166050768083],[-72.9084301269999,-38.165725421083],[-72.9079895759999,-38.164816450083],[-72.9068407959999,-38.165175425083]]]}},{"type":"Feature","properties":{"id":"9207011001021","commune":"Lumaco","code":"09207","gse":"C3","quintil":"Q2","nse_score":670.5,"educ":10.8,"educ_score":520.0,"hacin":0.714,"hacin_class":"Sin Hacinamiento","hacin_score":911.9,"auto_score":55.6,"n_per":15,"n_hog":9,"source_year":2024,"crime_score":0.1388,"crime_nivel":"Bajo","crime_color":"#cddc39"},"geometry":{"type":"Polygon","coordinates":[[[-72.9029416669999,-38.166118614083],[-72.9040897459999,-38.165810209083],[-72.9038499389999,-38.165017446083],[-72.9026126069999,-38.165229637083],[-72.9029416669999,-38.166118614083]]]}},{"type":"Feature","properties":{"id":"9207011001022","commune":"Lumaco","code":"09207","gse":"C3","quintil":"Q3","nse_score":687.1,"educ":13.5,"educ_score":700.0,"hacin":1.257,"hacin_class":"Hacinamiento Leve","hacin_score":796.4,"auto_score":113.6,"n_per":44,"n_hog":19,"source_year":2024,"crime_score":0.1395,"crime_nivel":"Bajo","crime_color":"#cddc39"},"geometry":{"type":"Polygon","coordinates":[[[-72.905989583,-38.1663532470831],[-72.9071428279999,-38.166069518083],[-72.9067528689999,-38.165181886083],[-72.9056231509999,-38.165472622083],[-72.905989583,-38.1663532470831]]]}},{"type":"Feature","properties":{"id":"9207011001023","commune":"Lumaco","code":"09207","gse":"E","quintil":"Q1","nse_score":566.1,"educ":9.9,"educ_score":460.0,"hacin":1.364,"hacin_class":"Hacinamiento Leve","hacin_score":773.7,"auto_score":0.0,"n_per":30,"n_hog":10,"source_year":2024,"crime_score":0.1478,"crime_nivel":"Bajo","crime_color":"#cddc39"},"geometry":{"type":"Polygon","coordinates":[[[-72.9055239839999,-38.1654978870831],[-72.9042156959999,-38.1658710300831],[-72.9045758929999,-38.166769570083],[-72.9059105769999,-38.166396893083],[-72.9055239839999,-38.1654978870831]]]}},{"type":"Feature","properties":{"id":"9207011001025","commune":"Lumaco","code":"09207","gse":"E","quintil":"Q1","nse_score":600.4,"educ":9.3,"educ_score":420.0,"hacin":1.36,"hacin_class":"Hacinamiento Leve","hacin_score":774.5,"auto_score":0.0,"n_per":34,"n_hog":13,"source_year":2024,"crime_score":0.1455,"crime_nivel":"Bajo","crime_color":"#cddc39"},"geometry":{"type":"Polygon","coordinates":[[[-72.9004077119999,-38.1667112690831],[-72.9006810999999,-38.166655764083],[-72.9004267349999,-38.166135053083],[-72.9000985579999,-38.1660485240831],[-72.9004077119999,-38.1667112690831]]]}},{"type":"Feature","properties":{"id":"9207011001026","commune":"Lumaco","code":"09207","gse":"E","quintil":"Q1","nse_score":568.1,"educ":8.3,"educ_score":353.3,"hacin":1.0,"hacin_class":"Hacinamiento Leve","hacin_score":851.1,"auto_score":0.0,"n_per":12,"n_hog":6,"source_year":2024,"crime_score":0.1464,"crime_nivel":"Bajo","crime_color":"#cddc39"},"geometry":{"type":"Polygon","coordinates":[[[-72.9007805629999,-38.166661403083],[-72.9010394289999,-38.166597107083],[-72.9008445289999,-38.166196008083],[-72.900509569,-38.1661517360831],[-72.9007805629999,-38.166661403083]]]}},{"type":"Feature","properties":{"id":"9207011001027","commune":"Lumaco","code":"09207","gse":"E","quintil":"Q1","nse_score":531.7,"educ":7.9,"educ_score":326.7,"hacin":1.617,"hacin_class":"Hacinamiento Medio","hacin_score":719.7,"auto_score":53.2,"n_per":131,"n_hog":45,"source_year":2024,"crime_score":0.158,"crime_nivel":"Bajo","crime_color":"#cddc39"},"geometry":{"type":"Polygon","coordinates":[[[-72.9078929549999,-38.167298107083],[-72.9074325229999,-38.1671407740831],[-72.9066021359999,-38.166675376083],[-72.9063143259999,-38.166383667083],[-72.9052226909999,-38.166680512083],[-72.9055331759999,-38.166794759083],[-72.9056356369999,-38.1670119930831],[-72.9062945919999,-38.166906703083],[-72.9066170859999,-38.1672946940831],[-72.9065192019999,-38.167498660083],[-72.9064880059999,-38.167215931083],[-72.9060007819999,-38.167352437083],[-72.9064666299999,-38.1671840700831],[-72.9062578439999,-38.166953076083],[-72.9047955189999,-38.167268563083],[-72.9052064409999,-38.168146104083],[-72.9059068299999,-38.169018947083],[-72.9061697509999,-38.169565641083],[-72.9060162589999,-38.1690106770831],[-72.9055250189999,-38.1683254800831],[-72.90564244,-38.168087351083],[-72.9065220079999,-38.167905067083],[-72.9066931409999,-38.167979533083],[-72.9070255029999,-38.168519272083],[-72.9094772099999,-38.1678822050831],[-72.9088135699999,-38.167437755083],[-72.9075938059999,-38.1669561940831],[-72.9071867339999,-38.166154915083],[-72.9063599489999,-38.166371332083],[-72.906629,-38.166645852083],[-72.9078929549999,-38.167298107083]]]}},{"type":"Feature","properties":{"id":"9207011001028","commune":"Lumaco","code":"09207","gse":"D","quintil":"Q2","nse_score":652.7,"educ":11.2,"educ_score":546.7,"hacin":1.333,"hacin_class":"Hacinamiento Leve","hacin_score":780.1,"auto_score":166.7,"n_per":32,"n_hog":12,"source_year":2024,"crime_score":0.1414,"crime_nivel":"Bajo","crime_color":"#cddc39"},"geometry":{"type":"Polygon","coordinates":[[[-72.9014477799999,-38.166177259083],[-72.9009238189999,-38.1662082720831],[-72.9011365989999,-38.166599992083],[-72.9015889529999,-38.166472911083],[-72.9014477799999,-38.166177259083]]]}},{"type":"Feature","properties":{"id":"9207011001030","commune":"Lumaco","code":"09207","gse":"D","quintil":"Q2","nse_score":660.6,"educ":10.7,"educ_score":513.3,"hacin":1.0,"hacin_class":"Hacinamiento Leve","hacin_score":851.1,"auto_score":100.0,"n_per":11,"n_hog":5,"source_year":2024,"crime_score":0.1393,"crime_nivel":"Bajo","crime_color":"#cddc39"},"geometry":{"type":"Polygon","coordinates":[[[-72.901558098,-38.166561599083],[-72.8999535109999,-38.1668563690831],[-72.9003762399999,-38.167920014083],[-72.9019438939999,-38.167499559083],[-72.901558098,-38.166561599083]]]}},{"type":"Feature","properties":{"id":"9207011001031","commune":"Lumaco","code":"09207","gse":"E","quintil":"Q1","nse_score":582.8,"educ":9.1,"educ_score":406.7,"hacin":1.267,"hacin_class":"Hacinamiento Leve","hacin_score":794.3,"auto_score":0.0,"n_per":19,"n_hog":10,"source_year":2024,"crime_score":0.1458,"crime_nivel":"Bajo","crime_color":"#cddc39"},"geometry":{"type":"Polygon","coordinates":[[[-72.9046106079999,-38.1668737890831],[-72.9048265189999,-38.167185120083],[-72.9055885239999,-38.1669813820831],[-72.9054787549999,-38.1667872570831],[-72.9051645149999,-38.166694997083],[-72.9046106079999,-38.1668737890831]]]}},{"type":"Feature","properties":{"id":"9207011001032","commune":"Lumaco","code":"09207","gse":"E","quintil":"Q1","nse_score":606.1,"educ":10.1,"educ_score":473.3,"hacin":1.246,"hacin_class":"Hacinamiento Leve","hacin_score":798.7,"auto_score":157.1,"n_per":76,"n_hog":32,"source_year":2024,"crime_score":0.1481,"crime_nivel":"Bajo","crime_color":"#cddc39"},"geometry":{"type":"Polygon","coordinates":[[[-72.9037166069999,-38.167972271083],[-72.9033422109999,-38.167179967083],[-72.9031536949999,-38.167243301083],[-72.9043026219999,-38.169959163083],[-72.9050950179999,-38.169798894083],[-72.9047738059999,-38.168928236083],[-72.9051389279999,-38.169788809083],[-72.9060845879999,-38.169556970083],[-72.9058468879999,-38.169045118083],[-72.9051434859999,-38.1681674370831],[-72.904521858,-38.166881989083],[-72.903390268,-38.167169109083],[-72.9037166069999,-38.167972271083]]]}},{"type":"Feature","properties":{"id":"9207011001033","commune":"Lumaco","code":"09207","gse":"E","quintil":"Q1","nse_score":608.0,"educ":10.8,"educ_score":520.0,"hacin":1.23,"hacin_class":"Hacinamiento Leve","hacin_score":802.2,"auto_score":171.9,"n_per":75,"n_hog":30,"source_year":2024,"crime_score":0.1478,"crime_nivel":"Bajo","crime_color":"#cddc39"},"geometry":{"type":"Polygon","coordinates":[[[-72.9028295199999,-38.167800581083],[-72.902620323,-38.167374441083],[-72.9003852109999,-38.167973241083],[-72.9008009329999,-38.169039548083],[-72.9018832229999,-38.169986597083],[-72.9024571179999,-38.170178854083],[-72.9021445929999,-38.169856867083],[-72.902797716,-38.170245380083],[-72.9042157009999,-38.169996770083],[-72.9030410919999,-38.167270631083],[-72.9027000729999,-38.167355424083],[-72.9028295199999,-38.167800581083]]]}},{"type":"Feature","properties":{"id":"9207011001035","commune":"Lumaco","code":"09207","gse":"E","quintil":"Q1","nse_score":523.4,"educ":8.6,"educ_score":373.3,"hacin":1.333,"hacin_class":"Hacinamiento Leve","hacin_score":780.1,"auto_score":0.0,"n_per":20,"n_hog":7,"source_year":2024,"crime_score":0.1504,"crime_nivel":"Bajo","crime_color":"#cddc39"},"geometry":{"type":"Polygon","coordinates":[[[-72.9061242529999,-38.169632726083],[-72.9025920739999,-38.170277808083],[-72.9029683439999,-38.170683191083],[-72.9030686349999,-38.170979855083],[-72.9053753749999,-38.170514477083],[-72.9059827549999,-38.172075240083],[-72.9070571499999,-38.171858269083],[-72.9067320939999,-38.170999230083],[-72.9063006019999,-38.171260397083],[-72.9062815659999,-38.171229463083],[-72.9067166259999,-38.170971939083],[-72.9065926379999,-38.170734503083],[-72.9061668959999,-38.170866948083],[-72.9065734209999,-38.170680877083],[-72.9061242529999,-38.169632726083]]]}},{"type":"Feature","properties":{"id":"9207011001011","commune":"Lumaco","code":"09207","gse":"C3","quintil":"Q3","nse_score":698.5,"educ":11.9,"educ_score":593.3,"hacin":0.647,"hacin_class":"Sin Hacinamiento","hacin_score":926.2,"auto_score":250.0,"n_per":11,"n_hog":6,"source_year":2024,"crime_score":0.1364,"crime_nivel":"Bajo","crime_color":"#cddc39"},"geometry":{"type":"MultiPolygon","coordinates":[[[[-72.9015101119999,-38.1635313090831],[-72.9008397209999,-38.1633190130831],[-72.9009081419999,-38.1640078620831],[-72.9006967359999,-38.1641937530831],[-72.900763347,-38.1643136760831],[-72.9021351019999,-38.1641442650831],[-72.9018407289999,-38.163271245083],[-72.9015101119999,-38.1635313090831]]],[[[-72.9023053069999,-38.1641292840831],[-72.9034653069999,-38.1640013220831],[-72.9029405049999,-38.1624611770831],[-72.9021851159999,-38.1628608640831],[-72.9018921939999,-38.1632129090831],[-72.9023053069999,-38.1641292840831]]]]}},{"type":"Feature","properties":{"id":"9207011001024","commune":"Lumaco","code":"09207","gse":"D","quintil":"Q1","nse_score":619.7,"educ":8.9,"educ_score":393.3,"hacin":1.046,"hacin_class":"Hacinamiento Leve","hacin_score":841.4,"auto_score":50.0,"n_per":23,"n_hog":10,"source_year":2024,"crime_score":0.1432,"crime_nivel":"Bajo","crime_color":"#cddc39"},"geometry":{"type":"MultiPolygon","coordinates":[[[[-72.9020658689999,-38.1674546450831],[-72.9031721009999,-38.167163524083],[-72.9028414729999,-38.166229464083],[-72.9016549479999,-38.1665596970831],[-72.9020658689999,-38.1674546450831]]],[[[-72.9032857889999,-38.167129510083],[-72.9044682359999,-38.166817209083],[-72.9041376169999,-38.165890339083],[-72.9029500389999,-38.1661998640831],[-72.9032857889999,-38.167129510083]]]]}},{"type":"Feature","properties":{"id":"9207101001002","commune":"Lumaco","code":"09207","gse":"D","quintil":"Q2","nse_score":647.4,"educ":11.7,"educ_score":580.0,"hacin":1.625,"hacin_class":"Hacinamiento Medio","hacin_score":718.1,"auto_score":0.0,"n_per":13,"n_hog":4,"source_year":2024,"crime_score":0.1404,"crime_nivel":"Bajo","crime_color":"#cddc39"},"geometry":{"type":"Polygon","coordinates":[[[-72.9857193939999,-38.1892973510829],[-72.9850025619999,-38.1893120470829],[-72.9848496459999,-38.1894706390828],[-72.9842894689999,-38.1895257730829],[-72.9840908659999,-38.1896804940829],[-72.9838532089999,-38.1904792320828],[-72.9834386439999,-38.1909874500829],[-72.9836627799999,-38.1914808450829],[-72.987098037,-38.1899810940829],[-72.9874156649999,-38.1901012680828],[-72.9884384109999,-38.1914736030829],[-72.9893419349999,-38.1912443060828],[-72.9885133619999,-38.1893155050829],[-72.9881410159999,-38.1892629340829],[-72.9870175529999,-38.1885841090828],[-72.9862151699999,-38.1889178360828],[-72.9857193939999,-38.1892973510829]]]}},{"type":"Feature","properties":{"id":"9207101001003","commune":"Lumaco","code":"09207","gse":"C2","quintil":"Q4","nse_score":727.8,"educ":12.5,"educ_score":633.3,"hacin":1.049,"hacin_class":"Hacinamiento Leve","hacin_score":840.7,"auto_score":111.1,"n_per":43,"n_hog":18,"source_year":2024,"crime_score":0.1363,"crime_nivel":"Bajo","crime_color":"#cddc39"},"geometry":{"type":"Polygon","coordinates":[[[-72.9890240659999,-38.1902182750829],[-72.9902355379999,-38.1899059180829],[-72.9898590239999,-38.1889508610829],[-72.9886531929999,-38.1892640760828],[-72.9890240659999,-38.1902182750829]]]}},{"type":"Feature","properties":{"id":"9207101001009","commune":"Lumaco","code":"09207","gse":"C2","quintil":"Q3","nse_score":715.4,"educ":11.8,"educ_score":586.7,"hacin":1.385,"hacin_class":"Hacinamiento Leve","hacin_score":769.2,"auto_score":500.0,"n_per":18,"n_hog":5,"source_year":2024,"crime_score":0.1356,"crime_nivel":"Bajo","crime_color":"#cddc39"},"geometry":{"type":"Polygon","coordinates":[[[-72.9836892739999,-38.1915391680829],[-72.9849691949999,-38.1941918110828],[-72.9847861149999,-38.1952477070828],[-72.985001328,-38.1958017030828],[-72.9859796829999,-38.1961625800828],[-72.985791317,-38.1956649010828],[-72.9857262549999,-38.1947269780828],[-72.9853032689999,-38.1939791500828],[-72.9852988649999,-38.1937877530828],[-72.9857905049999,-38.1929936740828],[-72.9855831149999,-38.1926132420828],[-72.9856488899999,-38.1923453510828],[-72.984972765,-38.1925058160828],[-72.9857154449999,-38.1922667030828],[-72.9855770759999,-38.1919988800828],[-72.9857721559999,-38.1922337560828],[-72.9882432029999,-38.1915428020829],[-72.9882605489999,-38.1914480980829],[-72.9874482029999,-38.1902592530829],[-72.9870605129999,-38.1900645400828],[-72.9836892739999,-38.1915391680829]]]}},{"type":"Feature","properties":{"id":"9207101001010","commune":"Lumaco","code":"09207","gse":"C3","quintil":"Q2","nse_score":680.2,"educ":12.1,"educ_score":606.7,"hacin":1.182,"hacin_class":"Hacinamiento Leve","hacin_score":812.4,"auto_score":218.8,"n_per":39,"n_hog":15,"source_year":2024,"crime_score":0.1397,"crime_nivel":"Bajo","crime_color":"#cddc39"},"geometry":{"type":"Polygon","coordinates":[[[-72.9925119219999,-38.1916162550828],[-72.9937047699999,-38.1912689820828],[-72.9933337139999,-38.1903242110829],[-72.9921184709999,-38.1906514690829],[-72.9925119219999,-38.1916162550828]]]}},{"type":"Feature","properties":{"id":"9207101001011","commune":"Lumaco","code":"09207","gse":"D","quintil":"Q1","nse_score":642.1,"educ":11.2,"educ_score":546.7,"hacin":1.5,"hacin_class":"Hacinamiento Medio","hacin_score":744.7,"auto_score":0.0,"n_per":9,"n_hog":4,"source_year":2024,"crime_score":0.1406,"crime_nivel":"Bajo","crime_color":"#cddc39"},"geometry":{"type":"Polygon","coordinates":[[[-72.9911858919999,-38.1919587920828],[-72.9924005639999,-38.1916469160829],[-72.99201833,-38.1906758420829],[-72.9908002639999,-38.1909867540828],[-72.9911858919999,-38.1919587920828]]]}},{"type":"Feature","properties":{"id":"9207101001012","commune":"Lumaco","code":"09207","gse":"D","quintil":"Q2","nse_score":651.3,"educ":11.1,"educ_score":540.0,"hacin":1.0,"hacin_class":"Hacinamiento Leve","hacin_score":851.1,"auto_score":200.0,"n_per":10,"n_hog":4,"source_year":2024,"crime_score":0.1399,"crime_nivel":"Bajo","crime_color":"#cddc39"},"geometry":{"type":"Polygon","coordinates":[[[-72.9899418749999,-38.1923030130829],[-72.9910941819999,-38.1920033250828],[-72.9907193049999,-38.1910180530829],[-72.9894968259999,-38.1913248830829],[-72.9899418749999,-38.1923030130829]]]}},{"type":"Feature","properties":{"id":"9207101001013","commune":"Lumaco","code":"09207","gse":"D","quintil":"Q1","nse_score":621.8,"educ":10.9,"educ_score":526.7,"hacin":1.324,"hacin_class":"Hacinamiento Leve","hacin_score":782.1,"auto_score":0.0,"n_per":49,"n_hog":16,"source_year":2024,"crime_score":0.1449,"crime_nivel":"Bajo","crime_color":"#cddc39"},"geometry":{"type":"Polygon","coordinates":[[[-72.9886333299999,-38.1926250360828],[-72.9898011009999,-38.1923337330828],[-72.9894018749999,-38.1913569370829],[-72.9882235289999,-38.1916712820829],[-72.9886333299999,-38.1926250360828]]]}},{"type":"Feature","properties":{"id":"9207101001014","commune":"Lumaco","code":"09207","gse":"D","quintil":"Q1","nse_score":617.8,"educ":9.9,"educ_score":460.0,"hacin":0.909,"hacin_class":"Sin Hacinamiento","hacin_score":870.4,"auto_score":181.8,"n_per":20,"n_hog":10,"source_year":2024,"crime_score":0.1432,"crime_nivel":"Bajo","crime_color":"#cddc39"},"geometry":{"type":"Polygon","coordinates":[[[-72.9929449799999,-38.1926357670829],[-72.9941362089999,-38.1923205300829],[-72.9937398329999,-38.1913582100828],[-72.9925386399999,-38.1916775820829],[-72.9929449799999,-38.1926357670829]]]}},{"type":"Feature","properties":{"id":"9207101001015","commune":"Lumaco","code":"09207","gse":"E","quintil":"Q1","nse_score":606.9,"educ":9.1,"educ_score":406.7,"hacin":1.174,"hacin_class":"Hacinamiento Leve","hacin_score":814.1,"auto_score":0.0,"n_per":27,"n_hog":13,"source_year":2024,"crime_score":0.1445,"crime_nivel":"Bajo","crime_color":"#cddc39"},"geometry":{"type":"Polygon","coordinates":[[[-72.9880903649999,-38.1930646570828],[-72.9882414089999,-38.1927502140829],[-72.9885231369999,-38.1926436150829],[-72.988058625,-38.1916792340828],[-72.9875790069999,-38.1918346300829],[-72.9880903649999,-38.1930646570828]]]}},{"type":"Feature","properties":{"id":"9207101001016","commune":"Lumaco","code":"09207","gse":"C2","quintil":"Q4","nse_score":767.6,"educ":13.5,"educ_score":700.0,"hacin":0.941,"hacin_class":"Sin Hacinamiento","hacin_score":863.6,"auto_score":0.0,"n_per":16,"n_hog":7,"source_year":2024,"crime_score":0.1315,"crime_nivel":"Bajo","crime_color":"#cddc39"},"geometry":{"type":"Polygon","coordinates":[[[-72.9916271029999,-38.1929853310828],[-72.9928135769999,-38.1926673730828],[-72.9924447509999,-38.1917287100828],[-72.9912313829999,-38.1920538700828],[-72.9916271029999,-38.1929853310828]]]}},{"type":"Feature","properties":{"id":"9207101001017","commune":"Lumaco","code":"09207","gse":"E","quintil":"Q1","nse_score":584.2,"educ":9.4,"educ_score":426.7,"hacin":1.294,"hacin_class":"Hacinamiento Leve","hacin_score":788.6,"auto_score":61.5,"n_per":163,"n_hog":61,"source_year":2024,"crime_score":0.156,"crime_nivel":"Bajo","crime_color":"#cddc39"},"geometry":{"type":"Polygon","coordinates":[[[-72.9875227319999,-38.1935633320828],[-72.9874255599999,-38.1933685430829],[-72.9870289449999,-38.1934406220828],[-72.9880643129999,-38.1931334360828],[-72.9875373179999,-38.1918409100828],[-72.9870478279999,-38.1919527220828],[-72.9874455819999,-38.1928009660828],[-72.9872778299999,-38.1928628320828],[-72.9869588979999,-38.1919705850828],[-72.9860127349999,-38.1922619270829],[-72.986778205,-38.1937709280828],[-72.9875227319999,-38.1935633320828]]]}},{"type":"Feature","properties":{"id":"9207101001018","commune":"Lumaco","code":"09207","gse":"D","quintil":"Q1","nse_score":625.2,"educ":9.9,"educ_score":460.0,"hacin":1.222,"hacin_class":"Hacinamiento Leve","hacin_score":803.8,"auto_score":78.9,"n_per":44,"n_hog":18,"source_year":2024,"crime_score":0.1443,"crime_nivel":"Bajo","crime_color":"#cddc39"},"geometry":{"type":"Polygon","coordinates":[[[-72.9955470469999,-38.1920118910828],[-72.9942493929999,-38.1923571410828],[-72.9946591259999,-38.1933401960829],[-72.9958384439999,-38.1929988890829],[-72.9961508729999,-38.1926069950828],[-72.9957489169999,-38.1924744800828],[-72.9955470469999,-38.1920118910828]]]}},{"type":"Feature","properties":{"id":"9207101001019","commune":"Lumaco","code":"09207","gse":"C3","quintil":"Q3","nse_score":688.7,"educ":12.2,"educ_score":613.3,"hacin":1.046,"hacin_class":"Hacinamiento Leve","hacin_score":841.4,"auto_score":45.5,"n_per":23,"n_hog":10,"source_year":2024,"crime_score":0.138,"crime_nivel":"Bajo","crime_color":"#cddc39"},"geometry":{"type":"Polygon","coordinates":[[[-72.9903193849999,-38.1933234790828],[-72.9915216189999,-38.1930215700828],[-72.9911444989999,-38.1920754670828],[-72.9899475709999,-38.1923852860828],[-72.9903193849999,-38.1933234790828]]]}},{"type":"Feature","properties":{"id":"9207101001020","commune":"Lumaco","code":"09207","gse":"E","quintil":"Q1","nse_score":596.6,"educ":9.7,"educ_score":446.7,"hacin":1.284,"hacin_class":"Hacinamiento Leve","hacin_score":790.8,"auto_score":16.1,"n_per":163,"n_hog":63,"source_year":2024,"crime_score":0.155,"crime_nivel":"Bajo","crime_color":"#cddc39"},"geometry":{"type":"Polygon","coordinates":[[[-72.9858482559999,-38.1923165600828],[-72.9856279919999,-38.1926050450828],[-72.9858362759999,-38.1930006770828],[-72.9853430969999,-38.1937978150828],[-72.9853487709999,-38.1939737040828],[-72.9856808369999,-38.1944904300828],[-72.985795074,-38.1950635060828],[-72.9864512939999,-38.1950430650828],[-72.9866118239999,-38.1946820740828],[-72.9861693709999,-38.1945656670828],[-72.9861313709999,-38.1942284290828],[-72.9862054899999,-38.1945423710828],[-72.9866289539999,-38.1946481390828],[-72.9866967649999,-38.1940052080829],[-72.985927666,-38.1939804650828],[-72.9866921719999,-38.1939692260828],[-72.9866812179999,-38.1938834200829],[-72.9865652629999,-38.1936443020828],[-72.9859247109999,-38.1936569060828],[-72.9865444259999,-38.1936053700828],[-72.9858482559999,-38.1923165600828]]]}},{"type":"Feature","properties":{"id":"9207101001021","commune":"Lumaco","code":"09207","gse":"C2","quintil":"Q3","nse_score":715.0,"educ":11.5,"educ_score":566.7,"hacin":0.692,"hacin_class":"Sin Hacinamiento","hacin_score":916.5,"auto_score":233.3,"n_per":27,"n_hog":14,"source_year":2024,"crime_score":0.1363,"crime_nivel":"Bajo","crime_color":"#cddc39"},"geometry":{"type":"Polygon","coordinates":[[[-72.9933538709999,-38.1936896850828],[-72.9945468289999,-38.1933593830828],[-72.9941694899999,-38.1923942890828],[-72.9929655509999,-38.1927116010828],[-72.9933538709999,-38.1936896850828]]]}},{"type":"Feature","properties":{"id":"9207101001022","commune":"Lumaco","code":"09207","gse":"E","quintil":"Q1","nse_score":572.3,"educ":9.7,"educ_score":446.7,"hacin":1.379,"hacin_class":"Hacinamiento Leve","hacin_score":770.4,"auto_score":62.5,"n_per":40,"n_hog":13,"source_year":2024,"crime_score":0.1481,"crime_nivel":"Bajo","crime_color":"#cddc39"},"geometry":{"type":"Polygon","coordinates":[[[-72.9890247479999,-38.1936573330828],[-72.9902171189999,-38.1933680280828],[-72.9898463869999,-38.1924200610828],[-72.988630467,-38.1926991170829],[-72.9890247479999,-38.1936573330828]]]}},{"type":"Feature","properties":{"id":"9207101001023","commune":"Lumaco","code":"09207","gse":"E","quintil":"Q1","nse_score":595.3,"educ":9.7,"educ_score":446.7,"hacin":1.345,"hacin_class":"Hacinamiento Leve","hacin_score":777.6,"auto_score":108.3,"n_per":152,"n_hog":54,"source_year":2024,"crime_score":0.1544,"crime_nivel":"Bajo","crime_color":"#cddc39"},"geometry":{"type":"Polygon","coordinates":[[[-72.9963679379999,-38.1992766230828],[-72.9957534789999,-38.1994958310828],[-72.9966152599999,-38.2015921520828],[-72.9976651299999,-38.2013396300828],[-72.9969566389999,-38.1995703590828],[-72.9993572519999,-38.1989534930828],[-72.9991524549999,-38.1987776200828],[-72.9990230939999,-38.1983101040828],[-72.9995559229999,-38.1977523710828],[-72.9994407879999,-38.1976075310828],[-72.9994841299999,-38.1973843620828],[-72.9989837019999,-38.1969624120828],[-72.9989036309999,-38.1965863030828],[-72.9984966369999,-38.1963497170828],[-72.9982799399999,-38.1959661890828],[-72.9978701969999,-38.1956064140828],[-72.9976933629999,-38.1947636360828],[-72.9977261519999,-38.1941544070828],[-72.9979304249999,-38.1939338190828],[-72.9979304459999,-38.1937431240828],[-72.9974123069999,-38.1931874880828],[-72.996610814,-38.1929339400828],[-72.9961894049999,-38.1926198100828],[-72.9958395639999,-38.1930605550828],[-72.9946718589999,-38.1934345830828],[-72.9950783069999,-38.1943799120828],[-72.9961307629999,-38.1942544130828],[-72.9965690699999,-38.1951810970828],[-72.9973814879999,-38.1949996670828],[-72.9975537179999,-38.1948179240828],[-72.9974053939999,-38.1950308310828],[-72.996583444,-38.1952154920828],[-72.9975687479999,-38.1977222830828],[-72.9977522469999,-38.1978398040828],[-72.9978666819999,-38.1980569640828],[-72.9976105849999,-38.1978124210828],[-72.9974564849999,-38.1981371640828],[-72.9975342449999,-38.1978063060828],[-72.9973908239999,-38.1974012830828],[-72.9964414289999,-38.1976279970828],[-72.9967330379999,-38.1986328330828],[-72.9977161969999,-38.1984382810828],[-72.9955806129999,-38.1990844390828],[-72.9957279599999,-38.1994319750828],[-72.9963679379999,-38.1992766230828]]]}},{"type":"Feature","properties":{"id":"9207101001024","commune":"Lumaco","code":"09207","gse":"D","quintil":"Q1","nse_score":614.8,"educ":9.2,"educ_score":413.3,"hacin":1.091,"hacin_class":"Hacinamiento Leve","hacin_score":831.7,"auto_score":0.0,"n_per":12,"n_hog":6,"source_year":2024,"crime_score":0.1428,"crime_nivel":"Bajo","crime_color":"#cddc39"},"geometry":{"type":"Polygon","coordinates":[[[-72.9882813829999,-38.1927635390828],[-72.9881267539999,-38.1931574850828],[-72.9881610679999,-38.1938667850828],[-72.9883104599999,-38.1942237000828],[-72.9886993959999,-38.1948667590828],[-72.9893238129999,-38.1947364400828],[-72.9885547199999,-38.1927125150828],[-72.9882813829999,-38.1927635390828]]]}},{"type":"Feature","properties":{"id":"9207101001026","commune":"Lumaco","code":"09207","gse":"C3","quintil":"Q2","nse_score":670.0,"educ":12.4,"educ_score":626.7,"hacin":0.962,"hacin_class":"Sin Hacinamiento","hacin_score":859.2,"auto_score":76.9,"n_per":25,"n_hog":13,"source_year":2024,"crime_score":0.1395,"crime_nivel":"Bajo","crime_color":"#cddc39"},"geometry":{"type":"Polygon","coordinates":[[[-72.9907505289999,-38.1943678940828],[-72.9919433199999,-38.1940734120829],[-72.991568131,-38.1931027350829],[-72.9903643519999,-38.1934128010829],[-72.9907505289999,-38.1943678940828]]]}},{"type":"Feature","properties":{"id":"9207101001027","commune":"Lumaco","code":"09207","gse":"E","quintil":"Q1","nse_score":498.9,"educ":8.1,"educ_score":340.0,"hacin":1.273,"hacin_class":"Hacinamiento Leve","hacin_score":793.0,"auto_score":0.0,"n_per":14,"n_hog":7,"source_year":2024,"crime_score":0.1518,"crime_nivel":"Bajo","crime_color":"#cddc39"},"geometry":{"type":"Polygon","coordinates":[[[-72.9880478719999,-38.1931951960828],[-72.9875626069999,-38.1933399750828],[-72.9876760449999,-38.1936203510828],[-72.9880931949999,-38.1935064130829],[-72.9880478719999,-38.1931951960828]]]}},{"type":"Feature","properties":{"id":"9207101001028","commune":"Lumaco","code":"09207","gse":"D","quintil":"Q2","nse_score":661.5,"educ":11.0,"educ_score":533.3,"hacin":0.903,"hacin_class":"Sin Hacinamiento","hacin_score":871.7,"auto_score":66.7,"n_per":28,"n_hog":13,"source_year":2024,"crime_score":0.1404,"crime_nivel":"Bajo","crime_color":"#cddc39"},"geometry":{"type":"Polygon","coordinates":[[[-72.9937683539999,-38.1947194110828],[-72.9949867029999,-38.1944100170828],[-72.994590006,-38.1934407530828],[-72.9933827389999,-38.1937605730828],[-72.9937683539999,-38.1947194110828]]]}},{"type":"Feature","properties":{"id":"9207101001029","commune":"Lumaco","code":"09207","gse":"D","quintil":"Q2","nse_score":658.7,"educ":10.6,"educ_score":506.7,"hacin":1.407,"hacin_class":"Hacinamiento Leve","hacin_score":764.4,"auto_score":166.7,"n_per":38,"n_hog":15,"source_year":2024,"crime_score":0.1413,"crime_nivel":"Bajo","crime_color":"#cddc39"},"geometry":{"type":"Polygon","coordinates":[[[-72.9894752309999,-38.1947024990828],[-72.9906470089999,-38.1943988470828],[-72.9902522559999,-38.1934442850828],[-72.9890515619999,-38.1937307800828],[-72.9894752309999,-38.1947024990828]]]}},{"type":"Feature","properties":{"id":"9207101001030","commune":"Lumaco","code":"09207","gse":"D","quintil":"Q1","nse_score":625.9,"educ":11.3,"educ_score":553.3,"hacin":1.273,"hacin_class":"Hacinamiento Leve","hacin_score":793.0,"auto_score":0.0,"n_per":14,"n_hog":5,"source_year":2024,"crime_score":0.1421,"crime_nivel":"Bajo","crime_color":"#cddc39"},"geometry":{"type":"Polygon","coordinates":[[[-72.9880735109999,-38.1938703410828],[-72.9880698739999,-38.1935561920829],[-72.9876984109999,-38.1936755400828],[-72.9877104509999,-38.1939745940828],[-72.9880735109999,-38.1938703410828]]]}},{"type":"Feature","properties":{"id":"9207101001031","commune":"Lumaco","code":"09207","gse":"D","quintil":"Q2","nse_score":643.7,"educ":11.1,"educ_score":540.0,"hacin":1.321,"hacin_class":"Hacinamiento Leve","hacin_score":782.7,"auto_score":0.0,"n_per":37,"n_hog":13,"source_year":2024,"crime_score":0.1424,"crime_nivel":"Bajo","crime_color":"#cddc39"},"geometry":{"type":"Polygon","coordinates":[[[-72.9876065969999,-38.1939592540828],[-72.9875421619999,-38.1935918810828],[-72.98679261,-38.1938051390828],[-72.9868371029999,-38.1941602900828],[-72.9876065969999,-38.1939592540828]]]}},{"type":"Feature","properties":{"id":"9207101001032","commune":"Lumaco","code":"09207","gse":"C2","quintil":"Q3","nse_score":714.5,"educ":12.4,"educ_score":626.7,"hacin":0.867,"hacin_class":"Sin Hacinamiento","hacin_score":879.4,"auto_score":250.0,"n_per":13,"n_hog":5,"source_year":2024,"crime_score":0.1353,"crime_nivel":"Bajo","crime_color":"#cddc39"},"geometry":{"type":"Polygon","coordinates":[[[-72.9925101879999,-38.1950752810828],[-72.9936522719999,-38.1947637940828],[-72.9932953439999,-38.1938125170828],[-72.9920815289999,-38.1941173030828],[-72.9925101879999,-38.1950752810828]]]}},{"type":"Feature","properties":{"id":"9207101001033","commune":"Lumaco","code":"09207","gse":"E","quintil":"Q1","nse_score":572.9,"educ":8.9,"educ_score":393.3,"hacin":1.1,"hacin_class":"Hacinamiento Leve","hacin_score":829.8,"auto_score":0.0,"n_per":11,"n_hog":5,"source_year":2024,"crime_score":0.1459,"crime_nivel":"Bajo","crime_color":"#cddc39"},"geometry":{"type":"Polygon","coordinates":[[[-72.9881142419999,-38.1939078760828],[-72.9876451439999,-38.1940530040829],[-72.9876647219999,-38.1944354030828],[-72.988262329,-38.1942400120829],[-72.9881142419999,-38.1939078760828]]]}},{"type":"Feature","properties":{"id":"9207101001034","commune":"Lumaco","code":"09207","gse":"E","quintil":"Q1","nse_score":598.0,"educ":10.7,"educ_score":513.3,"hacin":1.422,"hacin_class":"Hacinamiento Leve","hacin_score":761.2,"auto_score":71.4,"n_per":64,"n_hog":24,"source_year":2024,"crime_score":0.1478,"crime_nivel":"Bajo","crime_color":"#cddc39"},"geometry":{"type":"Polygon","coordinates":[[[-72.9876031119999,-38.1947047690828],[-72.9876014259999,-38.1940141380828],[-72.9868377689999,-38.1942062350829],[-72.9867843209999,-38.1946165290828],[-72.987496028,-38.1944754410828],[-72.9867684309999,-38.1946583440828],[-72.9865772729999,-38.1951103820828],[-72.9871687599999,-38.1949587250828],[-72.9872191839999,-38.1950760340828],[-72.9874845509999,-38.1950061970828],[-72.9876031119999,-38.1947047690828]]]}},{"type":"Feature","properties":{"id":"9207101001035","commune":"Lumaco","code":"09207","gse":"D","quintil":"Q2","nse_score":645.7,"educ":11.5,"educ_score":566.7,"hacin":1.471,"hacin_class":"Hacinamiento Leve","hacin_score":750.9,"auto_score":281.2,"n_per":50,"n_hog":15,"source_year":2024,"crime_score":0.1431,"crime_nivel":"Bajo","crime_color":"#cddc39"},"geometry":{"type":"Polygon","coordinates":[[[-72.9911951619999,-38.1954101250828],[-72.9923733129999,-38.1950990440828],[-72.9919850399999,-38.1941384400829],[-72.990796568,-38.1944490200828],[-72.9911951619999,-38.1954101250828]]]}},{"type":"Feature","properties":{"id":"9207101001036","commune":"Lumaco","code":"09207","gse":"E","quintil":"Q1","nse_score":605.2,"educ":9.7,"educ_score":446.7,"hacin":1.294,"hacin_class":"Hacinamiento Leve","hacin_score":788.5,"auto_score":50.0,"n_per":22,"n_hog":9,"source_year":2024,"crime_score":0.1443,"crime_nivel":"Bajo","crime_color":"#cddc39"},"geometry":{"type":"Polygon","coordinates":[[[-72.9955900769999,-38.1955312760828],[-72.9964862019999,-38.1952624400828],[-72.9960571319999,-38.1942900690828],[-72.9951537889999,-38.1945267820828],[-72.9955900769999,-38.1955312760828]]]}},{"type":"Feature","properties":{"id":"9207101001037","commune":"Lumaco","code":"09207","gse":"E","quintil":"Q1","nse_score":591.1,"educ":8.3,"educ_score":353.3,"hacin":1.087,"hacin_class":"Hacinamiento Leve","hacin_score":832.6,"auto_score":45.5,"n_per":25,"n_hog":11,"source_year":2024,"crime_score":0.1456,"crime_nivel":"Bajo","crime_color":"#cddc39"},"geometry":{"type":"Polygon","coordinates":[[[-72.9876528009999,-38.1948113150828],[-72.9884759189999,-38.1946023530828],[-72.9884221579999,-38.1944133670828],[-72.9882557649999,-38.1943000030829],[-72.9876645779999,-38.1944744460828],[-72.9876528009999,-38.1948113150828]]]}},{"type":"Feature","properties":{"id":"9207101001038","commune":"Lumaco","code":"09207","gse":"D","quintil":"Q2","nse_score":663.5,"educ":11.8,"educ_score":586.7,"hacin":1.139,"hacin_class":"Hacinamiento Leve","hacin_score":821.5,"auto_score":235.3,"n_per":41,"n_hog":15,"source_year":2024,"crime_score":0.1412,"crime_nivel":"Bajo","crime_color":"#cddc39"},"geometry":{"type":"Polygon","coordinates":[[[-72.9899072549999,-38.1957482350828],[-72.9910827559999,-38.1954606890828],[-72.9906946939999,-38.1944835680828],[-72.9894898299999,-38.1947824730828],[-72.9899072549999,-38.1957482350828]]]}},{"type":"Feature","properties":{"id":"9207101001039","commune":"Lumaco","code":"09207","gse":"D","quintil":"Q1","nse_score":633.7,"educ":10.0,"educ_score":466.7,"hacin":1.242,"hacin_class":"Hacinamiento Leve","hacin_score":799.5,"auto_score":178.6,"n_per":41,"n_hog":13,"source_year":2024,"crime_score":0.1434,"crime_nivel":"Bajo","crime_color":"#cddc39"},"geometry":{"type":"Polygon","coordinates":[[[-72.9942427319999,-38.1958697490828],[-72.9954623699999,-38.1955607790828],[-72.9950526919999,-38.1945705840828],[-72.9938465889999,-38.1949123610828],[-72.9942427319999,-38.1958697490828]]]}},{"type":"Feature","properties":{"id":"9207101001040","commune":"Lumaco","code":"09207","gse":"E","quintil":"Q1","nse_score":536.3,"educ":8.1,"educ_score":340.0,"hacin":1.564,"hacin_class":"Hacinamiento Medio","hacin_score":731.0,"auto_score":23.8,"n_per":61,"n_hog":20,"source_year":2024,"crime_score":0.1524,"crime_nivel":"Bajo","crime_color":"#cddc39"},"geometry":{"type":"Polygon","coordinates":[[[-72.9877356979999,-38.1948526250828],[-72.9876235899999,-38.1950513300828],[-72.9872614359999,-38.1951712320828],[-72.9873478099999,-38.1953481420828],[-72.9886631389999,-38.1949409760828],[-72.9884956619999,-38.1946320490828],[-72.9877356979999,-38.1948526250828]]]}},{"type":"Feature","properties":{"id":"9207101001042","commune":"Lumaco","code":"09207","gse":"C3","quintil":"Q2","nse_score":675.2,"educ":10.9,"educ_score":526.7,"hacin":1.08,"hacin_class":"Hacinamiento Leve","hacin_score":834.0,"auto_score":0.0,"n_per":27,"n_hog":14,"source_year":2024,"crime_score":0.1393,"crime_nivel":"Bajo","crime_color":"#cddc39"},"geometry":{"type":"Polygon","coordinates":[[[-72.9929451639999,-38.1962022640828],[-72.9941346219999,-38.1959015040828],[-72.9937526519999,-38.1949489660828],[-72.9925594739999,-38.1952585190828],[-72.9929451639999,-38.1962022640828]]]}},{"type":"Feature","properties":{"id":"9207101001043","commune":"Lumaco","code":"09207","gse":"E","quintil":"Q1","nse_score":589.8,"educ":9.7,"educ_score":446.7,"hacin":1.484,"hacin_class":"Hacinamiento Leve","hacin_score":748.1,"auto_score":33.3,"n_per":46,"n_hog":15,"source_year":2024,"crime_score":0.1472,"crime_nivel":"Bajo","crime_color":"#cddc39"},"geometry":{"type":"Polygon","coordinates":[[[-72.9880690389999,-38.1954956360828],[-72.9887905049999,-38.1953179740828],[-72.9887036289999,-38.1949959540828],[-72.9879597569999,-38.1951972730828],[-72.9880690389999,-38.1954956360828]]]}},{"type":"Feature","properties":{"id":"9207101001044","commune":"Lumaco","code":"09207","gse":"D","quintil":"Q1","nse_score":635.2,"educ":10.4,"educ_score":493.3,"hacin":1.13,"hacin_class":"Hacinamiento Leve","hacin_score":823.3,"auto_score":181.8,"n_per":26,"n_hog":10,"source_year":2024,"crime_score":0.1423,"crime_nivel":"Bajo","crime_color":"#cddc39"},"geometry":{"type":"Polygon","coordinates":[[[-72.9872549849999,-38.1953647700828],[-72.9871134389999,-38.1950171980828],[-72.9865797949999,-38.1951476270828],[-72.9867034089999,-38.1954936220828],[-72.9872549849999,-38.1953647700828]]]}},{"type":"Feature","properties":{"id":"9207101001045","commune":"Lumaco","code":"09207","gse":"E","quintil":"Q1","nse_score":600.9,"educ":10.1,"educ_score":473.3,"hacin":1.4,"hacin_class":"Hacinamiento Leve","hacin_score":766.0,"auto_score":45.5,"n_per":28,"n_hog":10,"source_year":2024,"crime_score":0.145,"crime_nivel":"Bajo","crime_color":"#cddc39"},"geometry":{"type":"Polygon","coordinates":[[[-72.9858324519999,-38.1955723140828],[-72.9865786059999,-38.1955483190828],[-72.9864445929999,-38.1950792530828],[-72.985795074,-38.1950824940828],[-72.9858324519999,-38.1955723140828]]]}},{"type":"Feature","properties":{"id":"9207101001046","commune":"Lumaco","code":"09207","gse":"D","quintil":"Q1","nse_score":618.2,"educ":10.1,"educ_score":473.3,"hacin":1.121,"hacin_class":"Hacinamiento Leve","hacin_score":825.3,"auto_score":187.5,"n_per":37,"n_hog":16,"source_year":2024,"crime_score":0.1443,"crime_nivel":"Bajo","crime_color":"#cddc39"},"geometry":{"type":"Polygon","coordinates":[[[-72.987423255,-38.1956604950828],[-72.9880225679999,-38.1955426590828],[-72.9879079409999,-38.1952353060828],[-72.9873363969999,-38.1953740760828],[-72.9873642259999,-38.1955207580828],[-72.987298957,-38.1953732390828],[-72.9867134839999,-38.1955288840828],[-72.98672124,-38.1957519210828],[-72.9865849669999,-38.1957441300828],[-72.9865856119999,-38.1955842100828],[-72.9858335189999,-38.1955947210828],[-72.9858745449999,-38.1957622740828],[-72.9861576329999,-38.1958314320828],[-72.987423255,-38.1956604950828]]]}},{"type":"Feature","properties":{"id":"9207101001047","commune":"Lumaco","code":"09207","gse":"E","quintil":"Q1","nse_score":537.8,"educ":9.1,"educ_score":406.7,"hacin":1.118,"hacin_class":"Hacinamiento Leve","hacin_score":826.0,"auto_score":45.5,"n_per":19,"n_hog":7,"source_year":2024,"crime_score":0.1492,"crime_nivel":"Bajo","crime_color":"#cddc39"},"geometry":{"type":"Polygon","coordinates":[[[-72.9916432649999,-38.1965197560828],[-72.9928276629999,-38.1962313680828],[-72.9924483149999,-38.1952864860828],[-72.9912670139999,-38.1955774130828],[-72.9916432649999,-38.1965197560828]]]}},{"type":"Feature","properties":{"id":"9207101001048","commune":"Lumaco","code":"09207","gse":"E","quintil":"Q1","nse_score":565.4,"educ":8.3,"educ_score":353.3,"hacin":1.071,"hacin_class":"Hacinamiento Leve","hacin_score":835.9,"auto_score":0.0,"n_per":30,"n_hog":13,"source_year":2024,"crime_score":0.1479,"crime_nivel":"Bajo","crime_color":"#cddc39"},"geometry":{"type":"Polygon","coordinates":[[[-72.9882489909999,-38.1958616070828],[-72.988946316,-38.1956652130828],[-72.9888578309999,-38.1953488910828],[-72.9881270039999,-38.1955504330828],[-72.9882489909999,-38.1958616070828]]]}},{"type":"Feature","properties":{"id":"9207101001049","commune":"Lumaco","code":"09207","gse":"D","quintil":"Q2","nse_score":662.2,"educ":10.2,"educ_score":480.0,"hacin":1.061,"hacin_class":"Hacinamiento Leve","hacin_score":838.2,"auto_score":156.2,"n_per":35,"n_hog":16,"source_year":2024,"crime_score":0.1408,"crime_nivel":"Bajo","crime_color":"#cddc39"},"geometry":{"type":"Polygon","coordinates":[[[-72.9960031779999,-38.1965389140828],[-72.9969079669999,-38.1962905600828],[-72.9965298739999,-38.1953690820828],[-72.9956058229999,-38.1956005560828],[-72.9960031779999,-38.1965389140828]]]}},{"type":"Feature","properties":{"id":"9207101001050","commune":"Lumaco","code":"09207","gse":"E","quintil":"Q1","nse_score":563.6,"educ":8.7,"educ_score":380.0,"hacin":1.088,"hacin_class":"Hacinamiento Leve","hacin_score":832.3,"auto_score":47.6,"n_per":37,"n_hog":18,"source_year":2024,"crime_score":0.1485,"crime_nivel":"Bajo","crime_color":"#cddc39"},"geometry":{"type":"Polygon","coordinates":[[[-72.9899712579999,-38.1959584630828],[-72.9903406019999,-38.1968646010828],[-72.9911167539999,-38.1966837380828],[-72.9909230739999,-38.1962186600828],[-72.991157944,-38.1966769750828],[-72.9915466719999,-38.1965357170828],[-72.991166614,-38.1956155200828],[-72.9899712579999,-38.1959584630828]]]}},{"type":"Feature","properties":{"id":"9207101001051","commune":"Lumaco","code":"09207","gse":"E","quintil":"Q1","nse_score":530.4,"educ":6.8,"educ_score":253.3,"hacin":0.941,"hacin_class":"Sin Hacinamiento","hacin_score":863.6,"auto_score":0.0,"n_per":16,"n_hog":8,"source_year":2024,"crime_score":0.1495,"crime_nivel":"Bajo","crime_color":"#cddc39"},"geometry":{"type":"Polygon","coordinates":[[[-72.9946695119999,-38.1968906830828],[-72.995871614,-38.1965786300828],[-72.9955087049999,-38.1956310920828],[-72.9942753909999,-38.1959672210828],[-72.9946695119999,-38.1968906830828]]]}},{"type":"Feature","properties":{"id":"9207101001053","commune":"Lumaco","code":"09207","gse":"E","quintil":"Q1","nse_score":576.2,"educ":8.8,"educ_score":386.7,"hacin":1.182,"hacin_class":"Hacinamiento Leve","hacin_score":812.4,"auto_score":0.0,"n_per":26,"n_hog":16,"source_year":2024,"crime_score":0.1468,"crime_nivel":"Bajo","crime_color":"#cddc39"},"geometry":{"type":"Polygon","coordinates":[[[-72.9933827629999,-38.1972168660828],[-72.9945500849999,-38.1969068480828],[-72.9941791169999,-38.1959967950828],[-72.9929730549999,-38.1962886380828],[-72.9933827629999,-38.1972168660828]]]}},{"type":"Feature","properties":{"id":"9207101001055","commune":"Lumaco","code":"09207","gse":"E","quintil":"Q1","nse_score":581.4,"educ":10.0,"educ_score":466.7,"hacin":1.217,"hacin_class":"Hacinamiento Leve","hacin_score":804.8,"auto_score":0.0,"n_per":28,"n_hog":12,"source_year":2024,"crime_score":0.1465,"crime_nivel":"Bajo","crime_color":"#cddc39"},"geometry":{"type":"Polygon","coordinates":[[[-72.9920786669999,-38.1975353070828],[-72.9932521569999,-38.1972496500828],[-72.9928800159999,-38.1963207170828],[-72.9916963789999,-38.1966035030828],[-72.9920786669999,-38.1975353070828]]]}},{"type":"Feature","properties":{"id":"9207101001056","commune":"Lumaco","code":"09207","gse":"E","quintil":"Q1","nse_score":608.1,"educ":9.8,"educ_score":453.3,"hacin":1.0,"hacin_class":"Hacinamiento Leve","hacin_score":851.1,"auto_score":35.7,"n_per":23,"n_hog":12,"source_year":2024,"crime_score":0.1441,"crime_nivel":"Bajo","crime_color":"#cddc39"},"geometry":{"type":"Polygon","coordinates":[[[-72.9964164769999,-38.1975709910828],[-72.99734215,-38.1972811340828],[-72.9969547499999,-38.1963838340828],[-72.9960280609999,-38.1966211070828],[-72.9964164769999,-38.1975709910828]]]}},{"type":"Feature","properties":{"id":"9207101001057","commune":"Lumaco","code":"09207","gse":"E","quintil":"Q1","nse_score":580.0,"educ":9.4,"educ_score":426.7,"hacin":1.407,"hacin_class":"Hacinamiento Leve","hacin_score":764.4,"auto_score":0.0,"n_per":38,"n_hog":13,"source_year":2024,"crime_score":0.1474,"crime_nivel":"Bajo","crime_color":"#cddc39"},"geometry":{"type":"Polygon","coordinates":[[[-72.9907708889999,-38.1978630970828],[-72.9919647859999,-38.1975804970828],[-72.991604934,-38.1966396480828],[-72.9903793469999,-38.1969580670828],[-72.9907708889999,-38.1978630970828]]]}},{"type":"Feature","properties":{"id":"9207101001058","commune":"Lumaco","code":"09207","gse":"D","quintil":"Q2","nse_score":653.6,"educ":9.4,"educ_score":426.7,"hacin":0.844,"hacin_class":"Sin Hacinamiento","hacin_score":884.2,"auto_score":117.6,"n_per":38,"n_hog":17,"source_year":2024,"crime_score":0.1417,"crime_nivel":"Bajo","crime_color":"#cddc39"},"geometry":{"type":"Polygon","coordinates":[[[-72.9951148419999,-38.1979266090828],[-72.9962964969999,-38.1975993740828],[-72.9959373479999,-38.1966607070828],[-72.9946994309999,-38.1969747880828],[-72.9951148419999,-38.1979266090828]]]}},{"type":"Feature","properties":{"id":"9207101001059","commune":"Lumaco","code":"09207","gse":"D","quintil":"Q2","nse_score":647.7,"educ":11.2,"educ_score":546.7,"hacin":1.0,"hacin_class":"Hacinamiento Leve","hacin_score":851.1,"auto_score":184.2,"n_per":40,"n_hog":17,"source_year":2024,"crime_score":0.1423,"crime_nivel":"Bajo","crime_color":"#cddc39"},"geometry":{"type":"Polygon","coordinates":[[[-72.9934058859999,-38.1973379840828],[-72.9935074569999,-38.1975842310828],[-72.994082181,-38.1974680920828],[-72.9935169699999,-38.1976128370828],[-72.9938045679999,-38.1982496010828],[-72.9949917199999,-38.1979570120828],[-72.9946056509999,-38.1970148340828],[-72.9934058859999,-38.1973379840828]]]}},{"type":"Feature","properties":{"id":"9207101001060","commune":"Lumaco","code":"09207","gse":"D","quintil":"Q1","nse_score":614.2,"educ":9.3,"educ_score":420.0,"hacin":1.231,"hacin_class":"Hacinamiento Leve","hacin_score":802.0,"auto_score":83.3,"n_per":48,"n_hog":18,"source_year":2024,"crime_score":0.1454,"crime_nivel":"Bajo","crime_color":"#cddc39"},"geometry":{"type":"Polygon","coordinates":[[[-72.9925624209999,-38.1985395220828],[-72.9936970569999,-38.1982849610828],[-72.9933052929999,-38.1973335940828],[-72.9921113619999,-38.1976409160828],[-72.9925624209999,-38.1985395220828]]]}},{"type":"Feature","properties":{"id":"9207101001061","commune":"Lumaco","code":"09207","gse":"E","quintil":"Q1","nse_score":532.2,"educ":7.6,"educ_score":306.7,"hacin":1.476,"hacin_class":"Hacinamiento Leve","hacin_score":749.7,"auto_score":0.0,"n_per":31,"n_hog":12,"source_year":2024,"crime_score":0.1505,"crime_nivel":"Bajo","crime_color":"#cddc39"},"geometry":{"type":"Polygon","coordinates":[[[-72.9908084609999,-38.1979828880828],[-72.9922638859999,-38.1984542560828],[-72.9923515259999,-38.1983999470828],[-72.9920181599999,-38.1976636730828],[-72.9908084609999,-38.1979828880828]]]}},{"type":"Feature","properties":{"id":"9207101001062","commune":"Lumaco","code":"09207","gse":"E","quintil":"Q1","nse_score":590.2,"educ":9.5,"educ_score":433.3,"hacin":1.194,"hacin_class":"Hacinamiento Leve","hacin_score":809.7,"auto_score":65.2,"n_per":43,"n_hog":21,"source_year":2024,"crime_score":0.1469,"crime_nivel":"Bajo","crime_color":"#cddc39"},"geometry":{"type":"Polygon","coordinates":[[[-72.9955501759999,-38.1989786350828],[-72.9966708469999,-38.1986235800828],[-72.9963427189999,-38.1976794080828],[-72.9951339009999,-38.1980073170828],[-72.9955501759999,-38.1989786350828]]]}},{"type":"Feature","properties":{"id":"9207101001064","commune":"Lumaco","code":"09207","gse":"E","quintil":"Q1","nse_score":550.6,"educ":7.9,"educ_score":326.7,"hacin":1.343,"hacin_class":"Hacinamiento Leve","hacin_score":778.1,"auto_score":54.1,"n_per":94,"n_hog":36,"source_year":2024,"crime_score":0.1537,"crime_nivel":"Bajo","crime_color":"#cddc39"},"geometry":{"type":"Polygon","coordinates":[[[-72.9905300879999,-38.1989661620828],[-72.9932737919999,-38.1997056930828],[-72.9946733759999,-38.1998873130828],[-72.9955210799999,-38.2020014230828],[-72.9965686199999,-38.2017344240828],[-72.9954565609999,-38.1990933600828],[-72.9935624849999,-38.1988559220828],[-72.9909285939999,-38.1981458510828],[-72.9909204539999,-38.1986207200828],[-72.9905300879999,-38.1989661620828]]]}},{"type":"Feature","properties":{"id":"9207101001001","commune":"Lumaco","code":"09207","gse":"C2","quintil":"Q3","nse_score":716.4,"educ":12.8,"educ_score":653.3,"hacin":1.2,"hacin_class":"Hacinamiento Leve","hacin_score":808.5,"auto_score":312.5,"n_per":18,"n_hog":8,"source_year":2024,"crime_score":0.1355,"crime_nivel":"Bajo","crime_color":"#cddc39"},"geometry":{"type":"MultiPolygon","coordinates":[[[[-72.9894729349999,-38.1912226220828],[-72.9906763219999,-38.1909409120828],[-72.9902880719999,-38.1899876600828],[-72.9890779869999,-38.1902851110828],[-72.9894729349999,-38.1912226220828]]],[[[-72.9903687219999,-38.1898764020828],[-72.9915514509999,-38.1895565570829],[-72.9911541699999,-38.1885907250829],[-72.9899380979999,-38.1889317820829],[-72.9903687219999,-38.1898764020828]]]]}},{"type":"Feature","properties":{"id":"9207101001004","commune":"Lumaco","code":"09207","gse":"C3","quintil":"Q2","nse_score":666.6,"educ":12.0,"educ_score":600.0,"hacin":1.345,"hacin_class":"Hacinamiento Leve","hacin_score":777.7,"auto_score":233.3,"n_per":39,"n_hog":14,"source_year":2024,"crime_score":0.1408,"crime_nivel":"Bajo","crime_color":"#cddc39"},"geometry":{"type":"MultiPolygon","coordinates":[[[[-72.9934111269999,-38.1903186940828],[-72.9942141019999,-38.1923003120828],[-72.9955283449999,-38.1919797480829],[-72.9952887169999,-38.1911278810829],[-72.9947341979999,-38.1906344590829],[-72.9944781749999,-38.1900160260829],[-72.9934111269999,-38.1903186940828]]],[[[-72.9933889129999,-38.1902330060828],[-72.9944416909999,-38.1899727210829],[-72.9941010589999,-38.1896023380828],[-72.9939717369999,-38.1892144910828],[-72.9935725509999,-38.1890351490829],[-72.9929537349999,-38.1892619770829],[-72.9933889129999,-38.1902330060828]]]]}},{"type":"Feature","properties":{"id":"9207101001041","commune":"Lumaco","code":"09207","gse":"E","quintil":"Q1","nse_score":575.2,"educ":9.3,"educ_score":420.0,"hacin":1.222,"hacin_class":"Hacinamiento Leve","hacin_score":803.8,"auto_score":50.8,"n_per":121,"n_hog":50,"source_year":2024,"crime_score":0.1537,"crime_nivel":"Bajo","crime_color":"#cddc39"},"geometry":{"type":"MultiPolygon","coordinates":[[[[-72.988439034,-38.1966923990828],[-72.9887327549999,-38.1966586100828],[-72.9889506879999,-38.1962647220828],[-72.9883819049999,-38.1963463970828],[-72.988439034,-38.1966923990828]]],[[[-72.9889973339999,-38.1956524280828],[-72.9889650639999,-38.1964681130828],[-72.9887151329999,-38.1967119970828],[-72.9881697709999,-38.1967995910828],[-72.9883836749999,-38.1967043780828],[-72.9883117069999,-38.1963735470828],[-72.9876226939999,-38.1964140840828],[-72.9889036109999,-38.1962014440828],[-72.9889406449999,-38.1957483970828],[-72.9876759119999,-38.1960873370828],[-72.9881801599999,-38.1958865900828],[-72.9880630329999,-38.1955898840828],[-72.9874277889999,-38.1956984000828],[-72.9873250199999,-38.1962051760828],[-72.9874140139999,-38.1965924090828],[-72.9881918599999,-38.1969855580828],[-72.9883266649999,-38.1971915460828],[-72.9884591789999,-38.1977848430828],[-72.9881617919999,-38.1970150970828],[-72.9870807639999,-38.1971127570828],[-72.9873013659999,-38.1974629360828],[-72.9872868179999,-38.1981584050828],[-72.9887405969999,-38.1979623260828],[-72.9886593919999,-38.1973572370828],[-72.988814681,-38.1967669160828],[-72.989340878,-38.1962077200828],[-72.9893538889999,-38.1969024500828],[-72.989561062,-38.1970572320828],[-72.9902706489999,-38.1983367430828],[-72.9907930669999,-38.1987187760828],[-72.9908930049999,-38.1984573900828],[-72.9893817599999,-38.1948059390828],[-72.9887607209999,-38.1949659130828],[-72.9889973339999,-38.1956524280828]]]]}},{"type":"Feature","properties":{"id":"9207101001063","commune":"Lumaco","code":"09207","gse":"E","quintil":"Q1","nse_score":561.0,"educ":9.0,"educ_score":400.0,"hacin":1.394,"hacin_class":"Hacinamiento Leve","hacin_score":767.2,"auto_score":62.5,"n_per":46,"n_hog":20,"source_year":2024,"crime_score":0.1494,"crime_nivel":"Bajo","crime_color":"#cddc39"},"geometry":{"type":"MultiPolygon","coordinates":[[[[-72.9928744299999,-38.1985976530828],[-72.9939095099999,-38.1988100480828],[-72.9937268189999,-38.1983716730828],[-72.9928744299999,-38.1985976530828]]],[[[-72.9940593899999,-38.1988820280828],[-72.9954392679999,-38.1989554330828],[-72.9950287919999,-38.1980327240828],[-72.9938356769999,-38.1983586830828],[-72.9940593899999,-38.1988820280828]]]]}}]}