{"type":"FeatureCollection","features":[{"type":"Feature","properties":{"id":"14105011001001","commune":"Máfil","code":"14105","gse":"D","quintil":"Q1","nse_score":627.1,"educ":9.3,"educ_score":420.0,"hacin":1.411,"hacin_class":"Hacinamiento Leve","hacin_score":763.6,"auto_score":183.3,"n_per":103,"n_hog":30,"source_year":2024,"crime_score":0.4399,"crime_nivel":"Medio","crime_color":"#ff9800"},"geometry":{"type":"Polygon","coordinates":[[[-72.9501527229999,-39.6536894550728],[-72.9513801159999,-39.6547198820728],[-72.9516612119999,-39.6544710550728],[-72.9513641849999,-39.6541702350728],[-72.9520468499999,-39.6546952520728],[-72.9518350089999,-39.6550189910728],[-72.9524737529999,-39.6554042490728],[-72.9526944479999,-39.6551820890728],[-72.9524697979999,-39.6546971940728],[-72.9514767429999,-39.6540496370728],[-72.9516988549999,-39.6538901570728],[-72.9511775719999,-39.6536011160728],[-72.9510723109999,-39.6537149130728],[-72.9504132239999,-39.6533001230728],[-72.9501527229999,-39.6536894550728]]]}},{"type":"Feature","properties":{"id":"14105011001002","commune":"Máfil","code":"14105","gse":"C3","quintil":"Q3","nse_score":692.4,"educ":10.9,"educ_score":526.7,"hacin":1.158,"hacin_class":"Hacinamiento Leve","hacin_score":817.5,"auto_score":170.5,"n_per":367,"n_hog":127,"source_year":2024,"crime_score":0.4643,"crime_nivel":"Medio","crime_color":"#ff9800"},"geometry":{"type":"Polygon","coordinates":[[[-72.9513485849999,-39.6547446560728],[-72.9506893559999,-39.6542150410728],[-72.9490246259999,-39.6554469410728],[-72.9487139599999,-39.6552871740728],[-72.9483372289999,-39.6556753250728],[-72.9492060469999,-39.6561450540728],[-72.9495494739999,-39.6557984300728],[-72.9492334299999,-39.6561595120728],[-72.9507927039999,-39.6570189120728],[-72.9511978899999,-39.6566025290728],[-72.9501718839999,-39.6559770090727],[-72.9499434559999,-39.6560234090728],[-72.9503355189999,-39.6557189220728],[-72.95007591,-39.6555271710728],[-72.9499446449999,-39.6556319870728],[-72.950038693,-39.6554996820728],[-72.9497722809999,-39.6553029040728],[-72.9493854719999,-39.6555606030728],[-72.9497287809999,-39.6552707740728],[-72.9496550369999,-39.6551690530728],[-72.9504324349999,-39.6556468590728],[-72.950619818,-39.6554892200728],[-72.9499981829999,-39.6550192760728],[-72.9506699549999,-39.6554549690728],[-72.9509202249999,-39.6552542480728],[-72.9503015649999,-39.6547872790728],[-72.9509707879999,-39.6552155820728],[-72.9513485849999,-39.6547446560728]]]}},{"type":"Feature","properties":{"id":"14105011001003","commune":"Máfil","code":"14105","gse":"D","quintil":"Q1","nse_score":613.1,"educ":9.6,"educ_score":440.0,"hacin":1.286,"hacin_class":"Hacinamiento Leve","hacin_score":790.3,"auto_score":38.5,"n_per":36,"n_hog":12,"source_year":2024,"crime_score":0.429,"crime_nivel":"Medio","crime_color":"#ff9800"},"geometry":{"type":"Polygon","coordinates":[[[-72.9519808279999,-39.6547226760728],[-72.9517028219999,-39.6545504350728],[-72.9514821819999,-39.6547539250728],[-72.9517646389999,-39.6549634300728],[-72.9519808279999,-39.6547226760728]]]}},{"type":"Feature","properties":{"id":"14105011001004","commune":"Máfil","code":"14105","gse":"C3","quintil":"Q3","nse_score":689.8,"educ":11.5,"educ_score":566.7,"hacin":1.171,"hacin_class":"Hacinamiento Leve","hacin_score":814.6,"auto_score":156.2,"n_per":41,"n_hog":15,"source_year":2024,"crime_score":0.4126,"crime_nivel":"Medio","crime_color":"#ff9800"},"geometry":{"type":"Polygon","coordinates":[[[-72.9514753099999,-39.6562389450728],[-72.9523012829999,-39.6553680050728],[-72.9514353209999,-39.6548111140728],[-72.9511962419999,-39.6551632330728],[-72.9505395109999,-39.6556664890728],[-72.9514753099999,-39.6562389450728]]]}},{"type":"Feature","properties":{"id":"14105011001005","commune":"Máfil","code":"14105","gse":"C3","quintil":"Q2","nse_score":673.0,"educ":11.8,"educ_score":586.7,"hacin":1.314,"hacin_class":"Hacinamiento Leve","hacin_score":784.2,"auto_score":333.3,"n_per":92,"n_hog":31,"source_year":2024,"crime_score":0.4268,"crime_nivel":"Medio","crime_color":"#ff9800"},"geometry":{"type":"Polygon","coordinates":[[[-72.9529488449999,-39.6549173550728],[-72.9522105069999,-39.6585060540727],[-72.9524162939999,-39.6585031520727],[-72.9527773639999,-39.6566273700728],[-72.9542336799999,-39.6569798300728],[-72.9528456059999,-39.6567362990728],[-72.9524766009999,-39.6586019530728],[-72.9531448819999,-39.6589322230728],[-72.9534244229999,-39.6586203500727],[-72.9536106399999,-39.6585157850728],[-72.9531705329999,-39.6589495260728],[-72.9536446459999,-39.6591919210728],[-72.9525015789999,-39.6586632440728],[-72.9524074219999,-39.6587211290728],[-72.9518115859999,-39.6615235760727],[-72.9520686179999,-39.6622116990727],[-72.9526588509999,-39.6621566090728],[-72.9527371139999,-39.6615410910727],[-72.9527134209999,-39.6621349430727],[-72.9529539339999,-39.6621257210727],[-72.9535339569999,-39.6593673190728],[-72.9538917409999,-39.6595362880727],[-72.9545038599999,-39.6585801160728],[-72.9535826389999,-39.6582391950728],[-72.9548218379999,-39.6560493240728],[-72.9541328839999,-39.6558613330728],[-72.9534847939999,-39.6550427920728],[-72.9529488449999,-39.6549173550728]]]}},{"type":"Feature","properties":{"id":"14105011001006","commune":"Máfil","code":"14105","gse":"D","quintil":"Q2","nse_score":660.4,"educ":10.6,"educ_score":506.7,"hacin":1.46,"hacin_class":"Hacinamiento Leve","hacin_score":753.2,"auto_score":204.5,"n_per":73,"n_hog":19,"source_year":2024,"crime_score":0.4259,"crime_nivel":"Medio","crime_color":"#ff9800"},"geometry":{"type":"Polygon","coordinates":[[[-72.9514728939999,-39.6564068630727],[-72.9523214319999,-39.6568765500728],[-72.9525276009999,-39.6554743690728],[-72.9523337059999,-39.6554173830728],[-72.9514728939999,-39.6564068630727]]]}},{"type":"Feature","properties":{"id":"14105011001008","commune":"Máfil","code":"14105","gse":"C3","quintil":"Q2","nse_score":679.1,"educ":10.1,"educ_score":473.3,"hacin":1.078,"hacin_class":"Hacinamiento Leve","hacin_score":834.5,"auto_score":114.0,"n_per":305,"n_hog":116,"source_year":2024,"crime_score":0.4677,"crime_nivel":"Medio","crime_color":"#ff9800"},"geometry":{"type":"Polygon","coordinates":[[[-72.9455992549999,-39.6557096250728],[-72.9452868359999,-39.6561612710728],[-72.9453527549999,-39.6565854010727],[-72.9454650469999,-39.6566952360728],[-72.9458743509999,-39.6564193790728],[-72.9455411439999,-39.6567757830728],[-72.945829467,-39.6569780430727],[-72.9460557389999,-39.6567061260728],[-72.9462609109999,-39.6567550460728],[-72.9460760449999,-39.6567493920728],[-72.9458593259999,-39.6569863110727],[-72.9462129659999,-39.6572055770728],[-72.9465599289999,-39.6568999690728],[-72.9462862029999,-39.6572355200727],[-72.9467820219999,-39.6575382250728],[-72.9476522399999,-39.6566156840727],[-72.9468235129999,-39.6575630250728],[-72.947280196,-39.6578294070728],[-72.9478797219999,-39.6572401050727],[-72.9476369019999,-39.6570470800728],[-72.9474449409999,-39.6571245730727],[-72.9480206899999,-39.6565281080727],[-72.9481359389999,-39.6564644260728],[-72.9484995459999,-39.6566275670728],[-72.9486710239999,-39.6564317530728],[-72.9487224719999,-39.6564613090728],[-72.9474243429999,-39.6578943050728],[-72.9490746709999,-39.6588536530728],[-72.9507029469999,-39.6570928140728],[-72.9483372289999,-39.6556753250728],[-72.9479605139999,-39.6560634520728],[-72.9476112159999,-39.6558847080727],[-72.9470473989999,-39.6564320430728],[-72.9455992549999,-39.6557096250728]]]}},{"type":"Feature","properties":{"id":"14105011001009","commune":"Máfil","code":"14105","gse":"C3","quintil":"Q2","nse_score":669.2,"educ":11.2,"educ_score":546.7,"hacin":1.188,"hacin_class":"Hacinamiento Leve","hacin_score":811.2,"auto_score":160.7,"n_per":76,"n_hog":23,"source_year":2024,"crime_score":0.4245,"crime_nivel":"Medio","crime_color":"#ff9800"},"geometry":{"type":"Polygon","coordinates":[[[-72.9513927469999,-39.6563139420728],[-72.9504467119999,-39.6557735650728],[-72.9502111449999,-39.6559341790728],[-72.9512423369999,-39.6565564000728],[-72.9513927469999,-39.6563139420728]]]}},{"type":"Feature","properties":{"id":"14105011001011","commune":"Máfil","code":"14105","gse":"C3","quintil":"Q3","nse_score":699.1,"educ":10.3,"educ_score":486.7,"hacin":0.857,"hacin_class":"Sin Hacinamiento","hacin_score":881.5,"auto_score":100.0,"n_per":24,"n_hog":10,"source_year":2024,"crime_score":0.4071,"crime_nivel":"Medio","crime_color":"#ff9800"},"geometry":{"type":"Polygon","coordinates":[[[-72.9425791789999,-39.6589163730728],[-72.9437931789999,-39.6569860310728],[-72.9443878749999,-39.6563489810728],[-72.9441709589999,-39.6566699860728],[-72.9449791469999,-39.6573930470727],[-72.9454964449999,-39.6568811850727],[-72.9448382389999,-39.6560782720728],[-72.9444051579999,-39.6560504990728],[-72.9441070629999,-39.6563397900728],[-72.9424374999999,-39.6589792230728],[-72.9425791789999,-39.6589163730728]]]}},{"type":"Feature","properties":{"id":"14105011001012","commune":"Máfil","code":"14105","gse":"C3","quintil":"Q2","nse_score":670.8,"educ":9.9,"educ_score":460.0,"hacin":1.133,"hacin_class":"Hacinamiento Leve","hacin_score":822.7,"auto_score":75.0,"n_per":51,"n_hog":20,"source_year":2024,"crime_score":0.419,"crime_nivel":"Medio","crime_color":"#ff9800"},"geometry":{"type":"Polygon","coordinates":[[[-72.9518487429999,-39.6576327940728],[-72.9521351679999,-39.6576547300727],[-72.9522895549999,-39.6569700710728],[-72.9513987309999,-39.6564936900728],[-72.9508554269999,-39.6570872650727],[-72.9518487429999,-39.6576327940728]]]}},{"type":"Feature","properties":{"id":"14105011001013","commune":"Máfil","code":"14105","gse":"D","quintil":"Q2","nse_score":662.5,"educ":10.0,"educ_score":466.7,"hacin":1.148,"hacin_class":"Hacinamiento Leve","hacin_score":819.5,"auto_score":150.0,"n_per":31,"n_hog":10,"source_year":2024,"crime_score":0.4168,"crime_nivel":"Medio","crime_color":"#ff9800"},"geometry":{"type":"Polygon","coordinates":[[[-72.9476518709999,-39.6570261110728],[-72.9479755789999,-39.6571722180728],[-72.9484338659999,-39.6566531570728],[-72.9480876769999,-39.6565152490728],[-72.9476518709999,-39.6570261110728]]]}},{"type":"Feature","properties":{"id":"14105011001014","commune":"Máfil","code":"14105","gse":"C3","quintil":"Q3","nse_score":688.9,"educ":10.5,"educ_score":500.0,"hacin":1.07,"hacin_class":"Hacinamiento Leve","hacin_score":836.1,"auto_score":261.9,"n_per":61,"n_hog":21,"source_year":2024,"crime_score":0.4169,"crime_nivel":"Medio","crime_color":"#ff9800"},"geometry":{"type":"Polygon","coordinates":[[[-72.9440361629999,-39.6567983800728],[-72.9426289859999,-39.6589735410728],[-72.9432158349999,-39.6593383160727],[-72.9449694659999,-39.6574435010728],[-72.9444043609999,-39.6568977130728],[-72.9440361629999,-39.6567983800728]]]}},{"type":"Feature","properties":{"id":"14105011001015","commune":"Máfil","code":"14105","gse":"C3","quintil":"Q2","nse_score":675.4,"educ":10.4,"educ_score":493.3,"hacin":1.171,"hacin_class":"Hacinamiento Leve","hacin_score":814.8,"auto_score":135.9,"n_per":247,"n_hog":92,"source_year":2024,"crime_score":0.4579,"crime_nivel":"Medio","crime_color":"#ff9800"},"geometry":{"type":"Polygon","coordinates":[[[-72.9455821509999,-39.6569178340728],[-72.9452431559999,-39.6573036830728],[-72.9461140209999,-39.6578541160728],[-72.9462607609999,-39.6578371190728],[-72.9459370109999,-39.6581689840728],[-72.9462422779999,-39.6583296160728],[-72.9466058509999,-39.6579698200728],[-72.9465567479999,-39.6581136340728],[-72.9474341939999,-39.6586400590727],[-72.9476366599999,-39.6585848610728],[-72.9474058459999,-39.6588731600727],[-72.9477261319999,-39.6590536470728],[-72.9473448529999,-39.6588916740728],[-72.9470952489999,-39.6592218380728],[-72.9482560429999,-39.6597939590728],[-72.9490231029999,-39.6589770970727],[-72.9455821509999,-39.6569178340728]]]}},{"type":"Feature","properties":{"id":"14105011001016","commune":"Máfil","code":"14105","gse":"C2","quintil":"Q4","nse_score":729.9,"educ":11.5,"educ_score":566.7,"hacin":1.263,"hacin_class":"Hacinamiento Leve","hacin_score":795.1,"auto_score":205.9,"n_per":48,"n_hog":17,"source_year":2024,"crime_score":0.4048,"crime_nivel":"Medio","crime_color":"#ff9800"},"geometry":{"type":"Polygon","coordinates":[[[-72.9519779959999,-39.6584641230727],[-72.9521051989999,-39.6577620410728],[-72.9508084259999,-39.6571300640728],[-72.9502576039999,-39.6577033890728],[-72.9514577899999,-39.6584036730728],[-72.9519779959999,-39.6584641230727]]]}},{"type":"Feature","properties":{"id":"14105011001017","commune":"Máfil","code":"14105","gse":"D","quintil":"Q2","nse_score":659.5,"educ":9.7,"educ_score":446.7,"hacin":1.172,"hacin_class":"Hacinamiento Leve","hacin_score":814.5,"auto_score":135.1,"n_per":225,"n_hog":74,"source_year":2024,"crime_score":0.4573,"crime_nivel":"Medio","crime_color":"#ff9800"},"geometry":{"type":"Polygon","coordinates":[[[-72.9452196799999,-39.6573331890728],[-72.94328694,-39.6594281560727],[-72.9451124139999,-39.6605098230727],[-72.9456645339999,-39.6605236620728],[-72.9464106949999,-39.6597600240727],[-72.9454554539999,-39.6592326870727],[-72.9464243859999,-39.6597419630727],[-72.9471391549999,-39.6589716640727],[-72.9468193339999,-39.6587545130728],[-72.9465725919999,-39.6589128380727],[-72.9467519869999,-39.6587187500727],[-72.9464419049999,-39.6585282080728],[-72.9462130679999,-39.6587178960727],[-72.9463769459999,-39.6585006220728],[-72.9459069599999,-39.6582015010728],[-72.9456284819999,-39.6583653630727],[-72.9458270059999,-39.6581472130728],[-72.9454495829999,-39.6579209040727],[-72.9458883909999,-39.6581177940728],[-72.9460926539999,-39.6578834760728],[-72.9452196799999,-39.6573331890728]]]}},{"type":"Feature","properties":{"id":"14105011001018","commune":"Máfil","code":"14105","gse":"D","quintil":"Q2","nse_score":654.5,"educ":9.9,"educ_score":460.0,"hacin":1.14,"hacin_class":"Hacinamiento Leve","hacin_score":821.2,"auto_score":86.2,"n_per":65,"n_hog":25,"source_year":2024,"crime_score":0.4256,"crime_nivel":"Medio","crime_color":"#ff9800"},"geometry":{"type":"Polygon","coordinates":[[[-72.9501901439999,-39.6578039920727],[-72.9491824829999,-39.6589095480728],[-72.9500855189999,-39.6594237190728],[-72.9511294569999,-39.6583250620728],[-72.9501901439999,-39.6578039920727]]]}},{"type":"Feature","properties":{"id":"14105011001019","commune":"Máfil","code":"14105","gse":"D","quintil":"Q1","nse_score":637.7,"educ":9.3,"educ_score":420.0,"hacin":1.15,"hacin_class":"Hacinamiento Leve","hacin_score":819.1,"auto_score":80.0,"n_per":69,"n_hog":26,"source_year":2024,"crime_score":0.4303,"crime_nivel":"Medio","crime_color":"#ff9800"},"geometry":{"type":"Polygon","coordinates":[[[-72.9462855889999,-39.6583871570728],[-72.9471540479999,-39.6589129520727],[-72.9474129309999,-39.6586999340727],[-72.9465293569999,-39.6581515030728],[-72.9462855889999,-39.6583871570728]]]}},{"type":"Feature","properties":{"id":"14105011001020","commune":"Máfil","code":"14105","gse":"C3","quintil":"Q3","nse_score":710.5,"educ":11.1,"educ_score":540.0,"hacin":1.118,"hacin_class":"Hacinamiento Leve","hacin_score":826.0,"auto_score":83.3,"n_per":76,"n_hog":29,"source_year":2024,"crime_score":0.4149,"crime_nivel":"Medio","crime_color":"#ff9800"},"geometry":{"type":"Polygon","coordinates":[[[-72.9502032009999,-39.6594278800728],[-72.9512579439999,-39.6602085780727],[-72.95057012,-39.6624639450727],[-72.9513895979999,-39.6627192420727],[-72.9516476839999,-39.6622731110727],[-72.9523912059999,-39.6585680780727],[-72.9514533699999,-39.6584719600727],[-72.9512297979999,-39.6594341710728],[-72.9513871949999,-39.6584668490727],[-72.951176314,-39.6583517240728],[-72.9502032009999,-39.6594278800728]]]}},{"type":"Feature","properties":{"id":"14105011001021","commune":"Máfil","code":"14105","gse":"C2","quintil":"Q3","nse_score":726.2,"educ":11.9,"educ_score":593.3,"hacin":1.095,"hacin_class":"Hacinamiento Leve","hacin_score":831.0,"auto_score":229.2,"n_per":139,"n_hog":48,"source_year":2024,"crime_score":0.4237,"crime_nivel":"Medio","crime_color":"#ff9800"},"geometry":{"type":"Polygon","coordinates":[[[-72.9543623979999,-39.6619807620727],[-72.9557783289999,-39.6618685920728],[-72.9565424309999,-39.6620309090728],[-72.9569111579999,-39.6615967580727],[-72.9565683659999,-39.6620397020727],[-72.9577909779999,-39.6624863750728],[-72.9583473199999,-39.6616458420727],[-72.9578931109999,-39.6625238990727],[-72.9583729829999,-39.6617480430727],[-72.9584281429999,-39.6617324680727],[-72.9587448299999,-39.6617866930727],[-72.9589323589999,-39.6609371180727],[-72.9588002129999,-39.6617977220728],[-72.9583914589999,-39.6617667490727],[-72.9579404669999,-39.6625378310727],[-72.9591792349999,-39.6629597640727],[-72.9593981019999,-39.6625350500727],[-72.9598826769999,-39.6599483590727],[-72.9603971599999,-39.6591288080727],[-72.9595566109999,-39.6588769270727],[-72.9581508669999,-39.6615671900727],[-72.9567654139999,-39.6611962690728],[-72.9568830359999,-39.6609885150727],[-72.956169213,-39.6610430980727],[-72.955937118,-39.6613496320727],[-72.9548681859999,-39.6613488740727],[-72.9543623979999,-39.6619807620727]]]}},{"type":"Feature","properties":{"id":"14105011001022","commune":"Máfil","code":"14105","gse":"C3","quintil":"Q2","nse_score":672.6,"educ":9.7,"educ_score":446.7,"hacin":1.097,"hacin_class":"Hacinamiento Leve","hacin_score":830.5,"auto_score":131.6,"n_per":102,"n_hog":38,"source_year":2024,"crime_score":0.429,"crime_nivel":"Medio","crime_color":"#ff9800"},"geometry":{"type":"Polygon","coordinates":[[[-72.94986352,-39.6597017880728],[-72.9496237489999,-39.6592378860727],[-72.9490892749999,-39.6589812800727],[-72.9484432019999,-39.6596631340727],[-72.9488933669999,-39.6600024350728],[-72.9484051029999,-39.6596986310727],[-72.9483095869999,-39.6598295700727],[-72.9484543139999,-39.6599466670727],[-72.9482874669999,-39.6601818410727],[-72.9485984609999,-39.6603470910728],[-72.948859566,-39.6600894670727],[-72.9493700499999,-39.6603004370727],[-72.9495377399999,-39.6600366410727],[-72.9490854569999,-39.6598357420727],[-72.9495989559999,-39.6600105940727],[-72.94986352,-39.6597017880728]]]}},{"type":"Feature","properties":{"id":"14105011001023","commune":"Máfil","code":"14105","gse":"D","quintil":"Q1","nse_score":640.8,"educ":9.3,"educ_score":420.0,"hacin":1.176,"hacin_class":"Hacinamiento Leve","hacin_score":813.6,"auto_score":99.0,"n_per":267,"n_hog":100,"source_year":2024,"crime_score":0.4707,"crime_nivel":"Medio","crime_color":"#ff9800"},"geometry":{"type":"Polygon","coordinates":[[[-72.9456412299999,-39.6607063000728],[-72.9473170469999,-39.6615022010728],[-72.9467002109999,-39.6623356040728],[-72.9467962949999,-39.6625178460728],[-72.9479128039999,-39.6625529420727],[-72.9483745589999,-39.6633979740728],[-72.9492257459999,-39.6635550520727],[-72.9487006059999,-39.6646187340727],[-72.9480281039999,-39.6644382790727],[-72.9479511469999,-39.6642068990728],[-72.9473668109999,-39.6639941630727],[-72.9469634499999,-39.6648226510727],[-72.9472569069999,-39.6649675520727],[-72.9468245369999,-39.6657771630727],[-72.948650057,-39.6662808650727],[-72.9487523849999,-39.6659911500727],[-72.9479144159999,-39.6657202030727],[-72.9487907269999,-39.6659480140727],[-72.9492977739999,-39.6649250440727],[-72.9478327249999,-39.6647300230727],[-72.9474557939999,-39.6644862440727],[-72.9478460949999,-39.6646914490727],[-72.9493169339999,-39.6648872420727],[-72.9504552879999,-39.6625229330727],[-72.9494819239999,-39.6621131140728],[-72.9487364359999,-39.6631396580727],[-72.9493834269999,-39.6620523950727],[-72.9491287319999,-39.6619653250727],[-72.9486697699999,-39.6625925050728],[-72.9490453399999,-39.6619099290727],[-72.9488177409999,-39.6617913210728],[-72.9485156409999,-39.6620539150727],[-72.9487275139999,-39.6617459130727],[-72.9484567829999,-39.6616113760727],[-72.9480420389999,-39.6619966770727],[-72.9470265229999,-39.6619804100728],[-72.9480035129999,-39.6619724050727],[-72.9483475299999,-39.6616195560727],[-72.9476312729999,-39.6612159500727],[-72.9475418229999,-39.6609969890728],[-72.948236215,-39.6598549610728],[-72.9469851099999,-39.6592548500728],[-72.9457214889999,-39.6605502560728],[-72.945223015,-39.6605970440727],[-72.943978581,-39.6599195030727],[-72.9437630969999,-39.6603487600727],[-72.9439570899999,-39.6599090120728],[-72.9436354779999,-39.6597192820727],[-72.9434264999999,-39.6599957070728],[-72.9430253819999,-39.6600439030727],[-72.943475782,-39.6599145810728],[-72.9435962679999,-39.6596961500728],[-72.9425830569999,-39.6591179440728],[-72.9423805309999,-39.6594041940727],[-72.9425573219999,-39.6605734250727],[-72.9423507569999,-39.6598198890728],[-72.9417666939999,-39.6608408250727],[-72.941819199,-39.6617163280728],[-72.9416888459999,-39.6608192220727],[-72.9423332129999,-39.6596763440727],[-72.9423093809999,-39.6593328850727],[-72.9425145549999,-39.6590151630728],[-72.9424374999999,-39.6589792230728],[-72.9408777479999,-39.6614568550727],[-72.9416508609999,-39.6619109300727],[-72.9426539409999,-39.6617482080727],[-72.9429708459999,-39.6612221230728],[-72.9430449949999,-39.6605613160727],[-72.9456412299999,-39.6607063000728]]]}},{"type":"Feature","properties":{"id":"14105011001026","commune":"Máfil","code":"14105","gse":"C2","quintil":"Q3","nse_score":727.7,"educ":11.7,"educ_score":580.0,"hacin":1.118,"hacin_class":"Hacinamiento Leve","hacin_score":825.9,"auto_score":171.2,"n_per":189,"n_hog":73,"source_year":2024,"crime_score":0.4333,"crime_nivel":"Medio","crime_color":"#ff9800"},"geometry":{"type":"Polygon","coordinates":[[[-72.9503531499999,-39.6601565370727],[-72.9498456139999,-39.6597798420727],[-72.9489755639999,-39.6609143970727],[-72.9494330319999,-39.6611379940727],[-72.9489370649999,-39.6609634520727],[-72.9487504149999,-39.6612088260728],[-72.9492035869999,-39.6614459120727],[-72.9487139979999,-39.6612533960727],[-72.9484965549999,-39.6615509750728],[-72.9491124559999,-39.6618240940727],[-72.949683036,-39.6610580110728],[-72.9491838529999,-39.6618494680728],[-72.9494137159999,-39.6619891680727],[-72.9501016289999,-39.6612115930728],[-72.9495232459999,-39.6620438520727],[-72.9504946429999,-39.6624287390728],[-72.9509869489999,-39.6610117050728],[-72.9507751189999,-39.6605256920728],[-72.9503740089999,-39.6601764970728],[-72.9500397219999,-39.6605353160727],[-72.9503531499999,-39.6601565370727]]]}},{"type":"Feature","properties":{"id":"14105011001027","commune":"Máfil","code":"14105","gse":"D","quintil":"Q2","nse_score":651.9,"educ":10.5,"educ_score":500.0,"hacin":1.286,"hacin_class":"Hacinamiento Leve","hacin_score":790.3,"auto_score":111.1,"n_per":72,"n_hog":25,"source_year":2024,"crime_score":0.4276,"crime_nivel":"Medio","crime_color":"#ff9800"},"geometry":{"type":"Polygon","coordinates":[[[-72.9490914829999,-39.6606210510728],[-72.9482395789999,-39.6602186730727],[-72.9483341079999,-39.6599234430727],[-72.9479618789999,-39.6603780390728],[-72.9488963709999,-39.6608888840727],[-72.9490914829999,-39.6606210510728]]]}},{"type":"Feature","properties":{"id":"14105011001028","commune":"Máfil","code":"14105","gse":"C2","quintil":"Q4","nse_score":759.6,"educ":13.9,"educ_score":726.7,"hacin":1.179,"hacin_class":"Hacinamiento Leve","hacin_score":813.1,"auto_score":458.3,"n_per":33,"n_hog":11,"source_year":2024,"crime_score":0.3951,"crime_nivel":"Medio","crime_color":"#ff9800"},"geometry":{"type":"Polygon","coordinates":[[[-72.9599315379999,-39.6599804980727],[-72.9598665349999,-39.6605527970727],[-72.9600825279999,-39.6605710940727],[-72.9604491499999,-39.6607364850727],[-72.9606145489999,-39.6603945160727],[-72.9604957829999,-39.6607522830728],[-72.9598539269999,-39.6606175290727],[-72.9597272349999,-39.6612679250727],[-72.9608820959999,-39.6615680400728],[-72.9597201839999,-39.6613040330728],[-72.959272273,-39.6629696750727],[-72.960818721,-39.6635228980727],[-72.9611569259999,-39.6627189200727],[-72.9605495239999,-39.6625111400727],[-72.9610593179999,-39.6614786010727],[-72.960678776,-39.6612127970728],[-72.9606208959999,-39.6606857640727],[-72.9608689159999,-39.6600088820728],[-72.9599315379999,-39.6599804980727]]]}},{"type":"Feature","properties":{"id":"14105011001029","commune":"Máfil","code":"14105","gse":"C3","quintil":"Q3","nse_score":696.6,"educ":10.5,"educ_score":500.0,"hacin":0.875,"hacin_class":"Sin Hacinamiento","hacin_score":877.7,"auto_score":83.3,"n_per":28,"n_hog":12,"source_year":2024,"crime_score":0.4084,"crime_nivel":"Medio","crime_color":"#ff9800"},"geometry":{"type":"Polygon","coordinates":[[[-72.9493089669999,-39.6603219650727],[-72.9488584529999,-39.6601271250727],[-72.9486599349999,-39.6603783190728],[-72.9491080099999,-39.6605896940728],[-72.9493089669999,-39.6603219650727]]]}},{"type":"Feature","properties":{"id":"14105011001030","commune":"Máfil","code":"14105","gse":"D","quintil":"Q2","nse_score":650.8,"educ":9.2,"educ_score":413.3,"hacin":1.121,"hacin_class":"Hacinamiento Leve","hacin_score":825.3,"auto_score":17.2,"n_per":74,"n_hog":29,"source_year":2024,"crime_score":0.4283,"crime_nivel":"Medio","crime_color":"#ff9800"},"geometry":{"type":"Polygon","coordinates":[[[-72.9479681019999,-39.6604972110728],[-72.9477787449999,-39.6607681580727],[-72.9486594859999,-39.6611846130727],[-72.9488810369999,-39.6609458830728],[-72.9479681019999,-39.6604972110728]]]}},{"type":"Feature","properties":{"id":"14105011001031","commune":"Máfil","code":"14105","gse":"D","quintil":"Q1","nse_score":633.8,"educ":8.8,"educ_score":386.7,"hacin":0.94,"hacin_class":"Sin Hacinamiento","hacin_score":863.8,"auto_score":100.0,"n_per":47,"n_hog":21,"source_year":2024,"crime_score":0.4266,"crime_nivel":"Medio","crime_color":"#ff9800"},"geometry":{"type":"Polygon","coordinates":[[[-72.9486404359999,-39.6612092310727],[-72.9477603129999,-39.6607979740727],[-72.9475995879999,-39.6609579000727],[-72.9477302929999,-39.6612194330727],[-72.9483734019999,-39.6615103230728],[-72.9486404359999,-39.6612092310727]]]}},{"type":"Feature","properties":{"id":"14105011001033","commune":"Máfil","code":"14105","gse":"C2","quintil":"Q3","nse_score":719.9,"educ":11.6,"educ_score":573.3,"hacin":1.232,"hacin_class":"Hacinamiento Leve","hacin_score":801.8,"auto_score":228.1,"n_per":319,"n_hog":113,"source_year":2024,"crime_score":0.4572,"crime_nivel":"Medio","crime_color":"#ff9800"},"geometry":{"type":"Polygon","coordinates":[[[-72.9547967659999,-39.6620301730727],[-72.9547100429999,-39.6630866820727],[-72.9544801129999,-39.6633946450727],[-72.954674097,-39.6630285450727],[-72.9547328119999,-39.6620039940727],[-72.9521892259999,-39.6622968380727],[-72.9512526189999,-39.6641019760727],[-72.9530625519999,-39.6641846020727],[-72.9530779089999,-39.6650597420727],[-72.9539387869999,-39.6651480200727],[-72.9543368199999,-39.6656184080727],[-72.9544057209999,-39.6662822590727],[-72.9576451359999,-39.6663675910727],[-72.9580232269999,-39.6662728420727],[-72.9584296969999,-39.6652659910727],[-72.9573325799999,-39.6650144150727],[-72.9584431449999,-39.6652237810727],[-72.9591534389999,-39.6630603960727],[-72.957110413,-39.6623014500727],[-72.9550602479999,-39.6645180870727],[-72.9555651029999,-39.6638777470728],[-72.9552604649999,-39.6637117050727],[-72.9548418759999,-39.6641772020728],[-72.9552033209999,-39.6636805580727],[-72.9548835759999,-39.6635062770727],[-72.9546291519999,-39.6636938290727],[-72.9560719479999,-39.6620963320727],[-72.9568624249999,-39.6624907120728],[-72.9570467659999,-39.6622777910727],[-72.9559929799999,-39.6619400320728],[-72.9547967659999,-39.6620301730727]]]}},{"type":"Feature","properties":{"id":"14105011001034","commune":"Máfil","code":"14105","gse":"C2","quintil":"Q4","nse_score":748.4,"educ":12.0,"educ_score":600.0,"hacin":1.441,"hacin_class":"Hacinamiento Leve","hacin_score":757.2,"auto_score":250.0,"n_per":49,"n_hog":16,"source_year":2024,"crime_score":0.4008,"crime_nivel":"Medio","crime_color":"#ff9800"},"geometry":{"type":"Polygon","coordinates":[[[-72.9558861769999,-39.6623948340727],[-72.9566186149999,-39.6627723190727],[-72.9568235379999,-39.6625356280727],[-72.9561026729999,-39.6621548350728],[-72.9558861769999,-39.6623948340727]]]}},{"type":"Feature","properties":{"id":"14105011001036","commune":"Máfil","code":"14105","gse":"C2","quintil":"Q4","nse_score":734.9,"educ":12.1,"educ_score":606.7,"hacin":1.258,"hacin_class":"Hacinamiento Leve","hacin_score":796.2,"auto_score":333.3,"n_per":39,"n_hog":14,"source_year":2024,"crime_score":0.4019,"crime_nivel":"Medio","crime_color":"#ff9800"},"geometry":{"type":"Polygon","coordinates":[[[-72.9556525819999,-39.6626537860727],[-72.9563818669999,-39.6630457720727],[-72.9565926909999,-39.6628022610728],[-72.9558595109999,-39.6624243940727],[-72.9556525819999,-39.6626537860727]]]}},{"type":"Feature","properties":{"id":"14105011001038","commune":"Máfil","code":"14105","gse":"C2","quintil":"Q4","nse_score":737.3,"educ":12.2,"educ_score":613.3,"hacin":1.269,"hacin_class":"Hacinamiento Leve","hacin_score":793.8,"auto_score":192.3,"n_per":33,"n_hog":13,"source_year":2024,"crime_score":0.4002,"crime_nivel":"Medio","crime_color":"#ff9800"},"geometry":{"type":"Polygon","coordinates":[[[-72.9554073719999,-39.6629256170727],[-72.9561057419999,-39.6632889080727],[-72.9563559389999,-39.6630757190727],[-72.9556259219999,-39.6626833400727],[-72.9554073719999,-39.6629256170727]]]}},{"type":"Feature","properties":{"id":"14105011001039","commune":"Máfil","code":"14105","gse":"C2","quintil":"Q4","nse_score":736.8,"educ":12.1,"educ_score":606.7,"hacin":1.4,"hacin_class":"Hacinamiento Leve","hacin_score":766.0,"auto_score":142.9,"n_per":42,"n_hog":14,"source_year":2024,"crime_score":0.4021,"crime_nivel":"Medio","crime_color":"#ff9800"},"geometry":{"type":"Polygon","coordinates":[[[-72.9551735539999,-39.6631848190727],[-72.9558575659999,-39.6635607250727],[-72.9560793129999,-39.6633185880727],[-72.9553807089999,-39.6629551750727],[-72.9551735539999,-39.6631848190727]]]}},{"type":"Feature","properties":{"id":"14105011001040","commune":"Máfil","code":"14105","gse":"C2","quintil":"Q4","nse_score":742.5,"educ":12.5,"educ_score":633.3,"hacin":1.208,"hacin_class":"Hacinamiento Leve","hacin_score":806.7,"auto_score":254.7,"n_per":145,"n_hog":52,"source_year":2024,"crime_score":0.421,"crime_nivel":"Medio","crime_color":"#ff9800"},"geometry":{"type":"Polygon","coordinates":[[[-72.9610029869999,-39.6636506400727],[-72.9606037729999,-39.6637145610727],[-72.9603765299999,-39.6642569460727],[-72.9602603679999,-39.6643253600727],[-72.960583374,-39.6637054220728],[-72.9608697609999,-39.6636065690728],[-72.9601178119999,-39.6633578240727],[-72.9598442369999,-39.6640488550727],[-72.9600962279999,-39.6633506840728],[-72.9594267059999,-39.6631292060727],[-72.9592180989999,-39.6631794630727],[-72.9588783919999,-39.6641519410727],[-72.9595207789999,-39.6642703740727],[-72.9588726959999,-39.6641694170727],[-72.9587990469999,-39.6643953580727],[-72.9595778629999,-39.6645138660727],[-72.958793339,-39.6644128660727],[-72.9587167789999,-39.6646477330727],[-72.9593921189999,-39.6647704160727],[-72.9587110829999,-39.6646652090727],[-72.9586166019999,-39.6649543760727],[-72.9592175089999,-39.6650599460727],[-72.9586108759999,-39.6649718540727],[-72.9584990409999,-39.6653132610727],[-72.9591240799999,-39.6653133430727],[-72.9584931049999,-39.6653313810727],[-72.9582314209999,-39.6661818390727],[-72.9579569739999,-39.6663943910727],[-72.9580401059999,-39.6668386850727],[-72.9594985129999,-39.6666054260727],[-72.9606250769999,-39.6668390140727],[-72.9612423399999,-39.6671445980727],[-72.9620915379999,-39.6650607350727],[-72.961035594,-39.6646870780727],[-72.9608528719999,-39.6651811710727],[-72.9616874109999,-39.6654557500727],[-72.9608395519999,-39.6652158090727],[-72.9605482249999,-39.6661663450727],[-72.9612507879999,-39.6664233660727],[-72.9598534539999,-39.6660486120727],[-72.9595736529999,-39.6661916180727],[-72.9598541049999,-39.6660304570727],[-72.9604988329999,-39.6661723490727],[-72.9606317529999,-39.6657643960727],[-72.9597408629999,-39.6655322630727],[-72.9606418949999,-39.6657291330727],[-72.9613427439999,-39.6637619920727],[-72.9610029869999,-39.6636506400727]]]}},{"type":"Feature","properties":{"id":"14105011001041","commune":"Máfil","code":"14105","gse":"C3","quintil":"Q3","nse_score":693.1,"educ":10.7,"educ_score":513.3,"hacin":1.214,"hacin_class":"Hacinamiento Leve","hacin_score":805.5,"auto_score":269.2,"n_per":34,"n_hog":13,"source_year":2024,"crime_score":0.4104,"crime_nivel":"Medio","crime_color":"#ff9800"},"geometry":{"type":"Polygon","coordinates":[[[-72.9549235659999,-39.6634619450727],[-72.955605697,-39.6638337440727],[-72.9558305029999,-39.6635900600727],[-72.9551468929999,-39.6632143740727],[-72.9549235659999,-39.6634619450727]]]}},{"type":"Feature","properties":{"id":"14105011001042","commune":"Máfil","code":"14105","gse":"C2","quintil":"Q4","nse_score":741.9,"educ":12.0,"educ_score":600.0,"hacin":0.829,"hacin_class":"Sin Hacinamiento","hacin_score":887.4,"auto_score":107.1,"n_per":34,"n_hog":13,"source_year":2024,"crime_score":0.3994,"crime_nivel":"Medio","crime_color":"#ff9800"},"geometry":{"type":"Polygon","coordinates":[[[-72.951209177,-39.6641952880727],[-72.9508333289999,-39.6651105090727],[-72.9520370959999,-39.6651100710727],[-72.9523462489999,-39.6641814160728],[-72.951209177,-39.6641952880727]]]}},{"type":"Feature","properties":{"id":"14105011001047","commune":"Máfil","code":"14105","gse":"C3","quintil":"Q3","nse_score":709.8,"educ":11.9,"educ_score":593.3,"hacin":1.167,"hacin_class":"Hacinamiento Leve","hacin_score":815.6,"auto_score":194.4,"n_per":49,"n_hog":18,"source_year":2024,"crime_score":0.4096,"crime_nivel":"Medio","crime_color":"#ff9800"},"geometry":{"type":"Polygon","coordinates":[[[-72.9517981269999,-39.6651883230727],[-72.9507721389999,-39.6652184770727],[-72.9503123939999,-39.6662047060727],[-72.9515763039999,-39.6662239980727],[-72.9519092929999,-39.6654325870727],[-72.9517940199999,-39.6654154720727],[-72.9517981269999,-39.6651883230727]]]}},{"type":"Feature","properties":{"id":"14105011001051","commune":"Máfil","code":"14105","gse":"C2","quintil":"Q4","nse_score":768.3,"educ":12.9,"educ_score":660.0,"hacin":0.929,"hacin_class":"Sin Hacinamiento","hacin_score":866.3,"auto_score":111.1,"n_per":39,"n_hog":17,"source_year":2024,"crime_score":0.3943,"crime_nivel":"Medio","crime_color":"#ff9800"},"geometry":{"type":"Polygon","coordinates":[[[-72.9502350649999,-39.6663219680727],[-72.9498798469999,-39.6671688050727],[-72.9513437459999,-39.6674780770727],[-72.9515380489999,-39.6663449670727],[-72.9502350649999,-39.6663219680727]]]}},{"type":"Feature","properties":{"id":"14105011001052","commune":"Máfil","code":"14105","gse":"C2","quintil":"Q4","nse_score":765.2,"educ":12.2,"educ_score":613.3,"hacin":1.107,"hacin_class":"Hacinamiento Leve","hacin_score":828.3,"auto_score":119.0,"n_per":62,"n_hog":21,"source_year":2024,"crime_score":0.3995,"crime_nivel":"Medio","crime_color":"#ff9800"},"geometry":{"type":"Polygon","coordinates":[[[-72.9529152839999,-39.6663673970727],[-72.951610463,-39.6663712960727],[-72.9514348069999,-39.6674755440727],[-72.9528591839999,-39.6675093210727],[-72.9529152839999,-39.6663673970727]]]}},{"type":"Feature","properties":{"id":"14105011001053","commune":"Máfil","code":"14105","gse":"C2","quintil":"Q4","nse_score":765.0,"educ":12.6,"educ_score":640.0,"hacin":1.204,"hacin_class":"Hacinamiento Leve","hacin_score":807.7,"auto_score":142.9,"n_per":65,"n_hog":22,"source_year":2024,"crime_score":0.4001,"crime_nivel":"Medio","crime_color":"#ff9800"},"geometry":{"type":"Polygon","coordinates":[[[-72.9542637409999,-39.6663638940727],[-72.9530061449999,-39.6663651540727],[-72.9529520829999,-39.6674801990727],[-72.9535440099999,-39.6675262010727],[-72.9536218739999,-39.6669950470727],[-72.9535988629999,-39.6675312440727],[-72.9542403919999,-39.6675318190727],[-72.9542637409999,-39.6663638940727]]]}},{"type":"Feature","properties":{"id":"14105011001054","commune":"Máfil","code":"14105","gse":"C2","quintil":"Q4","nse_score":732.3,"educ":12.0,"educ_score":600.0,"hacin":1.018,"hacin_class":"Hacinamiento Leve","hacin_score":847.2,"auto_score":238.1,"n_per":111,"n_hog":41,"source_year":2024,"crime_score":0.4167,"crime_nivel":"Medio","crime_color":"#ff9800"},"geometry":{"type":"Polygon","coordinates":[[[-72.9543570269999,-39.6663984180727],[-72.9542939209999,-39.6680200690727],[-72.9551443739999,-39.6700875180727],[-72.9547606629999,-39.6707072370727],[-72.9547759429999,-39.6709893010727],[-72.9547174949999,-39.6707449310727],[-72.9545168299999,-39.6707827010727],[-72.9541785069999,-39.6696407970727],[-72.9528750009999,-39.6696262440727],[-72.9527886189999,-39.6700409430727],[-72.952789359,-39.6696466400727],[-72.9523855989999,-39.6695114520727],[-72.9511386579999,-39.6684682740727],[-72.9495493479999,-39.6677965020727],[-72.9478795479999,-39.6688875950727],[-72.9474199599999,-39.6688710440727],[-72.9468970489999,-39.6685700410727],[-72.9468324349999,-39.6686442870727],[-72.9474300539999,-39.6696295180727],[-72.9482545639999,-39.6696122330727],[-72.9482333449999,-39.6692831550727],[-72.9495470669999,-39.6683996280727],[-72.9503636779999,-39.6690832370727],[-72.9508361269999,-39.6690690060727],[-72.9522472929999,-39.6700999550727],[-72.9527024589999,-39.6701974100727],[-72.9534747309999,-39.6700060910727],[-72.9538728409999,-39.6700764520727],[-72.9541221879999,-39.6704497310727],[-72.9540376449999,-39.6715818690727],[-72.955086891,-39.6714114330727],[-72.9554362749999,-39.6711850520727],[-72.9559319569999,-39.6710906970727],[-72.9562371769999,-39.6700913690727],[-72.9557916089999,-39.6697133880727],[-72.9552599209999,-39.6683673000727],[-72.955043127,-39.6675406700727],[-72.9550880369999,-39.6672472300727],[-72.9555164889999,-39.6671909140727],[-72.9555974879999,-39.6667051820727],[-72.9561351749999,-39.6664727830727],[-72.9565107779999,-39.6664977650727],[-72.9569785139999,-39.6667570480727],[-72.9580135969999,-39.6668391500727],[-72.9579130409999,-39.6664054140727],[-72.9543570269999,-39.6663984180727]]]}},{"type":"Feature","properties":{"id":"14105011001055","commune":"Máfil","code":"14105","gse":"C3","quintil":"Q3","nse_score":700.2,"educ":10.6,"educ_score":506.7,"hacin":1.01,"hacin_class":"Hacinamiento Leve","hacin_score":849.0,"auto_score":214.3,"n_per":105,"n_hog":40,"source_year":2024,"crime_score":0.4231,"crime_nivel":"Medio","crime_color":"#ff9800"},"geometry":{"type":"Polygon","coordinates":[[[-72.9512608989999,-39.6675361110727],[-72.9508080219999,-39.6675050750727],[-72.950682389,-39.6677124730727],[-72.9508596329999,-39.6678940880727],[-72.9499797329999,-39.6675900710727],[-72.9506141839999,-39.6677486270727],[-72.9507634719999,-39.6674223100727],[-72.9498351589999,-39.6672118700727],[-72.9495645409999,-39.6676906600727],[-72.9501113029999,-39.6680448350727],[-72.9511513659999,-39.6683817710727],[-72.9512608989999,-39.6675361110727]]]}},{"type":"Feature","properties":{"id":"14105011001056","commune":"Máfil","code":"14105","gse":"C3","quintil":"Q2","nse_score":672.8,"educ":10.2,"educ_score":480.0,"hacin":1.33,"hacin_class":"Hacinamiento Leve","hacin_score":780.9,"auto_score":104.7,"n_per":129,"n_hog":43,"source_year":2024,"crime_score":0.4344,"crime_nivel":"Medio","crime_color":"#ff9800"},"geometry":{"type":"Polygon","coordinates":[[[-72.9514005769999,-39.6675819460727],[-72.9513029859999,-39.6683854840727],[-72.9519690309999,-39.6684294040727],[-72.9520708349999,-39.6680285700727],[-72.9520784379999,-39.6684345560727],[-72.9528251639999,-39.6684476180727],[-72.9528270969999,-39.6675635270727],[-72.9514005769999,-39.6675819460727]]]}},{"type":"Feature","properties":{"id":"14105011001057","commune":"Máfil","code":"14105","gse":"C3","quintil":"Q3","nse_score":711.7,"educ":11.4,"educ_score":560.0,"hacin":1.119,"hacin_class":"Hacinamiento Leve","hacin_score":825.7,"auto_score":75.0,"n_per":47,"n_hog":18,"source_year":2024,"crime_score":0.4088,"crime_nivel":"Medio","crime_color":"#ff9800"},"geometry":{"type":"Polygon","coordinates":[[[-72.9542239949999,-39.6675933400727],[-72.9529394239999,-39.6676246570727],[-72.9529359409999,-39.6684703260727],[-72.9542232389999,-39.6684836780727],[-72.9542239949999,-39.6675933400727]]]}},{"type":"Feature","properties":{"id":"14105011001058","commune":"Máfil","code":"14105","gse":"C2","quintil":"Q3","nse_score":721.3,"educ":10.7,"educ_score":513.3,"hacin":0.92,"hacin_class":"Sin Hacinamiento","hacin_score":868.1,"auto_score":111.1,"n_per":46,"n_hog":18,"source_year":2024,"crime_score":0.4064,"crime_nivel":"Medio","crime_color":"#ff9800"},"geometry":{"type":"Polygon","coordinates":[[[-72.9542552639999,-39.6698950830727],[-72.9546277039999,-39.6707530800727],[-72.9550931549999,-39.6701236880727],[-72.9543375919999,-39.6681657590727],[-72.9542552639999,-39.6698950830727]]]}},{"type":"Feature","properties":{"id":"14105011001059","commune":"Máfil","code":"14105","gse":"C3","quintil":"Q3","nse_score":715.8,"educ":11.4,"educ_score":560.0,"hacin":0.951,"hacin_class":"Sin Hacinamiento","hacin_score":861.5,"auto_score":133.3,"n_per":58,"n_hog":27,"source_year":2024,"crime_score":0.4101,"crime_nivel":"Medio","crime_color":"#ff9800"},"geometry":{"type":"Polygon","coordinates":[[[-72.9512976999999,-39.6684403260727],[-72.9524716539999,-39.6695005640727],[-72.9527670669999,-39.6695315040727],[-72.9528031089999,-39.6685363550727],[-72.9524065059999,-39.6685122070727],[-72.9523484849999,-39.6691749690727],[-72.9523415419999,-39.6684947640727],[-72.9519615789999,-39.6684709090727],[-72.9518932729999,-39.6687544590727],[-72.9518950999999,-39.6684671630727],[-72.9512976999999,-39.6684403260727]]]}},{"type":"Feature","properties":{"id":"14105011001060","commune":"Máfil","code":"14105","gse":"C2","quintil":"Q3","nse_score":725.3,"educ":11.9,"educ_score":593.3,"hacin":1.271,"hacin_class":"Hacinamiento Leve","hacin_score":793.4,"auto_score":295.5,"n_per":61,"n_hog":21,"source_year":2024,"crime_score":0.4085,"crime_nivel":"Medio","crime_color":"#ff9800"},"geometry":{"type":"Polygon","coordinates":[[[-72.9542093759999,-39.6685697220727],[-72.95289865,-39.6685706330727],[-72.9529016779999,-39.6689943880727],[-72.9542161889999,-39.6690158440727],[-72.9542093759999,-39.6685697220727]]]}},{"type":"Feature","properties":{"id":"14105011001061","commune":"Máfil","code":"14105","gse":"D","quintil":"Q2","nse_score":650.8,"educ":9.7,"educ_score":446.7,"hacin":1.325,"hacin_class":"Hacinamiento Leve","hacin_score":781.9,"auto_score":93.8,"n_per":53,"n_hog":17,"source_year":2024,"crime_score":0.424,"crime_nivel":"Medio","crime_color":"#ff9800"},"geometry":{"type":"Polygon","coordinates":[[[-72.9528554009999,-39.6695086700727],[-72.9541751179999,-39.6695682300727],[-72.9542219159999,-39.6691347710727],[-72.9529169229999,-39.6690704660727],[-72.9528554009999,-39.6695086700727]]]}},{"type":"Feature","properties":{"id":"14105011001043","commune":"Máfil","code":"14105","gse":"C3","quintil":"Q3","nse_score":697.0,"educ":11.4,"educ_score":560.0,"hacin":1.15,"hacin_class":"Hacinamiento Leve","hacin_score":819.1,"auto_score":181.8,"n_per":23,"n_hog":11,"source_year":2024,"crime_score":0.4073,"crime_nivel":"Medio","crime_color":"#ff9800"},"geometry":{"type":"MultiPolygon","coordinates":[[[[-72.9530892049999,-39.6662697850727],[-72.9542961489999,-39.6662357620727],[-72.9543139319999,-39.6656770710727],[-72.9539315079999,-39.6651907530727],[-72.9531101899999,-39.6651622000727],[-72.9530892049999,-39.6662697850727]]],[[[-72.9521276629999,-39.6650994150727],[-72.9529875129999,-39.6650985550727],[-72.9530244579999,-39.6642188260727],[-72.9524302449999,-39.6641866680727],[-72.9521276629999,-39.6650994150727]]]]}},{"type":"Feature","properties":{"id":"14105011001037","commune":"Máfil","code":"14105","gse":"E","quintil":"Q1","nse_score":522.2,"educ":7.5,"educ_score":300.0,"hacin":2.615,"hacin_class":"Hacinamiento Crítico","hacin_score":507.4,"auto_score":0.0,"n_per":34,"n_hog":6,"source_year":2024,"crime_score":0.4493,"crime_nivel":"Medio","crime_color":"#ff9800"},"geometry":{"type":"MultiPolygon","coordinates":[[[[-72.9447939489999,-39.6666594650727],[-72.9450672899999,-39.6676852560727],[-72.9462065879999,-39.6673104500727],[-72.9473875809999,-39.6675134670727],[-72.9474914569999,-39.6678611280727],[-72.9468408689999,-39.6685534400727],[-72.9472938599999,-39.6683430600727],[-72.9477705079999,-39.6677094600727],[-72.9480826499999,-39.6674032320727],[-72.9486129979999,-39.6663543560727],[-72.9442972149999,-39.6650920640727],[-72.9441513819999,-39.6654900380727],[-72.9447939489999,-39.6666594650727]]],[[[-72.9476642929999,-39.6688669380727],[-72.9486128789999,-39.6684219850727],[-72.9495128709999,-39.6676290320727],[-72.9516262609999,-39.6630339670727],[-72.9516056829999,-39.6628448710727],[-72.9506594799999,-39.6625484440727],[-72.9504962319999,-39.6626129670727],[-72.9482527609999,-39.6672545790727],[-72.9473459639999,-39.6683507220727],[-72.946952387,-39.6685494520727],[-72.9476642929999,-39.6688669380727]]]]}}]}