{"type":"FeatureCollection","features":[{"type":"Feature","properties":{"id":"6204011001001","commune":"Marchihue","code":"06204","gse":"E","quintil":"Q1","nse_score":590.1,"educ":9.1,"educ_score":406.7,"hacin":1.0,"hacin_class":"Hacinamiento Leve","hacin_score":851.1,"auto_score":302.3,"n_per":96,"n_hog":42,"source_year":2024},"geometry":{"type":"Polygon","coordinates":[[[-71.6279667169999,-34.3903683151201],[-71.6269939009999,-34.3902807271201],[-71.6252568159999,-34.3903982051201],[-71.6234216519999,-34.3910352311201],[-71.6206074599999,-34.3923850751201],[-71.619862957,-34.3926115701201],[-71.6187673759999,-34.3927306651201],[-71.6190638149999,-34.3937391796201],[-71.6166343069999,-34.3943900831201],[-71.6172116589999,-34.39532995312],[-71.6240785229999,-34.3934629071201],[-71.6250817359999,-34.3926181691201],[-71.628895284,-34.3906792781201],[-71.6285731429999,-34.3902349891201],[-71.6279667169999,-34.3903683151201]]]}},{"type":"Feature","properties":{"id":"6204011001002","commune":"Marchihue","code":"06204","gse":"C3","quintil":"Q3","nse_score":712.2,"educ":13.9,"educ_score":726.7,"hacin":1.182,"hacin_class":"Hacinamiento Leve","hacin_score":812.4,"auto_score":0.0,"n_per":13,"n_hog":9,"source_year":2024},"geometry":{"type":"Polygon","coordinates":[[[-71.6296468649999,-34.3927875491201],[-71.6295761499999,-34.3928339371201],[-71.6282840279999,-34.3911326861201],[-71.6264929669999,-34.3920495411201],[-71.6283582719999,-34.39463228212],[-71.6309011629999,-34.39341024112],[-71.6289311579999,-34.3907287511201],[-71.6283453649999,-34.3911010231201],[-71.6296468649999,-34.3927875491201]]]}},{"type":"Feature","properties":{"id":"6204011001003","commune":"Marchihue","code":"06204","gse":"E","quintil":"Q1","nse_score":597.5,"educ":9.9,"educ_score":460.0,"hacin":1.151,"hacin_class":"Hacinamiento Leve","hacin_score":818.9,"auto_score":142.9,"n_per":61,"n_hog":26,"source_year":2024},"geometry":{"type":"Polygon","coordinates":[[[-71.6221271949999,-34.39412458112],[-71.6223282229999,-34.39452641012],[-71.6236680069999,-34.3941396271201],[-71.6232944829999,-34.3943067531201],[-71.6235903309999,-34.3948076341201],[-71.6245885929999,-34.3945005211201],[-71.6243921759999,-34.3939557491201],[-71.624717029,-34.3938127881201],[-71.6255512419999,-34.3928796781201],[-71.6264519579999,-34.3926983771201],[-71.6267106499999,-34.3924390341201],[-71.6263896679999,-34.3920785051201],[-71.6251120769999,-34.3926742761201],[-71.6241921789999,-34.3934959071201],[-71.6221271949999,-34.39412458112]]]}},{"type":"Feature","properties":{"id":"6204011001004","commune":"Marchihue","code":"06204","gse":"D","quintil":"Q1","nse_score":628.5,"educ":9.7,"educ_score":446.7,"hacin":1.422,"hacin_class":"Hacinamiento Leve","hacin_score":761.3,"auto_score":51.0,"n_per":283,"n_hog":96,"source_year":2024},"geometry":{"type":"Polygon","coordinates":[[[-71.6255801549999,-34.3929069731201],[-71.6247510349999,-34.3938359631201],[-71.6244319419999,-34.3939746451201],[-71.6246462819999,-34.3945127801201],[-71.6236140499999,-34.3948378981201],[-71.6245344259999,-34.39641430112],[-71.6251169039999,-34.39614522412],[-71.6243337719999,-34.3947601931201],[-71.6245033279999,-34.3949441531201],[-71.6248450749999,-34.3948970241201],[-71.6252493329999,-34.3956101681201],[-71.6249987929999,-34.3958000581201],[-71.6251906649999,-34.39613900612],[-71.6258058039999,-34.39597876412],[-71.6252485339999,-34.3962270691201],[-71.6254559189999,-34.39645813612],[-71.6258138319999,-34.39631034412],[-71.6260120199999,-34.39673714412],[-71.6257297989999,-34.3969206991201],[-71.6258887399999,-34.3971774661201],[-71.6262360039999,-34.39708200812],[-71.6265103009999,-34.39747206512],[-71.6266302499999,-34.39746948812],[-71.6262221959999,-34.39765896912],[-71.6261978409999,-34.39780895112],[-71.6251938289999,-34.39625620412],[-71.6245561529999,-34.39646381712],[-71.6256267969999,-34.39822541112],[-71.6270810209999,-34.39823345812],[-71.6258174889999,-34.3958099831201],[-71.6283253459999,-34.39464810612],[-71.6280611829999,-34.3944360651201],[-71.6274288189999,-34.3934442501201],[-71.6272397049999,-34.3932982101201],[-71.6269159529999,-34.3934033401201],[-71.6271969459999,-34.3932248971201],[-71.6267391419999,-34.3924720981201],[-71.6264694739999,-34.3927314921201],[-71.6255801549999,-34.3929069731201]]]}},{"type":"Feature","properties":{"id":"6204011001005","commune":"Marchihue","code":"06204","gse":"D","quintil":"Q2","nse_score":641.5,"educ":11.1,"educ_score":540.0,"hacin":1.346,"hacin_class":"Hacinamiento Leve","hacin_score":777.4,"auto_score":153.8,"n_per":35,"n_hog":13,"source_year":2024},"geometry":{"type":"Polygon","coordinates":[[[-71.6220574089999,-34.3941355711201],[-71.6210915089999,-34.3943722111201],[-71.6216999679999,-34.3954287761201],[-71.6225631549999,-34.39513574812],[-71.6220574089999,-34.3941355711201]]]}},{"type":"Feature","properties":{"id":"6204011001006","commune":"Marchihue","code":"06204","gse":"C3","quintil":"Q2","nse_score":675.0,"educ":11.3,"educ_score":553.3,"hacin":1.222,"hacin_class":"Hacinamiento Leve","hacin_score":803.8,"auto_score":250.0,"n_per":22,"n_hog":8,"source_year":2024},"geometry":{"type":"Polygon","coordinates":[[[-71.6226469259999,-34.3951089501201],[-71.6235522819999,-34.3948251791201],[-71.6232567569999,-34.39432761712],[-71.622339328,-34.3945751901201],[-71.6226469259999,-34.3951089501201]]]}},{"type":"Feature","properties":{"id":"6204011001007","commune":"Marchihue","code":"06204","gse":"E","quintil":"Q1","nse_score":575.5,"educ":9.8,"educ_score":453.3,"hacin":1.522,"hacin_class":"Hacinamiento Medio","hacin_score":739.9,"auto_score":97.2,"n_per":102,"n_hog":36,"source_year":2024},"geometry":{"type":"Polygon","coordinates":[[[-71.6195912499999,-34.39476257312],[-71.6201622729999,-34.39597896612],[-71.6216180149999,-34.3954556411201],[-71.6212797139999,-34.39483853712],[-71.6201988329999,-34.39507930912],[-71.6212020939999,-34.3948100711201],[-71.6210131239999,-34.3943839341201],[-71.6195912499999,-34.39476257312]]]}},{"type":"Feature","properties":{"id":"6204011001008","commune":"Marchihue","code":"06204","gse":"C3","quintil":"Q2","nse_score":663.5,"educ":12.8,"educ_score":653.3,"hacin":1.591,"hacin_class":"Hacinamiento Medio","hacin_score":725.3,"auto_score":423.1,"n_per":35,"n_hog":13,"source_year":2024},"geometry":{"type":"Polygon","coordinates":[[[-71.6131198369999,-34.3953585851201],[-71.6114951079999,-34.39602262712],[-71.6121586869999,-34.39692939312],[-71.6135421089999,-34.39636389012],[-71.6170350329999,-34.39530684512],[-71.6165830639999,-34.3944042051201],[-71.6131198369999,-34.3953585851201]]]}},{"type":"Feature","properties":{"id":"6204011001009","commune":"Marchihue","code":"06204","gse":"E","quintil":"Q1","nse_score":530.2,"educ":9.8,"educ_score":453.3,"hacin":1.518,"hacin_class":"Hacinamiento Medio","hacin_score":740.7,"auto_score":0.0,"n_per":41,"n_hog":15,"source_year":2024},"geometry":{"type":"Polygon","coordinates":[[[-71.6183768789999,-34.3951295941201],[-71.6190662499999,-34.39638808712],[-71.6200602149999,-34.3960266981201],[-71.6194479349999,-34.3948325291201],[-71.6183768789999,-34.3951295941201]]]}},{"type":"Feature","properties":{"id":"6204011001010","commune":"Marchihue","code":"06204","gse":"D","quintil":"Q1","nse_score":626.8,"educ":10.4,"educ_score":493.3,"hacin":1.404,"hacin_class":"Hacinamiento Leve","hacin_score":765.1,"auto_score":80.0,"n_per":66,"n_hog":26,"source_year":2024},"geometry":{"type":"Polygon","coordinates":[[[-71.62356933,-34.39672520112],[-71.6244814839999,-34.39643438212],[-71.6235686109999,-34.3948635621201],[-71.6226774449999,-34.3951681681201],[-71.62356933,-34.39672520112]]]}},{"type":"Feature","properties":{"id":"6204011001011","commune":"Marchihue","code":"06204","gse":"C3","quintil":"Q3","nse_score":687.7,"educ":11.6,"educ_score":573.3,"hacin":1.4,"hacin_class":"Hacinamiento Leve","hacin_score":766.0,"auto_score":214.3,"n_per":21,"n_hog":7,"source_year":2024},"geometry":{"type":"Polygon","coordinates":[[[-71.6249462239999,-34.39572757912],[-71.6251960769999,-34.39562065312],[-71.6247285739999,-34.39491812712],[-71.6245403989999,-34.3950333351201],[-71.6249462239999,-34.39572757912]]]}},{"type":"Feature","properties":{"id":"6204011001012","commune":"Marchihue","code":"06204","gse":"D","quintil":"Q2","nse_score":641.6,"educ":12.0,"educ_score":600.0,"hacin":1.45,"hacin_class":"Hacinamiento Leve","hacin_score":755.3,"auto_score":333.3,"n_per":29,"n_hog":12,"source_year":2024},"geometry":{"type":"Polygon","coordinates":[[[-71.6189689649999,-34.39643619912],[-71.6182685829999,-34.3951373141201],[-71.6171980559999,-34.3954321791201],[-71.6179094899999,-34.39680376912],[-71.6189689649999,-34.39643619912]]]}},{"type":"Feature","properties":{"id":"6204011001013","commune":"Marchihue","code":"06204","gse":"D","quintil":"Q2","nse_score":638.7,"educ":12.3,"educ_score":620.0,"hacin":1.489,"hacin_class":"Hacinamiento Leve","hacin_score":746.9,"auto_score":125.0,"n_per":70,"n_hog":28,"source_year":2024},"geometry":{"type":"Polygon","coordinates":[[[-71.6217318209999,-34.39549025912],[-71.6226426789999,-34.39706241012],[-71.6235145569999,-34.39676379712],[-71.6226205879999,-34.39519782812],[-71.6217318209999,-34.39549025912]]]}},{"type":"Feature","properties":{"id":"6204011001014","commune":"Marchihue","code":"06204","gse":"E","quintil":"Q1","nse_score":587.0,"educ":11.2,"educ_score":546.7,"hacin":1.377,"hacin_class":"Hacinamiento Leve","hacin_score":770.8,"auto_score":222.2,"n_per":73,"n_hog":26,"source_year":2024},"geometry":{"type":"Polygon","coordinates":[[[-71.6170648719999,-34.39545180712],[-71.6158292779999,-34.3958036561201],[-71.6165754819999,-34.39727314812],[-71.6178278469999,-34.39683612512],[-71.6170648719999,-34.39545180712]]]}},{"type":"Feature","properties":{"id":"6204011001015","commune":"Marchihue","code":"06204","gse":"C2","quintil":"Q4","nse_score":735.0,"educ":12.0,"educ_score":600.0,"hacin":1.318,"hacin_class":"Hacinamiento Leve","hacin_score":783.4,"auto_score":100.0,"n_per":58,"n_hog":20,"source_year":2024},"geometry":{"type":"Polygon","coordinates":[[[-71.6216426559999,-34.39550821712],[-71.6213964549999,-34.39560726912],[-71.62176568,-34.3962492841201],[-71.6220319889999,-34.39618339412],[-71.6216426559999,-34.39550821712]]]}},{"type":"Feature","properties":{"id":"6204011001016","commune":"Marchihue","code":"06204","gse":"C3","quintil":"Q3","nse_score":686.1,"educ":11.2,"educ_score":546.7,"hacin":1.3,"hacin_class":"Hacinamiento Leve","hacin_score":787.2,"auto_score":31.2,"n_per":39,"n_hog":16,"source_year":2024},"geometry":{"type":"Polygon","coordinates":[[[-71.6213682349999,-34.39562882912],[-71.6211075779999,-34.3957242271201],[-71.6214701769999,-34.3963496161201],[-71.6217258049999,-34.3962821231201],[-71.6213682349999,-34.39562882912]]]}},{"type":"Feature","properties":{"id":"6204011001017","commune":"Marchihue","code":"06204","gse":"C2","quintil":"Q4","nse_score":754.8,"educ":13.2,"educ_score":680.0,"hacin":1.122,"hacin_class":"Hacinamiento Leve","hacin_score":825.1,"auto_score":88.2,"n_per":46,"n_hog":17,"source_year":2024},"geometry":{"type":"Polygon","coordinates":[[[-71.6208070069999,-34.3958136901201],[-71.6211739859999,-34.39646373812],[-71.6214315509999,-34.39638487112],[-71.6210683449999,-34.3957400361201],[-71.6208070069999,-34.3958136901201]]]}},{"type":"Feature","properties":{"id":"6204011001018","commune":"Marchihue","code":"06204","gse":"C2","quintil":"Q4","nse_score":748.7,"educ":13.6,"educ_score":706.7,"hacin":1.385,"hacin_class":"Hacinamiento Leve","hacin_score":769.2,"auto_score":294.1,"n_per":36,"n_hog":17,"source_year":2024},"geometry":{"type":"Polygon","coordinates":[[[-71.6148387849999,-34.39662540312],[-71.6159545969999,-34.39627409212],[-71.6157654029999,-34.3958469931201],[-71.6146024759999,-34.3961086941201],[-71.6148387849999,-34.39662540312]]]}},{"type":"Feature","properties":{"id":"6204011001019","commune":"Marchihue","code":"06204","gse":"D","quintil":"Q1","nse_score":606.0,"educ":12.5,"educ_score":633.3,"hacin":1.372,"hacin_class":"Hacinamiento Leve","hacin_score":771.9,"auto_score":26.3,"n_per":59,"n_hog":20,"source_year":2024},"geometry":{"type":"Polygon","coordinates":[[[-71.6201887509999,-34.39608070912],[-71.6210158239999,-34.39764513712],[-71.6219577659999,-34.39733455512],[-71.6215505249999,-34.39643620512],[-71.6211584179999,-34.39652329512],[-71.6207846469999,-34.39584940012],[-71.6201887509999,-34.39608070912]]]}},{"type":"Feature","properties":{"id":"6204011001020","commune":"Marchihue","code":"06204","gse":"D","quintil":"Q1","nse_score":613.5,"educ":11.2,"educ_score":546.7,"hacin":0.951,"hacin_class":"Sin Hacinamiento","hacin_score":861.4,"auto_score":159.1,"n_per":39,"n_hog":21,"source_year":2024},"geometry":{"type":"Polygon","coordinates":[[[-71.6191027749999,-34.3964672211201],[-71.6199572339999,-34.39802749012],[-71.6209262559999,-34.39770064612],[-71.6201225299999,-34.39609955812],[-71.6191027749999,-34.3964672211201]]]}},{"type":"Feature","properties":{"id":"6204011001021","commune":"Marchihue","code":"06204","gse":"D","quintil":"Q2","nse_score":652.2,"educ":11.9,"educ_score":593.3,"hacin":1.268,"hacin_class":"Hacinamiento Leve","hacin_score":794.1,"auto_score":50.0,"n_per":71,"n_hog":30,"source_year":2024},"geometry":{"type":"Polygon","coordinates":[[[-71.6139787519999,-34.39629225112],[-71.6148469959999,-34.39808443512],[-71.6154018159999,-34.39783820712],[-71.6145279019999,-34.39615099412],[-71.6139787519999,-34.39629225112]]]}},{"type":"Feature","properties":{"id":"6204011001022","commune":"Marchihue","code":"06204","gse":"E","quintil":"Q1","nse_score":535.6,"educ":11.2,"educ_score":546.7,"hacin":1.21,"hacin_class":"Hacinamiento Leve","hacin_score":806.3,"auto_score":0.0,"n_per":23,"n_hog":12,"source_year":2024},"geometry":{"type":"Polygon","coordinates":[[[-71.6220661879999,-34.39621713712],[-71.6215899919999,-34.39638406812],[-71.6220593649999,-34.39729196212],[-71.6225803139999,-34.39708919412],[-71.6220661879999,-34.39621713712]]]}},{"type":"Feature","properties":{"id":"6204011001023","commune":"Marchihue","code":"06204","gse":"C2","quintil":"Q3","nse_score":716.5,"educ":12.8,"educ_score":653.3,"hacin":1.35,"hacin_class":"Hacinamiento Leve","hacin_score":776.6,"auto_score":388.9,"n_per":27,"n_hog":9,"source_year":2024},"geometry":{"type":"Polygon","coordinates":[[[-71.6154515199999,-34.39779305512],[-71.6164842389999,-34.3972984101201],[-71.6159833169999,-34.39631741012],[-71.6148671949999,-34.39667821512],[-71.6154515199999,-34.39779305512]]]}},{"type":"Feature","properties":{"id":"6204011001024","commune":"Marchihue","code":"06204","gse":"D","quintil":"Q1","nse_score":630.9,"educ":10.1,"educ_score":473.3,"hacin":1.288,"hacin_class":"Hacinamiento Leve","hacin_score":789.9,"auto_score":81.4,"n_per":94,"n_hog":42,"source_year":2024},"geometry":{"type":"Polygon","coordinates":[[[-71.6138991239999,-34.39729059412],[-71.6133614949999,-34.39749698912],[-71.6135552639999,-34.39789002712],[-71.6140087249999,-34.39778165512],[-71.6135835269999,-34.39793752912],[-71.6138857149999,-34.39851903412],[-71.6147898529999,-34.39813003212],[-71.6145041789999,-34.3975404001201],[-71.6141381119999,-34.39763580512],[-71.6140507239999,-34.39745758512],[-71.6141922129999,-34.39760504512],[-71.6144820569999,-34.39749893512],[-71.613872721,-34.39632782212],[-71.6134804369999,-34.39646409712],[-71.6138991239999,-34.39729059412]]]}},{"type":"Feature","properties":{"id":"6204011001027","commune":"Marchihue","code":"06204","gse":"E","quintil":"Q1","nse_score":581.6,"educ":9.7,"educ_score":446.7,"hacin":1.234,"hacin_class":"Hacinamiento Leve","hacin_score":801.3,"auto_score":212.5,"n_per":95,"n_hog":40,"source_year":2024},"geometry":{"type":"Polygon","coordinates":[[[-71.6239027089999,-34.39729240412],[-71.6235843459999,-34.39679526412],[-71.6221707719999,-34.39730980812],[-71.6226746049999,-34.39823303912],[-71.6229161739999,-34.39832590212],[-71.6229313309999,-34.39858959812],[-71.6225082379999,-34.39802508012],[-71.6220525059999,-34.39810111612],[-71.6217195219999,-34.39748004312],[-71.6210570379999,-34.39772871212],[-71.6211667199999,-34.39794298612],[-71.6214771709999,-34.39784203512],[-71.6215783379999,-34.39802973112],[-71.621415656,-34.39789050212],[-71.6211828369999,-34.39796685112],[-71.6218218419999,-34.39913312112],[-71.6223128429999,-34.39964504012],[-71.6240011329999,-34.39862253612],[-71.6255907939999,-34.39823288912],[-71.6245090529999,-34.3964772401201],[-71.6236390529999,-34.3967749761201],[-71.6239027089999,-34.39729240412]]]}},{"type":"Feature","properties":{"id":"6204011001028","commune":"Marchihue","code":"06204","gse":"D","quintil":"Q1","nse_score":628.2,"educ":11.9,"educ_score":593.3,"hacin":1.129,"hacin_class":"Hacinamiento Leve","hacin_score":823.6,"auto_score":31.2,"n_per":35,"n_hog":16,"source_year":2024},"geometry":{"type":"Polygon","coordinates":[[[-71.6179569429999,-34.39690408412],[-71.6187830259999,-34.39847304112],[-71.619869074,-34.39808079712],[-71.6190321359999,-34.39650268112],[-71.6179569429999,-34.39690408412]]]}},{"type":"Feature","properties":{"id":"6204011001029","commune":"Marchihue","code":"06204","gse":"C3","quintil":"Q3","nse_score":682.9,"educ":11.5,"educ_score":566.7,"hacin":1.111,"hacin_class":"Hacinamiento Leve","hacin_score":827.4,"auto_score":140.0,"n_per":190,"n_hog":74,"source_year":2024},"geometry":{"type":"Polygon","coordinates":[[[-71.6133202109999,-34.39848260012],[-71.6155982599999,-34.40164641212],[-71.6143046189999,-34.40278770812],[-71.6154947299999,-34.40429467512],[-71.6169120609999,-34.4032666931199],[-71.6172099659999,-34.40282629012],[-71.6165706979999,-34.40207176212],[-71.6157191699999,-34.40252791212],[-71.6159833549999,-34.40231689112],[-71.615515979,-34.40174466112],[-71.6160462479999,-34.40228590512],[-71.6165165789999,-34.40196884512],[-71.6160155689999,-34.40133318512],[-71.6165950259999,-34.40195134712],[-71.6173190389999,-34.40153319712],[-71.6154496759999,-34.39791635512],[-71.6147623049999,-34.39819621012],[-71.6155256309999,-34.39968543612],[-71.6149330109999,-34.40003079812],[-71.6138671859999,-34.39864988212],[-71.6135484179999,-34.39874741512],[-71.6138387149999,-34.39857557212],[-71.6128407709999,-34.39668661912],[-71.6125165249999,-34.39681644312],[-71.6133202109999,-34.39848260012]]]}},{"type":"Feature","properties":{"id":"6204011001030","commune":"Marchihue","code":"06204","gse":"E","quintil":"Q1","nse_score":506.1,"educ":8.4,"educ_score":360.0,"hacin":1.417,"hacin_class":"Hacinamiento Leve","hacin_score":762.4,"auto_score":0.0,"n_per":51,"n_hog":18,"source_year":2024},"geometry":{"type":"Polygon","coordinates":[[[-71.6166335309999,-34.39733123912],[-71.6174743919999,-34.39896837212],[-71.6186915759999,-34.39849116712],[-71.617858054,-34.3969214781201],[-71.6166335309999,-34.39733123912]]]}},{"type":"Feature","properties":{"id":"6204011001032","commune":"Marchihue","code":"06204","gse":"D","quintil":"Q2","nse_score":650.1,"educ":10.7,"educ_score":513.3,"hacin":1.389,"hacin_class":"Hacinamiento Leve","hacin_score":768.3,"auto_score":0.0,"n_per":25,"n_hog":13,"source_year":2024},"geometry":{"type":"Polygon","coordinates":[[[-71.621767814,-34.39747307312],[-71.6220904429999,-34.3980872211201],[-71.6224640479999,-34.39795950612],[-71.6221071269999,-34.39733234612],[-71.621767814,-34.39747307312]]]}},{"type":"Feature","properties":{"id":"6204011001033","commune":"Marchihue","code":"06204","gse":"E","quintil":"Q1","nse_score":505.6,"educ":6.9,"educ_score":260.0,"hacin":1.32,"hacin_class":"Hacinamiento Leve","hacin_score":783.0,"auto_score":0.0,"n_per":33,"n_hog":15,"source_year":2024},"geometry":{"type":"Polygon","coordinates":[[[-71.6162896529999,-34.39939400412],[-71.6173738349999,-34.39898732712],[-71.6165342959999,-34.39739481512],[-71.6155014449999,-34.39788522512],[-71.6162896529999,-34.39939400412]]]}},{"type":"Feature","properties":{"id":"6204011001034","commune":"Marchihue","code":"06204","gse":"E","quintil":"Q1","nse_score":577.6,"educ":10.6,"educ_score":506.7,"hacin":1.353,"hacin_class":"Hacinamiento Leve","hacin_score":776.0,"auto_score":184.2,"n_per":46,"n_hog":19,"source_year":2024},"geometry":{"type":"Polygon","coordinates":[[[-71.6200108309999,-34.39811711612],[-71.6208998779999,-34.39969503012],[-71.6217090089999,-34.39920818112],[-71.6209716289999,-34.3977523821201],[-71.6200108309999,-34.39811711612]]]}},{"type":"Feature","properties":{"id":"6204011001035","commune":"Marchihue","code":"06204","gse":"C3","quintil":"Q2","nse_score":667.4,"educ":13.2,"educ_score":680.0,"hacin":1.312,"hacin_class":"Hacinamiento Leve","hacin_score":784.6,"auto_score":250.0,"n_per":21,"n_hog":12,"source_year":2024},"geometry":{"type":"Polygon","coordinates":[[[-71.6208175289999,-34.39972070712],[-71.6201257709999,-34.39848758712],[-71.6195947049999,-34.39871244312],[-71.6201069459999,-34.39845403012],[-71.6199268239999,-34.39814893112],[-71.6188190049999,-34.3985493151201],[-71.6198151039999,-34.40049753712],[-71.6207181329999,-34.39990710312],[-71.6208175289999,-34.39972070712]]]}},{"type":"Feature","properties":{"id":"6204011001036","commune":"Marchihue","code":"06204","gse":"E","quintil":"Q1","nse_score":575.5,"educ":7.0,"educ_score":266.7,"hacin":1.571,"hacin_class":"Hacinamiento Medio","hacin_score":729.5,"auto_score":0.0,"n_per":11,"n_hog":4,"source_year":2024},"geometry":{"type":"Polygon","coordinates":[[[-71.6139204119999,-34.39863083812],[-71.6140849509999,-34.39889103212],[-71.6148689499999,-34.39851655712],[-71.6147152379999,-34.39821955812],[-71.6139204119999,-34.39863083812]]]}},{"type":"Feature","properties":{"id":"6204011001037","commune":"Marchihue","code":"06204","gse":"E","quintil":"Q1","nse_score":589.8,"educ":11.0,"educ_score":533.3,"hacin":1.529,"hacin_class":"Hacinamiento Medio","hacin_score":738.4,"auto_score":0.0,"n_per":104,"n_hog":39,"source_year":2024},"geometry":{"type":"Polygon","coordinates":[[[-71.6235528739999,-34.39891211312],[-71.6223688589999,-34.39970651312],[-71.6234648529999,-34.40122049112],[-71.6279788359999,-34.39951233912],[-71.6291198459999,-34.39944774012],[-71.6301613599999,-34.39965631312],[-71.6287545099999,-34.39876738912],[-71.6273165899999,-34.39833870512],[-71.6274164909999,-34.39880557712],[-71.6271506089999,-34.3983045621201],[-71.6251086609999,-34.39838141712],[-71.6235528739999,-34.39891211312]]]}},{"type":"Feature","properties":{"id":"6204011001038","commune":"Marchihue","code":"06204","gse":"C3","quintil":"Q2","nse_score":666.1,"educ":10.4,"educ_score":493.3,"hacin":1.462,"hacin_class":"Hacinamiento Leve","hacin_score":752.9,"auto_score":285.7,"n_per":19,"n_hog":7,"source_year":2024},"geometry":{"type":"Polygon","coordinates":[[[-71.6141122319999,-34.39893000612],[-71.6142925669999,-34.39916402412],[-71.6150244009999,-34.39881690712],[-71.6148905309999,-34.39855825412],[-71.6141122319999,-34.39893000612]]]}},{"type":"Feature","properties":{"id":"6204011001039","commune":"Marchihue","code":"06204","gse":"C2","quintil":"Q4","nse_score":735.4,"educ":14.0,"educ_score":733.3,"hacin":1.556,"hacin_class":"Hacinamiento Medio","hacin_score":732.9,"auto_score":333.3,"n_per":28,"n_hog":9,"source_year":2024},"geometry":{"type":"Polygon","coordinates":[[[-71.6187289119999,-34.39858831112],[-71.6175112009999,-34.39901003412],[-71.6178397749999,-34.39974141212],[-71.6191062579999,-34.39933021012],[-71.6187289119999,-34.39858831112]]]}},{"type":"Feature","properties":{"id":"6204011001040","commune":"Marchihue","code":"06204","gse":"C3","quintil":"Q2","nse_score":672.5,"educ":12.3,"educ_score":620.0,"hacin":1.875,"hacin_class":"Hacinamiento Medio","hacin_score":664.9,"auto_score":625.0,"n_per":15,"n_hog":4,"source_year":2024},"geometry":{"type":"Polygon","coordinates":[[[-71.6143218669999,-34.39920204212],[-71.6145150969999,-34.39945279212],[-71.6151892519999,-34.39913541812],[-71.6150459749999,-34.39885859012],[-71.6143218669999,-34.39920204212]]]}},{"type":"Feature","properties":{"id":"6204011001041","commune":"Marchihue","code":"06204","gse":"E","quintil":"Q1","nse_score":497.3,"educ":9.1,"educ_score":406.7,"hacin":1.324,"hacin_class":"Hacinamiento Leve","hacin_score":782.1,"auto_score":0.0,"n_per":49,"n_hog":23,"source_year":2024},"geometry":{"type":"Polygon","coordinates":[[[-71.618596985,-34.40149488712],[-71.6174185149999,-34.39909346812],[-71.6168790669999,-34.39925236412],[-71.6172410499999,-34.40011336112],[-71.6168295829999,-34.39926877212],[-71.6163390299999,-34.39943809012],[-71.6176925079999,-34.40212207012],[-71.618596985,-34.40149488712]]]}},{"type":"Feature","properties":{"id":"6204011001042","commune":"Marchihue","code":"06204","gse":"ABC1","quintil":"Q5","nse_score":848.3,"educ":15.9,"educ_score":860.0,"hacin":1.8,"hacin_class":"Hacinamiento Medio","hacin_score":680.9,"auto_score":500.0,"n_per":9,"n_hog":4,"source_year":2024},"geometry":{"type":"Polygon","coordinates":[[[-71.6145444019999,-34.39949081612],[-71.6147298579999,-34.39973147412],[-71.6153490019999,-34.39944407212],[-71.6152108189999,-34.39917708512],[-71.6145444019999,-34.39949081612]]]}},{"type":"Feature","properties":{"id":"6204011001045","commune":"Marchihue","code":"06204","gse":"C2","quintil":"Q3","nse_score":717.3,"educ":14.7,"educ_score":780.0,"hacin":1.0,"hacin_class":"Hacinamiento Leve","hacin_score":851.1,"auto_score":250.0,"n_per":8,"n_hog":4,"source_year":2024},"geometry":{"type":"Polygon","coordinates":[[[-71.6191651649999,-34.39941817812],[-71.6184696219999,-34.39962705512],[-71.6187336079999,-34.40015948012],[-71.6194196029999,-34.39990426312],[-71.6191651649999,-34.39941817812]]]}},{"type":"Feature","properties":{"id":"6204011001049","commune":"Marchihue","code":"06204","gse":"D","quintil":"Q1","nse_score":613.0,"educ":10.8,"educ_score":520.0,"hacin":1.161,"hacin_class":"Hacinamiento Leve","hacin_score":816.7,"auto_score":0.0,"n_per":36,"n_hog":15,"source_year":2024},"geometry":{"type":"Polygon","coordinates":[[[-71.6182220399999,-34.40049330912],[-71.6187115429999,-34.40138190712],[-71.6197649099999,-34.40058989212],[-71.6194433829999,-34.39998510212],[-71.6182220399999,-34.40049330912]]]}},{"type":"Feature","properties":{"id":"6204011001053","commune":"Marchihue","code":"06204","gse":"D","quintil":"Q1","nse_score":631.2,"educ":9.5,"educ_score":433.3,"hacin":1.273,"hacin_class":"Hacinamiento Leve","hacin_score":793.0,"auto_score":100.0,"n_per":14,"n_hog":5,"source_year":2024},"geometry":{"type":"Polygon","coordinates":[[[-71.6176539339999,-34.40223051112],[-71.617359673,-34.40160273012],[-71.6166519589999,-34.40200774012],[-71.6172471909999,-34.40274709312],[-71.6176539339999,-34.40223051112]]]}},{"type":"Feature","properties":{"id":"6204011001044","commune":"Marchihue","code":"06204","gse":"D","quintil":"Q2","nse_score":648.0,"educ":10.9,"educ_score":526.7,"hacin":1.281,"hacin_class":"Hacinamiento Leve","hacin_score":791.2,"auto_score":125.0,"n_per":41,"n_hog":18,"source_year":2024},"geometry":{"type":"MultiPolygon","coordinates":[[[[-71.6202660669999,-34.40306073612],[-71.6213277059999,-34.4038199381199],[-71.6218929619999,-34.4035889481199],[-71.6210240809999,-34.40232268712],[-71.6201350009999,-34.4026695941199],[-71.6202660669999,-34.40306073612]]],[[[-71.6235870199999,-34.40148370612],[-71.6234529449999,-34.40136340312],[-71.6212409149999,-34.40227979712],[-71.6221272339999,-34.40340673212],[-71.6245251489999,-34.40251330412],[-71.6237819599999,-34.40123247112],[-71.6235211759999,-34.40133813312],[-71.6235870199999,-34.40148370612]]],[[[-71.6218592869999,-34.39930675012],[-71.617871137,-34.40224085712],[-71.6171036459999,-34.40330577312],[-71.61671401,-34.4035764371199],[-71.616846441,-34.40379552112],[-71.6170452829999,-34.4038316871199],[-71.6176425269999,-34.40360622412],[-71.6233868399999,-34.40125594512],[-71.6225286799999,-34.40000614512],[-71.6216406369999,-34.40069112112],[-71.6220698749999,-34.40144246612],[-71.6215692179999,-34.40076207812],[-71.6211022089999,-34.40109066512],[-71.6213917289999,-34.40166661112],[-71.6210312519999,-34.40108736112],[-71.6224989759999,-34.39997091412],[-71.6218592869999,-34.39930675012]]]]}},{"type":"Feature","properties":{"id":"6204023099001","commune":"Marchihue","code":"06204","gse":"E","quintil":"Q1","nse_score":447.4,"educ":6.6,"educ_score":240.0,"hacin":1.583,"hacin_class":"Hacinamiento Medio","hacin_score":727.0,"auto_score":0.0,"n_per":19,"n_hog":6,"source_year":2024},"geometry":{"type":"Polygon","coordinates":[[[-71.7372915899999,-34.3437233011207],[-71.7368923519999,-34.3445674801207],[-71.7362865919999,-34.3470695411206],[-71.7368087809999,-34.3475422261206],[-71.7374441659999,-34.3475975591206],[-71.7381092929999,-34.3448692061207],[-71.7389631789999,-34.3433154011207],[-71.7372915899999,-34.3437233011207]]]}},{"type":"Feature","properties":{"id":"6204023099004","commune":"Marchihue","code":"06204","gse":"E","quintil":"Q1","nse_score":599.1,"educ":9.0,"educ_score":400.0,"hacin":1.306,"hacin_class":"Hacinamiento Leve","hacin_score":785.9,"auto_score":216.7,"n_per":81,"n_hog":30,"source_year":2024},"geometry":{"type":"Polygon","coordinates":[[[-71.7354479209999,-34.3486457251206],[-71.7343667869999,-34.3517789691206],[-71.734712397,-34.3519054071206],[-71.7344173069999,-34.3524486571206],[-71.7333560189999,-34.3519804421206],[-71.7334874029999,-34.3517091791206],[-71.7316234759999,-34.3517953901206],[-71.7313587109999,-34.3525627151205],[-71.7310758119999,-34.3529618121206],[-71.7325074849999,-34.3528177071205],[-71.7329334109999,-34.3518948121206],[-71.7325343819999,-34.3528181301206],[-71.7333604409999,-34.3529795801206],[-71.7335025609999,-34.3528100261205],[-71.7336594139999,-34.3524153591206],[-71.733759442,-34.3523075821205],[-71.73352417,-34.3528333941206],[-71.7333914249999,-34.3529957641206],[-71.7341520769999,-34.3534274311206],[-71.7351973519999,-34.3537973211206],[-71.7361457919999,-34.3520639811206],[-71.7352681109999,-34.3517293441206],[-71.7361554909999,-34.3520397551206],[-71.7362879729999,-34.3517088191206],[-71.735287147,-34.3513010411206],[-71.7362988199999,-34.3516817231206],[-71.736996814,-34.3497367531206],[-71.7355350229999,-34.3493540711206],[-71.7370058729999,-34.3497071301206],[-71.7372759979999,-34.3484410571206],[-71.7354479209999,-34.3486457251206]]]}},{"type":"Feature","properties":{"id":"6204023099005","commune":"Marchihue","code":"06204","gse":"E","quintil":"Q1","nse_score":584.6,"educ":9.3,"educ_score":420.0,"hacin":1.294,"hacin_class":"Hacinamiento Leve","hacin_score":788.5,"auto_score":100.0,"n_per":22,"n_hog":8,"source_year":2024},"geometry":{"type":"Polygon","coordinates":[[[-71.7364432969999,-34.3515036991205],[-71.7352255619999,-34.3539401071205],[-71.7351182049999,-34.3545302031206],[-71.7358115359999,-34.3543076701206],[-71.7358735189999,-34.3538435691205],[-71.7368185019999,-34.3534360401206],[-71.7369526789999,-34.3529989451206],[-71.7371366609999,-34.3530237011206],[-71.7372604399999,-34.3528114741206],[-71.7377265169999,-34.3515897951206],[-71.7364432969999,-34.3515036991205]]]}},{"type":"Feature","properties":{"id":"6204023099006","commune":"Marchihue","code":"06204","gse":"E","quintil":"Q1","nse_score":569.5,"educ":9.3,"educ_score":420.0,"hacin":1.353,"hacin_class":"Hacinamiento Leve","hacin_score":776.0,"auto_score":265.6,"n_per":69,"n_hog":28,"source_year":2024},"geometry":{"type":"Polygon","coordinates":[[[-71.7323875099999,-34.3534876871205],[-71.7316430949999,-34.3535009731206],[-71.7315037769999,-34.3539577351205],[-71.7316295989999,-34.3534750381205],[-71.7323826089999,-34.3534253061206],[-71.7323484959999,-34.3528789771205],[-71.7305602139999,-34.3530470021205],[-71.7304825349999,-34.3534778391205],[-71.7312763549999,-34.3534770391205],[-71.7304572339999,-34.3535084811206],[-71.7301638469999,-34.3549665501205],[-71.7350337789999,-34.3544332391206],[-71.7351830279999,-34.3538507121205],[-71.7329225389999,-34.3528752881206],[-71.7323866999999,-34.3528770721206],[-71.7323875099999,-34.3534876871205]]]}},{"type":"Feature","properties":{"id":"6204023099007","commune":"Marchihue","code":"06204","gse":"E","quintil":"Q1","nse_score":514.9,"educ":8.7,"educ_score":380.0,"hacin":1.273,"hacin_class":"Hacinamiento Leve","hacin_score":793.0,"auto_score":0.0,"n_per":14,"n_hog":4,"source_year":2024},"geometry":{"type":"Polygon","coordinates":[[[-71.7365643949999,-34.3551023021205],[-71.7363795309999,-34.3544162751205],[-71.7371179899999,-34.3530557121206],[-71.7369698569999,-34.3530319531205],[-71.7368357109999,-34.3534700011206],[-71.7366320319999,-34.3534678801205],[-71.7362729309999,-34.3537802551206],[-71.7358894239999,-34.3538727891205],[-71.7358413899999,-34.3543413481205],[-71.7351208999999,-34.3546307951205],[-71.7353083369999,-34.3551807281205],[-71.7365643949999,-34.3551023021205]]]}},{"type":"Feature","properties":{"id":"6204023099008","commune":"Marchihue","code":"06204","gse":"D","quintil":"Q2","nse_score":651.4,"educ":10.9,"educ_score":526.7,"hacin":1.132,"hacin_class":"Hacinamiento Leve","hacin_score":823.1,"auto_score":218.8,"n_per":43,"n_hog":15,"source_year":2024},"geometry":{"type":"Polygon","coordinates":[[[-71.7344512469999,-34.3545998571205],[-71.7339234699999,-34.3545252691206],[-71.7336874399999,-34.3546533951205],[-71.7329060569999,-34.3547210151205],[-71.7337748709999,-34.3573603211205],[-71.7323127929999,-34.3575611001205],[-71.7324444519999,-34.3579786441205],[-71.7360124969999,-34.3574225041205],[-71.7358133699999,-34.3569504101205],[-71.7346653319999,-34.3570669541205],[-71.7358174049999,-34.3568887831205],[-71.7351177379999,-34.3550061061206],[-71.7350326149999,-34.3544842351205],[-71.734708253,-34.3544650261205],[-71.7344512469999,-34.3545998571205]]]}},{"type":"Feature","properties":{"id":"6204023099009","commune":"Marchihue","code":"06204","gse":"E","quintil":"Q1","nse_score":600.5,"educ":8.9,"educ_score":393.3,"hacin":1.19,"hacin_class":"Hacinamiento Leve","hacin_score":810.5,"auto_score":45.5,"n_per":25,"n_hog":11,"source_year":2024},"geometry":{"type":"Polygon","coordinates":[[[-71.7353266639999,-34.3552241941206],[-71.7362903839999,-34.3578417831205],[-71.7374163179999,-34.3574203611205],[-71.7365749299999,-34.3551346421205],[-71.7353266639999,-34.3552241941206]]]}},{"type":"Feature","properties":{"id":"6204023099010","commune":"Marchihue","code":"06204","gse":"D","quintil":"Q1","nse_score":615.0,"educ":9.4,"educ_score":426.7,"hacin":1.464,"hacin_class":"Hacinamiento Leve","hacin_score":752.3,"auto_score":58.1,"n_per":123,"n_hog":44,"source_year":2024},"geometry":{"type":"Polygon","coordinates":[[[-71.7385812349999,-34.3588614381205],[-71.7390111239999,-34.3587707181205],[-71.7386786729999,-34.3589832831205],[-71.7387830179999,-34.3592731241205],[-71.7392854129999,-34.3589786311205],[-71.7388995399999,-34.3575376191205],[-71.7383890409999,-34.3576397871205],[-71.7373059029999,-34.3574529461205],[-71.7363028839999,-34.3579166351205],[-71.7364998859999,-34.3588006871205],[-71.7370045029999,-34.3586641781205],[-71.7365196909999,-34.3588348291205],[-71.7367089649999,-34.3597906071205],[-71.7381043209999,-34.3596723241205],[-71.7378823959999,-34.3589951451205],[-71.7382169899999,-34.3596435651205],[-71.7387074399999,-34.3592927051204],[-71.7385812349999,-34.3588614381205]]]}},{"type":"Feature","properties":{"id":"6204023099011","commune":"Marchihue","code":"06204","gse":"E","quintil":"Q1","nse_score":543.1,"educ":7.3,"educ_score":286.7,"hacin":1.526,"hacin_class":"Hacinamiento Medio","hacin_score":739.1,"auto_score":33.3,"n_per":87,"n_hog":30,"source_year":2024},"geometry":{"type":"Polygon","coordinates":[[[-71.7360301109999,-34.3574876961205],[-71.7325111589999,-34.3580077071205],[-71.7328446509999,-34.3595143421205],[-71.7336568349999,-34.3593333401205],[-71.732823574,-34.3595942631205],[-71.7330410159999,-34.3601962481205],[-71.7324934919999,-34.3603187391205],[-71.7329345659999,-34.3601606141205],[-71.7324141539999,-34.3580297821205],[-71.7308178029999,-34.3583599941205],[-71.7316829419999,-34.3614002531205],[-71.7342101059999,-34.3604895271204],[-71.7353356069999,-34.3597005261205],[-71.7365615089999,-34.3593904691205],[-71.7360301109999,-34.3574876961205]]]}},{"type":"Feature","properties":{"id":"6204023099012","commune":"Marchihue","code":"06204","gse":"E","quintil":"Q1","nse_score":580.5,"educ":9.6,"educ_score":440.0,"hacin":1.365,"hacin_class":"Hacinamiento Leve","hacin_score":773.4,"auto_score":87.5,"n_per":101,"n_hog":37,"source_year":2024},"geometry":{"type":"Polygon","coordinates":[[[-71.7387602829999,-34.3597232291205],[-71.7386217209999,-34.3594425021204],[-71.7382162099999,-34.3597079811205],[-71.736708469,-34.3599245281205],[-71.7368086889999,-34.3613530181204],[-71.7373005239999,-34.3623700011204],[-71.7378032999999,-34.3630158501204],[-71.7384176209999,-34.3628470651204],[-71.7388143589999,-34.3628858851205],[-71.7378276119999,-34.3630558531204],[-71.7380333979999,-34.3635902851204],[-71.7395014109999,-34.3631841421205],[-71.7380871489999,-34.3636510951205],[-71.7383760849999,-34.3644424501204],[-71.7391818929999,-34.3642801071204],[-71.7395611659999,-34.3640032861204],[-71.7398401109999,-34.3639576831204],[-71.7393699539999,-34.3642699321204],[-71.7384454859999,-34.3645863881204],[-71.7390761579999,-34.3663324871204],[-71.7405106909999,-34.3661775191204],[-71.7391019469999,-34.3663736491204],[-71.7390571889999,-34.3669423101204],[-71.740291898,-34.3667453101204],[-71.7408234709999,-34.3664638801204],[-71.743779775,-34.3660489741204],[-71.7435168139999,-34.3648457131204],[-71.7410093199999,-34.3653591341204],[-71.7398303679999,-34.3625101781204],[-71.7389290389999,-34.3611173421205],[-71.7388471069999,-34.3600646941205],[-71.7393724439999,-34.3597137011205],[-71.7392928869999,-34.3590202171205],[-71.7386762889999,-34.3593959631205],[-71.7387602829999,-34.3597232291205]]]}},{"type":"Feature","properties":{"id":"6204023099013","commune":"Marchihue","code":"06204","gse":"D","quintil":"Q2","nse_score":638.4,"educ":9.7,"educ_score":446.7,"hacin":1.714,"hacin_class":"Hacinamiento Medio","hacin_score":699.1,"auto_score":375.0,"n_per":12,"n_hog":5,"source_year":2024},"geometry":{"type":"Polygon","coordinates":[[[-71.7365542849999,-34.3594492371205],[-71.7353574909999,-34.3597271791205],[-71.7347407219999,-34.3602333581205],[-71.7347989689999,-34.3603441571205],[-71.736612782,-34.3601189821205],[-71.7365542849999,-34.3594492371205]]]}},{"type":"Feature","properties":{"id":"6204023099014","commune":"Marchihue","code":"06204","gse":"E","quintil":"Q1","nse_score":604.2,"educ":9.1,"educ_score":406.7,"hacin":1.477,"hacin_class":"Hacinamiento Leve","hacin_score":749.6,"auto_score":66.7,"n_per":96,"n_hog":30,"source_year":2024},"geometry":{"type":"Polygon","coordinates":[[[-71.7320651249999,-34.3620927781204],[-71.7346182299999,-34.3611533211205],[-71.7353977519999,-34.3606986551205],[-71.7354780969999,-34.3615007611205],[-71.7357447119999,-34.3622880231205],[-71.7369931569999,-34.3621138271204],[-71.7368823099999,-34.3618539431204],[-71.7360952559999,-34.3618849081204],[-71.7359830009999,-34.3618292221204],[-71.7368661859999,-34.3618180501205],[-71.7367161579999,-34.3613442621204],[-71.7356351599999,-34.3614064701205],[-71.7356227159999,-34.3616183601205],[-71.7355721279999,-34.3614425141204],[-71.7356222469999,-34.3613712541205],[-71.7367204319999,-34.3612984921205],[-71.7366807089999,-34.3608016171204],[-71.7355552559999,-34.3608207791205],[-71.7366531179999,-34.3607664821205],[-71.7366376249999,-34.3602074011205],[-71.7356526949999,-34.3601936561205],[-71.734926405,-34.3604123941204],[-71.7347104499999,-34.3602454931204],[-71.7341238479999,-34.3605677191205],[-71.7319482369999,-34.3613536741205],[-71.7320787959999,-34.3615034831204],[-71.7320651249999,-34.3620927781204]]]}},{"type":"Feature","properties":{"id":"6204023099015","commune":"Marchihue","code":"06204","gse":"E","quintil":"Q1","nse_score":590.8,"educ":11.1,"educ_score":540.0,"hacin":1.55,"hacin_class":"Hacinamiento Medio","hacin_score":734.0,"auto_score":318.2,"n_per":31,"n_hog":12,"source_year":2024},"geometry":{"type":"Polygon","coordinates":[[[-71.737053494,-34.3621649501205],[-71.7357447119999,-34.3622880231205],[-71.7366248529999,-34.3636363311204],[-71.7368851369999,-34.3642708971204],[-71.7373858579999,-34.3644079741204],[-71.7382508809999,-34.3643486821204],[-71.7376555469999,-34.3629954941205],[-71.7367297519999,-34.3632210611204],[-71.7376367259999,-34.3629627471204],[-71.7374729109999,-34.3627093291204],[-71.7371557339999,-34.3628103501205],[-71.7369134739999,-34.3627915881204],[-71.7368928039999,-34.3626816631204],[-71.7370007079999,-34.3627911941205],[-71.7374470739999,-34.3626784251205],[-71.7372280949999,-34.3624138711204],[-71.7363979009999,-34.3626125131204],[-71.7372031299999,-34.3623800931205],[-71.737053494,-34.3621649501205]]]}},{"type":"Feature","properties":{"id":"6204023099018","commune":"Marchihue","code":"06204","gse":"E","quintil":"Q1","nse_score":391.8,"educ":6.3,"educ_score":220.0,"hacin":1.546,"hacin_class":"Hacinamiento Medio","hacin_score":735.0,"auto_score":0.0,"n_per":17,"n_hog":9,"source_year":2024},"geometry":{"type":"Polygon","coordinates":[[[-71.7390013139999,-34.3678320191204],[-71.7396352599999,-34.3676609001204],[-71.739387512,-34.3677673201204],[-71.7400265759999,-34.3680268691204],[-71.7400772709999,-34.3674230051204],[-71.7446982419999,-34.3671018371204],[-71.7452599109999,-34.3662418261204],[-71.7459260089999,-34.3658437531204],[-71.7408403269999,-34.3664957011204],[-71.7403846959999,-34.3667662801204],[-71.7390785499999,-34.3669799941204],[-71.7390013139999,-34.3678320191204]]]}},{"type":"Feature","properties":{"id":"6204023099019","commune":"Marchihue","code":"06204","gse":"E","quintil":"Q1","nse_score":492.6,"educ":8.7,"educ_score":380.0,"hacin":1.454,"hacin_class":"Hacinamiento Leve","hacin_score":754.4,"auto_score":0.0,"n_per":16,"n_hog":7,"source_year":2024},"geometry":{"type":"Polygon","coordinates":[[[-71.7376986049999,-34.3671228591204],[-71.7373736639999,-34.3696995631204],[-71.7386380299999,-34.3697370681204],[-71.7387791329999,-34.3688939271204],[-71.7384656699999,-34.3689473831203],[-71.7378141999999,-34.3688946821204],[-71.7387848499999,-34.3688565251204],[-71.7389704239999,-34.3671899481204],[-71.7376986049999,-34.3671228591204]]]}},{"type":"Feature","properties":{"id":"6204023099022","commune":"Marchihue","code":"06204","gse":"E","quintil":"Q1","nse_score":515.1,"educ":8.0,"educ_score":333.3,"hacin":1.368,"hacin_class":"Hacinamiento Leve","hacin_score":772.7,"auto_score":187.5,"n_per":26,"n_hog":8,"source_year":2024},"geometry":{"type":"Polygon","coordinates":[[[-71.7396679189999,-34.3704860401204],[-71.7399053589999,-34.3689279921204],[-71.7388745869999,-34.3688866961204],[-71.7386003959999,-34.3705803091203],[-71.7396679189999,-34.3704860401204]]]}},{"type":"Feature","properties":{"id":"6204023099024","commune":"Marchihue","code":"06204","gse":"E","quintil":"Q1","nse_score":568.4,"educ":9.4,"educ_score":426.7,"hacin":1.454,"hacin_class":"Hacinamiento Leve","hacin_score":754.4,"auto_score":0.0,"n_per":16,"n_hog":7,"source_year":2024},"geometry":{"type":"Polygon","coordinates":[[[-71.7333076749999,-34.3710783011203],[-71.7341809879999,-34.3710307351203],[-71.7349194369999,-34.3712095651204],[-71.735028569,-34.3716729391203],[-71.7383664429999,-34.3716733801203],[-71.7385243209999,-34.3706652321204],[-71.7349348459999,-34.3704893901203],[-71.7333076749999,-34.3710783011203]]]}},{"type":"Feature","properties":{"id":"6204023099026","commune":"Marchihue","code":"06204","gse":"E","quintil":"Q1","nse_score":533.2,"educ":9.0,"educ_score":400.0,"hacin":1.391,"hacin_class":"Hacinamiento Leve","hacin_score":767.8,"auto_score":178.6,"n_per":32,"n_hog":12,"source_year":2024},"geometry":{"type":"Polygon","coordinates":[[[-71.740329819,-34.3722100101203],[-71.7385069559999,-34.3724879251203],[-71.738562037,-34.3728470321203],[-71.7411583729999,-34.3721749461203],[-71.7411329989999,-34.3718925251204],[-71.7395216989999,-34.3720724951203],[-71.7395547919999,-34.3712591311203],[-71.7385051679999,-34.3714983271203],[-71.7384868549999,-34.3721725671203],[-71.7391549669999,-34.3721756501203],[-71.7384880299999,-34.3722086181203],[-71.7385047399999,-34.3724517121203],[-71.740329819,-34.3722100101203]]]}},{"type":"Feature","properties":{"id":"6204023099027","commune":"Marchihue","code":"06204","gse":"E","quintil":"Q1","nse_score":521.4,"educ":8.9,"educ_score":393.3,"hacin":1.32,"hacin_class":"Hacinamiento Leve","hacin_score":783.0,"auto_score":62.5,"n_per":66,"n_hog":20,"source_year":2024},"geometry":{"type":"Polygon","coordinates":[[[-71.7349214249999,-34.3737054721203],[-71.7345428379999,-34.3754655711203],[-71.7378040299999,-34.3760006321203],[-71.7379447539999,-34.3756044361203],[-71.7373289009999,-34.3754197801203],[-71.7379777599999,-34.3754873031203],[-71.7383517409999,-34.3744516151203],[-71.7379746629999,-34.3743624621203],[-71.7379292679999,-34.3742128231203],[-71.7383616779999,-34.3744181921203],[-71.7384784689999,-34.3737559681203],[-71.7373374939999,-34.3736211961203],[-71.7373372699999,-34.3738872491203],[-71.7372764819999,-34.3736487581203],[-71.7369730849999,-34.3738693461203],[-71.7372655879999,-34.3736134651203],[-71.7358577459999,-34.3734745881203],[-71.7384745979999,-34.3736959251203],[-71.7384922569999,-34.3734069341203],[-71.7378604629999,-34.3733558191203],[-71.7377058689999,-34.3732483651203],[-71.7373444959999,-34.3732489591203],[-71.7377110259999,-34.3732139851203],[-71.7384912889999,-34.3733721521203],[-71.7384124689999,-34.3722501751203],[-71.737352627,-34.3723722501203],[-71.736159256,-34.3723884531203],[-71.7384109229999,-34.3722139731203],[-71.7384077399999,-34.3717225431203],[-71.7349604839999,-34.3716657781204],[-71.7349214249999,-34.3737054721203]]]}},{"type":"Feature","properties":{"id":"6204023099002","commune":"Marchihue","code":"06204","gse":"C3","quintil":"Q2","nse_score":672.1,"educ":12.0,"educ_score":600.0,"hacin":1.364,"hacin_class":"Hacinamiento Leve","hacin_score":773.7,"auto_score":250.0,"n_per":15,"n_hog":6,"source_year":2024},"geometry":{"type":"MultiPolygon","coordinates":[[[[-71.7362816469999,-34.3470918911206],[-71.7359730049999,-34.3485407291206],[-71.7372868809999,-34.3483671821206],[-71.7374378569999,-34.3476511281206],[-71.7367377719999,-34.3475580281206],[-71.7362816469999,-34.3470918911206]]],[[[-71.7377358499999,-34.3515542981206],[-71.7383811249999,-34.3497863201206],[-71.7393983819999,-34.3451908861207],[-71.7399795319999,-34.3440592191206],[-71.7388656279999,-34.3435578571207],[-71.7381819089999,-34.3448882811207],[-71.7371442419999,-34.3495506991206],[-71.7364553749999,-34.3514683461206],[-71.7377358499999,-34.3515542981206]]]]}},{"type":"Feature","properties":{"id":"6204023099016","commune":"Marchihue","code":"06204","gse":"E","quintil":"Q1","nse_score":577.0,"educ":10.3,"educ_score":486.7,"hacin":1.1,"hacin_class":"Hacinamiento Leve","hacin_score":829.8,"auto_score":166.7,"n_per":11,"n_hog":5,"source_year":2024},"geometry":{"type":"MultiPolygon","coordinates":[[[[-71.7384557259999,-34.3655872221204],[-71.7374029799999,-34.3655210101204],[-71.7376898539999,-34.3662384001204],[-71.7377000089999,-34.3670614541204],[-71.7389489869999,-34.3670969311204],[-71.7389002339999,-34.3659178641204],[-71.7387041219999,-34.3654070691204],[-71.7384557259999,-34.3655872221204]]],[[[-71.7369025989999,-34.3643144321204],[-71.7373861249999,-34.3654796651204],[-71.7384327029999,-34.3655514841204],[-71.7386769049999,-34.3653485281204],[-71.738464786,-34.3648485541204],[-71.7375017989999,-34.3649998081204],[-71.7372016189999,-34.3649826071204],[-71.7384507009999,-34.3648154641204],[-71.7382706419999,-34.3643902181204],[-71.7374255839999,-34.3644425251204],[-71.7369025989999,-34.3643144321204]]]]}},{"type":"Feature","properties":{"id":"6204023099023","commune":"Marchihue","code":"06204","gse":"E","quintil":"Q1","nse_score":573.9,"educ":11.7,"educ_score":580.0,"hacin":0.818,"hacin_class":"Sin Hacinamiento","hacin_score":889.7,"auto_score":375.0,"n_per":9,"n_hog":4,"source_year":2024},"geometry":{"type":"MultiPolygon","coordinates":[[[[-71.7396633499999,-34.3705193761203],[-71.7385975979999,-34.3706268811204],[-71.7385103349999,-34.3714361981203],[-71.7395590469999,-34.3712241941203],[-71.7396633499999,-34.3705193761203]]],[[[-71.7351467499999,-34.3704611751203],[-71.7385269499999,-34.3705304611203],[-71.7386518569999,-34.3697730121204],[-71.7352617879999,-34.3696515371203],[-71.7351467499999,-34.3704611751203]]]]}}]}