{"type":"FeatureCollection","features":[{"type":"Feature","properties":{"id":"13504011001003","commune":"María Pinto","code":"13504","gse":"E","quintil":"Q1","nse_score":589.6,"educ":8.0,"educ_score":333.3,"hacin":1.333,"hacin_class":"Hacinamiento Leve","hacin_score":780.1,"auto_score":388.9,"n_per":28,"n_hog":9,"source_year":2024},"geometry":{"type":"Polygon","coordinates":[[[-71.1188474449999,-33.510745839131],[-71.1187360469999,-33.510975346131],[-71.1198184879999,-33.511301359131],[-71.1198590409999,-33.5111138911309],[-71.1188474449999,-33.510745839131]]]}},{"type":"Feature","properties":{"id":"13504011001004","commune":"María Pinto","code":"13504","gse":"C3","quintil":"Q3","nse_score":746.1,"educ":12.6,"educ_score":640.0,"hacin":1.5,"hacin_class":"Hacinamiento Medio","hacin_score":744.7,"auto_score":444.4,"n_per":27,"n_hog":9,"source_year":2024},"geometry":{"type":"Polygon","coordinates":[[[-71.1189475399999,-33.511545554131],[-71.1186757649999,-33.511433271131],[-71.1183349519999,-33.511934301131],[-71.1188070689999,-33.512023564131],[-71.1189475399999,-33.511545554131]]]}},{"type":"Feature","properties":{"id":"13504011001005","commune":"María Pinto","code":"13504","gse":"D","quintil":"Q1","nse_score":663.0,"educ":10.8,"educ_score":520.0,"hacin":1.354,"hacin_class":"Hacinamiento Leve","hacin_score":775.7,"auto_score":174.8,"n_per":279,"n_hog":100,"source_year":2024},"geometry":{"type":"Polygon","coordinates":[[[-71.1228050919999,-33.5114504671309],[-71.1223449369999,-33.5135565221309],[-71.1225997039999,-33.5136369611309],[-71.1223354119999,-33.513600106131],[-71.122269748,-33.5139006891309],[-71.1225216329999,-33.5139399251309],[-71.1222600209999,-33.5139455001309],[-71.1221959579999,-33.5142395941309],[-71.1224357529999,-33.5142845911309],[-71.1221861069999,-33.5142841811309],[-71.1221195569999,-33.5145903271309],[-71.1223712709999,-33.5146723541309],[-71.1221098379999,-33.5146345441309],[-71.1216915109999,-33.5165209871309],[-71.1225052039999,-33.5167308491309],[-71.1232540539999,-33.5135428761309],[-71.1227006829999,-33.5161618491309],[-71.1230881899999,-33.5162441141309],[-71.1226901029999,-33.5162046821309],[-71.1225598179999,-33.5167983531309],[-71.1235001989999,-33.5170733041309],[-71.1246284029999,-33.5119530031309],[-71.1240855539999,-33.5116704841309],[-71.1228050919999,-33.5114504671309]]]}},{"type":"Feature","properties":{"id":"13504011001006","commune":"María Pinto","code":"13504","gse":"D","quintil":"Q1","nse_score":668.4,"educ":10.7,"educ_score":513.3,"hacin":1.297,"hacin_class":"Hacinamiento Leve","hacin_score":787.9,"auto_score":111.1,"n_per":131,"n_hog":45,"source_year":2024},"geometry":{"type":"Polygon","coordinates":[[[-71.1247253719999,-33.5162101711309],[-71.1251469299999,-33.5144350821309],[-71.1254344569999,-33.5123486541309],[-71.1246747859999,-33.511970121131],[-71.1241186109999,-33.5145485231309],[-71.1249248929999,-33.5146948781309],[-71.1241068849999,-33.5146104921309],[-71.1240468729999,-33.5149254101309],[-71.1244050719999,-33.5150067311309],[-71.1240404829999,-33.5149587941309],[-71.1238411269999,-33.5159326431309],[-71.1242574259999,-33.5159905161309],[-71.1238303089999,-33.5159833251309],[-71.1236395919999,-33.5171343041309],[-71.124480849,-33.5173703701309],[-71.1247183869999,-33.5162459091309],[-71.124405109,-33.5161616541309],[-71.1247253719999,-33.5162101711309]]]}},{"type":"Feature","properties":{"id":"13504011001008","commune":"María Pinto","code":"13504","gse":"E","quintil":"Q1","nse_score":650.4,"educ":9.5,"educ_score":433.3,"hacin":1.212,"hacin_class":"Hacinamiento Leve","hacin_score":805.9,"auto_score":235.3,"n_per":40,"n_hog":17,"source_year":2024},"geometry":{"type":"Polygon","coordinates":[[[-71.1161067109999,-33.5147495461309],[-71.1169383469999,-33.5150170271309],[-71.1171662699999,-33.5144483831309],[-71.1163195599999,-33.514110284131],[-71.1161067109999,-33.5147495461309]]]}},{"type":"Feature","properties":{"id":"13504011001009","commune":"María Pinto","code":"13504","gse":"D","quintil":"Q1","nse_score":680.2,"educ":11.1,"educ_score":540.0,"hacin":1.388,"hacin_class":"Hacinamiento Leve","hacin_score":768.4,"auto_score":316.8,"n_per":311,"n_hog":105,"source_year":2024},"geometry":{"type":"Polygon","coordinates":[[[-71.1196392509999,-33.5202158281309],[-71.1208390059999,-33.5211666181308],[-71.1235218409999,-33.5216109011308],[-71.1235064759999,-33.5214036111308],[-71.1209363179999,-33.5209778701309],[-71.1211752289999,-33.5209390611308],[-71.121386631,-33.5200497441309],[-71.1220609989999,-33.5202196401308],[-71.1221905309999,-33.5198768411309],[-71.120517005,-33.5186541981309],[-71.1202710299999,-33.5191266731309],[-71.1212115439999,-33.5197193151308],[-71.1209517729999,-33.5196224651309],[-71.1206981489999,-33.5205441191309],[-71.1209135199999,-33.5195984241308],[-71.1201949519999,-33.5191324851309],[-71.1204307049999,-33.5186513481309],[-71.1200292949999,-33.5184629091309],[-71.1204692549999,-33.5185503261309],[-71.1207457239999,-33.5179600141309],[-71.121107703,-33.5164321611309],[-71.120149007,-33.5161162961309],[-71.1198481899999,-33.5167366901309],[-71.1177566239999,-33.5161004291309],[-71.1176295359999,-33.5159698701309],[-71.1178634119999,-33.5153893991309],[-71.1165733119999,-33.514972993131],[-71.116329086,-33.5155183031309],[-71.1169034899999,-33.5161900041309],[-71.1178720509999,-33.5165033281309],[-71.1189231929999,-33.5170742501309],[-71.1183639479999,-33.5178898551309],[-71.1199441299999,-33.5187958941309],[-71.1196392509999,-33.5202158281309]]]}},{"type":"Feature","properties":{"id":"13504011001013","commune":"María Pinto","code":"13504","gse":"D","quintil":"Q2","nse_score":701.1,"educ":11.4,"educ_score":560.0,"hacin":1.359,"hacin_class":"Hacinamiento Leve","hacin_score":774.6,"auto_score":171.1,"n_per":227,"n_hog":76,"source_year":2024},"geometry":{"type":"Polygon","coordinates":[[[-71.1212501639999,-33.5183786711309],[-71.1213320659999,-33.5179495151309],[-71.1208407459999,-33.5177916381309],[-71.1205387809999,-33.5185980981309],[-71.1222422829999,-33.5197786581309],[-71.1225901369999,-33.5188939691309],[-71.1219292299999,-33.5182805871309],[-71.1217718669999,-33.5185593001309],[-71.1215967949999,-33.5185405681309],[-71.1217953619999,-33.5184722421308],[-71.1219669969999,-33.5177200621309],[-71.1220504279999,-33.5177244931309],[-71.1219013379999,-33.5182052301308],[-71.1226477959999,-33.5188657491309],[-71.12311489,-33.5189972361309],[-71.1232575589999,-33.5183552911309],[-71.1237966529999,-33.5172574901309],[-71.1212360599999,-33.5164733351309],[-71.1208503929999,-33.5177561141309],[-71.1213759039999,-33.5179290381309],[-71.1212501639999,-33.5183786711309]]]}},{"type":"Feature","properties":{"id":"13504011001015","commune":"María Pinto","code":"13504","gse":"E","quintil":"Q1","nse_score":636.1,"educ":10.4,"educ_score":493.3,"hacin":1.558,"hacin_class":"Hacinamiento Medio","hacin_score":732.3,"auto_score":119.0,"n_per":67,"n_hog":21,"source_year":2024},"geometry":{"type":"Polygon","coordinates":[[[-71.1239894309999,-33.5192553681309],[-71.1243739919999,-33.5174952881309],[-71.1238808079999,-33.5172827371309],[-71.1233296609999,-33.5183630721309],[-71.1232101209999,-33.5190086781309],[-71.1239894309999,-33.5192553681309]]]}},{"type":"Feature","properties":{"id":"13504011001017","commune":"María Pinto","code":"13504","gse":"E","quintil":"Q1","nse_score":654.9,"educ":10.0,"educ_score":466.7,"hacin":1.385,"hacin_class":"Hacinamiento Leve","hacin_score":769.2,"auto_score":250.0,"n_per":72,"n_hog":24,"source_year":2024},"geometry":{"type":"Polygon","coordinates":[[[-71.1226480669999,-33.5189429321309],[-71.1223117149999,-33.5198092991308],[-71.1237983779999,-33.5202650541309],[-71.1239869299999,-33.5193291721308],[-71.1226480669999,-33.5189429321309]]]}},{"type":"Feature","properties":{"id":"13504011001018","commune":"María Pinto","code":"13504","gse":"D","quintil":"Q1","nse_score":657.5,"educ":9.9,"educ_score":460.0,"hacin":1.318,"hacin_class":"Hacinamiento Leve","hacin_score":783.5,"auto_score":153.8,"n_per":112,"n_hog":39,"source_year":2024},"geometry":{"type":"Polygon","coordinates":[[[-71.1221246439999,-33.5203614721308],[-71.1237134529999,-33.5206751701309],[-71.1237395899999,-33.5203175511309],[-71.1222668919999,-33.5199046581308],[-71.1221246439999,-33.5203614721308]]]}},{"type":"Feature","properties":{"id":"13504011001020","commune":"María Pinto","code":"13504","gse":"D","quintil":"Q1","nse_score":675.0,"educ":11.5,"educ_score":566.7,"hacin":1.528,"hacin_class":"Hacinamiento Medio","hacin_score":738.7,"auto_score":66.7,"n_per":81,"n_hog":28,"source_year":2024},"geometry":{"type":"Polygon","coordinates":[[[-71.1214192309999,-33.5201786081308],[-71.1212215689999,-33.5209498091308],[-71.1217422369999,-33.5210220421308],[-71.1218948149999,-33.5206618051308],[-71.1216937139999,-33.5205648901308],[-71.1219211009999,-33.5205964311309],[-71.1220418329999,-33.5202767761309],[-71.1214192309999,-33.5201786081308]]]}},{"type":"Feature","properties":{"id":"13504011001021","commune":"María Pinto","code":"13504","gse":"C3","quintil":"Q3","nse_score":735.1,"educ":12.0,"educ_score":600.0,"hacin":1.114,"hacin_class":"Hacinamiento Leve","hacin_score":826.9,"auto_score":205.9,"n_per":49,"n_hog":17,"source_year":2024},"geometry":{"type":"Polygon","coordinates":[[[-71.1224039319999,-33.5207327921308],[-71.1219646469999,-33.5207175981308],[-71.1218405249999,-33.5210351471309],[-71.122277773,-33.5211254891308],[-71.1226238679999,-33.5207633771308],[-71.1236001439999,-33.5208974931308],[-71.1236894359999,-33.5207540311309],[-71.1220787669999,-33.5204137471309],[-71.1219869689999,-33.5206530131309],[-71.1224039319999,-33.5207327921308]]]}},{"type":"Feature","properties":{"id":"13504011001022","commune":"María Pinto","code":"13504","gse":"D","quintil":"Q2","nse_score":686.4,"educ":9.8,"educ_score":453.3,"hacin":1.286,"hacin_class":"Hacinamiento Leve","hacin_score":790.3,"auto_score":100.0,"n_per":72,"n_hog":27,"source_year":2024},"geometry":{"type":"Polygon","coordinates":[[[-71.122370009,-33.5210936091308],[-71.1235267789999,-33.5213269771308],[-71.1236314249999,-33.5209880301309],[-71.1226625869999,-33.5208014861308],[-71.122370009,-33.5210936091308]]]}},{"type":"Feature","properties":{"id":"13504011001001","commune":"María Pinto","code":"13504","gse":"D","quintil":"Q2","nse_score":701.8,"educ":11.5,"educ_score":566.7,"hacin":1.396,"hacin_class":"Hacinamiento Leve","hacin_score":766.8,"auto_score":318.6,"n_per":275,"n_hog":106,"source_year":2024},"geometry":{"type":"MultiPolygon","coordinates":[[[[-71.1177203859999,-33.5159784161309],[-71.1183955689999,-33.5161770561309],[-71.1186189989999,-33.5156275121309],[-71.1179470559999,-33.5154159221309],[-71.1177203859999,-33.5159784161309]]],[[[-71.1182463899999,-33.508549159131],[-71.118175317,-33.510355656131],[-71.1180432899999,-33.510781395131],[-71.1172969969999,-33.511128171131],[-71.1147440669999,-33.511261264131],[-71.1141191819999,-33.5132264811309],[-71.1171823009999,-33.512183632131],[-71.1141697709999,-33.5132586321309],[-71.1140036329999,-33.5135738411309],[-71.115269382,-33.5144368241309],[-71.1158972989999,-33.5146822481309],[-71.1161934449999,-33.5139664041309],[-71.1171297089999,-33.5142997731309],[-71.1172324309999,-33.5144598761309],[-71.1170072429999,-33.5150391141309],[-71.1187754139999,-33.5156054491309],[-71.1189514399999,-33.5149266941309],[-71.1183464839999,-33.5146860491309],[-71.1189671109999,-33.5148661581309],[-71.1196166479999,-33.512150110131],[-71.118063005,-33.5119246381309],[-71.1182622669999,-33.511896894131],[-71.1186739149999,-33.511375762131],[-71.1190030579999,-33.5114941341309],[-71.1189337169999,-33.5120314181309],[-71.1196043639999,-33.5120628841309],[-71.1198068909999,-33.5113643161309],[-71.1186816889999,-33.511002596131],[-71.1187429649999,-33.510849961131],[-71.1182793279999,-33.510739127131],[-71.1187655949999,-33.510802576131],[-71.1188153259999,-33.5106954861309],[-71.1198669299999,-33.5110774211309],[-71.120369605,-33.509589587131],[-71.1196277439999,-33.509067180131],[-71.1182463899999,-33.508549159131]]]]}},{"type":"Feature","properties":{"id":"13504011001002","commune":"María Pinto","code":"13504","gse":"D","quintil":"Q1","nse_score":659.7,"educ":10.9,"educ_score":526.7,"hacin":1.273,"hacin_class":"Hacinamiento Leve","hacin_score":792.9,"auto_score":180.6,"n_per":177,"n_hog":65,"source_year":2024},"geometry":{"type":"MultiPolygon","coordinates":[[[[-71.1197678639999,-33.5166616591309],[-71.1200883379999,-33.5160961451309],[-71.1194221449999,-33.5158866281309],[-71.1191538349999,-33.5164342331309],[-71.1197678639999,-33.5166616591309]]],[[[-71.120025128,-33.510633613131],[-71.118823044,-33.5156206851309],[-71.1215846939999,-33.5165066771309],[-71.1220473569999,-33.5146283111309],[-71.1217988619999,-33.5145428481309],[-71.1220570999999,-33.5145820661309],[-71.1221215489999,-33.5142766311309],[-71.1218851919999,-33.5141900591309],[-71.1221314459999,-33.5142295651309],[-71.1221943199999,-33.5139383301309],[-71.1219653059999,-33.5138560421309],[-71.1222051109999,-33.5138898941309],[-71.1222789289999,-33.5135846591309],[-71.1220304049999,-33.513511100131],[-71.1222880239999,-33.5135471721309],[-71.1227618359999,-33.511443642131],[-71.1211268239999,-33.510401533131],[-71.1204060709999,-33.509631068131],[-71.120025128,-33.510633613131]]]]}},{"type":"Feature","properties":{"id":"13504021001001","commune":"María Pinto","code":"13504","gse":"E","quintil":"Q1","nse_score":609.8,"educ":9.2,"educ_score":413.3,"hacin":1.212,"hacin_class":"Hacinamiento Leve","hacin_score":806.0,"auto_score":151.3,"n_per":206,"n_hog":78,"source_year":2024},"geometry":{"type":"Polygon","coordinates":[[[-71.0952734749999,-33.4544168411317],[-71.0949019609999,-33.4545418231317],[-71.0951362789999,-33.4546683381317],[-71.0949936599999,-33.4548841801317],[-71.0956883419999,-33.4550658211317],[-71.0961778829999,-33.4542769121317],[-71.0961040609999,-33.4539625421317],[-71.0958704469999,-33.4538141201317],[-71.0956171639999,-33.4540475951317],[-71.0957381099999,-33.4538008901317],[-71.0958809109999,-33.4537780601317],[-71.0961398769999,-33.4539412731317],[-71.0962193679999,-33.4542662191317],[-71.0965463859999,-33.4542461451317],[-71.0972491999999,-33.4545535681317],[-71.0976369589999,-33.4539188721317],[-71.0969034929999,-33.4553812881317],[-71.0973557209999,-33.4554986911317],[-71.0975179349999,-33.4551583811317],[-71.0973971629999,-33.4555094481317],[-71.0976767429999,-33.4555820381317],[-71.0975180569999,-33.4555974591317],[-71.0974496679999,-33.4558351251317],[-71.0975156639999,-33.4565452731317],[-71.096899086,-33.4577343951317],[-71.0979321339999,-33.4579941661316],[-71.0981799579999,-33.4570837651316],[-71.0983026369999,-33.4570608351317],[-71.0986320459999,-33.4571013031317],[-71.0986750929999,-33.4571977181316],[-71.0985820669999,-33.4573669481317],[-71.0985952339999,-33.4571477231317],[-71.0982381749999,-33.4571182151316],[-71.0981025419999,-33.4576507031317],[-71.0989648739999,-33.4578200101316],[-71.0997098569999,-33.4577292241316],[-71.0999603479999,-33.4565024451317],[-71.0982184289999,-33.4561658651317],[-71.099248584,-33.4541307961317],[-71.0959886799999,-33.4532845071317],[-71.0952734749999,-33.4544168411317]]]}},{"type":"Feature","properties":{"id":"13504021001002","commune":"María Pinto","code":"13504","gse":"E","quintil":"Q1","nse_score":524.6,"educ":7.4,"educ_score":293.3,"hacin":1.628,"hacin_class":"Hacinamiento Medio","hacin_score":717.5,"auto_score":140.0,"n_per":70,"n_hog":25,"source_year":2024},"geometry":{"type":"Polygon","coordinates":[[[-71.0941448449999,-33.4542096201317],[-71.0935209699999,-33.4554939371317],[-71.0922251039999,-33.4553940131317],[-71.0920534669999,-33.4564058901316],[-71.0918303489999,-33.4567946021317],[-71.0921234689999,-33.4568498231316],[-71.0922227069999,-33.4566901251317],[-71.0924657049999,-33.4556849191317],[-71.0924371119999,-33.4562892451317],[-71.0935708899999,-33.4563758821316],[-71.0937326579999,-33.4559872161317],[-71.0943274669999,-33.4561512171317],[-71.0947395629999,-33.4553064301317],[-71.0941241959999,-33.4550679061317],[-71.0940352119999,-33.4549708521317],[-71.0947558489999,-33.4552730441317],[-71.0949263689999,-33.4549230271317],[-71.0944521099999,-33.4547404571317],[-71.0949517859999,-33.4548730391317],[-71.0950934719999,-33.4546736381317],[-71.0948622859999,-33.4545745681317],[-71.0949642989999,-33.4544318151317],[-71.0941448449999,-33.4542096201317]]]}},{"type":"Feature","properties":{"id":"13504021001003","commune":"María Pinto","code":"13504","gse":"E","quintil":"Q1","nse_score":554.7,"educ":8.5,"educ_score":366.7,"hacin":1.5,"hacin_class":"Hacinamiento Medio","hacin_score":744.7,"auto_score":192.3,"n_per":33,"n_hog":14,"source_year":2024},"geometry":{"type":"Polygon","coordinates":[[[-71.0957504849999,-33.4550819601317],[-71.0968415519999,-33.4553652081317],[-71.0972319369999,-33.4545879411317],[-71.0962837319999,-33.4542735181317],[-71.0957504849999,-33.4550819601317]]]}},{"type":"Feature","properties":{"id":"13504021001004","commune":"María Pinto","code":"13504","gse":"E","quintil":"Q1","nse_score":564.1,"educ":9.0,"educ_score":400.0,"hacin":1.2,"hacin_class":"Hacinamiento Leve","hacin_score":808.5,"auto_score":38.5,"n_per":30,"n_hog":13,"source_year":2024},"geometry":{"type":"Polygon","coordinates":[[[-71.0943887509999,-33.4561685101317],[-71.0950001109999,-33.4563319951317],[-71.0956613729999,-33.4551154391317],[-71.0949880579999,-33.4549394361317],[-71.0943887509999,-33.4561685101317]]]}},{"type":"Feature","properties":{"id":"13504021001005","commune":"María Pinto","code":"13504","gse":"E","quintil":"Q1","nse_score":574.0,"educ":9.2,"educ_score":413.3,"hacin":1.513,"hacin_class":"Hacinamiento Medio","hacin_score":742.0,"auto_score":194.4,"n_per":118,"n_hog":35,"source_year":2024},"geometry":{"type":"Polygon","coordinates":[[[-71.0950622539999,-33.4563481361317],[-71.0961601829999,-33.4566333101316],[-71.0968163909999,-33.4554153041317],[-71.0957235139999,-33.4551315811317],[-71.0950622539999,-33.4563481361317]]]}},{"type":"Feature","properties":{"id":"13504021001006","commune":"María Pinto","code":"13504","gse":"E","quintil":"Q1","nse_score":630.3,"educ":9.0,"educ_score":400.0,"hacin":1.403,"hacin_class":"Hacinamiento Leve","hacin_score":765.3,"auto_score":129.6,"n_per":94,"n_hog":29,"source_year":2024},"geometry":{"type":"Polygon","coordinates":[[[-71.0962222949999,-33.4566494421317],[-71.0972444669999,-33.4569149251316],[-71.0974984989999,-33.4564585721317],[-71.0974768769999,-33.4555867691317],[-71.0968783319999,-33.4554313841317],[-71.0962222949999,-33.4566494421317]]]}},{"type":"Feature","properties":{"id":"13504021001007","commune":"María Pinto","code":"13504","gse":"E","quintil":"Q1","nse_score":575.2,"educ":8.6,"educ_score":373.3,"hacin":1.259,"hacin_class":"Hacinamiento Leve","hacin_score":795.9,"auto_score":209.7,"n_per":68,"n_hog":27,"source_year":2024},"geometry":{"type":"Polygon","coordinates":[[[-71.0942914969999,-33.4565701471317],[-71.0936196609999,-33.4564303661317],[-71.09346604,-33.4568887691317],[-71.0945519819999,-33.4571564441317],[-71.0949731409999,-33.4563816151317],[-71.0937524789999,-33.4560480961317],[-71.0936313019999,-33.4563956311317],[-71.0942914969999,-33.4565701471317]]]}},{"type":"Feature","properties":{"id":"13504021001008","commune":"María Pinto","code":"13504","gse":"E","quintil":"Q1","nse_score":621.4,"educ":10.8,"educ_score":520.0,"hacin":1.462,"hacin_class":"Hacinamiento Leve","hacin_score":752.9,"auto_score":250.0,"n_per":19,"n_hog":7,"source_year":2024},"geometry":{"type":"Polygon","coordinates":[[[-71.0921919549999,-33.4568567061317],[-71.0934015419999,-33.4568812131316],[-71.0935531419999,-33.4564288441317],[-71.0924315359999,-33.4563431361317],[-71.0921919549999,-33.4568567061317]]]}},{"type":"Feature","properties":{"id":"13504021001009","commune":"María Pinto","code":"13504","gse":"E","quintil":"Q1","nse_score":609.5,"educ":8.8,"educ_score":386.7,"hacin":1.4,"hacin_class":"Hacinamiento Leve","hacin_score":766.0,"auto_score":125.0,"n_per":14,"n_hog":4,"source_year":2024},"geometry":{"type":"Polygon","coordinates":[[[-71.0946136299999,-33.4571734951317],[-71.0952097369999,-33.4573383741317],[-71.0956023919999,-33.4565450631317],[-71.0950352799999,-33.4563977611317],[-71.0946136299999,-33.4571734951317]]]}},{"type":"Feature","properties":{"id":"13504021001011","commune":"María Pinto","code":"13504","gse":"E","quintil":"Q1","nse_score":607.2,"educ":9.1,"educ_score":406.7,"hacin":1.3,"hacin_class":"Hacinamiento Leve","hacin_score":787.2,"auto_score":83.3,"n_per":26,"n_hog":10,"source_year":2024},"geometry":{"type":"Polygon","coordinates":[[[-71.0963367649999,-33.4576029511317],[-71.0968358379999,-33.4577196111317],[-71.0972679789999,-33.4569776601317],[-71.0967177119999,-33.4568347431317],[-71.0963367649999,-33.4576029511317]]]}},{"type":"Feature","properties":{"id":"13504021001012","commune":"María Pinto","code":"13504","gse":"D","quintil":"Q1","nse_score":676.1,"educ":10.6,"educ_score":506.7,"hacin":1.18,"hacin_class":"Hacinamiento Leve","hacin_score":812.7,"auto_score":222.2,"n_per":72,"n_hog":27,"source_year":2024},"geometry":{"type":"Polygon","coordinates":[[[-71.0917971729999,-33.4569046121317],[-71.0921272409999,-33.4578552671317],[-71.0931335489999,-33.4584840081316],[-71.0947712769999,-33.4590486261316],[-71.0952307789999,-33.4574010491317],[-71.0934377309999,-33.4569400691316],[-71.0932522939999,-33.4575844651317],[-71.0933949219999,-33.4569350541317],[-71.0917971729999,-33.4569046121317]]]}},{"type":"Feature","properties":{"id":"13504021001013","commune":"María Pinto","code":"13504","gse":"E","quintil":"Q1","nse_score":602.6,"educ":8.6,"educ_score":373.3,"hacin":1.333,"hacin_class":"Hacinamiento Leve","hacin_score":780.1,"auto_score":86.5,"n_per":152,"n_hog":52,"source_year":2024},"geometry":{"type":"Polygon","coordinates":[[[-71.0948502429999,-33.4590791661316],[-71.0962502399999,-33.4594463691316],[-71.0976730269999,-33.4600345011316],[-71.0978632999999,-33.4603566031316],[-71.0977436019999,-33.4600800991316],[-71.0973314139999,-33.4596880401316],[-71.0974312869999,-33.4594395471316],[-71.0969701899999,-33.4592323811316],[-71.0974491189999,-33.4594064291316],[-71.0975440259999,-33.4592143521316],[-71.0972811449999,-33.4590772781316],[-71.0975609499999,-33.4591801021316],[-71.0979162649999,-33.4580466581317],[-71.0969402529999,-33.4578001741317],[-71.0969379239999,-33.4585671531316],[-71.0964046519999,-33.4593799541316],[-71.0968754709999,-33.4585510071316],[-71.0968746139999,-33.4577848311316],[-71.0953138629999,-33.4574199971317],[-71.0948502429999,-33.4590791661316]]]}},{"type":"Feature","properties":{"id":"13504021001014","commune":"María Pinto","code":"13504","gse":"E","quintil":"Q1","nse_score":585.2,"educ":8.9,"educ_score":393.3,"hacin":1.625,"hacin_class":"Hacinamiento Medio","hacin_score":718.1,"auto_score":437.5,"n_per":26,"n_hog":8,"source_year":2024},"geometry":{"type":"Polygon","coordinates":[[[-71.0980084589999,-33.4579619151316],[-71.0987536539999,-33.4580968341317],[-71.0989349639999,-33.4578696761316],[-71.0980866869999,-33.4577031471317],[-71.0980084589999,-33.4579619151316]]]}},{"type":"Feature","properties":{"id":"13504021001015","commune":"María Pinto","code":"13504","gse":"E","quintil":"Q1","nse_score":605.4,"educ":8.8,"educ_score":386.7,"hacin":1.464,"hacin_class":"Hacinamiento Leve","hacin_score":752.3,"auto_score":89.3,"n_per":82,"n_hog":28,"source_year":2024},"geometry":{"type":"Polygon","coordinates":[[[-71.0996984639999,-33.4577669121317],[-71.0991562569999,-33.4578063901316],[-71.0988120249999,-33.4580418581317],[-71.0994028979999,-33.4582948211316],[-71.0988009709999,-33.4581600741316],[-71.0982521079999,-33.4597933391316],[-71.0987376389999,-33.4581493051317],[-71.0979926009999,-33.4580143711316],[-71.0977865509999,-33.4588715371316],[-71.0973926319999,-33.4596305641316],[-71.0979267459999,-33.4603426051316],[-71.0992558549999,-33.4595274491316],[-71.0996984639999,-33.4577669121317]]]}},{"type":"Feature","properties":{"id":"13504021002001","commune":"María Pinto","code":"13504","gse":"D","quintil":"Q2","nse_score":684.1,"educ":9.9,"educ_score":460.0,"hacin":1.489,"hacin_class":"Hacinamiento Leve","hacin_score":747.1,"auto_score":291.1,"n_per":265,"n_hog":81,"source_year":2024},"geometry":{"type":"Polygon","coordinates":[[[-71.0821693279999,-33.4606973581316],[-71.081957842,-33.4614323561316],[-71.0824688309999,-33.4613720231316],[-71.0826310039999,-33.4608684881316],[-71.0825382759999,-33.4613638251316],[-71.0830265399999,-33.4613061741316],[-71.0831313129999,-33.4609917251316],[-71.0830962219999,-33.4612979461316],[-71.0839341179999,-33.4612574591316],[-71.0835813939999,-33.4612952821316],[-71.0833376099999,-33.4619132411316],[-71.0835220239999,-33.4620442841316],[-71.0824000179999,-33.4617539271316],[-71.0822980249999,-33.4619576401316],[-71.082449472,-33.4614289361316],[-71.0819414099999,-33.4614889241316],[-71.0809715619999,-33.4651117701316],[-71.0825431229999,-33.4655588881315],[-71.0827131439999,-33.4652409331316],[-71.0825836309999,-33.4655710831315],[-71.0834880699999,-33.4658433781315],[-71.0842274419999,-33.4643674071316],[-71.083789238,-33.4643618431316],[-71.0830656959999,-33.4641121551316],[-71.0829090189999,-33.4643844211316],[-71.0826921399999,-33.4643278801316],[-71.0828755929999,-33.4643272241316],[-71.0832709229999,-33.4635630461316],[-71.0833640349999,-33.4635906251316],[-71.0831486359999,-33.4630662731316],[-71.0840021429999,-33.4612040851316],[-71.0821693279999,-33.4606973581316]]]}},{"type":"Feature","properties":{"id":"13504021002002","commune":"María Pinto","code":"13504","gse":"C3","quintil":"Q2","nse_score":714.8,"educ":10.9,"educ_score":526.7,"hacin":1.517,"hacin_class":"Hacinamiento Medio","hacin_score":741.0,"auto_score":282.8,"n_per":305,"n_hog":102,"source_year":2024},"geometry":{"type":"Polygon","coordinates":[[[-71.0785339569999,-33.4613197811316],[-71.0775780119999,-33.4641595401316],[-71.0809099779999,-33.4650945161316],[-71.0814647089999,-33.4629393801316],[-71.078889983,-33.4627132201316],[-71.0801901889999,-33.4627730621316],[-71.080160857,-33.4622478971316],[-71.0788236179999,-33.4621085271316],[-71.0790934229999,-33.4621210661316],[-71.0791771009999,-33.4614136481316],[-71.0818922409999,-33.4614295271316],[-71.0820638039999,-33.4608338771316],[-71.0806412609999,-33.4607619171316],[-71.0806241449999,-33.4611176961316],[-71.0785339569999,-33.4613197811316]]]}},{"type":"Feature","properties":{"id":"13504021002003","commune":"María Pinto","code":"13504","gse":"C3","quintil":"Q2","nse_score":704.0,"educ":10.1,"educ_score":473.3,"hacin":1.636,"hacin_class":"Hacinamiento Medio","hacin_score":715.7,"auto_score":250.0,"n_per":36,"n_hog":9,"source_year":2024},"geometry":{"type":"Polygon","coordinates":[[[-71.0829251599999,-33.4618158331316],[-71.0832769149999,-33.4618948071316],[-71.0835100999999,-33.4613037001316],[-71.0830774459999,-33.4613547901316],[-71.0829251599999,-33.4618158331316]]]}},{"type":"Feature","properties":{"id":"13504021002004","commune":"María Pinto","code":"13504","gse":"C3","quintil":"Q3","nse_score":749.0,"educ":11.4,"educ_score":560.0,"hacin":1.214,"hacin_class":"Hacinamiento Leve","hacin_score":805.5,"auto_score":250.0,"n_per":17,"n_hog":6,"source_year":2024},"geometry":{"type":"Polygon","coordinates":[[[-71.0824212569999,-33.4617026951316],[-71.0828628179999,-33.4618018361316],[-71.0830077639999,-33.4613630181316],[-71.0825195959999,-33.4614206571316],[-71.0824212569999,-33.4617026951316]]]}},{"type":"Feature","properties":{"id":"13504021002007","commune":"María Pinto","code":"13504","gse":"C3","quintil":"Q3","nse_score":734.3,"educ":10.8,"educ_score":520.0,"hacin":1.357,"hacin_class":"Hacinamiento Leve","hacin_score":775.1,"auto_score":187.5,"n_per":57,"n_hog":17,"source_year":2024},"geometry":{"type":"Polygon","coordinates":[[[-71.0797724109999,-33.4621670091316],[-71.0803868419999,-33.4622091071316],[-71.0804445329999,-33.4614666911316],[-71.0798385579999,-33.4615032861316],[-71.0797724109999,-33.4621670091316]]]}},{"type":"Feature","properties":{"id":"13504021002008","commune":"María Pinto","code":"13504","gse":"C3","quintil":"Q2","nse_score":710.5,"educ":10.5,"educ_score":500.0,"hacin":1.417,"hacin_class":"Hacinamiento Leve","hacin_score":762.4,"auto_score":227.3,"n_per":34,"n_hog":11,"source_year":2024},"geometry":{"type":"Polygon","coordinates":[[[-71.0791578479999,-33.4621248971316],[-71.0797080869999,-33.4621626011316],[-71.0797734029999,-33.4615072201316],[-71.079234734,-33.4615397481316],[-71.0791578479999,-33.4621248971316]]]}},{"type":"Feature","properties":{"id":"13504021002009","commune":"María Pinto","code":"13504","gse":"C3","quintil":"Q3","nse_score":729.8,"educ":11.4,"educ_score":560.0,"hacin":1.214,"hacin_class":"Hacinamiento Leve","hacin_score":805.5,"auto_score":448.7,"n_per":119,"n_hog":39,"source_year":2024},"geometry":{"type":"Polygon","coordinates":[[[-71.0870412859999,-33.4629130981316],[-71.0852825609999,-33.4625128101316],[-71.0844181879999,-33.4641729361316],[-71.0847400229999,-33.4642484031316],[-71.084791934,-33.4641537971316],[-71.0847819789999,-33.4642582411316],[-71.0853327759999,-33.4644188251316],[-71.0843930079999,-33.4642232021315],[-71.0838510709999,-33.4653050481316],[-71.0841507189999,-33.4654351901316],[-71.0838343609999,-33.4653384071315],[-71.0835691689999,-33.4658677951316],[-71.0845713159999,-33.4661694991315],[-71.0849610239999,-33.4652809741316],[-71.0847587869999,-33.4652033331315],[-71.0847448719999,-33.4650764361316],[-71.0850069549999,-33.4645669711316],[-71.0855079519999,-33.4645469111316],[-71.0850346779999,-33.4646209381316],[-71.0848129079999,-33.4651720721315],[-71.0857637829999,-33.4654354591316],[-71.0861365309999,-33.4646171361316],[-71.0860101029999,-33.4645495891316],[-71.0863366379999,-33.4639213861315],[-71.0860476969999,-33.4645503871315],[-71.0861704559999,-33.4646127381315],[-71.0861575619999,-33.4647084411315],[-71.0857601179999,-33.4655214951316],[-71.0850232889999,-33.4653024681316],[-71.0846315419999,-33.4661798921315],[-71.0853469779999,-33.4664034671316],[-71.0874252639999,-33.4622359401316],[-71.0856946659999,-33.4617324051316],[-71.0853088599999,-33.4624630071316],[-71.0870412859999,-33.4629130981316]]]}},{"type":"Feature","properties":{"id":"13504021002011","commune":"María Pinto","code":"13504","gse":"D","quintil":"Q1","nse_score":677.6,"educ":10.4,"educ_score":493.3,"hacin":1.846,"hacin_class":"Hacinamiento Medio","hacin_score":671.0,"auto_score":315.8,"n_per":72,"n_hog":19,"source_year":2024},"geometry":{"type":"Polygon","coordinates":[[[-71.0802551159999,-33.4627787651316],[-71.0814783999999,-33.4628861941316],[-71.0816253719999,-33.4623482341316],[-71.0802257079999,-33.4622523411316],[-71.0802551159999,-33.4627787651316]]]}},{"type":"Feature","properties":{"id":"13504021002012","commune":"María Pinto","code":"13504","gse":"C3","quintil":"Q3","nse_score":736.5,"educ":12.2,"educ_score":613.3,"hacin":1.222,"hacin_class":"Hacinamiento Leve","hacin_score":803.8,"auto_score":500.0,"n_per":11,"n_hog":4,"source_year":2024},"geometry":{"type":"Polygon","coordinates":[[[-71.0837086739999,-33.4636854781316],[-71.0844262089999,-33.4639706161316],[-71.0850499119999,-33.4627751721316],[-71.0842595009999,-33.4625045161316],[-71.0837086739999,-33.4636854781316]]]}},{"type":"Feature","properties":{"id":"13504021002013","commune":"María Pinto","code":"13504","gse":"D","quintil":"Q1","nse_score":659.1,"educ":8.4,"educ_score":360.0,"hacin":1.406,"hacin_class":"Hacinamiento Leve","hacin_score":764.6,"auto_score":392.9,"n_per":45,"n_hog":16,"source_year":2024},"geometry":{"type":"Polygon","coordinates":[[[-71.083954822,-33.4642446681316],[-71.0842525919999,-33.4643172021316],[-71.0844012239999,-33.4640204921315],[-71.0833097649999,-33.4636300241316],[-71.0831945889999,-33.4638794651316],[-71.0839550969999,-33.4641392121316],[-71.083954822,-33.4642446681316]]]}},{"type":"Feature","properties":{"id":"13504021002005","commune":"María Pinto","code":"13504","gse":"C3","quintil":"Q3","nse_score":750.0,"educ":11.6,"educ_score":573.3,"hacin":1.444,"hacin_class":"Hacinamiento Leve","hacin_score":756.5,"auto_score":250.0,"n_per":52,"n_hog":17,"source_year":2024},"geometry":{"type":"MultiPolygon","coordinates":[[[[-71.080451175,-33.4622135151316],[-71.080925567,-33.4622460181316],[-71.0809816849999,-33.4614342501316],[-71.0805095109999,-33.4614627661316],[-71.080451175,-33.4622135151316]]],[[[-71.0810118099999,-33.4619336381316],[-71.0817340529999,-33.4619740951316],[-71.0818767679999,-33.4614827931316],[-71.0810466179999,-33.4614301171316],[-71.0810118099999,-33.4619336381316]]]]}},{"type":"Feature","properties":{"id":"13504031001001","commune":"María Pinto","code":"13504","gse":"D","quintil":"Q1","nse_score":674.9,"educ":11.0,"educ_score":533.3,"hacin":1.279,"hacin_class":"Hacinamiento Leve","hacin_score":791.8,"auto_score":240.0,"n_per":78,"n_hog":25,"source_year":2024},"geometry":{"type":"Polygon","coordinates":[[[-71.2543457499999,-33.5040649151311],[-71.249362302,-33.506344711131],[-71.2503278469999,-33.507106462131],[-71.2505668979999,-33.506981319131],[-71.2501608249999,-33.506551764131],[-71.2506041999999,-33.506962128131],[-71.2535721319999,-33.505503666131],[-71.253390109,-33.505243642131],[-71.2536091059999,-33.5054852061311],[-71.2552376739999,-33.504672096131],[-71.2570200609999,-33.5031220161311],[-71.2559778949999,-33.5027532581311],[-71.253380923,-33.502326990131],[-71.2532145579999,-33.5028279571311],[-71.2540119309999,-33.5029974151311],[-71.2539133849999,-33.5033153171311],[-71.2543457499999,-33.5040649151311]]]}},{"type":"Feature","properties":{"id":"13504031001002","commune":"María Pinto","code":"13504","gse":"E","quintil":"Q1","nse_score":630.9,"educ":9.4,"educ_score":426.7,"hacin":1.4,"hacin_class":"Hacinamiento Leve","hacin_score":766.0,"auto_score":130.4,"n_per":70,"n_hog":23,"source_year":2024},"geometry":{"type":"Polygon","coordinates":[[[-71.2535960309999,-33.506226550131],[-71.2563713419999,-33.5048373811311],[-71.2606871669999,-33.508592315131],[-71.2610110179999,-33.508386755131],[-71.2616678369999,-33.507407195131],[-71.2615387539999,-33.507296098131],[-71.261019846,-33.507983472131],[-71.2615043189999,-33.507266460131],[-71.2610890979999,-33.506909093131],[-71.2605147629999,-33.507447622131],[-71.2610588649999,-33.506883072131],[-71.2569915309999,-33.5032918111311],[-71.2553023369999,-33.504744224131],[-71.2531377939999,-33.505825464131],[-71.2535960309999,-33.506226550131]]]}},{"type":"Feature","properties":{"id":"13504031001003","commune":"María Pinto","code":"13504","gse":"D","quintil":"Q1","nse_score":660.1,"educ":10.0,"educ_score":466.7,"hacin":1.238,"hacin_class":"Hacinamiento Leve","hacin_score":800.4,"auto_score":166.7,"n_per":26,"n_hog":9,"source_year":2024},"geometry":{"type":"Polygon","coordinates":[[[-71.2504088309999,-33.507170353131],[-71.2509140319999,-33.507568913131],[-71.2535581259999,-33.506245522131],[-71.2530998329999,-33.5058443881311],[-71.2504088309999,-33.507170353131]]]}},{"type":"Feature","properties":{"id":"13504031001004","commune":"María Pinto","code":"13504","gse":"E","quintil":"Q1","nse_score":636.8,"educ":10.2,"educ_score":480.0,"hacin":1.418,"hacin_class":"Hacinamiento Leve","hacin_score":762.1,"auto_score":129.0,"n_per":78,"n_hog":31,"source_year":2024},"geometry":{"type":"Polygon","coordinates":[[[-71.2639260169999,-33.510713265131],[-71.2628320739999,-33.509828509131],[-71.2618185929999,-33.510997936131],[-71.2616015319999,-33.510956668131],[-71.2614073379999,-33.510756670131],[-71.2608585109999,-33.5108772601309],[-71.2614335389999,-33.510726037131],[-71.2617820239999,-33.510975988131],[-71.2627869479999,-33.509798488131],[-71.2618015589999,-33.508946052131],[-71.2607806709999,-33.509854674131],[-71.2618911299999,-33.508839079131],[-71.2620772069999,-33.508504450131],[-71.2625409039999,-33.508158601131],[-71.2619638509999,-33.507661961131],[-71.2616844429999,-33.508117116131],[-71.2614767429999,-33.508284498131],[-71.2616402709999,-33.508444508131],[-71.2614124879999,-33.508668062131],[-71.2616041479999,-33.508442630131],[-71.2614407749999,-33.508276227131],[-71.2619408169999,-33.507642137131],[-71.2616678369999,-33.507407195131],[-71.2610110179999,-33.508386755131],[-71.2594865739999,-33.509690322131],[-71.2591958929999,-33.510095134131],[-71.2599630119999,-33.510336404131],[-71.2609363509999,-33.511088717131],[-71.2615398709999,-33.511318346131],[-71.2635011809999,-33.511176622131],[-71.2643347679999,-33.510910230131],[-71.26467951,-33.511385507131],[-71.2658111789999,-33.510830580131],[-71.2668673629999,-33.510753997131],[-71.2648858269999,-33.510176371131],[-71.2625859849999,-33.508197400131],[-71.2618594289999,-33.508918362131],[-71.2639260169999,-33.510713265131]]]}},{"type":"Feature","properties":{"id":"13504031002001","commune":"María Pinto","code":"13504","gse":"E","quintil":"Q1","nse_score":618.3,"educ":9.0,"educ_score":400.0,"hacin":1.238,"hacin_class":"Hacinamiento Leve","hacin_score":800.4,"auto_score":181.8,"n_per":26,"n_hog":11,"source_year":2024},"geometry":{"type":"Polygon","coordinates":[[[-71.2301558919999,-33.5284630981307],[-71.2293661409999,-33.5299686011307],[-71.2318121439999,-33.5308223161307],[-71.2326141599999,-33.5292750191307],[-71.2301558919999,-33.5284630981307]]]}},{"type":"Feature","properties":{"id":"13504031002002","commune":"María Pinto","code":"13504","gse":"E","quintil":"Q1","nse_score":605.1,"educ":10.3,"educ_score":486.7,"hacin":1.356,"hacin_class":"Hacinamiento Leve","hacin_score":775.4,"auto_score":166.7,"n_per":61,"n_hog":22,"source_year":2024},"geometry":{"type":"Polygon","coordinates":[[[-71.2250037819999,-33.5293331661307],[-71.2240367089999,-33.5311525121307],[-71.2251714999999,-33.5314835751307],[-71.2254613529999,-33.5308732211307],[-71.2252043629999,-33.5315131951307],[-71.2240231849999,-33.5311867131307],[-71.2237802619999,-33.5319052581307],[-71.2255078899999,-33.5324265361307],[-71.2255289269999,-33.5331902341307],[-71.2262670599999,-33.5343896651307],[-71.2260147099999,-33.5348124981307],[-71.2261608869999,-33.5355136601306],[-71.2261018869999,-33.5360160371307],[-71.2288393319999,-33.5307875161307],[-71.2250037819999,-33.5293331661307]]]}},{"type":"Feature","properties":{"id":"13504031002003","commune":"María Pinto","code":"13504","gse":"C3","quintil":"Q2","nse_score":710.0,"educ":10.9,"educ_score":526.7,"hacin":1.372,"hacin_class":"Hacinamiento Leve","hacin_score":771.9,"auto_score":211.1,"n_per":273,"n_hog":89,"source_year":2024},"geometry":{"type":"Polygon","coordinates":[[[-71.2285280329999,-33.5315951171307],[-71.2279852479999,-33.5326159831307],[-71.2283335519999,-33.5327759711307],[-71.227967137,-33.5326487291307],[-71.2278555199999,-33.5328582621307],[-71.2301392369999,-33.5336295911307],[-71.2307122399999,-33.5322239531307],[-71.2317031019999,-33.5326206631307],[-71.2313056359999,-33.5341831631307],[-71.2316641699999,-33.5326436021307],[-71.2307524809999,-33.5322817291307],[-71.2301705209999,-33.5336906721307],[-71.2278293849999,-33.5329077641307],[-71.2275800749999,-33.5333667661307],[-71.2298367999999,-33.5343634381307],[-71.2298957259999,-33.5340904391307],[-71.2317550139999,-33.5347116881307],[-71.2320296879999,-33.5337960951307],[-71.2344608869999,-33.5341792921306],[-71.2344490919999,-33.5340108281307],[-71.2340294459999,-33.5335445151307],[-71.2340328069999,-33.5332068901307],[-71.232671277,-33.5329575831307],[-71.2324620509999,-33.5336891501307],[-71.2326444439999,-33.5329201601307],[-71.2340969379999,-33.5331949531307],[-71.2347446929999,-33.5329264701307],[-71.235313259,-33.5331022411307],[-71.2361261609999,-33.5324238891307],[-71.2328095789999,-33.5312283571307],[-71.2322409749999,-33.5323897751307],[-71.2322768399999,-33.5321881921307],[-71.2312471389999,-33.5317799731307],[-71.2311285499999,-33.5319989241307],[-71.2313824209999,-33.5313509571307],[-71.2300979009999,-33.5308856161307],[-71.2303192829999,-33.5309065201307],[-71.2305587149999,-33.5304434711307],[-71.2293390009999,-33.5300177261307],[-71.2285550149999,-33.5315459721307],[-71.2292221689999,-33.5317703491307],[-71.2293573459999,-33.5320459701307],[-71.2298672729999,-33.5320463281307],[-71.2295712369999,-33.5321661751307],[-71.2293153089999,-33.5320729701307],[-71.2291897849999,-33.5318177671307],[-71.2285280329999,-33.5315951171307]]]}},{"type":"Feature","properties":{"id":"13504031002004","commune":"María Pinto","code":"13504","gse":"E","quintil":"Q1","nse_score":621.0,"educ":10.3,"educ_score":486.7,"hacin":1.454,"hacin_class":"Hacinamiento Leve","hacin_score":754.4,"auto_score":83.3,"n_per":32,"n_hog":9,"source_year":2024},"geometry":{"type":"Polygon","coordinates":[[[-71.2308612209999,-33.5311030211307],[-71.2311092569999,-33.5306356331307],[-71.2306183339999,-33.5304642811307],[-71.2303785509999,-33.5309280091307],[-71.2308612209999,-33.5311030211307]]]}},{"type":"Feature","properties":{"id":"13504031002005","commune":"María Pinto","code":"13504","gse":"D","quintil":"Q1","nse_score":661.3,"educ":11.1,"educ_score":540.0,"hacin":1.3,"hacin_class":"Hacinamiento Leve","hacin_score":787.2,"auto_score":0.0,"n_per":26,"n_hog":8,"source_year":2024},"geometry":{"type":"Polygon","coordinates":[[[-71.2314063179999,-33.5313009081307],[-71.2316361489999,-33.5308195381307],[-71.2311688729999,-33.5306564401307],[-71.2309371819999,-33.5311305401307],[-71.2314063179999,-33.5313009081307]]]}},{"type":"Feature","properties":{"id":"13504031002006","commune":"María Pinto","code":"13504","gse":"D","quintil":"Q2","nse_score":697.5,"educ":10.7,"educ_score":513.3,"hacin":1.387,"hacin_class":"Hacinamiento Leve","hacin_score":768.7,"auto_score":230.8,"n_per":43,"n_hog":13,"source_year":2024},"geometry":{"type":"Polygon","coordinates":[[[-71.23197984,-33.5315082741307],[-71.2322326679999,-33.5310274061307],[-71.2316957699999,-33.5308403481307],[-71.231457314,-33.5313250591307],[-71.23197984,-33.5315082741307]]]}},{"type":"Feature","properties":{"id":"13504031002007","commune":"María Pinto","code":"13504","gse":"E","quintil":"Q1","nse_score":639.5,"educ":9.4,"educ_score":426.7,"hacin":1.643,"hacin_class":"Hacinamiento Medio","hacin_score":714.3,"auto_score":181.8,"n_per":46,"n_hog":11,"source_year":2024},"geometry":{"type":"Polygon","coordinates":[[[-71.2324976169999,-33.5316958491307],[-71.2327547029999,-33.5312090011307],[-71.2322923009999,-33.5310481811307],[-71.2320557129999,-33.5315357611307],[-71.2324976169999,-33.5316958491307]]]}},{"type":"Feature","properties":{"id":"13504031002008","commune":"María Pinto","code":"13504","gse":"D","quintil":"Q1","nse_score":672.6,"educ":9.3,"educ_score":420.0,"hacin":1.273,"hacin_class":"Hacinamiento Leve","hacin_score":793.0,"auto_score":166.7,"n_per":14,"n_hog":6,"source_year":2024},"geometry":{"type":"Polygon","coordinates":[[[-71.2312711639999,-33.5317296541307],[-71.232301317,-33.5321380521307],[-71.2324898329999,-33.5317519621307],[-71.2314417939999,-33.5313722851307],[-71.2312711639999,-33.5317296541307]]]}},{"type":"Feature","properties":{"id":"13504031002009","commune":"María Pinto","code":"13504","gse":"D","quintil":"Q2","nse_score":684.4,"educ":10.5,"educ_score":500.0,"hacin":1.351,"hacin_class":"Hacinamiento Leve","hacin_score":776.5,"auto_score":185.7,"n_per":104,"n_hog":35,"source_year":2024},"geometry":{"type":"Polygon","coordinates":[[[-71.2251695539999,-33.5379520401306],[-71.2245797649999,-33.5390250401306],[-71.2255669689999,-33.5393535031306],[-71.2245605809999,-33.5390576101306],[-71.2244094979999,-33.5393141231306],[-71.2255000779999,-33.5400730211306],[-71.2256914119999,-33.5397518201306],[-71.2259193089999,-33.5397253791306],[-71.2273437579999,-33.5370966561307],[-71.2296076139999,-33.5371954081306],[-71.2305946149999,-33.5373565541306],[-71.2308632909999,-33.5361992701307],[-71.2295913589999,-33.5360170711307],[-71.2293257019999,-33.5362062221306],[-71.2281162969999,-33.5362273301306],[-71.229294863,-33.5361590631307],[-71.2295033919999,-33.5359630371306],[-71.2295672039999,-33.5355293211307],[-71.2287050559999,-33.5356366851306],[-71.2288680809999,-33.5355248061307],[-71.2295725519999,-33.5354929691307],[-71.2297771279999,-33.5343852361307],[-71.2275530139999,-33.5334159791307],[-71.2261037259999,-33.5361960721307],[-71.2266866489999,-33.5365096851307],[-71.2260865789999,-33.5362296981307],[-71.2252220329999,-33.5378536891306],[-71.2254163799999,-33.5379644531306],[-71.2254512989999,-33.5383176051306],[-71.2253764689999,-33.5379788091306],[-71.2251695539999,-33.5379520401306]]]}},{"type":"Feature","properties":{"id":"13504031002010","commune":"María Pinto","code":"13504","gse":"E","quintil":"Q1","nse_score":640.4,"educ":9.8,"educ_score":453.3,"hacin":1.27,"hacin_class":"Hacinamiento Leve","hacin_score":793.6,"auto_score":144.7,"n_per":94,"n_hog":35,"source_year":2024},"geometry":{"type":"Polygon","coordinates":[[[-71.2153261249999,-33.5380936321306],[-71.2167854979999,-33.5392229241306],[-71.2162785129999,-33.5401406801306],[-71.2162268419999,-33.5405079951306],[-71.2163900399999,-33.5415243251306],[-71.2169254259999,-33.5428082741305],[-71.2170079289999,-33.5433155921306],[-71.2173189069999,-33.5433078251306],[-71.2170094509999,-33.5433516291305],[-71.2167238659999,-33.5441339591306],[-71.2169132759999,-33.5449179321305],[-71.2172579399999,-33.5449013581305],[-71.2173702059999,-33.5450000741305],[-71.2176352319999,-33.5449183431305],[-71.2173725209999,-33.5450184251306],[-71.2171732539999,-33.5449113931305],[-71.2169595709999,-33.5449932341305],[-71.2173180419999,-33.5454311291305],[-71.2190283799999,-33.5466380761306],[-71.2198435059999,-33.5459664111305],[-71.2194976569999,-33.5456280281305],[-71.219877687,-33.5459444501305],[-71.2212768319999,-33.5450048011305],[-71.2205771369999,-33.5446193491306],[-71.2205057379999,-33.5444877041305],[-71.2213166699999,-33.5449618971305],[-71.2213857349999,-33.5448875181305],[-71.2223692569999,-33.5429828661306],[-71.221758845,-33.5427630071306],[-71.2223867449999,-33.5429498981306],[-71.2233882579999,-33.5410608841306],[-71.2225749009999,-33.5409075111306],[-71.2209077709999,-33.5441192021305],[-71.2203563349999,-33.5440843381306],[-71.2204065949999,-33.5449287181305],[-71.2190992879999,-33.5446767991305],[-71.2180458149999,-33.5440447761306],[-71.2178622789999,-33.5433832421306],[-71.2181387799999,-33.5425544101305],[-71.2179586189999,-33.5419707481305],[-71.217950663,-33.5414364851306],[-71.2182645119999,-33.5402849941306],[-71.2178137179999,-33.5400103211306],[-71.2183588049999,-33.5385977391306],[-71.2183770929999,-33.5381940321306],[-71.2178005139999,-33.5374335231307],[-71.2158923739999,-33.5373460251306],[-71.2153261249999,-33.5380936321306]]]}},{"type":"Feature","properties":{"id":"13504031002011","commune":"María Pinto","code":"13504","gse":"D","quintil":"Q2","nse_score":697.2,"educ":10.7,"educ_score":513.3,"hacin":1.333,"hacin_class":"Hacinamiento Leve","hacin_score":780.1,"auto_score":131.6,"n_per":60,"n_hog":19,"source_year":2024},"geometry":{"type":"Polygon","coordinates":[[[-71.2162320579999,-33.5389331771306],[-71.2156678299999,-33.5397615041306],[-71.2156687439999,-33.5407549861306],[-71.21506926,-33.5408682321306],[-71.2153408019999,-33.5417903801306],[-71.2163253169999,-33.5415087161306],[-71.2161620239999,-33.5405064271306],[-71.216216303,-33.5401256791306],[-71.216536705,-33.5395611481306],[-71.2161969799999,-33.5394167621306],[-71.2159176869999,-33.5396730041306],[-71.2161838769999,-33.5393788341306],[-71.216559404,-33.5395304501306],[-71.2167177779999,-33.5392371911306],[-71.2162320579999,-33.5389331771306]]]}},{"type":"Feature","properties":{"id":"13504031002012","commune":"María Pinto","code":"13504","gse":"D","quintil":"Q2","nse_score":697.4,"educ":10.2,"educ_score":480.0,"hacin":1.28,"hacin_class":"Hacinamiento Leve","hacin_score":791.5,"auto_score":180.0,"n_per":64,"n_hog":25,"source_year":2024},"geometry":{"type":"Polygon","coordinates":[[[-71.2243575179999,-33.5394023751306],[-71.2240120569999,-33.5400543751306],[-71.2250501749999,-33.5407077351306],[-71.2239903789999,-33.5400952891306],[-71.2238884619999,-33.5402876401306],[-71.2247402919999,-33.5408445201306],[-71.2238679659999,-33.5403263231306],[-71.2228368169999,-33.5422791091306],[-71.2230844599999,-33.5422931221306],[-71.2232162489999,-33.5424413611306],[-71.2228193099999,-33.5423121121306],[-71.2224054729999,-33.5430943771306],[-71.2226450239999,-33.5431960191305],[-71.2223887369999,-33.5431276021305],[-71.2221124989999,-33.5436760051306],[-71.2233143459999,-33.5445654631305],[-71.2258901369999,-33.5397750581306],[-71.22543565,-33.5401217331306],[-71.2243575179999,-33.5394023751306]]]}},{"type":"Feature","properties":{"id":"13504031002013","commune":"María Pinto","code":"13504","gse":"D","quintil":"Q1","nse_score":664.7,"educ":10.3,"educ_score":486.7,"hacin":1.467,"hacin_class":"Hacinamiento Leve","hacin_score":751.8,"auto_score":166.7,"n_per":22,"n_hog":9,"source_year":2024},"geometry":{"type":"Polygon","coordinates":[[[-71.2163374339999,-33.5415620801306],[-71.2148944699999,-33.5419577871306],[-71.2158946979999,-33.5427988621305],[-71.2159765569999,-33.5440329351306],[-71.2168253099999,-33.5448302171305],[-71.2166589549999,-33.5441319701306],[-71.2169260299999,-33.5435869801305],[-71.2169126239999,-33.5430745871305],[-71.2166156039999,-33.5430923561305],[-71.2164725329999,-33.5433815251305],[-71.2164799009999,-33.5431429531305],[-71.2161465399999,-33.5431154491305],[-71.2169055519999,-33.5430386421306],[-71.2163374339999,-33.5415620801306]]]}},{"type":"Feature","properties":{"id":"13504031002014","commune":"María Pinto","code":"13504","gse":"D","quintil":"Q2","nse_score":697.8,"educ":10.3,"educ_score":486.7,"hacin":1.348,"hacin_class":"Hacinamiento Leve","hacin_score":777.1,"auto_score":200.0,"n_per":31,"n_hog":10,"source_year":2024},"geometry":{"type":"Polygon","coordinates":[[[-71.2247672239999,-33.5443611601305],[-71.2249388609999,-33.5441294541305],[-71.2239554029999,-33.5434149681305],[-71.2239308519999,-33.5436319641305],[-71.2240912629999,-33.5435619691306],[-71.223881032,-33.5437857481306],[-71.2247672239999,-33.5443611601305]]]}},{"type":"Feature","properties":{"id":"13504031002015","commune":"María Pinto","code":"13504","gse":"D","quintil":"Q2","nse_score":687.6,"educ":9.6,"educ_score":440.0,"hacin":1.323,"hacin_class":"Hacinamiento Leve","hacin_score":782.4,"auto_score":230.8,"n_per":41,"n_hog":13,"source_year":2024},"geometry":{"type":"Polygon","coordinates":[[[-71.2238780289999,-33.5449826211305],[-71.2244069079999,-33.5441956441306],[-71.2238574869999,-33.5438247261306],[-71.2233641189999,-33.5446022981305],[-71.2238780289999,-33.5449826211305]]]}},{"type":"Feature","properties":{"id":"13504031002016","commune":"María Pinto","code":"13504","gse":"E","quintil":"Q1","nse_score":622.3,"educ":9.5,"educ_score":433.3,"hacin":1.535,"hacin_class":"Hacinamiento Medio","hacin_score":737.3,"auto_score":222.2,"n_per":66,"n_hog":18,"source_year":2024},"geometry":{"type":"Polygon","coordinates":[[[-71.2168061899999,-33.5496352491305],[-71.2167854229999,-33.5491756861305],[-71.2168757709999,-33.5495589131305],[-71.2170486039999,-33.5494671391305],[-71.2176194199999,-33.5485924931305],[-71.2173132179999,-33.5482843221305],[-71.2169622019999,-33.5481998151305],[-71.2163816229999,-33.5478810061305],[-71.2173358979999,-33.5482525121305],[-71.2176414759999,-33.5485603351305],[-71.2182754839999,-33.5476359211305],[-71.2179026839999,-33.5474413421305],[-71.2178671339999,-33.5472503701305],[-71.2174553989999,-33.5468098901305],[-71.2179056119999,-33.5472336491305],[-71.2179388839999,-33.5474190831305],[-71.2182969319999,-33.5476046531305],[-71.2189910319999,-33.5466830311305],[-71.217270917,-33.5454681911305],[-71.2159696579999,-33.5440918771305],[-71.2159494339999,-33.5442646801305],[-71.2164962169999,-33.5448436121306],[-71.2166552889999,-33.5457575471305],[-71.2165629989999,-33.5460857311305],[-71.216770934,-33.5470965571305],[-71.2157685909999,-33.5479615271305],[-71.214991918,-33.5483735781305],[-71.2147274659999,-33.5489288281305],[-71.2143518029999,-33.5491999391305],[-71.214402016,-33.5503590761305],[-71.2146965179999,-33.5509069071305],[-71.2150798459999,-33.5513035241304],[-71.2155744379999,-33.5515599991305],[-71.2163490919999,-33.5516326901305],[-71.2168850499999,-33.5512328871304],[-71.2168831209999,-33.5501274951305],[-71.2170403209999,-33.5494923521305],[-71.2168061899999,-33.5496352491305]]]}},{"type":"Feature","properties":{"id":"13504031002017","commune":"María Pinto","code":"13504","gse":"D","quintil":"Q2","nse_score":690.9,"educ":9.8,"educ_score":453.3,"hacin":1.542,"hacin_class":"Hacinamiento Medio","hacin_score":735.8,"auto_score":111.1,"n_per":37,"n_hog":9,"source_year":2024},"geometry":{"type":"Polygon","coordinates":[[[-71.2241773339999,-33.5452057531305],[-71.2247417519999,-33.5444090071306],[-71.2244586009999,-33.5442292091305],[-71.2239370209999,-33.5450262781306],[-71.2241773339999,-33.5452057531305]]]}},{"type":"Feature","properties":{"id":"13504031002018","commune":"María Pinto","code":"13504","gse":"E","quintil":"Q1","nse_score":645.7,"educ":9.6,"educ_score":440.0,"hacin":1.418,"hacin_class":"Hacinamiento Leve","hacin_score":762.2,"auto_score":192.3,"n_per":112,"n_hog":40,"source_year":2024},"geometry":{"type":"Polygon","coordinates":[[[-71.219159294,-33.5466068071305],[-71.2184930849999,-33.5474635011305],[-71.2188223249999,-33.5475942491305],[-71.2190708979999,-33.5478074541305],[-71.2184715319999,-33.5474949191305],[-71.2181821519999,-33.5479168211305],[-71.2198969629999,-33.5484059191305],[-71.2200277999999,-33.5480390681305],[-71.21993814,-33.5484164851305],[-71.2207336969999,-33.5486206261305],[-71.2199527209999,-33.5474737021305],[-71.2212268129999,-33.5461096401305],[-71.2216942469999,-33.5458936911305],[-71.2219335649999,-33.5455661811305],[-71.2212967829999,-33.5450976831305],[-71.2211825469999,-33.5451957131305],[-71.221566993,-33.5454326071305],[-71.2215967819999,-33.5455154751305],[-71.2210901789999,-33.5452749771305],[-71.2215682879999,-33.5457220221305],[-71.2210601029999,-33.5453007861305],[-71.2201768439999,-33.5458431461305],[-71.2206208829999,-33.5462985491305],[-71.2201458759999,-33.5458630431305],[-71.2198533929999,-33.5460509611305],[-71.2201529809999,-33.5463492421305],[-71.2200833609999,-33.5464294071305],[-71.2201773119999,-33.5465240321305],[-71.2200315649999,-33.5464418691305],[-71.2201056419999,-33.5463578091305],[-71.2198194389999,-33.5460727761305],[-71.2194233909999,-33.5463751641305],[-71.2201598439999,-33.5469469071305],[-71.2193921689999,-33.5464002711305],[-71.2191840069999,-33.5465770551305],[-71.2195679549999,-33.5468523511305],[-71.219159294,-33.5466068071305]]]}},{"type":"Feature","properties":{"id":"13504031002019","commune":"María Pinto","code":"13504","gse":"D","quintil":"Q1","nse_score":664.3,"educ":10.6,"educ_score":506.7,"hacin":1.439,"hacin_class":"Hacinamiento Leve","hacin_score":757.7,"auto_score":157.1,"n_per":118,"n_hog":35,"source_year":2024},"geometry":{"type":"Polygon","coordinates":[[[-71.2214699729999,-33.5536580901304],[-71.2219223979999,-33.5536514801304],[-71.2221898369999,-33.5533861841304],[-71.2220070529999,-33.5529355681304],[-71.2217802329999,-33.5517872741304],[-71.2222293529999,-33.5533715921305],[-71.2234917009999,-33.5533945481304],[-71.2235285559999,-33.5528026751305],[-71.2232846589999,-33.5519012521304],[-71.222734768,-33.5518890641305],[-71.2232738509999,-33.5518649441304],[-71.2227504989999,-33.5507162901305],[-71.222015902,-33.5503253931304],[-71.2219181319999,-33.5505122421305],[-71.2215103899999,-33.5507316841304],[-71.2219772199999,-33.5503064011305],[-71.2216807209999,-33.5500845891305],[-71.2207362569999,-33.5486778551305],[-71.2197800929999,-33.5484325021305],[-71.2199619369999,-33.5489349901305],[-71.2197280479999,-33.5484191471305],[-71.2181494049999,-33.5479645671305],[-71.2171385439999,-33.5494652861305],[-71.216968946,-33.5501339221305],[-71.2169655929999,-33.5511619171305],[-71.2179708929999,-33.5505979321305],[-71.2182148909999,-33.5495996661305],[-71.2183613349999,-33.5493633221305],[-71.2186346569999,-33.5492372341305],[-71.2192299519999,-33.5493715531305],[-71.219953545,-33.5498736221305],[-71.2212304689999,-33.5502215481305],[-71.2213950909999,-33.5506428891305],[-71.2211152229999,-33.5513752761304],[-71.2213777889999,-33.5517342461305],[-71.2217472919999,-33.5527353161304],[-71.221692119,-33.5532772831304],[-71.2214699729999,-33.5536580901304]]]}},{"type":"Feature","properties":{"id":"13504031002020","commune":"María Pinto","code":"13504","gse":"C3","quintil":"Q2","nse_score":704.2,"educ":11.2,"educ_score":546.7,"hacin":1.25,"hacin_class":"Hacinamiento Leve","hacin_score":797.9,"auto_score":115.4,"n_per":40,"n_hog":13,"source_year":2024},"geometry":{"type":"Polygon","coordinates":[[[-71.2223941459999,-33.5499266781305],[-71.2220268849999,-33.5502680851304],[-71.2228051959999,-33.5506862651305],[-71.223299246,-33.5517275181304],[-71.2235541609999,-33.5525311521304],[-71.2235455149999,-33.5534003171305],[-71.224112267,-33.5542532451304],[-71.2245939649999,-33.5540082271304],[-71.2234914979999,-33.5512316601304],[-71.223112436,-33.5507051831305],[-71.2225878169999,-33.5502572031305],[-71.222720653,-33.5501593881305],[-71.2223941459999,-33.5499266781305]]]}},{"type":"Feature","properties":{"id":"13504041001001","commune":"María Pinto","code":"13504","gse":"D","quintil":"Q1","nse_score":681.2,"educ":10.1,"educ_score":473.3,"hacin":1.353,"hacin_class":"Hacinamiento Leve","hacin_score":776.0,"auto_score":340.9,"n_per":69,"n_hog":23,"source_year":2024},"geometry":{"type":"Polygon","coordinates":[[[-71.2698354379999,-33.4907200331312],[-71.2647216529999,-33.4827611101313],[-71.2640181849999,-33.4835352581313],[-71.2691174999999,-33.4913935351312],[-71.2698354379999,-33.4907200331312]]]}},{"type":"Feature","properties":{"id":"13504041001002","commune":"María Pinto","code":"13504","gse":"C3","quintil":"Q2","nse_score":705.9,"educ":10.5,"educ_score":500.0,"hacin":1.383,"hacin_class":"Hacinamiento Leve","hacin_score":769.6,"auto_score":295.5,"n_per":130,"n_hog":45,"source_year":2024},"geometry":{"type":"Polygon","coordinates":[[[-71.2656840869999,-33.4841393801313],[-71.2675526219999,-33.4870560341313],[-71.2681438709999,-33.4865893391313],[-71.2675633019999,-33.4870724901313],[-71.2710965109999,-33.4925901221312],[-71.2713994379999,-33.4927402151312],[-71.2725914679999,-33.4911736601313],[-71.2707395539999,-33.4899621991312],[-71.2709983389999,-33.4895454251312],[-71.2690318669999,-33.4879578631313],[-71.2686804099999,-33.4864103971313],[-71.2665100209999,-33.4833878861313],[-71.2656840869999,-33.4841393801313]]]}},{"type":"Feature","properties":{"id":"13504041001003","commune":"María Pinto","code":"13504","gse":"D","quintil":"Q1","nse_score":667.0,"educ":10.7,"educ_score":513.3,"hacin":1.277,"hacin_class":"Hacinamiento Leve","hacin_score":792.1,"auto_score":305.6,"n_per":129,"n_hog":50,"source_year":2024},"geometry":{"type":"Polygon","coordinates":[[[-71.2698938459999,-33.4947817231312],[-71.2691601469999,-33.4943617891312],[-71.2691679409999,-33.4942513071312],[-71.269932804,-33.4947278601312],[-71.2713642419999,-33.4927856151312],[-71.2710446849999,-33.4926235651312],[-71.2698677129999,-33.4907708291312],[-71.2691244049999,-33.4914165211312],[-71.2690661439999,-33.4931905551312],[-71.2684727569999,-33.4937732421312],[-71.2679264029999,-33.4947210701312],[-71.2676520329999,-33.4955873601312],[-71.2671535399999,-33.4965229511311],[-71.2667708569999,-33.4963028221312],[-71.2665165709999,-33.4967562521312],[-71.2640929409999,-33.4952290681312],[-71.2634390439999,-33.4942907171312],[-71.2631880509999,-33.4944165851312],[-71.2653450159999,-33.4975193091311],[-71.2667039249999,-33.4973123401312],[-71.2669209489999,-33.4968061621311],[-71.2667478879999,-33.4973056471312],[-71.2680743449999,-33.4970789001312],[-71.2682970139999,-33.4968991901312],[-71.2686864929999,-33.4963412981312],[-71.2683842269999,-33.4961354711312],[-71.2687135609999,-33.4963040281311],[-71.2694142729999,-33.4954447791312],[-71.2690143719999,-33.4951798211312],[-71.2694367239999,-33.4954138701312],[-71.2695945359999,-33.4951955481312],[-71.2684389859999,-33.4945509471312],[-71.2684924079999,-33.4944157711312],[-71.2682699509999,-33.4942110951312],[-71.2685415919999,-33.4943910131312],[-71.2684984539999,-33.4945110901312],[-71.2696237779999,-33.4951551191312],[-71.2698938459999,-33.4947817231312]]]}},{"type":"Feature","properties":{"id":"13504041001005","commune":"María Pinto","code":"13504","gse":"C3","quintil":"Q3","nse_score":734.1,"educ":11.8,"educ_score":586.7,"hacin":1.262,"hacin_class":"Hacinamiento Leve","hacin_score":795.3,"auto_score":369.6,"n_per":77,"n_hog":23,"source_year":2024},"geometry":{"type":"Polygon","coordinates":[[[-71.2627770199999,-33.4949538451312],[-71.2641107609999,-33.4968874571312],[-71.2623893159999,-33.4972111661311],[-71.2614800179999,-33.4966352091311],[-71.2608585759999,-33.4970412871311],[-71.2616560889999,-33.4975144231311],[-71.2622155919999,-33.4981376711311],[-71.2625421679999,-33.4979407821311],[-71.2634669009999,-33.4977976821312],[-71.2633997119999,-33.4975195201312],[-71.2632576279999,-33.4975029931312],[-71.2634336359999,-33.4974781701312],[-71.2635091149999,-33.4977906571311],[-71.2652763699999,-33.4975295421311],[-71.2633216859999,-33.4947164211312],[-71.2627770199999,-33.4949538451312]]]}},{"type":"Feature","properties":{"id":"13504041001007","commune":"María Pinto","code":"13504","gse":"D","quintil":"Q1","nse_score":669.6,"educ":9.7,"educ_score":446.7,"hacin":1.272,"hacin_class":"Hacinamiento Leve","hacin_score":793.1,"auto_score":213.2,"n_per":229,"n_hog":69,"source_year":2024},"geometry":{"type":"Polygon","coordinates":[[[-71.2610910689999,-33.4993403211311],[-71.2599489819999,-33.5004183801311],[-71.2617191209999,-33.5014071931311],[-71.259920141,-33.5004456031311],[-71.259787479,-33.5005708281311],[-71.2602279419999,-33.5009140881311],[-71.2597591039999,-33.5005979821311],[-71.2573215259999,-33.5029623391311],[-71.2592058709999,-33.5032461001311],[-71.261032768,-33.5017022121311],[-71.2626392239999,-33.5018623811311],[-71.2629082349999,-33.5015569631311],[-71.2631247449999,-33.5001931451311],[-71.2636140359999,-33.4999551731311],[-71.2639779109999,-33.4994940421311],[-71.2638968729999,-33.4989759461311],[-71.264104142,-33.4986006681311],[-71.2644669109999,-33.4985632931311],[-71.2646938119999,-33.4990961221312],[-71.2655966569999,-33.4994894891311],[-71.2662692589999,-33.4994020321311],[-71.2674455059999,-33.4989725441311],[-71.2676275719999,-33.4987473391311],[-71.2678320329999,-33.4978498701311],[-71.2682668679999,-33.4973466161312],[-71.2681087329999,-33.4971629091312],[-71.2674175649999,-33.4972940631311],[-71.2675334119999,-33.4978746011311],[-71.2675077199999,-33.4982646401311],[-71.2674621359999,-33.4983355561311],[-71.2670490329999,-33.4984142691311],[-71.2674657909999,-33.4982549421311],[-71.2673754779999,-33.4973016771311],[-71.2644049459999,-33.4977462271311],[-71.2646312689999,-33.4983851111311],[-71.2648619029999,-33.4984953221311],[-71.2648341789999,-33.4985942151312],[-71.2645933969999,-33.4984025911311],[-71.2644761949999,-33.4981021631311],[-71.2641501339999,-33.4982167261311],[-71.2640073599999,-33.4981471501312],[-71.2644627179999,-33.4980674381312],[-71.2643624489999,-33.4977523341311],[-71.2634844549999,-33.4978866701312],[-71.2636240099999,-33.4984389651311],[-71.263442101,-33.4978936681312],[-71.2625812799999,-33.4980256071311],[-71.2620620849999,-33.4984216601312],[-71.262886664,-33.4990450671311],[-71.2620337489999,-33.4984488051311],[-71.2611242489999,-33.4993090001311],[-71.2620894069999,-33.4999653551311],[-71.2610910689999,-33.4993403211311]]]}},{"type":"Feature","properties":{"id":"13504041001010","commune":"María Pinto","code":"13504","gse":"D","quintil":"Q1","nse_score":661.5,"educ":10.6,"educ_score":506.7,"hacin":1.321,"hacin_class":"Hacinamiento Leve","hacin_score":782.7,"auto_score":260.0,"n_per":74,"n_hog":25,"source_year":2024},"geometry":{"type":"Polygon","coordinates":[[[-71.2570335479999,-33.5032501321311],[-71.2611246119999,-33.506865350131],[-71.261688004,-33.507347005131],[-71.2616283419999,-33.506664920131],[-71.2618135789999,-33.5062321071311],[-71.2587966139999,-33.503591955131],[-71.2592058709999,-33.5032461001311],[-71.2573215259999,-33.5029623391311],[-71.2570335479999,-33.5032501321311]]]}},{"type":"Feature","properties":{"id":"13504041001011","commune":"María Pinto","code":"13504","gse":"E","quintil":"Q1","nse_score":649.0,"educ":10.2,"educ_score":480.0,"hacin":1.382,"hacin_class":"Hacinamiento Leve","hacin_score":769.8,"auto_score":326.1,"n_per":76,"n_hog":23,"source_year":2024},"geometry":{"type":"Polygon","coordinates":[[[-71.2618493349999,-33.505973692131],[-71.2616283419999,-33.506664920131],[-71.261688004,-33.507347005131],[-71.2649238369999,-33.510131828131],[-71.2675295129999,-33.5108892031309],[-71.2677612819999,-33.511095574131],[-71.2684158479999,-33.511302733131],[-71.2689582009999,-33.510490238131],[-71.2670290589999,-33.510127490131],[-71.2648431149999,-33.509302670131],[-71.2652907169999,-33.508935449131],[-71.2618493349999,-33.505973692131]]]}},{"type":"Feature","properties":{"id":"13504041001008","commune":"María Pinto","code":"13504","gse":"E","quintil":"Q1","nse_score":648.8,"educ":10.5,"educ_score":500.0,"hacin":1.43,"hacin_class":"Hacinamiento Leve","hacin_score":759.7,"auto_score":119.4,"n_per":203,"n_hog":67,"source_year":2024},"geometry":{"type":"MultiPolygon","coordinates":[[[[-71.2586079449999,-33.5015290121311],[-71.2587721719999,-33.5014063941311],[-71.2583658199999,-33.5010723471311],[-71.2581952149999,-33.5012686921311],[-71.2586079449999,-33.5015290121311]]],[[[-71.2615076389999,-33.4975254851311],[-71.2606358759999,-33.4982213321312],[-71.2601860469999,-33.4981698991311],[-71.2574919419999,-33.5007896561311],[-71.2572774679999,-33.5004418501311],[-71.2566044569999,-33.5010886381311],[-71.2569667769999,-33.5014016241311],[-71.2563710659999,-33.5020387321311],[-71.2540961569999,-33.5016149441311],[-71.2540237569999,-33.5018429061311],[-71.2523597299999,-33.5015199201311],[-71.2522564069999,-33.5020689011311],[-71.2546929809999,-33.5024688571311],[-71.2548327049999,-33.5020762241311],[-71.2545320809999,-33.5019919941311],[-71.2548869089999,-33.5020580591311],[-71.2547362089999,-33.5024759521311],[-71.256452254,-33.5027866511311],[-71.257076046,-33.5030656651311],[-71.2581570209999,-33.5019963641311],[-71.2569797479999,-33.5008597121311],[-71.2581995909999,-33.5019551341311],[-71.258586809,-33.5015839441311],[-71.2581314209999,-33.5012937431311],[-71.258335299,-33.5010462031311],[-71.2578795729999,-33.5007023391311],[-71.2588147139999,-33.5013656461311],[-71.2602264199999,-33.5000206961311],[-71.2594656749999,-33.4994411291311],[-71.2593538949999,-33.4992841721311],[-71.2596618589999,-33.4995414991311],[-71.2600049569999,-33.4992647911311],[-71.2596844469999,-33.4995586551311],[-71.2602550589999,-33.4999936621311],[-71.2610936469999,-33.4992020841311],[-71.2604415159999,-33.4987071531311],[-71.2611206269999,-33.4991766161311],[-71.2621715459999,-33.4981798641311],[-71.2615076389999,-33.4975254851311]]]]}},{"type":"Feature","properties":{"id":"13504041001004","commune":"María Pinto","code":"13504","gse":"D","quintil":"Q1","nse_score":662.9,"educ":9.6,"educ_score":440.0,"hacin":1.338,"hacin_class":"Hacinamiento Leve","hacin_score":779.1,"auto_score":359.4,"n_per":95,"n_hog":33,"source_year":2024},"geometry":{"type":"MultiPolygon","coordinates":[[[[-71.269512442,-33.4980053291312],[-71.2701662169999,-33.4971320121312],[-71.2688452859999,-33.4963051121312],[-71.2681471019999,-33.4971464731311],[-71.269512442,-33.4980053291312]]],[[[-71.2708932289999,-33.4950216361312],[-71.2701410449999,-33.4946138871312],[-71.269628812,-33.4953209091312],[-71.2707975429999,-33.4961611861312],[-71.2695956949999,-33.4953678881312],[-71.2688857599999,-33.4962585431312],[-71.2702195549999,-33.4970976111312],[-71.2719348389999,-33.4948298771312],[-71.2705626719999,-33.4940309371312],[-71.2701616299999,-33.4945818821312],[-71.2708932289999,-33.4950216361312]]]]}},{"type":"Feature","properties":{"id":"13504013062001","commune":"María Pinto","code":"13504","gse":"D","quintil":"Q1","nse_score":680.2,"educ":10.8,"educ_score":520.0,"hacin":1.396,"hacin_class":"Hacinamiento Leve","hacin_score":766.9,"auto_score":157.9,"n_per":127,"n_hog":35,"source_year":2024},"geometry":{"type":"Polygon","coordinates":[[[-71.1859311249999,-33.4904113451312],[-71.1855560349999,-33.4922108041312],[-71.1894466719999,-33.4935826671312],[-71.1908510609999,-33.4922439081312],[-71.1916236999999,-33.4925392851312],[-71.1921881729999,-33.4913245181312],[-71.1915261029999,-33.4910783991312],[-71.1912244939999,-33.4917827351312],[-71.1914864739999,-33.4910636671312],[-71.189158931,-33.4901984201313],[-71.1890147359999,-33.4908952521312],[-71.1887654829999,-33.4911537601312],[-71.1889749299999,-33.4908772741312],[-71.1891195519999,-33.4901837811312],[-71.1862166969999,-33.4890550371313],[-71.1859425899999,-33.4903563411312],[-71.1889351489999,-33.4914872211312],[-71.1859311249999,-33.4904113451312]]]}},{"type":"Feature","properties":{"id":"13504013062002","commune":"María Pinto","code":"13504","gse":"C3","quintil":"Q2","nse_score":719.3,"educ":11.6,"educ_score":573.3,"hacin":1.274,"hacin_class":"Hacinamiento Leve","hacin_score":792.8,"auto_score":239.1,"n_per":121,"n_hog":47,"source_year":2024},"geometry":{"type":"Polygon","coordinates":[[[-71.1996314659999,-33.4914089751312],[-71.1995603129999,-33.4919322581312],[-71.1985653109999,-33.4936329761312],[-71.1996163879999,-33.4940282731312],[-71.1999038359999,-33.4934459981312],[-71.1996558019999,-33.4940430951312],[-71.2015646599999,-33.4947609601312],[-71.2022101449999,-33.4930643631312],[-71.2008728939999,-33.4926242421312],[-71.2013557679999,-33.4927247711312],[-71.2014786039999,-33.4922871031312],[-71.2013965459999,-33.4927372001312],[-71.2021952759999,-33.4929840331312],[-71.2024379029999,-33.4925637801312],[-71.201623863,-33.4947832241312],[-71.2058242829999,-33.4963537571312],[-71.2063177389999,-33.4951959641312],[-71.2058647089999,-33.4963688451312],[-71.2070612609999,-33.4968154061311],[-71.2072464109999,-33.4965175231312],[-71.2071007829999,-33.4968298921311],[-71.2081681529999,-33.4972064161311],[-71.2083881589999,-33.4967112951312],[-71.2082933709999,-33.4965599801311],[-71.2083017889999,-33.4962466291311],[-71.2084786489999,-33.4959846061311],[-71.2083446689999,-33.4962528351312],[-71.2084326729999,-33.4967143461311],[-71.2082075849999,-33.4972211121311],[-71.2119146759999,-33.4985930291311],[-71.2122647999999,-33.4978024891311],[-71.2122516579999,-33.4973725341312],[-71.2109185349999,-33.4969282421312],[-71.2108245249999,-33.4971506031312],[-71.2085847369999,-33.4964151931312],[-71.2088066789999,-33.4959042621312],[-71.2074554729999,-33.4953975211311],[-71.2073543399999,-33.4956200061312],[-71.2063376069999,-33.4953011961312],[-71.2064253149999,-33.4950577501312],[-71.2061670979999,-33.4949812341312],[-71.2059628519999,-33.4954226091312],[-71.2040995249999,-33.4947177031312],[-71.2044476149999,-33.4938466701312],[-71.2032835799999,-33.4934200521312],[-71.2038216939999,-33.4927266021312],[-71.2036156709999,-33.4925945571312],[-71.2028400129999,-33.4925464241312],[-71.2034923099999,-33.4915757441312],[-71.2030879929999,-33.4915079741312],[-71.2025016409999,-33.4916121041312],[-71.2016695039999,-33.4920204491312],[-71.2013114799999,-33.4920143181312],[-71.2004325089999,-33.4911616281312],[-71.2002819189999,-33.4905892711312],[-71.1995138969999,-33.4909329901312],[-71.1996314659999,-33.4914089751312]]]}},{"type":"Feature","properties":{"id":"13504013062003","commune":"María Pinto","code":"13504","gse":"C2","quintil":"Q4","nse_score":780.7,"educ":13.5,"educ_score":700.0,"hacin":1.333,"hacin_class":"Hacinamiento Leve","hacin_score":780.1,"auto_score":83.3,"n_per":12,"n_hog":6,"source_year":2024},"geometry":{"type":"Polygon","coordinates":[[[-71.1937746759999,-33.4919142591312],[-71.1922275649999,-33.4913391621312],[-71.1916629079999,-33.4925542741312],[-71.1935665489999,-33.4932792551312],[-71.1937746759999,-33.4919142591312]]]}},{"type":"Feature","properties":{"id":"13504013062004","commune":"María Pinto","code":"13504","gse":"D","quintil":"Q1","nse_score":670.5,"educ":10.2,"educ_score":480.0,"hacin":1.301,"hacin_class":"Hacinamiento Leve","hacin_score":787.1,"auto_score":161.0,"n_per":173,"n_hog":59,"source_year":2024},"geometry":{"type":"Polygon","coordinates":[[[-71.1970139769999,-33.4931285661312],[-71.1966607999999,-33.4944037481312],[-71.1968367529999,-33.4934122291312],[-71.1969745869999,-33.4931137511312],[-71.1938365769999,-33.4919372681312],[-71.1936280549999,-33.4933026341312],[-71.2028134719999,-33.4966941761312],[-71.2029488239999,-33.4953594991312],[-71.2008379769999,-33.4945667281312],[-71.2007419959999,-33.4954161571312],[-71.2007958959999,-33.4945509021312],[-71.1999619769999,-33.4942372901312],[-71.1997467719999,-33.4946822011312],[-71.1999226829999,-33.4942225131312],[-71.1990983069999,-33.4939124831312],[-71.1989783439999,-33.4941223741312],[-71.1990587509999,-33.4938976061312],[-71.1984697259999,-33.4936760801312],[-71.1981717019999,-33.4944250981312],[-71.1984300409999,-33.4936611551312],[-71.1970139769999,-33.4931285661312]]]}},{"type":"Feature","properties":{"id":"13504013062005","commune":"María Pinto","code":"13504","gse":"D","quintil":"Q2","nse_score":686.2,"educ":10.4,"educ_score":493.3,"hacin":1.443,"hacin_class":"Hacinamiento Leve","hacin_score":756.9,"auto_score":235.3,"n_per":88,"n_hog":35,"source_year":2024},"geometry":{"type":"Polygon","coordinates":[[[-71.2028110369999,-33.4973451831311],[-71.2034349469999,-33.4974826961312],[-71.203483478,-33.4970380811311],[-71.2059906129999,-33.4978737951311],[-71.2060961549999,-33.4986663731311],[-71.2080964649999,-33.4993893961311],[-71.2078737529999,-33.5005895211311],[-71.2098420159999,-33.5013128181311],[-71.2099001279999,-33.5008937951311],[-71.2095203439999,-33.5008511251311],[-71.2089860749999,-33.5006227331311],[-71.2099050959999,-33.5008579741311],[-71.2099735739999,-33.5004947491311],[-71.2088075959999,-33.5000291351311],[-71.2088866969999,-33.4998477271311],[-71.2088527559999,-33.5000213751311],[-71.2099812969999,-33.5004580181311],[-71.2103991309999,-33.4992528861311],[-71.2103760949999,-33.4987276341311],[-71.2100742389999,-33.4985456131311],[-71.209931417,-33.4987169621311],[-71.2101325399999,-33.4980058951311],[-71.2072911489999,-33.4969746871311],[-71.2069871679999,-33.4972081061312],[-71.2072427769999,-33.4969582261312],[-71.2030115009999,-33.4953828931312],[-71.2028110369999,-33.4973451831311]]]}},{"type":"Feature","properties":{"id":"13504013062008","commune":"María Pinto","code":"13504","gse":"C3","quintil":"Q3","nse_score":732.6,"educ":13.0,"educ_score":666.7,"hacin":1.182,"hacin_class":"Hacinamiento Leve","hacin_score":812.4,"auto_score":444.4,"n_per":26,"n_hog":9,"source_year":2024},"geometry":{"type":"MultiPolygon","coordinates":[[[[-71.2111645379999,-33.4998480491311],[-71.2113358669999,-33.5011740911311],[-71.2111979679999,-33.5016453761311],[-71.2142388189999,-33.5019675821311],[-71.2137254989999,-33.4992914761311],[-71.2133853729999,-33.4991984241311],[-71.2133360049999,-33.4992947331311],[-71.2134816239999,-33.4993611811311],[-71.2133194379999,-33.4993282261311],[-71.2130022339999,-33.4999694911311],[-71.2133937959999,-33.5000339821311],[-71.2125816809999,-33.4999817151311],[-71.2124981059999,-33.5000683571311],[-71.2125038029999,-33.5007140461311],[-71.212453519,-33.4999384401311],[-71.2129571309999,-33.4999664821311],[-71.2133454549999,-33.4991841431311],[-71.2117338819999,-33.4986044241312],[-71.2111645379999,-33.4998480491311]]],[[[-71.2104433219999,-33.4987071331311],[-71.2104627759999,-33.4992626871311],[-71.2100577269999,-33.5004062991311],[-71.2112355589999,-33.5008407241311],[-71.2110623149999,-33.4999543341311],[-71.2116748609999,-33.4985823641311],[-71.2112173539999,-33.4984113631311],[-71.2110003689999,-33.4991132701311],[-71.2111780089999,-33.4983966571311],[-71.2101732899999,-33.4980211261311],[-71.2101018649999,-33.4985082361311],[-71.2104433219999,-33.4987071331311]]]]}},{"type":"Feature","properties":{"id":"13504013083001","commune":"María Pinto","code":"13504","gse":"E","quintil":"Q1","nse_score":619.9,"educ":10.1,"educ_score":473.3,"hacin":1.238,"hacin_class":"Hacinamiento Leve","hacin_score":800.4,"auto_score":166.7,"n_per":52,"n_hog":16,"source_year":2024},"geometry":{"type":"Polygon","coordinates":[[[-71.1682465419999,-33.4879302321313],[-71.1675938509999,-33.4880695131312],[-71.1679528909999,-33.4907278691312],[-71.1654613139999,-33.4912023511312],[-71.1656196549999,-33.4920988191312],[-71.168599706,-33.4915364471312],[-71.1683679209999,-33.4914010081312],[-71.1683221639999,-33.4912241671312],[-71.1687353809999,-33.4915124981313],[-71.1685127079999,-33.4899350031312],[-71.1683344719999,-33.4899497471313],[-71.1685085349999,-33.4899044051312],[-71.1682465419999,-33.4879302321313]]]}},{"type":"Feature","properties":{"id":"13504013083002","commune":"María Pinto","code":"13504","gse":"C3","quintil":"Q3","nse_score":734.3,"educ":11.3,"educ_score":553.3,"hacin":1.328,"hacin_class":"Hacinamiento Leve","hacin_score":781.2,"auto_score":71.4,"n_per":85,"n_hog":28,"source_year":2024},"geometry":{"type":"Polygon","coordinates":[[[-71.1735541039999,-33.4885972461312],[-71.1707558879999,-33.4887143401313],[-71.1708548029999,-33.4895180221312],[-71.16848762,-33.4892573811313],[-71.1687984739999,-33.4914989361312],[-71.1709740059999,-33.4910886371312],[-71.170874034,-33.4903244871312],[-71.1710373839999,-33.4910766801312],[-71.17127912,-33.4910310471312],[-71.1713028489999,-33.4906331291312],[-71.1713223969999,-33.4910228851312],[-71.1719710549999,-33.4909004441312],[-71.171896682,-33.4905751361312],[-71.1720131719999,-33.4908929941312],[-71.1721018579999,-33.4908734331312],[-71.1719881329999,-33.4900570281313],[-71.172144365,-33.4908677351312],[-71.1740339709999,-33.4905110391313],[-71.1738135189999,-33.4895200101312],[-71.1723585759999,-33.4897069381312],[-71.1738059549999,-33.4894845001313],[-71.1737685979999,-33.4893091081312],[-71.1727808409999,-33.4894020831313],[-71.1737610129999,-33.4892734961313],[-71.1737119109999,-33.4890429791312],[-71.1728840879999,-33.4891519321312],[-71.1737043479999,-33.4890074721313],[-71.1736557859999,-33.4887794751312],[-71.1730449469999,-33.4887524741313],[-71.1736481319999,-33.4887435411313],[-71.1735541039999,-33.4885972461312]]]}},{"type":"Feature","properties":{"id":"13504013083003","commune":"María Pinto","code":"13504","gse":"E","quintil":"Q1","nse_score":627.4,"educ":9.5,"educ_score":433.3,"hacin":1.287,"hacin_class":"Hacinamiento Leve","hacin_score":789.9,"auto_score":292.7,"n_per":112,"n_hog":41,"source_year":2024},"geometry":{"type":"Polygon","coordinates":[[[-71.1696782219999,-33.4914071241312],[-71.1682142969999,-33.4916831111312],[-71.1685392169999,-33.4927830101312],[-71.1687813849999,-33.4927585641312],[-71.1685495719999,-33.4928180661312],[-71.1685790799999,-33.4929179571312],[-71.1742765679999,-33.4918162231312],[-71.1740512869999,-33.4905816991312],[-71.1723533909999,-33.4909022031313],[-71.1724428089999,-33.4918482671312],[-71.1723110219999,-33.4909101961313],[-71.1697202909999,-33.4913991891312],[-71.1697923769999,-33.4918081841312],[-71.1696782219999,-33.4914071241312]]]}},{"type":"Feature","properties":{"id":"13504013083004","commune":"María Pinto","code":"13504","gse":"D","quintil":"Q1","nse_score":662.6,"educ":10.4,"educ_score":493.3,"hacin":1.314,"hacin_class":"Hacinamiento Leve","hacin_score":784.2,"auto_score":216.7,"n_per":92,"n_hog":31,"source_year":2024},"geometry":{"type":"Polygon","coordinates":[[[-71.1647734089999,-33.4947595611312],[-71.1649457779999,-33.4954048651312],[-71.1652441719999,-33.4953485631312],[-71.1651032979999,-33.4948379991312],[-71.1661315099999,-33.4946196151311],[-71.1680057719999,-33.4944150451312],[-71.1681466989999,-33.4948008461312],[-71.1690240089999,-33.4946352791312],[-71.1681513019999,-33.4916949941312],[-71.167117689,-33.4918900601312],[-71.1673358369999,-33.4929181531312],[-71.1670756609999,-33.4918979901312],[-71.1654730529999,-33.4922004111312],[-71.1656662999999,-33.4934514601312],[-71.1654749099999,-33.4937067421312],[-71.1648466379999,-33.4940147551312],[-71.1648752699999,-33.4946746621312],[-71.1647734089999,-33.4947595611312]]]}},{"type":"Feature","properties":{"id":"13504013083005","commune":"María Pinto","code":"13504","gse":"D","quintil":"Q1","nse_score":668.3,"educ":11.3,"educ_score":553.3,"hacin":1.467,"hacin_class":"Hacinamiento Leve","hacin_score":751.7,"auto_score":276.8,"n_per":179,"n_hog":57,"source_year":2024},"geometry":{"type":"Polygon","coordinates":[[[-71.1646342689999,-33.4931006171312],[-71.1645611709999,-33.4923724781312],[-71.1635055919999,-33.4925731981312],[-71.1636868969999,-33.4934568521312],[-71.1636182889999,-33.4935897201312],[-71.163463599,-33.4925814651312],[-71.1585196059999,-33.4935689391312],[-71.1586813309999,-33.4947197201312],[-71.1593656069999,-33.4946191291312],[-71.159441092,-33.4946605671312],[-71.1586862819999,-33.4947555521312],[-71.1589742789999,-33.4958144931312],[-71.1594715369999,-33.4956873741312],[-71.1597730219999,-33.4965254791312],[-71.1605736919999,-33.4964750161311],[-71.1602275539999,-33.4954372721312],[-71.1628497169999,-33.4949620681312],[-71.1642202639999,-33.4951521171311],[-71.1648053009999,-33.4946624301312],[-71.1647354739999,-33.4941424841312],[-71.1648207029999,-33.4939462761312],[-71.1654334229999,-33.4936652861312],[-71.1656015899999,-33.4934475101312],[-71.1654098809999,-33.4922123321312],[-71.164603902,-33.4923644151312],[-71.1646342689999,-33.4931006171312]]]}},{"type":"Feature","properties":{"id":"13504013083006","commune":"María Pinto","code":"13504","gse":"D","quintil":"Q2","nse_score":683.8,"educ":11.0,"educ_score":533.3,"hacin":1.355,"hacin_class":"Hacinamiento Leve","hacin_score":775.6,"auto_score":155.6,"n_per":126,"n_hog":40,"source_year":2024},"geometry":{"type":"Polygon","coordinates":[[[-71.1587070069999,-33.4951641841311],[-71.1584566839999,-33.4935820971312],[-71.1577202329999,-33.4937360881312],[-71.1578264779999,-33.4945020051312],[-71.1576783309999,-33.4937448491312],[-71.1570114179999,-33.4938842981312],[-71.1570927059999,-33.4949847741312],[-71.156969478,-33.4938930681312],[-71.1562853369999,-33.4940361201312],[-71.1564463729999,-33.4946253181312],[-71.1566955879999,-33.4946355461312],[-71.1564560319999,-33.4946606571312],[-71.1566784169999,-33.4954776721312],[-71.1565830589999,-33.4958553361311],[-71.1562274229999,-33.4965161751312],[-71.1550976389999,-33.4974461241312],[-71.1555501349999,-33.4978364241312],[-71.15580646,-33.4976751581311],[-71.1553743389999,-33.4980063121311],[-71.1555188409999,-33.4978611301311],[-71.1550664329999,-33.4974709071311],[-71.1546664449999,-33.4978120161312],[-71.1550949029999,-33.4981598531311],[-71.1553170249999,-33.4979877891311],[-71.1556548459999,-33.4982666281311],[-71.1557323189999,-33.4981213991312],[-71.1562816799999,-33.4980545771311],[-71.1570153159999,-33.4970381881311],[-71.1573802659999,-33.4970548861312],[-71.1578708179999,-33.4966453511311],[-71.1577081579999,-33.4957236081312],[-71.1580584179999,-33.4956934131311],[-71.1579919889999,-33.4953129581312],[-71.1587070069999,-33.4951641841311]]]}},{"type":"Feature","properties":{"id":"13504023098001","commune":"María Pinto","code":"13504","gse":"E","quintil":"Q1","nse_score":642.3,"educ":9.5,"educ_score":433.3,"hacin":1.295,"hacin_class":"Hacinamiento Leve","hacin_score":788.4,"auto_score":262.5,"n_per":123,"n_hog":40,"source_year":2024},"geometry":{"type":"Polygon","coordinates":[[[-71.1146529979999,-33.4677813531315],[-71.1135822079999,-33.4729729231315],[-71.113955857,-33.4731378241314],[-71.1150584749999,-33.4679698271315],[-71.1153730169999,-33.4680842991315],[-71.1148745379999,-33.4677879881315],[-71.1146529979999,-33.4677813531315]]]}},{"type":"Feature","properties":{"id":"13504023098003","commune":"María Pinto","code":"13504","gse":"E","quintil":"Q1","nse_score":619.8,"educ":9.9,"educ_score":460.0,"hacin":1.377,"hacin_class":"Hacinamiento Leve","hacin_score":770.8,"auto_score":181.8,"n_per":73,"n_hog":22,"source_year":2024},"geometry":{"type":"Polygon","coordinates":[[[-71.1147388039999,-33.4697747511315],[-71.1152336369999,-33.4698450951315],[-71.1155332299999,-33.4684879231315],[-71.1150283799999,-33.4684170791315],[-71.1147388039999,-33.4697747511315]]]}},{"type":"Feature","properties":{"id":"13504023098004","commune":"María Pinto","code":"13504","gse":"D","quintil":"Q1","nse_score":659.6,"educ":9.6,"educ_score":440.0,"hacin":1.584,"hacin_class":"Hacinamiento Medio","hacin_score":726.7,"auto_score":109.4,"n_per":122,"n_hog":35,"source_year":2024},"geometry":{"type":"Polygon","coordinates":[[[-71.1143006069999,-33.4718290431315],[-71.1148060099999,-33.4719118831315],[-71.1152226099999,-33.4698983931315],[-71.1147274439999,-33.4698280011315],[-71.1143006069999,-33.4718290431315]]]}},{"type":"Feature","properties":{"id":"13504023098005","commune":"María Pinto","code":"13504","gse":"C3","quintil":"Q3","nse_score":732.6,"educ":10.8,"educ_score":520.0,"hacin":1.286,"hacin_class":"Hacinamiento Leve","hacin_score":790.3,"auto_score":0.0,"n_per":45,"n_hog":16,"source_year":2024},"geometry":{"type":"Polygon","coordinates":[[[-71.114794979,-33.4719651931315],[-71.1142873119999,-33.4718819811315],[-71.1140157709999,-33.4731643321315],[-71.1144907849999,-33.4733747431315],[-71.114794979,-33.4719651931315]]]}},{"type":"Feature","properties":{"id":"13504023100001","commune":"María Pinto","code":"13504","gse":"D","quintil":"Q1","nse_score":667.7,"educ":10.8,"educ_score":520.0,"hacin":1.336,"hacin_class":"Hacinamiento Leve","hacin_score":779.6,"auto_score":112.9,"n_per":350,"n_hog":124,"source_year":2024},"geometry":{"type":"Polygon","coordinates":[[[-71.0960510429999,-33.4619300301316],[-71.0994420389999,-33.4632835721316],[-71.0997388549999,-33.4625337651316],[-71.0994807979999,-33.4633012451316],[-71.0999990939999,-33.4635375661316],[-71.1000532159999,-33.4633913781316],[-71.1001400739999,-33.4633425151316],[-71.1000374349999,-33.4635550481316],[-71.1005738559999,-33.4638225751316],[-71.1007923509999,-33.4631444351316],[-71.1014311109999,-33.4634159991316],[-71.101209234,-33.4641224961316],[-71.1016331859999,-33.4643274061316],[-71.1019742659999,-33.4633871031316],[-71.1016877659999,-33.4643482041316],[-71.1023962669999,-33.4646755661316],[-71.1025406159999,-33.4648642381316],[-71.1023424879999,-33.4670259291315],[-71.1034237719999,-33.4673810951315],[-71.1035735769999,-33.4675737191315],[-71.1039341379999,-33.4654427611316],[-71.1035044929999,-33.4685579851315],[-71.1038566919999,-33.4687185581315],[-71.1060909539999,-33.4660377561316],[-71.1052381059999,-33.4656981241315],[-71.1042915539999,-33.4651738001316],[-71.1041784339999,-33.4649507011316],[-71.1052148279999,-33.4656073361316],[-71.1055624649999,-33.4648335081315],[-71.1047875609999,-33.4646267701316],[-71.1055775869999,-33.4647997291316],[-71.1059000229999,-33.4641226351316],[-71.1054674409999,-33.4639455071316],[-71.1059442709999,-33.4641238381315],[-71.105265072,-33.4656464051315],[-71.1061280949999,-33.4659931911315],[-71.1064898129999,-33.4655591801316],[-71.1062982269999,-33.4648230871316],[-71.1064384419999,-33.4639754861316],[-71.1062730809999,-33.4638072111316],[-71.1055098529999,-33.4636790991316],[-71.1039629209999,-33.4649717001315],[-71.1033868639999,-33.4650331041315],[-71.1026395219999,-33.4644379251315],[-71.1021598129999,-33.4629483571316],[-71.1018678739999,-33.4628566111316],[-71.1015348779999,-33.4625284521316],[-71.1011135289999,-33.4623715351316],[-71.099133348,-33.4621776171316],[-71.0986608959999,-33.4619125401316],[-71.0961492269999,-33.4613902651316],[-71.0960510429999,-33.4619300301316]]]}},{"type":"Feature","properties":{"id":"13504023100002","commune":"María Pinto","code":"13504","gse":"E","quintil":"Q1","nse_score":603.4,"educ":9.0,"educ_score":400.0,"hacin":1.5,"hacin_class":"Hacinamiento Medio","hacin_score":744.7,"auto_score":0.0,"n_per":12,"n_hog":6,"source_year":2024},"geometry":{"type":"Polygon","coordinates":[[[-71.096769676,-33.4628791481316],[-71.0970800919999,-33.4623624311316],[-71.0960425689999,-33.4620029431316],[-71.096003004,-33.4627572501316],[-71.096769676,-33.4628791481316]]]}},{"type":"Feature","properties":{"id":"13504023100003","commune":"María Pinto","code":"13504","gse":"E","quintil":"Q1","nse_score":638.3,"educ":9.0,"educ_score":400.0,"hacin":1.267,"hacin_class":"Hacinamiento Leve","hacin_score":794.3,"auto_score":300.0,"n_per":19,"n_hog":5,"source_year":2024},"geometry":{"type":"Polygon","coordinates":[[[-71.1006147379999,-33.4638348841316],[-71.1011703379999,-33.4641046811315],[-71.1013806569999,-33.4634349851316],[-71.1008186649999,-33.4631960591316],[-71.1006147379999,-33.4638348841316]]]}},{"type":"Feature","properties":{"id":"13504023100004","commune":"María Pinto","code":"13504","gse":"C3","quintil":"Q2","nse_score":704.8,"educ":11.3,"educ_score":553.3,"hacin":1.365,"hacin_class":"Hacinamiento Leve","hacin_score":773.4,"auto_score":280.3,"n_per":172,"n_hog":67,"source_year":2024},"geometry":{"type":"Polygon","coordinates":[[[-71.1003106429999,-33.4699391601315],[-71.1007180229999,-33.4691259671315],[-71.1011045139999,-33.4688183591315],[-71.1010003399999,-33.4687060501315],[-71.1009588979999,-33.4684387521315],[-71.1011407389999,-33.4687986281315],[-71.101322895,-33.4687119571315],[-71.1014043869999,-33.4683404311315],[-71.1013638489999,-33.4686997381315],[-71.1025051499999,-33.4684263371315],[-71.1034216809999,-33.4685315271315],[-71.1035068969999,-33.4676593871315],[-71.1034182699999,-33.4674758331315],[-71.1022449869999,-33.4670231791316],[-71.1018542039999,-33.4681535131315],[-71.1018308269999,-33.4677901421315],[-71.1022101839999,-33.4669578771315],[-71.1024548269999,-33.4648506391316],[-71.1014197819999,-33.4643091621316],[-71.1017012029999,-33.4648760241315],[-71.1015601529999,-33.4666976151315],[-71.1010732339999,-33.4680479031315],[-71.1003911699999,-33.4680952541315],[-71.1002107489999,-33.4685814441315],[-71.0995412589999,-33.4688552311315],[-71.0987284419999,-33.4687202101315],[-71.0984565859999,-33.4694426271315],[-71.0991753419999,-33.4696461421315],[-71.0993800089999,-33.4693091001315],[-71.0992213529999,-33.4696967401315],[-71.0985235409999,-33.4695109331315],[-71.0981639949999,-33.4702914491315],[-71.0992127519999,-33.4706399201315],[-71.0997178249999,-33.4706806491315],[-71.1000627829999,-33.4704632301315],[-71.1002881229999,-33.4699892601315],[-71.0995189839999,-33.4697464171315],[-71.0996445509999,-33.4694937761315],[-71.099596662,-33.4697212421315],[-71.1003106429999,-33.4699391601315]]]}},{"type":"Feature","properties":{"id":"13504023100005","commune":"María Pinto","code":"13504","gse":"C3","quintil":"Q3","nse_score":738.1,"educ":11.8,"educ_score":586.7,"hacin":1.305,"hacin_class":"Hacinamiento Leve","hacin_score":786.2,"auto_score":81.1,"n_per":107,"n_hog":37,"source_year":2024},"geometry":{"type":"Polygon","coordinates":[[[-71.1074251699999,-33.4702718531315],[-71.1077124429999,-33.4690568651315],[-71.1045504379999,-33.4679806431315],[-71.1039147749999,-33.4687433301315],[-71.1044329029999,-33.4689643071315],[-71.1045975939999,-33.4686852551315],[-71.1044712569999,-33.4689806641315],[-71.1049658709999,-33.4691933571315],[-71.1053295429999,-33.4685913711315],[-71.1050663659999,-33.4683508401315],[-71.1053500899999,-33.4685573581315],[-71.1055386719999,-33.4683649481315],[-71.1050230619999,-33.4692184391315],[-71.105752977,-33.4695385421315],[-71.1062959829999,-33.4688168121315],[-71.1057912189999,-33.4695553121315],[-71.1061372459999,-33.4697070601315],[-71.106722412,-33.4689015051315],[-71.1061944339999,-33.4697321391315],[-71.1074251699999,-33.4702718531315]]]}},{"type":"Feature","properties":{"id":"13504023100006","commune":"María Pinto","code":"13504","gse":"C3","quintil":"Q2","nse_score":714.5,"educ":11.7,"educ_score":580.0,"hacin":1.571,"hacin_class":"Hacinamiento Medio","hacin_score":729.5,"auto_score":590.9,"n_per":88,"n_hog":23,"source_year":2024},"geometry":{"type":"Polygon","coordinates":[[[-71.1060849519999,-33.4705671451315],[-71.1049904849999,-33.4702436041315],[-71.1045060739999,-33.4714742881315],[-71.1050265539999,-33.4716165931315],[-71.1063213439999,-33.4715129051315],[-71.1061476849999,-33.4709354091315],[-71.1066436599999,-33.4700105401315],[-71.1053120649999,-33.4694265831315],[-71.1050107519999,-33.4701921131315],[-71.1060849519999,-33.4705671451315]]]}},{"type":"Feature","properties":{"id":"13504023100007","commune":"María Pinto","code":"13504","gse":"C3","quintil":"Q3","nse_score":744.5,"educ":12.1,"educ_score":606.7,"hacin":1.4,"hacin_class":"Hacinamiento Leve","hacin_score":766.0,"auto_score":360.0,"n_per":77,"n_hog":25,"source_year":2024},"geometry":{"type":"Polygon","coordinates":[[[-71.106213641,-33.4709420371315],[-71.1064061709999,-33.4715725151315],[-71.1098738339999,-33.4731144851315],[-71.1103769869999,-33.4716476311315],[-71.1091754739999,-33.4711207761315],[-71.1086579739999,-33.4720381851315],[-71.1091372399999,-33.4711040111315],[-71.1085534359999,-33.4708480151315],[-71.1082739979999,-33.4713991551315],[-71.1084729799999,-33.4715012631315],[-71.1083062749999,-33.4714804391315],[-71.1082447539999,-33.4713416371315],[-71.1085153019999,-33.4708312921315],[-71.1067009459999,-33.4700356621315],[-71.106213641,-33.4709420371315]]]}},{"type":"Feature","properties":{"id":"13504023100008","commune":"María Pinto","code":"13504","gse":"C2","quintil":"Q4","nse_score":802.4,"educ":14.4,"educ_score":760.0,"hacin":1.5,"hacin_class":"Hacinamiento Medio","hacin_score":744.7,"auto_score":500.0,"n_per":9,"n_hog":4,"source_year":2024},"geometry":{"type":"Polygon","coordinates":[[[-71.1069585549999,-33.4733813631314],[-71.1076659569999,-33.4736611111315],[-71.1074578949999,-33.4730634221315],[-71.1080775309999,-33.4732580621315],[-71.1081416589999,-33.4724219691314],[-71.1064206949999,-33.4716200751314],[-71.1069585549999,-33.4733813631314]]]}}]}