{"type":"FeatureCollection","features":[{"type":"Feature","properties":{"id":"2302041001025","commune":"María Elena","code":"02302","gse":"E","quintil":"Q1","nse_score":616.8,"educ":12.2,"educ_score":613.3,"hacin":2.0,"hacin_class":"Hacinamiento Medio","hacin_score":638.3,"auto_score":0.0,"n_per":6,"n_hog":0,"source_year":2024},"geometry":{"type":"Polygon","coordinates":[[[-69.6644742839999,-22.3402613463359],[-69.6638078619999,-22.3401451943359],[-69.6628679099999,-22.3407528583359],[-69.6627032879999,-22.3413027843359],[-69.6642936809999,-22.3412901283359],[-69.6649532609999,-22.3411296033359],[-69.6653737569999,-22.3408664403359],[-69.6644742839999,-22.3402613463359]]]}},{"type":"Feature","properties":{"id":"2302041001033","commune":"María Elena","code":"02302","gse":"D","quintil":"Q1","nse_score":664.6,"educ":12.5,"educ_score":633.3,"hacin":1.429,"hacin_class":"Hacinamiento Leve","hacin_score":759.9,"auto_score":166.7,"n_per":20,"n_hog":11,"source_year":2024},"geometry":{"type":"Polygon","coordinates":[[[-69.6617057959999,-22.3415112053359],[-69.6618081639999,-22.3416378923359],[-69.6624207129999,-22.3417576153359],[-69.6624303249999,-22.3416311263359],[-69.6619434659999,-22.3415489043359],[-69.6624401159999,-22.3415960553359],[-69.662488289,-22.3414261613359],[-69.6619947619999,-22.3413195023359],[-69.6617057959999,-22.3415112053359]]]}},{"type":"Feature","properties":{"id":"2302041001034","commune":"María Elena","code":"02302","gse":"C2","quintil":"Q4","nse_score":767.5,"educ":12.8,"educ_score":653.3,"hacin":1.2,"hacin_class":"Hacinamiento Leve","hacin_score":808.5,"auto_score":181.8,"n_per":36,"n_hog":10,"source_year":2024},"geometry":{"type":"Polygon","coordinates":[[[-69.6632677509999,-22.3414190883359],[-69.6626899589999,-22.3414002233359],[-69.6625900109999,-22.3417858313358],[-69.6632853669999,-22.3419201183359],[-69.6634060599999,-22.3416091343359],[-69.6632677509999,-22.3414190883359]]]}},{"type":"Feature","properties":{"id":"2302041001037","commune":"María Elena","code":"02302","gse":"C2","quintil":"Q4","nse_score":760.0,"educ":12.7,"educ_score":646.7,"hacin":1.323,"hacin_class":"Hacinamiento Leve","hacin_score":782.2,"auto_score":41.7,"n_per":45,"n_hog":12,"source_year":2024},"geometry":{"type":"Polygon","coordinates":[[[-69.6610816079999,-22.3419090703359],[-69.6623101089999,-22.3421283613359],[-69.6624098909999,-22.3418102363359],[-69.6617843519999,-22.3416746663359],[-69.6616541019999,-22.3415250573359],[-69.6610816079999,-22.3419090703359]]]}},{"type":"Feature","properties":{"id":"2302041001038","commune":"María Elena","code":"02302","gse":"C3","quintil":"Q3","nse_score":746.9,"educ":12.1,"educ_score":606.7,"hacin":1.516,"hacin_class":"Hacinamiento Medio","hacin_score":741.2,"auto_score":45.5,"n_per":47,"n_hog":14,"source_year":2024},"geometry":{"type":"Polygon","coordinates":[[[-69.6643272179999,-22.3416868443359],[-69.6637890259999,-22.3418893283358],[-69.6639300919999,-22.3423219053359],[-69.6645726879999,-22.3430679823358],[-69.6651700309999,-22.3426284973359],[-69.6647953959999,-22.3427752073358],[-69.6644289449999,-22.3425177133359],[-69.6640835489999,-22.3422563373358],[-69.6642793779999,-22.3420016853359],[-69.6651946559999,-22.3425995783358],[-69.6654297829999,-22.3424202843359],[-69.6643272179999,-22.3416868443359]]]}},{"type":"Feature","properties":{"id":"2302041001039","commune":"María Elena","code":"02302","gse":"C2","quintil":"Q4","nse_score":770.0,"educ":14.3,"educ_score":753.3,"hacin":1.417,"hacin_class":"Hacinamiento Leve","hacin_score":762.4,"auto_score":400.0,"n_per":17,"n_hog":5,"source_year":2024},"geometry":{"type":"Polygon","coordinates":[[[-69.6660441499999,-22.3429419903358],[-69.6663059229999,-22.3427708993359],[-69.6664670119999,-22.3424405043359],[-69.6659327489999,-22.3416939463359],[-69.6653108349999,-22.3422590713359],[-69.6660441499999,-22.3429419903358]]]}},{"type":"Feature","properties":{"id":"2302041001041","commune":"María Elena","code":"02302","gse":"ABC1","quintil":"Q5","nse_score":833.7,"educ":13.9,"educ_score":726.7,"hacin":1.036,"hacin_class":"Hacinamiento Leve","hacin_score":843.5,"auto_score":250.0,"n_per":29,"n_hog":11,"source_year":2024},"geometry":{"type":"Polygon","coordinates":[[[-69.6625270239999,-22.3421636093359],[-69.6631866999999,-22.3422888283359],[-69.6632757579999,-22.3419620743358],[-69.6625703039999,-22.3418486963359],[-69.6625270239999,-22.3421636093359]]]}},{"type":"Feature","properties":{"id":"2302041001042","commune":"María Elena","code":"02302","gse":"C3","quintil":"Q2","nse_score":728.3,"educ":11.7,"educ_score":580.0,"hacin":1.233,"hacin_class":"Hacinamiento Leve","hacin_score":801.4,"auto_score":88.2,"n_per":111,"n_hog":33,"source_year":2024},"geometry":{"type":"Polygon","coordinates":[[[-69.6606137179999,-22.3426474103358],[-69.6610953349999,-22.3432962383358],[-69.6617968219999,-22.3428557793358],[-69.6614026639999,-22.3425908023359],[-69.6611216499999,-22.3426162503358],[-69.6614207359999,-22.3425517023358],[-69.661510259,-22.3420345163359],[-69.6610151199999,-22.3419568593359],[-69.6605451659999,-22.3422987163359],[-69.6606137179999,-22.3426474103358]]]}},{"type":"Feature","properties":{"id":"2302041001043","commune":"María Elena","code":"02302","gse":"C2","quintil":"Q4","nse_score":785.0,"educ":13.8,"educ_score":720.0,"hacin":1.365,"hacin_class":"Hacinamiento Leve","hacin_score":773.3,"auto_score":225.0,"n_per":71,"n_hog":20,"source_year":2024},"geometry":{"type":"Polygon","coordinates":[[[-69.6650151249999,-22.3425434023358],[-69.6642820539999,-22.3420539803359],[-69.6641294589999,-22.3422309443359],[-69.6648096719999,-22.3427343163359],[-69.6650151249999,-22.3425434023358]]]}},{"type":"Feature","properties":{"id":"2302041001044","commune":"María Elena","code":"02302","gse":"C3","quintil":"Q3","nse_score":744.7,"educ":12.1,"educ_score":606.7,"hacin":1.051,"hacin_class":"Hacinamiento Leve","hacin_score":840.2,"auto_score":71.4,"n_per":41,"n_hog":14,"source_year":2024},"geometry":{"type":"Polygon","coordinates":[[[-69.6622359059999,-22.3424344573359],[-69.6623221289999,-22.3421854953359],[-69.6615799369999,-22.3420657593358],[-69.6615423899999,-22.3422993453359],[-69.6622359059999,-22.3424344573359]]]}},{"type":"Feature","properties":{"id":"2302041001046","commune":"María Elena","code":"02302","gse":"C3","quintil":"Q2","nse_score":717.8,"educ":12.9,"educ_score":660.0,"hacin":1.286,"hacin_class":"Hacinamiento Leve","hacin_score":790.3,"auto_score":27.8,"n_per":54,"n_hog":15,"source_year":2024},"geometry":{"type":"Polygon","coordinates":[[[-69.6632409099999,-22.3423552753358],[-69.6625291279999,-22.3422183453359],[-69.6624456369999,-22.3424698253359],[-69.6630183009999,-22.3425739903359],[-69.6632091249999,-22.3428004083359],[-69.6634598249999,-22.3426487893359],[-69.6632409099999,-22.3423552753358]]]}},{"type":"Feature","properties":{"id":"2302041001048","commune":"María Elena","code":"02302","gse":"C3","quintil":"Q3","nse_score":734.6,"educ":12.4,"educ_score":626.7,"hacin":1.0,"hacin_class":"Hacinamiento Leve","hacin_score":851.1,"auto_score":0.0,"n_per":16,"n_hog":6,"source_year":2024},"geometry":{"type":"Polygon","coordinates":[[[-69.6614711709999,-22.3425795923358],[-69.6622010919999,-22.3427325323359],[-69.6622650809999,-22.3425048913358],[-69.6615400359999,-22.3423561773359],[-69.6614711709999,-22.3425795923358]]]}},{"type":"Feature","properties":{"id":"2302041001050","commune":"María Elena","code":"02302","gse":"C3","quintil":"Q3","nse_score":730.8,"educ":11.9,"educ_score":593.3,"hacin":1.607,"hacin_class":"Hacinamiento Medio","hacin_score":721.9,"auto_score":38.5,"n_per":45,"n_hog":13,"source_year":2024},"geometry":{"type":"Polygon","coordinates":[[[-69.6657856829999,-22.3427254303358],[-69.6654615509999,-22.3424436443359],[-69.6646076559999,-22.3430974883359],[-69.6648013989999,-22.3433447603358],[-69.6657856829999,-22.3427254303358]]]}},{"type":"Feature","properties":{"id":"2302041001051","commune":"María Elena","code":"02302","gse":"C3","quintil":"Q3","nse_score":733.2,"educ":13.9,"educ_score":726.7,"hacin":1.2,"hacin_class":"Hacinamiento Leve","hacin_score":808.5,"auto_score":0.0,"n_per":24,"n_hog":7,"source_year":2024},"geometry":{"type":"Polygon","coordinates":[[[-69.6624289,-22.3425449643359],[-69.6623939829999,-22.3427799843358],[-69.6629139659999,-22.3429766903358],[-69.6631691509999,-22.3428283963359],[-69.6630020129999,-22.3426207613358],[-69.6624289,-22.3425449643359]]]}},{"type":"Feature","properties":{"id":"2302041001052","commune":"María Elena","code":"02302","gse":"C2","quintil":"Q3","nse_score":753.8,"educ":12.8,"educ_score":653.3,"hacin":1.357,"hacin_class":"Hacinamiento Leve","hacin_score":775.1,"auto_score":400.0,"n_per":19,"n_hog":5,"source_year":2024},"geometry":{"type":"Polygon","coordinates":[[[-69.6602426659999,-22.3429785653359],[-69.6606719899999,-22.3435554273359],[-69.6610370309999,-22.3433088523358],[-69.6605896469999,-22.3426913223358],[-69.6602195909999,-22.3425534403359],[-69.6602426659999,-22.3429785653359]]]}},{"type":"Feature","properties":{"id":"2302041001053","commune":"María Elena","code":"02302","gse":"E","quintil":"Q1","nse_score":640.4,"educ":10.8,"educ_score":520.0,"hacin":1.583,"hacin_class":"Hacinamiento Medio","hacin_score":727.0,"auto_score":0.0,"n_per":19,"n_hog":6,"source_year":2024},"geometry":{"type":"Polygon","coordinates":[[[-69.6637054599999,-22.3428602673358],[-69.6638941859999,-22.3431031393358],[-69.6643284609999,-22.3428422163359],[-69.6641319939999,-22.3426141123358],[-69.6637054599999,-22.3428602673358]]]}},{"type":"Feature","properties":{"id":"2302041001055","commune":"María Elena","code":"02302","gse":"D","quintil":"Q2","nse_score":704.7,"educ":13.2,"educ_score":680.0,"hacin":2.0,"hacin_class":"Hacinamiento Medio","hacin_score":638.3,"auto_score":0.0,"n_per":46,"n_hog":16,"source_year":2024},"geometry":{"type":"Polygon","coordinates":[[[-69.6629451509999,-22.3430202863359],[-69.6633162719999,-22.3435672973358],[-69.6638755809999,-22.3432084433358],[-69.6634826609999,-22.3426929613359],[-69.6632149099999,-22.3428533223358],[-69.6634107289999,-22.3431501833358],[-69.6631862519999,-22.3428716883358],[-69.6629451509999,-22.3430202863359]]]}},{"type":"Feature","properties":{"id":"2302041001057","commune":"María Elena","code":"02302","gse":"D","quintil":"Q2","nse_score":711.8,"educ":12.5,"educ_score":633.3,"hacin":1.412,"hacin_class":"Hacinamiento Leve","hacin_score":763.5,"auto_score":88.2,"n_per":48,"n_hog":17,"source_year":2024},"geometry":{"type":"Polygon","coordinates":[[[-69.6649897579999,-22.3436376623358],[-69.6660001849999,-22.3429883343358],[-69.6658130309999,-22.3427585613358],[-69.6648154239999,-22.3433740633358],[-69.6649897579999,-22.3436376623358]]]}},{"type":"Feature","properties":{"id":"2302041001058","commune":"María Elena","code":"02302","gse":"D","quintil":"Q2","nse_score":698.3,"educ":12.2,"educ_score":613.3,"hacin":1.674,"hacin_class":"Hacinamiento Medio","hacin_score":707.6,"auto_score":129.6,"n_per":72,"n_hog":27,"source_year":2024},"geometry":{"type":"Polygon","coordinates":[[[-69.6622036609999,-22.3428240343358],[-69.6620276299999,-22.3427892513359],[-69.6615049929999,-22.3431206663358],[-69.6617659429999,-22.3434735433358],[-69.6616527289999,-22.3435388673358],[-69.6617264609999,-22.3437087623358],[-69.6616184769999,-22.3435446993358],[-69.6617062559999,-22.3434604173358],[-69.6614642499999,-22.3431503733359],[-69.6611487629999,-22.3433616053358],[-69.6616723109999,-22.3441076433358],[-69.6619534949999,-22.3439737893358],[-69.6622036609999,-22.3428240343358]]]}},{"type":"Feature","properties":{"id":"2302041001060","commune":"María Elena","code":"02302","gse":"D","quintil":"Q1","nse_score":686.2,"educ":13.1,"educ_score":673.3,"hacin":2.125,"hacin_class":"Hacinamiento Medio","hacin_score":611.7,"auto_score":0.0,"n_per":17,"n_hog":6,"source_year":2024},"geometry":{"type":"Polygon","coordinates":[[[-69.6627162519999,-22.3428950213359],[-69.6623741369999,-22.3428341773358],[-69.6622684939999,-22.3434330963358],[-69.6625790029999,-22.3434634443358],[-69.6627162519999,-22.3428950213359]]]}},{"type":"Feature","properties":{"id":"2302041001061","commune":"María Elena","code":"02302","gse":"C3","quintil":"Q2","nse_score":729.4,"educ":12.0,"educ_score":600.0,"hacin":1.25,"hacin_class":"Hacinamiento Leve","hacin_score":797.9,"auto_score":0.0,"n_per":35,"n_hog":12,"source_year":2024},"geometry":{"type":"Polygon","coordinates":[[[-69.6597400399999,-22.3429572983358],[-69.6602839519999,-22.3438060413358],[-69.6606362659999,-22.3435787893358],[-69.660117565,-22.3429119543358],[-69.6598983309999,-22.3428381383358],[-69.6597400399999,-22.3429572983358]]]}},{"type":"Feature","properties":{"id":"2302041001062","commune":"María Elena","code":"02302","gse":"C3","quintil":"Q2","nse_score":719.8,"educ":12.8,"educ_score":653.3,"hacin":1.846,"hacin_class":"Hacinamiento Medio","hacin_score":671.0,"auto_score":0.0,"n_per":24,"n_hog":7,"source_year":2024},"geometry":{"type":"Polygon","coordinates":[[[-69.6639165529999,-22.3431327163358],[-69.6641090639999,-22.3433991833358],[-69.6645455689999,-22.3431312583358],[-69.664352876,-22.3428705633359],[-69.6639165529999,-22.3431327163358]]]}},{"type":"Feature","properties":{"id":"2302041001066","commune":"María Elena","code":"02302","gse":"C3","quintil":"Q2","nse_score":725.6,"educ":11.8,"educ_score":586.7,"hacin":1.786,"hacin_class":"Hacinamiento Medio","hacin_score":683.9,"auto_score":142.9,"n_per":25,"n_hog":8,"source_year":2024},"geometry":{"type":"Polygon","coordinates":[[[-69.6641346749999,-22.3434345803358],[-69.6642908819999,-22.3436508403358],[-69.6647238889999,-22.3433823883358],[-69.6645671719999,-22.3431612523359],[-69.6641346749999,-22.3434345803358]]]}},{"type":"Feature","properties":{"id":"2302041001067","commune":"María Elena","code":"02302","gse":"D","quintil":"Q2","nse_score":710.0,"educ":12.3,"educ_score":620.0,"hacin":1.679,"hacin_class":"Hacinamiento Medio","hacin_score":706.7,"auto_score":125.0,"n_per":47,"n_hog":20,"source_year":2024},"geometry":{"type":"Polygon","coordinates":[[[-69.6632090509999,-22.3436470523358],[-69.6629794749999,-22.3432761623358],[-69.6625544589999,-22.3435097973359],[-69.6622400659999,-22.3434795553358],[-69.6620209229999,-22.3443713603358],[-69.6632090509999,-22.3436470523358]]]}},{"type":"Feature","properties":{"id":"2302041001068","commune":"María Elena","code":"02302","gse":"D","quintil":"Q1","nse_score":675.0,"educ":11.6,"educ_score":573.3,"hacin":1.739,"hacin_class":"Hacinamiento Medio","hacin_score":693.8,"auto_score":0.0,"n_per":40,"n_hog":16,"source_year":2024},"geometry":{"type":"Polygon","coordinates":[[[-69.6639394499999,-22.3433045723359],[-69.6633487559999,-22.3436802663358],[-69.6635515679999,-22.3439770073358],[-69.6641771369999,-22.3436036993358],[-69.6639394499999,-22.3433045723359]]]}},{"type":"Feature","properties":{"id":"2302041001071","commune":"María Elena","code":"02302","gse":"D","quintil":"Q2","nse_score":700.5,"educ":11.8,"educ_score":586.7,"hacin":1.357,"hacin_class":"Hacinamiento Leve","hacin_score":775.1,"auto_score":0.0,"n_per":19,"n_hog":6,"source_year":2024},"geometry":{"type":"Polygon","coordinates":[[[-69.6649299309999,-22.3436817803358],[-69.6647447709999,-22.3434240383359],[-69.6643158109999,-22.3436857893358],[-69.6644998309999,-22.3439509883358],[-69.6649299309999,-22.3436817803358]]]}},{"type":"Feature","properties":{"id":"2302041001073","commune":"María Elena","code":"02302","gse":"D","quintil":"Q1","nse_score":685.9,"educ":11.7,"educ_score":580.0,"hacin":1.61,"hacin_class":"Hacinamiento Medio","hacin_score":721.3,"auto_score":0.0,"n_per":66,"n_hog":17,"source_year":2024},"geometry":{"type":"Polygon","coordinates":[[[-69.6595152049999,-22.3442230033358],[-69.6589375169999,-22.3434980803358],[-69.6584377869999,-22.3438293023358],[-69.6583479259999,-22.3440909243358],[-69.6594943219999,-22.3443568043358],[-69.6595152049999,-22.3442230033358]]]}},{"type":"Feature","properties":{"id":"2302041001074","commune":"María Elena","code":"02302","gse":"D","quintil":"Q1","nse_score":690.4,"educ":10.2,"educ_score":480.0,"hacin":1.5,"hacin_class":"Hacinamiento Medio","hacin_score":744.7,"auto_score":0.0,"n_per":18,"n_hog":4,"source_year":2024},"geometry":{"type":"Polygon","coordinates":[[[-69.6603430419999,-22.3438814883358],[-69.6604772119999,-22.3440735203358],[-69.6608382079999,-22.3438569283358],[-69.6606603149999,-22.3436127483358],[-69.6603430419999,-22.3438814883358]]]}},{"type":"Feature","properties":{"id":"2302041001076","commune":"María Elena","code":"02302","gse":"D","quintil":"Q1","nse_score":689.9,"educ":12.0,"educ_score":600.0,"hacin":1.731,"hacin_class":"Hacinamiento Medio","hacin_score":695.6,"auto_score":117.6,"n_per":45,"n_hog":16,"source_year":2024},"geometry":{"type":"Polygon","coordinates":[[[-69.6642232909999,-22.3436914083358],[-69.6636281899999,-22.3440593523358],[-69.6638459509999,-22.3443544063358],[-69.6644437749999,-22.3439871723358],[-69.6642232909999,-22.3436914083358]]]}},{"type":"Feature","properties":{"id":"2302041001077","commune":"María Elena","code":"02302","gse":"C3","quintil":"Q2","nse_score":726.3,"educ":12.9,"educ_score":660.0,"hacin":1.562,"hacin_class":"Hacinamiento Medio","hacin_score":731.4,"auto_score":0.0,"n_per":25,"n_hog":13,"source_year":2024},"geometry":{"type":"Polygon","coordinates":[[[-69.6632584969999,-22.3437326703358],[-69.6626575449999,-22.3440855623358],[-69.6629179109999,-22.3444483453358],[-69.6634850379999,-22.3440366323358],[-69.6632584969999,-22.3437326703358]]]}},{"type":"Feature","properties":{"id":"2302041001079","commune":"María Elena","code":"02302","gse":"D","quintil":"Q2","nse_score":711.6,"educ":11.4,"educ_score":560.0,"hacin":1.538,"hacin_class":"Hacinamiento Medio","hacin_score":736.5,"auto_score":0.0,"n_per":40,"n_hog":12,"source_year":2024},"geometry":{"type":"Polygon","coordinates":[[[-69.6598183279999,-22.3444227073358],[-69.6606030739999,-22.3444116423358],[-69.6602914219999,-22.3439132013358],[-69.6597324289999,-22.3442511203358],[-69.6598183279999,-22.3444227073358]]]}},{"type":"Feature","properties":{"id":"2302041001102","commune":"María Elena","code":"02302","gse":"E","quintil":"Q1","nse_score":510.1,"educ":10.0,"educ_score":466.7,"hacin":1.5,"hacin_class":"Hacinamiento Medio","hacin_score":744.7,"auto_score":0.0,"n_per":6,"n_hog":4,"source_year":2024},"geometry":{"type":"Polygon","coordinates":[[[-69.6600642949999,-22.3486460733357],[-69.6593436949999,-22.3476611703357],[-69.6598579779999,-22.3472625843358],[-69.6592715379999,-22.3462567153357],[-69.6588134819999,-22.3457576653358],[-69.6574669929999,-22.3466089583357],[-69.6571182139999,-22.3467647603357],[-69.6587836069999,-22.3457085913358],[-69.658824653,-22.3452035503358],[-69.6580972989999,-22.3449427413358],[-69.6572270659999,-22.3462236483357],[-69.656694979,-22.3475259263357],[-69.657518691,-22.3478274743357],[-69.6579728959999,-22.3482060243357],[-69.6600642949999,-22.3486460733357]]]}},{"type":"Feature","properties":{"id":"2302041001103","commune":"María Elena","code":"02302","gse":"D","quintil":"Q1","nse_score":650.6,"educ":11.4,"educ_score":560.0,"hacin":1.45,"hacin_class":"Hacinamiento Leve","hacin_score":755.3,"auto_score":0.0,"n_per":29,"n_hog":11,"source_year":2024},"geometry":{"type":"Polygon","coordinates":[[[-69.660420197,-22.3454140653358],[-69.6601252259999,-22.3452194153358],[-69.6590358179999,-22.3450732583358],[-69.659494848,-22.3459573313358],[-69.660420197,-22.3454140653358]]]}},{"type":"Feature","properties":{"id":"2302041001104","commune":"María Elena","code":"02302","gse":"E","quintil":"Q1","nse_score":579.7,"educ":9.5,"educ_score":433.3,"hacin":1.571,"hacin_class":"Hacinamiento Medio","hacin_score":729.5,"auto_score":187.5,"n_per":22,"n_hog":6,"source_year":2024},"geometry":{"type":"Polygon","coordinates":[[[-69.6590559879999,-22.3459760103358],[-69.6594609779999,-22.3459826733358],[-69.6589963309999,-22.3451100383358],[-69.658794553,-22.3455697493358],[-69.6590559879999,-22.3459760103358]]]}},{"type":"Feature","properties":{"id":"2302041001106","commune":"María Elena","code":"02302","gse":"D","quintil":"Q1","nse_score":672.4,"educ":11.6,"educ_score":573.3,"hacin":1.976,"hacin_class":"Hacinamiento Medio","hacin_score":643.5,"auto_score":150.0,"n_per":81,"n_hog":30,"source_year":2024},"geometry":{"type":"Polygon","coordinates":[[[-69.6603344959999,-22.3460118863358],[-69.6600767319999,-22.3456808103358],[-69.6595860919999,-22.3459690643357],[-69.6601223989999,-22.3467019563358],[-69.660617494,-22.3463956813357],[-69.6603755059999,-22.3460653033358],[-69.6602004519999,-22.3461666733357],[-69.6603344959999,-22.3460118863358]]]}},{"type":"Feature","properties":{"id":"2302041001109","commune":"María Elena","code":"02302","gse":"C2","quintil":"Q3","nse_score":752.5,"educ":13.6,"educ_score":706.7,"hacin":1.033,"hacin_class":"Hacinamiento Leve","hacin_score":844.0,"auto_score":208.3,"n_per":31,"n_hog":10,"source_year":2024},"geometry":{"type":"Polygon","coordinates":[[[-69.6602296539999,-22.3482901103357],[-69.660348741,-22.3480307483357],[-69.6599063119999,-22.3473597713357],[-69.6596746799999,-22.3475006483357],[-69.6602296539999,-22.3482901103357]]]}},{"type":"Feature","properties":{"id":"2302041001110","commune":"María Elena","code":"02302","gse":"C3","quintil":"Q3","nse_score":741.0,"educ":12.0,"educ_score":600.0,"hacin":1.368,"hacin_class":"Hacinamiento Leve","hacin_score":772.7,"auto_score":0.0,"n_per":52,"n_hog":14,"source_year":2024},"geometry":{"type":"Polygon","coordinates":[[[-69.6601860899999,-22.3483276823357],[-69.6596309299999,-22.3475316313357],[-69.6594108339999,-22.3476475273357],[-69.6600389239999,-22.3485671343357],[-69.6601860899999,-22.3483276823357]]]}},{"type":"Feature","properties":{"id":"2302041001087","commune":"María Elena","code":"02302","gse":"C3","quintil":"Q3","nse_score":738.2,"educ":13.7,"educ_score":713.3,"hacin":1.625,"hacin_class":"Hacinamiento Medio","hacin_score":718.1,"auto_score":62.5,"n_per":26,"n_hog":7,"source_year":2024},"geometry":{"type":"MultiPolygon","coordinates":[[[[-69.6587930279999,-22.3451411803358],[-69.6589293059999,-22.3447056563358],[-69.6582207499999,-22.3446370793358],[-69.6581194929999,-22.3449124783358],[-69.6587930279999,-22.3451411803358]]],[[[-69.6590978399999,-22.3445914163358],[-69.6594300699999,-22.3446536353358],[-69.6594910879999,-22.3443839103358],[-69.6591611209999,-22.3443153583358],[-69.6590978399999,-22.3445914163358]]],[[[-69.6587233159999,-22.3445194233358],[-69.6590099619999,-22.3445746453358],[-69.6590721919999,-22.3442968783358],[-69.6587869319999,-22.3442326703358],[-69.6587233159999,-22.3445194233358]]]]}},{"type":"Feature","properties":{"id":"2302041001014","commune":"María Elena","code":"02302","gse":"C3","quintil":"Q3","nse_score":744.8,"educ":14.1,"educ_score":740.0,"hacin":1.364,"hacin_class":"Hacinamiento Leve","hacin_score":773.7,"auto_score":83.3,"n_per":15,"n_hog":5,"source_year":2024},"geometry":{"type":"MultiPolygon","coordinates":[[[[-69.6678856919999,-22.3410986043359],[-69.6674166949999,-22.3410425063359],[-69.6662417469999,-22.3419904933359],[-69.6665517689999,-22.3424567783358],[-69.6669775229999,-22.3424823073359],[-69.6672374599999,-22.3427626383359],[-69.6676848199999,-22.3426055093359],[-69.6685793529999,-22.3438087593358],[-69.6704881229999,-22.3427108693358],[-69.6702978269999,-22.3422571533359],[-69.6697356159999,-22.3415224763359],[-69.6690030119999,-22.3410110313359],[-69.668448801,-22.3409272273359],[-69.6678856919999,-22.3410986043359]]],[[[-69.6667699719999,-22.3408022523359],[-69.6673009269999,-22.3409374693359],[-69.6673400559999,-22.3405894183359],[-69.6667496049999,-22.3398680653359],[-69.6666356249999,-22.3399959103359],[-69.6660814079999,-22.3402981103359],[-69.6667699719999,-22.3408022523359]]],[[[-69.6659833489999,-22.3413336303359],[-69.6661911399999,-22.3419089483359],[-69.6672385829999,-22.3410191203359],[-69.6664338029999,-22.3406635213359],[-69.6647914899999,-22.3393224313359],[-69.6642629149999,-22.3398490713359],[-69.6659833489999,-22.3413336303359]]],[[[-69.6660331209999,-22.3402522363359],[-69.6667077369999,-22.3398243333359],[-69.6661308749999,-22.3390798853359],[-69.6654259879999,-22.3385716513359],[-69.6648768789999,-22.3392071623359],[-69.6660331209999,-22.3402522363359]]]]}},{"type":"Feature","properties":{"id":"2302041001099","commune":"María Elena","code":"02302","gse":"E","quintil":"Q1","nse_score":638.1,"educ":12.4,"educ_score":626.7,"hacin":1.75,"hacin_class":"Hacinamiento Medio","hacin_score":691.5,"auto_score":300.0,"n_per":14,"n_hog":4,"source_year":2024},"geometry":{"type":"MultiPolygon","coordinates":[[[[-69.659871887,-22.3451424863358],[-69.660261939,-22.3452151543358],[-69.6602417969999,-22.3449179353358],[-69.6599303519999,-22.3448749393358],[-69.659871887,-22.3451424863358]]],[[[-69.6594320979999,-22.3450703713358],[-69.6598334989999,-22.3451364093358],[-69.6598920599999,-22.3448685913358],[-69.6594893859999,-22.3447963343358],[-69.6594320979999,-22.3450703713358]]]]}},{"type":"Feature","properties":{"id":"2302041001069","commune":"María Elena","code":"02302","gse":"C3","quintil":"Q3","nse_score":735.5,"educ":11.9,"educ_score":593.3,"hacin":1.111,"hacin_class":"Hacinamiento Leve","hacin_score":827.4,"auto_score":0.0,"n_per":10,"n_hog":4,"source_year":2024},"geometry":{"type":"MultiPolygon","coordinates":[[[[-69.6608245419999,-22.3445688413358],[-69.6612290699999,-22.3443904033358],[-69.6610613729999,-22.3441667793358],[-69.6607121169999,-22.3443841103358],[-69.6608245419999,-22.3445688413358]]],[[[-69.6606573309999,-22.3443237453358],[-69.6610383889999,-22.3441321833358],[-69.6608521879999,-22.3438972523358],[-69.6605276469999,-22.3441043643358],[-69.6606573309999,-22.3443237453358]]],[[[-69.6606960389999,-22.3435893863359],[-69.6608742249999,-22.3438339263358],[-69.6612406269999,-22.3435880773358],[-69.6610560829999,-22.3433538533358],[-69.6606960389999,-22.3435893863359]]]]}},{"type":"Feature","properties":{"id":"2302041001090","commune":"María Elena","code":"02302","gse":"D","quintil":"Q1","nse_score":668.8,"educ":11.9,"educ_score":593.3,"hacin":2.0,"hacin_class":"Hacinamiento Medio","hacin_score":638.3,"auto_score":100.0,"n_per":20,"n_hog":5,"source_year":2024},"geometry":{"type":"MultiPolygon","coordinates":[[[[-69.6599325559999,-22.3447450253358],[-69.6602573619999,-22.3448000723358],[-69.6603113149999,-22.3445439263358],[-69.6599882659999,-22.3444906783358],[-69.6599325559999,-22.3447450253358]]],[[[-69.659519772,-22.3446703703358],[-69.6598943609999,-22.3447384953358],[-69.6599503539999,-22.3444825223358],[-69.6595964139999,-22.3444064533358],[-69.659519772,-22.3446703703358]]]]}},{"type":"Feature","properties":{"id":"2302041001012","commune":"María Elena","code":"02302","gse":"C2","quintil":"Q3","nse_score":758.5,"educ":14.0,"educ_score":733.3,"hacin":0.846,"hacin_class":"Sin Hacinamiento","hacin_score":883.8,"auto_score":62.5,"n_per":11,"n_hog":7,"source_year":2024},"geometry":{"type":"MultiPolygon","coordinates":[[[[-69.6678639799999,-22.3410430123359],[-69.6683029419999,-22.3407843733359],[-69.6684198659999,-22.3401335513359],[-69.6677889529999,-22.3401537683359],[-69.667513218,-22.3403279003359],[-69.6673786859999,-22.3409527773359],[-69.6678639799999,-22.3410430123359]]],[[[-69.6672007099999,-22.3402434573359],[-69.6675167019999,-22.3401827143359],[-69.6680177039999,-22.3396570533359],[-69.6665720129999,-22.3383400133359],[-69.6659618969999,-22.338259773336],[-69.6654649999999,-22.338546016336],[-69.6661664259999,-22.3390614913359],[-69.6672007099999,-22.3402434573359]]]]}},{"type":"Feature","properties":{"id":"2302041001035","commune":"María Elena","code":"02302","gse":"C3","quintil":"Q3","nse_score":730.5,"educ":12.3,"educ_score":620.0,"hacin":1.429,"hacin_class":"Hacinamiento Leve","hacin_score":759.9,"auto_score":45.5,"n_per":30,"n_hog":11,"source_year":2024},"geometry":{"type":"MultiPolygon","coordinates":[[[[-69.6635409319999,-22.3426323773358],[-69.6636826419999,-22.3428309123359],[-69.6641075299999,-22.3425857083359],[-69.6639358139999,-22.3423863383358],[-69.6635409319999,-22.3426323773358]]],[[[-69.663895168,-22.3413973663359],[-69.6633151739999,-22.3414261203359],[-69.6634362789999,-22.3416130753359],[-69.6632332549999,-22.3422766233358],[-69.6635085499999,-22.3426026083358],[-69.6639153469999,-22.3423556483359],[-69.6638018889999,-22.3417756313359],[-69.6642900969999,-22.3416609793359],[-69.663895168,-22.3413973663359]]]]}},{"type":"Feature","properties":{"id":"2302041001004","commune":"María Elena","code":"02302","gse":"ABC1","quintil":"Q5","nse_score":831.9,"educ":16.1,"educ_score":873.3,"hacin":1.0,"hacin_class":"Hacinamiento Leve","hacin_score":851.1,"auto_score":454.5,"n_per":26,"n_hog":15,"source_year":2024},"geometry":{"type":"MultiPolygon","coordinates":[[[[-69.6683416809999,-22.3408032743359],[-69.6690397099999,-22.3409481853359],[-69.6697840059999,-22.3414677123359],[-69.6705215099999,-22.3426903843358],[-69.6708375809999,-22.3424964493359],[-69.6706055149999,-22.3416079223358],[-69.6691171079999,-22.3393206163359],[-69.6681454259999,-22.3396622173359],[-69.6684838299999,-22.3402289543359],[-69.6683416809999,-22.3408032743359]]],[[[-69.6665958789999,-22.3382943853359],[-69.6680816909999,-22.3396351983359],[-69.6690697019999,-22.3392558593359],[-69.6686407449999,-22.3386583313359],[-69.6682253419999,-22.3386832613359],[-69.6670785719999,-22.337880730336],[-69.6667206639999,-22.337886449336],[-69.6660522549999,-22.3382085413359],[-69.6665958789999,-22.3382943853359]]],[[[-69.6673751249999,-22.335288045336],[-69.6678618179999,-22.335900169336],[-69.6685740719999,-22.3375596353359],[-69.6694292809999,-22.337601393336],[-69.6691958459999,-22.337415921336],[-69.6681297369999,-22.335100302336],[-69.6682857469999,-22.334654424336],[-69.6677633109999,-22.3344238063361],[-69.6673751249999,-22.335288045336]]]]}},{"type":"Feature","properties":{"id":"2302041001083","commune":"María Elena","code":"02302","gse":"D","quintil":"Q1","nse_score":642.2,"educ":11.7,"educ_score":580.0,"hacin":2.0,"hacin_class":"Hacinamiento Medio","hacin_score":638.3,"auto_score":31.2,"n_per":34,"n_hog":14,"source_year":2024},"geometry":{"type":"MultiPolygon","coordinates":[[[[-69.6620014,-22.3445556383358],[-69.6624818189999,-22.3451947993358],[-69.6630447019999,-22.3448505693358],[-69.6628656949999,-22.3445771273358],[-69.6625325939999,-22.3447396523358],[-69.6628911549999,-22.3444761423358],[-69.6626251109999,-22.3441054473358],[-69.6620014,-22.3445556383358]]],[[[-69.6630843889999,-22.3448027083358],[-69.663793886,-22.3443927423358],[-69.6635733239999,-22.3441005903358],[-69.6629530279999,-22.3444806513358],[-69.6630843889999,-22.3448027083358]]]]}},{"type":"Feature","properties":{"id":"2302041002002","commune":"María Elena","code":"02302","gse":"C3","quintil":"Q2","nse_score":721.8,"educ":12.4,"educ_score":626.7,"hacin":1.0,"hacin_class":"Hacinamiento Leve","hacin_score":851.1,"auto_score":26.3,"n_per":36,"n_hog":18,"source_year":2024},"geometry":{"type":"Polygon","coordinates":[[[-69.6665275619999,-22.3425124353359],[-69.6660956869999,-22.3429972463358],[-69.666293719,-22.3433089093358],[-69.6671725009999,-22.3427641713359],[-69.6668869969999,-22.3424985793358],[-69.6665275619999,-22.3425124353359]]]}},{"type":"Feature","properties":{"id":"2302041002006","commune":"María Elena","code":"02302","gse":"C3","quintil":"Q2","nse_score":728.1,"educ":12.5,"educ_score":633.3,"hacin":1.4,"hacin_class":"Hacinamiento Leve","hacin_score":766.0,"auto_score":25.0,"n_per":56,"n_hog":20,"source_year":2024},"geometry":{"type":"Polygon","coordinates":[[[-69.6673445569999,-22.3430245373359],[-69.667194493,-22.3427939823358],[-69.6663288159999,-22.3433581793358],[-69.6665015949999,-22.3435666003358],[-69.6673445569999,-22.3430245373359]]]}},{"type":"Feature","properties":{"id":"2302041002007","commune":"María Elena","code":"02302","gse":"C3","quintil":"Q3","nse_score":730.8,"educ":12.5,"educ_score":633.3,"hacin":1.548,"hacin_class":"Hacinamiento Medio","hacin_score":734.5,"auto_score":71.4,"n_per":65,"n_hog":21,"source_year":2024},"geometry":{"type":"Polygon","coordinates":[[[-69.6662471579999,-22.3433403573358],[-69.6660082629999,-22.3430533433358],[-69.6650992859999,-22.3436418323358],[-69.6653178689999,-22.3439254983358],[-69.6662471579999,-22.3433403573358]]]}},{"type":"Feature","properties":{"id":"2302041002010","commune":"María Elena","code":"02302","gse":"D","quintil":"Q2","nse_score":707.4,"educ":13.7,"educ_score":713.3,"hacin":1.52,"hacin_class":"Hacinamiento Medio","hacin_score":740.4,"auto_score":115.4,"n_per":38,"n_hog":11,"source_year":2024},"geometry":{"type":"Polygon","coordinates":[[[-69.6685207189999,-22.3438691703358],[-69.6680559389999,-22.3432591933358],[-69.6677269689999,-22.3434713973358],[-69.6681635839999,-22.3440966003358],[-69.6685207189999,-22.3438691703358]]]}},{"type":"Feature","properties":{"id":"2302041002011","commune":"María Elena","code":"02302","gse":"E","quintil":"Q1","nse_score":627.8,"educ":11.4,"educ_score":560.0,"hacin":0.952,"hacin_class":"Sin Hacinamiento","hacin_score":861.2,"auto_score":90.9,"n_per":20,"n_hog":9,"source_year":2024},"geometry":{"type":"Polygon","coordinates":[[[-69.6668668969999,-22.3433769233358],[-69.6665130349999,-22.3436237363358],[-69.6668541859999,-22.3440732073358],[-69.6672004069999,-22.3438530743358],[-69.6668668969999,-22.3433769233358]]]}},{"type":"Feature","properties":{"id":"2302041002012","commune":"María Elena","code":"02302","gse":"D","quintil":"Q2","nse_score":712.6,"educ":12.3,"educ_score":620.0,"hacin":1.468,"hacin_class":"Hacinamiento Leve","hacin_score":751.5,"auto_score":65.2,"n_per":69,"n_hog":21,"source_year":2024},"geometry":{"type":"Polygon","coordinates":[[[-69.6662826289999,-22.3433864643358],[-69.6653419899999,-22.3439539453358],[-69.6654833409999,-22.3441699043358],[-69.6664224639999,-22.3436104683358],[-69.6662826289999,-22.3433864643358]]]}},{"type":"Feature","properties":{"id":"2302041002013","commune":"María Elena","code":"02302","gse":"D","quintil":"Q2","nse_score":701.7,"educ":11.9,"educ_score":593.3,"hacin":1.0,"hacin_class":"Hacinamiento Leve","hacin_score":851.1,"auto_score":90.9,"n_per":23,"n_hog":9,"source_year":2024},"geometry":{"type":"Polygon","coordinates":[[[-69.6677042569999,-22.3435963373358],[-69.6672700199999,-22.3438703133358],[-69.6674359119999,-22.3441205873358],[-69.6678853739999,-22.3438624473358],[-69.6677042569999,-22.3435963373358]]]}},{"type":"Feature","properties":{"id":"2302041002014","commune":"María Elena","code":"02302","gse":"C3","quintil":"Q2","nse_score":728.5,"educ":13.1,"educ_score":673.3,"hacin":1.542,"hacin_class":"Hacinamiento Medio","hacin_score":735.8,"auto_score":0.0,"n_per":37,"n_hog":12,"source_year":2024},"geometry":{"type":"Polygon","coordinates":[[[-69.6664544499999,-22.3436590283358],[-69.6661905519999,-22.3438530743358],[-69.6665395839999,-22.3442853493358],[-69.666806634,-22.3441005043358],[-69.6664544499999,-22.3436590283358]]]}},{"type":"Feature","properties":{"id":"2302041002015","commune":"María Elena","code":"02302","gse":"C3","quintil":"Q3","nse_score":737.7,"educ":12.6,"educ_score":640.0,"hacin":1.526,"hacin_class":"Hacinamiento Medio","hacin_score":739.1,"auto_score":50.0,"n_per":29,"n_hog":10,"source_year":2024},"geometry":{"type":"Polygon","coordinates":[[[-69.6650575469999,-22.3436662143358],[-69.6649025579999,-22.3437889873358],[-69.6651143559999,-22.3440958073358],[-69.6647740789999,-22.3443212403358],[-69.6649289539999,-22.3445222383358],[-69.6654654639999,-22.3442090033358],[-69.6650575469999,-22.3436662143358]]]}},{"type":"Feature","properties":{"id":"2302041002019","commune":"María Elena","code":"02302","gse":"C2","quintil":"Q3","nse_score":755.9,"educ":13.4,"educ_score":693.3,"hacin":0.92,"hacin_class":"Sin Hacinamiento","hacin_score":868.1,"auto_score":90.9,"n_per":23,"n_hog":10,"source_year":2024},"geometry":{"type":"Polygon","coordinates":[[[-69.6662053409999,-22.3444926033358],[-69.6664580269999,-22.3442889373358],[-69.6661252379999,-22.3438618353358],[-69.6658411199999,-22.3440518083358],[-69.6662053409999,-22.3444926033358]]]}},{"type":"Feature","properties":{"id":"2302041002020","commune":"María Elena","code":"02302","gse":"D","quintil":"Q1","nse_score":688.0,"educ":13.1,"educ_score":673.3,"hacin":1.238,"hacin_class":"Hacinamiento Leve","hacin_score":800.4,"auto_score":0.0,"n_per":26,"n_hog":11,"source_year":2024},"geometry":{"type":"Polygon","coordinates":[[[-69.6668996399999,-22.3441358043358],[-69.6673044819999,-22.3447041673358],[-69.6676270979999,-22.3445027403358],[-69.6672290739999,-22.3439387773358],[-69.6668996399999,-22.3441358043358]]]}},{"type":"Feature","properties":{"id":"2302041002022","commune":"María Elena","code":"02302","gse":"C1","quintil":"Q5","nse_score":813.7,"educ":14.8,"educ_score":786.7,"hacin":1.412,"hacin_class":"Hacinamiento Leve","hacin_score":763.5,"auto_score":300.0,"n_per":24,"n_hog":10,"source_year":2024},"geometry":{"type":"Polygon","coordinates":[[[-69.6690453399999,-22.3446106243358],[-69.6685427159999,-22.3439622933358],[-69.6682382089999,-22.3441747793358],[-69.6687363769999,-22.3448237413358],[-69.6690453399999,-22.3446106243358]]]}},{"type":"Feature","properties":{"id":"2302041002023","commune":"María Elena","code":"02302","gse":"C3","quintil":"Q2","nse_score":723.1,"educ":12.9,"educ_score":660.0,"hacin":1.954,"hacin_class":"Hacinamiento Medio","hacin_score":648.0,"auto_score":29.4,"n_per":43,"n_hog":17,"source_year":2024},"geometry":{"type":"Polygon","coordinates":[[[-69.6646983609999,-22.3443476593358],[-69.6644722149999,-22.3440457753358],[-69.6639015479999,-22.3444059423358],[-69.6641337639999,-22.3446977743358],[-69.6646983609999,-22.3443476593358]]]}},{"type":"Feature","properties":{"id":"2302041002024","commune":"María Elena","code":"02302","gse":"C3","quintil":"Q3","nse_score":747.5,"educ":12.3,"educ_score":620.0,"hacin":1.483,"hacin_class":"Hacinamiento Leve","hacin_score":748.3,"auto_score":0.0,"n_per":43,"n_hog":12,"source_year":2024},"geometry":{"type":"Polygon","coordinates":[[[-69.6658698699999,-22.3447071793358],[-69.6661404319999,-22.3445048853358],[-69.6657879049999,-22.3440727143358],[-69.6655097009999,-22.3442607653358],[-69.6658698699999,-22.3447071793358]]]}},{"type":"Feature","properties":{"id":"2302041002026","commune":"María Elena","code":"02302","gse":"C2","quintil":"Q3","nse_score":754.4,"educ":14.2,"educ_score":746.7,"hacin":1.429,"hacin_class":"Hacinamiento Leve","hacin_score":759.9,"auto_score":0.0,"n_per":50,"n_hog":15,"source_year":2024},"geometry":{"type":"Polygon","coordinates":[[[-69.6681509549999,-22.3442460093358],[-69.6674069419999,-22.3447260583358],[-69.6674162739999,-22.3447484233358],[-69.6676529519999,-22.3449559473358],[-69.6683376419999,-22.3445393783358],[-69.6681509549999,-22.3442460093358]]]}},{"type":"Feature","properties":{"id":"2302041002028","commune":"María Elena","code":"02302","gse":"C2","quintil":"Q3","nse_score":754.4,"educ":11.6,"educ_score":573.3,"hacin":1.278,"hacin_class":"Hacinamiento Leve","hacin_score":792.0,"auto_score":125.0,"n_per":23,"n_hog":8,"source_year":2024},"geometry":{"type":"Polygon","coordinates":[[[-69.6649649269999,-22.3445720473358],[-69.6651198679999,-22.3447869563358],[-69.6654935959999,-22.3445505443358],[-69.6653267689999,-22.3443393273358],[-69.6649649269999,-22.3445720473358]]]}},{"type":"Feature","properties":{"id":"2302041002029","commune":"María Elena","code":"02302","gse":"D","quintil":"Q1","nse_score":679.4,"educ":12.5,"educ_score":633.3,"hacin":1.85,"hacin_class":"Hacinamiento Medio","hacin_score":670.2,"auto_score":125.0,"n_per":37,"n_hog":13,"source_year":2024},"geometry":{"type":"Polygon","coordinates":[[[-69.6638444289999,-22.3444431243358],[-69.6631915139999,-22.3448665903358],[-69.6633866469999,-22.3451821533358],[-69.6640961829999,-22.3447760813358],[-69.6638444289999,-22.3444431243358]]]}},{"type":"Feature","properties":{"id":"2302041002030","commune":"María Elena","code":"02302","gse":"D","quintil":"Q1","nse_score":677.2,"educ":11.5,"educ_score":566.7,"hacin":1.911,"hacin_class":"Hacinamiento Medio","hacin_score":657.2,"auto_score":66.7,"n_per":86,"n_hog":29,"source_year":2024},"geometry":{"type":"Polygon","coordinates":[[[-69.6648290609999,-22.3444681753358],[-69.6645134959999,-22.3446623403358],[-69.664802817,-22.3450570123358],[-69.6647459469999,-22.3455154373358],[-69.665121741,-22.3455910433358],[-69.6652311399999,-22.3450491113358],[-69.6648290609999,-22.3444681753358]]]}},{"type":"Feature","properties":{"id":"2302041002031","commune":"María Elena","code":"02302","gse":"C1","quintil":"Q5","nse_score":801.4,"educ":14.4,"educ_score":760.0,"hacin":1.385,"hacin_class":"Hacinamiento Leve","hacin_score":769.2,"auto_score":0.0,"n_per":36,"n_hog":12,"source_year":2024},"geometry":{"type":"Polygon","coordinates":[[[-69.6686207899999,-22.3448795953358],[-69.6683629549999,-22.3445935663358],[-69.6676950459999,-22.3450469243358],[-69.6679238209999,-22.3453280143358],[-69.6686207899999,-22.3448795953358]]]}},{"type":"Feature","properties":{"id":"2302041002032","commune":"María Elena","code":"02302","gse":"D","quintil":"Q1","nse_score":685.9,"educ":13.2,"educ_score":680.0,"hacin":1.909,"hacin_class":"Hacinamiento Medio","hacin_score":657.6,"auto_score":0.0,"n_per":21,"n_hog":5,"source_year":2024},"geometry":{"type":"Polygon","coordinates":[[[-69.665148713,-22.3448269413358],[-69.665307159,-22.3450450043358],[-69.6656756129999,-22.3448227963358],[-69.6655318789999,-22.3445959173358],[-69.665148713,-22.3448269413358]]]}},{"type":"Feature","properties":{"id":"2302041002033","commune":"María Elena","code":"02302","gse":"E","quintil":"Q1","nse_score":610.8,"educ":12.2,"educ_score":613.3,"hacin":2.769,"hacin_class":"Hacinamiento Crítico","hacin_score":474.6,"auto_score":0.0,"n_per":36,"n_hog":11,"source_year":2024},"geometry":{"type":"Polygon","coordinates":[[[-69.6644836959999,-22.3446856793358],[-69.6642139119999,-22.3448477673358],[-69.6644040039999,-22.3451235103358],[-69.6643913879999,-22.3454327873358],[-69.6646863169999,-22.3455146883358],[-69.6647670219999,-22.3450651993358],[-69.6644836959999,-22.3446856793358]]]}},{"type":"Feature","properties":{"id":"2302041002034","commune":"María Elena","code":"02302","gse":"ABC1","quintil":"Q5","nse_score":826.9,"educ":16.2,"educ_score":880.0,"hacin":1.111,"hacin_class":"Hacinamiento Leve","hacin_score":827.4,"auto_score":33.3,"n_per":30,"n_hog":14,"source_year":2024},"geometry":{"type":"Polygon","coordinates":[[[-69.6681678699999,-22.3456963983358],[-69.6693138639999,-22.3449994113358],[-69.669125161,-22.3447114723358],[-69.6679856799999,-22.3453685923358],[-69.6681678699999,-22.3456963983358]]]}},{"type":"Feature","properties":{"id":"2302041002036","commune":"María Elena","code":"02302","gse":"C3","quintil":"Q2","nse_score":714.4,"educ":11.9,"educ_score":593.3,"hacin":1.765,"hacin_class":"Hacinamiento Medio","hacin_score":688.4,"auto_score":58.8,"n_per":60,"n_hog":17,"source_year":2024},"geometry":{"type":"Polygon","coordinates":[[[-69.6653021099999,-22.3451066353358],[-69.6652942629999,-22.3453357633358],[-69.6663162009999,-22.3455259693358],[-69.6657953909999,-22.3448105603358],[-69.6653021099999,-22.3451066353358]]]}},{"type":"Feature","properties":{"id":"2302041002038","commune":"María Elena","code":"02302","gse":"E","quintil":"Q1","nse_score":583.6,"educ":11.1,"educ_score":540.0,"hacin":2.375,"hacin_class":"Hacinamiento Medio","hacin_score":558.5,"auto_score":0.0,"n_per":19,"n_hog":6,"source_year":2024},"geometry":{"type":"Polygon","coordinates":[[[-69.6641430489999,-22.3448411463358],[-69.6638560749999,-22.3450568293358],[-69.6640174879999,-22.3453466933358],[-69.6643082659999,-22.3454135253358],[-69.6643589289999,-22.3451408593358],[-69.6641430489999,-22.3448411463358]]]}},{"type":"Feature","properties":{"id":"2302041002040","commune":"María Elena","code":"02302","gse":"D","quintil":"Q1","nse_score":669.4,"educ":12.1,"educ_score":606.7,"hacin":1.029,"hacin_class":"Hacinamiento Leve","hacin_score":844.8,"auto_score":0.0,"n_per":35,"n_hog":15,"source_year":2024},"geometry":{"type":"Polygon","coordinates":[[[-69.6683746559999,-22.3460178963357],[-69.6695412719999,-22.3454003833358],[-69.6693539569999,-22.3450778393358],[-69.6682379989999,-22.3457401033358],[-69.6683746559999,-22.3460178963357]]]}},{"type":"Feature","properties":{"id":"2302041002044","commune":"María Elena","code":"02302","gse":"C3","quintil":"Q3","nse_score":739.6,"educ":12.8,"educ_score":653.3,"hacin":1.565,"hacin_class":"Hacinamiento Medio","hacin_score":730.8,"auto_score":90.9,"n_per":72,"n_hog":21,"source_year":2024},"geometry":{"type":"Polygon","coordinates":[[[-69.6652541319999,-22.3453922083358],[-69.6652148489999,-22.3456477543358],[-69.6663711679999,-22.3458327103358],[-69.6663273179999,-22.3455766033358],[-69.6652541319999,-22.3453922083358]]]}},{"type":"Feature","properties":{"id":"2302041002045","commune":"María Elena","code":"02302","gse":"E","quintil":"Q1","nse_score":578.9,"educ":12.0,"educ_score":600.0,"hacin":2.583,"hacin_class":"Hacinamiento Crítico","hacin_score":514.2,"auto_score":76.9,"n_per":31,"n_hog":11,"source_year":2024},"geometry":{"type":"Polygon","coordinates":[[[-69.6638860669999,-22.3459149123358],[-69.6641896719999,-22.3457370583358],[-69.6642806719999,-22.3454924123358],[-69.6640013989999,-22.3454148733358],[-69.6636879009999,-22.3456156233358],[-69.6638860669999,-22.3459149123358]]]}},{"type":"Feature","properties":{"id":"2302041002047","commune":"María Elena","code":"02302","gse":"E","quintil":"Q1","nse_score":598.7,"educ":10.6,"educ_score":506.7,"hacin":2.259,"hacin_class":"Hacinamiento Medio","hacin_score":583.1,"auto_score":0.0,"n_per":61,"n_hog":16,"source_year":2024},"geometry":{"type":"Polygon","coordinates":[[[-69.6641650109999,-22.3463121573358],[-69.6645627539999,-22.3460805273358],[-69.6647044109999,-22.3455622223358],[-69.6643774499999,-22.3455038503358],[-69.6642903959999,-22.3457409813358],[-69.6639510049999,-22.3459700233358],[-69.6641650109999,-22.3463121573358]]]}},{"type":"Feature","properties":{"id":"2302041002048","commune":"María Elena","code":"02302","gse":"D","quintil":"Q1","nse_score":655.0,"educ":11.2,"educ_score":546.7,"hacin":1.69,"hacin_class":"Hacinamiento Medio","hacin_score":704.3,"auto_score":25.0,"n_per":49,"n_hog":19,"source_year":2024},"geometry":{"type":"Polygon","coordinates":[[[-69.6650922289999,-22.3456339843358],[-69.6647833349999,-22.3455972203358],[-69.6646690719999,-22.3460762973358],[-69.6642301229999,-22.3463629313358],[-69.664395882,-22.3466267603357],[-69.6649910319999,-22.3462468873358],[-69.6650922289999,-22.3456339843358]]]}},{"type":"Feature","properties":{"id":"2302041002049","commune":"María Elena","code":"02302","gse":"D","quintil":"Q1","nse_score":672.8,"educ":12.0,"educ_score":600.0,"hacin":1.8,"hacin_class":"Hacinamiento Medio","hacin_score":680.9,"auto_score":0.0,"n_per":45,"n_hog":20,"source_year":2024},"geometry":{"type":"Polygon","coordinates":[[[-69.6632483779999,-22.3462738163358],[-69.6638163069999,-22.3459488043358],[-69.6636352319999,-22.3456699513358],[-69.6630821609999,-22.3459946313358],[-69.6632483779999,-22.3462738163358]]]}},{"type":"Feature","properties":{"id":"2302041002050","commune":"María Elena","code":"02302","gse":"D","quintil":"Q1","nse_score":683.0,"educ":11.3,"educ_score":553.3,"hacin":1.717,"hacin_class":"Hacinamiento Medio","hacin_score":698.4,"auto_score":65.2,"n_per":79,"n_hog":24,"source_year":2024},"geometry":{"type":"Polygon","coordinates":[[[-69.6651767579999,-22.3457247873358],[-69.6651501249999,-22.3459651043358],[-69.6662525589999,-22.3461727763358],[-69.6663504439999,-22.3459471623358],[-69.6651767579999,-22.3457247873358]]]}},{"type":"Feature","properties":{"id":"2302041002051","commune":"María Elena","code":"02302","gse":"D","quintil":"Q1","nse_score":667.5,"educ":11.8,"educ_score":586.7,"hacin":1.962,"hacin_class":"Hacinamiento Medio","hacin_score":646.5,"auto_score":0.0,"n_per":51,"n_hog":17,"source_year":2024},"geometry":{"type":"Polygon","coordinates":[[[-69.6619196579999,-22.3462342383358],[-69.6621459799999,-22.3465357623357],[-69.6629789169999,-22.3459918913358],[-69.6627593469999,-22.3457456263358],[-69.6619196579999,-22.3462342383358]]]}},{"type":"Feature","properties":{"id":"2302041002052","commune":"María Elena","code":"02302","gse":"D","quintil":"Q1","nse_score":663.4,"educ":12.6,"educ_score":640.0,"hacin":1.75,"hacin_class":"Hacinamiento Medio","hacin_score":691.5,"auto_score":0.0,"n_per":35,"n_hog":9,"source_year":2024},"geometry":{"type":"Polygon","coordinates":[[[-69.660725855,-22.3463921683358],[-69.6613029709999,-22.3470869483358],[-69.6615392989999,-22.3458837713358],[-69.6614491269999,-22.3459139503358],[-69.660725855,-22.3463921683358]]]}},{"type":"Feature","properties":{"id":"2302041002053","commune":"María Elena","code":"02302","gse":"D","quintil":"Q2","nse_score":706.7,"educ":12.0,"educ_score":600.0,"hacin":1.533,"hacin_class":"Hacinamiento Medio","hacin_score":737.6,"auto_score":0.0,"n_per":92,"n_hog":22,"source_year":2024},"geometry":{"type":"Polygon","coordinates":[[[-69.6613237859999,-22.3472997883357],[-69.6616782819999,-22.3473065613357],[-69.6623356369999,-22.3468954553357],[-69.6616090739999,-22.3459506353358],[-69.6613237859999,-22.3472997883357]]]}},{"type":"Feature","properties":{"id":"2302041002054","commune":"María Elena","code":"02302","gse":"C3","quintil":"Q3","nse_score":746.6,"educ":12.7,"educ_score":646.7,"hacin":1.683,"hacin_class":"Hacinamiento Medio","hacin_score":705.8,"auto_score":95.2,"n_per":69,"n_hog":22,"source_year":2024},"geometry":{"type":"Polygon","coordinates":[[[-69.6650514529999,-22.3462709403358],[-69.6661972159999,-22.3464815063357],[-69.6662603309999,-22.3462347163358],[-69.66514129,-22.3460065153358],[-69.6650514529999,-22.3462709403358]]]}},{"type":"Feature","properties":{"id":"2302041002056","commune":"María Elena","code":"02302","gse":"E","quintil":"Q1","nse_score":625.6,"educ":11.8,"educ_score":586.7,"hacin":2.286,"hacin_class":"Hacinamiento Medio","hacin_score":577.5,"auto_score":58.8,"n_per":64,"n_hog":19,"source_year":2024},"geometry":{"type":"Polygon","coordinates":[[[-69.663538721,-22.3466791453357],[-69.664085687,-22.3463567483358],[-69.6638914819999,-22.3460328713357],[-69.6633309799999,-22.3463472833358],[-69.663538721,-22.3466791453357]]]}},{"type":"Feature","properties":{"id":"2302041002057","commune":"María Elena","code":"02302","gse":"C3","quintil":"Q2","nse_score":722.0,"educ":12.9,"educ_score":660.0,"hacin":1.69,"hacin_class":"Hacinamiento Medio","hacin_score":704.3,"auto_score":200.0,"n_per":49,"n_hog":15,"source_year":2024},"geometry":{"type":"Polygon","coordinates":[[[-69.6623695999999,-22.3468387713358],[-69.6631971299999,-22.3463617433358],[-69.6630238729999,-22.3460520533358],[-69.6621742919999,-22.3465719883358],[-69.6623695999999,-22.3468387713358]]]}},{"type":"Feature","properties":{"id":"2302041002059","commune":"María Elena","code":"02302","gse":"D","quintil":"Q2","nse_score":710.5,"educ":12.4,"educ_score":626.7,"hacin":1.357,"hacin_class":"Hacinamiento Leve","hacin_score":775.1,"auto_score":68.2,"n_per":57,"n_hog":21,"source_year":2024},"geometry":{"type":"Polygon","coordinates":[[[-69.6648183529999,-22.3464694653357],[-69.6654408379999,-22.3473475193357],[-69.6656778129999,-22.3472287453357],[-69.6651126549999,-22.3463777393358],[-69.6648183529999,-22.3464694653357]]]}},{"type":"Feature","properties":{"id":"2302041002060","commune":"María Elena","code":"02302","gse":"D","quintil":"Q2","nse_score":713.7,"educ":11.5,"educ_score":566.7,"hacin":1.226,"hacin_class":"Hacinamiento Leve","hacin_score":803.0,"auto_score":38.5,"n_per":38,"n_hog":14,"source_year":2024},"geometry":{"type":"Polygon","coordinates":[[[-69.6657395319999,-22.3471579383358],[-69.6659713269999,-22.3470119943358],[-69.6655671819999,-22.3464475103358],[-69.6652292929999,-22.3463790673357],[-69.6657395319999,-22.3471579383358]]]}},{"type":"Feature","properties":{"id":"2302041002061","commune":"María Elena","code":"02302","gse":"D","quintil":"Q2","nse_score":711.7,"educ":12.7,"educ_score":646.7,"hacin":1.312,"hacin_class":"Hacinamiento Leve","hacin_score":784.6,"auto_score":117.6,"n_per":42,"n_hog":18,"source_year":2024},"geometry":{"type":"Polygon","coordinates":[[[-69.662444982,-22.3469471583357],[-69.6626763689999,-22.3472563193357],[-69.6634976139999,-22.3467346003357],[-69.6632189279999,-22.3463916463357],[-69.662444982,-22.3469471583357]]]}},{"type":"Feature","properties":{"id":"2302041002062","commune":"María Elena","code":"02302","gse":"E","quintil":"Q1","nse_score":626.5,"educ":10.5,"educ_score":500.0,"hacin":1.812,"hacin_class":"Hacinamiento Medio","hacin_score":678.2,"auto_score":115.4,"n_per":29,"n_hog":12,"source_year":2024},"geometry":{"type":"Polygon","coordinates":[[[-69.6637643239999,-22.3469888923358],[-69.6643505879999,-22.3466799733358],[-69.6641807639999,-22.3464190523357],[-69.6636104279999,-22.3467485923357],[-69.6637643239999,-22.3469888923358]]]}},{"type":"Feature","properties":{"id":"2302041002063","commune":"María Elena","code":"02302","gse":"D","quintil":"Q1","nse_score":688.5,"educ":12.4,"educ_score":626.7,"hacin":1.735,"hacin_class":"Hacinamiento Medio","hacin_score":694.6,"auto_score":29.4,"n_per":59,"n_hog":17,"source_year":2024},"geometry":{"type":"Polygon","coordinates":[[[-69.6607536349999,-22.3469110373357],[-69.660432608,-22.3471627173357],[-69.6612370599999,-22.3473678973358],[-69.6612804259999,-22.3471454883358],[-69.6606622459999,-22.3464334403358],[-69.6601240089999,-22.3467758463358],[-69.6603998209999,-22.3471171053357],[-69.6607097479999,-22.3468270013358],[-69.6608368969999,-22.3469646753357],[-69.6607536349999,-22.3469110373357]]]}},{"type":"Feature","properties":{"id":"2302041002065","commune":"María Elena","code":"02302","gse":"C3","quintil":"Q2","nse_score":714.5,"educ":12.7,"educ_score":646.7,"hacin":1.487,"hacin_class":"Hacinamiento Leve","hacin_score":747.4,"auto_score":52.6,"n_per":58,"n_hog":18,"source_year":2024},"geometry":{"type":"Polygon","coordinates":[[[-69.6645082009999,-22.3466592723358],[-69.6651471309999,-22.3475240703358],[-69.6653875919999,-22.3474030243358],[-69.664785391,-22.3465222673358],[-69.6645082009999,-22.3466592723358]]]}},{"type":"Feature","properties":{"id":"2302041002066","commune":"María Elena","code":"02302","gse":"E","quintil":"Q1","nse_score":622.2,"educ":11.5,"educ_score":566.7,"hacin":1.938,"hacin_class":"Hacinamiento Medio","hacin_score":651.6,"auto_score":45.5,"n_per":31,"n_hog":10,"source_year":2024},"geometry":{"type":"Polygon","coordinates":[[[-69.6638611649999,-22.3470545323358],[-69.6640407289999,-22.3473622983357],[-69.6646086649999,-22.3469564323358],[-69.664399048,-22.3467211493358],[-69.6638611649999,-22.3470545323358]]]}},{"type":"Feature","properties":{"id":"2302041002067","commune":"María Elena","code":"02302","gse":"E","quintil":"Q1","nse_score":580.0,"educ":12.1,"educ_score":606.7,"hacin":2.571,"hacin_class":"Hacinamiento Crítico","hacin_score":516.7,"auto_score":0.0,"n_per":54,"n_hog":14,"source_year":2024},"geometry":{"type":"Polygon","coordinates":[[[-69.6626991349999,-22.3472856763357],[-69.6629265879999,-22.3475761743357],[-69.6637238839999,-22.3470622313357],[-69.663508642,-22.3467871323357],[-69.6626991349999,-22.3472856763357]]]}},{"type":"Feature","properties":{"id":"2302041002068","commune":"María Elena","code":"02302","gse":"D","quintil":"Q1","nse_score":673.3,"educ":11.7,"educ_score":580.0,"hacin":1.66,"hacin_class":"Hacinamiento Medio","hacin_score":710.6,"auto_score":93.8,"n_per":88,"n_hog":31,"source_year":2024},"geometry":{"type":"Polygon","coordinates":[[[-69.6598194899999,-22.3469671573357],[-69.6602503049999,-22.3476108633357],[-69.6611558499999,-22.3477058183357],[-69.661211551,-22.3474084713357],[-69.6604587959999,-22.3472373713358],[-69.6600816979999,-22.3468028493357],[-69.6598194899999,-22.3469671573357]]]}},{"type":"Feature","properties":{"id":"2302041002069","commune":"María Elena","code":"02302","gse":"D","quintil":"Q1","nse_score":673.2,"educ":11.4,"educ_score":560.0,"hacin":1.638,"hacin_class":"Hacinamiento Medio","hacin_score":715.3,"auto_score":173.1,"n_per":77,"n_hog":27,"source_year":2024},"geometry":{"type":"Polygon","coordinates":[[[-69.6615978369999,-22.3473815093357],[-69.6613105299999,-22.3473512443357],[-69.6612079039999,-22.3477264743357],[-69.6617559999999,-22.3478059913357],[-69.6626115549999,-22.3472876683357],[-69.6623482609999,-22.3469354273358],[-69.6615978369999,-22.3473815093357]]]}},{"type":"Feature","properties":{"id":"2302041002070","commune":"María Elena","code":"02302","gse":"E","quintil":"Q1","nse_score":639.0,"educ":11.9,"educ_score":593.3,"hacin":1.84,"hacin_class":"Hacinamiento Medio","hacin_score":672.3,"auto_score":31.2,"n_per":46,"n_hog":14,"source_year":2024},"geometry":{"type":"Polygon","coordinates":[[[-69.6648068839999,-22.3477164403357],[-69.6651166949999,-22.3475770433357],[-69.6646448419999,-22.3470285533357],[-69.6644104409999,-22.3471987173358],[-69.6648068839999,-22.3477164403357]]]}},{"type":"Feature","properties":{"id":"2302041002071","commune":"María Elena","code":"02302","gse":"D","quintil":"Q1","nse_score":667.0,"educ":10.2,"educ_score":480.0,"hacin":1.546,"hacin_class":"Hacinamiento Medio","hacin_score":735.0,"auto_score":0.0,"n_per":51,"n_hog":19,"source_year":2024},"geometry":{"type":"Polygon","coordinates":[[[-69.6652178639999,-22.3475722913357],[-69.6654531559999,-22.3478967203357],[-69.6662992379999,-22.3473305303358],[-69.666099604,-22.3470508533357],[-69.6652178639999,-22.3475722913357]]]}},{"type":"Feature","properties":{"id":"2302041002075","commune":"María Elena","code":"02302","gse":"D","quintil":"Q2","nse_score":702.3,"educ":12.7,"educ_score":646.7,"hacin":1.518,"hacin_class":"Hacinamiento Medio","hacin_score":740.7,"auto_score":35.7,"n_per":41,"n_hog":13,"source_year":2024},"geometry":{"type":"Polygon","coordinates":[[[-69.6640842809999,-22.3474127993357],[-69.6644793339999,-22.3479446223357],[-69.6647815499999,-22.3477805033358],[-69.6643699869999,-22.3472282423357],[-69.6640842809999,-22.3474127993357]]]}},{"type":"Feature","properties":{"id":"2302041002077","commune":"María Elena","code":"02302","gse":"D","quintil":"Q1","nse_score":681.7,"educ":11.4,"educ_score":560.0,"hacin":1.55,"hacin_class":"Hacinamiento Medio","hacin_score":734.0,"auto_score":83.3,"n_per":62,"n_hog":24,"source_year":2024},"geometry":{"type":"Polygon","coordinates":[[[-69.6613745789999,-22.3478148753357],[-69.6613191749999,-22.3481713343357],[-69.6617950969999,-22.3482501113357],[-69.662849719,-22.3476039573357],[-69.6626365319999,-22.3473341723357],[-69.6617732159999,-22.3478529863357],[-69.6613745789999,-22.3478148753357]]]}},{"type":"Feature","properties":{"id":"2302041002078","commune":"María Elena","code":"02302","gse":"E","quintil":"Q1","nse_score":611.8,"educ":10.5,"educ_score":500.0,"hacin":1.333,"hacin_class":"Hacinamiento Leve","hacin_score":780.1,"auto_score":0.0,"n_per":16,"n_hog":10,"source_year":2024},"geometry":{"type":"Polygon","coordinates":[[[-69.6664415979999,-22.3475943623357],[-69.6662879249999,-22.3474022143357],[-69.6654797619999,-22.3479572273357],[-69.6656907379999,-22.3482327033357],[-69.6664415979999,-22.3475943623357]]]}},{"type":"Feature","properties":{"id":"2302041002079","commune":"María Elena","code":"02302","gse":"C3","quintil":"Q3","nse_score":743.8,"educ":13.2,"educ_score":680.0,"hacin":1.786,"hacin_class":"Hacinamiento Medio","hacin_score":683.9,"auto_score":0.0,"n_per":25,"n_hog":6,"source_year":2024},"geometry":{"type":"Polygon","coordinates":[[[-69.66382533,-22.3475728973358],[-69.6644557999999,-22.3484433383357],[-69.6646393869999,-22.3483152523357],[-69.6639907199999,-22.3474656693357],[-69.66382533,-22.3475728973358]]]}},{"type":"Feature","properties":{"id":"2302041002082","commune":"María Elena","code":"02302","gse":"E","quintil":"Q1","nse_score":635.2,"educ":11.1,"educ_score":540.0,"hacin":1.454,"hacin_class":"Hacinamiento Leve","hacin_score":754.4,"auto_score":107.1,"n_per":32,"n_hog":12,"source_year":2024},"geometry":{"type":"Polygon","coordinates":[[[-69.6656213759999,-22.3482687613357],[-69.665167515,-22.3476243513357],[-69.6649173299999,-22.3477632343357],[-69.6653564629999,-22.3483943353357],[-69.6656213759999,-22.3482687613357]]]}},{"type":"Feature","properties":{"id":"2302041002083","commune":"María Elena","code":"02302","gse":"E","quintil":"Q1","nse_score":621.6,"educ":10.8,"educ_score":520.0,"hacin":2.143,"hacin_class":"Hacinamiento Medio","hacin_score":607.9,"auto_score":0.0,"n_per":45,"n_hog":17,"source_year":2024},"geometry":{"type":"Polygon","coordinates":[[[-69.6624303519999,-22.3480173883357],[-69.6625979309999,-22.3482739763357],[-69.6631365489999,-22.3479698613358],[-69.6628853909999,-22.3476620473357],[-69.6624303519999,-22.3480173883357]]]}},{"type":"Feature","properties":{"id":"2302041002087","commune":"María Elena","code":"02302","gse":"D","quintil":"Q2","nse_score":711.6,"educ":11.7,"educ_score":580.0,"hacin":1.583,"hacin_class":"Hacinamiento Medio","hacin_score":727.0,"auto_score":0.0,"n_per":38,"n_hog":13,"source_year":2024},"geometry":{"type":"Polygon","coordinates":[[[-69.6649923579999,-22.3485938503357],[-69.6653255129999,-22.3484415283357],[-69.6648490399999,-22.3478001913357],[-69.6645277099999,-22.3480293413357],[-69.6649923579999,-22.3485938503357]]]}},{"type":"Feature","properties":{"id":"2302041002089","commune":"María Elena","code":"02302","gse":"C3","quintil":"Q3","nse_score":731.2,"educ":12.2,"educ_score":613.3,"hacin":1.429,"hacin_class":"Hacinamiento Leve","hacin_score":759.9,"auto_score":26.3,"n_per":70,"n_hog":21,"source_year":2024},"geometry":{"type":"Polygon","coordinates":[[[-69.6602296539999,-22.3482901103357],[-69.6616908419999,-22.3485682543357],[-69.6617829099999,-22.3483428473357],[-69.660348741,-22.3480307483357],[-69.6602296539999,-22.3482901103357]]]}},{"type":"Feature","properties":{"id":"2302041002092","commune":"María Elena","code":"02302","gse":"C3","quintil":"Q2","nse_score":726.8,"educ":12.4,"educ_score":626.7,"hacin":1.456,"hacin_class":"Hacinamiento Leve","hacin_score":753.9,"auto_score":75.0,"n_per":67,"n_hog":24,"source_year":2024},"geometry":{"type":"Polygon","coordinates":[[[-69.6601205019999,-22.3485674343357],[-69.661654628,-22.3488789823357],[-69.6617156679999,-22.3486431333357],[-69.6602535609999,-22.3483639943357],[-69.6601205019999,-22.3485674343357]]]}},{"type":"Feature","properties":{"id":"2302041002073","commune":"María Elena","code":"02302","gse":"E","quintil":"Q1","nse_score":530.8,"educ":10.1,"educ_score":473.3,"hacin":2.0,"hacin_class":"Hacinamiento Medio","hacin_score":638.3,"auto_score":83.3,"n_per":12,"n_hog":6,"source_year":2024},"geometry":{"type":"MultiPolygon","coordinates":[[[[-69.6637917219999,-22.3475946873358],[-69.6624420739999,-22.3484040913357],[-69.663099154,-22.3492660543357],[-69.6644222979999,-22.3484652753357],[-69.6637917219999,-22.3475946873358]]],[[[-69.6631808059999,-22.3479291263357],[-69.6639685339999,-22.3474360393357],[-69.663776976,-22.3471381683358],[-69.6629448959999,-22.3476252903357],[-69.6631808059999,-22.3479291263357]]]]}},{"type":"Feature","properties":{"id":"2302041002084","commune":"María Elena","code":"02302","gse":"D","quintil":"Q1","nse_score":643.1,"educ":11.7,"educ_score":580.0,"hacin":2.364,"hacin_class":"Hacinamiento Medio","hacin_score":560.9,"auto_score":35.7,"n_per":52,"n_hog":14,"source_year":2024},"geometry":{"type":"MultiPolygon","coordinates":[[[[-69.6611240249999,-22.3481235783357],[-69.6613000429999,-22.3481681673357],[-69.661355452,-22.3478116793357],[-69.6611947689999,-22.3478037663358],[-69.6611240249999,-22.3481235783357]]],[[[-69.6605346599999,-22.3480245343357],[-69.6610818259999,-22.3481125493357],[-69.6611320249999,-22.3477813473358],[-69.6603041519999,-22.3477032403357],[-69.6605346599999,-22.3480245343357]]]]}},{"type":"Feature","properties":{"id":"2302041002025","commune":"María Elena","code":"02302","gse":"C2","quintil":"Q3","nse_score":754.8,"educ":13.1,"educ_score":673.3,"hacin":0.875,"hacin_class":"Sin Hacinamiento","hacin_score":877.7,"auto_score":0.0,"n_per":21,"n_hog":9,"source_year":2024},"geometry":{"type":"MultiPolygon","coordinates":[[[[-69.6664923599999,-22.3474862903357],[-69.6681870669999,-22.3460156613358],[-69.6681356519999,-22.3457827123358],[-69.6678002709999,-22.3455269953358],[-69.6673255059999,-22.3448366953358],[-69.6663633479999,-22.3454543183358],[-69.6665259709999,-22.3458339703358],[-69.6662618109999,-22.3470977043358],[-69.6664923599999,-22.3474862903357]]],[[[-69.6668163499999,-22.3441627063358],[-69.6658642909999,-22.3447593263358],[-69.6659204179999,-22.3448603663358],[-69.6660575789999,-22.3447336483358],[-69.6661289159999,-22.3448222703358],[-69.6659482199999,-22.3448980193358],[-69.6663051539999,-22.3453674723358],[-69.6672632279999,-22.3447488733358],[-69.6671000709999,-22.3445219063358],[-69.6668270059999,-22.3446882763358],[-69.6670518979999,-22.3444548923358],[-69.6668163499999,-22.3441627063358]]]]}},{"type":"Feature","properties":{"id":"2302041002008","commune":"María Elena","code":"02302","gse":"C3","quintil":"Q3","nse_score":742.9,"educ":12.3,"educ_score":620.0,"hacin":1.32,"hacin_class":"Hacinamiento Leve","hacin_score":783.0,"auto_score":0.0,"n_per":33,"n_hog":10,"source_year":2024},"geometry":{"type":"MultiPolygon","coordinates":[[[[-69.6672269589999,-22.3438003883358],[-69.6674280219999,-22.3437116423358],[-69.6670851769999,-22.3432359633358],[-69.6669092969999,-22.3433495433358],[-69.6672269589999,-22.3438003883358]]],[[[-69.6671169729999,-22.3432154303358],[-69.6674598979999,-22.3436912203358],[-69.6676584609999,-22.3435640043358],[-69.6673665479999,-22.3430542583358],[-69.6671169729999,-22.3432154303358]]]]}},{"type":"Feature","properties":{"id":"2302041002039","commune":"María Elena","code":"02302","gse":"E","quintil":"Q1","nse_score":625.7,"educ":11.3,"educ_score":553.3,"hacin":2.4,"hacin_class":"Hacinamiento Medio","hacin_score":553.2,"auto_score":38.5,"n_per":48,"n_hog":13,"source_year":2024},"geometry":{"type":"MultiPolygon","coordinates":[[[[-69.6628310599999,-22.3456799333358],[-69.6630515339999,-22.3459459743358],[-69.6635724469999,-22.3456181743358],[-69.6633888509999,-22.3453112363358],[-69.6628310599999,-22.3456799333358]]],[[[-69.662536111,-22.3452987363358],[-69.6628027369999,-22.3456433283358],[-69.6633566549999,-22.3452631293358],[-69.6631009059999,-22.3449070713358],[-69.662536111,-22.3452987363358]]]]}},{"type":"Feature","properties":{"id":"2302041002091","commune":"María Elena","code":"02302","gse":"E","quintil":"Q1","nse_score":544.4,"educ":9.9,"educ_score":460.0,"hacin":1.964,"hacin_class":"Hacinamiento Medio","hacin_score":645.9,"auto_score":55.6,"n_per":55,"n_hog":23,"source_year":2024},"geometry":{"type":"MultiPolygon","coordinates":[[[[-69.6636461709999,-22.3496107193357],[-69.6633790099999,-22.3496424703357],[-69.663162198,-22.3495153813357],[-69.6641026689999,-22.3509263283357],[-69.6658129829999,-22.3499583483356],[-69.6653356039999,-22.3493037733357],[-69.6646060469999,-22.3496258393357],[-69.6641109429999,-22.3492992793357],[-69.6636461709999,-22.3496107193357]]],[[[-69.6646818499999,-22.3483434983357],[-69.6630574759999,-22.3492909123357],[-69.6633339209999,-22.3495651793357],[-69.6636318299999,-22.3495520013357],[-69.6649236869999,-22.3486470853357],[-69.6646818499999,-22.3483434983357]]]]}}]}