{"type":"FeatureCollection","features":[{"type":"Feature","properties":{"id":"9110011001001","commune":"Melipeuco","code":"09110","gse":"D","quintil":"Q1","nse_score":617.4,"educ":10.5,"educ_score":500.0,"hacin":1.216,"hacin_class":"Hacinamiento Leve","hacin_score":805.1,"auto_score":160.9,"n_per":197,"n_hog":76,"source_year":2024,"crime_score":0.0468,"crime_nivel":"Bajo","crime_color":"#cddc39"},"geometry":{"type":"Polygon","coordinates":[[[-71.6917250289999,-38.845114389078],[-71.6920591129999,-38.845949880078],[-71.6929998729999,-38.845765970078],[-71.692702617,-38.8458868490781],[-71.6930585539999,-38.847001852078],[-71.6914495099999,-38.848319844078],[-71.6914196019999,-38.848701573078],[-71.6910640249999,-38.849589349078],[-71.6968080689999,-38.850981746078],[-71.6971557849999,-38.850149898078],[-71.6968521159999,-38.850992282078],[-71.6996081649999,-38.851651445078],[-71.7000095969999,-38.850654060078],[-71.6992949659999,-38.850142119078],[-71.6944959819999,-38.848889659078],[-71.6922212169999,-38.848470874078],[-71.6922021819999,-38.848137749078],[-71.6938560819999,-38.847737131078],[-71.6929136659999,-38.844893519078],[-71.6917250289999,-38.845114389078]]]}},{"type":"Feature","properties":{"id":"9110011001002","commune":"Melipeuco","code":"09110","gse":"D","quintil":"Q2","nse_score":656.1,"educ":10.9,"educ_score":526.7,"hacin":1.025,"hacin_class":"Hacinamiento Leve","hacin_score":845.7,"auto_score":139.2,"n_per":243,"n_hog":88,"source_year":2024,"crime_score":0.0468,"crime_nivel":"Bajo","crime_color":"#cddc39"},"geometry":{"type":"Polygon","coordinates":[[[-71.6911645099999,-38.845218539078],[-71.6913344859999,-38.8457031280781],[-71.6900526769999,-38.845953962078],[-71.6904310449999,-38.847247740078],[-71.6903327639999,-38.8474542530781],[-71.6859339459999,-38.848376698078],[-71.6858452879999,-38.848165150078],[-71.6832738269999,-38.848693528078],[-71.6838564139999,-38.848970233078],[-71.6859858409999,-38.848505386078],[-71.6860314719999,-38.848583915078],[-71.6858002409999,-38.848632876078],[-71.6862947729999,-38.850259283078],[-71.6865553399999,-38.850291792078],[-71.6856879819999,-38.850447807078],[-71.68672025,-38.851620303078],[-71.6866128009999,-38.851966437078],[-71.6875865339999,-38.852193330078],[-71.6888504529999,-38.849033307078],[-71.6910063589999,-38.849574864078],[-71.6913900119999,-38.848273365078],[-71.6920267559999,-38.847813653078],[-71.6919383409999,-38.847487761078],[-71.6920209489999,-38.847466257078],[-71.6921152719999,-38.847745125078],[-71.6923779639999,-38.8474995650781],[-71.6917250289999,-38.845114389078],[-71.6911645099999,-38.845218539078]]]}},{"type":"Feature","properties":{"id":"9110011001003","commune":"Melipeuco","code":"09110","gse":"D","quintil":"Q1","nse_score":618.9,"educ":10.3,"educ_score":486.7,"hacin":1.487,"hacin_class":"Hacinamiento Leve","hacin_score":747.4,"auto_score":142.9,"n_per":58,"n_hog":21,"source_year":2024,"crime_score":0.0438,"crime_nivel":"Bajo","crime_color":"#cddc39"},"geometry":{"type":"Polygon","coordinates":[[[-71.6929639719999,-38.846981461078],[-71.6926136369999,-38.8459201590781],[-71.6921011069999,-38.8460109850781],[-71.6924601649999,-38.847399393078],[-71.6929639719999,-38.846981461078]]]}},{"type":"Feature","properties":{"id":"9110011001004","commune":"Melipeuco","code":"09110","gse":"C3","quintil":"Q2","nse_score":664.5,"educ":10.5,"educ_score":500.0,"hacin":1.118,"hacin_class":"Hacinamiento Leve","hacin_score":826.0,"auto_score":125.0,"n_per":57,"n_hog":24,"source_year":2024,"crime_score":0.0427,"crime_nivel":"Bajo","crime_color":"#cddc39"},"geometry":{"type":"Polygon","coordinates":[[[-71.6844528729999,-38.849295107078],[-71.6858115339999,-38.849020243078],[-71.6856992379999,-38.848653170078],[-71.6839699559999,-38.849021530078],[-71.6844528729999,-38.849295107078]]]}},{"type":"Feature","properties":{"id":"9110011001005","commune":"Melipeuco","code":"09110","gse":"C3","quintil":"Q2","nse_score":667.3,"educ":12.6,"educ_score":640.0,"hacin":1.21,"hacin_class":"Hacinamiento Leve","hacin_score":806.3,"auto_score":125.0,"n_per":69,"n_hog":29,"source_year":2024,"crime_score":0.0429,"crime_nivel":"Bajo","crime_color":"#cddc39"},"geometry":{"type":"Polygon","coordinates":[[[-71.6834568809999,-38.849146028078],[-71.6801709879999,-38.849628772078],[-71.6817296149999,-38.850360072078],[-71.6818796339999,-38.849556986078],[-71.68177284,-38.850381100078],[-71.6830524139999,-38.851071428078],[-71.6848453819999,-38.851538260078],[-71.6854452859999,-38.850253268078],[-71.684913805,-38.849677529078],[-71.6836261489999,-38.848934250078],[-71.6834568809999,-38.849146028078]]]}},{"type":"Feature","properties":{"id":"9110011001007","commune":"Melipeuco","code":"09110","gse":"C3","quintil":"Q2","nse_score":674.0,"educ":11.2,"educ_score":546.7,"hacin":1.0,"hacin_class":"Hacinamiento Leve","hacin_score":851.1,"auto_score":100.0,"n_per":32,"n_hog":14,"source_year":2024,"crime_score":0.042,"crime_nivel":"Bajo","crime_color":"#cddc39"},"geometry":{"type":"Polygon","coordinates":[[[-71.6885473439999,-38.850162767078],[-71.6899493109999,-38.850492658078],[-71.6903368659999,-38.849510333078],[-71.688939736,-38.849180335078],[-71.6885473439999,-38.850162767078]]]}},{"type":"Feature","properties":{"id":"9110011001009","commune":"Melipeuco","code":"09110","gse":"C3","quintil":"Q3","nse_score":707.5,"educ":12.3,"educ_score":620.0,"hacin":1.032,"hacin_class":"Hacinamiento Leve","hacin_score":844.2,"auto_score":218.8,"n_per":32,"n_hog":16,"source_year":2024,"crime_score":0.0412,"crime_nivel":"Bajo","crime_color":"#cddc39"},"geometry":{"type":"Polygon","coordinates":[[[-71.6850359349999,-38.849695257078],[-71.6853660559999,-38.850005977078],[-71.6860798299999,-38.849868902078],[-71.6859645429999,-38.849509598078],[-71.6850359349999,-38.849695257078]]]}},{"type":"Feature","properties":{"id":"9110011001010","commune":"Melipeuco","code":"09110","gse":"D","quintil":"Q1","nse_score":623.2,"educ":10.4,"educ_score":493.3,"hacin":0.939,"hacin_class":"Sin Hacinamiento","hacin_score":864.0,"auto_score":200.0,"n_per":31,"n_hog":12,"source_year":2024,"crime_score":0.0431,"crime_nivel":"Bajo","crime_color":"#cddc39"},"geometry":{"type":"Polygon","coordinates":[[[-71.6900512549999,-38.850509172078],[-71.6912588479999,-38.850802026078],[-71.6916711979999,-38.849837989078],[-71.6904490169999,-38.849541703078],[-71.6900512549999,-38.850509172078]]]}},{"type":"Feature","properties":{"id":"9110011001011","commune":"Melipeuco","code":"09110","gse":"E","quintil":"Q1","nse_score":515.8,"educ":7.5,"educ_score":300.0,"hacin":0.889,"hacin_class":"Sin Hacinamiento","hacin_score":874.7,"auto_score":0.0,"n_per":16,"n_hog":8,"source_year":2024,"crime_score":0.0453,"crime_nivel":"Bajo","crime_color":"#cddc39"},"geometry":{"type":"Polygon","coordinates":[[[-71.6913758219999,-38.850833284078],[-71.6925787469999,-38.851130005078],[-71.6929766189999,-38.850166297078],[-71.6917739949999,-38.849877120078],[-71.6913758219999,-38.850833284078]]]}},{"type":"Feature","properties":{"id":"9110011001012","commune":"Melipeuco","code":"09110","gse":"E","quintil":"Q1","nse_score":603.0,"educ":9.5,"educ_score":433.3,"hacin":1.088,"hacin_class":"Hacinamiento Leve","hacin_score":832.3,"auto_score":166.7,"n_per":37,"n_hog":13,"source_year":2024,"crime_score":0.0437,"crime_nivel":"Bajo","crime_color":"#cddc39"},"geometry":{"type":"Polygon","coordinates":[[[-71.6854004959999,-38.850048826078],[-71.6856627059999,-38.850386779078],[-71.6862132569999,-38.850273994078],[-71.6860981609999,-38.849919821078],[-71.6854004959999,-38.850048826078]]]}},{"type":"Feature","properties":{"id":"9110011001013","commune":"Melipeuco","code":"09110","gse":"D","quintil":"Q2","nse_score":650.0,"educ":10.3,"educ_score":486.7,"hacin":1.0,"hacin_class":"Hacinamiento Leve","hacin_score":851.1,"auto_score":0.0,"n_per":39,"n_hog":15,"source_year":2024,"crime_score":0.0427,"crime_nivel":"Bajo","crime_color":"#cddc39"},"geometry":{"type":"Polygon","coordinates":[[[-71.6927004009999,-38.851157381078],[-71.6939033359999,-38.851454086078],[-71.6942916939999,-38.850494368078],[-71.6930883469999,-38.850186356078],[-71.6927004009999,-38.851157381078]]]}},{"type":"Feature","properties":{"id":"9110011001014","commune":"Melipeuco","code":"09110","gse":"E","quintil":"Q1","nse_score":594.6,"educ":8.3,"educ_score":353.3,"hacin":1.031,"hacin_class":"Hacinamiento Leve","hacin_score":844.4,"auto_score":35.7,"n_per":33,"n_hog":14,"source_year":2024,"crime_score":0.0438,"crime_nivel":"Bajo","crime_color":"#cddc39"},"geometry":{"type":"Polygon","coordinates":[[[-71.6895489909999,-38.851520550078],[-71.6899325869999,-38.850560955078],[-71.6885158709999,-38.850223857078],[-71.6881274359999,-38.851183559078],[-71.6895489909999,-38.851520550078]]]}},{"type":"Feature","properties":{"id":"9110011001015","commune":"Melipeuco","code":"09110","gse":"D","quintil":"Q2","nse_score":661.3,"educ":10.5,"educ_score":500.0,"hacin":1.08,"hacin_class":"Hacinamiento Leve","hacin_score":834.0,"auto_score":277.8,"n_per":27,"n_hog":9,"source_year":2024,"crime_score":0.0422,"crime_nivel":"Bajo","crime_color":"#cddc39"},"geometry":{"type":"Polygon","coordinates":[[[-71.6849098229999,-38.851554753078],[-71.686560976,-38.851954360078],[-71.6866677679999,-38.851621510078],[-71.6854912069999,-38.850315537078],[-71.6849098229999,-38.851554753078]]]}},{"type":"Feature","properties":{"id":"9110011001016","commune":"Melipeuco","code":"09110","gse":"D","quintil":"Q1","nse_score":614.4,"educ":10.5,"educ_score":500.0,"hacin":1.39,"hacin_class":"Hacinamiento Leve","hacin_score":768.1,"auto_score":20.0,"n_per":82,"n_hog":23,"source_year":2024,"crime_score":0.0444,"crime_nivel":"Bajo","crime_color":"#cddc39"},"geometry":{"type":"Polygon","coordinates":[[[-71.6940244209999,-38.851466383078],[-71.6945893109999,-38.851604257078],[-71.6949878689999,-38.850659391078],[-71.6944229869999,-38.850521520078],[-71.6940244209999,-38.851466383078]]]}},{"type":"Feature","properties":{"id":"9110011001017","commune":"Melipeuco","code":"09110","gse":"E","quintil":"Q1","nse_score":582.2,"educ":10.0,"educ_score":466.7,"hacin":1.333,"hacin_class":"Hacinamiento Leve","hacin_score":780.1,"auto_score":115.4,"n_per":32,"n_hog":15,"source_year":2024,"crime_score":0.0441,"crime_nivel":"Bajo","crime_color":"#cddc39"},"geometry":{"type":"Polygon","coordinates":[[[-71.68964711,-38.851563563078],[-71.6908593969999,-38.851852539078],[-71.6912476549999,-38.850889060078],[-71.6900397769999,-38.850588667078],[-71.68964711,-38.851563563078]]]}},{"type":"Feature","properties":{"id":"9110011001018","commune":"Melipeuco","code":"09110","gse":"E","quintil":"Q1","nse_score":600.7,"educ":9.1,"educ_score":406.7,"hacin":1.023,"hacin_class":"Hacinamiento Leve","hacin_score":846.1,"auto_score":131.6,"n_per":44,"n_hog":17,"source_year":2024,"crime_score":0.0439,"crime_nivel":"Bajo","crime_color":"#cddc39"},"geometry":{"type":"Polygon","coordinates":[[[-71.6946818989999,-38.851628529078],[-71.6952085109999,-38.851774830078],[-71.6956011019999,-38.850799917078],[-71.6950753529999,-38.850676236078],[-71.6946818989999,-38.851628529078]]]}},{"type":"Feature","properties":{"id":"9110011001019","commune":"Melipeuco","code":"09110","gse":"D","quintil":"Q2","nse_score":655.7,"educ":11.0,"educ_score":533.3,"hacin":1.274,"hacin_class":"Hacinamiento Leve","hacin_score":792.7,"auto_score":227.3,"n_per":65,"n_hog":22,"source_year":2024,"crime_score":0.0431,"crime_nivel":"Bajo","crime_color":"#cddc39"},"geometry":{"type":"Polygon","coordinates":[[[-71.700505958,-38.851024965078],[-71.7000850649999,-38.850714772078],[-71.6997241579999,-38.851690518078],[-71.700191662,-38.851805464078],[-71.700505958,-38.851024965078]]]}},{"type":"Feature","properties":{"id":"9110011001020","commune":"Melipeuco","code":"09110","gse":"D","quintil":"Q1","nse_score":617.5,"educ":10.0,"educ_score":466.7,"hacin":1.143,"hacin_class":"Hacinamiento Leve","hacin_score":820.7,"auto_score":0.0,"n_per":32,"n_hog":12,"source_year":2024,"crime_score":0.0433,"crime_nivel":"Bajo","crime_color":"#cddc39"},"geometry":{"type":"Polygon","coordinates":[[[-71.6953778049999,-38.851786011078],[-71.6965712609999,-38.852086681078],[-71.6969353379999,-38.851123742078],[-71.6957421819999,-38.850830615078],[-71.6953778049999,-38.851786011078]]]}},{"type":"Feature","properties":{"id":"9110011001021","commune":"Melipeuco","code":"09110","gse":"D","quintil":"Q2","nse_score":659.9,"educ":12.1,"educ_score":606.7,"hacin":1.21,"hacin_class":"Hacinamiento Leve","hacin_score":806.5,"auto_score":123.4,"n_per":179,"n_hog":69,"source_year":2024,"crime_score":0.0454,"crime_nivel":"Bajo","crime_color":"#cddc39"},"geometry":{"type":"Polygon","coordinates":[[[-71.681516186,-38.853322024078],[-71.6820492059999,-38.853565115078],[-71.6825896829999,-38.853401968078],[-71.6836419339999,-38.853588111078],[-71.6855896339999,-38.854345586078],[-71.6867067969999,-38.854337178078],[-71.6876965879999,-38.854525095078],[-71.6886851209999,-38.854959658078],[-71.6903734049999,-38.855379878078],[-71.6937897339999,-38.855390492078],[-71.6948052679999,-38.855964316078],[-71.6950411599999,-38.856344891078],[-71.6956102569999,-38.856347210078],[-71.6961329049999,-38.856746428078],[-71.6964460579999,-38.856828088078],[-71.6970550799999,-38.856663495078],[-71.6978523779999,-38.856222998078],[-71.69786289,-38.855965512078],[-71.6914544379999,-38.854423452078],[-71.6911022029999,-38.855295595078],[-71.6914103659999,-38.854412955078],[-71.6870871809999,-38.853366524078],[-71.6875176809999,-38.852289362078],[-71.6829322539999,-38.851160026078],[-71.6825903629999,-38.850900218078],[-71.681516186,-38.853322024078]]]}},{"type":"Feature","properties":{"id":"9110011001022","commune":"Melipeuco","code":"09110","gse":"E","quintil":"Q1","nse_score":597.6,"educ":12.9,"educ_score":660.0,"hacin":1.167,"hacin_class":"Hacinamiento Leve","hacin_score":815.6,"auto_score":55.6,"n_per":14,"n_hog":6,"source_year":2024,"crime_score":0.0434,"crime_nivel":"Bajo","crime_color":"#cddc39"},"geometry":{"type":"Polygon","coordinates":[[[-71.6925530939999,-38.851217371078],[-71.6913402429999,-38.850913335078],[-71.6909616269999,-38.851876592078],[-71.6921695309999,-38.852176975078],[-71.6925530939999,-38.851217371078]]]}},{"type":"Feature","properties":{"id":"9110011001023","commune":"Melipeuco","code":"09110","gse":"D","quintil":"Q1","nse_score":634.4,"educ":10.7,"educ_score":513.3,"hacin":1.304,"hacin_class":"Hacinamiento Leve","hacin_score":786.4,"auto_score":170.5,"n_per":253,"n_hog":83,"source_year":2024,"crime_score":0.0476,"crime_nivel":"Bajo","crime_color":"#cddc39"},"geometry":{"type":"Polygon","coordinates":[[[-71.7012658639999,-38.851772897078],[-71.7010219489999,-38.851751314078],[-71.7009432019999,-38.852003037078],[-71.7012177739999,-38.852069839078],[-71.7009755959999,-38.852059416078],[-71.7009220369999,-38.852193921078],[-71.7013234419999,-38.852323064078],[-71.7009060549999,-38.852234060078],[-71.7007925259999,-38.852519171078],[-71.7011910529999,-38.852671491078],[-71.7007683759999,-38.852579820078],[-71.7006446389999,-38.852890561078],[-71.7010416459999,-38.853052675078],[-71.7006229689999,-38.852944983078],[-71.7004969429999,-38.853262692078],[-71.7008855489999,-38.853432540078],[-71.7004713749999,-38.853328050078],[-71.7003526219999,-38.853631617078],[-71.7007438409999,-38.853768235078],[-71.700339272,-38.853665745078],[-71.7001661369999,-38.854108319078],[-71.7029615899999,-38.854699868078],[-71.7034254079999,-38.853543975078],[-71.7034248839999,-38.853737523078],[-71.704155323,-38.853904246078],[-71.7039146349999,-38.853920094078],[-71.7034994279999,-38.854917707078],[-71.7031564229999,-38.854843556078],[-71.7030131089999,-38.855232919078],[-71.7028015629999,-38.855284570078],[-71.7016436419999,-38.855009149078],[-71.7014478489999,-38.855580361078],[-71.7028482849999,-38.855897511078],[-71.7030067849999,-38.855762626078],[-71.7035466759999,-38.855686533078],[-71.7046235609999,-38.855820319078],[-71.7054924629999,-38.855183648078],[-71.706343908,-38.855055866078],[-71.7066571359999,-38.854622343078],[-71.7071837239999,-38.854455991078],[-71.7077205669999,-38.853753584078],[-71.7068747329999,-38.853689642078],[-71.7053699809999,-38.852916157078],[-71.7039598369999,-38.852833568078],[-71.7029339989999,-38.852601952078],[-71.7014099479999,-38.851634700078],[-71.7009436379999,-38.851520245078],[-71.7005408709999,-38.851058002078],[-71.7003931549999,-38.851488643078],[-71.7012658639999,-38.851772897078]]]}},{"type":"Feature","properties":{"id":"9110011001024","commune":"Melipeuco","code":"09110","gse":"D","quintil":"Q1","nse_score":620.2,"educ":10.0,"educ_score":466.7,"hacin":1.341,"hacin_class":"Hacinamiento Leve","hacin_score":778.5,"auto_score":26.3,"n_per":59,"n_hog":20,"source_year":2024,"crime_score":0.0438,"crime_nivel":"Bajo","crime_color":"#cddc39"},"geometry":{"type":"Polygon","coordinates":[[[-71.6966785969999,-38.852118156078],[-71.6978669579999,-38.852411386078],[-71.6982494479999,-38.851425381078],[-71.6970473519999,-38.851151337078],[-71.6966785969999,-38.852118156078]]]}},{"type":"Feature","properties":{"id":"9110011001025","commune":"Melipeuco","code":"09110","gse":"D","quintil":"Q1","nse_score":635.2,"educ":10.9,"educ_score":526.7,"hacin":0.822,"hacin_class":"Sin Hacinamiento","hacin_score":888.9,"auto_score":52.6,"n_per":37,"n_hog":16,"source_year":2024,"crime_score":0.043,"crime_nivel":"Bajo","crime_color":"#cddc39"},"geometry":{"type":"Polygon","coordinates":[[[-71.6922863659999,-38.852204462078],[-71.6935040649999,-38.852508378078],[-71.6938819359999,-38.851526265078],[-71.6926694999999,-38.851233551078],[-71.6922863659999,-38.852204462078]]]}},{"type":"Feature","properties":{"id":"9110011001026","commune":"Melipeuco","code":"09110","gse":"C3","quintil":"Q3","nse_score":693.0,"educ":11.8,"educ_score":586.7,"hacin":0.952,"hacin_class":"Sin Hacinamiento","hacin_score":861.2,"auto_score":0.0,"n_per":40,"n_hog":18,"source_year":2024,"crime_score":0.0417,"crime_nivel":"Bajo","crime_color":"#cddc39"},"geometry":{"type":"Polygon","coordinates":[[[-71.689097924,-38.852585999078],[-71.6895148349999,-38.851598498078],[-71.6880979999999,-38.851265109078],[-71.6877225429999,-38.852240725078],[-71.689097924,-38.852585999078]]]}},{"type":"Feature","properties":{"id":"9110011001027","commune":"Melipeuco","code":"09110","gse":"D","quintil":"Q1","nse_score":626.1,"educ":10.7,"educ_score":513.3,"hacin":1.294,"hacin_class":"Hacinamiento Leve","hacin_score":788.5,"auto_score":157.9,"n_per":44,"n_hog":18,"source_year":2024,"crime_score":0.0433,"crime_nivel":"Bajo","crime_color":"#cddc39"},"geometry":{"type":"Polygon","coordinates":[[[-71.6979687629999,-38.852424124078],[-71.6991903079999,-38.852701481078],[-71.6995885249999,-38.851749062078],[-71.6983518209999,-38.851453196078],[-71.6979687629999,-38.852424124078]]]}},{"type":"Feature","properties":{"id":"9110011001028","commune":"Melipeuco","code":"09110","gse":"D","quintil":"Q2","nse_score":663.3,"educ":11.0,"educ_score":533.3,"hacin":0.972,"hacin_class":"Sin Hacinamiento","hacin_score":857.0,"auto_score":250.0,"n_per":35,"n_hog":13,"source_year":2024,"crime_score":0.0423,"crime_nivel":"Bajo","crime_color":"#cddc39"},"geometry":{"type":"Polygon","coordinates":[[[-71.7008502229999,-38.851976172078],[-71.7010051739999,-38.851670862078],[-71.7003578849999,-38.851517940078],[-71.7002360099999,-38.851817123078],[-71.7008502229999,-38.851976172078]]]}},{"type":"Feature","properties":{"id":"9110011001030","commune":"Melipeuco","code":"09110","gse":"D","quintil":"Q1","nse_score":622.3,"educ":12.2,"educ_score":613.3,"hacin":1.706,"hacin_class":"Hacinamiento Medio","hacin_score":700.9,"auto_score":0.0,"n_per":29,"n_hog":7,"source_year":2024,"crime_score":0.0431,"crime_nivel":"Bajo","crime_color":"#cddc39"},"geometry":{"type":"Polygon","coordinates":[[[-71.6892250129999,-38.852621312078],[-71.6904306119999,-38.852910388078],[-71.6908267699999,-38.851928825078],[-71.6896072249999,-38.851640074078],[-71.6892250129999,-38.852621312078]]]}},{"type":"Feature","properties":{"id":"9110011001031","commune":"Melipeuco","code":"09110","gse":"E","quintil":"Q1","nse_score":543.8,"educ":7.6,"educ_score":306.7,"hacin":1.167,"hacin_class":"Hacinamiento Leve","hacin_score":815.6,"auto_score":147.1,"n_per":42,"n_hog":16,"source_year":2024,"crime_score":0.0452,"crime_nivel":"Bajo","crime_color":"#cddc39"},"geometry":{"type":"Polygon","coordinates":[[[-71.7003292529999,-38.851943206078],[-71.6997009689999,-38.851787963078],[-71.6992964499999,-38.852728966078],[-71.6999452219999,-38.852887753078],[-71.7003292529999,-38.851943206078]]]}},{"type":"Feature","properties":{"id":"9110011001033","commune":"Melipeuco","code":"09110","gse":"D","quintil":"Q2","nse_score":655.4,"educ":11.0,"educ_score":533.3,"hacin":1.207,"hacin_class":"Hacinamiento Leve","hacin_score":807.0,"auto_score":33.3,"n_per":35,"n_hog":13,"source_year":2024,"crime_score":0.0425,"crime_nivel":"Bajo","crime_color":"#cddc39"},"geometry":{"type":"Polygon","coordinates":[[[-71.6917634539999,-38.853226178078],[-71.6921503469999,-38.852257389078],[-71.6909282509999,-38.851947778078],[-71.6905290269999,-38.852930225078],[-71.6917634539999,-38.853226178078]]]}},{"type":"Feature","properties":{"id":"9110011001034","commune":"Melipeuco","code":"09110","gse":"E","quintil":"Q1","nse_score":577.2,"educ":9.1,"educ_score":406.7,"hacin":1.222,"hacin_class":"Hacinamiento Leve","hacin_score":803.8,"auto_score":33.3,"n_per":33,"n_hog":13,"source_year":2024,"crime_score":0.0442,"crime_nivel":"Bajo","crime_color":"#cddc39"},"geometry":{"type":"Polygon","coordinates":[[[-71.7004168789999,-38.851963816078],[-71.7000331349999,-38.852915901078],[-71.7004810649999,-38.853022496078],[-71.7008701959999,-38.852085376078],[-71.7004168789999,-38.851963816078]]]}},{"type":"Feature","properties":{"id":"9110011001035","commune":"Melipeuco","code":"09110","gse":"C3","quintil":"Q2","nse_score":666.0,"educ":11.4,"educ_score":560.0,"hacin":1.0,"hacin_class":"Hacinamiento Leve","hacin_score":851.1,"auto_score":100.0,"n_per":33,"n_hog":14,"source_year":2024,"crime_score":0.0422,"crime_nivel":"Bajo","crime_color":"#cddc39"},"geometry":{"type":"Polygon","coordinates":[[[-71.6978356359999,-38.852476248078],[-71.6966427379999,-38.852190670078],[-71.6962261919999,-38.853169912078],[-71.6974579569999,-38.853462141078],[-71.6978356359999,-38.852476248078]]]}},{"type":"Feature","properties":{"id":"9110011001036","commune":"Melipeuco","code":"09110","gse":"C3","quintil":"Q2","nse_score":673.2,"educ":12.8,"educ_score":653.3,"hacin":1.419,"hacin_class":"Hacinamiento Leve","hacin_score":761.8,"auto_score":208.3,"n_per":44,"n_hog":11,"source_year":2024,"crime_score":0.0423,"crime_nivel":"Bajo","crime_color":"#cddc39"},"geometry":{"type":"Polygon","coordinates":[[[-71.691877282,-38.853255201078],[-71.6930750029999,-38.853540717078],[-71.6934680589999,-38.852577120078],[-71.6922556069999,-38.852284402078],[-71.691877282,-38.853255201078]]]}},{"type":"Feature","properties":{"id":"9110011001037","commune":"Melipeuco","code":"09110","gse":"C3","quintil":"Q2","nse_score":675.1,"educ":11.3,"educ_score":553.3,"hacin":1.174,"hacin_class":"Hacinamiento Leve","hacin_score":814.1,"auto_score":285.7,"n_per":54,"n_hog":20,"source_year":2024,"crime_score":0.0424,"crime_nivel":"Bajo","crime_color":"#cddc39"},"geometry":{"type":"Polygon","coordinates":[[[-71.6876640359999,-38.852356797078],[-71.6872805599999,-38.853305280078],[-71.6886555479999,-38.853639643078],[-71.6890388029999,-38.852685697078],[-71.6876640359999,-38.852356797078]]]}},{"type":"Feature","properties":{"id":"9110011001038","commune":"Melipeuco","code":"09110","gse":"D","quintil":"Q2","nse_score":661.8,"educ":11.6,"educ_score":573.3,"hacin":1.357,"hacin_class":"Hacinamiento Leve","hacin_score":775.1,"auto_score":76.9,"n_per":38,"n_hog":16,"source_year":2024,"crime_score":0.0424,"crime_nivel":"Bajo","crime_color":"#cddc39"},"geometry":{"type":"Polygon","coordinates":[[[-71.697554942,-38.853474991078],[-71.6987912519999,-38.853759556078],[-71.6991646619999,-38.852788849078],[-71.6979380109999,-38.852504064078],[-71.697554942,-38.853474991078]]]}},{"type":"Feature","properties":{"id":"9110011001039","commune":"Melipeuco","code":"09110","gse":"C3","quintil":"Q3","nse_score":706.7,"educ":11.8,"educ_score":586.7,"hacin":1.0,"hacin_class":"Hacinamiento Leve","hacin_score":851.1,"auto_score":83.3,"n_per":11,"n_hog":6,"source_year":2024,"crime_score":0.0408,"crime_nivel":"Bajo","crime_color":"#cddc39"},"geometry":{"type":"Polygon","coordinates":[[[-71.6944000659999,-38.853876101078],[-71.6947631849999,-38.852886781078],[-71.6935701479999,-38.852597401078],[-71.6931678779999,-38.853572530078],[-71.6944000659999,-38.853876101078]]]}},{"type":"Feature","properties":{"id":"9110011001040","commune":"Melipeuco","code":"09110","gse":"D","quintil":"Q2","nse_score":655.1,"educ":11.2,"educ_score":546.7,"hacin":1.296,"hacin_class":"Hacinamiento Leve","hacin_score":788.0,"auto_score":250.0,"n_per":35,"n_hog":10,"source_year":2024,"crime_score":0.0425,"crime_nivel":"Bajo","crime_color":"#cddc39"},"geometry":{"type":"Polygon","coordinates":[[[-71.6891821219999,-38.852713775078],[-71.6887652709999,-38.853683245078],[-71.6900092609999,-38.854005751078],[-71.6903905219999,-38.853000308078],[-71.6891821219999,-38.852713775078]]]}},{"type":"Feature","properties":{"id":"9110011001041","commune":"Melipeuco","code":"09110","gse":"C3","quintil":"Q2","nse_score":667.0,"educ":11.1,"educ_score":540.0,"hacin":0.864,"hacin_class":"Sin Hacinamiento","hacin_score":880.1,"auto_score":0.0,"n_per":57,"n_hog":22,"source_year":2024,"crime_score":0.0427,"crime_nivel":"Bajo","crime_color":"#cddc39"},"geometry":{"type":"Polygon","coordinates":[[[-71.6995169659999,-38.853938961078],[-71.6998951879999,-38.852968140078],[-71.699266754,-38.852809125078],[-71.6988787399999,-38.853776397078],[-71.6995169659999,-38.853938961078]]]}},{"type":"Feature","properties":{"id":"9110011001043","commune":"Melipeuco","code":"09110","gse":"E","quintil":"Q1","nse_score":527.1,"educ":8.4,"educ_score":360.0,"hacin":1.562,"hacin_class":"Hacinamiento Medio","hacin_score":731.4,"auto_score":181.8,"n_per":25,"n_hog":9,"source_year":2024,"crime_score":0.0452,"crime_nivel":"Bajo","crime_color":"#cddc39"},"geometry":{"type":"Polygon","coordinates":[[[-71.6996094169999,-38.853959460078],[-71.700081742,-38.854073037078],[-71.7004646339999,-38.853098334078],[-71.7000020999999,-38.852988304078],[-71.6996094169999,-38.853959460078]]]}},{"type":"Feature","properties":{"id":"9110011001044","commune":"Melipeuco","code":"09110","gse":"D","quintil":"Q2","nse_score":652.3,"educ":11.5,"educ_score":566.7,"hacin":0.812,"hacin_class":"Sin Hacinamiento","hacin_score":891.0,"auto_score":83.3,"n_per":26,"n_hog":10,"source_year":2024,"crime_score":0.0424,"crime_nivel":"Bajo","crime_color":"#cddc39"},"geometry":{"type":"Polygon","coordinates":[[[-71.6917247529999,-38.853334094078],[-71.6905114389999,-38.853030965078],[-71.6901290449999,-38.854006335078],[-71.6913458909999,-38.854289318078],[-71.6917247529999,-38.853334094078]]]}},{"type":"Feature","properties":{"id":"9110011001045","commune":"Melipeuco","code":"09110","gse":"E","quintil":"Q1","nse_score":546.7,"educ":10.9,"educ_score":526.7,"hacin":2.609,"hacin_class":"Hacinamiento Crítico","hacin_score":508.8,"auto_score":208.3,"n_per":60,"n_hog":11,"source_year":2024,"crime_score":0.0455,"crime_nivel":"Bajo","crime_color":"#cddc39"},"geometry":{"type":"Polygon","coordinates":[[[-71.6969997389999,-38.854487623078],[-71.6974126,-38.853538646078],[-71.6962047939999,-38.853242089078],[-71.6958309139999,-38.854201480078],[-71.6969997389999,-38.854487623078]]]}},{"type":"Feature","properties":{"id":"9110011001046","commune":"Melipeuco","code":"09110","gse":"D","quintil":"Q2","nse_score":650.0,"educ":10.3,"educ_score":486.7,"hacin":1.0,"hacin_class":"Hacinamiento Leve","hacin_score":851.1,"auto_score":0.0,"n_per":15,"n_hog":7,"source_year":2024,"crime_score":0.0422,"crime_nivel":"Bajo","crime_color":"#cddc39"},"geometry":{"type":"Polygon","coordinates":[[[-71.6930404199999,-38.853647154078],[-71.691802477,-38.853370351078],[-71.6914526979999,-38.854289198078],[-71.6926568519999,-38.854606759078],[-71.6930404199999,-38.853647154078]]]}},{"type":"Feature","properties":{"id":"9110011001047","commune":"Melipeuco","code":"09110","gse":"C2","quintil":"Q3","nse_score":720.7,"educ":14.2,"educ_score":746.7,"hacin":1.0,"hacin_class":"Hacinamiento Leve","hacin_score":851.1,"auto_score":125.0,"n_per":24,"n_hog":10,"source_year":2024,"crime_score":0.0408,"crime_nivel":"Bajo","crime_color":"#cddc39"},"geometry":{"type":"Polygon","coordinates":[[[-71.6971357209999,-38.854510890078],[-71.6983730449999,-38.854821847078],[-71.6987561079999,-38.853850918078],[-71.6975197959999,-38.853566352078],[-71.6971357209999,-38.854510890078]]]}},{"type":"Feature","properties":{"id":"9110011001048","commune":"Melipeuco","code":"09110","gse":"C3","quintil":"Q3","nse_score":687.5,"educ":11.8,"educ_score":586.7,"hacin":1.16,"hacin_class":"Hacinamiento Leve","hacin_score":817.0,"auto_score":76.9,"n_per":29,"n_hog":13,"source_year":2024,"crime_score":0.0416,"crime_nivel":"Bajo","crime_color":"#cddc39"},"geometry":{"type":"Polygon","coordinates":[[[-71.6943503099999,-38.853964025078],[-71.6931473299999,-38.853667325078],[-71.6927593699999,-38.854638350078],[-71.6939382609999,-38.854935610078],[-71.6943503099999,-38.853964025078]]]}},{"type":"Feature","properties":{"id":"9110011001049","commune":"Melipeuco","code":"09110","gse":"D","quintil":"Q1","nse_score":637.5,"educ":11.3,"educ_score":553.3,"hacin":1.0,"hacin_class":"Hacinamiento Leve","hacin_score":851.1,"auto_score":130.4,"n_per":56,"n_hog":21,"source_year":2024,"crime_score":0.0433,"crime_nivel":"Bajo","crime_color":"#cddc39"},"geometry":{"type":"Polygon","coordinates":[[[-71.7034514629999,-38.854801685078],[-71.7038334389999,-38.853900596078],[-71.7034013299999,-38.853796831078],[-71.7030364949999,-38.854715436078],[-71.7034514629999,-38.854801685078]]]}},{"type":"Feature","properties":{"id":"9110011001051","commune":"Melipeuco","code":"09110","gse":"C2","quintil":"Q4","nse_score":749.9,"educ":14.2,"educ_score":746.7,"hacin":1.177,"hacin_class":"Hacinamiento Leve","hacin_score":813.5,"auto_score":142.9,"n_per":40,"n_hog":15,"source_year":2024,"crime_score":0.0404,"crime_nivel":"Bajo","crime_color":"#cddc39"},"geometry":{"type":"Polygon","coordinates":[[[-71.6956317139999,-38.854292857078],[-71.6944770759999,-38.853998827078],[-71.6940837409999,-38.854954888078],[-71.6952623569999,-38.855244595078],[-71.6956317139999,-38.854292857078]]]}},{"type":"Feature","properties":{"id":"9110011001052","commune":"Melipeuco","code":"09110","gse":"C3","quintil":"Q3","nse_score":687.6,"educ":12.7,"educ_score":646.7,"hacin":1.217,"hacin_class":"Hacinamiento Leve","hacin_score":804.8,"auto_score":83.3,"n_per":56,"n_hog":22,"source_year":2024,"crime_score":0.0422,"crime_nivel":"Bajo","crime_color":"#cddc39"},"geometry":{"type":"Polygon","coordinates":[[[-71.70158226,-38.854941772078],[-71.7017624959999,-38.854542209078],[-71.7005225889999,-38.854274142078],[-71.7003804719999,-38.854665318078],[-71.70158226,-38.854941772078]]]}},{"type":"Feature","properties":{"id":"9110011001053","commune":"Melipeuco","code":"09110","gse":"C3","quintil":"Q2","nse_score":665.6,"educ":11.4,"educ_score":560.0,"hacin":0.867,"hacin_class":"Sin Hacinamiento","hacin_score":879.4,"auto_score":111.1,"n_per":26,"n_hog":9,"source_year":2024,"crime_score":0.0421,"crime_nivel":"Bajo","crime_color":"#cddc39"},"geometry":{"type":"Polygon","coordinates":[[[-71.6953691289999,-38.855260994078],[-71.6965778179999,-38.855580176078],[-71.6969845869999,-38.854597385078],[-71.6957770509999,-38.854308364078],[-71.6953691289999,-38.855260994078]]]}},{"type":"Feature","properties":{"id":"9110011001054","commune":"Melipeuco","code":"09110","gse":"E","quintil":"Q1","nse_score":604.6,"educ":9.2,"educ_score":413.3,"hacin":1.109,"hacin_class":"Hacinamiento Leve","hacin_score":827.9,"auto_score":113.6,"n_per":51,"n_hog":20,"source_year":2024,"crime_score":0.044,"crime_nivel":"Bajo","crime_color":"#cddc39"},"geometry":{"type":"Polygon","coordinates":[[[-71.7018346579999,-38.854557810078],[-71.7016720269999,-38.854961270078],[-71.7028240909999,-38.855241547078],[-71.7029909249999,-38.855172284078],[-71.7031099429999,-38.854833508078],[-71.7018346579999,-38.854557810078]]]}},{"type":"Feature","properties":{"id":"9110011001056","commune":"Melipeuco","code":"09110","gse":"C3","quintil":"Q2","nse_score":669.5,"educ":11.5,"educ_score":566.7,"hacin":1.083,"hacin_class":"Hacinamiento Leve","hacin_score":833.3,"auto_score":107.1,"n_per":26,"n_hog":13,"source_year":2024,"crime_score":0.042,"crime_nivel":"Bajo","crime_color":"#cddc39"},"geometry":{"type":"Polygon","coordinates":[[[-71.7001314329999,-38.855266093078],[-71.7013626549999,-38.855563443078],[-71.7015644839999,-38.854992093078],[-71.7003579429999,-38.854708341078],[-71.7001314329999,-38.855266093078]]]}},{"type":"Feature","properties":{"id":"9110011001058","commune":"Melipeuco","code":"09110","gse":"C1","quintil":"Q5","nse_score":781.8,"educ":14.1,"educ_score":740.0,"hacin":0.696,"hacin_class":"Sin Hacinamiento","hacin_score":915.8,"auto_score":55.6,"n_per":16,"n_hog":8,"source_year":2024,"crime_score":0.0392,"crime_nivel":"Bajo","crime_color":"#cddc39"},"geometry":{"type":"Polygon","coordinates":[[[-71.7003324169999,-38.8569343970779],[-71.7008619069999,-38.857014552078],[-71.7018253549999,-38.856790357078],[-71.7027695419999,-38.855967888078],[-71.6996476289999,-38.855248951078],[-71.6992571419999,-38.856237267078],[-71.7003324169999,-38.8569343970779]]]}},{"type":"Feature","properties":{"id":"9110011001055","commune":"Melipeuco","code":"09110","gse":"C2","quintil":"Q4","nse_score":749.8,"educ":13.9,"educ_score":726.7,"hacin":0.656,"hacin_class":"Sin Hacinamiento","hacin_score":924.2,"auto_score":90.9,"n_per":21,"n_hog":10,"source_year":2024,"crime_score":0.04,"crime_nivel":"Bajo","crime_color":"#cddc39"},"geometry":{"type":"MultiPolygon","coordinates":[[[[-71.698421918,-38.854937288078],[-71.6979592639999,-38.8561702840779],[-71.6985638549999,-38.855967809078],[-71.6991326169999,-38.856152995078],[-71.699543978,-38.855223014078],[-71.698421918,-38.854937288078]]],[[[-71.6966989109999,-38.855592468078],[-71.6979215059999,-38.855896223078],[-71.6983330769999,-38.854913318078],[-71.6970966069999,-38.854624979078],[-71.6966989109999,-38.855592468078]]]]}},{"type":"Feature","properties":{"id":"9110011001006","commune":"Melipeuco","code":"09110","gse":"D","quintil":"Q1","nse_score":620.4,"educ":9.9,"educ_score":460.0,"hacin":1.167,"hacin_class":"Hacinamiento Leve","hacin_score":815.6,"auto_score":208.3,"n_per":35,"n_hog":11,"source_year":2024,"crime_score":0.0433,"crime_nivel":"Bajo","crime_color":"#cddc39"},"geometry":{"type":"MultiPolygon","coordinates":[[[[-71.6845236849999,-38.849342515078],[-71.6850018809999,-38.849662668078],[-71.6853306459999,-38.849588360078],[-71.685184493,-38.849193829078],[-71.6845236849999,-38.849342515078]]],[[[-71.6852334029999,-38.849185002078],[-71.6853860189999,-38.849576818078],[-71.6859396519999,-38.849458830078],[-71.6858229169999,-38.849061054078],[-71.6852334029999,-38.849185002078]]]]}},{"type":"Feature","properties":{"id":"9110011001029","commune":"Melipeuco","code":"09110","gse":"C3","quintil":"Q2","nse_score":672.6,"educ":10.8,"educ_score":520.0,"hacin":0.967,"hacin_class":"Sin Hacinamiento","hacin_score":858.2,"auto_score":250.0,"n_per":29,"n_hog":13,"source_year":2024,"crime_score":0.042,"crime_nivel":"Bajo","crime_color":"#cddc39"},"geometry":{"type":"MultiPolygon","coordinates":[[[[-71.6949535959999,-38.852818246078],[-71.6961326039999,-38.853119253078],[-71.6965453259999,-38.852166510078],[-71.6953375509999,-38.851869943078],[-71.6949535959999,-38.852818246078]]],[[[-71.6936013319999,-38.852528771078],[-71.6948086869999,-38.852814046078],[-71.6952112159999,-38.851846451078],[-71.6939840239999,-38.851546546078],[-71.6936013319999,-38.852528771078]]]]}}]}