{"type":"FeatureCollection","features":[{"type":"Feature","properties":{"id":"6205031001001","commune":"Navidad","code":"06205","gse":"C2","quintil":"Q3","nse_score":724.7,"educ":12.1,"educ_score":606.7,"hacin":1.237,"hacin_class":"Hacinamiento Leve","hacin_score":800.7,"auto_score":139.5,"n_per":115,"n_hog":44,"source_year":2024,"crime_score":0.6737,"crime_nivel":"Alto","crime_color":"#f44336"},"geometry":{"type":"Polygon","coordinates":[[[-71.8366426569999,-33.9413702351256],[-71.8385165619999,-33.9424197261256],[-71.8365690899999,-33.9414359201256],[-71.8355163569999,-33.9426334811255],[-71.8379877059999,-33.9435561471255],[-71.8387820799999,-33.9437390921255],[-71.8379714819999,-33.9435895761256],[-71.8354902689999,-33.9426628451255],[-71.8350327149999,-33.9431836181255],[-71.8338211129999,-33.9452985601255],[-71.8332128319999,-33.9458112751255],[-71.8374733059999,-33.9458412061255],[-71.8375471839999,-33.9446402481255],[-71.8378232409999,-33.9438181511255],[-71.8380490069999,-33.9437223061255],[-71.839091246,-33.9439964031255],[-71.8396508789999,-33.9438713831255],[-71.8400558039999,-33.9433969271255],[-71.8395393909999,-33.9426694451255],[-71.8395224969999,-33.9424193921255],[-71.8398851229999,-33.9423084591256],[-71.8410655459999,-33.9423568031255],[-71.838946286,-33.9412519301256],[-71.8382480599999,-33.9404225691256],[-71.8369440549999,-33.9411135051255],[-71.8385990069999,-33.9420728001255],[-71.8388326969999,-33.9423464141255],[-71.836908993,-33.9411367341256],[-71.8366426569999,-33.9413702351256]]]}},{"type":"Feature","properties":{"id":"6205031001002","commune":"Navidad","code":"06205","gse":"C3","quintil":"Q3","nse_score":700.9,"educ":12.1,"educ_score":606.7,"hacin":1.382,"hacin_class":"Hacinamiento Leve","hacin_score":769.8,"auto_score":181.8,"n_per":76,"n_hog":33,"source_year":2024,"crime_score":0.6701,"crime_nivel":"Alto","crime_color":"#f44336"},"geometry":{"type":"Polygon","coordinates":[[[-71.8352928049999,-33.9414695771256],[-71.8329920459999,-33.9405199641255],[-71.8326051519999,-33.9412802041256],[-71.8313811469999,-33.9408638491255],[-71.8309604319999,-33.9420588181256],[-71.8323616549999,-33.9424243511255],[-71.8325988079999,-33.9418766441255],[-71.8344631829999,-33.9424347671255],[-71.8331547669999,-33.9449407571255],[-71.8320132659999,-33.9459301361255],[-71.8316136699999,-33.9464323311255],[-71.8309244989999,-33.9463920341255],[-71.8305524049999,-33.9468656451255],[-71.8303116669999,-33.9478702011255],[-71.8304347719999,-33.9490162241254],[-71.8309991159999,-33.9483667341255],[-71.8317506029999,-33.9486578311255],[-71.8317314149999,-33.9474884701255],[-71.8322472409999,-33.9467680681255],[-71.8315707119999,-33.9465802181255],[-71.8322606259999,-33.9467274501255],[-71.8329317029999,-33.9459675221255],[-71.8336503199999,-33.9453914621255],[-71.8349720109999,-33.9431641821255],[-71.8349296739999,-33.9425024751255],[-71.8350319179999,-33.9421966151255],[-71.833265562,-33.9416113351256],[-71.8323952119999,-33.9418403741255],[-71.8323499769999,-33.9421152411255],[-71.8316658819999,-33.9419427301255],[-71.8323261829999,-33.9420676521255],[-71.8323591029999,-33.9418317261255],[-71.8321305589999,-33.9416755801255],[-71.8323911099999,-33.9418040711255],[-71.833261993,-33.9415720741256],[-71.835052259,-33.9421564591255],[-71.8352928049999,-33.9414695771256]]]}},{"type":"Feature","properties":{"id":"6205031001003","commune":"Navidad","code":"06205","gse":"D","quintil":"Q1","nse_score":620.7,"educ":10.0,"educ_score":466.7,"hacin":1.333,"hacin_class":"Hacinamiento Leve","hacin_score":780.1,"auto_score":250.0,"n_per":12,"n_hog":4,"source_year":2024,"crime_score":0.6784,"crime_nivel":"Alto","crime_color":"#f44336"},"geometry":{"type":"Polygon","coordinates":[[[-71.8364202559999,-33.9415022511255],[-71.8353815489999,-33.9410536061256],[-71.8352703269999,-33.9418545371255],[-71.8350116839999,-33.9423584481255],[-71.8350308529999,-33.9431002281255],[-71.8364202559999,-33.9415022511255]]]}},{"type":"Feature","properties":{"id":"6205031001004","commune":"Navidad","code":"06205","gse":"C3","quintil":"Q2","nse_score":671.4,"educ":10.4,"educ_score":493.3,"hacin":1.333,"hacin_class":"Hacinamiento Leve","hacin_score":780.1,"auto_score":66.7,"n_per":36,"n_hog":15,"source_year":2024,"crime_score":0.668,"crime_nivel":"Alto","crime_color":"#f44336"},"geometry":{"type":"Polygon","coordinates":[[[-71.8422886529999,-33.9427803161255],[-71.8416232599999,-33.9426804981256],[-71.8410655459999,-33.9423568031255],[-71.8396565119999,-33.9423185061255],[-71.839480465,-33.9425324651255],[-71.8400558039999,-33.9433969271255],[-71.8397461279999,-33.9438095551255],[-71.839091246,-33.9439964031255],[-71.8380490069999,-33.9437223061255],[-71.8377240129999,-33.9439325431256],[-71.8375471839999,-33.9446402481255],[-71.8374751289999,-33.9460038431255],[-71.8376258629999,-33.9463199801255],[-71.8382688749999,-33.9466366841255],[-71.8387342389999,-33.9475536391254],[-71.8396218579999,-33.9467377581255],[-71.8379621839999,-33.9458382781255],[-71.8396520029999,-33.9467110401255],[-71.8399041999999,-33.9465049821255],[-71.8389097559999,-33.9458680961255],[-71.8399353919999,-33.9464794981255],[-71.8419369879999,-33.9446851291255],[-71.8422886529999,-33.9427803161255]]]}},{"type":"Feature","properties":{"id":"6205031001005","commune":"Navidad","code":"06205","gse":"C3","quintil":"Q2","nse_score":667.0,"educ":10.8,"educ_score":520.0,"hacin":1.333,"hacin_class":"Hacinamiento Leve","hacin_score":780.1,"auto_score":0.0,"n_per":8,"n_hog":4,"source_year":2024,"crime_score":0.6604,"crime_nivel":"Alto","crime_color":"#f44336"},"geometry":{"type":"Polygon","coordinates":[[[-71.8430963399999,-33.9429615201255],[-71.8435317459999,-33.9433534621255],[-71.8441057469999,-33.9430344831256],[-71.8433433459999,-33.9426313891255],[-71.8426156009999,-33.9426500711255],[-71.8424682079999,-33.9427529001256],[-71.8430963399999,-33.9429615201255]]]}},{"type":"Feature","properties":{"id":"6205031001007","commune":"Navidad","code":"06205","gse":"E","quintil":"Q1","nse_score":596.0,"educ":10.6,"educ_score":506.7,"hacin":1.188,"hacin_class":"Hacinamiento Leve","hacin_score":811.2,"auto_score":125.0,"n_per":19,"n_hog":10,"source_year":2024,"crime_score":0.6897,"crime_nivel":"Alto","crime_color":"#f44336"},"geometry":{"type":"Polygon","coordinates":[[[-71.8425566729999,-33.9427901371255],[-71.8423172999999,-33.9429786981255],[-71.8419797639999,-33.9446466411256],[-71.8434956639999,-33.9433735141255],[-71.8430725879999,-33.9429916791255],[-71.8425566729999,-33.9427901371255]]]}},{"type":"Feature","properties":{"id":"6205031001009","commune":"Navidad","code":"06205","gse":"D","quintil":"Q2","nse_score":653.9,"educ":11.2,"educ_score":546.7,"hacin":1.158,"hacin_class":"Hacinamiento Leve","hacin_score":817.5,"auto_score":100.0,"n_per":22,"n_hog":11,"source_year":2024,"crime_score":0.6697,"crime_nivel":"Alto","crime_color":"#f44336"},"geometry":{"type":"Polygon","coordinates":[[[-71.8440404749999,-33.9472495461255],[-71.8442548499999,-33.9468352171255],[-71.8438837269999,-33.9461972081255],[-71.8432095229999,-33.9463024761255],[-71.8428499699999,-33.9460932581255],[-71.8423860479999,-33.9461263511255],[-71.8431717619999,-33.9465777251255],[-71.843506896,-33.9464114661255],[-71.843203807,-33.9466029041254],[-71.8436757509999,-33.9468917181255],[-71.8434723909999,-33.9468672281255],[-71.8422458429999,-33.9460709791255],[-71.842010748,-33.9455043831255],[-71.8415705069999,-33.9450807101255],[-71.841457149,-33.9451565051255],[-71.8417392059999,-33.9455140951255],[-71.8414256649999,-33.9451812491255],[-71.8408368319999,-33.9457164591255],[-71.8410381499999,-33.9458793411255],[-71.8413019119999,-33.9456720571255],[-71.8410691969999,-33.9459044611255],[-71.8421812219999,-33.9466594351255],[-71.8440404749999,-33.9472495461255]]]}},{"type":"Feature","properties":{"id":"6205031001010","commune":"Navidad","code":"06205","gse":"C2","quintil":"Q4","nse_score":742.0,"educ":13.0,"educ_score":666.7,"hacin":0.882,"hacin_class":"Sin Hacinamiento","hacin_score":876.1,"auto_score":0.0,"n_per":15,"n_hog":8,"source_year":2024,"crime_score":0.6356,"crime_nivel":"Alto","crime_color":"#f44336"},"geometry":{"type":"Polygon","coordinates":[[[-71.840807578,-33.9457430271255],[-71.8401684409999,-33.9463355411255],[-71.8415659719999,-33.9471818891255],[-71.8448111389999,-33.9482091841255],[-71.8454644669999,-33.9476476601254],[-71.8429461379999,-33.9469868431255],[-71.8415357769999,-33.9463257581255],[-71.8411244799999,-33.9466936851255],[-71.8415009739999,-33.9463040331255],[-71.8413007499999,-33.9461420391255],[-71.8408838789999,-33.9465018181255],[-71.8412696959999,-33.9461169141255],[-71.8410740119999,-33.9459585921255],[-71.8406991449999,-33.9463107111255],[-71.8410429729999,-33.9459334801255],[-71.840807578,-33.9457430271255]]]}},{"type":"Feature","properties":{"id":"6205031001011","commune":"Navidad","code":"06205","gse":"D","quintil":"Q1","nse_score":631.1,"educ":10.8,"educ_score":520.0,"hacin":0.722,"hacin_class":"Sin Hacinamiento","hacin_score":910.2,"auto_score":166.7,"n_per":13,"n_hog":6,"source_year":2024,"crime_score":0.675,"crime_nivel":"Alto","crime_color":"#f44336"},"geometry":{"type":"Polygon","coordinates":[[[-71.8374733059999,-33.9458412061255],[-71.8331608369999,-33.9458471121255],[-71.8323186529999,-33.9467574581255],[-71.8347148739999,-33.9470852521255],[-71.8347916189999,-33.9473101631255],[-71.8346232209999,-33.9480193851255],[-71.8346928569999,-33.9471175281254],[-71.8335294679999,-33.9469603141255],[-71.8331590589999,-33.9478775371255],[-71.8334867189999,-33.9469531891255],[-71.8323052079999,-33.9467923701255],[-71.8318184929999,-33.9474343931255],[-71.8317633189999,-33.9477203391255],[-71.8317627129999,-33.9484498601255],[-71.8320228169999,-33.9491807671254],[-71.8323951319999,-33.9495452601254],[-71.8327965859999,-33.9496539221254],[-71.8327595659999,-33.9489633661254],[-71.8330876629999,-33.9486731671254],[-71.8337903239999,-33.9488251361255],[-71.8347551439999,-33.9485289481255],[-71.8350741159999,-33.9486523121254],[-71.8351688789999,-33.9489205721255],[-71.8353694599999,-33.9489294711255],[-71.8357142899999,-33.9485383931254],[-71.8356794539999,-33.9479216811255],[-71.8355884279999,-33.9477660211255],[-71.8348969929999,-33.9476287061255],[-71.8348895209999,-33.9474035071255],[-71.8351664959999,-33.9471221721255],[-71.8358091989999,-33.9470848201255],[-71.8364835849999,-33.9467086791255],[-71.8367428879999,-33.9467658041255],[-71.836747225,-33.9468964181255],[-71.8364252849999,-33.9475438931255],[-71.8369147959999,-33.9476317681255],[-71.8369194319999,-33.9477713911255],[-71.8364729859999,-33.9485479451254],[-71.8365623689999,-33.9486540611255],[-71.8370170439999,-33.9485579351255],[-71.8374212119999,-33.9482285871255],[-71.8383073519999,-33.9469055041254],[-71.8382688749999,-33.9466366841255],[-71.8376258629999,-33.9463199801255],[-71.8374733059999,-33.9458412061255]]]}},{"type":"Feature","properties":{"id":"6205031001012","commune":"Navidad","code":"06205","gse":"C3","quintil":"Q3","nse_score":686.9,"educ":14.2,"educ_score":746.7,"hacin":1.111,"hacin_class":"Hacinamiento Leve","hacin_score":827.4,"auto_score":300.0,"n_per":10,"n_hog":5,"source_year":2024,"crime_score":0.6539,"crime_nivel":"Alto","crime_color":"#f44336"},"geometry":{"type":"Polygon","coordinates":[[[-71.8401404779999,-33.9463630451255],[-71.8397080809999,-33.9467409391255],[-71.8407391559999,-33.9472906651255],[-71.8410024369999,-33.9469572571255],[-71.8401404779999,-33.9463630451255]]]}},{"type":"Feature","properties":{"id":"6205031001013","commune":"Navidad","code":"06205","gse":"C3","quintil":"Q2","nse_score":669.7,"educ":11.8,"educ_score":586.7,"hacin":1.542,"hacin_class":"Hacinamiento Medio","hacin_score":735.8,"auto_score":285.7,"n_per":74,"n_hog":22,"source_year":2024,"crime_score":0.6811,"crime_nivel":"Alto","crime_color":"#f44336"},"geometry":{"type":"Polygon","coordinates":[[[-71.8348895209999,-33.9474035071255],[-71.8348969929999,-33.9476287061255],[-71.8355884279999,-33.9477660211255],[-71.8356794539999,-33.9479216811255],[-71.8357142899999,-33.9485383931254],[-71.8353694599999,-33.9489294711255],[-71.8351688789999,-33.9489205721255],[-71.8350741159999,-33.9486523121254],[-71.8347551439999,-33.9485289481255],[-71.8337903239999,-33.9488251361255],[-71.8330876629999,-33.9486731671254],[-71.8327595659999,-33.9489633661254],[-71.8327965859999,-33.9496539221254],[-71.8331836669999,-33.9497401471255],[-71.8333894549999,-33.9496503931255],[-71.8341583049999,-33.9496302581255],[-71.8332230339999,-33.9497649141255],[-71.8338493399999,-33.9498957001255],[-71.8340152799999,-33.9500230341255],[-71.8340787849999,-33.9501541681254],[-71.8338348899999,-33.9499300341254],[-71.8333686319999,-33.9498822861255],[-71.8334124789999,-33.9504088541254],[-71.8338114709999,-33.9505620801254],[-71.833956397,-33.9511936301254],[-71.8344446159999,-33.9512771131254],[-71.8359163799999,-33.9493455011254],[-71.8372980219999,-33.9487724181255],[-71.8387342389999,-33.9475536391254],[-71.8383095139999,-33.9467611471255],[-71.8374212119999,-33.9482285871255],[-71.8370170439999,-33.9485579351255],[-71.8365623689999,-33.9486540611255],[-71.8364825559999,-33.9484034871255],[-71.8369194319999,-33.9477713911255],[-71.8369147959999,-33.9476317681255],[-71.8364252849999,-33.9475438931255],[-71.8367428879999,-33.9467658041255],[-71.8364835849999,-33.9467086791255],[-71.8358091989999,-33.9470848201255],[-71.8351664959999,-33.9471221721255],[-71.8348895209999,-33.9474035071255]]]}},{"type":"Feature","properties":{"id":"6205031001014","commune":"Navidad","code":"06205","gse":"D","quintil":"Q2","nse_score":645.2,"educ":10.9,"educ_score":526.7,"hacin":1.041,"hacin_class":"Hacinamiento Leve","hacin_score":842.4,"auto_score":113.6,"n_per":51,"n_hog":22,"source_year":2024,"crime_score":0.6826,"crime_nivel":"Alto","crime_color":"#f44336"},"geometry":{"type":"Polygon","coordinates":[[[-71.8390250929999,-33.9473825271255],[-71.8402303149999,-33.9479733771255],[-71.8403523109999,-33.9478731281254],[-71.8405051069999,-33.9478775461255],[-71.8410677389999,-33.9480715301255],[-71.8412096669999,-33.9481777421255],[-71.8404910749999,-33.9479117831255],[-71.8402323749999,-33.9480102201255],[-71.8400153789999,-33.9479323151255],[-71.8399011589999,-33.9481463371255],[-71.8393530209999,-33.9484425561254],[-71.8392228789999,-33.9486454471255],[-71.8393227449999,-33.9484165451255],[-71.8399852949999,-33.9479788521255],[-71.8389956899999,-33.9474089711255],[-71.8387578269999,-33.9476107831255],[-71.8389371979999,-33.9483378461255],[-71.8387752369999,-33.9486976681255],[-71.8390916159999,-33.9489157361254],[-71.8391425649999,-33.9492841671254],[-71.840129455,-33.9499194651254],[-71.8408105739999,-33.9500660021254],[-71.8419917659999,-33.9507576721255],[-71.8447797679999,-33.9482376991255],[-71.8410719609999,-33.9469785221255],[-71.8407767819999,-33.9473085611255],[-71.8420406589999,-33.9478730291255],[-71.840737509,-33.9473325211255],[-71.8396771969999,-33.9467672631255],[-71.8390250929999,-33.9473825271255]]]}},{"type":"Feature","properties":{"id":"6205031001015","commune":"Navidad","code":"06205","gse":"C2","quintil":"Q4","nse_score":762.0,"educ":13.7,"educ_score":713.3,"hacin":1.058,"hacin_class":"Hacinamiento Leve","hacin_score":838.8,"auto_score":277.8,"n_per":92,"n_hog":38,"source_year":2024,"crime_score":0.6524,"crime_nivel":"Alto","crime_color":"#f44336"},"geometry":{"type":"Polygon","coordinates":[[[-71.8386736319999,-33.9493378651255],[-71.8379525529999,-33.9489333171255],[-71.8379099209999,-33.9487799731255],[-71.8381215919999,-33.9481799661255],[-71.8371639729999,-33.9488865071255],[-71.8374534169999,-33.9491689681254],[-71.8378369159999,-33.9498577841255],[-71.8387880139999,-33.9503152571254],[-71.8378033099999,-33.9498800261255],[-71.8374196929999,-33.9491876351254],[-71.8371220919999,-33.9489021861255],[-71.8369336959999,-33.9489699891254],[-71.8371799399999,-33.9492074761254],[-71.8371562919999,-33.9496588191254],[-71.8373488419999,-33.9497688661254],[-71.8375092129999,-33.9499440541255],[-71.8396134109999,-33.9509821041254],[-71.8374670269999,-33.9499664941255],[-71.837118158,-33.9496740091254],[-71.8371415689999,-33.9492155171254],[-71.8368951539999,-33.9489838601254],[-71.8361056089999,-33.9492837201255],[-71.8338151409999,-33.9522048891254],[-71.8340067579999,-33.9523586221255],[-71.8339962109999,-33.9527129491254],[-71.834191185,-33.9528251451254],[-71.8339706709999,-33.9527505781254],[-71.8339649619999,-33.9523680201254],[-71.8337915279999,-33.9522359841254],[-71.8316954019999,-33.9550064581254],[-71.8323628159999,-33.9552722781254],[-71.8330185199999,-33.9549643421254],[-71.8335241549999,-33.9550954401254],[-71.837173935,-33.9503324961254],[-71.8376506649999,-33.9501508201254],[-71.8408328359999,-33.9517456811254],[-71.8419917659999,-33.9507576721255],[-71.8408105739999,-33.9500660021254],[-71.840129455,-33.9499194651254],[-71.8391425649999,-33.9492841671254],[-71.8390916159999,-33.9489157361254],[-71.8387752369999,-33.9486976681255],[-71.8389371979999,-33.9483378461255],[-71.8387578269999,-33.9476107831255],[-71.8381711079999,-33.9481317261255],[-71.8379532299999,-33.9487837551255],[-71.8379915889999,-33.9489152751254],[-71.8386736319999,-33.9493378651255]]]}},{"type":"Feature","properties":{"id":"6205031001016","commune":"Navidad","code":"06205","gse":"C3","quintil":"Q3","nse_score":685.2,"educ":11.6,"educ_score":573.3,"hacin":1.19,"hacin_class":"Hacinamiento Leve","hacin_score":810.5,"auto_score":180.9,"n_per":125,"n_hog":46,"source_year":2024,"crime_score":0.6919,"crime_nivel":"Alto","crime_color":"#f44336"},"geometry":{"type":"Polygon","coordinates":[[[-71.8316306089999,-33.9496736781255],[-71.8316036599999,-33.9505893021255],[-71.8317637349999,-33.9506712581254],[-71.8324323429999,-33.9505476861254],[-71.8325931659999,-33.9510803641254],[-71.8320388959999,-33.9512013051254],[-71.8316206789999,-33.9511027551254],[-71.831443083,-33.9517874621254],[-71.831220948,-33.9519954091254],[-71.8306390409999,-33.9521395171254],[-71.8299239249999,-33.9525841751254],[-71.8291594679999,-33.9528406541254],[-71.8290932449999,-33.9529999361254],[-71.8294256549999,-33.9535286721254],[-71.8293746499999,-33.9541473611254],[-71.8291686309999,-33.9544135301254],[-71.8277103899999,-33.9553215011254],[-71.8271231659999,-33.9561688711254],[-71.8270238249999,-33.9565227331253],[-71.827171313,-33.9579800621253],[-71.8278395119999,-33.9576459761253],[-71.8295271409999,-33.9551057521254],[-71.8284385109999,-33.9554410481254],[-71.82953305,-33.9550652601254],[-71.8303593639999,-33.9541854371254],[-71.8297205069999,-33.9537637441254],[-71.8294964599999,-33.9532677621254],[-71.8294911839999,-33.9529555121254],[-71.8297705729999,-33.9528025851254],[-71.8294940639999,-33.9530326841254],[-71.8296241279999,-33.9535225611254],[-71.8297890869999,-33.9537879311254],[-71.8303849169999,-33.9541563541254],[-71.8307161969999,-33.9537793031254],[-71.8302915069999,-33.9534827701254],[-71.8307434929999,-33.9537512561254],[-71.8312202819999,-33.9533358031254],[-71.8304738459999,-33.9529436241254],[-71.8312505409999,-33.9533088231254],[-71.8328392009999,-33.9516985691254],[-71.8333462369999,-33.9504141601254],[-71.8332999749999,-33.9498846451254],[-71.832767799,-33.9497039151254],[-71.832627123,-33.9499482231254],[-71.8323105379999,-33.9498969171255],[-71.8318578129999,-33.9496188661254],[-71.8316306089999,-33.9496736781255]]]}},{"type":"Feature","properties":{"id":"6205031001019","commune":"Navidad","code":"06205","gse":"C1","quintil":"Q5","nse_score":795.3,"educ":13.1,"educ_score":673.3,"hacin":1.235,"hacin_class":"Hacinamiento Leve","hacin_score":801.0,"auto_score":428.6,"n_per":21,"n_hog":7,"source_year":2024,"crime_score":0.6181,"crime_nivel":"Alto","crime_color":"#f44336"},"geometry":{"type":"Polygon","coordinates":[[[-71.8313054329999,-33.9533384891254],[-71.8324192199999,-33.9539605481254],[-71.8333559859999,-33.9527025701254],[-71.8324528199999,-33.9522223641254],[-71.8313054329999,-33.9533384891254]]]}},{"type":"Feature","properties":{"id":"6205031001022","commune":"Navidad","code":"06205","gse":"C3","quintil":"Q2","nse_score":674.6,"educ":12.4,"educ_score":626.7,"hacin":1.667,"hacin_class":"Hacinamiento Medio","hacin_score":709.2,"auto_score":111.1,"n_per":20,"n_hog":8,"source_year":2024,"crime_score":0.6616,"crime_nivel":"Alto","crime_color":"#f44336"},"geometry":{"type":"Polygon","coordinates":[[[-71.8332103529999,-33.9549872181254],[-71.8324660329999,-33.9553116691254],[-71.832004976,-33.9552027921254],[-71.8320928099999,-33.9555570441254],[-71.8319644979999,-33.9554520941254],[-71.8319630969999,-33.9551845981254],[-71.8316725149999,-33.9550371521254],[-71.830970422,-33.9559982331254],[-71.8318195949999,-33.9564522731254],[-71.8321294969999,-33.9569154621253],[-71.8335241549999,-33.9550954401254],[-71.8332103529999,-33.9549872181254]]]}},{"type":"Feature","properties":{"id":"6205031001023","commune":"Navidad","code":"06205","gse":"C2","quintil":"Q4","nse_score":727.4,"educ":12.4,"educ_score":626.7,"hacin":1.0,"hacin_class":"Hacinamiento Leve","hacin_score":851.1,"auto_score":154.8,"n_per":101,"n_hog":42,"source_year":2024,"crime_score":0.6682,"crime_nivel":"Alto","crime_color":"#f44336"},"geometry":{"type":"Polygon","coordinates":[[[-71.8281983379999,-33.9572813711254],[-71.8276735559999,-33.9578635041253],[-71.8298690119999,-33.9581072441254],[-71.8300749809999,-33.9572817481254],[-71.8299122369999,-33.9581103031254],[-71.8303921419999,-33.9582038831254],[-71.8305620949999,-33.9579440151254],[-71.8305149129999,-33.9575736191254],[-71.8305605139999,-33.9573369331254],[-71.8306055169999,-33.9579469161253],[-71.830433378,-33.9582175421254],[-71.8308813899999,-33.9584046771253],[-71.8311158259999,-33.9573882661254],[-71.8318745139999,-33.9566257171254],[-71.8317959649999,-33.9564824881254],[-71.8295702589999,-33.9552136591254],[-71.8289440319999,-33.9561487581254],[-71.8295350919999,-33.9563917701254],[-71.8289221089999,-33.9561801421254],[-71.8284387499999,-33.9569657801254],[-71.8294506679999,-33.9571425211253],[-71.8284155489999,-33.9569978831254],[-71.8282230499999,-33.9572516901254],[-71.8285673439999,-33.9573807481253],[-71.8281983379999,-33.9572813711254]]]}},{"type":"Feature","properties":{"id":"6205031001024","commune":"Navidad","code":"06205","gse":"D","quintil":"Q2","nse_score":652.5,"educ":10.3,"educ_score":486.7,"hacin":1.091,"hacin_class":"Hacinamiento Leve","hacin_score":831.7,"auto_score":187.5,"n_per":48,"n_hog":24,"source_year":2024,"crime_score":0.6789,"crime_nivel":"Alto","crime_color":"#f44336"},"geometry":{"type":"Polygon","coordinates":[[[-71.8250979839999,-33.9572521101254],[-71.825469714,-33.9576717761253],[-71.8254004489999,-33.9581736901254],[-71.8246031369999,-33.9591610971253],[-71.8242606559999,-33.9591914991253],[-71.8239893849999,-33.9587785391253],[-71.8231221569999,-33.9580862761254],[-71.8222898199999,-33.9580197371253],[-71.8201175439999,-33.9585473511253],[-71.8192477179999,-33.9590811391253],[-71.8187414629999,-33.9598212851253],[-71.8203083369999,-33.9598102101253],[-71.8231542509999,-33.9594509561253],[-71.8249721879999,-33.9594023021253],[-71.8253670009999,-33.9591699641254],[-71.8260714039999,-33.9583315021254],[-71.8259348089999,-33.9580069991254],[-71.8261667379999,-33.9573794281254],[-71.825977571,-33.9580379441254],[-71.8261054669999,-33.9583205051254],[-71.827171313,-33.9579800621253],[-71.8270238249999,-33.9565227331253],[-71.8268154589999,-33.9568205041254],[-71.8254035669999,-33.9569701381253],[-71.8250979839999,-33.9572521101254]]]}},{"type":"Feature","properties":{"id":"6205031001025","commune":"Navidad","code":"06205","gse":"C3","quintil":"Q2","nse_score":663.6,"educ":11.2,"educ_score":546.7,"hacin":1.163,"hacin_class":"Hacinamiento Leve","hacin_score":816.4,"auto_score":89.7,"n_per":107,"n_hog":39,"source_year":2024,"crime_score":0.6942,"crime_nivel":"Alto","crime_color":"#f44336"},"geometry":{"type":"Polygon","coordinates":[[[-71.8260185319999,-33.9584093951253],[-71.8253066519999,-33.9593055371253],[-71.8247293919999,-33.9594973241253],[-71.8239495569999,-33.9595025201253],[-71.8244499449999,-33.9599212181253],[-71.8253816899999,-33.9602990461253],[-71.8257380329999,-33.9611363371253],[-71.8261587959999,-33.9615646011253],[-71.8275343719999,-33.9619477491253],[-71.8277612539999,-33.9616143931253],[-71.8278817249999,-33.9609289331253],[-71.8277004779999,-33.9607869501253],[-71.8277798889999,-33.9605533941253],[-71.8266406039999,-33.9600679641254],[-71.8265259569999,-33.9599319281253],[-71.8278114519999,-33.9605282741253],[-71.8277450339999,-33.9607847781253],[-71.8279058999999,-33.9608980141253],[-71.8303676299999,-33.9590954391253],[-71.8308630509999,-33.9584374471253],[-71.8301860569999,-33.9581877901254],[-71.8282942469999,-33.9579860971254],[-71.8281853329999,-33.9584418361254],[-71.828251168,-33.9579824111254],[-71.8276364979999,-33.9578943321254],[-71.8260185319999,-33.9584093951253]]]}},{"type":"Feature","properties":{"id":"6205031001026","commune":"Navidad","code":"06205","gse":"C3","quintil":"Q3","nse_score":700.4,"educ":13.9,"educ_score":726.7,"hacin":1.714,"hacin_class":"Hacinamiento Medio","hacin_score":699.1,"auto_score":250.0,"n_per":12,"n_hog":4,"source_year":2024,"crime_score":0.6496,"crime_nivel":"Alto","crime_color":"#f44336"},"geometry":{"type":"Polygon","coordinates":[[[-71.8307960429999,-33.9586424801253],[-71.8324444559999,-33.9592706251253],[-71.8326582629999,-33.9588148061254],[-71.8310274229999,-33.9581275961253],[-71.8307960429999,-33.9586424801253]]]}},{"type":"Feature","properties":{"id":"6205031001027","commune":"Navidad","code":"06205","gse":"C3","quintil":"Q2","nse_score":672.6,"educ":10.9,"educ_score":526.7,"hacin":1.21,"hacin_class":"Hacinamiento Leve","hacin_score":806.3,"auto_score":250.0,"n_per":23,"n_hog":10,"source_year":2024,"crime_score":0.6633,"crime_nivel":"Alto","crime_color":"#f44336"},"geometry":{"type":"Polygon","coordinates":[[[-71.8311242959999,-33.9594908001253],[-71.8305419799999,-33.9593929541253],[-71.8302017489999,-33.9592604161254],[-71.8280830869999,-33.9607789271253],[-71.8285378799999,-33.9610453881253],[-71.829254278,-33.9611276441253],[-71.8310686329999,-33.9598052661253],[-71.8322307399999,-33.9606553011253],[-71.8329838589999,-33.9598268841253],[-71.8323506099999,-33.9592491531253],[-71.8307734009999,-33.9586732181254],[-71.8302363429999,-33.9592357701254],[-71.8311242959999,-33.9594908001253]]]}},{"type":"Feature","properties":{"id":"6205031001028","commune":"Navidad","code":"06205","gse":"C2","quintil":"Q4","nse_score":745.4,"educ":13.5,"educ_score":700.0,"hacin":1.074,"hacin_class":"Hacinamiento Leve","hacin_score":835.3,"auto_score":148.1,"n_per":58,"n_hog":28,"source_year":2024,"crime_score":0.6479,"crime_nivel":"Alto","crime_color":"#f44336"},"geometry":{"type":"Polygon","coordinates":[[[-71.8212401619999,-33.9597614441253],[-71.8214727449999,-33.9613518941253],[-71.8220060689999,-33.9612086871253],[-71.8214310019999,-33.9613674351253],[-71.8211972779999,-33.9597662761253],[-71.8203335779999,-33.9598616441253],[-71.8202982729999,-33.9602451741253],[-71.8202903739999,-33.9598649171253],[-71.819865219,-33.9598676461253],[-71.8200976059999,-33.9620864691253],[-71.8234511179999,-33.9617199581253],[-71.8254787929999,-33.9616428501253],[-71.8261492659999,-33.9620890061253],[-71.8270780999999,-33.9622555031253],[-71.8274043069999,-33.9624628261253],[-71.8275083749999,-33.9619766591253],[-71.8261330589999,-33.9615937041253],[-71.8256997709999,-33.9611535811253],[-71.8253500149999,-33.9603240931253],[-71.8241458489999,-33.9597844581253],[-71.8234678149999,-33.9608755071253],[-71.8231582039999,-33.9611969541253],[-71.8230295469999,-33.9612206821253],[-71.8234317029999,-33.9608556371253],[-71.8241138609999,-33.9597587051253],[-71.823889199,-33.9594980731254],[-71.8212401619999,-33.9597614441253]]]}},{"type":"Feature","properties":{"id":"6205031001017","commune":"Navidad","code":"06205","gse":"C2","quintil":"Q4","nse_score":743.2,"educ":12.1,"educ_score":606.7,"hacin":0.862,"hacin_class":"Sin Hacinamiento","hacin_score":880.4,"auto_score":181.8,"n_per":25,"n_hog":11,"source_year":2024,"crime_score":0.6383,"crime_nivel":"Alto","crime_color":"#f44336"},"geometry":{"type":"MultiPolygon","coordinates":[[[[-71.8324847299999,-33.9521961931255],[-71.8333792179999,-33.9526719671254],[-71.8344183759999,-33.9513094221254],[-71.8331449339999,-33.9511298041254],[-71.8328974389999,-33.9517225131254],[-71.8324847299999,-33.9521961931255]]],[[[-71.8331517359999,-33.9510856331254],[-71.8339121319999,-33.9511871191254],[-71.833773704,-33.9505797101255],[-71.8334031769999,-33.9504440931254],[-71.8331517359999,-33.9510856331254]]]]}},{"type":"Feature","properties":{"id":"6205031001020","commune":"Navidad","code":"06205","gse":"C1","quintil":"Q5","nse_score":795.2,"educ":14.3,"educ_score":753.3,"hacin":1.375,"hacin_class":"Hacinamiento Leve","hacin_score":771.3,"auto_score":187.5,"n_per":22,"n_hog":8,"source_year":2024,"crime_score":0.6185,"crime_nivel":"Alto","crime_color":"#f44336"},"geometry":{"type":"MultiPolygon","coordinates":[[[[-71.8295839649999,-33.9551788331254],[-71.8309164749999,-33.9559681011254],[-71.8315909289999,-33.9550448571254],[-71.8303250629999,-33.9543149561254],[-71.8295946409999,-33.9550854141254],[-71.8295839649999,-33.9551788331254]]],[[[-71.8315699499999,-33.9549915921254],[-71.8323952729999,-33.9539905721254],[-71.8312762589999,-33.9533654641254],[-71.8303512339999,-33.9542862171254],[-71.8315699499999,-33.9549915921254]]]]}},{"type":"Feature","properties":{"id":"6205013082001","commune":"Navidad","code":"06205","gse":"C2","quintil":"Q3","nse_score":719.9,"educ":13.2,"educ_score":680.0,"hacin":0.875,"hacin_class":"Sin Hacinamiento","hacin_score":877.7,"auto_score":346.2,"n_per":28,"n_hog":13,"source_year":2024,"crime_score":0.6477,"crime_nivel":"Alto","crime_color":"#f44336"},"geometry":{"type":"Polygon","coordinates":[[[-71.7408025909999,-33.9399963541256],[-71.7369891589999,-33.9404186221256],[-71.7370304539999,-33.9405906801256],[-71.7376747119999,-33.9403976561256],[-71.7388997029999,-33.9405596291256],[-71.739249029,-33.9411052161255],[-71.7394605509999,-33.9417810261256],[-71.7396034939999,-33.9418233451255],[-71.7399159159999,-33.9417947931255],[-71.7400053949999,-33.9418239901255],[-71.7401746939999,-33.9420345431255],[-71.7399148389999,-33.9418132151256],[-71.7396014349999,-33.9418413671255],[-71.7394658289999,-33.9418017091256],[-71.7398498589999,-33.9428535151256],[-71.7396907979999,-33.9435363771255],[-71.7407658719999,-33.9456922181255],[-71.7412416599999,-33.9453752051255],[-71.7410653739999,-33.9449385641255],[-71.7405974089999,-33.9433038811256],[-71.7412605279999,-33.9453654241255],[-71.7415351089999,-33.9452262061255],[-71.7413482399999,-33.9447485821255],[-71.741554247,-33.9452172001255],[-71.7420321719999,-33.9450430681255],[-71.7414719669999,-33.9428166771255],[-71.7409592229999,-33.9423672121256],[-71.7407575929999,-33.9414789701255],[-71.7404369469999,-33.9409188611256],[-71.7407085909999,-33.9412211241255],[-71.7409987659999,-33.9423512571255],[-71.7415122779999,-33.9428025771255],[-71.742073306,-33.9450318791255],[-71.742867724,-33.9448669881255],[-71.7421495859999,-33.9427235431255],[-71.742047581,-33.9429152101256],[-71.7421115899999,-33.9433016191255],[-71.7420163269999,-33.9433607301255],[-71.7420045649999,-33.9429108381255],[-71.7421379609999,-33.9426886681256],[-71.7420545029999,-33.9423256721255],[-71.7422246659999,-33.9422177871255],[-71.7421076429999,-33.9425088191256],[-71.7429109209999,-33.9448619071255],[-71.7435404989999,-33.9448761591255],[-71.7442424399999,-33.9451247021255],[-71.7421863759999,-33.9400682761255],[-71.7408025909999,-33.9399963541256]]]}},{"type":"Feature","properties":{"id":"6205013082002","commune":"Navidad","code":"06205","gse":"D","quintil":"Q1","nse_score":627.3,"educ":12.2,"educ_score":613.3,"hacin":1.053,"hacin_class":"Hacinamiento Leve","hacin_score":839.9,"auto_score":350.0,"n_per":20,"n_hog":7,"source_year":2024,"crime_score":0.6787,"crime_nivel":"Alto","crime_color":"#f44336"},"geometry":{"type":"Polygon","coordinates":[[[-71.7421863759999,-33.9400682761255],[-71.7443116299999,-33.9451566661255],[-71.7446282099999,-33.9453014701255],[-71.7427123269999,-33.9404666961256],[-71.7446536319999,-33.9450495901255],[-71.7446671349999,-33.9453189131255],[-71.7456764749999,-33.9457608531255],[-71.7466542459999,-33.9456421701255],[-71.7464927459999,-33.9436586131256],[-71.7466592059999,-33.9433615121256],[-71.7467013339999,-33.9420009831256],[-71.746715203,-33.9433674181255],[-71.7465583569999,-33.9436965051255],[-71.7467099129999,-33.9456385781255],[-71.7470735409999,-33.9456047641255],[-71.7480608879999,-33.9411637461255],[-71.7442403759999,-33.9403311751256],[-71.7421863759999,-33.9400682761255]]]}},{"type":"Feature","properties":{"id":"6205013082003","commune":"Navidad","code":"06205","gse":"D","quintil":"Q2","nse_score":651.7,"educ":11.2,"educ_score":546.7,"hacin":1.429,"hacin_class":"Hacinamiento Leve","hacin_score":759.9,"auto_score":75.0,"n_per":50,"n_hog":20,"source_year":2024,"crime_score":0.6798,"crime_nivel":"Alto","crime_color":"#f44336"},"geometry":{"type":"Polygon","coordinates":[[[-71.7370619899999,-33.9405952731256],[-71.7375016909999,-33.9416204281256],[-71.7378861529999,-33.9414892181256],[-71.7383863939999,-33.9423601891255],[-71.7378727439999,-33.9415067241256],[-71.7375109199999,-33.9416367411256],[-71.7388054259999,-33.9438978171255],[-71.7390519019999,-33.9438195281255],[-71.7391253909999,-33.9436467931255],[-71.7386660269999,-33.9428685541255],[-71.7391216599999,-33.9435476731255],[-71.7391468909999,-33.9436986051255],[-71.7390833059999,-33.9438118701255],[-71.7392092989999,-33.9438366141255],[-71.739330907,-33.9439484931255],[-71.7391324669999,-33.9438286821255],[-71.7388144259999,-33.9439142471255],[-71.7401162569999,-33.9461404431255],[-71.7407488689999,-33.9457038731255],[-71.73966981,-33.9435410591255],[-71.7398283619999,-33.9428564391256],[-71.7394745059999,-33.9421078131256],[-71.7393534539999,-33.9414024301255],[-71.7389621269999,-33.9406494941256],[-71.7385942679999,-33.9404869411256],[-71.7376751149999,-33.9404158671256],[-71.7370619899999,-33.9405952731256]]]}},{"type":"Feature","properties":{"id":"6205013082005","commune":"Navidad","code":"06205","gse":"C3","quintil":"Q3","nse_score":707.6,"educ":11.6,"educ_score":573.3,"hacin":1.024,"hacin_class":"Hacinamiento Leve","hacin_score":845.9,"auto_score":289.5,"n_per":127,"n_hog":57,"source_year":2024,"crime_score":0.684,"crime_nivel":"Alto","crime_color":"#f44336"},"geometry":{"type":"Polygon","coordinates":[[[-71.7362670079999,-33.9406226751255],[-71.734612749,-33.9416484491256],[-71.7330708579999,-33.9430047421255],[-71.7316717349999,-33.9453033011255],[-71.7311292179999,-33.9466595941255],[-71.7304830139999,-33.9478050181255],[-71.7330816149999,-33.9487859491255],[-71.7332850789999,-33.9485275061255],[-71.733324336,-33.9480414641254],[-71.7334938549999,-33.9477832881255],[-71.7333194949999,-33.9485091161255],[-71.7343239639999,-33.9477974051255],[-71.7346854189999,-33.9473065981255],[-71.7350313069999,-33.9473226581255],[-71.7350040789999,-33.9470638811255],[-71.734706866,-33.9468271241255],[-71.7325660179999,-33.9458586471255],[-71.7347596459999,-33.9467890621255],[-71.7341354029999,-33.9449014761255],[-71.7336620849999,-33.9454617681255],[-71.734118469,-33.9448562781255],[-71.7338534319999,-33.9439311831255],[-71.7349898599999,-33.9436609481255],[-71.7344481729999,-33.9419695981256],[-71.7354921459999,-33.9415422681255],[-71.7355988249999,-33.9412221861256],[-71.7355796539999,-33.9416351871255],[-71.7361683039999,-33.9434023191255],[-71.7371752189999,-33.9432027821255],[-71.7362670079999,-33.9406226751255]]]}},{"type":"Feature","properties":{"id":"6205013082006","commune":"Navidad","code":"06205","gse":"C3","quintil":"Q2","nse_score":666.7,"educ":11.2,"educ_score":546.7,"hacin":1.636,"hacin_class":"Hacinamiento Medio","hacin_score":715.7,"auto_score":166.7,"n_per":18,"n_hog":6,"source_year":2024,"crime_score":0.6638,"crime_nivel":"Alto","crime_color":"#f44336"},"geometry":{"type":"Polygon","coordinates":[[[-71.7365715409999,-33.9411833651255],[-71.7371695719999,-33.9429421031255],[-71.7380271259999,-33.9426885171256],[-71.7370495949999,-33.9409144881255],[-71.7365715409999,-33.9411833651255]]]}},{"type":"Feature","properties":{"id":"6205013082009","commune":"Navidad","code":"06205","gse":"C3","quintil":"Q2","nse_score":676.2,"educ":11.2,"educ_score":546.7,"hacin":1.306,"hacin_class":"Hacinamiento Leve","hacin_score":785.9,"auto_score":195.7,"n_per":64,"n_hog":23,"source_year":2024,"crime_score":0.6754,"crime_nivel":"Alto","crime_color":"#f44336"},"geometry":{"type":"Polygon","coordinates":[[[-71.736528872,-33.9444877681255],[-71.7364825419999,-33.9446495821255],[-71.7369013839999,-33.9446202021255],[-71.7364621909999,-33.9446894511255],[-71.7362486879999,-33.9450905781255],[-71.7370707059999,-33.9449735141255],[-71.7362268709999,-33.9451315841255],[-71.7360930829999,-33.9453993731255],[-71.7377756089999,-33.9449895751255],[-71.7371937719999,-33.9432546841255],[-71.7361860369999,-33.9434543831255],[-71.736528872,-33.9444877681255]]]}},{"type":"Feature","properties":{"id":"6205013082010","commune":"Navidad","code":"06205","gse":"C3","quintil":"Q2","nse_score":676.4,"educ":10.9,"educ_score":526.7,"hacin":1.25,"hacin_class":"Hacinamiento Leve","hacin_score":797.9,"auto_score":289.5,"n_per":50,"n_hog":19,"source_year":2024,"crime_score":0.6707,"crime_nivel":"Alto","crime_color":"#f44336"},"geometry":{"type":"Polygon","coordinates":[[[-71.7350585199999,-33.9437017021255],[-71.7354063869999,-33.9447995601255],[-71.7364436429999,-33.9445789611255],[-71.7361230679999,-33.9434675251255],[-71.7350585199999,-33.9437017021255]]]}},{"type":"Feature","properties":{"id":"6205013082011","commune":"Navidad","code":"06205","gse":"E","quintil":"Q1","nse_score":595.8,"educ":8.4,"educ_score":360.0,"hacin":1.417,"hacin_class":"Hacinamiento Leve","hacin_score":762.4,"auto_score":38.5,"n_per":34,"n_hog":12,"source_year":2024,"crime_score":0.6949,"crime_nivel":"Alto","crime_color":"#f44336"},"geometry":{"type":"Polygon","coordinates":[[[-71.7339251079999,-33.9439543251255],[-71.7340861209999,-33.9444643581255],[-71.7351469479999,-33.9442193791255],[-71.7349958119999,-33.9437155921255],[-71.7339251079999,-33.9439543251255]]]}},{"type":"Feature","properties":{"id":"6205013082012","commune":"Navidad","code":"06205","gse":"C2","quintil":"Q4","nse_score":748.3,"educ":12.1,"educ_score":606.7,"hacin":0.64,"hacin_class":"Sin Hacinamiento","hacin_score":927.7,"auto_score":90.9,"n_per":16,"n_hog":10,"source_year":2024,"crime_score":0.6336,"crime_nivel":"Alto","crime_color":"#f44336"},"geometry":{"type":"Polygon","coordinates":[[[-71.7383855689999,-33.9467316071255],[-71.7386999959999,-33.9470873671255],[-71.7400650599999,-33.9461757581255],[-71.7388376939999,-33.9440676301255],[-71.7376644029999,-33.9443471151255],[-71.7383855689999,-33.9467316071255]]]}},{"type":"Feature","properties":{"id":"6205013082013","commune":"Navidad","code":"06205","gse":"D","quintil":"Q1","nse_score":630.6,"educ":9.3,"educ_score":420.0,"hacin":1.333,"hacin_class":"Hacinamiento Leve","hacin_score":780.1,"auto_score":0.0,"n_per":16,"n_hog":7,"source_year":2024,"crime_score":0.6762,"crime_nivel":"Alto","crime_color":"#f44336"},"geometry":{"type":"Polygon","coordinates":[[[-71.7340960789999,-33.9444994641255],[-71.7342674449999,-33.9450720001255],[-71.7353437749999,-33.9448137301255],[-71.7351579729999,-33.9442542381255],[-71.7340960789999,-33.9444994641255]]]}},{"type":"Feature","properties":{"id":"6205013082014","commune":"Navidad","code":"06205","gse":"E","quintil":"Q1","nse_score":555.8,"educ":10.5,"educ_score":500.0,"hacin":1.679,"hacin_class":"Hacinamiento Medio","hacin_score":706.7,"auto_score":218.8,"n_per":47,"n_hog":17,"source_year":2024,"crime_score":0.7141,"crime_nivel":"Alto","crime_color":"#f44336"},"geometry":{"type":"Polygon","coordinates":[[[-71.7342854469999,-33.9451239481255],[-71.7345170749999,-33.9457878401255],[-71.736000611,-33.9454303711255],[-71.7364167499999,-33.9446404851255],[-71.7342854469999,-33.9451239481255]]]}},{"type":"Feature","properties":{"id":"6205013082015","commune":"Navidad","code":"06205","gse":"C3","quintil":"Q3","nse_score":685.8,"educ":12.3,"educ_score":620.0,"hacin":1.274,"hacin_class":"Hacinamiento Leve","hacin_score":792.7,"auto_score":333.3,"n_per":65,"n_hog":24,"source_year":2024,"crime_score":0.6722,"crime_nivel":"Alto","crime_color":"#f44336"},"geometry":{"type":"Polygon","coordinates":[[[-71.7427426389999,-33.9457106751255],[-71.7424777509999,-33.9452269951255],[-71.7424319279999,-33.9449968511255],[-71.741735188,-33.9451941471255],[-71.7422781439999,-33.9462740701255],[-71.7417162109999,-33.9452030771255],[-71.7413008569999,-33.9454081941255],[-71.7415034719999,-33.9456223471255],[-71.7412638369999,-33.9454273871255],[-71.7402904229999,-33.9460904951255],[-71.7410976989999,-33.9474947711255],[-71.7402562589999,-33.9461140611255],[-71.7399955169999,-33.9462935911255],[-71.740461809,-33.9467509601255],[-71.7408889559999,-33.9475036791255],[-71.7404247069999,-33.9467696471255],[-71.7399620419999,-33.9463165141255],[-71.7396748389999,-33.9465163641255],[-71.7414144259999,-33.9497774391255],[-71.7424563129999,-33.9498866101255],[-71.7430383129999,-33.9496933321254],[-71.7432549519999,-33.9486652901255],[-71.7438347969999,-33.9483999361254],[-71.7451457209999,-33.9470319511255],[-71.7454348049999,-33.9465972831255],[-71.7455103529999,-33.9461763961255],[-71.7458074209999,-33.9458753601255],[-71.7439601999999,-33.9450561381255],[-71.7430711439999,-33.9448976671255],[-71.7424741339999,-33.9449886011255],[-71.7427426389999,-33.9457106751255]]]}},{"type":"Feature","properties":{"id":"6205013082016","commune":"Navidad","code":"06205","gse":"D","quintil":"Q1","nse_score":624.3,"educ":10.0,"educ_score":466.7,"hacin":1.8,"hacin_class":"Hacinamiento Medio","hacin_score":680.9,"auto_score":166.7,"n_per":27,"n_hog":9,"source_year":2024,"crime_score":0.6822,"crime_nivel":"Alto","crime_color":"#f44336"},"geometry":{"type":"Polygon","coordinates":[[[-71.7353512579999,-33.9466420571255],[-71.7380664109999,-33.9458345491255],[-71.7377871489999,-33.9450243171255],[-71.7360623959999,-33.9454475421255],[-71.7353512579999,-33.9466420571255]]]}},{"type":"Feature","properties":{"id":"6205013082018","commune":"Navidad","code":"06205","gse":"C3","quintil":"Q2","nse_score":669.5,"educ":11.5,"educ_score":566.7,"hacin":1.114,"hacin_class":"Hacinamiento Leve","hacin_score":826.9,"auto_score":236.8,"n_per":49,"n_hog":19,"source_year":2024,"crime_score":0.673,"crime_nivel":"Alto","crime_color":"#f44336"},"geometry":{"type":"Polygon","coordinates":[[[-71.7355695219999,-33.9468496221255],[-71.735500236,-33.9466427721255],[-71.7350171349999,-33.9467945911255],[-71.7350720079999,-33.9473394291255],[-71.7364465329999,-33.9479551631255],[-71.7373357469999,-33.9478265381255],[-71.7381410329999,-33.9464601691255],[-71.738075895,-33.9458699031255],[-71.7355420379999,-33.9466328601255],[-71.7355695219999,-33.9468496221255]]]}},{"type":"Feature","properties":{"id":"6205013082019","commune":"Navidad","code":"06205","gse":"C1","quintil":"Q5","nse_score":788.0,"educ":13.8,"educ_score":720.0,"hacin":1.083,"hacin_class":"Hacinamiento Leve","hacin_score":833.3,"auto_score":250.0,"n_per":13,"n_hog":8,"source_year":2024,"crime_score":0.6183,"crime_nivel":"Alto","crime_color":"#f44336"},"geometry":{"type":"Polygon","coordinates":[[[-71.7382061419999,-33.9465239281255],[-71.7374607049999,-33.9477749681254],[-71.7386489679999,-33.9471208041255],[-71.7382061419999,-33.9465239281255]]]}},{"type":"Feature","properties":{"id":"6205013082021","commune":"Navidad","code":"06205","gse":"C3","quintil":"Q3","nse_score":699.1,"educ":12.1,"educ_score":606.7,"hacin":1.375,"hacin_class":"Hacinamiento Leve","hacin_score":771.3,"auto_score":125.0,"n_per":33,"n_hog":12,"source_year":2024,"crime_score":0.6569,"crime_nivel":"Alto","crime_color":"#f44336"},"geometry":{"type":"MultiPolygon","coordinates":[[[[-71.7365123069999,-33.9479892391254],[-71.7364103649999,-33.9492473181255],[-71.7373100129999,-33.9478638541255],[-71.7365123069999,-33.9479892391254]]],[[[-71.7343561879999,-33.9478215781255],[-71.7332260089999,-33.9486261641255],[-71.7330819899999,-33.9488700921255],[-71.7333009099999,-33.9490596851255],[-71.7331144599999,-33.9503810371254],[-71.7332152199999,-33.9508566531255],[-71.7329180349999,-33.9511222941255],[-71.7347955389999,-33.9517606741254],[-71.7363708109999,-33.9493097931255],[-71.7364082789999,-33.9486470631255],[-71.7350665789999,-33.9484225991255],[-71.7341503489999,-33.9481761341255],[-71.7364136619999,-33.9486110631254],[-71.7364686039999,-33.9479928731254],[-71.7347664279999,-33.9473005791255],[-71.7343561879999,-33.9478215781255]]]]}},{"type":"Feature","properties":{"id":"6205013082020","commune":"Navidad","code":"06205","gse":"D","quintil":"Q1","nse_score":618.1,"educ":9.5,"educ_score":433.3,"hacin":1.286,"hacin_class":"Hacinamiento Leve","hacin_score":790.3,"auto_score":115.4,"n_per":36,"n_hog":13,"source_year":2024,"crime_score":0.6875,"crime_nivel":"Alto","crime_color":"#f44336"},"geometry":{"type":"MultiPolygon","coordinates":[[[[-71.7349920409999,-33.9516593891254],[-71.7354770759999,-33.9520145051255],[-71.7361675329999,-33.9515145131254],[-71.7355648929999,-33.9508232311254],[-71.7349920409999,-33.9516593891254]]],[[[-71.7374149489999,-33.9478557021254],[-71.7355878859999,-33.9507896381254],[-71.736192705,-33.9514806191254],[-71.7367090209999,-33.9507853971255],[-71.7377886909999,-33.9505405031254],[-71.7388429419999,-33.9506207081254],[-71.7392297729999,-33.9504498231254],[-71.7400514439999,-33.9505036441254],[-71.7410634169999,-33.9498139821255],[-71.7414144259999,-33.9497774391255],[-71.7396409719999,-33.9465393351255],[-71.7374149489999,-33.9478557021254]]]]}},{"type":"Feature","properties":{"id":"6205033021001","commune":"Navidad","code":"06205","gse":"D","quintil":"Q2","nse_score":642.3,"educ":10.1,"educ_score":473.3,"hacin":1.39,"hacin_class":"Hacinamiento Leve","hacin_score":768.1,"auto_score":185.5,"n_per":189,"n_hog":62,"source_year":2024,"crime_score":0.7296,"crime_nivel":"Alto","crime_color":"#f44336"},"geometry":{"type":"Polygon","coordinates":[[[-71.8445283139999,-33.9199620741258],[-71.8447944609999,-33.9208709091258],[-71.8444277399999,-33.9212164321258],[-71.8447231339999,-33.9218196671258],[-71.8443418619999,-33.9228421021258],[-71.8451728759999,-33.9230664691258],[-71.8451603459999,-33.9228981081258],[-71.8450174929999,-33.9228442761258],[-71.8449887179999,-33.9227843111258],[-71.8451900769999,-33.9229170581258],[-71.8452256389999,-33.9231946251258],[-71.8456206249999,-33.9234049691258],[-71.8456480959999,-33.9229422511258],[-71.8453539219999,-33.9228900941258],[-71.8456788659999,-33.9228711581258],[-71.8456720479999,-33.9234095551258],[-71.8463472179999,-33.9235846631258],[-71.8463709059999,-33.9228828181258],[-71.8449073459999,-33.9225976761258],[-71.8452435929999,-33.9225681231258],[-71.8463753199999,-33.9228359851258],[-71.8463702299999,-33.9224822571258],[-71.8448860339999,-33.9222926091258],[-71.8455784069999,-33.9223027831258],[-71.845560954,-33.9221114331258],[-71.8450496259999,-33.9220943261258],[-71.8455883409999,-33.9220599731258],[-71.8455885519999,-33.9218430061258],[-71.8454402949999,-33.9219118131258],[-71.8452158249999,-33.9218614251258],[-71.8455803589999,-33.9218244101258],[-71.8455314719999,-33.9216547531258],[-71.8453316089999,-33.9216339841258],[-71.8455317569999,-33.9216325491258],[-71.8455437149999,-33.9214684161258],[-71.8453730129999,-33.9214619061258],[-71.8452219909999,-33.9214049761258],[-71.8455531079999,-33.9214507081258],[-71.8463206449999,-33.9212123761258],[-71.8463183899999,-33.9209870531258],[-71.8453936169999,-33.9208106421258],[-71.8463011199999,-33.9208967001258],[-71.8462800369999,-33.9202960551258],[-71.8445283139999,-33.9199620741258]]]}},{"type":"Feature","properties":{"id":"6205033021002","commune":"Navidad","code":"06205","gse":"C3","quintil":"Q3","nse_score":693.8,"educ":12.5,"educ_score":633.3,"hacin":1.429,"hacin_class":"Hacinamiento Leve","hacin_score":759.9,"auto_score":0.0,"n_per":20,"n_hog":8,"source_year":2024,"crime_score":0.6546,"crime_nivel":"Alto","crime_color":"#f44336"},"geometry":{"type":"Polygon","coordinates":[[[-71.8463961499999,-33.9209386681258],[-71.8485379129999,-33.9212869021258],[-71.8484972219999,-33.9210100441258],[-71.8481923579999,-33.9206218001258],[-71.8463496209999,-33.9203093221258],[-71.8463961499999,-33.9209386681258]]]}},{"type":"Feature","properties":{"id":"6205033021003","commune":"Navidad","code":"06205","gse":"E","quintil":"Q1","nse_score":515.6,"educ":7.0,"educ_score":266.7,"hacin":1.3,"hacin_class":"Hacinamiento Leve","hacin_score":787.2,"auto_score":45.5,"n_per":26,"n_hog":10,"source_year":2024,"crime_score":0.7213,"crime_nivel":"Alto","crime_color":"#f44336"},"geometry":{"type":"Polygon","coordinates":[[[-71.8475745829999,-33.9215167741258],[-71.8475542479999,-33.9216834011258],[-71.8478683789999,-33.9217728431258],[-71.8480350299999,-33.9212565891258],[-71.8463851379999,-33.9210016701258],[-71.8464180809999,-33.9213809751258],[-71.8475315749999,-33.9216785551258],[-71.8475745829999,-33.9215167741258]]]}},{"type":"Feature","properties":{"id":"6205033021004","commune":"Navidad","code":"06205","gse":"D","quintil":"Q1","nse_score":618.9,"educ":8.9,"educ_score":393.3,"hacin":1.25,"hacin_class":"Hacinamiento Leve","hacin_score":797.9,"auto_score":55.6,"n_per":25,"n_hog":9,"source_year":2024,"crime_score":0.6835,"crime_nivel":"Alto","crime_color":"#f44336"},"geometry":{"type":"Polygon","coordinates":[[[-71.8463319129999,-33.9212495881258],[-71.8455970599999,-33.9214406701258],[-71.8455909229999,-33.9217625621258],[-71.8463440209999,-33.9218438981258],[-71.8463319129999,-33.9212495881258]]]}},{"type":"Feature","properties":{"id":"6205033021007","commune":"Navidad","code":"06205","gse":"C2","quintil":"Q4","nse_score":773.2,"educ":13.3,"educ_score":686.7,"hacin":0.846,"hacin_class":"Sin Hacinamiento","hacin_score":883.8,"auto_score":83.3,"n_per":11,"n_hog":6,"source_year":2024,"crime_score":0.6231,"crime_nivel":"Alto","crime_color":"#f44336"},"geometry":{"type":"Polygon","coordinates":[[[-71.8464599409999,-33.9221303711258],[-71.8476729779999,-33.9224841291258],[-71.8477447529999,-33.9222558241258],[-71.8476937999999,-33.9221239341258],[-71.846443684,-33.9217941171258],[-71.8464599409999,-33.9221303711258]]]}},{"type":"Feature","properties":{"id":"6205033021008","commune":"Navidad","code":"06205","gse":"C2","quintil":"Q3","nse_score":717.1,"educ":11.9,"educ_score":593.3,"hacin":1.4,"hacin_class":"Hacinamiento Leve","hacin_score":766.0,"auto_score":625.0,"n_per":14,"n_hog":4,"source_year":2024,"crime_score":0.6443,"crime_nivel":"Alto","crime_color":"#f44336"},"geometry":{"type":"Polygon","coordinates":[[[-71.8463637589999,-33.9218861621258],[-71.8456437719999,-33.9218433761258],[-71.8456278979999,-33.9220694241258],[-71.8463732559999,-33.9221283851258],[-71.8463637589999,-33.9218861621258]]]}},{"type":"Feature","properties":{"id":"6205033021009","commune":"Navidad","code":"06205","gse":"E","quintil":"Q1","nse_score":554.4,"educ":9.4,"educ_score":426.7,"hacin":1.6,"hacin_class":"Hacinamiento Medio","hacin_score":723.4,"auto_score":0.0,"n_per":16,"n_hog":5,"source_year":2024,"crime_score":0.7037,"crime_nivel":"Alto","crime_color":"#f44336"},"geometry":{"type":"Polygon","coordinates":[[[-71.8463689439999,-33.9221423721258],[-71.8456475939999,-33.9220921871258],[-71.8456110659999,-33.9223001381258],[-71.8463780239999,-33.9224486421258],[-71.8463689439999,-33.9221423721258]]]}},{"type":"Feature","properties":{"id":"6205033021010","commune":"Navidad","code":"06205","gse":"C2","quintil":"Q3","nse_score":717.2,"educ":12.8,"educ_score":653.3,"hacin":1.214,"hacin_class":"Hacinamiento Leve","hacin_score":805.5,"auto_score":214.3,"n_per":17,"n_hog":7,"source_year":2024,"crime_score":0.6452,"crime_nivel":"Alto","crime_color":"#f44336"},"geometry":{"type":"Polygon","coordinates":[[[-71.8476729779999,-33.9224841291258],[-71.8465009839999,-33.9221934351258],[-71.846442953,-33.9222019461258],[-71.8464575679999,-33.9224951121258],[-71.8475915929999,-33.9228250311258],[-71.8476729779999,-33.9224841291258]]]}},{"type":"Feature","properties":{"id":"6205033021011","commune":"Navidad","code":"06205","gse":"D","quintil":"Q1","nse_score":615.4,"educ":11.0,"educ_score":533.3,"hacin":1.52,"hacin_class":"Hacinamiento Medio","hacin_score":740.4,"auto_score":0.0,"n_per":76,"n_hog":28,"source_year":2024,"crime_score":0.702,"crime_nivel":"Alto","crime_color":"#f44336"},"geometry":{"type":"Polygon","coordinates":[[[-71.8413797099999,-33.9240408631258],[-71.8415748389999,-33.9241432241257],[-71.8417846939999,-33.9238473251258],[-71.8422394099999,-33.9235096831258],[-71.8432659089999,-33.9229511051258],[-71.8436405969999,-33.9228927411258],[-71.8440790479999,-33.9229740201257],[-71.8432791389999,-33.9229761131258],[-71.8422036129999,-33.9235726821258],[-71.8438430229999,-33.9243317641257],[-71.8421724749999,-33.9235937181258],[-71.8416316939999,-33.9241201751258],[-71.8439529379999,-33.9252586881257],[-71.8449116169999,-33.9245906551257],[-71.8444632829999,-33.9244245411258],[-71.8444113899999,-33.9243599681257],[-71.8449269059999,-33.9245644621258],[-71.845138818,-33.9242501231258],[-71.8454018619999,-33.9241181301258],[-71.8462853189999,-33.9242663491257],[-71.8463586259999,-33.9236894031258],[-71.8456028949999,-33.9234583261258],[-71.8451636069999,-33.9230793901258],[-71.8448449999999,-33.9230592321258],[-71.8447895229999,-33.9229371291258],[-71.8440104559999,-33.9228303641258],[-71.8438073889999,-33.9227372091258],[-71.8438019239999,-33.9225295471258],[-71.843644879,-33.9227747861258],[-71.8430938629999,-33.9228950341258],[-71.8421261039999,-33.9234259791258],[-71.8423553939999,-33.9231742401258],[-71.8422184309999,-33.9232390151258],[-71.8413797099999,-33.9240408631258]]]}},{"type":"Feature","properties":{"id":"6205033021014","commune":"Navidad","code":"06205","gse":"C3","quintil":"Q3","nse_score":713.4,"educ":11.4,"educ_score":560.0,"hacin":1.25,"hacin_class":"Hacinamiento Leve","hacin_score":797.9,"auto_score":125.0,"n_per":10,"n_hog":4,"source_year":2024,"crime_score":0.6443,"crime_nivel":"Alto","crime_color":"#f44336"},"geometry":{"type":"Polygon","coordinates":[[[-71.8464786689999,-33.9232812111258],[-71.8464506899999,-33.9236243471258],[-71.8472791859999,-33.9238171721258],[-71.8473719919999,-33.9235261901258],[-71.8464786689999,-33.9232812111258]]]}},{"type":"Feature","properties":{"id":"6205033021016","commune":"Navidad","code":"06205","gse":"C3","quintil":"Q3","nse_score":691.9,"educ":11.2,"educ_score":546.7,"hacin":1.111,"hacin_class":"Hacinamiento Leve","hacin_score":827.4,"auto_score":125.0,"n_per":10,"n_hog":4,"source_year":2024,"crime_score":0.6521,"crime_nivel":"Alto","crime_color":"#f44336"},"geometry":{"type":"Polygon","coordinates":[[[-71.8476336679999,-33.9244730051258],[-71.8478349199999,-33.9240263651257],[-71.8474305729999,-33.9239382961258],[-71.8473077319999,-33.9242057221258],[-71.8473719479999,-33.9239144981258],[-71.8464231279999,-33.9236966251258],[-71.8464127139999,-33.9242150561257],[-71.8476336679999,-33.9244730051258]]]}},{"type":"Feature","properties":{"id":"6205033021018","commune":"Navidad","code":"06205","gse":"C3","quintil":"Q3","nse_score":689.6,"educ":10.6,"educ_score":506.7,"hacin":1.4,"hacin_class":"Hacinamiento Leve","hacin_score":766.0,"auto_score":142.9,"n_per":14,"n_hog":7,"source_year":2024,"crime_score":0.6542,"crime_nivel":"Alto","crime_color":"#f44336"},"geometry":{"type":"Polygon","coordinates":[[[-71.8414309709999,-33.9242618571257],[-71.8436733079999,-33.9255165371258],[-71.8438893149999,-33.9253248631258],[-71.8416080989999,-33.9241430491258],[-71.8414309709999,-33.9242618571257]]]}},{"type":"Feature","properties":{"id":"6205033021021","commune":"Navidad","code":"06205","gse":"D","quintil":"Q2","nse_score":653.1,"educ":11.1,"educ_score":540.0,"hacin":1.286,"hacin_class":"Hacinamiento Leve","hacin_score":790.3,"auto_score":333.3,"n_per":18,"n_hog":6,"source_year":2024,"crime_score":0.6687,"crime_nivel":"Alto","crime_color":"#f44336"},"geometry":{"type":"Polygon","coordinates":[[[-71.8476297399999,-33.9245122301258],[-71.8463854549999,-33.9242640291258],[-71.8463507309999,-33.9246133651257],[-71.8476712789999,-33.9249666801258],[-71.8476297399999,-33.9245122301258]]]}},{"type":"Feature","properties":{"id":"6205033021022","commune":"Navidad","code":"06205","gse":"C3","quintil":"Q2","nse_score":674.8,"educ":11.0,"educ_score":533.3,"hacin":1.077,"hacin_class":"Hacinamiento Leve","hacin_score":834.7,"auto_score":111.1,"n_per":14,"n_hog":9,"source_year":2024,"crime_score":0.6595,"crime_nivel":"Alto","crime_color":"#f44336"},"geometry":{"type":"Polygon","coordinates":[[[-71.8412697509999,-33.9244457441258],[-71.843099074,-33.9254267781257],[-71.8412561079999,-33.9244599681258],[-71.8412331529999,-33.9245776641257],[-71.8428457669999,-33.9255433761258],[-71.8412297509999,-33.9245979811257],[-71.8409045949999,-33.9248194381257],[-71.8425908519999,-33.9260009661258],[-71.8436539829999,-33.9255501051258],[-71.8413700409999,-33.9243193471258],[-71.8412697509999,-33.9244457441258]]]}},{"type":"Feature","properties":{"id":"6205033021023","commune":"Navidad","code":"06205","gse":"D","quintil":"Q2","nse_score":643.0,"educ":11.3,"educ_score":553.3,"hacin":0.9,"hacin_class":"Sin Hacinamiento","hacin_score":872.3,"auto_score":200.0,"n_per":9,"n_hog":5,"source_year":2024,"crime_score":0.6694,"crime_nivel":"Alto","crime_color":"#f44336"},"geometry":{"type":"Polygon","coordinates":[[[-71.8462821589999,-33.9246454661258],[-71.8456056949999,-33.9243920371258],[-71.8455239229999,-33.9245187971258],[-71.8462531259999,-33.9248242641257],[-71.8462821589999,-33.9246454661258]]]}},{"type":"Feature","properties":{"id":"6205033021026","commune":"Navidad","code":"06205","gse":"D","quintil":"Q2","nse_score":650.0,"educ":14.1,"educ_score":740.0,"hacin":1.333,"hacin_class":"Hacinamiento Leve","hacin_score":780.1,"auto_score":100.0,"n_per":12,"n_hog":5,"source_year":2024,"crime_score":0.6678,"crime_nivel":"Alto","crime_color":"#f44336"},"geometry":{"type":"Polygon","coordinates":[[[-71.8462387609999,-33.9250787331258],[-71.8450015569999,-33.9246175901258],[-71.8448110269999,-33.9248104541258],[-71.846155043,-33.9253956241257],[-71.8462387609999,-33.9250787331258]]]}},{"type":"Feature","properties":{"id":"6205033021028","commune":"Navidad","code":"06205","gse":"C3","quintil":"Q2","nse_score":668.8,"educ":11.2,"educ_score":546.7,"hacin":1.278,"hacin_class":"Hacinamiento Leve","hacin_score":792.0,"auto_score":0.0,"n_per":23,"n_hog":8,"source_year":2024,"crime_score":0.6647,"crime_nivel":"Alto","crime_color":"#f44336"},"geometry":{"type":"Polygon","coordinates":[[[-71.8461838359999,-33.9254429581258],[-71.8447786099999,-33.9248366391257],[-71.8445921629999,-33.9249854741258],[-71.8460975179999,-33.9256675031257],[-71.8461838359999,-33.9254429581258]]]}},{"type":"Feature","properties":{"id":"6205033021030","commune":"Navidad","code":"06205","gse":"C3","quintil":"Q3","nse_score":685.1,"educ":13.3,"educ_score":686.7,"hacin":1.182,"hacin_class":"Hacinamiento Leve","hacin_score":812.4,"auto_score":0.0,"n_per":13,"n_hog":7,"source_year":2024,"crime_score":0.6555,"crime_nivel":"Alto","crime_color":"#f44336"},"geometry":{"type":"Polygon","coordinates":[[[-71.8463325889999,-33.9250587111258],[-71.8476864049999,-33.9254662801258],[-71.8477346199999,-33.9253247081258],[-71.8476712789999,-33.9249666801258],[-71.8474875939999,-33.9249173031257],[-71.8475278759999,-33.9250550461258],[-71.8473781299999,-33.9251266371258],[-71.8463226489999,-33.9248910081257],[-71.8463325889999,-33.9250587111258]]]}},{"type":"Feature","properties":{"id":"6205033021031","commune":"Navidad","code":"06205","gse":"E","quintil":"Q1","nse_score":595.8,"educ":9.5,"educ_score":433.3,"hacin":1.167,"hacin_class":"Hacinamiento Leve","hacin_score":815.6,"auto_score":222.2,"n_per":14,"n_hog":8,"source_year":2024,"crime_score":0.6881,"crime_nivel":"Alto","crime_color":"#f44336"},"geometry":{"type":"Polygon","coordinates":[[[-71.8460044989999,-33.9259147671257],[-71.8460872769999,-33.9256931761257],[-71.8446402389999,-33.9250965131257],[-71.8445944379999,-33.9249287681257],[-71.8441352649999,-33.9251360421258],[-71.8460044989999,-33.9259147671257]]]}},{"type":"Feature","properties":{"id":"6205033021034","commune":"Navidad","code":"06205","gse":"C3","quintil":"Q2","nse_score":661.1,"educ":10.6,"educ_score":506.7,"hacin":1.087,"hacin_class":"Hacinamiento Leve","hacin_score":832.5,"auto_score":239.1,"n_per":112,"n_hog":46,"source_year":2024,"crime_score":0.6968,"crime_nivel":"Alto","crime_color":"#f44336"},"geometry":{"type":"Polygon","coordinates":[[[-71.8436977779999,-33.9255989821257],[-71.8435774129999,-33.9257524801257],[-71.8438454679999,-33.9258380571258],[-71.8443376289999,-33.9261470161258],[-71.8435869879999,-33.9257834621257],[-71.8436273339999,-33.9259137511257],[-71.8443691919999,-33.9262911841257],[-71.8436380209999,-33.9259368981257],[-71.8438379829999,-33.9262017181258],[-71.8441894929999,-33.9263741451258],[-71.8438226289999,-33.9262144921257],[-71.8436481119999,-33.9260075941257],[-71.8435234969999,-33.9256706121257],[-71.8427843289999,-33.9259992891257],[-71.8430094939999,-33.9261731361257],[-71.8431264639999,-33.9263980481258],[-71.8427525919999,-33.9260117741258],[-71.8424318379999,-33.9261309021258],[-71.8420776329999,-33.9264076461257],[-71.8427144019999,-33.9267227291257],[-71.843049559,-33.9267257281257],[-71.8427139719999,-33.9267485211257],[-71.8419875659999,-33.9264118741257],[-71.8413126129999,-33.9270985401257],[-71.8397916659999,-33.9278222361257],[-71.8400349639999,-33.9282141701257],[-71.8411926549999,-33.9276948401257],[-71.8439495029999,-33.9291365221257],[-71.8447170359999,-33.9286268771257],[-71.8448154139999,-33.9285262501257],[-71.8439618629999,-33.9280907961257],[-71.8448270899999,-33.9285110721257],[-71.8454997869999,-33.9269367731258],[-71.8449949959999,-33.9267881511257],[-71.8446088629999,-33.9265835881257],[-71.8455134349999,-33.9269093511258],[-71.845620746,-33.9266986091257],[-71.8448684809999,-33.9264254061258],[-71.8456333049999,-33.9266707011257],[-71.8457413559999,-33.9264602491257],[-71.8448569799999,-33.9261700051258],[-71.845759143,-33.9264268141258],[-71.8458665479999,-33.9262158861258],[-71.8439646489999,-33.9253336341257],[-71.8437151659999,-33.9255726731257],[-71.844272111,-33.9258543041257],[-71.8442538409999,-33.9258766401258],[-71.8436977779999,-33.9255989821257]]]}},{"type":"Feature","properties":{"id":"6205033021036","commune":"Navidad","code":"06205","gse":"C2","quintil":"Q3","nse_score":724.0,"educ":11.1,"educ_score":540.0,"hacin":0.846,"hacin_class":"Sin Hacinamiento","hacin_score":883.8,"auto_score":285.7,"n_per":11,"n_hog":7,"source_year":2024,"crime_score":0.6408,"crime_nivel":"Alto","crime_color":"#f44336"},"geometry":{"type":"Polygon","coordinates":[[[-71.8471749709999,-33.9261649371258],[-71.8460960229999,-33.9259271821258],[-71.845949447,-33.9261911321257],[-71.8474618269999,-33.9264622691258],[-71.8475001959999,-33.9260079711257],[-71.8461555329999,-33.9257533211257],[-71.8461041799999,-33.9259006921257],[-71.8471749709999,-33.9261649371258]]]}},{"type":"Feature","properties":{"id":"6205033021038","commune":"Navidad","code":"06205","gse":"C3","quintil":"Q3","nse_score":703.2,"educ":13.9,"educ_score":726.7,"hacin":1.0,"hacin_class":"Hacinamiento Leve","hacin_score":851.1,"auto_score":0.0,"n_per":9,"n_hog":5,"source_year":2024,"crime_score":0.6477,"crime_nivel":"Alto","crime_color":"#f44336"},"geometry":{"type":"Polygon","coordinates":[[[-71.8474898219999,-33.9267383241257],[-71.8458317659999,-33.9264460831257],[-71.8457142159999,-33.9266681511257],[-71.8474635889999,-33.9269988051257],[-71.8474898219999,-33.9267383241257]]]}},{"type":"Feature","properties":{"id":"6205033021040","commune":"Navidad","code":"06205","gse":"C3","quintil":"Q2","nse_score":676.7,"educ":12.1,"educ_score":606.7,"hacin":1.333,"hacin_class":"Hacinamiento Leve","hacin_score":780.1,"auto_score":100.0,"n_per":8,"n_hog":5,"source_year":2024,"crime_score":0.6569,"crime_nivel":"Alto","crime_color":"#f44336"},"geometry":{"type":"Polygon","coordinates":[[[-71.8455906679999,-33.9269160031257],[-71.8474233819999,-33.9272841281257],[-71.8474635889999,-33.9269988051257],[-71.8456882419999,-33.9267044321257],[-71.8455906679999,-33.9269160031257]]]}},{"type":"Feature","properties":{"id":"6205033021041","commune":"Navidad","code":"06205","gse":"C3","quintil":"Q2","nse_score":663.5,"educ":11.8,"educ_score":586.7,"hacin":1.571,"hacin_class":"Hacinamiento Medio","hacin_score":729.5,"auto_score":100.0,"n_per":22,"n_hog":10,"source_year":2024,"crime_score":0.6663,"crime_nivel":"Alto","crime_color":"#f44336"},"geometry":{"type":"Polygon","coordinates":[[[-71.8454054739999,-33.9273071571257],[-71.8472314329999,-33.9277062171257],[-71.8474485179999,-33.9276846611257],[-71.8474233819999,-33.9272841281257],[-71.8455635799999,-33.9269478691257],[-71.8454054739999,-33.9273071571257]]]}},{"type":"Feature","properties":{"id":"6205033021042","commune":"Navidad","code":"06205","gse":"C2","quintil":"Q4","nse_score":731.9,"educ":12.3,"educ_score":620.0,"hacin":1.0,"hacin_class":"Hacinamiento Leve","hacin_score":851.1,"auto_score":214.3,"n_per":45,"n_hog":21,"source_year":2024,"crime_score":0.6487,"crime_nivel":"Alto","crime_color":"#f44336"},"geometry":{"type":"Polygon","coordinates":[[[-71.8452632619999,-33.9275819411257],[-71.8451575869999,-33.9278820951257],[-71.8467793649999,-33.9283991771257],[-71.8451558009999,-33.9279027491257],[-71.8450878429999,-33.9280898341257],[-71.8477537599999,-33.9293992001257],[-71.8479406009999,-33.9292100251257],[-71.8475343729999,-33.9286112091257],[-71.8476187649999,-33.9281381851257],[-71.8474563309999,-33.9277038951257],[-71.8453972309999,-33.9273312871257],[-71.8452815659999,-33.9275403831257],[-71.8464810739999,-33.9278246891257],[-71.8471412739999,-33.9280052651257],[-71.8471333049999,-33.9280224401257],[-71.8452632619999,-33.9275819411257]]]}},{"type":"Feature","properties":{"id":"6205033021043","commune":"Navidad","code":"06205","gse":"C2","quintil":"Q4","nse_score":732.6,"educ":11.4,"educ_score":560.0,"hacin":1.25,"hacin_class":"Hacinamiento Leve","hacin_score":797.9,"auto_score":38.5,"n_per":35,"n_hog":13,"source_year":2024,"crime_score":0.6453,"crime_nivel":"Alto","crime_color":"#f44336"},"geometry":{"type":"Polygon","coordinates":[[[-71.8450361679999,-33.9283514921257],[-71.8459735699999,-33.9288973711257],[-71.8449956769999,-33.9283494411258],[-71.8448775059999,-33.9285456981257],[-71.8450851529999,-33.9287407051257],[-71.8456889219999,-33.9294966041257],[-71.8465210349999,-33.9301939911257],[-71.8456725969999,-33.9295084831257],[-71.8448653809999,-33.9285614581257],[-71.8440067679999,-33.9291664691257],[-71.8465059099999,-33.9304850351257],[-71.8470163269999,-33.9307142381257],[-71.8471238239999,-33.9306273361257],[-71.847243278,-33.9303516321257],[-71.8471356939999,-33.9295791671257],[-71.847359632,-33.9293785071257],[-71.8477537599999,-33.9293992001257],[-71.8450808419999,-33.9281023641257],[-71.8450361679999,-33.9283514921257]]]}},{"type":"Feature","properties":{"id":"6205033021017","commune":"Navidad","code":"06205","gse":"D","quintil":"Q1","nse_score":611.1,"educ":9.8,"educ_score":453.3,"hacin":1.4,"hacin_class":"Hacinamiento Leve","hacin_score":766.0,"auto_score":83.3,"n_per":14,"n_hog":6,"source_year":2024,"crime_score":0.6826,"crime_nivel":"Alto","crime_color":"#f44336"},"geometry":{"type":"MultiPolygon","coordinates":[[[[-71.8405991349999,-33.9272109451257],[-71.8404336549999,-33.9267678801257],[-71.8393107109999,-33.9270449271257],[-71.839771659,-33.9277900061257],[-71.8413121519999,-33.9270666481257],[-71.8418839379999,-33.9264733511257],[-71.8405048389999,-33.9267383061257],[-71.8405991349999,-33.9272109451257]]],[[[-71.8413797099999,-33.9240408631258],[-71.8392585469999,-33.9260335741257],[-71.8387842399999,-33.9261993121257],[-71.8392956009999,-33.9270220461257],[-71.8418950609999,-33.9264110231258],[-71.8425460909999,-33.9260401751258],[-71.8408914809999,-33.9248337681258],[-71.8407560819999,-33.9250196391257],[-71.8405508399999,-33.9251639111257],[-71.8405349359999,-33.9252287991258],[-71.8410480869999,-33.9255342251257],[-71.8405456649999,-33.9252683261257],[-71.8405117039999,-33.9252335571258],[-71.8405310759999,-33.9251545211258],[-71.8409334079999,-33.9247582421258],[-71.841164955,-33.9246967201257],[-71.8412955419999,-33.9243685281258],[-71.8415748389999,-33.9241432241257],[-71.8413797099999,-33.9240408631258]]]]}},{"type":"Feature","properties":{"id":"6205033021012","commune":"Navidad","code":"06205","gse":"C2","quintil":"Q4","nse_score":756.6,"educ":12.8,"educ_score":653.3,"hacin":1.0,"hacin_class":"Hacinamiento Leve","hacin_score":851.1,"auto_score":0.0,"n_per":11,"n_hog":5,"source_year":2024,"crime_score":0.629,"crime_nivel":"Alto","crime_color":"#f44336"},"geometry":{"type":"MultiPolygon","coordinates":[[[[-71.8473074589999,-33.9234617431258],[-71.8473179499999,-33.9231410891258],[-71.8464591319999,-33.9229283761258],[-71.8464945009999,-33.9232436361258],[-71.8473074589999,-33.9234617431258]]],[[[-71.8464467909999,-33.9225684961258],[-71.8464600029999,-33.9228704231258],[-71.8473650569999,-33.9231104291258],[-71.8474014099999,-33.9234848021258],[-71.8478463899999,-33.9236091911258],[-71.8475915929999,-33.9228250311258],[-71.8464467909999,-33.9225684961258]]]]}},{"type":"Feature","properties":{"id":"6205033021019","commune":"Navidad","code":"06205","gse":"E","quintil":"Q1","nse_score":602.0,"educ":10.6,"educ_score":506.7,"hacin":1.25,"hacin_class":"Hacinamiento Leve","hacin_score":797.9,"auto_score":200.0,"n_per":10,"n_hog":5,"source_year":2024,"crime_score":0.6845,"crime_nivel":"Alto","crime_color":"#f44336"},"geometry":{"type":"MultiPolygon","coordinates":[[[[-71.8463619169999,-33.9248566621258],[-71.8474376919999,-33.9250795411258],[-71.8474789829999,-33.9249411551258],[-71.8463479469999,-33.9246536111258],[-71.8463619169999,-33.9248566621258]]],[[[-71.8449957079999,-33.9245668531257],[-71.8462427939999,-33.9250384611257],[-71.8462338269999,-33.9248457661257],[-71.8451166729999,-33.9244091251258],[-71.8449957079999,-33.9245668531257]]],[[[-71.8451277999999,-33.9243684021257],[-71.8455232719999,-33.9244575341258],[-71.8456102489999,-33.9241537561258],[-71.8452779059999,-33.9242111571258],[-71.8451277999999,-33.9243684021257]]]]}},{"type":"Feature","properties":{"id":"6205033021032","commune":"Navidad","code":"06205","gse":"D","quintil":"Q1","nse_score":633.8,"educ":11.1,"educ_score":540.0,"hacin":1.0,"hacin_class":"Hacinamiento Leve","hacin_score":851.1,"auto_score":62.5,"n_per":12,"n_hog":7,"source_year":2024,"crime_score":0.6737,"crime_nivel":"Alto","crime_color":"#f44336"},"geometry":{"type":"Polygon","coordinates":[[[-71.8464948749999,-33.9252560111258],[-71.8462941449999,-33.9252013401257],[-71.8462602269999,-33.9254076481257],[-71.8474389179999,-33.9257679591257],[-71.8462629469999,-33.9254407411257],[-71.8461757879999,-33.9257224171257],[-71.8475001959999,-33.9260079711257],[-71.8476864049999,-33.9254662801258],[-71.8463018619999,-33.9250985301258],[-71.8464948749999,-33.9252560111258]]]}},{"type":"Feature","properties":{"id":"6205033021005","commune":"Navidad","code":"06205","gse":"C1","quintil":"Q5","nse_score":792.8,"educ":14.0,"educ_score":733.3,"hacin":1.091,"hacin_class":"Hacinamiento Leve","hacin_score":831.7,"auto_score":0.0,"n_per":12,"n_hog":6,"source_year":2024,"crime_score":0.6163,"crime_nivel":"Alto","crime_color":"#f44336"},"geometry":{"type":"Polygon","coordinates":[[[-71.8480698349999,-33.9212718641258],[-71.8479191659999,-33.9218168491258],[-71.8464314189999,-33.9214185341258],[-71.8464229709999,-33.9217367321258],[-71.8476937999999,-33.9221239341258],[-71.8484835149999,-33.9216722471258],[-71.8485379129999,-33.9212869021258],[-71.8480698349999,-33.9212718641258]]]}},{"type":"Feature","properties":{"id":"6205033021033","commune":"Navidad","code":"06205","gse":"D","quintil":"Q1","nse_score":617.1,"educ":11.1,"educ_score":540.0,"hacin":1.588,"hacin_class":"Hacinamiento Medio","hacin_score":725.9,"auto_score":250.0,"n_per":27,"n_hog":7,"source_year":2024,"crime_score":0.6848,"crime_nivel":"Alto","crime_color":"#f44336"},"geometry":{"type":"MultiPolygon","coordinates":[[[[-71.8459051239999,-33.9264279031257],[-71.8465368159999,-33.9265935031257],[-71.8474898219999,-33.9267383241257],[-71.8474618269999,-33.9264622691258],[-71.8459487639999,-33.9262358631257],[-71.8459051239999,-33.9264279031257]]],[[[-71.8458147409999,-33.9261608291258],[-71.8459945739999,-33.9259382991257],[-71.8441233639999,-33.9251494971258],[-71.8439765809999,-33.9253126691258],[-71.8458147409999,-33.9261608291258]]]]}},{"type":"Feature","properties":{"id":"6205043031001","commune":"Navidad","code":"06205","gse":"C3","quintil":"Q2","nse_score":668.2,"educ":10.3,"educ_score":486.7,"hacin":1.0,"hacin_class":"Hacinamiento Leve","hacin_score":851.1,"auto_score":45.5,"n_per":26,"n_hog":11,"source_year":2024,"crime_score":0.6659,"crime_nivel":"Alto","crime_color":"#f44336"},"geometry":{"type":"Polygon","coordinates":[[[-71.872411671,-33.981370714125],[-71.8723946289999,-33.982509154125],[-71.8732223259999,-33.982640981125],[-71.8732469719999,-33.9822241141251],[-71.8726205499999,-33.982091128125],[-71.8732473289999,-33.982194206125],[-71.8732878129999,-33.981871766125],[-71.8732925999999,-33.982417548125],[-71.8741074819999,-33.9825458121251],[-71.8740811899999,-33.982777791125],[-71.8747631299999,-33.982872592125],[-71.8747106109999,-33.983707043125],[-71.8756428649999,-33.983812071125],[-71.8756690819999,-33.9835576731251],[-71.8757040829999,-33.983821510125],[-71.8788164509999,-33.984400932125],[-71.8783615649999,-33.984391653125],[-71.8782459489999,-33.984832824125],[-71.879111614,-33.984897711125],[-71.8793292309999,-33.984707808125],[-71.8793558589999,-33.983903969125],[-71.8752551249999,-33.983240073125],[-71.8753713779999,-33.9818377721251],[-71.872411671,-33.981370714125]]]}},{"type":"Feature","properties":{"id":"6205043031006","commune":"Navidad","code":"06205","gse":"D","quintil":"Q2","nse_score":644.0,"educ":10.4,"educ_score":493.3,"hacin":1.484,"hacin_class":"Hacinamiento Leve","hacin_score":748.1,"auto_score":0.0,"n_per":46,"n_hog":17,"source_year":2024,"crime_score":0.6813,"crime_nivel":"Alto","crime_color":"#f44336"},"geometry":{"type":"Polygon","coordinates":[[[-71.8706154979999,-33.9825974711251],[-71.8705625329999,-33.983477839125],[-71.8701251649999,-33.984324719125],[-71.87085135,-33.984469964125],[-71.8701730019999,-33.984993378125],[-71.8701075039999,-33.985705048125],[-71.8702960829999,-33.985910195125],[-71.8715215229999,-33.985862952125],[-71.872179721,-33.985654325125],[-71.8725243319999,-33.985180608125],[-71.8729190569999,-33.984950194125],[-71.874141129,-33.984637575125],[-71.8744911709999,-33.984657332125],[-71.8746809849999,-33.984815876125],[-71.8748616849999,-33.985533432125],[-71.8746940459999,-33.985784154125],[-71.8747299619999,-33.986694362125],[-71.8755804509999,-33.987044824125],[-71.8753454099999,-33.986266072125],[-71.8753030519999,-33.985234572125],[-71.8748434769999,-33.984889561125],[-71.8746076379999,-33.984199369125],[-71.8732361449999,-33.983885157125],[-71.8728072519999,-33.9837013311251],[-71.8718459709999,-33.9836744131251],[-71.8710728899999,-33.983484982125],[-71.8713136049999,-33.983456678125],[-71.8718611479999,-33.9836493701251],[-71.8726197069999,-33.9836503321251],[-71.8731952569999,-33.9837895741251],[-71.873198768,-33.983451048125],[-71.8716954529999,-33.983198504125],[-71.8708602419999,-33.9829728341251],[-71.8732060539999,-33.9834275531251],[-71.8732240429999,-33.9830297401251],[-71.8706154979999,-33.9825974711251]]]}},{"type":"Feature","properties":{"id":"6205043031015","commune":"Navidad","code":"06205","gse":"E","quintil":"Q1","nse_score":528.0,"educ":8.4,"educ_score":360.0,"hacin":1.333,"hacin_class":"Hacinamiento Leve","hacin_score":780.1,"auto_score":0.0,"n_per":8,"n_hog":4,"source_year":2024,"crime_score":0.7105,"crime_nivel":"Alto","crime_color":"#f44336"},"geometry":{"type":"Polygon","coordinates":[[[-71.8777117719999,-33.984259428125],[-71.8768012259999,-33.984130238125],[-71.8767331579999,-33.984521218125],[-71.8776280079999,-33.984666703125],[-71.8777117719999,-33.984259428125]]]}},{"type":"Feature","properties":{"id":"6205043031017","commune":"Navidad","code":"06205","gse":"C1","quintil":"Q5","nse_score":794.1,"educ":13.9,"educ_score":726.7,"hacin":0.769,"hacin_class":"Sin Hacinamiento","hacin_score":900.2,"auto_score":83.3,"n_per":10,"n_hog":6,"source_year":2024,"crime_score":0.6152,"crime_nivel":"Alto","crime_color":"#f44336"},"geometry":{"type":"Polygon","coordinates":[[[-71.8747758799999,-33.984277946125],[-71.8748295709999,-33.984765862125],[-71.8752015529999,-33.984612299125],[-71.8754754429999,-33.984592378125],[-71.8764191079999,-33.984731361125],[-71.8754742439999,-33.984628513125],[-71.8748429169999,-33.984801167125],[-71.8753205319999,-33.985179355125],[-71.8753936349999,-33.985419719125],[-71.8772718359999,-33.985981756125],[-71.8780811369999,-33.984837651125],[-71.8747758799999,-33.984277946125]]]}},{"type":"Feature","properties":{"id":"6205043031023","commune":"Navidad","code":"06205","gse":"D","quintil":"Q2","nse_score":657.4,"educ":11.3,"educ_score":553.3,"hacin":1.077,"hacin_class":"Hacinamiento Leve","hacin_score":834.7,"auto_score":71.4,"n_per":14,"n_hog":7,"source_year":2024,"crime_score":0.6658,"crime_nivel":"Alto","crime_color":"#f44336"},"geometry":{"type":"Polygon","coordinates":[[[-71.8759466149999,-33.988448731125],[-71.874890665,-33.988761813125],[-71.8745345049999,-33.989038662125],[-71.8749873009999,-33.989406272125],[-71.8749231439999,-33.989725458125],[-71.8746724439999,-33.9898274961249],[-71.8747347269999,-33.9900291411249],[-71.8752335149999,-33.9899171831249],[-71.8773007889999,-33.9901963271249],[-71.8771475929999,-33.989642525125],[-71.8766415739999,-33.989119103125],[-71.8763215979999,-33.989107321125],[-71.8754439839999,-33.988996460125],[-71.8765993,-33.989084771125],[-71.8766747199999,-33.988029710125],[-71.8769408949999,-33.987643150125],[-71.8767911409999,-33.987586289125],[-71.8764994589999,-33.988016699125],[-71.8759466149999,-33.988448731125]]]}},{"type":"Feature","properties":{"id":"6205043031024","commune":"Navidad","code":"06205","gse":"D","quintil":"Q2","nse_score":652.7,"educ":10.9,"educ_score":526.7,"hacin":1.208,"hacin_class":"Hacinamiento Leve","hacin_score":806.7,"auto_score":156.2,"n_per":29,"n_hog":17,"source_year":2024,"crime_score":0.6725,"crime_nivel":"Alto","crime_color":"#f44336"},"geometry":{"type":"Polygon","coordinates":[[[-71.8765752059999,-33.9930943781249],[-71.8759086629999,-33.9936019061249],[-71.8755818649999,-33.9934485361249],[-71.8757583279999,-33.9941999571249],[-71.8767485579999,-33.9938970911249],[-71.8757689989999,-33.9942294781249],[-71.8759170969999,-33.9945097941249],[-71.8764992959999,-33.9944398721249],[-71.8759661189999,-33.9945496261249],[-71.8758844079999,-33.9947556041249],[-71.8754792909999,-33.9948945531249],[-71.8754417059999,-33.9951387161249],[-71.8749943249999,-33.9956285911249],[-71.8753986259999,-33.9951349531249],[-71.8754472539999,-33.9948786071249],[-71.8759150749999,-33.9946553861249],[-71.8757489819999,-33.9942425911249],[-71.8754925089999,-33.9944747561249],[-71.8743482609999,-33.9950190901249],[-71.873926476,-33.9950790401249],[-71.8746577019999,-33.9948544361249],[-71.8754889939999,-33.9943879181249],[-71.8752219259999,-33.9942255821249],[-71.8736057159999,-33.9948572051249],[-71.8741428139999,-33.9957167861249],[-71.8771520219999,-33.9957775911249],[-71.8776680399999,-33.9944675541249],[-71.8780664419999,-33.9924157301249],[-71.8781806579999,-33.9905331331249],[-71.8790052409999,-33.988271112125],[-71.877012411,-33.987671301125],[-71.8767521459999,-33.987877058125],[-71.8765748979999,-33.988854994125],[-71.8771806299999,-33.989629668125],[-71.8773637779999,-33.9901081841249],[-71.8769508499999,-33.990564644125],[-71.8768169119999,-33.9911373221249],[-71.8768571509999,-33.9916895561249],[-71.8762596209999,-33.9926151341249],[-71.8765752059999,-33.9930943781249]]]}},{"type":"Feature","properties":{"id":"6205043031027","commune":"Navidad","code":"06205","gse":"D","quintil":"Q2","nse_score":651.9,"educ":10.9,"educ_score":526.7,"hacin":1.583,"hacin_class":"Hacinamiento Medio","hacin_score":727.0,"auto_score":153.8,"n_per":38,"n_hog":15,"source_year":2024,"crime_score":0.6758,"crime_nivel":"Alto","crime_color":"#f44336"},"geometry":{"type":"Polygon","coordinates":[[[-71.8786272529999,-33.989451503125],[-71.8805729449999,-33.9905354701249],[-71.8805878899999,-33.9900500661249],[-71.8787348949999,-33.989167762125],[-71.8786272529999,-33.989451503125]]]}},{"type":"Feature","properties":{"id":"6205043031028","commune":"Navidad","code":"06205","gse":"C3","quintil":"Q3","nse_score":682.2,"educ":10.2,"educ_score":480.0,"hacin":1.271,"hacin_class":"Hacinamiento Leve","hacin_score":793.4,"auto_score":239.1,"n_per":61,"n_hog":23,"source_year":2024,"crime_score":0.6722,"crime_nivel":"Alto","crime_color":"#f44336"},"geometry":{"type":"Polygon","coordinates":[[[-71.8771827439999,-33.9957782121249],[-71.8823531589999,-33.9960429891249],[-71.8823439139999,-33.9956722041249],[-71.8819808539999,-33.9948133121249],[-71.8813948629999,-33.9941020291249],[-71.8808418109999,-33.9928531621249],[-71.8808410069999,-33.9922476331249],[-71.8805911739999,-33.9915988421249],[-71.8805515289999,-33.9910977221249],[-71.8794691229999,-33.9905510871249],[-71.8805519029999,-33.9910545111249],[-71.8805647849999,-33.9905847591249],[-71.878617517,-33.989477786125],[-71.8782167009999,-33.9905219211249],[-71.8780843779999,-33.9925396931249],[-71.8777539989999,-33.9940065231249],[-71.8790161089999,-33.9940974931249],[-71.8777472399999,-33.9940606331249],[-71.8777235419999,-33.9944237021249],[-71.8771827439999,-33.9957782121249]]]}},{"type":"Feature","properties":{"id":"6205043031029","commune":"Navidad","code":"06205","gse":"E","quintil":"Q1","nse_score":564.6,"educ":7.1,"educ_score":273.3,"hacin":1.0,"hacin_class":"Hacinamiento Leve","hacin_score":851.1,"auto_score":0.0,"n_per":9,"n_hog":7,"source_year":2024,"crime_score":0.6976,"crime_nivel":"Alto","crime_color":"#f44336"},"geometry":{"type":"Polygon","coordinates":[[[-71.8806895449999,-33.990122110125],[-71.8820600299999,-33.9902712971249],[-71.8820772279999,-33.990246129125],[-71.8820459159999,-33.9900107201249],[-71.8806517629999,-33.9899151531249],[-71.8806895449999,-33.990122110125]]]}},{"type":"Feature","properties":{"id":"6205043031031","commune":"Navidad","code":"06205","gse":"D","quintil":"Q1","nse_score":607.6,"educ":8.9,"educ_score":393.3,"hacin":1.44,"hacin_class":"Hacinamiento Leve","hacin_score":757.4,"auto_score":153.8,"n_per":36,"n_hog":13,"source_year":2024,"crime_score":0.6913,"crime_nivel":"Alto","crime_color":"#f44336"},"geometry":{"type":"Polygon","coordinates":[[[-71.8821495699999,-33.990283465125],[-71.8846362429999,-33.9905096761249],[-71.8846357259999,-33.9901936071249],[-71.8821154269999,-33.989988593125],[-71.8821495699999,-33.990283465125]]]}},{"type":"Feature","properties":{"id":"6205043031032","commune":"Navidad","code":"06205","gse":"C2","quintil":"Q4","nse_score":766.6,"educ":13.1,"educ_score":673.3,"hacin":0.912,"hacin_class":"Sin Hacinamiento","hacin_score":869.8,"auto_score":90.9,"n_per":31,"n_hog":11,"source_year":2024,"crime_score":0.6317,"crime_nivel":"Alto","crime_color":"#f44336"},"geometry":{"type":"Polygon","coordinates":[[[-71.8818790559999,-33.990288824125],[-71.8816554709999,-33.9910639391249],[-71.8817476879999,-33.990274182125],[-71.8806350659999,-33.990164138125],[-71.8806115289999,-33.991503441125],[-71.880854644,-33.9921278411249],[-71.8809127909999,-33.9929186001249],[-71.8812255579999,-33.9935044801249],[-71.8818065639999,-33.9934287261249],[-71.8818790559999,-33.990288824125]]]}},{"type":"Feature","properties":{"id":"6205043031033","commune":"Navidad","code":"06205","gse":"C3","quintil":"Q2","nse_score":666.9,"educ":10.6,"educ_score":506.7,"hacin":1.435,"hacin_class":"Hacinamiento Leve","hacin_score":758.4,"auto_score":316.7,"n_per":89,"n_hog":30,"source_year":2024,"crime_score":0.6871,"crime_nivel":"Alto","crime_color":"#f44336"},"geometry":{"type":"Polygon","coordinates":[[[-71.8822866439999,-33.9933966451249],[-71.8823122279999,-33.9919052451249],[-71.8871516179999,-33.9922113451249],[-71.8868377989999,-33.990840331125],[-71.8853860539999,-33.990580828125],[-71.8819602669999,-33.990308197125],[-71.8819623049999,-33.990601103125],[-71.8831935139999,-33.9907379701249],[-71.8819578759999,-33.990624635125],[-71.8819711419999,-33.990978954125],[-71.8844191669999,-33.9912079461249],[-71.8819387919999,-33.991010586125],[-71.8819219239999,-33.9914030651249],[-71.883390716,-33.9915152731249],[-71.8819220429999,-33.9914272951249],[-71.8818475029999,-33.9934344391249],[-71.8822866439999,-33.9933966451249]]]}},{"type":"Feature","properties":{"id":"6205043031035","commune":"Navidad","code":"06205","gse":"D","quintil":"Q2","nse_score":654.8,"educ":11.1,"educ_score":540.0,"hacin":1.571,"hacin_class":"Hacinamiento Medio","hacin_score":729.5,"auto_score":0.0,"n_per":11,"n_hog":5,"source_year":2024,"crime_score":0.6658,"crime_nivel":"Alto","crime_color":"#f44336"},"geometry":{"type":"Polygon","coordinates":[[[-71.8823000089999,-33.9934403621249],[-71.8812409319999,-33.9935568471249],[-71.8814414299999,-33.9940845721249],[-71.8819915019999,-33.9947214121249],[-71.8822533049999,-33.9952586301249],[-71.88240952,-33.9960459921249],[-71.8834742289999,-33.9961016411249],[-71.8832853049999,-33.9950615381249],[-71.8823000089999,-33.9934403621249]]]}},{"type":"Feature","properties":{"id":"6205043031030","commune":"Navidad","code":"06205","gse":"C3","quintil":"Q3","nse_score":703.9,"educ":12.5,"educ_score":633.3,"hacin":0.812,"hacin_class":"Sin Hacinamiento","hacin_score":891.0,"auto_score":83.3,"n_per":13,"n_hog":6,"source_year":2024,"crime_score":0.6487,"crime_nivel":"Alto","crime_color":"#f44336"},"geometry":{"type":"MultiPolygon","coordinates":[[[[-71.8733938419999,-33.9942107011249],[-71.8739589669999,-33.9944335641249],[-71.8748317179999,-33.9941178371249],[-71.8749801209999,-33.9939330961249],[-71.8755898449999,-33.9937460991249],[-71.8755315769999,-33.9935474741249],[-71.873720837,-33.9941563131249],[-71.8733938419999,-33.9942107011249]]],[[[-71.8756366039999,-33.9934949771249],[-71.8758078159999,-33.9935833951249],[-71.8760130459999,-33.9935130031249],[-71.8765339949999,-33.9931460261249],[-71.8764895289999,-33.9929950151249],[-71.8762273449999,-33.9927179161249],[-71.8756366039999,-33.9934949771249]]],[[[-71.8732150109999,-33.9934341431249],[-71.873382337,-33.9941762981249],[-71.8755158559999,-33.9935160811249],[-71.8759829939999,-33.9928482551249],[-71.8753228509999,-33.9933121021249],[-71.8746292379999,-33.9935477561249],[-71.8736454129999,-33.9938290991249],[-71.8734700249999,-33.9937818941249],[-71.873411572,-33.9936787911249],[-71.873453492,-33.9935461521249],[-71.8735035889999,-33.9937582121249],[-71.8736395899999,-33.9937901531249],[-71.8753261639999,-33.9932659921249],[-71.8762102119999,-33.9926897701249],[-71.8767403639999,-33.991895880125],[-71.8768616539999,-33.9907161751249],[-71.8772113649999,-33.9902759781249],[-71.875217888,-33.9899615871249],[-71.8747159419999,-33.9900939491249],[-71.8745178529999,-33.9913836021249],[-71.8733747599999,-33.9928020291249],[-71.8732150109999,-33.9934341431249]]]]}},{"type":"Feature","properties":{"id":"6205043031013","commune":"Navidad","code":"06205","gse":"D","quintil":"Q1","nse_score":635.5,"educ":10.5,"educ_score":500.0,"hacin":1.833,"hacin_class":"Hacinamiento Medio","hacin_score":673.8,"auto_score":250.0,"n_per":22,"n_hog":6,"source_year":2024,"crime_score":0.6764,"crime_nivel":"Alto","crime_color":"#f44336"},"geometry":{"type":"MultiPolygon","coordinates":[[[[-71.8766362599999,-33.984510745125],[-71.8767404619999,-33.984114141125],[-71.8756825699999,-33.983867353125],[-71.8756608849999,-33.984358378125],[-71.8766362599999,-33.984510745125]]],[[[-71.8751365599999,-33.984287030125],[-71.8756073589999,-33.984330167125],[-71.8756441769999,-33.983862677125],[-71.8751804579999,-33.983802652125],[-71.8751365599999,-33.984287030125]]]]}},{"type":"Feature","properties":{"id":"6205043031018","commune":"Navidad","code":"06205","gse":"C2","quintil":"Q3","nse_score":720.6,"educ":12.1,"educ_score":606.7,"hacin":1.273,"hacin_class":"Hacinamiento Leve","hacin_score":793.0,"auto_score":0.0,"n_per":14,"n_hog":5,"source_year":2024,"crime_score":0.643,"crime_nivel":"Alto","crime_color":"#f44336"},"geometry":{"type":"MultiPolygon","coordinates":[[[[-71.8762608019999,-33.986158390125],[-71.8769034109999,-33.986321376125],[-71.8772236119999,-33.986033499125],[-71.8764254859999,-33.985774018125],[-71.8762608019999,-33.986158390125]]],[[[-71.8761717799999,-33.986132657125],[-71.8763420649999,-33.985755941125],[-71.8753889789999,-33.985495628125],[-71.87540207,-33.985923686125],[-71.8761717799999,-33.986132657125]]]]}},{"type":"Feature","properties":{"id":"6205043031002","commune":"Navidad","code":"06205","gse":"C3","quintil":"Q3","nse_score":692.1,"educ":11.4,"educ_score":560.0,"hacin":1.248,"hacin_class":"Hacinamiento Leve","hacin_score":798.4,"auto_score":190.5,"n_per":277,"n_hog":107,"source_year":2024,"crime_score":0.7386,"crime_nivel":"Alto","crime_color":"#f44336"},"geometry":{"type":"MultiPolygon","coordinates":[[[[-71.8791732579999,-33.982346216125],[-71.8805049459999,-33.982504103125],[-71.8804716039999,-33.982995160125],[-71.8803758179999,-33.983308681125],[-71.8804105139999,-33.9833669431251],[-71.8816375579999,-33.983504052125],[-71.8816768749999,-33.9822633961251],[-71.881667364,-33.983507508125],[-71.8818472339999,-33.984905380125],[-71.8816171639999,-33.9835613321251],[-71.8809378209999,-33.9834799331251],[-71.8806813439999,-33.984813707125],[-71.8808736149999,-33.983471769125],[-71.8802723669999,-33.983395172125],[-71.8794334639999,-33.983510250125],[-71.8793922289999,-33.984641106125],[-71.8792499099999,-33.984870918125],[-71.8781252829999,-33.984866450125],[-71.877128421,-33.986199741125],[-71.8757076199999,-33.987088171125],[-71.8777498959999,-33.987855122125],[-71.8784314129999,-33.985863768125],[-71.8777822629999,-33.987866182125],[-71.8783790779999,-33.988041102125],[-71.8789557329999,-33.986145415125],[-71.8784100059999,-33.988050127125],[-71.8789505439999,-33.988208798125],[-71.8795165099999,-33.986240619125],[-71.8793815729999,-33.987096393125],[-71.8805748429999,-33.987436252125],[-71.8808908389999,-33.986669258125],[-71.8806188499999,-33.987472582125],[-71.8793342479999,-33.987111996125],[-71.8790161649999,-33.988192052125],[-71.8795206229999,-33.988316125125],[-71.8798098809999,-33.987477717125],[-71.879570026,-33.988362075125],[-71.8801167349999,-33.988530315125],[-71.880422414,-33.987775003125],[-71.8801705529999,-33.988550303125],[-71.8806122079999,-33.9888866461249],[-71.8806528939999,-33.9894473601249],[-71.8820697939999,-33.9894739411249],[-71.8820974479999,-33.988878024125],[-71.8821218329999,-33.989469099125],[-71.8825714489999,-33.989514723125],[-71.8826369649999,-33.988255765125],[-71.8834509509999,-33.988265315125],[-71.8826657909999,-33.988292151125],[-71.8826337539999,-33.988649104125],[-71.8833235669999,-33.988683917125],[-71.8826311329999,-33.988685082125],[-71.8826176629999,-33.9890437801249],[-71.8833829999999,-33.989083069125],[-71.8826190439999,-33.9890780991249],[-71.8826169199999,-33.989506080125],[-71.8836828799999,-33.989577437125],[-71.8837757919999,-33.988787111125],[-71.8837440409999,-33.989585062125],[-71.8843491719999,-33.989611980125],[-71.8844157479999,-33.988334235125],[-71.8844018299999,-33.9896664851249],[-71.8846753239999,-33.9899261271249],[-71.8867676189999,-33.9901235441249],[-71.8846953229999,-33.990002237125],[-71.8843489779999,-33.989698286125],[-71.8840430309999,-33.9896365691249],[-71.8818206909999,-33.9894698721249],[-71.8806689789999,-33.989484044125],[-71.8806504259999,-33.9898462171249],[-71.885287994,-33.990176392125],[-71.8857784929999,-33.9902526511249],[-71.8846928829999,-33.990190358125],[-71.8846922069999,-33.9905090261249],[-71.8868473049999,-33.9907731511249],[-71.8871972979999,-33.9922140521249],[-71.8894517299999,-33.9923475981249],[-71.8893377699999,-33.9916154351249],[-71.8886768979999,-33.9908106371249],[-71.8886224069999,-33.9901403291249],[-71.8863694999999,-33.988160451125],[-71.8854813749999,-33.987194199125],[-71.8844171609999,-33.985700208125],[-71.8841281969999,-33.983714755125],[-71.8841067299999,-33.983079728125],[-71.8842631709999,-33.982521437125],[-71.8796095509999,-33.981669819125],[-71.8784461919999,-33.981683289125],[-71.8791732579999,-33.982346216125]],[[-71.8787544319999,-33.985029041125],[-71.8816028349999,-33.985166020125],[-71.8826494719999,-33.986258597125],[-71.8829487779999,-33.986245007125],[-71.8830242769999,-33.985911389125],[-71.8836130619999,-33.985710299125],[-71.8841689749999,-33.986403668125],[-71.8845609799999,-33.986565324125],[-71.8844151529999,-33.987501863125],[-71.8839279969999,-33.987792570125],[-71.8830193569999,-33.987633172125],[-71.8830150879999,-33.987390136125],[-71.8824705489999,-33.986916633125],[-71.8820051799999,-33.986217847125],[-71.8817201129999,-33.985485263125],[-71.8811507689999,-33.985327754125],[-71.8783812909999,-33.985192202125],[-71.8781012329999,-33.985425468125],[-71.8773131749999,-33.986700780125],[-71.8778633069999,-33.985621603125],[-71.8782725559999,-33.985125750125],[-71.8787544319999,-33.985029041125]]],[[[-71.8792368359999,-33.9823917461251],[-71.8794745549999,-33.983062695125],[-71.8794507019999,-33.983455316125],[-71.8803385059999,-33.9833345481251],[-71.8804689429999,-33.982543401125],[-71.8792368359999,-33.9823917461251]]]]}},{"type":"Feature","properties":{"id":"6205043031004","commune":"Navidad","code":"06205","gse":"D","quintil":"Q2","nse_score":645.5,"educ":10.4,"educ_score":493.3,"hacin":1.111,"hacin_class":"Hacinamiento Leve","hacin_score":827.4,"auto_score":0.0,"n_per":10,"n_hog":5,"source_year":2024,"crime_score":0.6688,"crime_nivel":"Alto","crime_color":"#f44336"},"geometry":{"type":"MultiPolygon","coordinates":[[[[-71.8740173689999,-33.983179772125],[-71.8746938219999,-33.983281393125],[-71.8747127899999,-33.9828995981251],[-71.8740729889999,-33.9828059591251],[-71.8740173689999,-33.983179772125]]],[[[-71.873282205,-33.9826400801251],[-71.8740390319999,-33.982769793125],[-71.8740771149999,-33.982568465125],[-71.8732832769999,-33.982446854125],[-71.873282205,-33.9826400801251]]]]}},{"type":"Feature","properties":{"id":"6205043031009","commune":"Navidad","code":"06205","gse":"C3","quintil":"Q2","nse_score":672.2,"educ":11.1,"educ_score":540.0,"hacin":1.333,"hacin_class":"Hacinamiento Leve","hacin_score":780.1,"auto_score":111.1,"n_per":16,"n_hog":9,"source_year":2024,"crime_score":0.6611,"crime_nivel":"Alto","crime_color":"#f44336"},"geometry":{"type":"MultiPolygon","coordinates":[[[[-71.8739423259999,-33.983610801125],[-71.8738308899999,-33.983994583125],[-71.8746011689999,-33.984146247125],[-71.8746392729999,-33.983736405125],[-71.8739423259999,-33.983610801125]]],[[[-71.8732797599999,-33.982909857125],[-71.8732592059999,-33.983438870125],[-71.8736921549999,-33.983527277125],[-71.8738000629999,-33.9831458881251],[-71.8737613839999,-33.9835388211251],[-71.874650158,-33.983691025125],[-71.8746860819999,-33.983316959125],[-71.8739950099999,-33.983204319125],[-71.8739860459999,-33.983005224125],[-71.8732797599999,-33.982909857125]]]]}},{"type":"Feature","properties":{"id":"6205043031020","commune":"Navidad","code":"06205","gse":"C2","quintil":"Q4","nse_score":744.7,"educ":11.5,"educ_score":566.7,"hacin":1.062,"hacin_class":"Hacinamiento Leve","hacin_score":837.8,"auto_score":83.3,"n_per":17,"n_hog":6,"source_year":2024,"crime_score":0.6352,"crime_nivel":"Alto","crime_color":"#f44336"},"geometry":{"type":"MultiPolygon","coordinates":[[[[-71.8754789679999,-33.986461512125],[-71.8757608889999,-33.987019022125],[-71.8763096399999,-33.986695761125],[-71.8754789679999,-33.986461512125]]],[[[-71.8763603779999,-33.986655631125],[-71.8768172379999,-33.986380136125],[-71.8753664629999,-33.985976811125],[-71.875436868,-33.986401303125],[-71.8763603779999,-33.986655631125]]]]}},{"type":"Feature","properties":{"id":"6205043031025","commune":"Navidad","code":"06205","gse":"C3","quintil":"Q2","nse_score":680.4,"educ":11.6,"educ_score":573.3,"hacin":1.263,"hacin_class":"Hacinamiento Leve","hacin_score":795.1,"auto_score":312.5,"n_per":24,"n_hog":8,"source_year":2024,"crime_score":0.6608,"crime_nivel":"Alto","crime_color":"#f44336"},"geometry":{"type":"MultiPolygon","coordinates":[[[[-71.8787700649999,-33.989121673125],[-71.8805874579999,-33.9900058081249],[-71.8805911849999,-33.9895990611249],[-71.8789174799999,-33.988701504125],[-71.8787700649999,-33.989121673125]]],[[[-71.8805561779999,-33.9895370871249],[-71.880568293,-33.988984032125],[-71.8804011869999,-33.988751804125],[-71.879836629,-33.988477589125],[-71.8790729899999,-33.988313282125],[-71.8789310999999,-33.988666694125],[-71.8805561779999,-33.9895370871249]]]]}}]}