{"type":"FeatureCollection","features":[{"type":"Feature","properties":{"id":"16204021001001","commune":"Ninhue","code":"16204","gse":"C3","quintil":"Q2","nse_score":675.5,"educ":11.2,"educ_score":546.7,"hacin":1.452,"hacin_class":"Hacinamiento Leve","hacin_score":754.9,"auto_score":166.7,"n_per":106,"n_hog":34,"source_year":2024},"geometry":{"type":"Polygon","coordinates":[[[-72.3987333009999,-36.3883052860985],[-72.3978983509999,-36.3885445320985],[-72.3976662279999,-36.3888870740986],[-72.3973005709999,-36.3891087620985],[-72.3983332879999,-36.3902297740985],[-72.3989167549999,-36.3900050060985],[-72.3985115319999,-36.3890464570985],[-72.3981528029999,-36.3891035360985],[-72.3993792309999,-36.3886317520985],[-72.3992682669999,-36.3884290980986],[-72.3987333009999,-36.3883052860985]]]}},{"type":"Feature","properties":{"id":"16204021001002","commune":"Ninhue","code":"16204","gse":"C3","quintil":"Q3","nse_score":687.0,"educ":10.1,"educ_score":473.3,"hacin":1.171,"hacin_class":"Hacinamiento Leve","hacin_score":814.6,"auto_score":100.0,"n_per":41,"n_hog":15,"source_year":2024},"geometry":{"type":"Polygon","coordinates":[[[-72.3990870619999,-36.3899450640985],[-72.3994814009999,-36.3896100930985],[-72.3998526369999,-36.3894963180985],[-72.399406284,-36.3886811570985],[-72.3992336269999,-36.3887940510985],[-72.3994535969999,-36.3892393370985],[-72.3996686219999,-36.3892541070985],[-72.3990243179999,-36.3896178530985],[-72.3990870619999,-36.3899450640985]]]}},{"type":"Feature","properties":{"id":"16204021001003","commune":"Ninhue","code":"16204","gse":"C2","quintil":"Q4","nse_score":722.9,"educ":11.8,"educ_score":586.7,"hacin":1.111,"hacin_class":"Hacinamiento Leve","hacin_score":827.4,"auto_score":100.0,"n_per":20,"n_hog":10,"source_year":2024},"geometry":{"type":"Polygon","coordinates":[[[-72.3992825529999,-36.3890387590986],[-72.3991263959999,-36.3887908920985],[-72.3985789819999,-36.3890109210986],[-72.3987453749999,-36.3892707410985],[-72.3992825529999,-36.3890387590986]]]}},{"type":"Feature","properties":{"id":"16204021001005","commune":"Ninhue","code":"16204","gse":"C2","quintil":"Q4","nse_score":722.6,"educ":12.2,"educ_score":613.3,"hacin":1.154,"hacin_class":"Hacinamiento Leve","hacin_score":818.3,"auto_score":227.3,"n_per":60,"n_hog":21,"source_year":2024},"geometry":{"type":"Polygon","coordinates":[[[-72.3973497559999,-36.3891950200985],[-72.3977878139999,-36.3899440990985],[-72.3974251359999,-36.3901907120985],[-72.3970516409999,-36.3908466120985],[-72.3970480409999,-36.3911239670985],[-72.3966156279999,-36.3916586390985],[-72.3958588919999,-36.3921995230985],[-72.3960195379999,-36.3924679760985],[-72.3963668909999,-36.3924084040985],[-72.3967754489999,-36.3931977770985],[-72.3978770659999,-36.3928213870985],[-72.3971404239999,-36.3910561610985],[-72.398170122,-36.3906396910985],[-72.3978824679999,-36.3897902990985],[-72.3973497559999,-36.3891950200985]]]}},{"type":"Feature","properties":{"id":"16204021001006","commune":"Ninhue","code":"16204","gse":"C2","quintil":"Q4","nse_score":768.3,"educ":13.8,"educ_score":720.0,"hacin":1.0,"hacin_class":"Hacinamiento Leve","hacin_score":851.1,"auto_score":375.0,"n_per":10,"n_hog":4,"source_year":2024},"geometry":{"type":"Polygon","coordinates":[[[-72.3990740279999,-36.3913982550985],[-72.3980161649999,-36.3899111080985],[-72.3985860689999,-36.3915722280985],[-72.3990740279999,-36.3913982550985]]]}},{"type":"Feature","properties":{"id":"16204021001008","commune":"Ninhue","code":"16204","gse":"C2","quintil":"Q4","nse_score":724.0,"educ":11.2,"educ_score":546.7,"hacin":1.0,"hacin_class":"Hacinamiento Leve","hacin_score":851.1,"auto_score":166.7,"n_per":14,"n_hog":6,"source_year":2024},"geometry":{"type":"Polygon","coordinates":[[[-72.3991453659999,-36.3913885560985],[-72.3996211139999,-36.3912278720985],[-72.3991905249999,-36.3904486730985],[-72.3986607399999,-36.3905943130985],[-72.3991453659999,-36.3913885560985]]]}},{"type":"Feature","properties":{"id":"16204021001009","commune":"Ninhue","code":"16204","gse":"D","quintil":"Q2","nse_score":656.7,"educ":11.1,"educ_score":540.0,"hacin":1.229,"hacin_class":"Hacinamiento Leve","hacin_score":802.4,"auto_score":214.3,"n_per":43,"n_hog":14,"source_year":2024},"geometry":{"type":"Polygon","coordinates":[[[-72.3988761349999,-36.3925256050985],[-72.3981860509999,-36.3907240590985],[-72.3972365819999,-36.3910288550985],[-72.3979487639999,-36.3927881760985],[-72.3988761349999,-36.3925256050985]]]}},{"type":"Feature","properties":{"id":"16204021001010","commune":"Ninhue","code":"16204","gse":"C3","quintil":"Q3","nse_score":683.8,"educ":11.9,"educ_score":593.3,"hacin":1.312,"hacin_class":"Hacinamiento Leve","hacin_score":784.6,"auto_score":138.9,"n_per":42,"n_hog":17,"source_year":2024},"geometry":{"type":"Polygon","coordinates":[[[-72.4010231329999,-36.3912112340985],[-72.4009080339999,-36.3912530380985],[-72.4010227299999,-36.3913324880985],[-72.4010756249999,-36.3914777270985],[-72.4008784199999,-36.3912835380985],[-72.3998926119999,-36.3916393710985],[-72.4005379559999,-36.3931269390985],[-72.3995549909999,-36.3939441810985],[-72.3997065809999,-36.3943422550985],[-72.4001941359999,-36.3940777290985],[-72.4005131739999,-36.3936970770985],[-72.4014954959999,-36.3932311500985],[-72.4019967019999,-36.3931983770985],[-72.4010231329999,-36.3912112340985]]]}},{"type":"Feature","properties":{"id":"16204021001011","commune":"Ninhue","code":"16204","gse":"C2","quintil":"Q3","nse_score":706.5,"educ":11.1,"educ_score":540.0,"hacin":0.931,"hacin_class":"Sin Hacinamiento","hacin_score":865.7,"auto_score":76.9,"n_per":27,"n_hog":13,"source_year":2024},"geometry":{"type":"Polygon","coordinates":[[[-72.3992224129999,-36.3917449770985],[-72.3990586829999,-36.3914683080985],[-72.3986066429999,-36.3916244560985],[-72.399133403,-36.3928912730985],[-72.4002301909999,-36.3925294770985],[-72.3996446849999,-36.3912787590985],[-72.3990976089999,-36.3914552590985],[-72.3992224129999,-36.3917449770985]]]}},{"type":"Feature","properties":{"id":"16204021001012","commune":"Ninhue","code":"16204","gse":"C2","quintil":"Q4","nse_score":737.6,"educ":12.1,"educ_score":606.7,"hacin":1.25,"hacin_class":"Hacinamiento Leve","hacin_score":797.9,"auto_score":166.7,"n_per":50,"n_hog":18,"source_year":2024},"geometry":{"type":"Polygon","coordinates":[[[-72.3953536789999,-36.3924743970985],[-72.3954228009999,-36.3931748110985],[-72.3951337359999,-36.3932343090985],[-72.3949455549999,-36.3936540440985],[-72.394700456,-36.3936344260985],[-72.3947038219999,-36.3938723820985],[-72.3943137409999,-36.3939349890985],[-72.3941264839999,-36.3941272930985],[-72.3945833149999,-36.3952778930985],[-72.3953250879999,-36.3959226860985],[-72.3951930349999,-36.3967355580985],[-72.3955431779999,-36.3958141140985],[-72.3950642499999,-36.3949651860985],[-72.3946361909999,-36.3951235010985],[-72.3949942839999,-36.3949224630985],[-72.3945185999999,-36.3940188770985],[-72.3961272339999,-36.3934154250985],[-72.3959877279999,-36.3930960380985],[-72.3958442969999,-36.3931515860985],[-72.395800962,-36.3929730750985],[-72.3958574739999,-36.3931158430985],[-72.3960061909999,-36.3930593300985],[-72.396159715,-36.3934043390985],[-72.3967101799999,-36.3932118130985],[-72.396333663,-36.3924529830985],[-72.3960008749999,-36.3925191430985],[-72.3958197689999,-36.3922317660985],[-72.3953536789999,-36.3924743970985]]]}},{"type":"Feature","properties":{"id":"16204021001013","commune":"Ninhue","code":"16204","gse":"C2","quintil":"Q4","nse_score":721.2,"educ":12.8,"educ_score":653.3,"hacin":1.214,"hacin_class":"Hacinamiento Leve","hacin_score":805.5,"auto_score":45.5,"n_per":34,"n_hog":14,"source_year":2024},"geometry":{"type":"Polygon","coordinates":[[[-72.4004866329999,-36.3931082160985],[-72.4002404399999,-36.3925765070985],[-72.399161364,-36.3929436880985],[-72.3995319079999,-36.3938848810985],[-72.4004866329999,-36.3931082160985]]]}},{"type":"Feature","properties":{"id":"16204021001016","commune":"Ninhue","code":"16204","gse":"C3","quintil":"Q3","nse_score":685.1,"educ":11.0,"educ_score":533.3,"hacin":1.133,"hacin_class":"Hacinamiento Leve","hacin_score":822.7,"auto_score":93.8,"n_per":34,"n_hog":16,"source_year":2024},"geometry":{"type":"Polygon","coordinates":[[[-72.3956718279999,-36.3936573440985],[-72.3961069509999,-36.3945401650985],[-72.3971699269999,-36.3941687340985],[-72.3970401179999,-36.3938986970985],[-72.3964972349999,-36.3940511720985],[-72.3970277159999,-36.3938735950985],[-72.3967344439999,-36.3932872530985],[-72.3956718279999,-36.3936573440985]]]}},{"type":"Feature","properties":{"id":"16204021001018","commune":"Ninhue","code":"16204","gse":"C2","quintil":"Q4","nse_score":720.0,"educ":12.2,"educ_score":613.3,"hacin":1.219,"hacin_class":"Hacinamiento Leve","hacin_score":804.5,"auto_score":200.0,"n_per":39,"n_hog":15,"source_year":2024},"geometry":{"type":"Polygon","coordinates":[[[-72.3950585189999,-36.3948761910985],[-72.3960206789999,-36.3945594810985],[-72.3955705449999,-36.3937002800985],[-72.3946159249999,-36.3940436470985],[-72.3950585189999,-36.3948761910985]]]}},{"type":"Feature","properties":{"id":"16204021001019","commune":"Ninhue","code":"16204","gse":"C3","quintil":"Q3","nse_score":678.5,"educ":10.9,"educ_score":526.7,"hacin":1.196,"hacin_class":"Hacinamiento Leve","hacin_score":809.3,"auto_score":175.0,"n_per":61,"n_hog":21,"source_year":2024},"geometry":{"type":"Polygon","coordinates":[[[-72.3997065809999,-36.3943422550985],[-72.4008047359999,-36.3968360750985],[-72.4017683239999,-36.3966710450985],[-72.400480264,-36.3937378110985],[-72.4001941359999,-36.3940777290985],[-72.3997065809999,-36.3943422550985]]]}},{"type":"Feature","properties":{"id":"16204021001021","commune":"Ninhue","code":"16204","gse":"C3","quintil":"Q2","nse_score":667.7,"educ":11.1,"educ_score":540.0,"hacin":1.188,"hacin_class":"Hacinamiento Leve","hacin_score":811.2,"auto_score":125.0,"n_per":38,"n_hog":12,"source_year":2024},"geometry":{"type":"Polygon","coordinates":[[[-72.3994730339999,-36.3939585410985],[-72.3986965369999,-36.3941972130985],[-72.3994283499999,-36.3956494320984],[-72.4000553889999,-36.3954483650985],[-72.3994730339999,-36.3939585410985]]]}},{"type":"Feature","properties":{"id":"16204021001022","commune":"Ninhue","code":"16204","gse":"D","quintil":"Q1","nse_score":619.8,"educ":10.0,"educ_score":466.7,"hacin":1.217,"hacin_class":"Hacinamiento Leve","hacin_score":804.8,"auto_score":41.7,"n_per":28,"n_hog":12,"source_year":2024},"geometry":{"type":"Polygon","coordinates":[[[-72.3961184879999,-36.3946021450985],[-72.3965739469999,-36.3954852300985],[-72.3976739369999,-36.3951105620985],[-72.3972462369999,-36.3942295280985],[-72.3961184879999,-36.3946021450985]]]}},{"type":"Feature","properties":{"id":"16204021001023","commune":"Ninhue","code":"16204","gse":"E","quintil":"Q1","nse_score":568.1,"educ":8.5,"educ_score":366.7,"hacin":1.375,"hacin_class":"Hacinamiento Leve","hacin_score":771.3,"auto_score":100.0,"n_per":22,"n_hog":11,"source_year":2024},"geometry":{"type":"Polygon","coordinates":[[[-72.3951101159999,-36.3949462010985],[-72.3955743409999,-36.3957873370985],[-72.3965066279999,-36.3954951370985],[-72.3960704179999,-36.3946231440985],[-72.3951101159999,-36.3949462010985]]]}},{"type":"Feature","properties":{"id":"16204021001024","commune":"Ninhue","code":"16204","gse":"C3","quintil":"Q2","nse_score":665.5,"educ":10.0,"educ_score":466.7,"hacin":1.154,"hacin_class":"Hacinamiento Leve","hacin_score":818.3,"auto_score":47.6,"n_per":60,"n_hog":21,"source_year":2024},"geometry":{"type":"Polygon","coordinates":[[[-72.3979680499999,-36.3955129440985],[-72.3990428989999,-36.3951644970985],[-72.3988593259999,-36.3947911030985],[-72.3977990579999,-36.3951460310985],[-72.3979680499999,-36.3955129440985]]]}},{"type":"Feature","properties":{"id":"16204021001025","commune":"Ninhue","code":"16204","gse":"C2","quintil":"Q4","nse_score":716.5,"educ":11.0,"educ_score":533.3,"hacin":1.017,"hacin_class":"Hacinamiento Leve","hacin_score":847.4,"auto_score":148.9,"n_per":118,"n_hog":47,"source_year":2024},"geometry":{"type":"Polygon","coordinates":[[[-72.3966019309999,-36.3955372270984],[-72.3967524219999,-36.3957818660985],[-72.3974707669999,-36.3955514570985],[-72.3967645629999,-36.3958187250985],[-72.3968961069999,-36.3960951690984],[-72.3976630789999,-36.3958909710985],[-72.3969177559999,-36.3961328550985],[-72.3970831049999,-36.3964093310985],[-72.3981356139999,-36.3960692300985],[-72.3977089499999,-36.3951720770985],[-72.3966019309999,-36.3955372270984]]]}},{"type":"Feature","properties":{"id":"16204021001026","commune":"Ninhue","code":"16204","gse":"D","quintil":"Q2","nse_score":650.7,"educ":10.3,"educ_score":486.7,"hacin":1.12,"hacin_class":"Hacinamiento Leve","hacin_score":825.5,"auto_score":208.3,"n_per":28,"n_hog":12,"source_year":2024},"geometry":{"type":"Polygon","coordinates":[[[-72.3990801409999,-36.3951932050985],[-72.3979817059999,-36.3955502350984],[-72.3982222209999,-36.3960358670985],[-72.3993373639999,-36.3956908200984],[-72.3990801409999,-36.3951932050985]]]}},{"type":"Feature","properties":{"id":"16204021001027","commune":"Ninhue","code":"16204","gse":"C2","quintil":"Q3","nse_score":710.0,"educ":11.3,"educ_score":553.3,"hacin":1.0,"hacin_class":"Hacinamiento Leve","hacin_score":851.1,"auto_score":166.7,"n_per":14,"n_hog":6,"source_year":2024},"geometry":{"type":"Polygon","coordinates":[[[-72.399457476,-36.3957148900985],[-72.3999896299999,-36.3968323950985],[-72.4005982319999,-36.3967098090985],[-72.4000871599999,-36.3955115690985],[-72.399457476,-36.3957148900985]]]}},{"type":"Feature","properties":{"id":"16204021001028","commune":"Ninhue","code":"16204","gse":"C3","quintil":"Q3","nse_score":699.8,"educ":11.4,"educ_score":560.0,"hacin":1.18,"hacin_class":"Hacinamiento Leve","hacin_score":812.8,"auto_score":140.0,"n_per":59,"n_hog":25,"source_year":2024},"geometry":{"type":"Polygon","coordinates":[[[-72.3956132029999,-36.3958261260985],[-72.3952045479999,-36.3967782470985],[-72.3955530949999,-36.3980705970985],[-72.3959654459999,-36.3976113810985],[-72.3978904119999,-36.3972149980984],[-72.3979587969999,-36.3969207710985],[-72.3976122909999,-36.3968505450985],[-72.3979799019999,-36.3968790340985],[-72.3981833589999,-36.3961490170984],[-72.3970584099999,-36.3964729480985],[-72.3965272299999,-36.3955312670985],[-72.3956132029999,-36.3958261260985]]]}},{"type":"Feature","properties":{"id":"16204021001029","commune":"Ninhue","code":"16204","gse":"C3","quintil":"Q2","nse_score":668.0,"educ":10.4,"educ_score":493.3,"hacin":1.128,"hacin_class":"Hacinamiento Leve","hacin_score":823.8,"auto_score":205.9,"n_per":44,"n_hog":17,"source_year":2024},"geometry":{"type":"Polygon","coordinates":[[[-72.3979562439999,-36.3972261690985],[-72.3999011409999,-36.3968514220985],[-72.3993885099999,-36.3957500120985],[-72.3983108699999,-36.3961282860985],[-72.3979562439999,-36.3972261690985]]]}},{"type":"Feature","properties":{"id":"16204021001030","commune":"Ninhue","code":"16204","gse":"E","quintil":"Q1","nse_score":494.8,"educ":7.2,"educ_score":280.0,"hacin":1.353,"hacin_class":"Hacinamiento Leve","hacin_score":776.0,"auto_score":83.3,"n_per":23,"n_hog":12,"source_year":2024},"geometry":{"type":"Polygon","coordinates":[[[-72.4075759599999,-36.3960663870985],[-72.4072527229999,-36.3965191000985],[-72.406965651,-36.3973687850984],[-72.4074529979999,-36.3971594360984],[-72.4075702599999,-36.3968833080985],[-72.4074787339999,-36.3971531820985],[-72.4081565549999,-36.3969597760985],[-72.4082904189999,-36.3963974230985],[-72.4081251889999,-36.3964132960985],[-72.4086354829999,-36.3961552560985],[-72.4083185599999,-36.3963857590985],[-72.4081854109999,-36.3969515640985],[-72.4089925609999,-36.3967269870985],[-72.4095684759999,-36.3967368750985],[-72.4095452049999,-36.3965734490985],[-72.4096675409999,-36.3967307400985],[-72.4096278669999,-36.3958436780985],[-72.4075759599999,-36.3960663870985]]]}},{"type":"Feature","properties":{"id":"16204021001031","commune":"Ninhue","code":"16204","gse":"E","quintil":"Q1","nse_score":590.2,"educ":8.7,"educ_score":380.0,"hacin":1.016,"hacin_class":"Hacinamiento Leve","hacin_score":847.7,"auto_score":153.2,"n_per":128,"n_hog":60,"source_year":2024},"geometry":{"type":"Polygon","coordinates":[[[-72.4029703409999,-36.3982191500984],[-72.4029278969999,-36.3980039480985],[-72.4024495929999,-36.3978626260985],[-72.4014563599999,-36.3979744610984],[-72.4027142859999,-36.3989007160985],[-72.4034054709999,-36.3983229440984],[-72.4044094319999,-36.3978786320985],[-72.4045533239999,-36.3985808000984],[-72.4053950599999,-36.3982350930984],[-72.4053628139999,-36.3968154870984],[-72.405428593,-36.3982156340984],[-72.4068821859999,-36.3974457250985],[-72.4072278819999,-36.3965017170985],[-72.4075191569999,-36.3960767050985],[-72.4008377129999,-36.3968783930985],[-72.401430521,-36.3979380120985],[-72.4024569709999,-36.3978267460985],[-72.4029635289999,-36.3979786310985],[-72.4029703409999,-36.3982191500984]]]}},{"type":"Feature","properties":{"id":"16204021001032","commune":"Ninhue","code":"16204","gse":"E","quintil":"Q1","nse_score":495.4,"educ":6.1,"educ_score":206.7,"hacin":1.667,"hacin_class":"Hacinamiento Medio","hacin_score":709.2,"auto_score":125.0,"n_per":10,"n_hog":4,"source_year":2024},"geometry":{"type":"Polygon","coordinates":[[[-72.4084009679999,-36.3983429960984],[-72.4105743339999,-36.3979378860985],[-72.4101302669999,-36.3966609080985],[-72.4091940369999,-36.3971259680985],[-72.4092271059999,-36.3974943110985],[-72.4098590629999,-36.3974732040984],[-72.4100841179999,-36.3977565200984],[-72.409848457,-36.3975128520984],[-72.4091485719999,-36.3975327430984],[-72.4084009679999,-36.3983429960984]]]}},{"type":"Feature","properties":{"id":"16204021001033","commune":"Ninhue","code":"16204","gse":"C1","quintil":"Q5","nse_score":776.6,"educ":13.9,"educ_score":726.7,"hacin":1.304,"hacin_class":"Hacinamiento Leve","hacin_score":786.3,"auto_score":100.0,"n_per":30,"n_hog":10,"source_year":2024},"geometry":{"type":"Polygon","coordinates":[[[-72.4006352939999,-36.3967582000985],[-72.3979537419999,-36.3972834870985],[-72.3979196559999,-36.3980782770985],[-72.4011014969999,-36.3974973120985],[-72.4006352939999,-36.3967582000985]]]}},{"type":"Feature","properties":{"id":"16204021001034","commune":"Ninhue","code":"16204","gse":"D","quintil":"Q1","nse_score":615.0,"educ":11.5,"educ_score":566.7,"hacin":1.154,"hacin_class":"Hacinamiento Leve","hacin_score":818.3,"auto_score":214.3,"n_per":15,"n_hog":7,"source_year":2024},"geometry":{"type":"Polygon","coordinates":[[[-72.4083688019999,-36.3983249310984],[-72.4091927339999,-36.3974977470984],[-72.4092066969999,-36.3970453660985],[-72.4097342249999,-36.3967847040984],[-72.4089973359999,-36.3967945740985],[-72.4072229269999,-36.3972666080985],[-72.4066665269999,-36.3976803500984],[-72.4076146469999,-36.3978813820984],[-72.4083688019999,-36.3983249310984]]]}},{"type":"Feature","properties":{"id":"16204021001035","commune":"Ninhue","code":"16204","gse":"C2","quintil":"Q4","nse_score":769.5,"educ":12.9,"educ_score":660.0,"hacin":1.389,"hacin_class":"Hacinamiento Leve","hacin_score":768.3,"auto_score":187.5,"n_per":25,"n_hog":8,"source_year":2024},"geometry":{"type":"Polygon","coordinates":[[[-72.3955348059999,-36.3981467800985],[-72.3965822789999,-36.3979174080985],[-72.3968325569999,-36.3983823270984],[-72.3968828529999,-36.4007098680984],[-72.3979157199999,-36.4006737350984],[-72.3978489259999,-36.3973022870985],[-72.3959874729999,-36.3976333490984],[-72.3955348059999,-36.3981467800985]]]}},{"type":"Feature","properties":{"id":"16204021001036","commune":"Ninhue","code":"16204","gse":"C2","quintil":"Q4","nse_score":740.0,"educ":11.8,"educ_score":586.7,"hacin":1.0,"hacin_class":"Hacinamiento Leve","hacin_score":851.1,"auto_score":0.0,"n_per":6,"n_hog":4,"source_year":2024},"geometry":{"type":"Polygon","coordinates":[[[-72.4011341499999,-36.3975476500984],[-72.3979225119999,-36.3981467040984],[-72.3979632849999,-36.3991027600984],[-72.4003204569999,-36.3987506670984],[-72.4008269129999,-36.3986547830984],[-72.4005585529999,-36.3979153570984],[-72.4011855039999,-36.3976384150985],[-72.4011341499999,-36.3975476500984]]]}},{"type":"Feature","properties":{"id":"16204021001037","commune":"Ninhue","code":"16204","gse":"D","quintil":"Q1","nse_score":638.2,"educ":9.6,"educ_score":440.0,"hacin":1.297,"hacin_class":"Hacinamiento Leve","hacin_score":787.9,"auto_score":112.9,"n_per":83,"n_hog":32,"source_year":2024},"geometry":{"type":"Polygon","coordinates":[[[-72.4015878729999,-36.3991784110984],[-72.4015720819999,-36.3993892370984],[-72.4011945849999,-36.3994502380984],[-72.4008437069999,-36.3986941040985],[-72.3979655589999,-36.3991453820984],[-72.3980846939999,-36.4034234760984],[-72.4011961399999,-36.4009058310984],[-72.4017763109999,-36.4009193810984],[-72.4024580589999,-36.4013580210984],[-72.4046653699999,-36.4006664600985],[-72.4042418919999,-36.4000353670984],[-72.4027464549999,-36.3989851960985],[-72.402172634,-36.3992500700984],[-72.4026875119999,-36.3989516980985],[-72.4016031729999,-36.3981844420984],[-72.4012100559999,-36.3976750630985],[-72.4009739719999,-36.3977535090984],[-72.4015878729999,-36.3991784110984]]]}},{"type":"Feature","properties":{"id":"16204021001039","commune":"Ninhue","code":"16204","gse":"D","quintil":"Q2","nse_score":654.2,"educ":10.1,"educ_score":473.3,"hacin":1.349,"hacin_class":"Hacinamiento Leve","hacin_score":776.8,"auto_score":159.1,"n_per":58,"n_hog":22,"source_year":2024},"geometry":{"type":"Polygon","coordinates":[[[-72.4012228869999,-36.3994142460984],[-72.4015532689999,-36.3992719690984],[-72.4009264869999,-36.3977692880985],[-72.4006494969999,-36.3978776860985],[-72.4006253159999,-36.3980111700985],[-72.4012228869999,-36.3994142460984]]]}},{"type":"Feature","properties":{"id":"16204021001040","commune":"Ninhue","code":"16204","gse":"C3","quintil":"Q2","nse_score":668.4,"educ":10.4,"educ_score":493.3,"hacin":1.088,"hacin_class":"Hacinamiento Leve","hacin_score":832.3,"auto_score":0.0,"n_per":37,"n_hog":14,"source_year":2024},"geometry":{"type":"Polygon","coordinates":[[[-72.4037714009999,-36.3981725470985],[-72.4039398609999,-36.3988049480985],[-72.4045063059999,-36.3986023070984],[-72.4043897129999,-36.3979286550984],[-72.4037714009999,-36.3981725470985]]]}},{"type":"Feature","properties":{"id":"16204021001041","commune":"Ninhue","code":"16204","gse":"D","quintil":"Q1","nse_score":619.4,"educ":8.8,"educ_score":386.7,"hacin":1.308,"hacin_class":"Hacinamiento Leve","hacin_score":785.6,"auto_score":241.9,"n_per":85,"n_hog":31,"source_year":2024},"geometry":{"type":"Polygon","coordinates":[[[-72.4044220999999,-36.4001623750984],[-72.404712877,-36.4006390290984],[-72.4064562759999,-36.3998020510984],[-72.4061326009999,-36.3984337740985],[-72.4059016049999,-36.3980106060985],[-72.4044925219999,-36.3986753650984],[-72.40487601,-36.3992845400984],[-72.4057419579999,-36.3993909800985],[-72.4049685989999,-36.3993638440984],[-72.4048246559999,-36.3995096620985],[-72.4039083049999,-36.3997495240985],[-72.4043414269999,-36.4000661090984],[-72.4049506109999,-36.3999082040984],[-72.4051313169999,-36.3997242410985],[-72.4049691149999,-36.3999267480984],[-72.4044220999999,-36.4001623750984]]]}},{"type":"Feature","properties":{"id":"16204021001042","commune":"Ninhue","code":"16204","gse":"D","quintil":"Q1","nse_score":636.7,"educ":9.4,"educ_score":426.7,"hacin":1.259,"hacin_class":"Hacinamiento Leve","hacin_score":795.9,"auto_score":272.7,"n_per":34,"n_hog":11,"source_year":2024},"geometry":{"type":"Polygon","coordinates":[[[-72.4027515569999,-36.3989291760985],[-72.4029243429999,-36.3990270440984],[-72.4038896949999,-36.3988155870985],[-72.4037192849999,-36.3981975970984],[-72.4027515569999,-36.3989291760985]]]}},{"type":"Feature","properties":{"id":"16204021001043","commune":"Ninhue","code":"16204","gse":"C2","quintil":"Q4","nse_score":721.4,"educ":11.4,"educ_score":560.0,"hacin":1.385,"hacin_class":"Hacinamiento Leve","hacin_score":769.2,"auto_score":166.7,"n_per":18,"n_hog":6,"source_year":2024},"geometry":{"type":"Polygon","coordinates":[[[-72.403758852,-36.3996568310985],[-72.4048046369999,-36.3994633290985],[-72.4049243539999,-36.3993363600985],[-72.4044403929999,-36.3986994740985],[-72.4029764999999,-36.3990716540984],[-72.403758852,-36.3996568310985]]]}},{"type":"Feature","properties":{"id":"16204021001045","commune":"Ninhue","code":"16204","gse":"E","quintil":"Q1","nse_score":605.6,"educ":9.2,"educ_score":413.3,"hacin":1.235,"hacin_class":"Hacinamiento Leve","hacin_score":801.0,"auto_score":142.9,"n_per":21,"n_hog":7,"source_year":2024},"geometry":{"type":"Polygon","coordinates":[[[-72.4049764739999,-36.4010679640984],[-72.4049915099999,-36.4018567590984],[-72.4065526539999,-36.4015978360984],[-72.4062138469999,-36.3999872750984],[-72.404741612,-36.4006703410984],[-72.4049764739999,-36.4010679640984]]]}},{"type":"Feature","properties":{"id":"16204021001014","commune":"Ninhue","code":"16204","gse":"C3","quintil":"Q3","nse_score":679.0,"educ":14.1,"educ_score":740.0,"hacin":1.263,"hacin_class":"Hacinamiento Leve","hacin_score":795.1,"auto_score":55.6,"n_per":24,"n_hog":8,"source_year":2024},"geometry":{"type":"MultiPolygon","coordinates":[[[[-72.3986779439999,-36.3941533100985],[-72.3994536419999,-36.3939182540985],[-72.3992804629999,-36.3934545200985],[-72.3984518839999,-36.3937145840985],[-72.3986779439999,-36.3941533100985]]],[[[-72.3984576059999,-36.3936526050985],[-72.3992568569999,-36.3933913620985],[-72.3989185919999,-36.3925991470985],[-72.3980334059999,-36.3928998380985],[-72.3984576059999,-36.3936526050985]]]]}},{"type":"Feature","properties":{"id":"16204021001038","commune":"Ninhue","code":"16204","gse":"E","quintil":"Q1","nse_score":440.0,"educ":6.6,"educ_score":240.0,"hacin":1.177,"hacin_class":"Hacinamiento Leve","hacin_score":813.5,"auto_score":0.0,"n_per":20,"n_hog":10,"source_year":2024},"geometry":{"type":"MultiPolygon","coordinates":[[[[-72.4065356549999,-36.3997463820984],[-72.4069784139999,-36.3994813250985],[-72.4074511489999,-36.3991160470985],[-72.4064382639999,-36.3993758750984],[-72.4065356549999,-36.3997463820984]]],[[[-72.4066384029999,-36.3976968440984],[-72.4059378339999,-36.3979870700985],[-72.4064286289999,-36.3993405400984],[-72.4078610989999,-36.3988932110984],[-72.4083481359999,-36.3983450050985],[-72.4074409779999,-36.3978565050985],[-72.4070068539999,-36.3978543450984],[-72.4066384029999,-36.3976968440984]]]]}}]}