{"type":"FeatureCollection","features":[{"type":"Feature","properties":{"id":"16303011001001","commune":"Ñiquén","code":"16303","gse":"D","quintil":"Q2","nse_score":656.3,"educ":10.3,"educ_score":486.7,"hacin":1.25,"hacin_class":"Hacinamiento Leve","hacin_score":797.9,"auto_score":111.1,"n_per":25,"n_hog":9,"source_year":2024,"crime_score":0.9334,"crime_nivel":"Muy Alto","crime_color":"#d32f2f"},"geometry":{"type":"Polygon","coordinates":[[[-71.8149668659999,-36.2731481520997],[-71.8152016059999,-36.2737852550997],[-71.8154700769999,-36.2769645390996],[-71.8162843649999,-36.2769971260996],[-71.8154915759999,-36.2770237870997],[-71.8154741769999,-36.2773195680996],[-71.8161996329999,-36.2773455490997],[-71.8168239349999,-36.2771731000996],[-71.8150448409999,-36.2731231680996],[-71.8149668659999,-36.2731481520997]]]}},{"type":"Feature","properties":{"id":"16303011001003","commune":"Ñiquén","code":"16303","gse":"E","quintil":"Q1","nse_score":602.7,"educ":10.6,"educ_score":506.7,"hacin":1.367,"hacin_class":"Hacinamiento Leve","hacin_score":773.0,"auto_score":117.0,"n_per":108,"n_hog":45,"source_year":2024,"crime_score":0.9999,"crime_nivel":"Muy Alto","crime_color":"#d32f2f"},"geometry":{"type":"Polygon","coordinates":[[[-71.8140045379999,-36.2735279590996],[-71.8141992139999,-36.2763875300997],[-71.8131632939999,-36.2765738240997],[-71.8138408169999,-36.2775449260997],[-71.8125912819999,-36.2779538980996],[-71.8117837659999,-36.2767719010997],[-71.8114752069999,-36.2769202380996],[-71.8136017619999,-36.2800761890996],[-71.8149820829999,-36.2797017810996],[-71.8148521449999,-36.2791204740996],[-71.8144306399999,-36.2788504170996],[-71.8148768649999,-36.2790896850996],[-71.8150532229999,-36.2796850020996],[-71.8156216909999,-36.2794926960996],[-71.8154217759999,-36.2775294390996],[-71.8138938859999,-36.2777123070996],[-71.8154212699999,-36.2775003590996],[-71.8153192469999,-36.2754442410996],[-71.8143723389999,-36.2754779190997],[-71.8153119479999,-36.2753910150997],[-71.8151057589999,-36.2736794230996],[-71.8150738389999,-36.2736000370996],[-71.8148058089999,-36.2737057010997],[-71.8147779699999,-36.2738532280997],[-71.8144026099999,-36.2739394830997],[-71.8147562569999,-36.2738254480997],[-71.8147762439999,-36.2736769690997],[-71.8150526119999,-36.2735669660996],[-71.8146254859999,-36.2733738630997],[-71.8140045379999,-36.2735279590996]]]}},{"type":"Feature","properties":{"id":"16303011001004","commune":"Ñiquén","code":"16303","gse":"D","quintil":"Q1","nse_score":628.3,"educ":9.7,"educ_score":446.7,"hacin":1.29,"hacin_class":"Hacinamiento Leve","hacin_score":789.4,"auto_score":127.7,"n_per":129,"n_hog":48,"source_year":2024,"crime_score":0.9962,"crime_nivel":"Muy Alto","crime_color":"#d32f2f"},"geometry":{"type":"Polygon","coordinates":[[[-71.8124037309999,-36.2784738200996],[-71.8121557549999,-36.2780872000996],[-71.8117569369999,-36.2782785780996],[-71.8118238189999,-36.2784133490996],[-71.8117247129999,-36.2784533480996],[-71.8114091309999,-36.2779808350996],[-71.8119266879999,-36.2777256510996],[-71.8114366519999,-36.2769387740996],[-71.8105924199999,-36.2773446340996],[-71.8125133769999,-36.2803156560996],[-71.8134741219999,-36.2801156430996],[-71.812997789,-36.2793042820996],[-71.8124025449999,-36.2796111170996],[-71.8118005499999,-36.2787272820996],[-71.8124037309999,-36.2784738200996]]]}},{"type":"Feature","properties":{"id":"16303011001005","commune":"Ñiquén","code":"16303","gse":"D","quintil":"Q2","nse_score":646.9,"educ":10.6,"educ_score":506.7,"hacin":1.0,"hacin_class":"Hacinamiento Leve","hacin_score":851.1,"auto_score":55.6,"n_per":35,"n_hog":16,"source_year":2024,"crime_score":0.9428,"crime_nivel":"Muy Alto","crime_color":"#d32f2f"},"geometry":{"type":"Polygon","coordinates":[[[-71.8155692679999,-36.2791492980996],[-71.8157392019999,-36.2794826830996],[-71.8169730629999,-36.2791828860996],[-71.8176601069999,-36.2807366040996],[-71.8174662359999,-36.2803883500996],[-71.8162377509999,-36.2807198560996],[-71.8166521549999,-36.2817302060996],[-71.8185080049999,-36.2811879960996],[-71.8184640779999,-36.2807690410996],[-71.8168484689999,-36.2772283490996],[-71.8155006029999,-36.2774839080997],[-71.8155692679999,-36.2791492980996]]]}},{"type":"Feature","properties":{"id":"16303011001006","commune":"Ñiquén","code":"16303","gse":"D","quintil":"Q1","nse_score":616.0,"educ":9.6,"educ_score":440.0,"hacin":1.174,"hacin_class":"Hacinamiento Leve","hacin_score":814.0,"auto_score":0.0,"n_per":101,"n_hog":40,"source_year":2024,"crime_score":0.9896,"crime_nivel":"Muy Alto","crime_color":"#d32f2f"},"geometry":{"type":"Polygon","coordinates":[[[-71.8105636689999,-36.2773584560996],[-71.8096361879999,-36.2778043380996],[-71.8113852039999,-36.2806035550996],[-71.8108533189999,-36.2807888340996],[-71.8117323549999,-36.2831032810996],[-71.8125176459999,-36.2828586150996],[-71.8116934289999,-36.2808428360996],[-71.8117325099999,-36.2805834090996],[-71.8105687069999,-36.2786786820996],[-71.811736789,-36.2805238660996],[-71.811976409,-36.2804485820996],[-71.8113128139999,-36.2794183120996],[-71.8116198629999,-36.2798385200996],[-71.812025876,-36.2796527870996],[-71.8110484739999,-36.2781074490996],[-71.8109632819999,-36.2780016610996],[-71.8108359269999,-36.2780607290996],[-71.8109567389999,-36.2779705900996],[-71.8105636689999,-36.2773584560996]]]}},{"type":"Feature","properties":{"id":"16303011001007","commune":"Ñiquén","code":"16303","gse":"E","quintil":"Q1","nse_score":545.0,"educ":8.8,"educ_score":386.7,"hacin":1.346,"hacin_class":"Hacinamiento Leve","hacin_score":777.4,"auto_score":0.0,"n_per":35,"n_hog":12,"source_year":2024,"crime_score":0.9946,"crime_nivel":"Muy Alto","crime_color":"#d32f2f"},"geometry":{"type":"Polygon","coordinates":[[[-71.8116539059999,-36.2782481750996],[-71.8121378679999,-36.2780421330996],[-71.8119657659999,-36.2777712780996],[-71.8114875019999,-36.2779891370996],[-71.8116539059999,-36.2782481750996]]]}},{"type":"Feature","properties":{"id":"16303011001008","commune":"Ñiquén","code":"16303","gse":"D","quintil":"Q2","nse_score":638.7,"educ":9.4,"educ_score":426.7,"hacin":1.323,"hacin_class":"Hacinamiento Leve","hacin_score":782.4,"auto_score":55.6,"n_per":41,"n_hog":18,"source_year":2024,"crime_score":0.9497,"crime_nivel":"Muy Alto","crime_color":"#d32f2f"},"geometry":{"type":"Polygon","coordinates":[[[-71.8118749919999,-36.2787630650996],[-71.8121134879999,-36.2790902480996],[-71.8126702239999,-36.2788369910996],[-71.8124405659999,-36.2785152570996],[-71.8118749919999,-36.2787630650996]]]}},{"type":"Feature","properties":{"id":"16303011001009","commune":"Ñiquén","code":"16303","gse":"E","quintil":"Q1","nse_score":594.8,"educ":8.5,"educ_score":366.7,"hacin":1.448,"hacin_class":"Hacinamiento Leve","hacin_score":755.7,"auto_score":107.1,"n_per":42,"n_hog":13,"source_year":2024,"crime_score":0.9726,"crime_nivel":"Muy Alto","crime_color":"#d32f2f"},"geometry":{"type":"Polygon","coordinates":[[[-71.8121499599999,-36.2791584600996],[-71.8123661079999,-36.2794955330996],[-71.8129347379999,-36.2792331750996],[-71.812711067,-36.2789122660996],[-71.8121499599999,-36.2791584600996]]]}},{"type":"Feature","properties":{"id":"16303011001011","commune":"Ñiquén","code":"16303","gse":"D","quintil":"Q1","nse_score":629.2,"educ":10.7,"educ_score":513.3,"hacin":1.381,"hacin_class":"Hacinamiento Leve","hacin_score":770.0,"auto_score":0.0,"n_per":29,"n_hog":11,"source_year":2024,"crime_score":0.949,"crime_nivel":"Muy Alto","crime_color":"#d32f2f"},"geometry":{"type":"Polygon","coordinates":[[[-71.8161886529999,-36.2806663580996],[-71.8174440269999,-36.2803385130996],[-71.8169781739999,-36.2792853130996],[-71.8157661239999,-36.2796285470996],[-71.8161886529999,-36.2806663580996]]]}},{"type":"Feature","properties":{"id":"16303011001013","commune":"Ñiquén","code":"16303","gse":"D","quintil":"Q2","nse_score":649.0,"educ":12.5,"educ_score":633.3,"hacin":1.038,"hacin_class":"Hacinamiento Leve","hacin_score":842.9,"auto_score":71.4,"n_per":27,"n_hog":12,"source_year":2024,"crime_score":0.938,"crime_nivel":"Muy Alto","crime_color":"#d32f2f"},"geometry":{"type":"Polygon","coordinates":[[[-71.8156862559999,-36.2796627130996],[-71.8144220309999,-36.2800023990996],[-71.8148664629999,-36.2809970880996],[-71.8160924509999,-36.2806888920996],[-71.8156862559999,-36.2796627130996]]]}},{"type":"Feature","properties":{"id":"16303011001014","commune":"Ñiquén","code":"16303","gse":"D","quintil":"Q2","nse_score":645.6,"educ":10.7,"educ_score":513.3,"hacin":1.138,"hacin_class":"Hacinamiento Leve","hacin_score":821.7,"auto_score":0.0,"n_per":33,"n_hog":14,"source_year":2024,"crime_score":0.9425,"crime_nivel":"Muy Alto","crime_color":"#d32f2f"},"geometry":{"type":"Polygon","coordinates":[[[-71.8120107489999,-36.2804366370996],[-71.8124449929999,-36.2803205320996],[-71.8120252789999,-36.2797178860996],[-71.8116628089999,-36.2798973740996],[-71.8120107489999,-36.2804366370996]]]}},{"type":"Feature","properties":{"id":"16303011001016","commune":"Ñiquén","code":"16303","gse":"D","quintil":"Q1","nse_score":612.9,"educ":8.8,"educ_score":386.7,"hacin":1.067,"hacin_class":"Hacinamiento Leve","hacin_score":836.9,"auto_score":71.4,"n_per":32,"n_hog":14,"source_year":2024,"crime_score":0.9586,"crime_nivel":"Muy Alto","crime_color":"#d32f2f"},"geometry":{"type":"Polygon","coordinates":[[[-71.8143463089999,-36.2800353170996],[-71.8130911639999,-36.2803575230996],[-71.8135306679999,-36.2813683450996],[-71.8147831209999,-36.2810319630996],[-71.8143463089999,-36.2800353170996]]]}},{"type":"Feature","properties":{"id":"16303011001019","commune":"Ñiquén","code":"16303","gse":"D","quintil":"Q2","nse_score":657.5,"educ":11.2,"educ_score":546.7,"hacin":1.65,"hacin_class":"Hacinamiento Medio","hacin_score":712.8,"auto_score":83.3,"n_per":33,"n_hog":12,"source_year":2024,"crime_score":0.9365,"crime_nivel":"Muy Alto","crime_color":"#d32f2f"},"geometry":{"type":"Polygon","coordinates":[[[-71.8117528489999,-36.2806679340996],[-71.8121567249999,-36.2817213550996],[-71.8134066919999,-36.2814053790996],[-71.8129733199999,-36.2803811500996],[-71.8117528489999,-36.2806679340996]]]}},{"type":"Feature","properties":{"id":"16303011001021","commune":"Ñiquén","code":"16303","gse":"C3","quintil":"Q2","nse_score":660.2,"educ":10.9,"educ_score":526.7,"hacin":1.276,"hacin_class":"Hacinamiento Leve","hacin_score":792.4,"auto_score":117.6,"n_per":37,"n_hog":15,"source_year":2024,"crime_score":0.9369,"crime_nivel":"Muy Alto","crime_color":"#d32f2f"},"geometry":{"type":"Polygon","coordinates":[[[-71.8161436769999,-36.2807636800996],[-71.8149095579999,-36.2811096630996],[-71.8153229569999,-36.2820809640996],[-71.8165687289999,-36.2817713090996],[-71.8161436769999,-36.2807636800996]]]}},{"type":"Feature","properties":{"id":"16303011001022","commune":"Ñiquén","code":"16303","gse":"E","quintil":"Q1","nse_score":584.7,"educ":8.4,"educ_score":360.0,"hacin":1.125,"hacin_class":"Hacinamiento Leve","hacin_score":824.5,"auto_score":66.7,"n_per":36,"n_hog":15,"source_year":2024,"crime_score":0.9749,"crime_nivel":"Muy Alto","crime_color":"#d32f2f"},"geometry":{"type":"Polygon","coordinates":[[[-71.8152189609999,-36.2821346630996],[-71.8147892619999,-36.2811051750996],[-71.8135711229999,-36.2814288040995],[-71.8139650939999,-36.2824350820996],[-71.8152189609999,-36.2821346630996]]]}},{"type":"Feature","properties":{"id":"16303011001024","commune":"Ñiquén","code":"16303","gse":"D","quintil":"Q1","nse_score":621.0,"educ":8.8,"educ_score":386.7,"hacin":1.069,"hacin_class":"Hacinamiento Leve","hacin_score":836.4,"auto_score":153.8,"n_per":31,"n_hog":14,"source_year":2024,"crime_score":0.9541,"crime_nivel":"Muy Alto","crime_color":"#d32f2f"},"geometry":{"type":"Polygon","coordinates":[[[-71.8180143859999,-36.2825153240995],[-71.8183580219999,-36.2825411130996],[-71.8182297979999,-36.2825917700996],[-71.8187218229999,-36.2836391650996],[-71.8189870169999,-36.2835151560996],[-71.8193742219999,-36.2835957070996],[-71.8198429749999,-36.2839835590995],[-71.8193575649999,-36.2836183120996],[-71.8190808599999,-36.2835616050996],[-71.8193409089999,-36.2839954560996],[-71.8195098509999,-36.2840406660996],[-71.8193908779999,-36.2840632710995],[-71.8189872719999,-36.2835448260996],[-71.8178839689999,-36.2839433760996],[-71.8186866549999,-36.2836504590996],[-71.8185971659999,-36.2834599610996],[-71.8175640979999,-36.2837837940996],[-71.8176626849999,-36.2839953360995],[-71.8167884249999,-36.2842528130996],[-71.8166789809999,-36.2843937790995],[-71.819313114,-36.2856333200995],[-71.8199707139999,-36.2848375910995],[-71.8202825069999,-36.2847537080995],[-71.8186528559999,-36.2813695460996],[-71.8176309949999,-36.2815460740996],[-71.8180143859999,-36.2825153240995]]]}},{"type":"Feature","properties":{"id":"16303011001025","commune":"Ñiquén","code":"16303","gse":"E","quintil":"Q1","nse_score":596.4,"educ":8.8,"educ_score":386.7,"hacin":1.213,"hacin_class":"Hacinamiento Leve","hacin_score":805.8,"auto_score":0.0,"n_per":57,"n_hog":25,"source_year":2024,"crime_score":0.9789,"crime_nivel":"Muy Alto","crime_color":"#d32f2f"},"geometry":{"type":"Polygon","coordinates":[[[-71.8134563119999,-36.2814691600996],[-71.8121792239999,-36.2818422740996],[-71.8126299869999,-36.2828116590996],[-71.8138792039999,-36.2824894000996],[-71.8134563119999,-36.2814691600996]]]}},{"type":"Feature","properties":{"id":"16303011001026","commune":"Ñiquén","code":"16303","gse":"E","quintil":"Q1","nse_score":541.7,"educ":9.1,"educ_score":406.7,"hacin":1.3,"hacin_class":"Hacinamiento Leve","hacin_score":787.2,"auto_score":0.0,"n_per":39,"n_hog":14,"source_year":2024,"crime_score":0.9982,"crime_nivel":"Muy Alto","crime_color":"#d32f2f"},"geometry":{"type":"Polygon","coordinates":[[[-71.8168983679999,-36.2823129100996],[-71.8177718659999,-36.2821123170996],[-71.8175799329999,-36.2815782390996],[-71.8167074349999,-36.2818064980996],[-71.8168983679999,-36.2823129100996]]]}},{"type":"Feature","properties":{"id":"16303011001027","commune":"Ñiquén","code":"16303","gse":"E","quintil":"Q1","nse_score":569.7,"educ":8.9,"educ_score":393.3,"hacin":0.818,"hacin_class":"Sin Hacinamiento","hacin_score":889.7,"auto_score":0.0,"n_per":18,"n_hog":9,"source_year":2024,"crime_score":0.9738,"crime_nivel":"Muy Alto","crime_color":"#d32f2f"},"geometry":{"type":"Polygon","coordinates":[[[-71.8166451429999,-36.2818813500996],[-71.8153666519999,-36.2821856290996],[-71.8157731419999,-36.2831701850996],[-71.8170358719999,-36.2828551970996],[-71.8166451429999,-36.2818813500996]]]}},{"type":"Feature","properties":{"id":"16303011001030","commune":"Ñiquén","code":"16303","gse":"D","quintil":"Q1","nse_score":625.7,"educ":10.3,"educ_score":486.7,"hacin":1.095,"hacin_class":"Hacinamiento Leve","hacin_score":830.8,"auto_score":0.0,"n_per":23,"n_hog":10,"source_year":2024,"crime_score":0.9479,"crime_nivel":"Muy Alto","crime_color":"#d32f2f"},"geometry":{"type":"Polygon","coordinates":[[[-71.8139272589999,-36.2825750620996],[-71.8126566209999,-36.2829053140996],[-71.8131257829999,-36.2839221140996],[-71.8143439859999,-36.2835779760996],[-71.8139272589999,-36.2825750620996]]]}},{"type":"Feature","properties":{"id":"16303011001031","commune":"Ñiquén","code":"16303","gse":"C3","quintil":"Q2","nse_score":670.4,"educ":11.9,"educ_score":593.3,"hacin":1.107,"hacin_class":"Hacinamiento Leve","hacin_score":828.3,"auto_score":76.9,"n_per":31,"n_hog":12,"source_year":2024,"crime_score":0.929,"crime_nivel":"Muy Alto","crime_color":"#d32f2f"},"geometry":{"type":"Polygon","coordinates":[[[-71.8175503289999,-36.2837552660996],[-71.8185837179999,-36.2834313320996],[-71.8181932139999,-36.2826000480996],[-71.8171708419999,-36.2828981610996],[-71.8175503289999,-36.2837552660996]]]}},{"type":"Feature","properties":{"id":"16303011001032","commune":"Ñiquén","code":"16303","gse":"E","quintil":"Q1","nse_score":595.5,"educ":10.2,"educ_score":480.0,"hacin":1.615,"hacin_class":"Hacinamiento Medio","hacin_score":720.1,"auto_score":62.5,"n_per":21,"n_hog":7,"source_year":2024,"crime_score":0.9622,"crime_nivel":"Muy Alto","crime_color":"#d32f2f"},"geometry":{"type":"Polygon","coordinates":[[[-71.8117103859999,-36.2844145630996],[-71.8130641539999,-36.2839400810996],[-71.812591988,-36.2829164350996],[-71.8111785859999,-36.2833424540995],[-71.8114571759999,-36.2838919470995],[-71.8123340219999,-36.2836098770996],[-71.8114730409999,-36.2839232300995],[-71.8117103859999,-36.2844145630996]]]}},{"type":"Feature","properties":{"id":"16303011001034","commune":"Ñiquén","code":"16303","gse":"E","quintil":"Q1","nse_score":591.6,"educ":10.0,"educ_score":466.7,"hacin":1.391,"hacin_class":"Hacinamiento Leve","hacin_score":767.9,"auto_score":81.8,"n_per":153,"n_hog":50,"source_year":2024,"crime_score":1.0,"crime_nivel":"Muy Alto","crime_color":"#d32f2f"},"geometry":{"type":"Polygon","coordinates":[[[-71.8132409289999,-36.2852661200996],[-71.813341637,-36.2858351320995],[-71.8125304289999,-36.2861575370996],[-71.8127457539999,-36.2865633640995],[-71.813557838,-36.2863439470995],[-71.8118927559999,-36.2868625760995],[-71.8124252029999,-36.2866508920995],[-71.8122287739999,-36.2862181500996],[-71.8118105909999,-36.2863460260996],[-71.8122040459999,-36.2861672050995],[-71.8119916089999,-36.2857295430996],[-71.8111221299999,-36.2858755590995],[-71.8094034779999,-36.2839863450996],[-71.8074986999999,-36.2845629530995],[-71.8087144559999,-36.2859025090995],[-71.8077009709999,-36.2862473680995],[-71.8077057659999,-36.2863614510995],[-71.8064225589999,-36.2849985110995],[-71.8061581109999,-36.2850773370996],[-71.8076045079999,-36.2865727070996],[-71.8091804939999,-36.2859449780995],[-71.8082595159999,-36.2850087040996],[-71.8095276579999,-36.2845452520996],[-71.812003263,-36.2871501420995],[-71.8137799279999,-36.2865469390996],[-71.8141862299999,-36.2872494580996],[-71.8148322009999,-36.2869198410995],[-71.8154422239999,-36.2881958030995],[-71.8163493159999,-36.2877933790995],[-71.816107573,-36.2872764960995],[-71.8159635579999,-36.2863713180996],[-71.8149090799999,-36.2868697810995],[-71.8159626079999,-36.2863142870995],[-71.8159209879999,-36.2857267290995],[-71.8151507039999,-36.2859973370995],[-71.8150948299999,-36.2859745840995],[-71.8149811879999,-36.2857816680995],[-71.8151742359999,-36.2859780620995],[-71.8159287399999,-36.2856785800996],[-71.8159383759999,-36.2850890960995],[-71.8162252229999,-36.2843085440996],[-71.8157557489999,-36.2832864030996],[-71.8144912939999,-36.2836254330996],[-71.8148838449999,-36.2847113430995],[-71.8132409289999,-36.2852661200996]]]}},{"type":"Feature","properties":{"id":"16303011001036","commune":"Ñiquén","code":"16303","gse":"C2","quintil":"Q4","nse_score":744.4,"educ":13.2,"educ_score":680.0,"hacin":1.125,"hacin_class":"Hacinamiento Leve","hacin_score":824.5,"auto_score":0.0,"n_per":9,"n_hog":4,"source_year":2024,"crime_score":0.8818,"crime_nivel":"Muy Alto","crime_color":"#d32f2f"},"geometry":{"type":"Polygon","coordinates":[[[-71.807000522,-36.2837768340995],[-71.8076774239999,-36.2844152500996],[-71.8090856059999,-36.2840035280995],[-71.8086171929999,-36.2834742390996],[-71.807000522,-36.2837768340995]]]}},{"type":"Feature","properties":{"id":"16303011001039","commune":"Ñiquén","code":"16303","gse":"E","quintil":"Q1","nse_score":525.8,"educ":6.4,"educ_score":226.7,"hacin":1.708,"hacin_class":"Hacinamiento Medio","hacin_score":700.4,"auto_score":83.3,"n_per":41,"n_hog":12,"source_year":2024,"crime_score":1.0,"crime_nivel":"Muy Alto","crime_color":"#d32f2f"},"geometry":{"type":"Polygon","coordinates":[[[-71.8136430299999,-36.2850592310995],[-71.8148111519999,-36.2846951420995],[-71.8143978979999,-36.2836515640996],[-71.8131606139999,-36.2840128460996],[-71.8136430299999,-36.2850592310995]]]}},{"type":"Feature","properties":{"id":"16303011001043","commune":"Ñiquén","code":"16303","gse":"E","quintil":"Q1","nse_score":575.8,"educ":7.3,"educ_score":286.7,"hacin":1.317,"hacin_class":"Hacinamiento Leve","hacin_score":783.6,"auto_score":0.0,"n_per":54,"n_hog":23,"source_year":2024,"crime_score":0.9881,"crime_nivel":"Muy Alto","crime_color":"#d32f2f"},"geometry":{"type":"Polygon","coordinates":[[[-71.8132337299999,-36.2851848390996],[-71.8135534669999,-36.2850658250996],[-71.8130641829999,-36.2840236700996],[-71.8127402989999,-36.2841420590995],[-71.8132337299999,-36.2851848390996]]]}},{"type":"Feature","properties":{"id":"16303011001044","commune":"Ñiquén","code":"16303","gse":"D","quintil":"Q1","nse_score":610.7,"educ":11.3,"educ_score":553.3,"hacin":1.25,"hacin_class":"Hacinamiento Leve","hacin_score":797.9,"auto_score":50.0,"n_per":20,"n_hog":7,"source_year":2024,"crime_score":0.9541,"crime_nivel":"Muy Alto","crime_color":"#d32f2f"},"geometry":{"type":"Polygon","coordinates":[[[-71.8131647409999,-36.2851630970996],[-71.8126943369999,-36.2841470070996],[-71.8117315699999,-36.2844709400996],[-71.8119675879999,-36.2850071430995],[-71.8126066969999,-36.2848188020996],[-71.8119867499999,-36.2850486590996],[-71.8122189809999,-36.2855448910995],[-71.8131647409999,-36.2851630970996]]]}},{"type":"Feature","properties":{"id":"16303011001045","commune":"Ñiquén","code":"16303","gse":"D","quintil":"Q1","nse_score":614.1,"educ":10.2,"educ_score":480.0,"hacin":1.207,"hacin_class":"Hacinamiento Leve","hacin_score":807.0,"auto_score":66.7,"n_per":35,"n_hog":15,"source_year":2024,"crime_score":0.9595,"crime_nivel":"Muy Alto","crime_color":"#d32f2f"},"geometry":{"type":"Polygon","coordinates":[[[-71.8160112279999,-36.2850076270995],[-71.8160228679999,-36.2865758710996],[-71.816556724,-36.2865268940996],[-71.8165150099999,-36.2856280750995],[-71.8161251319999,-36.2857173230995],[-71.8165310029999,-36.2855671980996],[-71.8170245349999,-36.2857894580996],[-71.8179254849999,-36.2850304130996],[-71.816359712,-36.2843214630995],[-71.8160112279999,-36.2850076270995]]]}},{"type":"Feature","properties":{"id":"16303011001047","commune":"Ñiquén","code":"16303","gse":"D","quintil":"Q2","nse_score":639.4,"educ":10.3,"educ_score":486.7,"hacin":1.167,"hacin_class":"Hacinamiento Leve","hacin_score":815.6,"auto_score":200.0,"n_per":14,"n_hog":5,"source_year":2024,"crime_score":0.9368,"crime_nivel":"Muy Alto","crime_color":"#d32f2f"},"geometry":{"type":"Polygon","coordinates":[[[-71.8103985949999,-36.2849846260995],[-71.8107833439999,-36.2854121300996],[-71.8117042839999,-36.2851186350996],[-71.8114322189999,-36.2845486630996],[-71.8103985949999,-36.2849846260995]]]}},{"type":"Feature","properties":{"id":"16303011001048","commune":"Ñiquén","code":"16303","gse":"C3","quintil":"Q3","nse_score":689.1,"educ":11.2,"educ_score":546.7,"hacin":1.333,"hacin_class":"Hacinamiento Leve","hacin_score":780.1,"auto_score":136.4,"n_per":24,"n_hog":11,"source_year":2024,"crime_score":0.9163,"crime_nivel":"Muy Alto","crime_color":"#d32f2f"},"geometry":{"type":"Polygon","coordinates":[[[-71.8069838459999,-36.2847530030996],[-71.8081331599999,-36.2860040860995],[-71.8085870219999,-36.2858479650996],[-71.8074261029999,-36.2846019270996],[-71.8069838459999,-36.2847530030996]]]}},{"type":"Feature","properties":{"id":"16303011001049","commune":"Ñiquén","code":"16303","gse":"E","quintil":"Q1","nse_score":540.0,"educ":8.7,"educ_score":380.0,"hacin":1.429,"hacin_class":"Hacinamiento Leve","hacin_score":759.9,"auto_score":100.0,"n_per":20,"n_hog":8,"source_year":2024,"crime_score":0.9898,"crime_nivel":"Muy Alto","crime_color":"#d32f2f"},"geometry":{"type":"Polygon","coordinates":[[[-71.8080872709999,-36.2860385480996],[-71.8069179559999,-36.2848046250996],[-71.806480727,-36.2849317350996],[-71.8076444089999,-36.2861729490995],[-71.8080872709999,-36.2860385480996]]]}},{"type":"Feature","properties":{"id":"16303011001050","commune":"Ñiquén","code":"16303","gse":"C1","quintil":"Q5","nse_score":776.7,"educ":13.1,"educ_score":673.3,"hacin":1.125,"hacin_class":"Hacinamiento Leve","hacin_score":824.5,"auto_score":400.0,"n_per":9,"n_hog":5,"source_year":2024,"crime_score":0.8655,"crime_nivel":"Muy Alto","crime_color":"#d32f2f"},"geometry":{"type":"Polygon","coordinates":[[[-71.8170635379999,-36.2858086020995],[-71.8179673299999,-36.2862522120996],[-71.8188770089999,-36.2854791780996],[-71.8179653439999,-36.2850488360995],[-71.8170635379999,-36.2858086020995]]]}},{"type":"Feature","properties":{"id":"16303011001052","commune":"Ñiquén","code":"16303","gse":"C2","quintil":"Q3","nse_score":705.4,"educ":12.1,"educ_score":606.7,"hacin":1.471,"hacin_class":"Hacinamiento Leve","hacin_score":750.9,"auto_score":500.0,"n_per":25,"n_hog":8,"source_year":2024,"crime_score":0.9085,"crime_nivel":"Muy Alto","crime_color":"#d32f2f"},"geometry":{"type":"Polygon","coordinates":[[[-71.8055205619999,-36.2853078960996],[-71.8063292429999,-36.2868589520995],[-71.8075373959999,-36.2865994380995],[-71.8060901119999,-36.2851104000996],[-71.8055205619999,-36.2853078960996]]]}},{"type":"Feature","properties":{"id":"16303011001037","commune":"Ñiquén","code":"16303","gse":"E","quintil":"Q1","nse_score":568.5,"educ":9.7,"educ_score":446.7,"hacin":1.4,"hacin_class":"Hacinamiento Leve","hacin_score":766.0,"auto_score":100.0,"n_per":7,"n_hog":4,"source_year":2024,"crime_score":0.9691,"crime_nivel":"Muy Alto","crime_color":"#d32f2f"},"geometry":{"type":"MultiPolygon","coordinates":[[[[-71.8098912579999,-36.2844367770996],[-71.8103179709999,-36.2848975650995],[-71.8114161689999,-36.2845150390995],[-71.8111794869999,-36.2840118100995],[-71.8098912579999,-36.2844367770996]]],[[[-71.8094671669999,-36.2839788130995],[-71.8098705269999,-36.2844143900996],[-71.8111610139999,-36.2839872330996],[-71.8109187319999,-36.2834749290996],[-71.8094671669999,-36.2839788130995]]]]}},{"type":"Feature","properties":{"id":"16303011001038","commune":"Ñiquén","code":"16303","gse":"C2","quintil":"Q4","nse_score":716.4,"educ":13.2,"educ_score":680.0,"hacin":1.562,"hacin_class":"Hacinamiento Medio","hacin_score":731.4,"auto_score":312.5,"n_per":25,"n_hog":8,"source_year":2024,"crime_score":0.9029,"crime_nivel":"Muy Alto","crime_color":"#d32f2f"},"geometry":{"type":"Polygon","coordinates":[[[-71.8067098539999,-36.2835539540996],[-71.8052021669999,-36.2841062310996],[-71.8061427839999,-36.2849923440995],[-71.8064614809999,-36.2848714820995],[-71.8056610339999,-36.2839791050996],[-71.806502055,-36.2848560960996],[-71.8072271169999,-36.2845811240996],[-71.8065824189999,-36.2839637370996],[-71.807269415,-36.2845650830996],[-71.8076324159999,-36.2844281190996],[-71.8067098539999,-36.2835539540996]]]}},{"type":"Feature","properties":{"id":"16303011001028","commune":"Ñiquén","code":"16303","gse":"C3","quintil":"Q3","nse_score":698.6,"educ":13.6,"educ_score":706.7,"hacin":0.833,"hacin_class":"Sin Hacinamiento","hacin_score":886.5,"auto_score":62.5,"n_per":10,"n_hog":7,"source_year":2024,"crime_score":0.9052,"crime_nivel":"Muy Alto","crime_color":"#d32f2f"},"geometry":{"type":"MultiPolygon","coordinates":[[[[-71.8164805429999,-36.2843031830996],[-71.8175245549999,-36.2839729220995],[-71.8170824299999,-36.2829269720996],[-71.8158219709999,-36.2832490050996],[-71.8161721569999,-36.2841260370996],[-71.8164805429999,-36.2843031830996]]],[[[-71.8171665939999,-36.2828285760996],[-71.8179864799999,-36.2826112460996],[-71.8178053259999,-36.2821392200996],[-71.8169315619999,-36.2823799720996],[-71.8171665939999,-36.2828285760996]]]]}}]}