{"type":"FeatureCollection","features":[{"type":"Feature","properties":{"id":"11302043054001","commune":"O'Higgins","code":"11302","gse":"C3","quintil":"Q3","nse_score":694.3,"educ":13.0,"educ_score":666.7,"hacin":1.435,"hacin_class":"Hacinamiento Leve","hacin_score":758.6,"auto_score":153.8,"n_per":33,"n_hog":13,"source_year":2024,"crime_score":0.6388,"crime_nivel":"Muy Bajo","crime_color":"#4caf50"},"geometry":{"type":"Polygon","coordinates":[[[-72.5584414639999,-48.4623656210638],[-72.5582289109999,-48.4627468800638],[-72.559333696,-48.4629672440638],[-72.5591889139999,-48.4625652040638],[-72.5589462219999,-48.4623980770638],[-72.5592371289999,-48.4625485350638],[-72.5593963739999,-48.4629797140637],[-72.5604942289999,-48.4632694560637],[-72.560854419,-48.4631955580638],[-72.5606783629999,-48.4620281630638],[-72.5608645409999,-48.4604546240638],[-72.5604896239999,-48.4604301840638],[-72.5600855299999,-48.4610304900637],[-72.559572494,-48.4612889700638],[-72.5584414639999,-48.4623656210638]]]}},{"type":"Feature","properties":{"id":"11302043054002","commune":"O'Higgins","code":"11302","gse":"D","quintil":"Q2","nse_score":656.5,"educ":11.4,"educ_score":560.0,"hacin":1.357,"hacin_class":"Hacinamiento Leve","hacin_score":775.1,"auto_score":200.0,"n_per":19,"n_hog":10,"source_year":2024,"crime_score":0.6477,"crime_nivel":"Muy Bajo","crime_color":"#4caf50"},"geometry":{"type":"Polygon","coordinates":[[[-72.5608067539999,-48.4623175720638],[-72.5609113249999,-48.4629239050637],[-72.5618922989999,-48.4629961970638],[-72.5621336319999,-48.4628829220638],[-72.5619046619999,-48.4630330030638],[-72.5609183679999,-48.4629605990637],[-72.5609788659999,-48.4632052540638],[-72.5624371509999,-48.4633403790638],[-72.5625187089999,-48.4632109920637],[-72.5622993119999,-48.4641470250638],[-72.5624248359999,-48.4633937180638],[-72.5609771379999,-48.4632667780638],[-72.5613827909999,-48.4654710400638],[-72.5624823949999,-48.4656002560638],[-72.5636495999999,-48.4616089330637],[-72.5629901979999,-48.4615305110637],[-72.5627300349999,-48.4623740830638],[-72.5629374929999,-48.4615242430638],[-72.5608514049999,-48.4612959890638],[-72.5608067539999,-48.4623175720638]]]}},{"type":"Feature","properties":{"id":"11302043054005","commune":"O'Higgins","code":"11302","gse":"D","quintil":"Q2","nse_score":648.4,"educ":11.1,"educ_score":540.0,"hacin":1.471,"hacin_class":"Hacinamiento Leve","hacin_score":750.9,"auto_score":250.0,"n_per":50,"n_hog":14,"source_year":2024,"crime_score":0.6605,"crime_nivel":"Muy Bajo","crime_color":"#4caf50"},"geometry":{"type":"Polygon","coordinates":[[[-72.5594939169999,-48.4653244040638],[-72.5604782519999,-48.4654519070638],[-72.5603378369999,-48.4662261190638],[-72.5614056939999,-48.4663128460638],[-72.5608674509999,-48.4632634490638],[-72.5604665949999,-48.4633494800637],[-72.55983563,-48.4640573440637],[-72.5594939169999,-48.4653244040638]]]}},{"type":"Feature","properties":{"id":"11302043054006","commune":"O'Higgins","code":"11302","gse":"D","quintil":"Q2","nse_score":646.1,"educ":11.4,"educ_score":560.0,"hacin":1.235,"hacin_class":"Hacinamiento Leve","hacin_score":801.0,"auto_score":0.0,"n_per":21,"n_hog":10,"source_year":2024,"crime_score":0.652,"crime_nivel":"Muy Bajo","crime_color":"#4caf50"},"geometry":{"type":"Polygon","coordinates":[[[-72.5578047779999,-48.4647296800638],[-72.5571899949999,-48.4658796220638],[-72.5581358929999,-48.4659690800638],[-72.5583104749999,-48.4653093060638],[-72.5581162099999,-48.4652705740638],[-72.5582551809999,-48.4652220810638],[-72.5584771239999,-48.4641550980638],[-72.5582258879999,-48.4641161580637],[-72.5581498099999,-48.4643562580638],[-72.5577539639999,-48.4645615560638],[-72.5578047779999,-48.4647296800638]]]}},{"type":"Feature","properties":{"id":"11302043054007","commune":"O'Higgins","code":"11302","gse":"C3","quintil":"Q2","nse_score":668.1,"educ":12.2,"educ_score":613.3,"hacin":1.286,"hacin_class":"Hacinamiento Leve","hacin_score":790.3,"auto_score":214.3,"n_per":18,"n_hog":6,"source_year":2024,"crime_score":0.6433,"crime_nivel":"Muy Bajo","crime_color":"#4caf50"},"geometry":{"type":"Polygon","coordinates":[[[-72.5590541649999,-48.4642250910638],[-72.5585573379999,-48.4641632130638],[-72.5584390869999,-48.4647831770638],[-72.5589186949999,-48.4648266530638],[-72.5590541649999,-48.4642250910638]]]}},{"type":"Feature","properties":{"id":"11302043054008","commune":"O'Higgins","code":"11302","gse":"C2","quintil":"Q3","nse_score":707.3,"educ":13.0,"educ_score":666.7,"hacin":1.231,"hacin_class":"Hacinamiento Leve","hacin_score":802.0,"auto_score":125.0,"n_per":16,"n_hog":8,"source_year":2024,"crime_score":0.6289,"crime_nivel":"Muy Bajo","crime_color":"#4caf50"},"geometry":{"type":"Polygon","coordinates":[[[-72.5594898889999,-48.4648983560638],[-72.5596523599999,-48.4642904410638],[-72.5591077309999,-48.4642300880638],[-72.5589731709999,-48.4648276090638],[-72.5594898889999,-48.4648983560638]]]}},{"type":"Feature","properties":{"id":"11302043054009","commune":"O'Higgins","code":"11302","gse":"D","quintil":"Q1","nse_score":639.9,"educ":12.3,"educ_score":620.0,"hacin":1.471,"hacin_class":"Hacinamiento Leve","hacin_score":750.9,"auto_score":250.0,"n_per":25,"n_hog":10,"source_year":2024,"crime_score":0.6555,"crime_nivel":"Muy Bajo","crime_color":"#4caf50"},"geometry":{"type":"Polygon","coordinates":[[[-72.5594933499999,-48.4649689760638],[-72.5584294879999,-48.4648368100638],[-72.5583361949999,-48.4652262940638],[-72.5593831509999,-48.4653546450638],[-72.5594933499999,-48.4649689760638]]]}},{"type":"Feature","properties":{"id":"11302043054010","commune":"O'Higgins","code":"11302","gse":"C3","quintil":"Q3","nse_score":688.9,"educ":12.1,"educ_score":606.7,"hacin":1.143,"hacin_class":"Hacinamiento Leve","hacin_score":820.7,"auto_score":250.0,"n_per":16,"n_hog":8,"source_year":2024,"crime_score":0.6354,"crime_nivel":"Muy Bajo","crime_color":"#4caf50"},"geometry":{"type":"Polygon","coordinates":[[[-72.5593891479999,-48.4654282250638],[-72.5584097819999,-48.4653027470638],[-72.5582909729999,-48.4656943360638],[-72.5592736149999,-48.4658072190638],[-72.5593891479999,-48.4654282250638]]]}},{"type":"Feature","properties":{"id":"11302043054011","commune":"O'Higgins","code":"11302","gse":"D","quintil":"Q1","nse_score":642.0,"educ":10.3,"educ_score":486.7,"hacin":1.125,"hacin_class":"Hacinamiento Leve","hacin_score":824.5,"auto_score":125.0,"n_per":18,"n_hog":8,"source_year":2024,"crime_score":0.6525,"crime_nivel":"Muy Bajo","crime_color":"#4caf50"},"geometry":{"type":"Polygon","coordinates":[[[-72.5594098489999,-48.4657076200638],[-72.5603695879999,-48.4658055220638],[-72.5604394989999,-48.4655122990638],[-72.5594841559999,-48.4653688990638],[-72.5594098489999,-48.4657076200638]]]}},{"type":"Feature","properties":{"id":"11302043054015","commune":"O'Higgins","code":"11302","gse":"C3","quintil":"Q2","nse_score":666.4,"educ":11.6,"educ_score":573.3,"hacin":1.286,"hacin_class":"Hacinamiento Leve","hacin_score":790.3,"auto_score":62.5,"n_per":36,"n_hog":16,"source_year":2024,"crime_score":0.6496,"crime_nivel":"Muy Bajo","crime_color":"#4caf50"},"geometry":{"type":"Polygon","coordinates":[[[-72.555777298,-48.4702528050638],[-72.5587509559999,-48.4709391530638],[-72.560723187,-48.4711810380638],[-72.5607967179999,-48.4709069880638],[-72.5596263179999,-48.4708097290638],[-72.5593822099999,-48.4706429890638],[-72.5596439899999,-48.4707750010638],[-72.5608062199999,-48.4708715760638],[-72.5609876489999,-48.4702148120638],[-72.5568841619999,-48.4697390850638],[-72.5564570709999,-48.4695340420638],[-72.5562985269999,-48.4688474920638],[-72.5569514569999,-48.4685763080638],[-72.5576350239999,-48.4659754930638],[-72.5571822379999,-48.4658968480638],[-72.5563720279999,-48.4683746980638],[-72.5561548679999,-48.4685601100638],[-72.5558602689999,-48.4685834010638],[-72.5559948069999,-48.4693806390638],[-72.555777298,-48.4702528050638]]]}},{"type":"Feature","properties":{"id":"11302043054016","commune":"O'Higgins","code":"11302","gse":"D","quintil":"Q1","nse_score":624.4,"educ":10.3,"educ_score":486.7,"hacin":1.714,"hacin_class":"Hacinamiento Medio","hacin_score":699.1,"auto_score":300.0,"n_per":12,"n_hog":5,"source_year":2024,"crime_score":0.6567,"crime_nivel":"Muy Bajo","crime_color":"#4caf50"},"geometry":{"type":"Polygon","coordinates":[[[-72.5577139849999,-48.4660028300638],[-72.5575595489999,-48.4664979590638],[-72.5581876539999,-48.4665700450638],[-72.5583270639999,-48.4660685040638],[-72.5577139849999,-48.4660028300638]]]}},{"type":"Feature","properties":{"id":"11302043054019","commune":"O'Higgins","code":"11302","gse":"C1","quintil":"Q5","nse_score":763.7,"educ":12.8,"educ_score":653.3,"hacin":0.933,"hacin_class":"Sin Hacinamiento","hacin_score":865.2,"auto_score":71.4,"n_per":14,"n_hog":7,"source_year":2024,"crime_score":0.6085,"crime_nivel":"Muy Bajo","crime_color":"#4caf50"},"geometry":{"type":"Polygon","coordinates":[[[-72.5609250969999,-48.4663676530638],[-72.5604650729999,-48.4663042770638],[-72.5602216149999,-48.4672956970638],[-72.5606941019999,-48.4673373790638],[-72.5609250969999,-48.4663676530638]]]}},{"type":"Feature","properties":{"id":"11302043054020","commune":"O'Higgins","code":"11302","gse":"C2","quintil":"Q4","nse_score":711.8,"educ":12.4,"educ_score":626.7,"hacin":0.909,"hacin_class":"Sin Hacinamiento","hacin_score":870.4,"auto_score":0.0,"n_per":10,"n_hog":6,"source_year":2024,"crime_score":0.6255,"crime_nivel":"Muy Bajo","crime_color":"#4caf50"},"geometry":{"type":"Polygon","coordinates":[[[-72.5607751319999,-48.4673420800638],[-72.5612368399999,-48.4673938640638],[-72.5614322999999,-48.4664047230638],[-72.561008495,-48.4663623990638],[-72.5607751319999,-48.4673420800638]]]}},{"type":"Feature","properties":{"id":"11302043054021","commune":"O'Higgins","code":"11302","gse":"C3","quintil":"Q2","nse_score":668.0,"educ":12.5,"educ_score":633.3,"hacin":1.636,"hacin_class":"Hacinamiento Medio","hacin_score":715.7,"auto_score":333.3,"n_per":18,"n_hog":6,"source_year":2024,"crime_score":0.6433,"crime_nivel":"Muy Bajo","crime_color":"#4caf50"},"geometry":{"type":"Polygon","coordinates":[[[-72.5581750539999,-48.4666233540638],[-72.5575298369999,-48.4665608960637],[-72.5573073879999,-48.4675991850638],[-72.5579395839999,-48.4676601310638],[-72.5581750539999,-48.4666233540638]]]}},{"type":"Feature","properties":{"id":"11302043054022","commune":"O'Higgins","code":"11302","gse":"D","quintil":"Q2","nse_score":646.6,"educ":10.3,"educ_score":486.7,"hacin":1.25,"hacin_class":"Hacinamiento Leve","hacin_score":797.9,"auto_score":125.0,"n_per":15,"n_hog":8,"source_year":2024,"crime_score":0.6499,"crime_nivel":"Muy Bajo","crime_color":"#4caf50"},"geometry":{"type":"Polygon","coordinates":[[[-72.5589796779999,-48.4667157000638],[-72.5582694119999,-48.4666429380638],[-72.5580308109999,-48.4676783450638],[-72.5587365289999,-48.4677436310638],[-72.5589796779999,-48.4667157000638]]]}},{"type":"Feature","properties":{"id":"11302043054024","commune":"O'Higgins","code":"11302","gse":"C2","quintil":"Q4","nse_score":724.4,"educ":14.2,"educ_score":746.7,"hacin":1.464,"hacin_class":"Hacinamiento Leve","hacin_score":752.3,"auto_score":136.4,"n_per":41,"n_hog":22,"source_year":2024,"crime_score":0.6306,"crime_nivel":"Muy Bajo","crime_color":"#4caf50"},"geometry":{"type":"Polygon","coordinates":[[[-72.5602145989999,-48.4668574300638],[-72.5590718049999,-48.4667395690638],[-72.5587643449999,-48.4679543980638],[-72.5599208449999,-48.4680764720638],[-72.5602145989999,-48.4668574300638]]]}},{"type":"Feature","properties":{"id":"11302043054026","commune":"O'Higgins","code":"11302","gse":"C3","quintil":"Q3","nse_score":687.3,"educ":11.8,"educ_score":586.7,"hacin":1.267,"hacin_class":"Hacinamiento Leve","hacin_score":794.3,"auto_score":214.3,"n_per":19,"n_hog":7,"source_year":2024,"crime_score":0.6369,"crime_nivel":"Muy Bajo","crime_color":"#4caf50"},"geometry":{"type":"Polygon","coordinates":[[[-72.5570522379999,-48.4686403180638],[-72.55846643,-48.4687879020638],[-72.5587211989999,-48.4678029010638],[-72.5573013719999,-48.4676349820638],[-72.5570522379999,-48.4686403180638]]]}},{"type":"Feature","properties":{"id":"11302043054029","commune":"O'Higgins","code":"11302","gse":"D","quintil":"Q1","nse_score":622.4,"educ":10.0,"educ_score":466.7,"hacin":1.308,"hacin_class":"Hacinamiento Leve","hacin_score":785.6,"auto_score":45.5,"n_per":17,"n_hog":11,"source_year":2024,"crime_score":0.659,"crime_nivel":"Muy Bajo","crime_color":"#4caf50"},"geometry":{"type":"Polygon","coordinates":[[[-72.5571403359999,-48.4697146000638],[-72.5582319439999,-48.4698363760638],[-72.5584469439999,-48.4688689860638],[-72.5569742029999,-48.4686861610638],[-72.556411163,-48.4688169870637],[-72.5563820899999,-48.4692040080638],[-72.5565281599999,-48.4695079320638],[-72.5571403359999,-48.4697146000638]]]}},{"type":"Feature","properties":{"id":"11302043054030","commune":"O'Higgins","code":"11302","gse":"C3","quintil":"Q2","nse_score":667.1,"educ":9.7,"educ_score":446.7,"hacin":0.929,"hacin_class":"Sin Hacinamiento","hacin_score":866.3,"auto_score":0.0,"n_per":13,"n_hog":7,"source_year":2024,"crime_score":0.6421,"crime_nivel":"Muy Bajo","crime_color":"#4caf50"},"geometry":{"type":"Polygon","coordinates":[[[-72.5596911809999,-48.4690273970638],[-72.5585264039999,-48.4688805060638],[-72.5583133209999,-48.4698392800638],[-72.5594319509999,-48.4699758330638],[-72.5596911809999,-48.4690273970638]]]}},{"type":"Feature","properties":{"id":"11302043054031","commune":"O'Higgins","code":"11302","gse":"C2","quintil":"Q4","nse_score":752.5,"educ":12.6,"educ_score":640.0,"hacin":1.25,"hacin_class":"Hacinamiento Leve","hacin_score":797.9,"auto_score":142.9,"n_per":15,"n_hog":7,"source_year":2024,"crime_score":0.6127,"crime_nivel":"Muy Bajo","crime_color":"#4caf50"},"geometry":{"type":"Polygon","coordinates":[[[-72.5612345439999,-48.4691682700638],[-72.5597699349999,-48.4690409670638],[-72.5595133509999,-48.4699797490638],[-72.5609903539999,-48.4701506760638],[-72.5612345439999,-48.4691682700638]]]}},{"type":"Feature","properties":{"id":"11302043054025","commune":"O'Higgins","code":"11302","gse":"ABC1","quintil":"Q5","nse_score":860.3,"educ":15.1,"educ_score":806.7,"hacin":1.278,"hacin_class":"Hacinamiento Leve","hacin_score":792.0,"auto_score":62.5,"n_per":23,"n_hog":8,"source_year":2024,"crime_score":0.5772,"crime_nivel":"Muy Bajo","crime_color":"#4caf50"},"geometry":{"type":"MultiPolygon","coordinates":[[[[-72.5598340849999,-48.4689637590638],[-72.5612521599999,-48.4691155040638],[-72.5615240269999,-48.4681218460638],[-72.5600414169999,-48.4679454840638],[-72.5598340849999,-48.4689637590638]]],[[[-72.5600610429999,-48.4678731590638],[-72.5615203369999,-48.4680522830638],[-72.5616172909999,-48.4675235130638],[-72.5602057119999,-48.4673486320638],[-72.5600610429999,-48.4678731590638]]]]}},{"type":"Feature","properties":{"id":"11302043054017","commune":"O'Higgins","code":"11302","gse":"D","quintil":"Q1","nse_score":629.4,"educ":9.3,"educ_score":420.0,"hacin":1.167,"hacin_class":"Hacinamiento Leve","hacin_score":815.6,"auto_score":0.0,"n_per":14,"n_hog":6,"source_year":2024,"crime_score":0.6556,"crime_nivel":"Muy Bajo","crime_color":"#4caf50"},"geometry":{"type":"MultiPolygon","coordinates":[[[[-72.5591009209999,-48.4666748590638],[-72.5602516999999,-48.4668014520638],[-72.5603845069999,-48.4662974230638],[-72.5592559179999,-48.4661671620638],[-72.5591009209999,-48.4666748590638]]],[[[-72.5583074669999,-48.4665837960638],[-72.5590115249999,-48.4666517790638],[-72.5591583189999,-48.4661631240638],[-72.5584085649999,-48.4660713430638],[-72.5583074669999,-48.4665837960638]]]]}},{"type":"Feature","properties":{"id":"11302043054003","commune":"O'Higgins","code":"11302","gse":"C3","quintil":"Q3","nse_score":700.7,"educ":13.4,"educ_score":693.3,"hacin":1.5,"hacin_class":"Hacinamiento Medio","hacin_score":744.7,"auto_score":166.7,"n_per":18,"n_hog":9,"source_year":2024,"crime_score":0.6318,"crime_nivel":"Muy Bajo","crime_color":"#4caf50"},"geometry":{"type":"MultiPolygon","coordinates":[[[[-72.5589194879999,-48.4636231980638],[-72.5593791919999,-48.4636159170637],[-72.5597363389999,-48.4630840180638],[-72.5592247809999,-48.4629831040638],[-72.5589194879999,-48.4636231980638]]],[[[-72.5582144999999,-48.4627727290638],[-72.5575837129999,-48.4639982600638],[-72.5577416249999,-48.4645207340638],[-72.5581045939999,-48.4643322570638],[-72.5582429789999,-48.4640633540638],[-72.5596787899999,-48.4642094120638],[-72.5604423629999,-48.4632811050638],[-72.5597883539999,-48.4630940450638],[-72.5594155039999,-48.4636427810637],[-72.5588506299999,-48.4636486520638],[-72.5591756039999,-48.4629672940638],[-72.5582144999999,-48.4627727290638]]]]}}]}