{"type":"FeatureCollection","features":[{"type":"Feature","properties":{"id":"4105013052004","commune":"Paihuano","code":"04105","gse":"D","quintil":"Q2","nse_score":633.4,"educ":12.4,"educ_score":626.7,"hacin":1.268,"hacin_class":"Hacinamiento Leve","hacin_score":794.1,"auto_score":194.4,"n_per":90,"n_hog":32,"source_year":2024},"geometry":{"type":"Polygon","coordinates":[[[-70.5194939129999,-30.0269637301819],[-70.5187351469999,-30.0267729901819],[-70.5185307189999,-30.0273075371819],[-70.5200013989999,-30.0277530921819],[-70.5184949539999,-30.0273577381819],[-70.5186683829999,-30.026726283182],[-70.5174071089999,-30.0263457731819],[-70.5168048189999,-30.0275610771819],[-70.5162722769999,-30.0291824281819],[-70.5175484749999,-30.0294319161819],[-70.5177311459999,-30.0291265351819],[-70.5175612929999,-30.0294814961819],[-70.5172590629999,-30.0294339061819],[-70.5179365649999,-30.0296065581819],[-70.5181991339999,-30.0289086791819],[-70.5179763059999,-30.0296166861819],[-70.5185205309999,-30.0297470811819],[-70.5186686949999,-30.0293268511819],[-70.5188284669999,-30.0291642941819],[-70.5185606639999,-30.0297560501819],[-70.5198828099999,-30.0300279441819],[-70.5196447949999,-30.0291264651819],[-70.5207674249999,-30.0286521171819],[-70.5213223459999,-30.028203446182],[-70.5214284069999,-30.0277969661819],[-70.5213574119999,-30.0271526041819],[-70.5216355549999,-30.0263410121819],[-70.518035128,-30.025109556182],[-70.5174297549999,-30.0263049351819],[-70.5194939129999,-30.0269637301819]]]}},{"type":"Feature","properties":{"id":"4105013052006","commune":"Paihuano","code":"04105","gse":"D","quintil":"Q1","nse_score":610.8,"educ":11.7,"educ_score":580.0,"hacin":0.933,"hacin_class":"Sin Hacinamiento","hacin_score":865.2,"auto_score":57.7,"n_per":98,"n_hog":49,"source_year":2024},"geometry":{"type":"Polygon","coordinates":[[[-70.5118904449999,-30.0275805641819],[-70.5127678099999,-30.0279942301819],[-70.5132132229999,-30.0283459341819],[-70.5134888469999,-30.0289528081819],[-70.5134951939999,-30.0293705191819],[-70.5139128879999,-30.0293239341819],[-70.514682923,-30.0289927801819],[-70.5154775579999,-30.0302787571819],[-70.5148083379999,-30.0309250781819],[-70.5131539079999,-30.0303830951819],[-70.5122287999999,-30.0323979851818],[-70.5112886789999,-30.0335048181818],[-70.510169028,-30.0351702541818],[-70.5113098559999,-30.0352614531818],[-70.5126199239999,-30.0333680771818],[-70.5140017889999,-30.0318929901819],[-70.515716257,-30.0304110691819],[-70.5159238429999,-30.0299532501819],[-70.5155354039999,-30.0298074701819],[-70.5159399549999,-30.0299102691819],[-70.5166221819999,-30.0278919951819],[-70.5143761439999,-30.0275414991819],[-70.5141483799999,-30.0281265701819],[-70.5137755849999,-30.0278764391819],[-70.514122616,-30.0280524361819],[-70.5143224899999,-30.0275390071819],[-70.5126399409999,-30.027404116182],[-70.5126890939999,-30.0275089841819],[-70.5126178549999,-30.0278580331819],[-70.5125670829999,-30.0273971101819],[-70.5111233379999,-30.0272316321819],[-70.5111497139999,-30.0274798221819],[-70.5118904449999,-30.0275805641819]]]}},{"type":"Feature","properties":{"id":"4105013052008","commune":"Paihuano","code":"04105","gse":"D","quintil":"Q2","nse_score":643.2,"educ":12.1,"educ_score":606.7,"hacin":1.154,"hacin_class":"Hacinamiento Leve","hacin_score":818.3,"auto_score":100.0,"n_per":45,"n_hog":19,"source_year":2024},"geometry":{"type":"Polygon","coordinates":[[[-70.525292126,-30.0292283031819],[-70.524989935,-30.0287833441819],[-70.5250565589999,-30.0285287421819],[-70.524581167,-30.0282008851819],[-70.5243137449999,-30.0285053541819],[-70.5246443339999,-30.0287571531819],[-70.5247818629999,-30.0290523501819],[-70.5246730899999,-30.0299838611819],[-70.5239685859999,-30.0302724651819],[-70.5238201929999,-30.0305993761819],[-70.5241220609999,-30.0308508751819],[-70.5237869549999,-30.0306339721819],[-70.5231961329999,-30.0311447361819],[-70.5235129469999,-30.0314162671819],[-70.5231567269999,-30.0311751001819],[-70.5228810519999,-30.0313815511819],[-70.522615749,-30.0316819261818],[-70.5228407969999,-30.0319448161819],[-70.5236435529999,-30.0315862651819],[-70.5240049789999,-30.0312266671819],[-70.5246595929999,-30.0305623601819],[-70.5249956299999,-30.0297974321819],[-70.5259811309999,-30.0293196151819],[-70.5258419019999,-30.0289450211819],[-70.5248150439999,-30.0280278651819],[-70.5246108919999,-30.0281777891819],[-70.5250872869999,-30.0285172891819],[-70.5250184129999,-30.0287786091819],[-70.525292126,-30.0292283031819]]]}},{"type":"Feature","properties":{"id":"4105013052009","commune":"Paihuano","code":"04105","gse":"D","quintil":"Q1","nse_score":614.4,"educ":11.7,"educ_score":580.0,"hacin":0.889,"hacin_class":"Sin Hacinamiento","hacin_score":874.7,"auto_score":50.0,"n_per":16,"n_hog":7,"source_year":2024},"geometry":{"type":"Polygon","coordinates":[[[-70.5219910929999,-30.0294373711819],[-70.5223828899999,-30.0294962261819],[-70.5224612489999,-30.0290173731819],[-70.5220851249999,-30.0289619921819],[-70.5219910929999,-30.0294373711819]]]}},{"type":"Feature","properties":{"id":"4105013052010","commune":"Paihuano","code":"04105","gse":"D","quintil":"Q1","nse_score":607.0,"educ":9.0,"educ_score":400.0,"hacin":0.87,"hacin_class":"Sin Hacinamiento","hacin_score":878.8,"auto_score":0.0,"n_per":20,"n_hog":11,"source_year":2024},"geometry":{"type":"Polygon","coordinates":[[[-70.5225603759999,-30.0292490941819],[-70.5228868099999,-30.0292805111819],[-70.522938699,-30.0290764951819],[-70.5225124879999,-30.0290236061819],[-70.5225603759999,-30.0292490941819]]]}},{"type":"Feature","properties":{"id":"4105013052011","commune":"Paihuano","code":"04105","gse":"D","quintil":"Q1","nse_score":616.6,"educ":10.1,"educ_score":473.3,"hacin":1.091,"hacin_class":"Hacinamiento Leve","hacin_score":831.7,"auto_score":166.7,"n_per":12,"n_hog":8,"source_year":2024},"geometry":{"type":"Polygon","coordinates":[[[-70.5232037799999,-30.0296125031819],[-70.5232861189999,-30.0291395021819],[-70.5229895849999,-30.0290847681819],[-70.5228704069999,-30.0295823591819],[-70.5232037799999,-30.0296125031819]]]}},{"type":"Feature","properties":{"id":"4105013052012","commune":"Paihuano","code":"04105","gse":"D","quintil":"Q1","nse_score":631.8,"educ":11.1,"educ_score":540.0,"hacin":1.14,"hacin_class":"Hacinamiento Leve","hacin_score":821.3,"auto_score":91.8,"n_per":114,"n_hog":44,"source_year":2024},"geometry":{"type":"Polygon","coordinates":[[[-70.5183135049999,-30.0304391851819],[-70.5184412359999,-30.0302491821819],[-70.5195581479999,-30.0304798021819],[-70.5197213429999,-30.0300714971819],[-70.5162566139999,-30.0292347271819],[-70.5160476869999,-30.0297982621819],[-70.5169917249999,-30.0302431341819],[-70.5178733159999,-30.0304608541819],[-70.5183135049999,-30.0304391851819]]]}},{"type":"Feature","properties":{"id":"4105013052013","commune":"Paihuano","code":"04105","gse":"D","quintil":"Q1","nse_score":600.5,"educ":9.7,"educ_score":446.7,"hacin":1.177,"hacin_class":"Hacinamiento Leve","hacin_score":813.5,"auto_score":166.7,"n_per":20,"n_hog":8,"source_year":2024},"geometry":{"type":"Polygon","coordinates":[[[-70.5224337659999,-30.0295046831819],[-70.5228192549999,-30.0295755991819],[-70.5228759869999,-30.0293247631819],[-70.5224696079999,-30.0292856511819],[-70.5224337659999,-30.0295046831819]]]}},{"type":"Feature","properties":{"id":"4105013052014","commune":"Paihuano","code":"04105","gse":"D","quintil":"Q1","nse_score":624.2,"educ":9.8,"educ_score":453.3,"hacin":1.0,"hacin_class":"Hacinamiento Leve","hacin_score":851.1,"auto_score":125.0,"n_per":14,"n_hog":7,"source_year":2024},"geometry":{"type":"Polygon","coordinates":[[[-70.5218652369999,-30.0301498751819],[-70.5222682809999,-30.0301641291819],[-70.5223754199999,-30.0295407881819],[-70.5219827939999,-30.0294818091819],[-70.5218652369999,-30.0301498751819]]]}},{"type":"Feature","properties":{"id":"4105013052015","commune":"Paihuano","code":"04105","gse":"C3","quintil":"Q2","nse_score":682.3,"educ":10.5,"educ_score":500.0,"hacin":0.773,"hacin_class":"Sin Hacinamiento","hacin_score":899.4,"auto_score":125.0,"n_per":17,"n_hog":8,"source_year":2024},"geometry":{"type":"Polygon","coordinates":[[[-70.5223869509999,-30.0297780621819],[-70.5227744929999,-30.0298426531819],[-70.5228117729999,-30.0296202371819],[-70.5224262659999,-30.0295493181819],[-70.5223869509999,-30.0297780621819]]]}},{"type":"Feature","properties":{"id":"4105013052016","commune":"Paihuano","code":"04105","gse":"D","quintil":"Q1","nse_score":607.9,"educ":9.2,"educ_score":413.3,"hacin":1.2,"hacin_class":"Hacinamiento Leve","hacin_score":808.5,"auto_score":0.0,"n_per":12,"n_hog":5,"source_year":2024},"geometry":{"type":"Polygon","coordinates":[[[-70.5227995619999,-30.0300797071819],[-70.5231232889999,-30.0301348231819],[-70.5232024629999,-30.0296576461819],[-70.5228629339999,-30.0296269441819],[-70.5227995619999,-30.0300797071819]]]}},{"type":"Feature","properties":{"id":"4105013052017","commune":"Paihuano","code":"04105","gse":"D","quintil":"Q2","nse_score":637.2,"educ":9.9,"educ_score":460.0,"hacin":1.033,"hacin_class":"Hacinamiento Leve","hacin_score":844.0,"auto_score":0.0,"n_per":31,"n_hog":12,"source_year":2024},"geometry":{"type":"Polygon","coordinates":[[[-70.5223263779999,-30.0301162771819],[-70.5227427569999,-30.0301571141819],[-70.5227638579999,-30.0299022601819],[-70.5223733729999,-30.0298428581819],[-70.5223263779999,-30.0301162771819]]]}},{"type":"Feature","properties":{"id":"4105013052018","commune":"Paihuano","code":"04105","gse":"D","quintil":"Q1","nse_score":609.2,"educ":12.2,"educ_score":613.3,"hacin":1.149,"hacin_class":"Hacinamiento Leve","hacin_score":819.4,"auto_score":96.4,"n_per":170,"n_hog":70,"source_year":2024},"geometry":{"type":"Polygon","coordinates":[[[-70.5159690109999,-30.0300069651819],[-70.5159253989999,-30.0317722371818],[-70.5153543169999,-30.0334068891818],[-70.5151514429999,-30.0337201101818],[-70.5153785239999,-30.0338282081818],[-70.5151355229999,-30.0337534121818],[-70.5150499679999,-30.0339323731818],[-70.5150787689999,-30.0343547001818],[-70.5149905939999,-30.0339622831818],[-70.5145998519999,-30.0340300461818],[-70.5144095619999,-30.0339894821818],[-70.5140700859999,-30.0343082731818],[-70.5140861229999,-30.0345864181818],[-70.513795979,-30.0345799331818],[-70.5137275479999,-30.0347101231818],[-70.5137014539999,-30.0346320821818],[-70.5137870729999,-30.0345440171818],[-70.514054713,-30.0345540301818],[-70.5140324039999,-30.0342915831818],[-70.5143808719999,-30.0339634951818],[-70.5143114619999,-30.0338773091818],[-70.5145195649999,-30.0339925391818],[-70.5149984769999,-30.0339269261818],[-70.5153053809999,-30.0333921171818],[-70.5155202779999,-30.0327569881819],[-70.5145823959999,-30.0324052111819],[-70.513602853,-30.0332811961818],[-70.5142389059999,-30.0337125991818],[-70.5142300889999,-30.0338430891818],[-70.5135600959999,-30.0333094991818],[-70.5129062999999,-30.0331447621818],[-70.5122224319999,-30.0339575651818],[-70.5113804959999,-30.0352671001818],[-70.5144342679999,-30.0355479701818],[-70.5152232389999,-30.0346848501818],[-70.5153391899999,-30.0345080231818],[-70.5153094969999,-30.0341160911818],[-70.5155893179999,-30.0337928531819],[-70.5163202069999,-30.0334850621818],[-70.5176454479999,-30.0332529951818],[-70.5188175319999,-30.0326511541818],[-70.5190716199999,-30.0322208871819],[-70.5194908329999,-30.0320035731818],[-70.5199622549999,-30.0312073221819],[-70.5216073559999,-30.0318090091818],[-70.5220438699999,-30.0318184001819],[-70.5223841239999,-30.0321458751819],[-70.5228035759999,-30.0319612031818],[-70.5225704819999,-30.0316716021819],[-70.5237644629999,-30.0305896441819],[-70.5240110349999,-30.0301512631819],[-70.5227804039999,-30.0302100331819],[-70.5226660729999,-30.0305306571819],[-70.5227642769999,-30.0305793571819],[-70.5226521509999,-30.0305755691819],[-70.5226159869999,-30.0308209031819],[-70.5225738049999,-30.0306642851819],[-70.5227257059999,-30.0302115111819],[-70.5197731629999,-30.0300788961819],[-70.5196017349999,-30.0305078031819],[-70.5197279239999,-30.0309031811819],[-70.5196578089999,-30.0312225421819],[-70.5190987669999,-30.0311320681819],[-70.5184910379999,-30.0317117421818],[-70.5185490849999,-30.0315934821819],[-70.5177349029999,-30.0309207521819],[-70.5175348259999,-30.0309499961819],[-70.5181812659999,-30.0307501331819],[-70.5182181469999,-30.0306092481819],[-70.5178090699999,-30.0305429461819],[-70.5169274799999,-30.0307499591819],[-70.5169274799999,-30.0302966721819],[-70.5161065659999,-30.0298826451819],[-70.5159690109999,-30.0300069651819]]]}},{"type":"Feature","properties":{"id":"4105013052019","commune":"Paihuano","code":"04105","gse":"E","quintil":"Q1","nse_score":587.4,"educ":11.5,"educ_score":566.7,"hacin":1.214,"hacin_class":"Hacinamiento Leve","hacin_score":805.5,"auto_score":166.7,"n_per":34,"n_hog":12,"source_year":2024},"geometry":{"type":"Polygon","coordinates":[[[-70.515653073,-30.0305665771819],[-70.5137656229999,-30.0322290781819],[-70.5142648849999,-30.0326026631818],[-70.5145464629999,-30.0323720031818],[-70.5146208569999,-30.0319227951819],[-70.5145968279999,-30.0323615901818],[-70.5155349719999,-30.0327135621818],[-70.5156961189999,-30.0322703891819],[-70.5151272189999,-30.0321246361818],[-70.5157130449999,-30.0322277951818],[-70.5158740589999,-30.0317652691819],[-70.5159149079999,-30.0301475651819],[-70.515653073,-30.0305665771819]]]}},{"type":"Feature","properties":{"id":"4105013052020","commune":"Paihuano","code":"04105","gse":"D","quintil":"Q2","nse_score":636.8,"educ":9.5,"educ_score":433.3,"hacin":0.872,"hacin_class":"Sin Hacinamiento","hacin_score":878.2,"auto_score":25.0,"n_per":41,"n_hog":19,"source_year":2024},"geometry":{"type":"Polygon","coordinates":[[[-70.5195284629999,-30.0307930671819],[-70.5195556539999,-30.0305257111819],[-70.5185213919999,-30.0302978221819],[-70.5183672809999,-30.0305024401819],[-70.5195284629999,-30.0307930671819]]]}},{"type":"Feature","properties":{"id":"4105013052021","commune":"Paihuano","code":"04105","gse":"D","quintil":"Q1","nse_score":626.0,"educ":9.4,"educ_score":426.7,"hacin":1.0,"hacin_class":"Hacinamiento Leve","hacin_score":851.1,"auto_score":0.0,"n_per":13,"n_hog":5,"source_year":2024},"geometry":{"type":"Polygon","coordinates":[[[-70.5170194059999,-30.0303337621819],[-70.5170488319999,-30.0306750061819],[-70.5176199029999,-30.0305251001819],[-70.5170194059999,-30.0303337621819]]]}},{"type":"Feature","properties":{"id":"4105013052023","commune":"Paihuano","code":"04105","gse":"D","quintil":"Q2","nse_score":639.0,"educ":11.5,"educ_score":566.7,"hacin":1.46,"hacin_class":"Hacinamiento Leve","hacin_score":753.3,"auto_score":90.9,"n_per":54,"n_hog":20,"source_year":2024},"geometry":{"type":"Polygon","coordinates":[[[-70.5177858179999,-30.0309007391819],[-70.5185848859999,-30.0315609811819],[-70.5188173729999,-30.0313485301819],[-70.5181864499999,-30.0307950731819],[-70.5177858179999,-30.0309007391819]]]}},{"type":"Feature","properties":{"id":"4105013052025","commune":"Paihuano","code":"04105","gse":"D","quintil":"Q1","nse_score":621.1,"educ":12.5,"educ_score":633.3,"hacin":1.118,"hacin_class":"Hacinamiento Leve","hacin_score":826.0,"auto_score":100.0,"n_per":19,"n_hog":7,"source_year":2024},"geometry":{"type":"Polygon","coordinates":[[[-70.5129412309999,-30.0331069021818],[-70.5135490449999,-30.0332647441818],[-70.5142288959999,-30.0326351111818],[-70.5137328259999,-30.0322639121819],[-70.5129412309999,-30.0331069021818]]]}},{"type":"Feature","properties":{"id":"4105013052001","commune":"Paihuano","code":"04105","gse":"E","quintil":"Q1","nse_score":555.6,"educ":12.3,"educ_score":620.0,"hacin":1.095,"hacin_class":"Hacinamiento Leve","hacin_score":830.8,"auto_score":41.7,"n_per":23,"n_hog":10,"source_year":2024},"geometry":{"type":"MultiPolygon","coordinates":[[[[-70.5180361019999,-30.025071776182],[-70.5187086679999,-30.025272272182],[-70.5188350769999,-30.024886568182],[-70.518467729,-30.024801832182],[-70.5185512549999,-30.024522027182],[-70.5181633079999,-30.024426979182],[-70.5180176,-30.024864142182],[-70.5180361019999,-30.025071776182]]],[[[-70.5169400709999,-30.0257042981819],[-70.5162187969999,-30.0271547421819],[-70.5152985059999,-30.0270758211819],[-70.5152162549999,-30.0275303621819],[-70.5149067509999,-30.0274742431819],[-70.5149224229999,-30.027151772182],[-70.5128121289999,-30.0268477981819],[-70.5128152699999,-30.026603060182],[-70.511061933,-30.026715489182],[-70.5111191359999,-30.0271920841819],[-70.5145824349999,-30.0275027781819],[-70.5166406149999,-30.0278401481819],[-70.5179162669999,-30.025286950182],[-70.5181066649999,-30.024413102182],[-70.5179035709999,-30.024363343182],[-70.5175672839999,-30.024907715182],[-70.5160861199999,-30.0255489381819],[-70.5169400709999,-30.0257042981819]]]]}},{"type":"Feature","properties":{"id":"4105013052005","commune":"Paihuano","code":"04105","gse":"D","quintil":"Q1","nse_score":620.3,"educ":14.7,"educ_score":780.0,"hacin":1.562,"hacin_class":"Hacinamiento Medio","hacin_score":731.4,"auto_score":138.9,"n_per":25,"n_hog":10,"source_year":2024},"geometry":{"type":"MultiPolygon","coordinates":[[[[-70.5257642809999,-30.0275352281819],[-70.5248495459999,-30.0279883031819],[-70.5258798999999,-30.0289162571819],[-70.5260155939999,-30.0293029061819],[-70.5259623709999,-30.0291023011819],[-70.5262835979999,-30.0289178931819],[-70.5254448379999,-30.0281326711819],[-70.5261301129999,-30.0277084531819],[-70.5260925289999,-30.0275925691819],[-70.5257642809999,-30.0275352281819]]],[[[-70.5242572449999,-30.026298725182],[-70.5231989209999,-30.0279052671819],[-70.5232038079999,-30.0282248491819],[-70.5234521419999,-30.0286693171819],[-70.5230775379999,-30.0286568651819],[-70.5231171039999,-30.0287943301819],[-70.5220117479999,-30.0286352361819],[-70.5216294589999,-30.0301829061819],[-70.5218056959999,-30.0301907941819],[-70.5220683249999,-30.0289138571819],[-70.5233204569999,-30.0290998181819],[-70.5231763749999,-30.0301299341819],[-70.5234299289999,-30.0301085851819],[-70.5237738709999,-30.0298236111819],[-70.5238928979999,-30.0296292191819],[-70.5238521409999,-30.0294080611819],[-70.5239494159999,-30.0296326551819],[-70.5238138049999,-30.0298541331819],[-70.5234999799999,-30.0301074101819],[-70.5245378379999,-30.0300623281819],[-70.5247378109999,-30.0294584651819],[-70.5247208609999,-30.0290631621819],[-70.524244887,-30.0284759901819],[-70.5246042529999,-30.0281091251819],[-70.5242155519999,-30.0278157331819],[-70.5246435919999,-30.0280792211819],[-70.5256881379999,-30.0275209511819],[-70.5261167279999,-30.0274755601819],[-70.5258445139999,-30.027049345182],[-70.5258201429999,-30.026785468182],[-70.5254562949999,-30.0267523181819],[-70.5252501659999,-30.0265493971819],[-70.5252597909999,-30.026378347182],[-70.5245269469999,-30.0261712081819],[-70.5242572449999,-30.026298725182]]]]}},{"type":"Feature","properties":{"id":"4105013052022","commune":"Paihuano","code":"04105","gse":"D","quintil":"Q2","nse_score":653.1,"educ":11.2,"educ_score":546.7,"hacin":1.171,"hacin_class":"Hacinamiento Leve","hacin_score":814.7,"auto_score":125.0,"n_per":48,"n_hog":18,"source_year":2024},"geometry":{"type":"MultiPolygon","coordinates":[[[[-70.5183859439999,-30.0309356001819],[-70.5188519449999,-30.0313150091819],[-70.5190423509999,-30.0311202911818],[-70.5183859439999,-30.0309356001819]]],[[[-70.5183086059999,-30.0308665251819],[-70.5196217659999,-30.0311861431819],[-70.519671463,-30.0308911301819],[-70.5182808129999,-30.0305929141819],[-70.5183086059999,-30.0308665251819]]]]}},{"type":"Feature","properties":{"id":"4105073058001","commune":"Paihuano","code":"04105","gse":"D","quintil":"Q2","nse_score":644.0,"educ":12.2,"educ_score":613.3,"hacin":1.39,"hacin_class":"Hacinamiento Leve","hacin_score":768.0,"auto_score":158.5,"n_per":114,"n_hog":40,"source_year":2024},"geometry":{"type":"Polygon","coordinates":[[[-70.4934223419999,-30.1211356171804],[-70.4924775109999,-30.1206324851804],[-70.4920845589999,-30.1210017991804],[-70.4907023379999,-30.1208503861804],[-70.4905410759999,-30.1213496921804],[-70.4908308799999,-30.1214218411804],[-70.4910363379999,-30.1209619351804],[-70.4908715959999,-30.1214299991804],[-70.491230088,-30.1214947411804],[-70.4914520579999,-30.1209819021804],[-70.4912684999999,-30.1215086461804],[-70.4914541979999,-30.1217532021804],[-70.4929644509999,-30.1219225351804],[-70.4932269999999,-30.1216426561804],[-70.4924340089999,-30.1214955681804],[-70.4932386799999,-30.1216277401804],[-70.4934223419999,-30.1211356171804]]]}},{"type":"Feature","properties":{"id":"4105073058002","commune":"Paihuano","code":"04105","gse":"D","quintil":"Q2","nse_score":641.1,"educ":12.6,"educ_score":640.0,"hacin":1.056,"hacin_class":"Hacinamiento Leve","hacin_score":839.2,"auto_score":55.6,"n_per":19,"n_hog":9,"source_year":2024},"geometry":{"type":"Polygon","coordinates":[[[-70.495575674,-30.1219173041804],[-70.4934629539999,-30.1211467001804],[-70.4934560439999,-30.1212358051804],[-70.4943427019999,-30.1216222881804],[-70.4934547299999,-30.1212549651804],[-70.4928922089999,-30.1220625131804],[-70.4936363649999,-30.1222829671804],[-70.4928798379999,-30.1220775481804],[-70.4926130229999,-30.1228258891804],[-70.4924589579999,-30.1229614041804],[-70.4924383659999,-30.1232657041804],[-70.4926689579999,-30.1234034521803],[-70.4954272119999,-30.1239361531803],[-70.4953551909999,-30.1226726341804],[-70.494308858,-30.1224577831804],[-70.4953565909999,-30.1226361821804],[-70.4953975619999,-30.1221723681804],[-70.495575674,-30.1219173041804]]]}},{"type":"Feature","properties":{"id":"4105073058003","commune":"Paihuano","code":"04105","gse":"C3","quintil":"Q2","nse_score":679.0,"educ":15.0,"educ_score":800.0,"hacin":1.167,"hacin_class":"Hacinamiento Leve","hacin_score":815.6,"auto_score":71.4,"n_per":14,"n_hog":6,"source_year":2024},"geometry":{"type":"Polygon","coordinates":[[[-70.4906631949999,-30.1214347391804],[-70.4905286939999,-30.1220877941804],[-70.4902460919999,-30.1220134141804],[-70.4901374109999,-30.1230053851804],[-70.4881971709999,-30.1229842891804],[-70.4883810899999,-30.1231363421804],[-70.4884475109999,-30.1235720731803],[-70.4905457589999,-30.1235884111804],[-70.4926703159999,-30.1239215621804],[-70.4927588829999,-30.1234583821804],[-70.492380722,-30.1232043291803],[-70.4926080779999,-30.1227011061804],[-70.4919413469999,-30.1225664701804],[-70.4913871619999,-30.1223381661804],[-70.4917244809999,-30.1223881641804],[-70.4918089729999,-30.1222094431804],[-70.4914563059999,-30.1221742541804],[-70.4917797629999,-30.1221691731803],[-70.4918314249999,-30.1222058151804],[-70.4917824719999,-30.1224925921804],[-70.4926129249999,-30.1226835601804],[-70.4929511409999,-30.1219363951804],[-70.4914479119999,-30.1217706501804],[-70.4912693029999,-30.1215269751804],[-70.4906631949999,-30.1214347391804]]]}},{"type":"Feature","properties":{"id":"4105073058005","commune":"Paihuano","code":"04105","gse":"D","quintil":"Q2","nse_score":640.3,"educ":12.3,"educ_score":620.0,"hacin":1.036,"hacin_class":"Hacinamiento Leve","hacin_score":843.4,"auto_score":133.9,"n_per":115,"n_hog":51,"source_year":2024},"geometry":{"type":"Polygon","coordinates":[[[-70.4953969649999,-30.1232527781804],[-70.4955143749999,-30.1242285301803],[-70.5001980899999,-30.1255036351803],[-70.5003266389999,-30.1248455761803],[-70.4988423069999,-30.1237456531804],[-70.4983809389999,-30.1231563721803],[-70.4981462189999,-30.1230306951804],[-70.4982028049999,-30.1232833501804],[-70.4981643019999,-30.1231474171804],[-70.4981217629999,-30.1232189501804],[-70.4980204539999,-30.1232917261804],[-70.4981547459999,-30.1230988551804],[-70.497892309,-30.1227778321804],[-70.4959425929999,-30.1220751701804],[-70.4955573799999,-30.1220398531804],[-70.4954375649999,-30.1221824171804],[-70.4953969649999,-30.1232527781804]]]}},{"type":"Feature","properties":{"id":"4105073058006","commune":"Paihuano","code":"04105","gse":"D","quintil":"Q1","nse_score":592.0,"educ":11.2,"educ_score":546.7,"hacin":1.233,"hacin_class":"Hacinamiento Leve","hacin_score":801.6,"auto_score":89.6,"n_per":159,"n_hog":59,"source_year":2024},"geometry":{"type":"Polygon","coordinates":[[[-70.4877146419999,-30.1230567321804],[-70.488140557,-30.1239889281804],[-70.4877094379999,-30.1240833381804],[-70.4886266769999,-30.1266452771803],[-70.4893506679999,-30.1267627871803],[-70.4897838679999,-30.1267149011803],[-70.4897861969999,-30.1266203771803],[-70.4906443439999,-30.1268260311803],[-70.4923132029999,-30.1277456581803],[-70.493015436,-30.1274899941803],[-70.492740007,-30.1262562531803],[-70.4939363969999,-30.1262974671803],[-70.4940493119999,-30.1263956671803],[-70.4946521189999,-30.1262546471803],[-70.4950121669999,-30.1269203731803],[-70.4951691179999,-30.1269853911803],[-70.4953557549999,-30.1268585911803],[-70.4956812049999,-30.1275868341803],[-70.4948360809999,-30.1282139321803],[-70.4951102949999,-30.1287631281803],[-70.4962772759999,-30.1282156371803],[-70.4959924099999,-30.1271722911803],[-70.495572008,-30.1262779711803],[-70.4954735249999,-30.1251375901803],[-70.4941167529999,-30.1249636111803],[-70.4940038249999,-30.1254542181803],[-70.4940758109999,-30.1249576351803],[-70.4925112099999,-30.1247540811803],[-70.4922767479999,-30.1258205521803],[-70.4921323679999,-30.1259845611803],[-70.4921811119999,-30.1262593361803],[-70.4925339849999,-30.1262307121803],[-70.4928262669999,-30.1274892661803],[-70.492355158,-30.1272551381803],[-70.4921028529999,-30.1260767281803],[-70.4921557789999,-30.1259102001803],[-70.4895717469999,-30.1259123901803],[-70.4895981219999,-30.1258285261803],[-70.4907123309999,-30.1258934751803],[-70.4910992979999,-30.1258920311803],[-70.4911532519999,-30.1258752401803],[-70.4897261359999,-30.1258067511803],[-70.4894771939999,-30.1255990661803],[-70.4893641849999,-30.1253315711803],[-70.4885954609999,-30.1252164031804],[-70.4892567489999,-30.1252452911803],[-70.4893965459999,-30.1253068041803],[-70.4897418029999,-30.1257720351803],[-70.4899556559999,-30.1257813921803],[-70.4899463589999,-30.1251956691803],[-70.4896377399999,-30.1250392791803],[-70.4899663559999,-30.1251868961803],[-70.490046634,-30.1257853721803],[-70.4900653789999,-30.1251838821803],[-70.4902371909999,-30.1247632731803],[-70.4897690369999,-30.1245598381803],[-70.4902434229999,-30.1247329741803],[-70.4908154609999,-30.1246609831804],[-70.4918022859999,-30.1249893631803],[-70.4916085339999,-30.1247277991803],[-70.4916065589999,-30.1246011711803],[-70.4916644609999,-30.1245622751804],[-70.4916286799999,-30.1247226601803],[-70.4918288929999,-30.1249961461803],[-70.4923840639999,-30.1249850541803],[-70.4924132649999,-30.1248089951804],[-70.4925494049999,-30.1247079591803],[-70.4926634419999,-30.1239575151803],[-70.4908079279999,-30.1237787531804],[-70.4907082989999,-30.1238306771804],[-70.4908952039999,-30.1238923161804],[-70.4909374109999,-30.1240316571803],[-70.4908741599999,-30.1239343571803],[-70.4906482119999,-30.1240880791803],[-70.4908494899999,-30.1239052681803],[-70.4906702299999,-30.1238496101803],[-70.4906995089999,-30.1237636931804],[-70.4911366189999,-30.1237430851804],[-70.4905436909999,-30.1236063711804],[-70.4885563129999,-30.1236257501803],[-70.4884308499999,-30.1235838361804],[-70.4883616919999,-30.1231444761804],[-70.4881734689999,-30.1229856851804],[-70.4877146419999,-30.1230567321804]]]}},{"type":"Feature","properties":{"id":"4105073058007","commune":"Paihuano","code":"04105","gse":"D","quintil":"Q1","nse_score":597.3,"educ":12.7,"educ_score":646.7,"hacin":1.105,"hacin_class":"Hacinamiento Leve","hacin_score":828.7,"auto_score":125.0,"n_per":42,"n_hog":19,"source_year":2024},"geometry":{"type":"Polygon","coordinates":[[[-70.4925667019999,-30.1246395351803],[-70.4950623989999,-30.1250534041803],[-70.4951128969999,-30.1247882921803],[-70.4941961319999,-30.1246508381803],[-70.4951264879999,-30.1247719161803],[-70.4950829839999,-30.1250557971804],[-70.4954751009999,-30.1251013671804],[-70.4954529049999,-30.1239960231804],[-70.492799423,-30.1234664541803],[-70.4925667019999,-30.1246395351803]]]}},{"type":"Feature","properties":{"id":"4105073058008","commune":"Paihuano","code":"04105","gse":"D","quintil":"Q1","nse_score":593.0,"educ":12.5,"educ_score":633.3,"hacin":1.0,"hacin_class":"Hacinamiento Leve","hacin_score":851.1,"auto_score":148.4,"n_per":137,"n_hog":60,"source_year":2024},"geometry":{"type":"Polygon","coordinates":[[[-70.4955167839999,-30.1242646201804],[-70.4955117039999,-30.1252223871803],[-70.4959140619999,-30.1252720961803],[-70.4955115319999,-30.1252405891803],[-70.495528196,-30.1257671901803],[-70.4957525259999,-30.1256739021803],[-70.4959359869999,-30.1256820321803],[-70.4959685179999,-30.1256320241803],[-70.4964611409999,-30.1256201771803],[-70.496568222,-30.1257047381803],[-70.4959758719999,-30.1256498571803],[-70.4959456859999,-30.1257001371803],[-70.4955310709999,-30.1257856661803],[-70.4964938779999,-30.1287203441803],[-70.4968677089999,-30.1294178981803],[-70.4972731899999,-30.1306368391802],[-70.4974578469999,-30.1307136891803],[-70.4976529279999,-30.1311017091802],[-70.4972840569999,-30.1306757011802],[-70.4975019699999,-30.1314521771802],[-70.4977670779999,-30.1318359071802],[-70.4977321909999,-30.1315814801803],[-70.4977796329999,-30.1318605861802],[-70.4975270699999,-30.1315228101802],[-70.4978636729999,-30.1327889841802],[-70.4981793089999,-30.1334723861802],[-70.4981637909999,-30.1356998181801],[-70.4983277329999,-30.1372531971802],[-70.4993534489999,-30.1372411091801],[-70.4991176339999,-30.1346940351802],[-70.4979655629999,-30.1295506061803],[-70.4977209699999,-30.1269629241803],[-70.4977730889999,-30.1267024701803],[-70.4984787719999,-30.1264183171803],[-70.5001312599999,-30.1262715061803],[-70.5000420019999,-30.1260754361803],[-70.5001708919999,-30.1255321691803],[-70.4990947669999,-30.1253132611803],[-70.4957379379999,-30.1242704871803],[-70.4955167839999,-30.1242646201804]],[[-70.4975354219999,-30.1306750651802],[-70.4976362289999,-30.1309216581802],[-70.4977519369999,-30.1309138101802],[-70.4977740989999,-30.1307330481803],[-70.4977994449999,-30.1309564921802],[-70.4976116729999,-30.1309586341803],[-70.4975354219999,-30.1306750651802]]]}},{"type":"Feature","properties":{"id":"4105073058009","commune":"Paihuano","code":"04105","gse":"C3","quintil":"Q2","nse_score":664.2,"educ":12.4,"educ_score":626.7,"hacin":0.773,"hacin_class":"Sin Hacinamiento","hacin_score":899.4,"auto_score":62.5,"n_per":17,"n_hog":11,"source_year":2024},"geometry":{"type":"Polygon","coordinates":[[[-70.4902423609999,-30.1248316361803],[-70.4900859499999,-30.1251871171803],[-70.490067371,-30.1257862791803],[-70.49058772,-30.1258108101803],[-70.4906066409999,-30.1250997371803],[-70.4907206659999,-30.1250850731803],[-70.4910438809999,-30.1251749861803],[-70.4906254709999,-30.1251100271803],[-70.4906153569999,-30.1256067041803],[-70.4909638279999,-30.1256228011803],[-70.4906123339999,-30.1256248821803],[-70.4906133759999,-30.1258124251803],[-70.4922199719999,-30.1258588501803],[-70.4923782289999,-30.1250220551803],[-70.4919372649999,-30.1250592501803],[-70.4919686989999,-30.1251738301803],[-70.4919356749999,-30.1252519241803],[-70.4917396879999,-30.1253107681803],[-70.4919196899999,-30.1252397281803],[-70.4919153879999,-30.1250573431803],[-70.4907381329999,-30.1246867561803],[-70.4902423609999,-30.1248316361803]]]}},{"type":"Feature","properties":{"id":"4105073058012","commune":"Paihuano","code":"04105","gse":"C3","quintil":"Q3","nse_score":711.2,"educ":14.0,"educ_score":733.3,"hacin":1.0,"hacin_class":"Hacinamiento Leve","hacin_score":851.1,"auto_score":62.5,"n_per":25,"n_hog":15,"source_year":2024},"geometry":{"type":"Polygon","coordinates":[[[-70.4955816409999,-30.1285519031803],[-70.4965214799999,-30.1301085941802],[-70.4964762299999,-30.1298010511803],[-70.4965463879999,-30.1299003971802],[-70.4965255129999,-30.1301282261803],[-70.4963574479999,-30.1299951521802],[-70.4967946109999,-30.1314430971802],[-70.4969947899999,-30.1316285901802],[-70.4971182059999,-30.1323046131802],[-70.4973720049999,-30.1324825151802],[-70.4975435519999,-30.1331546281802],[-70.4978534179999,-30.1333805211802],[-70.4981972409999,-30.1342844161802],[-70.4981179549999,-30.1333799241802],[-70.4978235889999,-30.1327984141802],[-70.4970422189999,-30.1299705141802],[-70.4962870949999,-30.1282512561803],[-70.4955816409999,-30.1285519031803]]]}},{"type":"Feature","properties":{"id":"4105073058013","commune":"Paihuano","code":"04105","gse":"E","quintil":"Q1","nse_score":559.4,"educ":9.9,"educ_score":460.0,"hacin":1.167,"hacin_class":"Hacinamiento Leve","hacin_score":815.6,"auto_score":384.6,"n_per":35,"n_hog":13,"source_year":2024},"geometry":{"type":"Polygon","coordinates":[[[-70.4961044599999,-30.1297648301803],[-70.4956402739999,-30.1291156891803],[-70.4951324399999,-30.1290450221803],[-70.4958632779999,-30.1300669521802],[-70.4958531709999,-30.1302198581802],[-70.4950754649999,-30.1307053411803],[-70.4951996409999,-30.1308859531803],[-70.4961982459999,-30.1304114841802],[-70.4965845389999,-30.1309698061802],[-70.4963581009999,-30.1300749391803],[-70.4955635269999,-30.1286231221803],[-70.4951183459999,-30.1287797671803],[-70.4951369089999,-30.1290274181803],[-70.4956540749999,-30.1291020071802],[-70.4961044599999,-30.1297648301803]]]}},{"type":"Feature","properties":{"id":"4105073058014","commune":"Paihuano","code":"04105","gse":"E","quintil":"Q1","nse_score":542.1,"educ":10.8,"educ_score":520.0,"hacin":1.136,"hacin_class":"Hacinamiento Leve","hacin_score":822.1,"auto_score":187.5,"n_per":25,"n_hog":8,"source_year":2024},"geometry":{"type":"Polygon","coordinates":[[[-70.4970805249999,-30.1323200691802],[-70.4972043139999,-30.1335094401802],[-70.4953227689999,-30.1337824191802],[-70.4954476589999,-30.1341277631802],[-70.4960127439999,-30.1338993051802],[-70.4971702969999,-30.1341654231802],[-70.4971379279999,-30.1353806101801],[-70.4978889539999,-30.1345104581802],[-70.498116148,-30.1355189901802],[-70.4981921049999,-30.1343306841802],[-70.4978779959999,-30.1335338641802],[-70.4977990809999,-30.1343195231802],[-70.4976945329999,-30.1343164821802],[-70.4975675129999,-30.1340293381802],[-70.4975288239999,-30.1341742841802],[-70.4973883899999,-30.1341099671802],[-70.4973337449999,-30.1339534291802],[-70.4973735799999,-30.1337361981802],[-70.4974277749999,-30.1340971091802],[-70.497498962,-30.1341414291802],[-70.49752688,-30.1340084011802],[-70.4976109119999,-30.1340101431802],[-70.4977640479999,-30.1342959631802],[-70.4978529349999,-30.1335006401802],[-70.4976807079999,-30.1332096871802],[-70.4975056259999,-30.1331703181802],[-70.4973351279999,-30.1325000431802],[-70.4970805249999,-30.1323200691802]]]}},{"type":"Feature","properties":{"id":"4105073058015","commune":"Paihuano","code":"04105","gse":"E","quintil":"Q1","nse_score":578.8,"educ":10.8,"educ_score":520.0,"hacin":1.429,"hacin_class":"Hacinamiento Leve","hacin_score":759.9,"auto_score":142.9,"n_per":20,"n_hog":7,"source_year":2024},"geometry":{"type":"Polygon","coordinates":[[[-70.4971797759999,-30.1356743461801],[-70.4977046829999,-30.1356912971802],[-70.4977973429999,-30.1367677231801],[-70.497862316,-30.1368862241802],[-70.4982256149999,-30.1369154031801],[-70.4981647119999,-30.1361966321802],[-70.4980580159999,-30.1361647791802],[-70.4979350359999,-30.1362711661801],[-70.4977696519999,-30.1362775021801],[-70.4980494839999,-30.1361479411802],[-70.4981617839999,-30.1361637071801],[-70.4978773579999,-30.1345270091802],[-70.4977238349999,-30.1348409101802],[-70.4971283739999,-30.1354024551802],[-70.4971797759999,-30.1356743461801]]]}},{"type":"Feature","properties":{"id":"4105073058010","commune":"Paihuano","code":"04105","gse":"D","quintil":"Q2","nse_score":634.2,"educ":10.1,"educ_score":473.3,"hacin":1.414,"hacin_class":"Hacinamiento Leve","hacin_score":763.0,"auto_score":240.0,"n_per":82,"n_hog":30,"source_year":2024},"geometry":{"type":"MultiPolygon","coordinates":[[[[-70.4924397999999,-30.1272995291803],[-70.4928037379999,-30.1274466401803],[-70.4926638889999,-30.1270490031803],[-70.4923634649999,-30.1270895241803],[-70.4924397999999,-30.1272995291803]]],[[[-70.4921881599999,-30.1262949311803],[-70.4923553319999,-30.1270541051803],[-70.492655312,-30.1270136391803],[-70.4924968169999,-30.1262577511803],[-70.4921881599999,-30.1262949311803]]]]}},{"type":"Feature","properties":{"id":"4105083037003","commune":"Paihuano","code":"04105","gse":"D","quintil":"Q1","nse_score":608.7,"educ":11.4,"educ_score":560.0,"hacin":1.167,"hacin_class":"Hacinamiento Leve","hacin_score":815.6,"auto_score":0.0,"n_per":14,"n_hog":5,"source_year":2024},"geometry":{"type":"Polygon","coordinates":[[[-70.4924775109999,-30.1206324851804],[-70.4934223419999,-30.1211356171804],[-70.4937770129999,-30.1197781291804],[-70.4929563889999,-30.1198122641804],[-70.4927255259999,-30.1205013831804],[-70.4925839129999,-30.1204433101804],[-70.4924775109999,-30.1206324851804]]]}},{"type":"Feature","properties":{"id":"4105083037005","commune":"Paihuano","code":"04105","gse":"D","quintil":"Q1","nse_score":623.6,"educ":10.4,"educ_score":493.3,"hacin":1.162,"hacin_class":"Hacinamiento Leve","hacin_score":816.6,"auto_score":93.8,"n_per":43,"n_hog":18,"source_year":2024},"geometry":{"type":"Polygon","coordinates":[[[-70.4934629539999,-30.1211467001804],[-70.4950060459999,-30.1217922811804],[-70.495575674,-30.1219173041804],[-70.4947185859999,-30.1212758131804],[-70.4935007189999,-30.1207323651804],[-70.4934629539999,-30.1211467001804]]]}},{"type":"Feature","properties":{"id":"4105083037006","commune":"Paihuano","code":"04105","gse":"C3","quintil":"Q3","nse_score":722.9,"educ":13.3,"educ_score":686.7,"hacin":1.111,"hacin_class":"Hacinamiento Leve","hacin_score":827.4,"auto_score":125.0,"n_per":10,"n_hog":4,"source_year":2024},"geometry":{"type":"Polygon","coordinates":[[[-70.4982163759999,-30.1225606311804],[-70.4988460739999,-30.1230846601804],[-70.4989469099999,-30.1229906401804],[-70.4982884379999,-30.1224860771804],[-70.4982163759999,-30.1225606311804]]]}},{"type":"Feature","properties":{"id":"4105083037001","commune":"Paihuano","code":"04105","gse":"D","quintil":"Q1","nse_score":614.6,"educ":10.9,"educ_score":526.7,"hacin":1.133,"hacin_class":"Hacinamiento Leve","hacin_score":822.7,"auto_score":0.0,"n_per":17,"n_hog":7,"source_year":2024},"geometry":{"type":"MultiPolygon","coordinates":[[[[-70.4935078299999,-30.1206947101804],[-70.4946926659999,-30.1212242331804],[-70.4942300879999,-30.1207350431804],[-70.4941011009999,-30.1203140521804],[-70.4936526059999,-30.1202395171804],[-70.4935078299999,-30.1206947101804]]],[[[-70.4936649169999,-30.1202048471804],[-70.4941030119999,-30.1202779841804],[-70.4941735589999,-30.1191955991805],[-70.4943933939999,-30.1187474961805],[-70.4942763009999,-30.1186634841805],[-70.4936649169999,-30.1202048471804]]]]}},{"type":"Feature","properties":{"id":"4105083037002","commune":"Paihuano","code":"04105","gse":"D","quintil":"Q1","nse_score":599.2,"educ":10.4,"educ_score":493.3,"hacin":1.235,"hacin_class":"Hacinamiento Leve","hacin_score":801.0,"auto_score":76.9,"n_per":63,"n_hog":24,"source_year":2024},"geometry":{"type":"MultiPolygon","coordinates":[[[[-70.50038896,-30.1244329921803],[-70.4992259869999,-30.1234673041803],[-70.4989869899999,-30.1236077331803],[-70.4998887469999,-30.1242478611804],[-70.50038896,-30.1244329921803]]],[[[-70.4942953579999,-30.1207536041804],[-70.4951113749999,-30.1215284171804],[-70.4948905639999,-30.1210240611804],[-70.4948814529999,-30.1208721441804],[-70.4951393389999,-30.1215481621804],[-70.4952701519999,-30.1216329951804],[-70.4954857109999,-30.1215064421804],[-70.4952885279999,-30.1216432081804],[-70.4955851109999,-30.1218266121804],[-70.4957857499999,-30.1216848041804],[-70.4959630309999,-30.1216829321804],[-70.4957935549999,-30.1217019591804],[-70.4956181329999,-30.1219193351804],[-70.4976070479999,-30.1225081991804],[-70.4982112209999,-30.1228725341804],[-70.4983631129999,-30.1231303621804],[-70.4989708679999,-30.1235963161803],[-70.4991460909999,-30.1234239691804],[-70.4982398609999,-30.1225925171804],[-70.4961494199999,-30.1217828401804],[-70.4961931879999,-30.1216974071804],[-70.4954218959999,-30.1210504531804],[-70.4952501399999,-30.1211335781804],[-70.4949589909999,-30.1205830361804],[-70.4952326009999,-30.1205499081804],[-70.4951676169999,-30.1198821991804],[-70.4944022399999,-30.1197524471804],[-70.4944774919999,-30.1192789021805],[-70.4947024459999,-30.1188991461804],[-70.4944077719999,-30.1188100371804],[-70.4941765899999,-30.1194005441804],[-70.4941480009999,-30.1204651431804],[-70.4942953579999,-30.1207536041804]]]]}}]}