{"type":"FeatureCollection","features":[{"type":"Feature","properties":{"id":"6306011001002","commune":"Palmilla","code":"06306","gse":"C3","quintil":"Q2","nse_score":675.3,"educ":10.5,"educ_score":500.0,"hacin":1.542,"hacin_class":"Hacinamiento Medio","hacin_score":735.8,"auto_score":318.2,"n_per":37,"n_hog":11,"source_year":2024},"geometry":{"type":"Polygon","coordinates":[[[-71.3640099979999,-34.5811216461179],[-71.3649673619999,-34.5814882581179],[-71.3647912679999,-34.5819085581179],[-71.3662543539999,-34.5824239141179],[-71.3666001169999,-34.5815067271178],[-71.3659385599999,-34.5812941461179],[-71.365564849,-34.5814269931179],[-71.3641006229999,-34.5809007001179],[-71.3640099979999,-34.5811216461179]]]}},{"type":"Feature","properties":{"id":"6306011001006","commune":"Palmilla","code":"06306","gse":"E","quintil":"Q1","nse_score":575.5,"educ":8.6,"educ_score":373.3,"hacin":1.577,"hacin_class":"Hacinamiento Medio","hacin_score":728.3,"auto_score":115.4,"n_per":41,"n_hog":12,"source_year":2024},"geometry":{"type":"Polygon","coordinates":[[[-71.3636581029999,-34.5819515031178],[-71.3649929929999,-34.5824179951179],[-71.3660776479999,-34.5830028401179],[-71.3662410629999,-34.5825514251179],[-71.3638033139999,-34.5816255431178],[-71.3636581029999,-34.5819515031178]]]}},{"type":"Feature","properties":{"id":"6306011001007","commune":"Palmilla","code":"06306","gse":"D","quintil":"Q2","nse_score":643.2,"educ":10.2,"educ_score":480.0,"hacin":1.586,"hacin_class":"Hacinamiento Medio","hacin_score":726.3,"auto_score":166.7,"n_per":46,"n_hog":16,"source_year":2024},"geometry":{"type":"Polygon","coordinates":[[[-71.3634658639999,-34.5823563741178],[-71.3659181609999,-34.5834411621178],[-71.3660648319999,-34.5830380641178],[-71.3649691059999,-34.5824484691178],[-71.3637116159999,-34.5819896041179],[-71.3634658639999,-34.5823563741178]]]}},{"type":"Feature","properties":{"id":"6306011001008","commune":"Palmilla","code":"06306","gse":"C3","quintil":"Q3","nse_score":687.4,"educ":11.7,"educ_score":580.0,"hacin":1.247,"hacin_class":"Hacinamiento Leve","hacin_score":798.6,"auto_score":197.4,"n_per":96,"n_hog":36,"source_year":2024},"geometry":{"type":"Polygon","coordinates":[[[-71.3640064479999,-34.5831789071178],[-71.3631330199999,-34.5854101331178],[-71.3627070169999,-34.5852257821178],[-71.3625088869999,-34.5858258561178],[-71.364736133,-34.5867972301178],[-71.3657175559999,-34.5840015511178],[-71.3653137829999,-34.5838538611179],[-71.3652524089999,-34.5840217421178],[-71.3651265119999,-34.5840241831178],[-71.3653664989999,-34.5836028031179],[-71.3653254129999,-34.5838197771178],[-71.3657325879999,-34.5839590091178],[-71.3658916959999,-34.5835087401178],[-71.3634256759999,-34.5824514871179],[-71.3632720409999,-34.5828449911178],[-71.3640064479999,-34.5831789071178]]]}},{"type":"Feature","properties":{"id":"6306011001009","commune":"Palmilla","code":"06306","gse":"C3","quintil":"Q2","nse_score":676.0,"educ":11.4,"educ_score":560.0,"hacin":1.35,"hacin_class":"Hacinamiento Leve","hacin_score":776.6,"auto_score":428.6,"n_per":108,"n_hog":42,"source_year":2024},"geometry":{"type":"Polygon","coordinates":[[[-71.3615475529999,-34.5847650341178],[-71.3612908659999,-34.5854193841178],[-71.3614145729999,-34.5854790901178],[-71.3612565869999,-34.5859406941178],[-71.3560069569999,-34.5836530281179],[-71.3561907619999,-34.5831781191179],[-71.3552092439999,-34.5827474581178],[-71.3548749029999,-34.5834328511178],[-71.3530752719999,-34.5826811761178],[-71.3524701089999,-34.5831094021178],[-71.3642524129999,-34.5881848001178],[-71.3647172959999,-34.5868478941178],[-71.3624564389999,-34.5859024911178],[-71.3624298199999,-34.5856783371178],[-71.3626288769999,-34.5852207871178],[-71.3615475529999,-34.5847650341178]]]}},{"type":"Feature","properties":{"id":"6306011001010","commune":"Palmilla","code":"06306","gse":"C2","quintil":"Q3","nse_score":718.8,"educ":10.2,"educ_score":480.0,"hacin":1.273,"hacin_class":"Hacinamiento Leve","hacin_score":793.0,"auto_score":277.8,"n_per":28,"n_hog":9,"source_year":2024},"geometry":{"type":"Polygon","coordinates":[[[-71.3524367369999,-34.5831372471179],[-71.3521057039999,-34.5832814931179],[-71.3518098059999,-34.5837402011178],[-71.3534463709999,-34.5843336251178],[-71.3538875079999,-34.5837823601178],[-71.3535627859999,-34.5841477101179],[-71.3534471589999,-34.5841652711179],[-71.3538295989999,-34.5837533281178],[-71.3524367369999,-34.5831372471179]]]}},{"type":"Feature","properties":{"id":"6306011001011","commune":"Palmilla","code":"06306","gse":"C3","quintil":"Q2","nse_score":671.7,"educ":11.2,"educ_score":546.7,"hacin":1.336,"hacin_class":"Hacinamiento Leve","hacin_score":779.6,"auto_score":232.9,"n_per":183,"n_hog":71,"source_year":2024},"geometry":{"type":"Polygon","coordinates":[[[-71.3584665339999,-34.5921359551177],[-71.3599612549999,-34.5919779011178],[-71.3601548569999,-34.5927208021177],[-71.3640735289999,-34.5921279261177],[-71.3640685259999,-34.5914205041177],[-71.3638468859999,-34.5914053491178],[-71.3640697769999,-34.5913863451177],[-71.3640844279999,-34.5909863421178],[-71.3637477509999,-34.5910441841177],[-71.3640757389999,-34.5909572451177],[-71.3640849789999,-34.5905896151178],[-71.3629954119999,-34.5907376431178],[-71.3640801279999,-34.5905571921178],[-71.3641409759999,-34.5893401881178],[-71.3633703179999,-34.5893590841178],[-71.3641446569999,-34.5893003191178],[-71.3642350259999,-34.5882439241178],[-71.3612152439999,-34.5869652111178],[-71.3611092829999,-34.5881171781178],[-71.3610510469999,-34.5881154221178],[-71.3611620009999,-34.5869543021178],[-71.3586636139999,-34.5858949481178],[-71.358605801,-34.5873142641178],[-71.3592234239999,-34.5874817341178],[-71.3586057929999,-34.5873556511178],[-71.3584665339999,-34.5921359551177]]]}},{"type":"Feature","properties":{"id":"6306011001012","commune":"Palmilla","code":"06306","gse":"D","quintil":"Q2","nse_score":649.5,"educ":9.1,"educ_score":406.7,"hacin":1.271,"hacin_class":"Hacinamiento Leve","hacin_score":793.4,"auto_score":69.8,"n_per":136,"n_hog":42,"source_year":2024},"geometry":{"type":"Polygon","coordinates":[[[-71.3558437919999,-34.5888509501178],[-71.3561612489999,-34.5887992311178],[-71.3560051599999,-34.5870772691178],[-71.3561096809999,-34.5869945591178],[-71.3585076119999,-34.5879673081178],[-71.3585475739999,-34.5876157451178],[-71.3556286539999,-34.5863942411178],[-71.3558437919999,-34.5888509501178]]]}},{"type":"Feature","properties":{"id":"6306011001013","commune":"Palmilla","code":"06306","gse":"D","quintil":"Q2","nse_score":657.9,"educ":9.2,"educ_score":413.3,"hacin":1.494,"hacin_class":"Hacinamiento Leve","hacin_score":746.0,"auto_score":218.8,"n_per":118,"n_hog":34,"source_year":2024},"geometry":{"type":"Polygon","coordinates":[[[-71.3562257409999,-34.5887847671178],[-71.3567047049999,-34.5887761371178],[-71.3565879069999,-34.5872598041178],[-71.356105065,-34.5870605851178],[-71.3562257409999,-34.5887847671178]]]}},{"type":"Feature","properties":{"id":"6306011001015","commune":"Palmilla","code":"06306","gse":"C3","quintil":"Q2","nse_score":677.1,"educ":10.2,"educ_score":480.0,"hacin":1.121,"hacin_class":"Hacinamiento Leve","hacin_score":825.3,"auto_score":250.0,"n_per":37,"n_hog":15,"source_year":2024},"geometry":{"type":"Polygon","coordinates":[[[-71.3577527349999,-34.5877230911178],[-71.3577919399999,-34.5887298811178],[-71.3582491179999,-34.5887169331178],[-71.3582078599999,-34.5879191511178],[-71.3577527349999,-34.5877230911178]]]}},{"type":"Feature","properties":{"id":"6306011001016","commune":"Palmilla","code":"06306","gse":"C3","quintil":"Q2","nse_score":673.1,"educ":10.6,"educ_score":506.7,"hacin":1.46,"hacin_class":"Hacinamiento Leve","hacin_score":753.3,"auto_score":222.2,"n_per":54,"n_hog":17,"source_year":2024},"geometry":{"type":"Polygon","coordinates":[[[-71.3577371639999,-34.5887281141178],[-71.3576618459999,-34.5878242951178],[-71.3572154849999,-34.5878349411178],[-71.3572912429999,-34.5887549631178],[-71.3577371639999,-34.5887281141178]]]}},{"type":"Feature","properties":{"id":"6306011001017","commune":"Palmilla","code":"06306","gse":"E","quintil":"Q1","nse_score":593.6,"educ":11.5,"educ_score":566.7,"hacin":1.436,"hacin_class":"Hacinamiento Leve","hacin_score":758.3,"auto_score":212.1,"n_per":56,"n_hog":18,"source_year":2024},"geometry":{"type":"Polygon","coordinates":[[[-71.3567256869999,-34.5878506271178],[-71.3567521939999,-34.5887724901178],[-71.3572239979999,-34.5887627501178],[-71.3571477549999,-34.5878520511178],[-71.3567256869999,-34.5878506271178]]]}},{"type":"Feature","properties":{"id":"6306011001019","commune":"Palmilla","code":"06306","gse":"C3","quintil":"Q3","nse_score":697.6,"educ":10.7,"educ_score":513.3,"hacin":1.204,"hacin_class":"Hacinamiento Leve","hacin_score":807.5,"auto_score":227.3,"n_per":53,"n_hog":22,"source_year":2024},"geometry":{"type":"Polygon","coordinates":[[[-71.3584999639999,-34.5887742011178],[-71.3558437919999,-34.5888509501178],[-71.3560009969999,-34.5906374501177],[-71.3568846729999,-34.5905868651177],[-71.3569288259999,-34.5901162211178],[-71.3585067379999,-34.5899152851178],[-71.3584999639999,-34.5887742011178]]]}},{"type":"Feature","properties":{"id":"6306011001020","commune":"Palmilla","code":"06306","gse":"E","quintil":"Q1","nse_score":596.5,"educ":9.3,"educ_score":420.0,"hacin":1.278,"hacin_class":"Hacinamiento Leve","hacin_score":792.0,"auto_score":90.9,"n_per":23,"n_hog":11,"source_year":2024},"geometry":{"type":"Polygon","coordinates":[[[-71.3584390189999,-34.5921200861178],[-71.3585097819999,-34.5899958661178],[-71.3569534469999,-34.5901539741177],[-71.3569240719999,-34.5917702131178],[-71.3577570219999,-34.5918999951178],[-71.3578459309999,-34.5922355211178],[-71.3584390189999,-34.5921200861178]]]}},{"type":"Feature","properties":{"id":"6306011001021","commune":"Palmilla","code":"06306","gse":"C3","quintil":"Q2","nse_score":673.6,"educ":10.8,"educ_score":520.0,"hacin":1.396,"hacin_class":"Hacinamiento Leve","hacin_score":766.8,"auto_score":200.0,"n_per":134,"n_hog":48,"source_year":2024},"geometry":{"type":"Polygon","coordinates":[[[-71.3614836109999,-34.5925710291177],[-71.3615571699999,-34.5935901801177],[-71.3610375739999,-34.5935930171177],[-71.3609119819999,-34.5942472991177],[-71.3596618789999,-34.5942900621177],[-71.36017161,-34.5954547541177],[-71.3610090399999,-34.5955528751177],[-71.3613421659999,-34.5939855731177],[-71.36111668,-34.5939379111177],[-71.3639671749999,-34.5939249681177],[-71.3640528559999,-34.5928829491177],[-71.3637304479999,-34.5928595461177],[-71.3640535999999,-34.5928466361177],[-71.364066497,-34.5921573291177],[-71.3614836109999,-34.5925710291177]]]}},{"type":"Feature","properties":{"id":"6306011001023","commune":"Palmilla","code":"06306","gse":"ABC1","quintil":"Q5","nse_score":894.1,"educ":17.3,"educ_score":953.3,"hacin":1.667,"hacin_class":"Hacinamiento Medio","hacin_score":709.2,"auto_score":722.2,"n_per":25,"n_hog":9,"source_year":2024},"geometry":{"type":"Polygon","coordinates":[[[-71.3655663759999,-34.5937857621177],[-71.3646785919999,-34.5934385041177],[-71.3645318419999,-34.5932061171177],[-71.3643251329999,-34.5932760971177],[-71.3641505459999,-34.5935624621178],[-71.3655132219999,-34.5941147321177],[-71.3658953719999,-34.5935674031177],[-71.3646020569999,-34.5930293601177],[-71.3647165989999,-34.5933939871177],[-71.3655663759999,-34.5937857621177]]]}},{"type":"Feature","properties":{"id":"6306011001024","commune":"Palmilla","code":"06306","gse":"C2","quintil":"Q4","nse_score":728.2,"educ":12.0,"educ_score":600.0,"hacin":1.111,"hacin_class":"Hacinamiento Leve","hacin_score":827.4,"auto_score":0.0,"n_per":10,"n_hog":5,"source_year":2024},"geometry":{"type":"Polygon","coordinates":[[[-71.3666505429999,-34.5953730161177],[-71.3672685729999,-34.5945687051177],[-71.3660974569999,-34.5943114621177],[-71.3641435009999,-34.5936149151177],[-71.3638473139999,-34.5949226531177],[-71.3666505429999,-34.5953730161177]]]}},{"type":"Feature","properties":{"id":"6306011001026","commune":"Palmilla","code":"06306","gse":"C3","quintil":"Q3","nse_score":683.9,"educ":10.7,"educ_score":513.3,"hacin":1.341,"hacin_class":"Hacinamiento Leve","hacin_score":778.5,"auto_score":300.0,"n_per":59,"n_hog":22,"source_year":2024},"geometry":{"type":"Polygon","coordinates":[[[-71.3628637899999,-34.5952800521177],[-71.3634544009999,-34.5953606511177],[-71.3637267759999,-34.5939747301177],[-71.3631323499999,-34.5939836201177],[-71.3628637899999,-34.5952800521177]]]}},{"type":"Feature","properties":{"id":"6306011001027","commune":"Palmilla","code":"06306","gse":"D","quintil":"Q1","nse_score":614.1,"educ":9.5,"educ_score":433.3,"hacin":1.512,"hacin_class":"Hacinamiento Medio","hacin_score":742.1,"auto_score":204.5,"n_per":62,"n_hog":23,"source_year":2024},"geometry":{"type":"Polygon","coordinates":[[[-71.3620431449999,-34.5951618291177],[-71.3627905379999,-34.5952762121177],[-71.3630654559999,-34.5939796561177],[-71.3622801799999,-34.5939869791177],[-71.3620431449999,-34.5951618291177]]]}},{"type":"Feature","properties":{"id":"6306011001028","commune":"Palmilla","code":"06306","gse":"D","quintil":"Q1","nse_score":610.6,"educ":9.5,"educ_score":433.3,"hacin":1.743,"hacin_class":"Hacinamiento Medio","hacin_score":693.0,"auto_score":88.2,"n_per":61,"n_hog":17,"source_year":2024},"geometry":{"type":"Polygon","coordinates":[[[-71.3611939909999,-34.5950447201177],[-71.3619636849999,-34.5951633681177],[-71.3622038999999,-34.5939884571177],[-71.3614183999999,-34.5939878881177],[-71.3611939909999,-34.5950447201177]]]}},{"type":"Feature","properties":{"id":"6306011001029","commune":"Palmilla","code":"06306","gse":"D","quintil":"Q1","nse_score":620.7,"educ":10.2,"educ_score":480.0,"hacin":1.482,"hacin_class":"Hacinamiento Leve","hacin_score":748.6,"auto_score":208.3,"n_per":80,"n_hog":24,"source_year":2024},"geometry":{"type":"Polygon","coordinates":[[[-71.3631881469999,-34.5983494621177],[-71.3642241919999,-34.5984180491176],[-71.3644646499999,-34.5981147631177],[-71.3649620869999,-34.5951634911177],[-71.3638360579999,-34.5949759401177],[-71.3631881469999,-34.5983494621177]]]}},{"type":"Feature","properties":{"id":"6306011001030","commune":"Palmilla","code":"06306","gse":"C3","quintil":"Q3","nse_score":691.9,"educ":11.6,"educ_score":573.3,"hacin":1.278,"hacin_class":"Hacinamiento Leve","hacin_score":792.0,"auto_score":187.5,"n_per":23,"n_hog":8,"source_year":2024},"geometry":{"type":"Polygon","coordinates":[[[-71.3611851409999,-34.5950940261177],[-71.3610749879999,-34.5955618961177],[-71.3618480339999,-34.5956836771177],[-71.36194588,-34.5952084201177],[-71.3611851409999,-34.5950940261177]]]}},{"type":"Feature","properties":{"id":"6306011001031","commune":"Palmilla","code":"06306","gse":"C3","quintil":"Q2","nse_score":680.5,"educ":11.7,"educ_score":580.0,"hacin":1.629,"hacin_class":"Hacinamiento Medio","hacin_score":717.3,"auto_score":309.5,"n_per":57,"n_hog":21,"source_year":2024},"geometry":{"type":"Polygon","coordinates":[[[-71.3666076489999,-34.5954301311177],[-71.3650400409999,-34.5951821321177],[-71.3646079059999,-34.5979565711177],[-71.3666076489999,-34.5954301311177]]]}},{"type":"Feature","properties":{"id":"6306011001032","commune":"Palmilla","code":"06306","gse":"C3","quintil":"Q3","nse_score":701.8,"educ":10.8,"educ_score":520.0,"hacin":1.222,"hacin_class":"Hacinamiento Leve","hacin_score":803.8,"auto_score":421.1,"n_per":55,"n_hog":19,"source_year":2024},"geometry":{"type":"Polygon","coordinates":[[[-71.3634327059999,-34.5954214611177],[-71.3620254889999,-34.5952121371177],[-71.3619182569999,-34.5956928361177],[-71.3633365479999,-34.5959151921177],[-71.3634327059999,-34.5954214611177]]]}},{"type":"Feature","properties":{"id":"6306011001036","commune":"Palmilla","code":"06306","gse":"C3","quintil":"Q2","nse_score":676.1,"educ":10.9,"educ_score":526.7,"hacin":1.364,"hacin_class":"Hacinamiento Leve","hacin_score":773.7,"auto_score":200.0,"n_per":30,"n_hog":15,"source_year":2024},"geometry":{"type":"Polygon","coordinates":[[[-71.3607423569999,-34.5972738351177],[-71.3614714059999,-34.5975137241177],[-71.3616997379999,-34.5963422611177],[-71.360957116,-34.5962090441177],[-71.3607423569999,-34.5972738351177]]]}},{"type":"Feature","properties":{"id":"6306011001037","commune":"Palmilla","code":"06306","gse":"D","quintil":"Q2","nse_score":647.0,"educ":10.4,"educ_score":493.3,"hacin":1.492,"hacin_class":"Hacinamiento Leve","hacin_score":746.3,"auto_score":258.1,"n_per":100,"n_hog":31,"source_year":2024},"geometry":{"type":"Polygon","coordinates":[[[-71.3615520529999,-34.5975324741177],[-71.3622668369999,-34.5977523221177],[-71.3625459809999,-34.5964700361177],[-71.3617788529999,-34.5963510271177],[-71.3615520529999,-34.5975324741177]]]}},{"type":"Feature","properties":{"id":"6306011001038","commune":"Palmilla","code":"06306","gse":"C3","quintil":"Q2","nse_score":680.0,"educ":11.2,"educ_score":546.7,"hacin":1.333,"hacin_class":"Hacinamiento Leve","hacin_score":780.1,"auto_score":250.0,"n_per":56,"n_hog":21,"source_year":2024},"geometry":{"type":"Polygon","coordinates":[[[-71.3623466339999,-34.5977851011177],[-71.3629164869999,-34.5979731441177],[-71.3631959789999,-34.5965569841177],[-71.3626169929999,-34.5964858221176],[-71.3623466339999,-34.5977851011177]]]}},{"type":"Feature","properties":{"id":"6306011001039","commune":"Palmilla","code":"06306","gse":"D","quintil":"Q2","nse_score":646.2,"educ":11.9,"educ_score":593.3,"hacin":1.727,"hacin_class":"Hacinamiento Medio","hacin_score":696.3,"auto_score":142.9,"n_per":19,"n_hog":7,"source_year":2024},"geometry":{"type":"Polygon","coordinates":[[[-71.3630140099999,-34.6002660701176],[-71.3641603839999,-34.5985107521176],[-71.3641533949999,-34.5984683141177],[-71.3631439659999,-34.5984112581177],[-71.3627538079999,-34.6002644261177],[-71.3630140099999,-34.6002660701176]]]}},{"type":"Feature","properties":{"id":"6306011001040","commune":"Palmilla","code":"06306","gse":"C3","quintil":"Q3","nse_score":704.8,"educ":12.1,"educ_score":606.7,"hacin":1.447,"hacin_class":"Hacinamiento Leve","hacin_score":755.9,"auto_score":352.9,"n_per":55,"n_hog":17,"source_year":2024},"geometry":{"type":"Polygon","coordinates":[[[-71.3643647789999,-34.5991591061177],[-71.3638439359999,-34.5989857001177],[-71.3632897939999,-34.5998967541176],[-71.3640848249999,-34.6001197471177],[-71.3643633329999,-34.6000282721176],[-71.3643716369999,-34.6001566021176],[-71.3638599259999,-34.6001144391176],[-71.3632755659999,-34.5999290651176],[-71.3630576819999,-34.6002562291177],[-71.3654163379999,-34.6009180411176],[-71.3655693569999,-34.6003081331177],[-71.3640697019999,-34.5997638061176],[-71.3643647789999,-34.5991591061177]]]}},{"type":"Feature","properties":{"id":"6306011001042","commune":"Palmilla","code":"06306","gse":"D","quintil":"Q1","nse_score":632.6,"educ":9.8,"educ_score":453.3,"hacin":1.454,"hacin_class":"Hacinamiento Leve","hacin_score":754.4,"auto_score":125.0,"n_per":16,"n_hog":4,"source_year":2024},"geometry":{"type":"Polygon","coordinates":[[[-71.3660808359999,-34.6016403531176],[-71.3665024919999,-34.6006306671177],[-71.3656225219999,-34.6003238691177],[-71.3654645189999,-34.6009598481177],[-71.3657203269999,-34.6015244371176],[-71.3660808359999,-34.6016403531176]]]}},{"type":"Feature","properties":{"id":"6306011001001","commune":"Palmilla","code":"06306","gse":"C2","quintil":"Q3","nse_score":725.9,"educ":12.6,"educ_score":640.0,"hacin":1.556,"hacin_class":"Hacinamiento Medio","hacin_score":732.9,"auto_score":250.0,"n_per":14,"n_hog":4,"source_year":2024},"geometry":{"type":"MultiPolygon","coordinates":[[[[-71.3674841619999,-34.5828877351178],[-71.3680039229999,-34.5815137381179],[-71.3666988659999,-34.5814435131179],[-71.3662925149999,-34.5826075911178],[-71.3674841619999,-34.5828877351178]]],[[[-71.3660891089999,-34.5812761631179],[-71.3666155259999,-34.5814634601179],[-71.366829101,-34.5809045051179],[-71.3662742269999,-34.5806904831179],[-71.3660891089999,-34.5812761631179]]]]}},{"type":"Feature","properties":{"id":"6306011001033","commune":"Palmilla","code":"06306","gse":"C3","quintil":"Q2","nse_score":668.6,"educ":10.3,"educ_score":486.7,"hacin":1.427,"hacin_class":"Hacinamiento Leve","hacin_score":760.1,"auto_score":218.8,"n_per":334,"n_hog":103,"source_year":2024},"geometry":{"type":"MultiPolygon","coordinates":[[[[-71.3584856939999,-34.6001365411176],[-71.3620770489999,-34.6013877141176],[-71.3624763199999,-34.6007771891176],[-71.3587415219999,-34.5994781491176],[-71.3584856939999,-34.6001365411176]]],[[[-71.3602608739999,-34.5969608461177],[-71.3595010749999,-34.5969333521177],[-71.3594954149999,-34.5974378421177],[-71.3597632629999,-34.5974839181177],[-71.359946325,-34.5983488031177],[-71.3596413239999,-34.5988702531176],[-71.3587304249999,-34.5985872891177],[-71.3585367299999,-34.5993048431176],[-71.3625120669999,-34.6007201031177],[-71.3628571849999,-34.5992988961176],[-71.3620079309999,-34.5991657651177],[-71.3618314989999,-34.5990456151177],[-71.3618494659999,-34.5988469091176],[-71.3600433349999,-34.5982510291176],[-71.361867001,-34.5987717781177],[-71.3619181029999,-34.5983545621177],[-71.3601145329999,-34.5977098571177],[-71.3619513579999,-34.5982791271177],[-71.3619175979999,-34.5990309401176],[-71.3628789239999,-34.5992334391176],[-71.3635229779999,-34.5960114601177],[-71.3633846859999,-34.5959881251177],[-71.3629836089999,-34.5980705281177],[-71.3601791749999,-34.5971514201177],[-71.3606758369999,-34.5972567521177],[-71.3610069499999,-34.5956179511177],[-71.36017161,-34.5954547541177],[-71.3604288199999,-34.5960341291177],[-71.3602608739999,-34.5969608461177]]]]}},{"type":"Feature","properties":{"id":"6306011001003","commune":"Palmilla","code":"06306","gse":"C3","quintil":"Q3","nse_score":699.2,"educ":10.8,"educ_score":520.0,"hacin":1.482,"hacin_class":"Hacinamiento Leve","hacin_score":748.6,"auto_score":444.4,"n_per":40,"n_hog":9,"source_year":2024},"geometry":{"type":"MultiPolygon","coordinates":[[[[-71.3640997659999,-34.5816655991179],[-71.3647470559999,-34.5818930231179],[-71.364914472,-34.5815064461179],[-71.3642846809999,-34.5812689251179],[-71.3640997659999,-34.5816655991179]]],[[[-71.3638572879999,-34.5815804031178],[-71.364055602,-34.5816500821179],[-71.3642409699999,-34.5812524401179],[-71.3639944799999,-34.5811594781179],[-71.3638572879999,-34.5815804031178]]]]}},{"type":"Feature","properties":{"id":"6306011001044","commune":"Palmilla","code":"06306","gse":"C3","quintil":"Q2","nse_score":674.9,"educ":11.1,"educ_score":540.0,"hacin":1.467,"hacin_class":"Hacinamiento Leve","hacin_score":751.8,"auto_score":250.0,"n_per":22,"n_hog":6,"source_year":2024},"geometry":{"type":"MultiPolygon","coordinates":[[[[-71.3658311209999,-34.6015982191176],[-71.365498913,-34.6022641741176],[-71.3659068179999,-34.6020424801176],[-71.3667499739999,-34.6022120241176],[-71.3675641229999,-34.6021803661176],[-71.3658311209999,-34.6015982191176]]],[[[-71.3626778149999,-34.6008317301176],[-71.3642194429999,-34.6015219091176],[-71.3640493899999,-34.6017923951176],[-71.3654530729999,-34.6022805941176],[-71.3658013009999,-34.6015881911176],[-71.3648730919999,-34.6012022001176],[-71.3643220739999,-34.6013316321176],[-71.364880249,-34.6011708891176],[-71.3656289079999,-34.6014881921176],[-71.3654204669999,-34.6009878881177],[-71.3631169899999,-34.6003456181177],[-71.3626778149999,-34.6008317301176]]]]}},{"type":"Feature","properties":{"id":"6306031001001","commune":"Palmilla","code":"06306","gse":"E","quintil":"Q1","nse_score":595.9,"educ":9.4,"educ_score":426.7,"hacin":1.36,"hacin_class":"Hacinamiento Leve","hacin_score":774.5,"auto_score":107.1,"n_per":34,"n_hog":12,"source_year":2024},"geometry":{"type":"Polygon","coordinates":[[[-71.3745739749999,-34.5229443741186],[-71.3760070419999,-34.5228762041185],[-71.3766739359999,-34.5219994451186],[-71.3748133559999,-34.5211048441185],[-71.3739604169999,-34.5210352081186],[-71.3743001149999,-34.5219395441186],[-71.3743674749999,-34.5229520801185],[-71.3745304449999,-34.5229459981186],[-71.3745188109999,-34.5223931121185],[-71.3745739749999,-34.5229443741186]]]}},{"type":"Feature","properties":{"id":"6306031001002","commune":"Palmilla","code":"06306","gse":"C3","quintil":"Q2","nse_score":668.6,"educ":10.4,"educ_score":493.3,"hacin":1.17,"hacin_class":"Hacinamiento Leve","hacin_score":814.9,"auto_score":182.9,"n_per":117,"n_hog":42,"source_year":2024},"geometry":{"type":"Polygon","coordinates":[[[-71.3734043129999,-34.5216696111186],[-71.3727143259999,-34.5217939561186],[-71.3727947209999,-34.5230558211186],[-71.3743024909999,-34.5229588911185],[-71.3742356189999,-34.5219486611186],[-71.3738912349999,-34.5210370341186],[-71.3718015899999,-34.5210695071186],[-71.3718436809999,-34.5217409841186],[-71.3734043129999,-34.5216696111186]]]}},{"type":"Feature","properties":{"id":"6306031001003","commune":"Palmilla","code":"06306","gse":"C3","quintil":"Q2","nse_score":675.3,"educ":11.3,"educ_score":553.3,"hacin":1.368,"hacin_class":"Hacinamiento Leve","hacin_score":772.7,"auto_score":111.1,"n_per":26,"n_hog":8,"source_year":2024},"geometry":{"type":"Polygon","coordinates":[[[-71.3718470829999,-34.5217951191186],[-71.3718738859999,-34.5222206761186],[-71.3726962039999,-34.5221928201185],[-71.3726501909999,-34.5218066921185],[-71.3718470829999,-34.5217951191186]]]}},{"type":"Feature","properties":{"id":"6306031001004","commune":"Palmilla","code":"06306","gse":"C3","quintil":"Q3","nse_score":691.4,"educ":11.8,"educ_score":586.7,"hacin":1.487,"hacin_class":"Hacinamiento Leve","hacin_score":747.4,"auto_score":237.5,"n_per":116,"n_hog":38,"source_year":2024},"geometry":{"type":"Polygon","coordinates":[[[-71.3706343259999,-34.5236170801185],[-71.3703502969999,-34.5236149481185],[-71.3703472029999,-34.5247103481185],[-71.3707457339999,-34.5247185441185],[-71.3708084049999,-34.5237364341185],[-71.3718840949999,-34.5236426461185],[-71.3717634699999,-34.5218526021186],[-71.3704961079999,-34.5218893341185],[-71.3706343259999,-34.5236170801185]]]}},{"type":"Feature","properties":{"id":"6306031001005","commune":"Palmilla","code":"06306","gse":"D","quintil":"Q1","nse_score":634.2,"educ":9.5,"educ_score":433.3,"hacin":1.383,"hacin_class":"Hacinamiento Leve","hacin_score":769.5,"auto_score":83.3,"n_per":83,"n_hog":30,"source_year":2024},"geometry":{"type":"Polygon","coordinates":[[[-71.3745889329999,-34.5246459871185],[-71.3765154649999,-34.5239386041186],[-71.3766282659999,-34.5237515931185],[-71.3773703369999,-34.5233449761185],[-71.3774770199999,-34.5228470541186],[-71.3773838449999,-34.5224431781186],[-71.3767348449999,-34.5220207511186],[-71.3764237069999,-34.5224211371185],[-71.3768766359999,-34.5227491801186],[-71.3769167909999,-34.5232855471186],[-71.3759514479999,-34.5236504231185],[-71.3746347699999,-34.5239443101185],[-71.3745889329999,-34.5246459871185]]]}},{"type":"Feature","properties":{"id":"6306031001006","commune":"Palmilla","code":"06306","gse":"E","quintil":"Q1","nse_score":603.8,"educ":10.3,"educ_score":486.7,"hacin":1.5,"hacin_class":"Hacinamiento Medio","hacin_score":744.7,"auto_score":142.9,"n_per":12,"n_hog":5,"source_year":2024},"geometry":{"type":"Polygon","coordinates":[[[-71.3718772869999,-34.5222746811186],[-71.3719281449999,-34.5230827841185],[-71.3727294279999,-34.5230578521186],[-71.3727004329999,-34.5222467971185],[-71.3718772869999,-34.5222746811186]]]}},{"type":"Feature","properties":{"id":"6306031001007","commune":"Palmilla","code":"06306","gse":"D","quintil":"Q1","nse_score":633.2,"educ":9.9,"educ_score":460.0,"hacin":1.347,"hacin_class":"Hacinamiento Leve","hacin_score":777.2,"auto_score":200.0,"n_per":66,"n_hog":23,"source_year":2024},"geometry":{"type":"Polygon","coordinates":[[[-71.3760954189999,-34.5228543071185],[-71.3764998289999,-34.5234333681185],[-71.3768948679999,-34.5231379021185],[-71.3767797679999,-34.5227184691185],[-71.3763863569999,-34.5224675661185],[-71.3760954189999,-34.5228543071185]]]}},{"type":"Feature","properties":{"id":"6306031001008","commune":"Palmilla","code":"06306","gse":"C3","quintil":"Q3","nse_score":698.1,"educ":10.6,"educ_score":506.7,"hacin":1.267,"hacin_class":"Hacinamiento Leve","hacin_score":794.3,"auto_score":214.3,"n_per":38,"n_hog":15,"source_year":2024},"geometry":{"type":"Polygon","coordinates":[[[-71.3756284149999,-34.5231797081185],[-71.3759540529999,-34.5235923931185],[-71.3764378529999,-34.5234526031186],[-71.3760644139999,-34.5229020781186],[-71.3756284149999,-34.5231797081185]]]}},{"type":"Feature","properties":{"id":"6306031001010","commune":"Palmilla","code":"06306","gse":"D","quintil":"Q2","nse_score":649.4,"educ":10.6,"educ_score":506.7,"hacin":1.344,"hacin_class":"Hacinamiento Leve","hacin_score":777.9,"auto_score":300.0,"n_per":43,"n_hog":16,"source_year":2024},"geometry":{"type":"Polygon","coordinates":[[[-71.3731478059999,-34.5232278601186],[-71.3732363849999,-34.5243717761186],[-71.3745515129999,-34.5243199771185],[-71.3745566449999,-34.5229991521186],[-71.3731478059999,-34.5232278601186]]]}},{"type":"Feature","properties":{"id":"6306031001013","commune":"Palmilla","code":"06306","gse":"E","quintil":"Q1","nse_score":589.2,"educ":9.5,"educ_score":433.3,"hacin":1.456,"hacin_class":"Hacinamiento Leve","hacin_score":754.0,"auto_score":206.9,"n_per":83,"n_hog":26,"source_year":2024},"geometry":{"type":"Polygon","coordinates":[[[-71.3746309949999,-34.5236578361185],[-71.3746339979999,-34.5238884741185],[-71.3758887149999,-34.5236084871185],[-71.3755717949999,-34.5232068501185],[-71.3746309949999,-34.5236578361185]]]}},{"type":"Feature","properties":{"id":"6306031001014","commune":"Palmilla","code":"06306","gse":"C2","quintil":"Q4","nse_score":734.6,"educ":11.6,"educ_score":573.3,"hacin":1.0,"hacin_class":"Hacinamiento Leve","hacin_score":851.1,"auto_score":0.0,"n_per":9,"n_hog":4,"source_year":2024},"geometry":{"type":"Polygon","coordinates":[[[-71.3719405669999,-34.5232794721186],[-71.3720617859999,-34.5247061201186],[-71.3731944029999,-34.5246751261185],[-71.3730825619999,-34.5232307941185],[-71.3719405669999,-34.5232794721186]]]}},{"type":"Feature","properties":{"id":"6306031001015","commune":"Palmilla","code":"06306","gse":"D","quintil":"Q1","nse_score":623.4,"educ":9.9,"educ_score":460.0,"hacin":1.535,"hacin_class":"Hacinamiento Medio","hacin_score":737.3,"auto_score":136.4,"n_per":66,"n_hog":23,"source_year":2024},"geometry":{"type":"Polygon","coordinates":[[[-71.3699259249999,-34.5247008731185],[-71.3702818679999,-34.5247089351185],[-71.3702852679999,-34.5236089731186],[-71.3698979319999,-34.5235733811185],[-71.3699259249999,-34.5247008731185]]]}},{"type":"Feature","properties":{"id":"6306031001016","commune":"Palmilla","code":"06306","gse":"C3","quintil":"Q3","nse_score":692.8,"educ":12.0,"educ_score":600.0,"hacin":1.667,"hacin_class":"Hacinamiento Medio","hacin_score":709.2,"auto_score":300.0,"n_per":30,"n_hog":10,"source_year":2024},"geometry":{"type":"Polygon","coordinates":[[[-71.3709859849999,-34.5247212921185],[-71.3708039589999,-34.5247701131185],[-71.3708111669999,-34.5249592721185],[-71.3712727229999,-34.5251044941185],[-71.3716564629999,-34.5255873891185],[-71.3720703839999,-34.5256308191185],[-71.3718892329999,-34.5236883061185],[-71.3708418339999,-34.5237797041185],[-71.3708110649999,-34.5247195201185],[-71.3709859849999,-34.5247212921185]]]}},{"type":"Feature","properties":{"id":"6306031001017","commune":"Palmilla","code":"06306","gse":"E","quintil":"Q1","nse_score":584.4,"educ":8.6,"educ_score":373.3,"hacin":1.474,"hacin_class":"Hacinamiento Leve","hacin_score":750.3,"auto_score":150.0,"n_per":28,"n_hog":10,"source_year":2024},"geometry":{"type":"Polygon","coordinates":[[[-71.3732405639999,-34.5244257501185],[-71.3733133459999,-34.5253619481185],[-71.3742714979999,-34.5252941181185],[-71.3744765889999,-34.5251295371185],[-71.3745462059999,-34.5243743241186],[-71.3732405639999,-34.5244257501185]]]}},{"type":"Feature","properties":{"id":"6306031001018","commune":"Palmilla","code":"06306","gse":"C3","quintil":"Q3","nse_score":711.9,"educ":12.2,"educ_score":613.3,"hacin":1.476,"hacin_class":"Hacinamiento Leve","hacin_score":749.7,"auto_score":41.7,"n_per":31,"n_hog":12,"source_year":2024},"geometry":{"type":"Polygon","coordinates":[[[-71.3720694959999,-34.5247600161185],[-71.3721875249999,-34.5254827821185],[-71.3732482889999,-34.5253673141185],[-71.3731985949999,-34.5247291171185],[-71.3720694959999,-34.5247600161185]]]}},{"type":"Feature","properties":{"id":"6306031001019","commune":"Palmilla","code":"06306","gse":"D","quintil":"Q2","nse_score":657.2,"educ":10.4,"educ_score":493.3,"hacin":1.32,"hacin_class":"Hacinamiento Leve","hacin_score":783.0,"auto_score":125.0,"n_per":33,"n_hog":12,"source_year":2024},"geometry":{"type":"Polygon","coordinates":[[[-71.3716187119999,-34.5256318961185],[-71.3711484399999,-34.5251036741185],[-71.3708086069999,-34.5250021911185],[-71.3707419179999,-34.5252078081185],[-71.3707452639999,-34.5247726281185],[-71.3703470949999,-34.5247644391185],[-71.3702812239999,-34.5251935501185],[-71.3702817589999,-34.5247630271185],[-71.3699223649999,-34.5247548901185],[-71.3701230299999,-34.5264057791185],[-71.3703719309999,-34.5271296551185],[-71.3722737019999,-34.5267433811185],[-71.3720242249999,-34.5256851331185],[-71.3716187119999,-34.5256318961185]]]}},{"type":"Feature","properties":{"id":"6306031001020","commune":"Palmilla","code":"06306","gse":"D","quintil":"Q1","nse_score":617.0,"educ":10.2,"educ_score":480.0,"hacin":1.214,"hacin_class":"Hacinamiento Leve","hacin_score":805.5,"auto_score":138.9,"n_per":34,"n_hog":16,"source_year":2024},"geometry":{"type":"Polygon","coordinates":[[[-71.3703084819999,-34.5271425831185],[-71.3698135749999,-34.5250468961185],[-71.3673431589999,-34.5256954141185],[-71.3670992589999,-34.5265426471185],[-71.3671899269999,-34.5268869131185],[-71.3631788139999,-34.5277059991185],[-71.3629099099999,-34.5286532461185],[-71.3641058779999,-34.5284063891185],[-71.3639707049999,-34.5280972661185],[-71.3641429999999,-34.5281935311185],[-71.3641492349999,-34.5283975231185],[-71.3703084819999,-34.5271425831185]]]}},{"type":"Feature","properties":{"id":"6306031001022","commune":"Palmilla","code":"06306","gse":"C3","quintil":"Q2","nse_score":680.4,"educ":10.8,"educ_score":520.0,"hacin":1.125,"hacin_class":"Hacinamiento Leve","hacin_score":824.5,"auto_score":75.0,"n_per":54,"n_hog":18,"source_year":2024},"geometry":{"type":"Polygon","coordinates":[[[-71.3713822319999,-34.5284952291185],[-71.3704524049999,-34.5321301091184],[-71.3718636149999,-34.5319656741184],[-71.3720126379999,-34.5308177301185],[-71.3710984109999,-34.5307734391184],[-71.3720167959999,-34.5307909111185],[-71.3721587779999,-34.5298014331185],[-71.3723983919999,-34.5292131291184],[-71.3726561459999,-34.5286920351185],[-71.3732917369999,-34.5279678901185],[-71.3732530219999,-34.5277723931185],[-71.3726572099999,-34.5277349211185],[-71.3722981249999,-34.5268126631185],[-71.3716891059999,-34.5269363651185],[-71.3718592289999,-34.5279668521185],[-71.3713213859999,-34.5281364381185],[-71.3713822319999,-34.5284952291185]]]}},{"type":"Feature","properties":{"id":"6306031001023","commune":"Palmilla","code":"06306","gse":"C3","quintil":"Q2","nse_score":665.0,"educ":11.2,"educ_score":546.7,"hacin":1.25,"hacin_class":"Hacinamiento Leve","hacin_score":797.9,"auto_score":81.4,"n_per":110,"n_hog":40,"source_year":2024},"geometry":{"type":"Polygon","coordinates":[[[-71.370197748,-34.5278637281185],[-71.3700333319999,-34.5272729061185],[-71.3628873829999,-34.5287322071185],[-71.3625870739999,-34.5298085361185],[-71.3693011249999,-34.5285913201185],[-71.3693020599999,-34.5284928441184],[-71.3717512559999,-34.5279941231185],[-71.3718072729999,-34.5274751501185],[-71.3716679329999,-34.5269406651185],[-71.3700756719999,-34.5272642791185],[-71.370197748,-34.5278637281185]]]}},{"type":"Feature","properties":{"id":"6306013048001","commune":"Palmilla","code":"06306","gse":"D","quintil":"Q1","nse_score":636.2,"educ":9.8,"educ_score":453.3,"hacin":1.387,"hacin_class":"Hacinamiento Leve","hacin_score":768.7,"auto_score":121.2,"n_per":86,"n_hog":33,"source_year":2024},"geometry":{"type":"Polygon","coordinates":[[[-71.3619995609999,-34.569810997118],[-71.361831246,-34.570567036118],[-71.3614836249999,-34.571281468118],[-71.3601760749999,-34.572388611118],[-71.3597776929999,-34.573392511118],[-71.359797307,-34.574086312118],[-71.3655883229999,-34.576284099118],[-71.3655693309999,-34.5748547661179],[-71.3619541779999,-34.574114520118],[-71.3601456899999,-34.573564378118],[-71.3600574869999,-34.5733776471179],[-71.3614556009999,-34.571556954118],[-71.3618710099999,-34.570829781118],[-71.362802057,-34.570859569118],[-71.3628077929999,-34.570211558118],[-71.3629495619999,-34.569989890118],[-71.3632163079999,-34.569945365118],[-71.3678494709999,-34.570851330118],[-71.3679838859999,-34.570678018118],[-71.366673294,-34.570392012118],[-71.3680063159999,-34.570645319118],[-71.3681807219999,-34.570391066118],[-71.364460618,-34.569614984118],[-71.3682173349999,-34.570342632118],[-71.3690128409999,-34.569518202118],[-71.36392645,-34.568487108118],[-71.3638211689999,-34.568285292118],[-71.3639377789999,-34.567611514118],[-71.3633943169999,-34.567739745118],[-71.3631565149999,-34.567709398118],[-71.3637339179999,-34.567544718118],[-71.3639597669999,-34.567579966118],[-71.3639979009999,-34.567635204118],[-71.3643781619999,-34.566424974118],[-71.3629222959999,-34.566204547118],[-71.3630699559999,-34.569014951118],[-71.3625127579999,-34.569544123118],[-71.3619995609999,-34.569810997118]]]}},{"type":"Feature","properties":{"id":"6306013048004","commune":"Palmilla","code":"06306","gse":"D","quintil":"Q1","nse_score":634.9,"educ":9.6,"educ_score":440.0,"hacin":1.398,"hacin_class":"Hacinamiento Leve","hacin_score":766.4,"auto_score":184.2,"n_per":137,"n_hog":41,"source_year":2024},"geometry":{"type":"Polygon","coordinates":[[[-71.3698921149999,-34.569806418118],[-71.3689881139999,-34.569666809118],[-71.3680727619999,-34.570694547118],[-71.3697581629999,-34.570402223118],[-71.3698269219999,-34.570727950118],[-71.3677945559999,-34.571097522118],[-71.3675922239999,-34.571336126118],[-71.3701970979999,-34.570908332118],[-71.3700599209999,-34.570142798118],[-71.3728372429999,-34.569629143118],[-71.3726605669999,-34.569015130118],[-71.3701606589999,-34.569490203118],[-71.3698921149999,-34.569806418118]]]}},{"type":"Feature","properties":{"id":"6306013048005","commune":"Palmilla","code":"06306","gse":"C3","quintil":"Q2","nse_score":678.0,"educ":10.8,"educ_score":520.0,"hacin":1.036,"hacin_class":"Hacinamiento Leve","hacin_score":843.4,"auto_score":117.0,"n_per":115,"n_hog":45,"source_year":2024},"geometry":{"type":"Polygon","coordinates":[[[-71.3667984409999,-34.572282719118],[-71.367454575,-34.571390334118],[-71.3639283559999,-34.570643619118],[-71.3674821969999,-34.571340313118],[-71.3678059519999,-34.570916962118],[-71.3630920089999,-34.570020739118],[-71.3628943579999,-34.570222459118],[-71.3628742039999,-34.570903377118],[-71.3619364499999,-34.570878214118],[-71.3615319619999,-34.571591822118],[-71.3601182179999,-34.5734448441179],[-71.361981323,-34.574045926118],[-71.3655901049999,-34.5747847411179],[-71.3661831119999,-34.573271701118],[-71.3632840459999,-34.572671438118],[-71.3662071629999,-34.5732207651179],[-71.3667530009999,-34.572349067118],[-71.3661313449999,-34.5721791321179],[-71.3667984409999,-34.572282719118]]]}},{"type":"Feature","properties":{"id":"6306013048002","commune":"Palmilla","code":"06306","gse":"D","quintil":"Q1","nse_score":621.9,"educ":9.9,"educ_score":460.0,"hacin":1.457,"hacin_class":"Hacinamiento Leve","hacin_score":753.8,"auto_score":88.2,"n_per":51,"n_hog":17,"source_year":2024},"geometry":{"type":"MultiPolygon","coordinates":[[[[-71.3690170589999,-34.569634635118],[-71.3698864059999,-34.569770180118],[-71.3701444579999,-34.569456645118],[-71.3725816389999,-34.569038105118],[-71.3724098009999,-34.568139328118],[-71.3703716089999,-34.568685122118],[-71.3696059779999,-34.569110366118],[-71.3690170589999,-34.569634635118]]],[[[-71.3707663289999,-34.567304813118],[-71.3711655199999,-34.568341154118],[-71.372544795,-34.568034672118],[-71.3720975809999,-34.566989684118],[-71.3707663289999,-34.567304813118]]]]}},{"type":"Feature","properties":{"id":"6306023008001","commune":"Palmilla","code":"06306","gse":"C3","quintil":"Q3","nse_score":691.7,"educ":12.3,"educ_score":620.0,"hacin":1.182,"hacin_class":"Hacinamiento Leve","hacin_score":812.4,"auto_score":100.0,"n_per":13,"n_hog":5,"source_year":2024},"geometry":{"type":"Polygon","coordinates":[[[-71.3765251969999,-34.5967497601177],[-71.3765073609999,-34.5979769731177],[-71.3763558889999,-34.5985118251177],[-71.3754693569999,-34.5995401221177],[-71.3764114379999,-34.5998206921176],[-71.3766420109999,-34.5979916881177],[-71.3767389069999,-34.5978610181177],[-71.3769773959999,-34.5979048721177],[-71.3769799489999,-34.5971826821177],[-71.3770299629999,-34.5979204401177],[-71.3774867239999,-34.5979905141177],[-71.3777062719999,-34.5969012691177],[-71.3765251969999,-34.5967497601177]]]}},{"type":"Feature","properties":{"id":"6306023008002","commune":"Palmilla","code":"06306","gse":"E","quintil":"Q1","nse_score":573.5,"educ":9.2,"educ_score":413.3,"hacin":1.311,"hacin_class":"Hacinamiento Leve","hacin_score":784.9,"auto_score":272.7,"n_per":59,"n_hog":21,"source_year":2024},"geometry":{"type":"Polygon","coordinates":[[[-71.3764528279999,-34.5998329121177],[-71.3772536429999,-34.6000672991176],[-71.3774829319999,-34.5980264331176],[-71.3770259619999,-34.5979567351177],[-71.3769049369999,-34.5983604701176],[-71.3769842409999,-34.5979456981177],[-71.3767089069999,-34.5979284111177],[-71.3764528279999,-34.5998329121177]]]}},{"type":"Feature","properties":{"id":"6306023088001","commune":"Palmilla","code":"06306","gse":"D","quintil":"Q1","nse_score":622.8,"educ":9.8,"educ_score":453.3,"hacin":1.299,"hacin_class":"Hacinamiento Leve","hacin_score":787.5,"auto_score":171.1,"n_per":313,"n_hog":113,"source_year":2024},"geometry":{"type":"Polygon","coordinates":[[[-71.3776334379999,-34.5462010921183],[-71.3750511109999,-34.5497825291182],[-71.3744110729999,-34.5516070641182],[-71.3745849129999,-34.5531227641182],[-71.3755642499999,-34.5562365251181],[-71.3755820649999,-34.5580121951181],[-71.3758988079999,-34.5588038831181],[-71.3768404059999,-34.5603001171181],[-71.3770194209999,-34.5608465631181],[-71.3769940949999,-34.5613924831181],[-71.3764021289999,-34.5624182361181],[-71.3761175519999,-34.5632616641181],[-71.3764780169999,-34.5633418551181],[-71.3770097069999,-34.5620313531181],[-71.3765411439999,-34.5633558981181],[-71.3769682019999,-34.5634509011181],[-71.3772090019999,-34.5633946081181],[-71.3773065789999,-34.5629672351181],[-71.3774477009999,-34.5581929661181],[-71.3765006669999,-34.5582538051181],[-71.3774482769999,-34.5581568611181],[-71.3774570319999,-34.5576091391182],[-71.3765643329999,-34.5575768321181],[-71.3774576079999,-34.5575730871181],[-71.3775495549999,-34.5551916531182],[-71.3754999469999,-34.5552189871182],[-71.3750395049999,-34.5538024161182],[-71.3755313599999,-34.5551712651182],[-71.3763427609999,-34.5551362531182],[-71.3764613139999,-34.5537846881182],[-71.3764082329999,-34.5551345041182],[-71.3775517679999,-34.5551375821181],[-71.377699602,-34.5515426991182],[-71.3765262409999,-34.5515557881182],[-71.3764405589999,-34.5512366221182],[-71.3753839409999,-34.5512216891182],[-71.3751293209999,-34.5511121341182],[-71.3750774889999,-34.5509902111182],[-71.3751782969999,-34.5501286141183],[-71.3752692039999,-34.5499310271182],[-71.375178263,-34.5511000831182],[-71.3764530459999,-34.5512016601182],[-71.3765556019999,-34.5515204121182],[-71.3777010919999,-34.5515066271182],[-71.3778426289999,-34.5480592831182],[-71.3766995649999,-34.5479717651183],[-71.3778441059999,-34.5480232141183],[-71.3779523919999,-34.5463210581183],[-71.3776334379999,-34.5462010921183]]]}},{"type":"Feature","properties":{"id":"6306023088002","commune":"Palmilla","code":"06306","gse":"C3","quintil":"Q2","nse_score":668.7,"educ":9.8,"educ_score":453.3,"hacin":1.313,"hacin_class":"Hacinamiento Leve","hacin_score":784.4,"auto_score":104.2,"n_per":130,"n_hog":48,"source_year":2024},"geometry":{"type":"Polygon","coordinates":[[[-71.3775889979999,-34.5583062461181],[-71.3784383859999,-34.5582994451181],[-71.3775324929999,-34.5583415941181],[-71.377523676,-34.5588953511181],[-71.3781032979999,-34.5589476511181],[-71.377523101,-34.5589314081181],[-71.3775086469999,-34.5598390941181],[-71.3781699229999,-34.5599018141181],[-71.3775080729999,-34.5598751661181],[-71.3774967609999,-34.5605855461181],[-71.3787890869999,-34.5606059171181],[-71.3788969999999,-34.5607290751181],[-71.3788921159999,-34.5611105561181],[-71.3790347529999,-34.5612152991181],[-71.3824575129999,-34.5612671711181],[-71.3825133789999,-34.5604748361181],[-71.3825010849999,-34.5612677861181],[-71.3835883199999,-34.5612825881181],[-71.383601273,-34.5602831341181],[-71.3837231809999,-34.5601777351181],[-71.3842946779999,-34.5601633111181],[-71.3836422699999,-34.5602967971181],[-71.3836318919999,-34.5612831681181],[-71.3845547939999,-34.5612954631181],[-71.3845917209999,-34.5599709021181],[-71.378553871,-34.5598841371181],[-71.3790715979999,-34.5465284171183],[-71.3781035779999,-34.5463048601183],[-71.3779511619999,-34.5475378641183],[-71.3775889979999,-34.5583062461181]]]}},{"type":"Feature","properties":{"id":"6306023088003","commune":"Palmilla","code":"06306","gse":"C3","quintil":"Q2","nse_score":681.2,"educ":10.2,"educ_score":480.0,"hacin":1.193,"hacin_class":"Hacinamiento Leve","hacin_score":810.0,"auto_score":217.9,"n_per":105,"n_hog":38,"source_year":2024},"geometry":{"type":"Polygon","coordinates":[[[-71.3861179129999,-34.5613164181181],[-71.3901066189999,-34.5613712961181],[-71.3901027069999,-34.5609801891181],[-71.3894839449999,-34.5609858491181],[-71.3894727199999,-34.5606592511181],[-71.3891660489999,-34.5606565311181],[-71.3894948739999,-34.5606233301181],[-71.3895129209999,-34.5609498481181],[-71.3901082439999,-34.5609443101181],[-71.3902172059999,-34.5608190791181],[-71.3904242099999,-34.5607572861181],[-71.3901664249999,-34.5609084301181],[-71.3901502029999,-34.5613718871181],[-71.3922338829999,-34.5614001491181],[-71.3932295809999,-34.5600885831181],[-71.3846352929999,-34.5599714831181],[-71.3845983669999,-34.5612960431181],[-71.385379983,-34.5613064501181],[-71.3854464799999,-34.5603679441181],[-71.3854235549999,-34.5613070301181],[-71.3860743739999,-34.5613158101181],[-71.3861268709999,-34.5606512081181],[-71.3861179129999,-34.5613164181181]]]}},{"type":"Feature","properties":{"id":"6306023088004","commune":"Palmilla","code":"06306","gse":"D","quintil":"Q2","nse_score":639.3,"educ":10.2,"educ_score":480.0,"hacin":1.361,"hacin_class":"Hacinamiento Leve","hacin_score":774.2,"auto_score":175.0,"n_per":49,"n_hog":20,"source_year":2024},"geometry":{"type":"Polygon","coordinates":[[[-71.3782624469999,-34.5634404431181],[-71.3779024599999,-34.563423384118],[-71.3777208769999,-34.5632360701181],[-71.3773626009999,-34.5632302601181],[-71.3772026139999,-34.5634877441181],[-71.3771876829999,-34.5642183521181],[-71.3776328929999,-34.5649773281181],[-71.3779646089999,-34.5653247441181],[-71.3784898069999,-34.565613602118],[-71.3800724699999,-34.565778707118],[-71.3800325429999,-34.5651572721181],[-71.3797315589999,-34.5650355601181],[-71.378813884,-34.565029603118],[-71.3788248489999,-34.5607181591181],[-71.3774959109999,-34.5606396241181],[-71.3773701499999,-34.5631763231181],[-71.3777428659999,-34.5631837991181],[-71.3779307229999,-34.5633729271181],[-71.3782624469999,-34.5634404431181]]]}},{"type":"Feature","properties":{"id":"6306023088005","commune":"Palmilla","code":"06306","gse":"C3","quintil":"Q3","nse_score":707.8,"educ":12.1,"educ_score":606.7,"hacin":1.208,"hacin_class":"Hacinamiento Leve","hacin_score":806.7,"auto_score":269.2,"n_per":29,"n_hog":12,"source_year":2024},"geometry":{"type":"Polygon","coordinates":[[[-71.385841421,-34.5623557311181],[-71.3915050859999,-34.5623616161181],[-71.3921932969999,-34.5614536831181],[-71.3858970479999,-34.5613674161181],[-71.385841421,-34.5623557311181]]]}},{"type":"Feature","properties":{"id":"6306023088006","commune":"Palmilla","code":"06306","gse":"C2","quintil":"Q3","nse_score":724.7,"educ":12.6,"educ_score":640.0,"hacin":1.417,"hacin_class":"Hacinamiento Leve","hacin_score":762.4,"auto_score":300.0,"n_per":17,"n_hog":5,"source_year":2024},"geometry":{"type":"Polygon","coordinates":[[[-71.3760951239999,-34.5633313381181],[-71.3757348279999,-34.564613776118],[-71.376242122,-34.5647266561181],[-71.3758292839999,-34.5654450111181],[-71.3757475049999,-34.566113736118],[-71.3755388669999,-34.566225982118],[-71.3753424879999,-34.566757201118],[-71.3782649189999,-34.566587780118],[-71.3781507039999,-34.5657168981181],[-71.3784779149999,-34.565692267118],[-71.3776000499999,-34.5651692601181],[-71.3773919719999,-34.564848913118],[-71.3771227979999,-34.5642297911181],[-71.3771840679999,-34.5635518151181],[-71.3760951239999,-34.5633313381181]]]}},{"type":"Feature","properties":{"id":"6306033101002","commune":"Palmilla","code":"06306","gse":"D","quintil":"Q1","nse_score":613.5,"educ":8.9,"educ_score":393.3,"hacin":1.167,"hacin_class":"Hacinamiento Leve","hacin_score":815.6,"auto_score":76.9,"n_per":70,"n_hog":26,"source_year":2024},"geometry":{"type":"Polygon","coordinates":[[[-71.3306680569999,-34.5313025251184],[-71.3300791059999,-34.5315277481184],[-71.3301607689999,-34.5316118361185],[-71.3313929639999,-34.5313743961184],[-71.3320119279999,-34.5345129981184],[-71.3286406029999,-34.5352207681184],[-71.3284615749999,-34.5343334231184],[-71.3288598759999,-34.5333792311184],[-71.3285930439999,-34.5323143361185],[-71.3278456309999,-34.5344354371184],[-71.3282741209999,-34.5358256991184],[-71.3332108279999,-34.5347811241184],[-71.3322561029999,-34.5296721781185],[-71.3317478149999,-34.5297421971185],[-71.3312783709999,-34.5308339701185],[-71.3306680569999,-34.5313025251184]]]}},{"type":"Feature","properties":{"id":"6306033101003","commune":"Palmilla","code":"06306","gse":"D","quintil":"Q1","nse_score":614.7,"educ":9.5,"educ_score":433.3,"hacin":1.218,"hacin_class":"Hacinamiento Leve","hacin_score":804.6,"auto_score":129.6,"n_per":67,"n_hog":21,"source_year":2024},"geometry":{"type":"Polygon","coordinates":[[[-71.3341691619999,-34.5336927441184],[-71.333550451,-34.5305745741185],[-71.3325289399999,-34.5308001701185],[-71.3325734029999,-34.5310289861185],[-71.3331848259999,-34.5309300741185],[-71.3325799979999,-34.5310645961185],[-71.3332749819999,-34.5347676031184],[-71.3404849849999,-34.5332767071184],[-71.3404392389999,-34.5323949601184],[-71.3341691619999,-34.5336927441184]]]}},{"type":"Feature","properties":{"id":"6306033101005","commune":"Palmilla","code":"06306","gse":"D","quintil":"Q2","nse_score":648.7,"educ":9.2,"educ_score":413.3,"hacin":1.344,"hacin_class":"Hacinamiento Leve","hacin_score":777.9,"auto_score":291.7,"n_per":43,"n_hog":12,"source_year":2024},"geometry":{"type":"Polygon","coordinates":[[[-71.3353282309999,-34.5413928511184],[-71.3363440269999,-34.5411895611183],[-71.3344872789999,-34.5345931191184],[-71.3334730429999,-34.5348033161184],[-71.3353282309999,-34.5413928511184]]]}},{"type":"Feature","properties":{"id":"6306033101007","commune":"Palmilla","code":"06306","gse":"D","quintil":"Q1","nse_score":619.5,"educ":9.5,"educ_score":433.3,"hacin":1.349,"hacin_class":"Hacinamiento Leve","hacin_score":776.7,"auto_score":131.6,"n_per":224,"n_hog":79,"source_year":2024},"geometry":{"type":"Polygon","coordinates":[[[-71.3263776539999,-34.5379032591184],[-71.3265159439999,-34.5378434231183],[-71.3272162819999,-34.5393452091183],[-71.3298017039999,-34.5363788471184],[-71.3313479999999,-34.5361222351184],[-71.3319359249999,-34.5380034781184],[-71.3329912059999,-34.5378211001184],[-71.3340161559999,-34.5416554181183],[-71.3352435819999,-34.5414097901183],[-71.3341476029999,-34.5373351241183],[-71.3321469019999,-34.5377092091184],[-71.3320544589999,-34.5372455011184],[-71.3339882829999,-34.5368085241184],[-71.3339246849999,-34.5365989991184],[-71.3335874129999,-34.5366199751184],[-71.333913993,-34.5365640081184],[-71.3338222659999,-34.5362590431184],[-71.3333685819999,-34.5363422651184],[-71.3338117399999,-34.5362240491184],[-71.3336403869999,-34.5356544141184],[-71.3332307659999,-34.5356982031184],[-71.3336298389999,-34.5356194321184],[-71.3333883029999,-34.5348201011184],[-71.3283958239999,-34.5358742311184],[-71.32827212,-34.5370291451184],[-71.3276870809999,-34.5374433341184],[-71.3282096579999,-34.5370106661184],[-71.3283292219999,-34.5358884171184],[-71.32600242,-34.5363635561184],[-71.3264852659999,-34.5374728331184],[-71.3263776539999,-34.5379032591184]]]}},{"type":"Feature","properties":{"id":"6306033101009","commune":"Palmilla","code":"06306","gse":"E","quintil":"Q1","nse_score":485.3,"educ":7.9,"educ_score":326.7,"hacin":1.533,"hacin_class":"Hacinamiento Medio","hacin_score":737.6,"auto_score":55.6,"n_per":23,"n_hog":6,"source_year":2024},"geometry":{"type":"Polygon","coordinates":[[[-71.3321096009999,-34.5372880621184],[-71.3322041689999,-34.5376710091184],[-71.3332998129999,-34.5374498051184],[-71.3332044769999,-34.5370413531184],[-71.3321096009999,-34.5372880621184]]]}},{"type":"Feature","properties":{"id":"6306033101004","commune":"Palmilla","code":"06306","gse":"D","quintil":"Q1","nse_score":621.8,"educ":10.8,"educ_score":520.0,"hacin":1.65,"hacin_class":"Hacinamiento Medio","hacin_score":712.8,"auto_score":312.5,"n_per":33,"n_hog":8,"source_year":2024},"geometry":{"type":"MultiPolygon","coordinates":[[[[-71.323457963,-34.5348045741184],[-71.3233856119999,-34.5360729121184],[-71.3244407979999,-34.5384283951183],[-71.3259928359999,-34.5380697631184],[-71.3263502109999,-34.5379151331184],[-71.3257349069999,-34.5380721641184],[-71.3263451729999,-34.5378216541183],[-71.3263859529999,-34.5374776371184],[-71.3258126179999,-34.5363483691184],[-71.3246774399999,-34.5357450351184],[-71.323457963,-34.5348045741184]]],[[[-71.3279329889999,-34.5353771191184],[-71.3261037679999,-34.5357633751184],[-71.3252635669999,-34.5353529071184],[-71.3240839499999,-34.5343459731184],[-71.3233932629999,-34.5341434131184],[-71.3234077149999,-34.5346831421184],[-71.3237485739999,-34.5347852281184],[-71.3248779349999,-34.5357488551184],[-71.3258859229999,-34.5362607821184],[-71.3262086919999,-34.5362850981184],[-71.3282317689999,-34.5358347191184],[-71.3278008929999,-34.5344427831184],[-71.3284036039999,-34.5328399701184],[-71.3285366619999,-34.5320893231184],[-71.3276699879999,-34.5343189171184],[-71.3279329889999,-34.5353771191184]]]]}},{"type":"Feature","properties":{"id":"6306043042001","commune":"Palmilla","code":"06306","gse":"E","quintil":"Q1","nse_score":603.7,"educ":9.1,"educ_score":406.7,"hacin":1.381,"hacin_class":"Hacinamiento Leve","hacin_score":770.0,"auto_score":200.0,"n_per":29,"n_hog":10,"source_year":2024},"geometry":{"type":"Polygon","coordinates":[[[-71.3960117689999,-34.5016421521188],[-71.3970871399999,-34.5016850271188],[-71.3970959479999,-34.5013125641188],[-71.3965733629999,-34.5012666421188],[-71.3970899079999,-34.4955452531189],[-71.3965768099999,-34.4955517371188],[-71.3960117689999,-34.5016421521188]]]}},{"type":"Feature","properties":{"id":"6306043042002","commune":"Palmilla","code":"06306","gse":"C3","quintil":"Q2","nse_score":680.3,"educ":9.3,"educ_score":420.0,"hacin":1.217,"hacin_class":"Hacinamiento Leve","hacin_score":804.8,"auto_score":194.4,"n_per":252,"n_hog":76,"source_year":2024},"geometry":{"type":"Polygon","coordinates":[[[-71.3949857039999,-34.4955718311189],[-71.394946865,-34.4965504491188],[-71.3946585489999,-34.4971060391189],[-71.3913179549999,-34.4985102801188],[-71.3903989979999,-34.5003628951188],[-71.3904695099999,-34.5007477331188],[-71.390806241,-34.5006563941188],[-71.3908888759999,-34.4995622741188],[-71.3911464029999,-34.4990035601188],[-71.3909209859999,-34.4995673341188],[-71.3908388469999,-34.5006576331188],[-71.3922044719999,-34.5007443131188],[-71.3921828059999,-34.5003431061188],[-71.3922478619999,-34.5007468031188],[-71.3931608889999,-34.5007785111188],[-71.3932030749999,-34.5003187461188],[-71.3932043799999,-34.5007796611188],[-71.393339722,-34.5005795381188],[-71.3932760549999,-34.5007815411188],[-71.3936116199999,-34.5008401061188],[-71.3936851469999,-34.5015458701188],[-71.3937821629999,-34.5015576841188],[-71.3937677639999,-34.5010435251188],[-71.3938256769999,-34.5015584521188],[-71.3959475589999,-34.5016305041188],[-71.3961437239999,-34.5000688491188],[-71.3954725109999,-34.5000395841188],[-71.3961478209999,-34.5000329881188],[-71.3961894289999,-34.4996169051188],[-71.3957334639999,-34.4995915271188],[-71.3961936749999,-34.4995810931188],[-71.3962289969999,-34.4993338431188],[-71.3956790079999,-34.4993103881188],[-71.3962330499999,-34.4992979251188],[-71.3962905909999,-34.4985265991188],[-71.3950377929999,-34.4984217971188],[-71.3962932089999,-34.4984904951188],[-71.3963844899999,-34.4975749031188],[-71.3959281029999,-34.4976007611189],[-71.3963869719999,-34.4975476011189],[-71.3964083959999,-34.4973116691188],[-71.3959060139999,-34.4972490611188],[-71.396410349,-34.4972756921189],[-71.3964299679999,-34.4969143911189],[-71.395857196,-34.4968765621189],[-71.3964319209999,-34.4968781851189],[-71.3964811829999,-34.4959606471189],[-71.3951687169999,-34.4959212521189],[-71.3964834699999,-34.4959246021189],[-71.3965113079999,-34.4955525651189],[-71.3949857039999,-34.4955718311189]]]}},{"type":"Feature","properties":{"id":"6306043042003","commune":"Palmilla","code":"06306","gse":"C3","quintil":"Q2","nse_score":669.5,"educ":9.6,"educ_score":440.0,"hacin":1.125,"hacin_class":"Hacinamiento Leve","hacin_score":824.5,"auto_score":76.9,"n_per":36,"n_hog":13,"source_year":2024},"geometry":{"type":"Polygon","coordinates":[[[-71.3905418519999,-34.5007508911188],[-71.3906056429999,-34.5011961991188],[-71.3910314359999,-34.5020363831188],[-71.3913814949999,-34.5022199661188],[-71.3958517649999,-34.5024875271188],[-71.3959411949999,-34.5016843931188],[-71.3945035669999,-34.5016209361188],[-71.3944427719999,-34.5021353131188],[-71.394460019,-34.5016202641188],[-71.3942883789999,-34.5016227011188],[-71.3942164719999,-34.5021459051188],[-71.394244925,-34.5016224201188],[-71.3936014809999,-34.5015556351188],[-71.3935277329999,-34.5008570981188],[-71.3905418519999,-34.5007508911188]]]}},{"type":"Feature","properties":{"id":"6306043072003","commune":"Palmilla","code":"06306","gse":"D","quintil":"Q1","nse_score":615.3,"educ":8.7,"educ_score":380.0,"hacin":1.452,"hacin_class":"Hacinamiento Leve","hacin_score":754.8,"auto_score":210.5,"n_per":61,"n_hog":20,"source_year":2024},"geometry":{"type":"Polygon","coordinates":[[[-71.4496064619999,-34.5174480581186],[-71.4514742069999,-34.5168262581186],[-71.4534474129999,-34.5146924131186],[-71.4490310009999,-34.5162055631186],[-71.4486189499999,-34.5172930981186],[-71.4496064619999,-34.5174480581186]]]}},{"type":"Feature","properties":{"id":"6306043072004","commune":"Palmilla","code":"06306","gse":"D","quintil":"Q1","nse_score":626.1,"educ":9.9,"educ_score":460.0,"hacin":1.364,"hacin_class":"Hacinamiento Leve","hacin_score":773.7,"auto_score":400.0,"n_per":30,"n_hog":10,"source_year":2024},"geometry":{"type":"Polygon","coordinates":[[[-71.4465975209999,-34.5167020161186],[-71.4487024999999,-34.5168990491186],[-71.4491061229999,-34.5157834741186],[-71.4468826229999,-34.5159905681186],[-71.4465975209999,-34.5167020161186]]]}},{"type":"Feature","properties":{"id":"6306043072005","commune":"Palmilla","code":"06306","gse":"E","quintil":"Q1","nse_score":600.9,"educ":9.1,"educ_score":406.7,"hacin":1.404,"hacin_class":"Hacinamiento Leve","hacin_score":765.1,"auto_score":217.4,"n_per":73,"n_hog":23,"source_year":2024},"geometry":{"type":"Polygon","coordinates":[[[-71.4472491719999,-34.5175861261186],[-71.4465644569999,-34.5194690161186],[-71.4476387869999,-34.5198196561186],[-71.4479992549999,-34.5188855971186],[-71.4472064439999,-34.5186165701186],[-71.4475416219999,-34.5177786361186],[-71.4482846609999,-34.5180060811186],[-71.4486891049999,-34.5169340751186],[-71.4465691079999,-34.5167336151186],[-71.4463837579999,-34.5172599911186],[-71.4472491719999,-34.5175861261186]]]}},{"type":"Feature","properties":{"id":"6306043072006","commune":"Palmilla","code":"06306","gse":"D","quintil":"Q1","nse_score":606.5,"educ":10.2,"educ_score":480.0,"hacin":1.528,"hacin_class":"Hacinamiento Medio","hacin_score":738.8,"auto_score":428.6,"n_per":55,"n_hog":13,"source_year":2024},"geometry":{"type":"Polygon","coordinates":[[[-71.44726055,-34.5185959681186],[-71.4477667529999,-34.5187677401186],[-71.4480310949999,-34.5179669011186],[-71.4475685599999,-34.5178253181186],[-71.44726055,-34.5185959681186]]]}},{"type":"Feature","properties":{"id":"6306043072001","commune":"Palmilla","code":"06306","gse":"E","quintil":"Q1","nse_score":597.7,"educ":10.1,"educ_score":473.3,"hacin":1.5,"hacin_class":"Hacinamiento Medio","hacin_score":744.7,"auto_score":191.7,"n_per":180,"n_hog":56,"source_year":2024},"geometry":{"type":"MultiPolygon","coordinates":[[[[-71.4629758019999,-34.5148775951186],[-71.4644157659999,-34.5150116481186],[-71.4646266199999,-34.5143359881186],[-71.4632208539999,-34.5142082901187],[-71.4629758019999,-34.5148775951186]]],[[[-71.4539097259999,-34.5142256751186],[-71.4534285499999,-34.5148444191186],[-71.4537515959999,-34.5150699831186],[-71.4536390009999,-34.5152799881186],[-71.4538448259999,-34.5154214601186],[-71.4535794869999,-34.5152859081186],[-71.4537100319999,-34.5150880931186],[-71.4534130179999,-34.5148807041186],[-71.4522177459999,-34.5161258351187],[-71.4531227799999,-34.5167181351186],[-71.4521902669999,-34.5161538331186],[-71.4515005069999,-34.5168566361186],[-71.4499781759999,-34.5172852501186],[-71.4497505329999,-34.5174696051186],[-71.4521374629999,-34.5178085191186],[-71.4555146399999,-34.5142509081187],[-71.4615281439999,-34.5147428241186],[-71.4613955209999,-34.5151975061186],[-71.4626959289999,-34.5155177211186],[-71.4631767929999,-34.5142043391187],[-71.4547218589999,-34.5135558841186],[-71.4539097259999,-34.5142256751186]]]]}},{"type":"Feature","properties":{"id":"6306053077001","commune":"Palmilla","code":"06306","gse":"D","quintil":"Q1","nse_score":606.5,"educ":10.0,"educ_score":466.7,"hacin":1.4,"hacin_class":"Hacinamiento Leve","hacin_score":766.0,"auto_score":300.0,"n_per":28,"n_hog":10,"source_year":2024},"geometry":{"type":"Polygon","coordinates":[[[-71.3666498469999,-34.4413416061195],[-71.3663852299999,-34.4412873321195],[-71.3658146519999,-34.4443255901195],[-71.3668790269999,-34.4444563621195],[-71.3676820689999,-34.4402179111195],[-71.3669831449999,-34.4407536531195],[-71.3669060889999,-34.4411923961195],[-71.3666498469999,-34.4413416061195]]]}},{"type":"Feature","properties":{"id":"6306053077002","commune":"Palmilla","code":"06306","gse":"E","quintil":"Q1","nse_score":594.7,"educ":10.0,"educ_score":466.7,"hacin":1.5,"hacin_class":"Hacinamiento Medio","hacin_score":744.7,"auto_score":269.2,"n_per":30,"n_hog":13,"source_year":2024},"geometry":{"type":"Polygon","coordinates":[[[-71.3781524259999,-34.4462256941195],[-71.3796870899999,-34.4464617961194],[-71.3799413689999,-34.4453522061195],[-71.3792164429999,-34.4452142781194],[-71.3799128609999,-34.4424893591195],[-71.3785086079999,-34.4422139201195],[-71.3781524259999,-34.4462256941195]]]}},{"type":"Feature","properties":{"id":"6306053077003","commune":"Palmilla","code":"06306","gse":"E","quintil":"Q1","nse_score":565.0,"educ":9.1,"educ_score":406.7,"hacin":1.42,"hacin_class":"Hacinamiento Leve","hacin_score":761.8,"auto_score":226.2,"n_per":115,"n_hog":42,"source_year":2024},"geometry":{"type":"Polygon","coordinates":[[[-71.376393446,-34.4449260911195],[-71.3671974459999,-34.4432654711195],[-71.3669677849999,-34.4444580531195],[-71.3781755929999,-34.4458874961195],[-71.3783927389999,-34.4432267091195],[-71.3776907499999,-34.4427162961195],[-71.3773207709999,-34.4440509921194],[-71.376393446,-34.4449260911195]]]}},{"type":"Feature","properties":{"id":"6306053077004","commune":"Palmilla","code":"06306","gse":"D","quintil":"Q2","nse_score":654.0,"educ":9.4,"educ_score":426.7,"hacin":1.344,"hacin_class":"Hacinamiento Leve","hacin_score":777.9,"auto_score":357.1,"n_per":43,"n_hog":15,"source_year":2024},"geometry":{"type":"Polygon","coordinates":[[[-71.3658079619999,-34.4443612151195],[-71.3632951359999,-34.4567652571193],[-71.3644143769999,-34.4564666911194],[-71.3668713529999,-34.4444918661195],[-71.3658079619999,-34.4443612151195]]]}},{"type":"Feature","properties":{"id":"6306053077005","commune":"Palmilla","code":"06306","gse":"D","quintil":"Q1","nse_score":608.5,"educ":9.0,"educ_score":400.0,"hacin":1.383,"hacin_class":"Hacinamiento Leve","hacin_score":769.6,"auto_score":558.8,"n_per":112,"n_hog":36,"source_year":2024},"geometry":{"type":"Polygon","coordinates":[[[-71.3675291609999,-34.4467670511194],[-71.3678076369999,-34.4454963571195],[-71.3712083129999,-34.4459318821195],[-71.3718229719999,-34.4458788291194],[-71.3780650009999,-34.4464312671194],[-71.3781617609999,-34.4459408141194],[-71.3669559659999,-34.4445112751195],[-71.3665238489999,-34.4466450421195],[-71.3675291609999,-34.4467670511194]]]}},{"type":"Feature","properties":{"id":"6306053077006","commune":"Palmilla","code":"06306","gse":"D","quintil":"Q1","nse_score":627.1,"educ":10.2,"educ_score":480.0,"hacin":1.448,"hacin_class":"Hacinamiento Leve","hacin_score":755.7,"auto_score":270.8,"n_per":126,"n_hog":47,"source_year":2024},"geometry":{"type":"Polygon","coordinates":[[[-71.3673619779999,-34.4471919671194],[-71.3664160629999,-34.4471127981194],[-71.3650087259999,-34.4539565841194],[-71.3660421869999,-34.4538428381194],[-71.3675175099999,-34.4468202141194],[-71.3665122259999,-34.4466982871195],[-71.3664278199999,-34.4470594351194],[-71.3673619779999,-34.4471919671194]]]}},{"type":"Feature","properties":{"id":"6306053095001","commune":"Palmilla","code":"06306","gse":"D","quintil":"Q1","nse_score":626.1,"educ":9.6,"educ_score":440.0,"hacin":1.207,"hacin_class":"Hacinamiento Leve","hacin_score":807.0,"auto_score":80.0,"n_per":70,"n_hog":22,"source_year":2024},"geometry":{"type":"Polygon","coordinates":[[[-71.3227505609999,-34.4658676271193],[-71.3231222589999,-34.4667189311192],[-71.3282823989999,-34.4633797861193],[-71.3283243989999,-34.4631856421192],[-71.3304134959999,-34.4615515891193],[-71.3299825059999,-34.4606920031193],[-71.3267810799999,-34.4632142841193],[-71.3227505609999,-34.4658676271193]]]}},{"type":"Feature","properties":{"id":"6306053095002","commune":"Palmilla","code":"06306","gse":"E","quintil":"Q1","nse_score":578.3,"educ":8.4,"educ_score":360.0,"hacin":1.282,"hacin_class":"Hacinamiento Leve","hacin_score":791.1,"auto_score":45.5,"n_per":100,"n_hog":32,"source_year":2024},"geometry":{"type":"Polygon","coordinates":[[[-71.3287020289999,-34.4635810211192],[-71.3305068989999,-34.4704066961192],[-71.3315037049999,-34.4701320011192],[-71.3297663209999,-34.4634956001192],[-71.3301376519999,-34.4629953571193],[-71.3305992159999,-34.4616612691193],[-71.3304699039999,-34.4615812131193],[-71.3283423679999,-34.4632684191192],[-71.3287020289999,-34.4635810211192]]]}},{"type":"Feature","properties":{"id":"6306053095003","commune":"Palmilla","code":"06306","gse":"D","quintil":"Q1","nse_score":634.5,"educ":9.1,"educ_score":406.7,"hacin":0.938,"hacin_class":"Sin Hacinamiento","hacin_score":864.3,"auto_score":44.6,"n_per":136,"n_hog":53,"source_year":2024},"geometry":{"type":"Polygon","coordinates":[[[-71.3236601429999,-34.4681150661192],[-71.3241176949999,-34.4682102271192],[-71.3245704739999,-34.4694512421192],[-71.325572512,-34.4700745361191],[-71.3267596279999,-34.4713956431192],[-71.3304206399999,-34.4704175391192],[-71.3286964779999,-34.4638019731192],[-71.3284569399999,-34.4634708571192],[-71.3281156009999,-34.4635143711192],[-71.3237390999999,-34.4664244551192],[-71.3236601429999,-34.4681150661192]]]}},{"type":"Feature","properties":{"id":"6306053095004","commune":"Palmilla","code":"06306","gse":"D","quintil":"Q2","nse_score":652.1,"educ":10.3,"educ_score":486.7,"hacin":1.243,"hacin_class":"Hacinamiento Leve","hacin_score":799.3,"auto_score":352.9,"n_per":46,"n_hog":16,"source_year":2024},"geometry":{"type":"Polygon","coordinates":[[[-71.318551995,-34.4736843521192],[-71.3192571459999,-34.4729346741191],[-71.3202552789999,-34.4714732331191],[-71.3221932699999,-34.4699127821192],[-71.3234071549999,-34.4685463491192],[-71.3238919289999,-34.4699453691192],[-71.3249862259999,-34.4705245021192],[-71.3259665189999,-34.4716240241191],[-71.3266930859999,-34.4714129801192],[-71.3255239149999,-34.4701109071192],[-71.3245168099999,-34.4694820941192],[-71.3240661589999,-34.4682442971192],[-71.3236000969999,-34.4681386271192],[-71.323686876,-34.4664571041192],[-71.3193249419999,-34.4691868921192],[-71.3177159369999,-34.4737771101192],[-71.318551995,-34.4736843521192]]]}},{"type":"Feature","properties":{"id":"6306053095005","commune":"Palmilla","code":"06306","gse":"D","quintil":"Q2","nse_score":659.8,"educ":8.8,"educ_score":386.7,"hacin":0.962,"hacin_class":"Sin Hacinamiento","hacin_score":859.2,"auto_score":184.2,"n_per":101,"n_hog":41,"source_year":2024},"geometry":{"type":"Polygon","coordinates":[[[-71.3077224329999,-34.4674335981192],[-71.3110741309999,-34.4751922851191],[-71.3111295399999,-34.4757521191191],[-71.3112343289999,-34.4758424951191],[-71.3115730949999,-34.4759590081191],[-71.3120141409999,-34.4759015691191],[-71.3131884209999,-34.4751179241191],[-71.3175625119999,-34.4739413921191],[-71.3193378749999,-34.4690882611192],[-71.3181977089999,-34.4690412131192],[-71.3167066849999,-34.4733102101192],[-71.3126283809999,-34.4744066751191],[-71.312062292,-34.4748902841191],[-71.3086057939999,-34.4668634601192],[-71.3077224329999,-34.4674335981192]]]}},{"type":"Feature","properties":{"id":"6306053095006","commune":"Palmilla","code":"06306","gse":"D","quintil":"Q2","nse_score":645.9,"educ":8.9,"educ_score":393.3,"hacin":1.188,"hacin_class":"Hacinamiento Leve","hacin_score":811.0,"auto_score":107.1,"n_per":120,"n_hog":40,"source_year":2024},"geometry":{"type":"Polygon","coordinates":[[[-71.3098541809999,-34.4751292821191],[-71.3073054239999,-34.4758469041191],[-71.3045059869999,-34.4709801241192],[-71.3032491879999,-34.4714200051191],[-71.3045750029999,-34.4735945231191],[-71.3052347189999,-34.4733327221191],[-71.3045930099999,-34.4736274721191],[-71.3060169919999,-34.4761473621191],[-71.3066000959999,-34.4764903761191],[-71.3067913179999,-34.4768626241191],[-71.3110659539999,-34.4757390991191],[-71.3110825809999,-34.4754116731191],[-71.3109121649999,-34.4749869901191],[-71.3101164079999,-34.4752198651191],[-71.3101521109999,-34.4754438321191],[-71.3100761849999,-34.4751947711191],[-71.3108969739999,-34.4749531981191],[-71.307669787,-34.4674672331192],[-71.3067773089999,-34.4680032051192],[-71.3098541809999,-34.4751292821191]]]}},{"type":"Feature","properties":{"id":"6306053095007","commune":"Palmilla","code":"06306","gse":"E","quintil":"Q1","nse_score":581.1,"educ":8.6,"educ_score":373.3,"hacin":1.5,"hacin_class":"Hacinamiento Medio","hacin_score":744.7,"auto_score":138.9,"n_per":102,"n_hog":36,"source_year":2024},"geometry":{"type":"Polygon","coordinates":[[[-71.3341873119999,-34.479029832119],[-71.3356500809999,-34.478672155119],[-71.3336412649999,-34.477790209119],[-71.332954991,-34.4756976121191],[-71.3315130969999,-34.4701674091192],[-71.3305161789999,-34.4704421351191],[-71.3319353649999,-34.4758866931191],[-71.3327321519999,-34.4783063041191],[-71.3341873119999,-34.479029832119]]]}},{"type":"Feature","properties":{"id":"6306053095009","commune":"Palmilla","code":"06306","gse":"E","quintil":"Q1","nse_score":593.1,"educ":7.9,"educ_score":326.7,"hacin":1.28,"hacin_class":"Hacinamiento Leve","hacin_score":791.5,"auto_score":375.0,"n_per":32,"n_hog":12,"source_year":2024},"geometry":{"type":"Polygon","coordinates":[[[-71.3020540179999,-34.4775272881191],[-71.3024069989999,-34.4781192301191],[-71.306728689,-34.4768790661191],[-71.3065507569999,-34.4765264701191],[-71.3059052599999,-34.4760888451191],[-71.3038709819999,-34.4724314781191],[-71.3006986079999,-34.4736932811191],[-71.3028366949999,-34.4772883111191],[-71.3020540179999,-34.4775272881191]]]}},{"type":"Feature","properties":{"id":"6306053095010","commune":"Palmilla","code":"06306","gse":"C3","quintil":"Q2","nse_score":679.3,"educ":9.7,"educ_score":446.7,"hacin":0.917,"hacin_class":"Sin Hacinamiento","hacin_score":868.8,"auto_score":100.0,"n_per":11,"n_hog":5,"source_year":2024},"geometry":{"type":"Polygon","coordinates":[[[-71.3170941229999,-34.4756149071191],[-71.3177295229999,-34.4757810881191],[-71.3177651009999,-34.4746083301191],[-71.3185016049999,-34.4737379231191],[-71.3176948449999,-34.4738327301191],[-71.3170941229999,-34.4756149071191]]]}},{"type":"Feature","properties":{"id":"6306053095011","commune":"Palmilla","code":"06306","gse":"C3","quintil":"Q2","nse_score":676.4,"educ":9.4,"educ_score":426.7,"hacin":1.115,"hacin_class":"Hacinamiento Leve","hacin_score":826.6,"auto_score":111.1,"n_per":136,"n_hog":45,"source_year":2024},"geometry":{"type":"Polygon","coordinates":[[[-71.3132312339999,-34.4751824241191],[-71.3123286339999,-34.4758578961191],[-71.3115232619999,-34.4760245751191],[-71.3115433329999,-34.4763253331191],[-71.3104802009999,-34.4765177221191],[-71.3114947009999,-34.4762971171191],[-71.3114800139999,-34.4760177051191],[-71.3110749569999,-34.4758111071191],[-71.3078260819999,-34.4766916731191],[-71.3079942009999,-34.4770706921191],[-71.3080727269999,-34.4780307981191],[-71.3079150429999,-34.4782040931191],[-71.3078905769999,-34.4785079741191],[-71.3061172089999,-34.4791621411191],[-71.3068478659999,-34.4802766271191],[-71.3084830639999,-34.4801343511191],[-71.3088787689999,-34.4789303381191],[-71.3086919749999,-34.4784498231191],[-71.3109205189999,-34.4780143901191],[-71.3110061789999,-34.4776717471191],[-71.3109315709999,-34.4771743571191],[-71.3127972879999,-34.4768200751191],[-71.3128226749999,-34.4761629301191],[-71.3139692809999,-34.4758823071191],[-71.3139168449999,-34.4757315961191],[-71.3159294049999,-34.4753102961191],[-71.3170318109999,-34.4755986101191],[-71.3173403159999,-34.4749284641191],[-71.3175317319999,-34.4740257661191],[-71.3132312339999,-34.4751824241191]]]}},{"type":"Feature","properties":{"id":"6306053095012","commune":"Palmilla","code":"06306","gse":"D","quintil":"Q1","nse_score":626.9,"educ":9.3,"educ_score":420.0,"hacin":0.944,"hacin_class":"Sin Hacinamiento","hacin_score":862.9,"auto_score":55.6,"n_per":17,"n_hog":9,"source_year":2024},"geometry":{"type":"Polygon","coordinates":[[[-71.3060457949999,-34.4790809951191],[-71.3078109509999,-34.4785013691191],[-71.3080201599999,-34.4780586501191],[-71.3079295999999,-34.4770788551191],[-71.307763872,-34.4767082131191],[-71.3052731969999,-34.4773945631191],[-71.3060457949999,-34.4790809951191]]]}},{"type":"Feature","properties":{"id":"6306053095013","commune":"Palmilla","code":"06306","gse":"C3","quintil":"Q3","nse_score":695.4,"educ":11.7,"educ_score":580.0,"hacin":1.5,"hacin_class":"Hacinamiento Medio","hacin_score":744.7,"auto_score":300.0,"n_per":12,"n_hog":5,"source_year":2024},"geometry":{"type":"Polygon","coordinates":[[[-71.3024945359999,-34.4781689291191],[-71.3031105849999,-34.4786134391191],[-71.3031816649999,-34.4788600271191],[-71.3035860389999,-34.478929034119],[-71.3041850909999,-34.4793099131191],[-71.3041840139999,-34.4788997251191],[-71.3042938689999,-34.4787624191191],[-71.3049372949999,-34.478876498119],[-71.3050143739999,-34.4786361311191],[-71.3055815639999,-34.4783553141191],[-71.3052115069999,-34.4774123581191],[-71.3024945359999,-34.4781689291191]]]}},{"type":"Feature","properties":{"id":"6306053095008","commune":"Palmilla","code":"06306","gse":"E","quintil":"Q1","nse_score":566.8,"educ":7.3,"educ_score":286.7,"hacin":1.364,"hacin_class":"Hacinamiento Leve","hacin_score":773.7,"auto_score":100.0,"n_per":15,"n_hog":5,"source_year":2024},"geometry":{"type":"MultiPolygon","coordinates":[[[[-71.3331039779999,-34.479257246119],[-71.3340909899999,-34.4790719711191],[-71.3327758219999,-34.4784534081191],[-71.3323288669999,-34.4774889311191],[-71.3316316119999,-34.4776374951191],[-71.3320585719999,-34.4787072341191],[-71.3331039779999,-34.479257246119]]],[[[-71.3297402449999,-34.4706240951192],[-71.3316179179999,-34.4776031861191],[-71.3323151729999,-34.477454623119],[-71.3304347009999,-34.4704703521192],[-71.3299823229999,-34.4705567951191],[-71.3297402449999,-34.4706240951192]]]]}},{"type":"Feature","properties":{"id":"6306053100001","commune":"Palmilla","code":"06306","gse":"E","quintil":"Q1","nse_score":559.6,"educ":8.5,"educ_score":366.7,"hacin":1.273,"hacin_class":"Hacinamiento Leve","hacin_score":793.0,"auto_score":312.5,"n_per":28,"n_hog":8,"source_year":2024},"geometry":{"type":"Polygon","coordinates":[[[-71.3463727999999,-34.4936378041189],[-71.3465231749999,-34.4949483601189],[-71.3479466499999,-34.4948080331188],[-71.3478399179999,-34.4934938961189],[-71.3463727999999,-34.4936378041189]]]}},{"type":"Feature","properties":{"id":"6306053100002","commune":"Palmilla","code":"06306","gse":"D","quintil":"Q2","nse_score":652.3,"educ":9.9,"educ_score":460.0,"hacin":1.209,"hacin_class":"Hacinamiento Leve","hacin_score":806.5,"auto_score":184.2,"n_per":52,"n_hog":17,"source_year":2024},"geometry":{"type":"Polygon","coordinates":[[[-71.3431926549999,-34.4939638971189],[-71.3433124179999,-34.4952775721189],[-71.3464799449999,-34.4949528101188],[-71.3463295709999,-34.4936422541189],[-71.3431926549999,-34.4939638971189]]]}},{"type":"Feature","properties":{"id":"6306053100003","commune":"Palmilla","code":"06306","gse":"D","quintil":"Q1","nse_score":617.3,"educ":8.8,"educ_score":386.7,"hacin":1.294,"hacin_class":"Hacinamiento Leve","hacin_score":788.5,"auto_score":108.7,"n_per":132,"n_hog":45,"source_year":2024},"geometry":{"type":"Polygon","coordinates":[[[-71.3240427879999,-34.4966519831189],[-71.3244492599999,-34.4976596851188],[-71.3257581709999,-34.4971433271189],[-71.3255693869999,-34.4967847801188],[-71.324761555,-34.4970734711189],[-71.3246205759999,-34.4970705151189],[-71.3246161959999,-34.4970125461189],[-71.3255472989999,-34.4967464991188],[-71.3258280699999,-34.4971156121189],[-71.3314485289999,-34.4948966041189],[-71.331248307,-34.4938116191189],[-71.3240427879999,-34.4966519831189]]]}},{"type":"Feature","properties":{"id":"6306053100004","commune":"Palmilla","code":"06306","gse":"D","quintil":"Q1","nse_score":634.7,"educ":9.4,"educ_score":426.7,"hacin":1.431,"hacin_class":"Hacinamiento Leve","hacin_score":759.3,"auto_score":137.7,"n_per":209,"n_hog":69,"source_year":2024},"geometry":{"type":"Polygon","coordinates":[[[-71.3431277429999,-34.4939705511189],[-71.3315126689999,-34.4949669371189],[-71.3316665519999,-34.4962766811188],[-71.3387324629999,-34.4956852621189],[-71.3385639169999,-34.4944491821189],[-71.3387758009999,-34.4956815131189],[-71.3395985569999,-34.4956091871189],[-71.3395159019999,-34.4950803291189],[-71.3395896809999,-34.4944274161189],[-71.3396644719999,-34.4956033931189],[-71.3432475129999,-34.4952841101189],[-71.3431277429999,-34.4939705511189]]]}},{"type":"Feature","properties":{"id":"6306053100005","commune":"Palmilla","code":"06306","gse":"D","quintil":"Q2","nse_score":655.9,"educ":9.5,"educ_score":433.3,"hacin":0.833,"hacin_class":"Sin Hacinamiento","hacin_score":886.5,"auto_score":250.0,"n_per":10,"n_hog":6,"source_year":2024},"geometry":{"type":"Polygon","coordinates":[[[-71.3445301769999,-34.4970039491188],[-71.3457406929999,-34.4968798451189],[-71.3455921469999,-34.4959883701189],[-71.348015357,-34.4957432401189],[-71.3479250799999,-34.4948806381189],[-71.3442190609999,-34.4952572801188],[-71.3445301769999,-34.4970039491188]]]}},{"type":"Feature","properties":{"id":"6306053100007","commune":"Palmilla","code":"06306","gse":"E","quintil":"Q1","nse_score":600.4,"educ":7.8,"educ_score":320.0,"hacin":1.125,"hacin_class":"Hacinamiento Leve","hacin_score":824.5,"auto_score":0.0,"n_per":9,"n_hog":4,"source_year":2024},"geometry":{"type":"Polygon","coordinates":[[[-71.331761851,-34.4972107471188],[-71.3431444049999,-34.4962382881188],[-71.3432741769999,-34.4971327061189],[-71.3444869259999,-34.4970083831188],[-71.3441758439999,-34.4952617101189],[-71.3316840189999,-34.4963477561188],[-71.331761851,-34.4972107471188]]]}}]}