{"type":"FeatureCollection","features":[{"type":"Feature","properties":{"id":"6206011001001","commune":"Paredones","code":"06206","gse":"D","quintil":"Q1","nse_score":618.1,"educ":11.4,"educ_score":560.0,"hacin":1.4,"hacin_class":"Hacinamiento Leve","hacin_score":766.0,"auto_score":0.0,"n_per":35,"n_hog":11,"source_year":2024,"crime_score":0.6518,"crime_nivel":"Alto","crime_color":"#f44336"},"geometry":{"type":"Polygon","coordinates":[[[-71.8987268699999,-34.6403351281172],[-71.8962731739999,-34.6416024601172],[-71.8953602009999,-34.6417837491172],[-71.8955692129999,-34.6420926591172],[-71.8963654499999,-34.6418475411172],[-71.8990298679999,-34.6416076101172],[-71.8987268699999,-34.6403351281172]]]}},{"type":"Feature","properties":{"id":"6206011001002","commune":"Paredones","code":"06206","gse":"C3","quintil":"Q2","nse_score":668.0,"educ":11.4,"educ_score":560.0,"hacin":1.025,"hacin_class":"Hacinamiento Leve","hacin_score":845.7,"auto_score":209.7,"n_per":81,"n_hog":30,"source_year":2024,"crime_score":0.6488,"crime_nivel":"Alto","crime_color":"#f44336"},"geometry":{"type":"Polygon","coordinates":[[[-71.8989981989999,-34.6411683341172],[-71.8994848489999,-34.6431623511171],[-71.900574634,-34.6431886361171],[-71.9003181519999,-34.6422007061171],[-71.8998164329999,-34.6422097451172],[-71.8997931899999,-34.6417082721172],[-71.9002776039999,-34.6414904481172],[-71.900233065,-34.6412792491171],[-71.8993300599999,-34.6415148161171],[-71.8991301849999,-34.6411650351171],[-71.8989981989999,-34.6411683341172]]]}},{"type":"Feature","properties":{"id":"6206011001003","commune":"Paredones","code":"06206","gse":"E","quintil":"Q1","nse_score":591.8,"educ":8.8,"educ_score":386.7,"hacin":1.286,"hacin_class":"Hacinamiento Leve","hacin_score":790.3,"auto_score":100.0,"n_per":18,"n_hog":5,"source_year":2024,"crime_score":0.6554,"crime_nivel":"Alto","crime_color":"#f44336"},"geometry":{"type":"Polygon","coordinates":[[[-71.9004505429999,-34.6423562711171],[-71.9008935549999,-34.6420330621172],[-71.9003598309999,-34.6414972351171],[-71.9002738089999,-34.6418655681172],[-71.9004505429999,-34.6423562711171]]]}},{"type":"Feature","properties":{"id":"6206011001004","commune":"Paredones","code":"06206","gse":"D","quintil":"Q1","nse_score":627.7,"educ":10.2,"educ_score":480.0,"hacin":1.308,"hacin_class":"Hacinamiento Leve","hacin_score":785.6,"auto_score":166.7,"n_per":17,"n_hog":6,"source_year":2024,"crime_score":0.6427,"crime_nivel":"Alto","crime_color":"#f44336"},"geometry":{"type":"Polygon","coordinates":[[[-71.9002575559999,-34.6415231351172],[-71.8998244629999,-34.6417196441171],[-71.8998413849999,-34.6419071731172],[-71.900193623,-34.6418463211172],[-71.9002575559999,-34.6415231351172]]]}},{"type":"Feature","properties":{"id":"6206011001005","commune":"Paredones","code":"06206","gse":"E","quintil":"Q1","nse_score":599.7,"educ":9.6,"educ_score":440.0,"hacin":1.025,"hacin_class":"Hacinamiento Leve","hacin_score":845.7,"auto_score":166.7,"n_per":82,"n_hog":31,"source_year":2024,"crime_score":0.6734,"crime_nivel":"Alto","crime_color":"#f44336"},"geometry":{"type":"Polygon","coordinates":[[[-71.8962260169999,-34.6419027391171],[-71.8958476009999,-34.6420592491172],[-71.8959592099999,-34.6431446331172],[-71.8971864039999,-34.6430995011171],[-71.8971614129999,-34.6423148161172],[-71.8977564929999,-34.6422584261172],[-71.8978996229999,-34.6430998211172],[-71.8994234279999,-34.6431482611172],[-71.8984867579999,-34.6428151361172],[-71.8993865259999,-34.6430356491172],[-71.8990436719999,-34.6416607901172],[-71.8962260169999,-34.6419027391171]]]}},{"type":"Feature","properties":{"id":"6206011001006","commune":"Paredones","code":"06206","gse":"E","quintil":"Q1","nse_score":582.7,"educ":9.0,"educ_score":400.0,"hacin":1.25,"hacin_class":"Hacinamiento Leve","hacin_score":797.9,"auto_score":83.3,"n_per":20,"n_hog":6,"source_year":2024,"crime_score":0.6592,"crime_nivel":"Alto","crime_color":"#f44336"},"geometry":{"type":"Polygon","coordinates":[[[-71.8998529839999,-34.6421659791171],[-71.9002895529999,-34.6421480681171],[-71.9002373289999,-34.6419070281171],[-71.8998441509999,-34.6419368711172],[-71.8998529839999,-34.6421659791171]]]}},{"type":"Feature","properties":{"id":"6206011001007","commune":"Paredones","code":"06206","gse":"C3","quintil":"Q3","nse_score":684.5,"educ":11.3,"educ_score":553.3,"hacin":1.118,"hacin_class":"Hacinamiento Leve","hacin_score":826.0,"auto_score":384.6,"n_per":38,"n_hog":13,"source_year":2024,"crime_score":0.6297,"crime_nivel":"Alto","crime_color":"#f44336"},"geometry":{"type":"Polygon","coordinates":[[[-71.9005746989999,-34.6427889211171],[-71.9009478719999,-34.6425286321172],[-71.9012286589999,-34.6422919561172],[-71.9009064449999,-34.6420599441171],[-71.9004701049999,-34.6424207951172],[-71.9005746989999,-34.6427889211171]]]}},{"type":"Feature","properties":{"id":"6206011001008","commune":"Paredones","code":"06206","gse":"E","quintil":"Q1","nse_score":549.9,"educ":9.9,"educ_score":460.0,"hacin":0.833,"hacin_class":"Sin Hacinamiento","hacin_score":886.5,"auto_score":0.0,"n_per":20,"n_hog":7,"source_year":2024,"crime_score":0.6704,"crime_nivel":"Alto","crime_color":"#f44336"},"geometry":{"type":"Polygon","coordinates":[[[-71.8977978919999,-34.6430975511171],[-71.8977432799999,-34.6423148811172],[-71.8972247979999,-34.6423362131172],[-71.8972977419999,-34.6430756911171],[-71.8977978919999,-34.6430975511171]]]}},{"type":"Feature","properties":{"id":"6206011001009","commune":"Paredones","code":"06206","gse":"E","quintil":"Q1","nse_score":595.4,"educ":9.9,"educ_score":460.0,"hacin":1.029,"hacin_class":"Hacinamiento Leve","hacin_score":845.0,"auto_score":78.9,"n_per":36,"n_hog":14,"source_year":2024,"crime_score":0.66,"crime_nivel":"Alto","crime_color":"#f44336"},"geometry":{"type":"Polygon","coordinates":[[[-71.9005913549999,-34.6428215991172],[-71.9007747209999,-34.6432030071172],[-71.9015674569999,-34.6425242891172],[-71.9012572019999,-34.6423348381172],[-71.9005913549999,-34.6428215991172]]]}},{"type":"Feature","properties":{"id":"6206011001010","commune":"Paredones","code":"06206","gse":"E","quintil":"Q1","nse_score":563.2,"educ":10.0,"educ_score":466.7,"hacin":1.105,"hacin_class":"Hacinamiento Leve","hacin_score":828.7,"auto_score":197.7,"n_per":105,"n_hog":36,"source_year":2024,"crime_score":0.6939,"crime_nivel":"Alto","crime_color":"#f44336"},"geometry":{"type":"Polygon","coordinates":[[[-71.9016414799999,-34.6425188711171],[-71.9018967559999,-34.6427179731172],[-71.9021411479999,-34.6432945041171],[-71.9002936049999,-34.6432600691172],[-71.9002866029999,-34.6438062371171],[-71.9002045119999,-34.6438062371171],[-71.9002148759999,-34.6432569511172],[-71.8994938889999,-34.6432410601171],[-71.8994982229999,-34.6444749071172],[-71.9009957229999,-34.6445141421171],[-71.9010133969999,-34.6437879641171],[-71.9010666629999,-34.6445162931171],[-71.9016493349999,-34.6445369791172],[-71.9017045519999,-34.6436217471171],[-71.9017213699999,-34.6451035811171],[-71.9021961349999,-34.6451940331171],[-71.9022836169999,-34.6435307931172],[-71.9022697489999,-34.6452025501171],[-71.9029061199999,-34.6454336451171],[-71.9045523569999,-34.6455961771171],[-71.9050593229999,-34.6458340301171],[-71.9053322109999,-34.6462023871171],[-71.9055934029999,-34.6462027221171],[-71.90533095,-34.6455605911171],[-71.9049491949999,-34.6451657231171],[-71.904887658,-34.6448004741171],[-71.9045498529999,-34.6445581091171],[-71.9046308579999,-34.6443618791171],[-71.9043049699999,-34.6441864011172],[-71.903548252,-34.6441365051172],[-71.9028294329999,-34.6435925661171],[-71.9023216969999,-34.6429567571171],[-71.902315401,-34.6426472141172],[-71.9017983689999,-34.6424016181172],[-71.9016414799999,-34.6425188711171]]]}},{"type":"Feature","properties":{"id":"6206011001011","commune":"Paredones","code":"06206","gse":"D","quintil":"Q2","nse_score":645.4,"educ":11.0,"educ_score":533.3,"hacin":1.267,"hacin_class":"Hacinamiento Leve","hacin_score":794.3,"auto_score":250.0,"n_per":38,"n_hog":14,"source_year":2024,"crime_score":0.6433,"crime_nivel":"Alto","crime_color":"#f44336"},"geometry":{"type":"Polygon","coordinates":[[[-71.9008032229999,-34.6432177171171],[-71.9012879189999,-34.6432344971171],[-71.9018683459999,-34.6427618171172],[-71.9016010089999,-34.6425684591172],[-71.9008032229999,-34.6432177171171]]]}},{"type":"Feature","properties":{"id":"6206011001012","commune":"Paredones","code":"06206","gse":"D","quintil":"Q1","nse_score":611.7,"educ":11.1,"educ_score":540.0,"hacin":1.308,"hacin_class":"Hacinamiento Leve","hacin_score":785.6,"auto_score":300.0,"n_per":17,"n_hog":5,"source_year":2024,"crime_score":0.6482,"crime_nivel":"Alto","crime_color":"#f44336"},"geometry":{"type":"Polygon","coordinates":[[[-71.9013780509999,-34.6432441551171],[-71.9020901539999,-34.6432554591171],[-71.9021081479999,-34.6432335661171],[-71.9018992609999,-34.6428272041172],[-71.9013780509999,-34.6432441551171]]]}},{"type":"Feature","properties":{"id":"6206011001013","commune":"Paredones","code":"06206","gse":"D","quintil":"Q2","nse_score":644.3,"educ":11.1,"educ_score":540.0,"hacin":0.984,"hacin_class":"Sin Hacinamiento","hacin_score":854.4,"auto_score":140.0,"n_per":63,"n_hog":25,"source_year":2024,"crime_score":0.6516,"crime_nivel":"Alto","crime_color":"#f44336"},"geometry":{"type":"Polygon","coordinates":[[[-71.8976508839999,-34.6431887671171],[-71.8977032149999,-34.6440517711172],[-71.8983260949999,-34.6440760291172],[-71.8984233279999,-34.6450955101171],[-71.8986609019999,-34.6452444031171],[-71.8994282689999,-34.6452673021171],[-71.8994281049999,-34.6432285301171],[-71.8984260519999,-34.6431620741171],[-71.8984210499999,-34.6436685771171],[-71.8983684609999,-34.6431594391171],[-71.8976508839999,-34.6431887671171]]]}},{"type":"Feature","properties":{"id":"6206011001014","commune":"Paredones","code":"06206","gse":"E","quintil":"Q1","nse_score":603.8,"educ":12.3,"educ_score":620.0,"hacin":1.562,"hacin_class":"Hacinamiento Medio","hacin_score":731.4,"auto_score":90.9,"n_per":25,"n_hog":9,"source_year":2024,"crime_score":0.6535,"crime_nivel":"Alto","crime_color":"#f44336"},"geometry":{"type":"Polygon","coordinates":[[[-71.8971682929999,-34.6440484451171],[-71.8976523269999,-34.6440305371171],[-71.8975688219999,-34.6431442671172],[-71.8970943399999,-34.6431780551172],[-71.8971682929999,-34.6440484451171]]]}},{"type":"Feature","properties":{"id":"6206011001015","commune":"Paredones","code":"06206","gse":"D","quintil":"Q1","nse_score":605.7,"educ":9.8,"educ_score":453.3,"hacin":1.2,"hacin_class":"Hacinamiento Leve","hacin_score":808.5,"auto_score":45.5,"n_per":24,"n_hog":10,"source_year":2024,"crime_score":0.6525,"crime_nivel":"Alto","crime_color":"#f44336"},"geometry":{"type":"Polygon","coordinates":[[[-71.8970290789999,-34.6431771981171],[-71.8948247439999,-34.6431933091172],[-71.8942831589999,-34.6432554471171],[-71.8946070199999,-34.6441302671171],[-71.8970607519999,-34.6440456131171],[-71.8970290789999,-34.6431771981171]]]}},{"type":"Feature","properties":{"id":"6206011001016","commune":"Paredones","code":"06206","gse":"E","quintil":"Q1","nse_score":486.4,"educ":8.6,"educ_score":373.3,"hacin":1.111,"hacin_class":"Hacinamiento Leve","hacin_score":827.4,"auto_score":55.6,"n_per":20,"n_hog":7,"source_year":2024,"crime_score":0.6923,"crime_nivel":"Alto","crime_color":"#f44336"},"geometry":{"type":"Polygon","coordinates":[[[-71.8966674919999,-34.6450166641172],[-71.8971425389999,-34.6450005401171],[-71.8970814509999,-34.6440828051171],[-71.8965353089999,-34.6441131831171],[-71.8966674919999,-34.6450166641172]]]}},{"type":"Feature","properties":{"id":"6206011001017","commune":"Paredones","code":"06206","gse":"D","quintil":"Q1","nse_score":609.8,"educ":10.3,"educ_score":486.7,"hacin":1.182,"hacin_class":"Hacinamiento Leve","hacin_score":812.4,"auto_score":142.9,"n_per":13,"n_hog":7,"source_year":2024,"crime_score":0.6476,"crime_nivel":"Alto","crime_color":"#f44336"},"geometry":{"type":"Polygon","coordinates":[[[-71.8971952699999,-34.6449805541171],[-71.8977255319999,-34.6450054081171],[-71.8976400329999,-34.6440842411171],[-71.8971423089999,-34.6441072851172],[-71.8971952699999,-34.6449805541171]]]}},{"type":"Feature","properties":{"id":"6206011001019","commune":"Paredones","code":"06206","gse":"D","quintil":"Q1","nse_score":625.8,"educ":11.7,"educ_score":580.0,"hacin":1.267,"hacin_class":"Hacinamiento Leve","hacin_score":794.3,"auto_score":222.2,"n_per":19,"n_hog":7,"source_year":2024,"crime_score":0.644,"crime_nivel":"Alto","crime_color":"#f44336"},"geometry":{"type":"Polygon","coordinates":[[[-71.8959141959999,-34.6441262211172],[-71.8958828629999,-34.6449804241171],[-71.8965018789999,-34.6450021681171],[-71.8964783279999,-34.6441147321171],[-71.8959141959999,-34.6441262211172]]]}},{"type":"Feature","properties":{"id":"6206011001020","commune":"Paredones","code":"06206","gse":"D","quintil":"Q2","nse_score":644.7,"educ":10.2,"educ_score":480.0,"hacin":1.281,"hacin_class":"Hacinamiento Leve","hacin_score":791.2,"auto_score":192.3,"n_per":41,"n_hog":13,"source_year":2024,"crime_score":0.6445,"crime_nivel":"Alto","crime_color":"#f44336"},"geometry":{"type":"Polygon","coordinates":[[[-71.8957624629999,-34.6449992341171],[-71.8958047399999,-34.6441422241171],[-71.8953152199999,-34.6441465861171],[-71.8953231839999,-34.6449684441171],[-71.8957624629999,-34.6449992341171]]]}},{"type":"Feature","properties":{"id":"6206011001021","commune":"Paredones","code":"06206","gse":"C3","quintil":"Q3","nse_score":687.7,"educ":11.7,"educ_score":580.0,"hacin":0.733,"hacin_class":"Sin Hacinamiento","hacin_score":907.8,"auto_score":416.7,"n_per":11,"n_hog":5,"source_year":2024,"crime_score":0.6203,"crime_nivel":"Alto","crime_color":"#f44336"},"geometry":{"type":"Polygon","coordinates":[[[-71.8952484729999,-34.6441556201171],[-71.8944969849999,-34.6441865541171],[-71.8947282789999,-34.6450175121171],[-71.8952661429999,-34.6449712301171],[-71.8952484729999,-34.6441556201171]]]}},{"type":"Feature","properties":{"id":"6206011001023","commune":"Paredones","code":"06206","gse":"E","quintil":"Q1","nse_score":589.2,"educ":10.5,"educ_score":500.0,"hacin":1.206,"hacin_class":"Hacinamiento Leve","hacin_score":807.3,"auto_score":117.6,"n_per":41,"n_hog":17,"source_year":2024,"crime_score":0.6637,"crime_nivel":"Alto","crime_color":"#f44336"},"geometry":{"type":"Polygon","coordinates":[[[-71.8994882229999,-34.6445795981171],[-71.8995221999999,-34.6451404341171],[-71.9009792279999,-34.6451662641171],[-71.9009841789999,-34.6445687051171],[-71.8994882229999,-34.6445795981171]]]}},{"type":"Feature","properties":{"id":"6206011001024","commune":"Paredones","code":"06206","gse":"E","quintil":"Q1","nse_score":550.9,"educ":9.0,"educ_score":400.0,"hacin":1.114,"hacin_class":"Hacinamiento Leve","hacin_score":826.7,"auto_score":178.6,"n_per":39,"n_hog":15,"source_year":2024,"crime_score":0.6764,"crime_nivel":"Alto","crime_color":"#f44336"},"geometry":{"type":"Polygon","coordinates":[[[-71.9015879209999,-34.6461119831171],[-71.9016859799999,-34.6446142111171],[-71.901077944,-34.6445664731171],[-71.9010161389999,-34.6460413281171],[-71.9015879209999,-34.6461119831171]]]}},{"type":"Feature","properties":{"id":"6206011001025","commune":"Paredones","code":"06206","gse":"E","quintil":"Q1","nse_score":544.2,"educ":8.6,"educ_score":373.3,"hacin":1.25,"hacin_class":"Hacinamiento Leve","hacin_score":797.9,"auto_score":55.6,"n_per":25,"n_hog":10,"source_year":2024,"crime_score":0.6741,"crime_nivel":"Alto","crime_color":"#f44336"},"geometry":{"type":"Polygon","coordinates":[[[-71.8977624119999,-34.6449951651171],[-71.8983203599999,-34.6450247101171],[-71.8982996429999,-34.6446157841171],[-71.8977608789999,-34.6446161301171],[-71.8977624119999,-34.6449951651171]]]}},{"type":"Feature","properties":{"id":"6206011001026","commune":"Paredones","code":"06206","gse":"E","quintil":"Q1","nse_score":489.5,"educ":9.0,"educ_score":400.0,"hacin":1.346,"hacin_class":"Hacinamiento Leve","hacin_score":777.4,"auto_score":203.7,"n_per":70,"n_hog":22,"source_year":2024,"crime_score":0.7083,"crime_nivel":"Alto","crime_color":"#f44336"},"geometry":{"type":"Polygon","coordinates":[[[-71.8949213869999,-34.6450316711171],[-71.8953085199999,-34.6460664371171],[-71.8973644169999,-34.6460159521171],[-71.8980353269999,-34.6458290541171],[-71.8978738709999,-34.6456194571171],[-71.8973615879999,-34.6455482221171],[-71.8978931809999,-34.6455859221171],[-71.8982380309999,-34.6458722641171],[-71.8985927149999,-34.6452587741171],[-71.8981894159999,-34.6450839631171],[-71.8949213869999,-34.6450316711171]]]}},{"type":"Feature","properties":{"id":"6206011001028","commune":"Paredones","code":"06206","gse":"E","quintil":"Q1","nse_score":587.7,"educ":10.3,"educ_score":486.7,"hacin":1.105,"hacin_class":"Hacinamiento Leve","hacin_score":828.7,"auto_score":55.6,"n_per":21,"n_hog":9,"source_year":2024,"crime_score":0.6578,"crime_nivel":"Alto","crime_color":"#f44336"},"geometry":{"type":"Polygon","coordinates":[[[-71.9009087779999,-34.6460787231171],[-71.9009646529999,-34.6452442441171],[-71.8994968,-34.6452102611171],[-71.8995131579999,-34.6459989331171],[-71.9009087779999,-34.6460787231171]]]}},{"type":"Feature","properties":{"id":"6206011001030","commune":"Paredones","code":"06206","gse":"E","quintil":"Q1","nse_score":461.6,"educ":7.0,"educ_score":266.7,"hacin":0.692,"hacin_class":"Sin Hacinamiento","hacin_score":916.5,"auto_score":100.0,"n_per":9,"n_hog":5,"source_year":2024,"crime_score":0.697,"crime_nivel":"Alto","crime_color":"#f44336"},"geometry":{"type":"Polygon","coordinates":[[[-71.8982866889999,-34.6458833441171],[-71.8994404949999,-34.6459338481171],[-71.8994409219999,-34.6453461941171],[-71.8986471729999,-34.6452711841171],[-71.8982866889999,-34.6458833441171]]]}},{"type":"Feature","properties":{"id":"6206011001032","commune":"Paredones","code":"06206","gse":"D","quintil":"Q1","nse_score":623.9,"educ":11.2,"educ_score":546.7,"hacin":1.263,"hacin_class":"Hacinamiento Leve","hacin_score":795.1,"auto_score":0.0,"n_per":24,"n_hog":6,"source_year":2024,"crime_score":0.6463,"crime_nivel":"Alto","crime_color":"#f44336"},"geometry":{"type":"Polygon","coordinates":[[[-71.9052391769999,-34.6461937491171],[-71.9051226419999,-34.6459283941171],[-71.904694591,-34.6456695811171],[-71.9036614739999,-34.6455870401171],[-71.9036350009999,-34.6460160691171],[-71.9052391769999,-34.6461937491171]]]}},{"type":"Feature","properties":{"id":"6206011001033","commune":"Paredones","code":"06206","gse":"E","quintil":"Q1","nse_score":580.5,"educ":11.1,"educ_score":540.0,"hacin":0.788,"hacin_class":"Sin Hacinamiento","hacin_score":896.1,"auto_score":152.2,"n_per":41,"n_hog":17,"source_year":2024,"crime_score":0.6668,"crime_nivel":"Alto","crime_color":"#f44336"},"geometry":{"type":"Polygon","coordinates":[[[-71.8973517909999,-34.6460526601171],[-71.8976209729999,-34.6461927391171],[-71.8976776389999,-34.6464579451171],[-71.8986509309999,-34.6470750441171],[-71.8990232879999,-34.6476881411171],[-71.8989305029999,-34.6477478411171],[-71.8990501899999,-34.6483695621171],[-71.8988176129999,-34.6485919971171],[-71.8985988359999,-34.6491198541171],[-71.8989348949999,-34.6502192161171],[-71.8987420939999,-34.6507660121171],[-71.8993283849999,-34.651835896117],[-71.8994304169999,-34.6518300921171],[-71.8997531899999,-34.6514249731171],[-71.8997866509999,-34.6512366111171],[-71.8995906989999,-34.651217124117],[-71.8997873959999,-34.651216408117],[-71.8998040679999,-34.6504848861171],[-71.8994936629999,-34.6492814711171],[-71.8991024749999,-34.649339029117],[-71.8994875129999,-34.6492628391171],[-71.8996172479999,-34.6483907801171],[-71.8994393359999,-34.6459744021171],[-71.8980616359999,-34.6458583051171],[-71.8973517909999,-34.6460526601171]]]}},{"type":"Feature","properties":{"id":"6206011001034","commune":"Paredones","code":"06206","gse":"E","quintil":"Q1","nse_score":531.6,"educ":8.8,"educ_score":386.7,"hacin":1.053,"hacin_class":"Hacinamiento Leve","hacin_score":839.9,"auto_score":125.0,"n_per":20,"n_hog":7,"source_year":2024,"crime_score":0.6767,"crime_nivel":"Alto","crime_color":"#f44336"},"geometry":{"type":"Polygon","coordinates":[[[-71.9030390419999,-34.6468291471171],[-71.9035411349999,-34.6468720711171],[-71.9035697739999,-34.6460713191171],[-71.9030948189999,-34.6460251751171],[-71.9030390419999,-34.6468291471171]]]}},{"type":"Feature","properties":{"id":"6206011001035","commune":"Paredones","code":"06206","gse":"E","quintil":"Q1","nse_score":422.8,"educ":9.0,"educ_score":400.0,"hacin":1.471,"hacin_class":"Hacinamiento Leve","hacin_score":750.9,"auto_score":62.5,"n_per":25,"n_hog":6,"source_year":2024,"crime_score":0.7159,"crime_nivel":"Alto","crime_color":"#f44336"},"geometry":{"type":"Polygon","coordinates":[[[-71.9029647539999,-34.6468684881171],[-71.9030063829999,-34.6460795491171],[-71.902978361,-34.6460537291171],[-71.9025227119999,-34.6462105631171],[-71.9024823309999,-34.6467951241171],[-71.9029647539999,-34.6468684881171]]]}},{"type":"Feature","properties":{"id":"6206011001036","commune":"Paredones","code":"06206","gse":"E","quintil":"Q1","nse_score":515.8,"educ":8.9,"educ_score":393.3,"hacin":1.056,"hacin_class":"Hacinamiento Leve","hacin_score":839.2,"auto_score":133.3,"n_per":38,"n_hog":15,"source_year":2024,"crime_score":0.6882,"crime_nivel":"Alto","crime_color":"#f44336"},"geometry":{"type":"Polygon","coordinates":[[[-71.9009344739999,-34.6461287061171],[-71.899494537,-34.6461009481171],[-71.8995673209999,-34.6469095551171],[-71.9009758479999,-34.6467012571171],[-71.9009344739999,-34.6461287061171]]]}},{"type":"Feature","properties":{"id":"6206011001038","commune":"Paredones","code":"06206","gse":"E","quintil":"Q1","nse_score":543.1,"educ":8.9,"educ_score":393.3,"hacin":1.046,"hacin_class":"Hacinamiento Leve","hacin_score":841.4,"auto_score":55.6,"n_per":23,"n_hog":9,"source_year":2024,"crime_score":0.6738,"crime_nivel":"Alto","crime_color":"#f44336"},"geometry":{"type":"Polygon","coordinates":[[[-71.90106162,-34.6461345271171],[-71.9010371789999,-34.6467013161171],[-71.9018988249999,-34.6467674611171],[-71.901899307,-34.6461803861171],[-71.90106162,-34.6461345271171]]]}},{"type":"Feature","properties":{"id":"6206011001040","commune":"Paredones","code":"06206","gse":"E","quintil":"Q1","nse_score":605.1,"educ":11.2,"educ_score":546.7,"hacin":1.476,"hacin_class":"Hacinamiento Leve","hacin_score":749.7,"auto_score":76.9,"n_per":31,"n_hog":11,"source_year":2024,"crime_score":0.655,"crime_nivel":"Alto","crime_color":"#f44336"},"geometry":{"type":"Polygon","coordinates":[[[-71.9106605129999,-34.6494630761171],[-71.9110150889999,-34.6489518811171],[-71.9108155569999,-34.6483694781171],[-71.90994545,-34.6480725481171],[-71.9090431099999,-34.6481373911171],[-71.9077855669999,-34.6478325871171],[-71.9068631379999,-34.6470723821171],[-71.906137784,-34.6467043491171],[-71.905488192,-34.6468555031171],[-71.9046239309999,-34.6479787911171],[-71.9051591839999,-34.6480496971171],[-71.9058411569999,-34.6483438451171],[-71.9060063289999,-34.6481266811171],[-71.9059408659999,-34.6476477211171],[-71.906026816,-34.6472516941171],[-71.9060278709999,-34.6481296511171],[-71.9058610699999,-34.6483518131171],[-71.9067397539999,-34.6486969021171],[-71.9069317529999,-34.6482743911171],[-71.9065069019999,-34.6480327331171],[-71.9078422369999,-34.6484557991171],[-71.9069719739999,-34.6482883921171],[-71.9067802449999,-34.6487103391171],[-71.9106605129999,-34.6494630761171]]]}},{"type":"Feature","properties":{"id":"6206011001041","commune":"Paredones","code":"06206","gse":"E","quintil":"Q1","nse_score":550.0,"educ":9.6,"educ_score":440.0,"hacin":0.909,"hacin_class":"Sin Hacinamiento","hacin_score":870.4,"auto_score":16.1,"n_per":70,"n_hog":30,"source_year":2024,"crime_score":0.687,"crime_nivel":"Alto","crime_color":"#f44336"},"geometry":{"type":"Polygon","coordinates":[[[-71.901025634,-34.6468065901171],[-71.9010687179999,-34.6478263501171],[-71.9011574969999,-34.6478743141171],[-71.9015546479999,-34.6478496351171],[-71.9016706719999,-34.6471140601171],[-71.9017427349999,-34.6472312731171],[-71.9037324259999,-34.6473695441171],[-71.9037025719999,-34.6469646231171],[-71.901025634,-34.6468065901171]]]}},{"type":"Feature","properties":{"id":"6206011001042","commune":"Paredones","code":"06206","gse":"E","quintil":"Q1","nse_score":588.2,"educ":11.1,"educ_score":540.0,"hacin":1.154,"hacin_class":"Hacinamiento Leve","hacin_score":818.3,"auto_score":200.0,"n_per":45,"n_hog":15,"source_year":2024,"crime_score":0.6654,"crime_nivel":"Alto","crime_color":"#f44336"},"geometry":{"type":"Polygon","coordinates":[[[-71.9010189089999,-34.6477945631171],[-71.9009703049999,-34.6467722911171],[-71.8995844499999,-34.6469801501171],[-71.8997019919999,-34.6478276441171],[-71.9010189089999,-34.6477945631171]]]}},{"type":"Feature","properties":{"id":"6206011001044","commune":"Paredones","code":"06206","gse":"D","quintil":"Q2","nse_score":659.0,"educ":9.5,"educ_score":433.3,"hacin":0.786,"hacin_class":"Sin Hacinamiento","hacin_score":896.7,"auto_score":333.3,"n_per":11,"n_hog":6,"source_year":2024,"crime_score":0.6301,"crime_nivel":"Alto","crime_color":"#f44336"},"geometry":{"type":"Polygon","coordinates":[[[-71.9022454149999,-34.6472867711171],[-71.9017093849999,-34.6472734461171],[-71.9016210409999,-34.6478462851171],[-71.9021847819999,-34.6478153911171],[-71.9022454149999,-34.6472867711171]]]}},{"type":"Feature","properties":{"id":"6206011001045","commune":"Paredones","code":"06206","gse":"D","quintil":"Q2","nse_score":650.9,"educ":11.3,"educ_score":553.3,"hacin":1.143,"hacin_class":"Hacinamiento Leve","hacin_score":820.7,"auto_score":166.7,"n_per":16,"n_hog":6,"source_year":2024,"crime_score":0.6344,"crime_nivel":"Alto","crime_color":"#f44336"},"geometry":{"type":"Polygon","coordinates":[[[-71.9027615019999,-34.6473137041171],[-71.9023222479999,-34.6472998531171],[-71.902255308,-34.6478158331171],[-71.9026710459999,-34.6477886861171],[-71.9027615019999,-34.6473137041171]]]}},{"type":"Feature","properties":{"id":"6206011001046","commune":"Paredones","code":"06206","gse":"D","quintil":"Q1","nse_score":632.8,"educ":9.8,"educ_score":453.3,"hacin":0.851,"hacin_class":"Sin Hacinamiento","hacin_score":882.8,"auto_score":66.7,"n_per":40,"n_hog":15,"source_year":2024,"crime_score":0.6483,"crime_nivel":"Alto","crime_color":"#f44336"},"geometry":{"type":"Polygon","coordinates":[[[-71.9029063049999,-34.6479896561171],[-71.9024775659999,-34.6478386021171],[-71.9013064349999,-34.6479098941171],[-71.9012056629999,-34.6480024841171],[-71.9011704159999,-34.6486752481171],[-71.9031690979999,-34.6487648521171],[-71.9038951929999,-34.6483512341171],[-71.9046096529999,-34.6475303631171],[-71.9028044119999,-34.6473203111171],[-71.9027100509999,-34.6478210541171],[-71.9025128979999,-34.6478370521171],[-71.9029063049999,-34.6479896561171]]]}},{"type":"Feature","properties":{"id":"6206011001047","commune":"Paredones","code":"06206","gse":"E","quintil":"Q1","nse_score":478.1,"educ":8.9,"educ_score":393.3,"hacin":1.227,"hacin_class":"Hacinamiento Leve","hacin_score":802.7,"auto_score":50.0,"n_per":27,"n_hog":10,"source_year":2024,"crime_score":0.6975,"crime_nivel":"Alto","crime_color":"#f44336"},"geometry":{"type":"Polygon","coordinates":[[[-71.8996310779999,-34.6486190101171],[-71.9011119449999,-34.6486599561171],[-71.901113887,-34.6479343051171],[-71.8996878339999,-34.6479024461171],[-71.8996310779999,-34.6486190101171]]]}},{"type":"Feature","properties":{"id":"6206011001048","commune":"Paredones","code":"06206","gse":"E","quintil":"Q1","nse_score":462.4,"educ":7.7,"educ_score":313.3,"hacin":1.286,"hacin_class":"Hacinamiento Leve","hacin_score":790.3,"auto_score":100.0,"n_per":18,"n_hog":9,"source_year":2024,"crime_score":0.6998,"crime_nivel":"Alto","crime_color":"#f44336"},"geometry":{"type":"Polygon","coordinates":[[[-71.9038348519999,-34.649013962117],[-71.9050807349999,-34.6493392351171],[-71.9057660969999,-34.6489103561171],[-71.9065073199999,-34.6486675191171],[-71.9051049479999,-34.6480732701171],[-71.9046340919999,-34.6480139761171],[-71.9042001349999,-34.6484275521171],[-71.9038348519999,-34.649013962117]]]}},{"type":"Feature","properties":{"id":"6206011001050","commune":"Paredones","code":"06206","gse":"E","quintil":"Q1","nse_score":570.3,"educ":10.7,"educ_score":513.3,"hacin":0.9,"hacin_class":"Sin Hacinamiento","hacin_score":872.3,"auto_score":116.7,"n_per":72,"n_hog":30,"source_year":2024,"crime_score":0.6805,"crime_nivel":"Alto","crime_color":"#f44336"},"geometry":{"type":"Polygon","coordinates":[[[-71.9034588979999,-34.6491370281171],[-71.9030921119999,-34.6488281761171],[-71.9007292359999,-34.6487060691171],[-71.9008277809999,-34.6500434911171],[-71.9007465839999,-34.6495314741171],[-71.9001190399999,-34.6495849951171],[-71.9007410879999,-34.6494730171171],[-71.9006180299999,-34.6487246881171],[-71.8995752749999,-34.6487442051171],[-71.8995221399999,-34.6492174841171],[-71.8998346759999,-34.650193868117],[-71.9002272559999,-34.650959621117],[-71.9002911519999,-34.651421805117],[-71.9008653789999,-34.652370431117],[-71.902017397,-34.6522112481171],[-71.9029885479999,-34.651706140117],[-71.9032868509999,-34.650983603117],[-71.9032886169999,-34.6495978891171],[-71.9034588979999,-34.6491370281171]]]}},{"type":"Feature","properties":{"id":"6206011001051","commune":"Paredones","code":"06206","gse":"D","quintil":"Q1","nse_score":618.5,"educ":9.8,"educ_score":453.3,"hacin":1.132,"hacin_class":"Hacinamiento Leve","hacin_score":822.9,"auto_score":290.3,"n_per":77,"n_hog":28,"source_year":2024,"crime_score":0.6651,"crime_nivel":"Alto","crime_color":"#f44336"},"geometry":{"type":"Polygon","coordinates":[[[-71.9059998909999,-34.6488723121171],[-71.9062313429999,-34.650530481117],[-71.9064230779999,-34.6506657831171],[-71.9078856979999,-34.650971806117],[-71.9079965239999,-34.6502411661171],[-71.9091678849999,-34.650490044117],[-71.9094023129999,-34.6500282121171],[-71.9078974469999,-34.6497198331171],[-71.9085653209999,-34.6498171701171],[-71.9086804519999,-34.6493947551171],[-71.9083660849999,-34.6493019981171],[-71.9087062369999,-34.6493641791171],[-71.9087975019999,-34.6491733251171],[-71.9078124869999,-34.6490172251171],[-71.9077299309999,-34.6492476741171],[-71.9075140069999,-34.6495177851171],[-71.907309574,-34.6496513031171],[-71.9069372609999,-34.6497677051171],[-71.907494632,-34.6494952081171],[-71.907761149,-34.6490107711171],[-71.9067799149999,-34.6487884261171],[-71.9062335149999,-34.6488032421171],[-71.9059998909999,-34.6488723121171]]]}},{"type":"Feature","properties":{"id":"6206011001053","commune":"Paredones","code":"06206","gse":"E","quintil":"Q1","nse_score":543.9,"educ":11.3,"educ_score":553.3,"hacin":1.2,"hacin_class":"Hacinamiento Leve","hacin_score":808.5,"auto_score":100.0,"n_per":6,"n_hog":4,"source_year":2024,"crime_score":0.6678,"crime_nivel":"Alto","crime_color":"#f44336"},"geometry":{"type":"Polygon","coordinates":[[[-71.9059830689999,-34.6493219911171],[-71.9059313229999,-34.6489046681171],[-71.9046103589999,-34.649747706117],[-71.9048756209999,-34.6499865111171],[-71.9059830689999,-34.6493219911171]]]}},{"type":"Feature","properties":{"id":"6206011001054","commune":"Paredones","code":"06206","gse":"E","quintil":"Q1","nse_score":547.7,"educ":8.1,"educ_score":340.0,"hacin":1.235,"hacin_class":"Hacinamiento Leve","hacin_score":801.0,"auto_score":285.7,"n_per":21,"n_hog":7,"source_year":2024,"crime_score":0.6715,"crime_nivel":"Alto","crime_color":"#f44336"},"geometry":{"type":"Polygon","coordinates":[[[-71.9021693509999,-34.653452380117],[-71.9027290629999,-34.653084893117],[-71.9034242069999,-34.651933576117],[-71.9039781969999,-34.6501651671171],[-71.904948509,-34.649347710117],[-71.9038281349999,-34.6490248771171],[-71.9036079469999,-34.649473556117],[-71.9035421439999,-34.651040999117],[-71.9033697559999,-34.6515560011171],[-71.9029142749999,-34.6522162961171],[-71.9026165179999,-34.6523417331171],[-71.9026002979999,-34.652529587117],[-71.9016880799999,-34.653179078117],[-71.9021693509999,-34.653452380117]]]}},{"type":"Feature","properties":{"id":"6206011001055","commune":"Paredones","code":"06206","gse":"E","quintil":"Q1","nse_score":563.6,"educ":8.3,"educ_score":353.3,"hacin":1.1,"hacin_class":"Hacinamiento Leve","hacin_score":829.8,"auto_score":66.7,"n_per":33,"n_hog":14,"source_year":2024,"crime_score":0.67,"crime_nivel":"Alto","crime_color":"#f44336"},"geometry":{"type":"Polygon","coordinates":[[[-71.9079540489999,-34.6509721301171],[-71.9062584009999,-34.6506251611171],[-71.9061871759999,-34.6503335151171],[-71.9054392929999,-34.6508829641171],[-71.9094616349999,-34.651871306117],[-71.9095707929999,-34.6512691771171],[-71.9099652459999,-34.650314355117],[-71.9106280669999,-34.6494935231171],[-71.9088711149999,-34.6491987561171],[-71.9086474419999,-34.6498401701171],[-71.9094156979999,-34.6499937721171],[-71.9096453779999,-34.6494541161171],[-71.9090263449999,-34.6509910831171],[-71.9094481749999,-34.651224196117],[-71.9089952539999,-34.6510392831171],[-71.9091752369999,-34.650518725117],[-71.908030805,-34.650245166117],[-71.9079540489999,-34.6509721301171]]]}},{"type":"Feature","properties":{"id":"6206011001056","commune":"Paredones","code":"06206","gse":"E","quintil":"Q1","nse_score":567.3,"educ":8.7,"educ_score":380.0,"hacin":1.0,"hacin_class":"Hacinamiento Leve","hacin_score":851.1,"auto_score":0.0,"n_per":11,"n_hog":4,"source_year":2024,"crime_score":0.6615,"crime_nivel":"Alto","crime_color":"#f44336"},"geometry":{"type":"Polygon","coordinates":[[[-71.9060755279999,-34.6497717301171],[-71.9060139849999,-34.6493423731171],[-71.9048954689999,-34.6500160901171],[-71.905249179,-34.6502986181171],[-71.9060755279999,-34.6497717301171]]]}},{"type":"Feature","properties":{"id":"6206011001057","commune":"Paredones","code":"06206","gse":"D","quintil":"Q2","nse_score":657.0,"educ":10.9,"educ_score":526.7,"hacin":0.865,"hacin_class":"Sin Hacinamiento","hacin_score":879.8,"auto_score":29.4,"n_per":32,"n_hog":16,"source_year":2024,"crime_score":0.6374,"crime_nivel":"Alto","crime_color":"#f44336"},"geometry":{"type":"Polygon","coordinates":[[[-71.9033711179999,-34.652379631117],[-71.9037496029999,-34.652510628117],[-71.9038264029999,-34.652288602117],[-71.9043363789999,-34.6504690891171],[-71.9048401039999,-34.6500138161171],[-71.9045763459999,-34.649770345117],[-71.9039603999999,-34.650347492117],[-71.9033711179999,-34.652379631117]]]}},{"type":"Feature","properties":{"id":"6206011001058","commune":"Paredones","code":"06206","gse":"C3","quintil":"Q3","nse_score":708.6,"educ":12.5,"educ_score":633.3,"hacin":1.0,"hacin_class":"Hacinamiento Leve","hacin_score":851.1,"auto_score":83.3,"n_per":13,"n_hog":6,"source_year":2024,"crime_score":0.6137,"crime_nivel":"Alto","crime_color":"#f44336"},"geometry":{"type":"Polygon","coordinates":[[[-71.906156398,-34.6503151711171],[-71.9060796829999,-34.6498412821171],[-71.9053035279999,-34.6503550361171],[-71.9056686349999,-34.6506431921171],[-71.906156398,-34.6503151711171]]]}},{"type":"Feature","properties":{"id":"6206011001062","commune":"Paredones","code":"06206","gse":"D","quintil":"Q2","nse_score":643.5,"educ":11.2,"educ_score":546.7,"hacin":1.143,"hacin_class":"Hacinamiento Leve","hacin_score":820.7,"auto_score":0.0,"n_per":32,"n_hog":12,"source_year":2024,"crime_score":0.642,"crime_nivel":"Alto","crime_color":"#f44336"},"geometry":{"type":"Polygon","coordinates":[[[-71.9048744799999,-34.6506759611171],[-71.9043726939999,-34.650497778117],[-71.9038173229999,-34.652563515117],[-71.9043008349999,-34.652640851117],[-71.9048744799999,-34.6506759611171]]]}},{"type":"Feature","properties":{"id":"6206011001067","commune":"Paredones","code":"06206","gse":"E","quintil":"Q1","nse_score":527.5,"educ":9.4,"educ_score":426.7,"hacin":1.458,"hacin_class":"Hacinamiento Leve","hacin_score":753.5,"auto_score":76.9,"n_per":35,"n_hog":13,"source_year":2024,"crime_score":0.6832,"crime_nivel":"Alto","crime_color":"#f44336"},"geometry":{"type":"Polygon","coordinates":[[[-71.8957703559999,-34.653812174117],[-71.8967394719999,-34.653418577117],[-71.8992782599999,-34.652797550117],[-71.8994588979999,-34.6526473311171],[-71.8995711299999,-34.6522764321171],[-71.897931561,-34.6524633601171],[-71.8966716069999,-34.652842579117],[-71.8953997809999,-34.653399247117],[-71.8957703559999,-34.653812174117]]]}},{"type":"Feature","properties":{"id":"6206011001072","commune":"Paredones","code":"06206","gse":"C3","quintil":"Q3","nse_score":699.8,"educ":12.0,"educ_score":600.0,"hacin":1.125,"hacin_class":"Hacinamiento Leve","hacin_score":824.5,"auto_score":250.0,"n_per":18,"n_hog":8,"source_year":2024,"crime_score":0.6183,"crime_nivel":"Alto","crime_color":"#f44336"},"geometry":{"type":"Polygon","coordinates":[[[-71.9082682929999,-34.655833480117],[-71.9084470519999,-34.654686114117],[-71.9073268419999,-34.654585734117],[-71.9073742479999,-34.6536573641171],[-71.9056804189999,-34.653139472117],[-71.9057520499999,-34.652896053117],[-71.9056409319999,-34.652909228117],[-71.9056389079999,-34.653124005117],[-71.9056950709999,-34.653161095117],[-71.9066111389999,-34.653442205117],[-71.9070452599999,-34.653758414117],[-71.9065944039999,-34.6534655511171],[-71.905681538,-34.653185833117],[-71.9055777919999,-34.653089207117],[-71.9054559869999,-34.653436404117],[-71.9069889979999,-34.653911095117],[-71.9054438299999,-34.653471059117],[-71.9053383529999,-34.653648074117],[-71.9055988609999,-34.652899728117],[-71.9052923429999,-34.652806811117],[-71.9052437089999,-34.653139749117],[-71.9050016119999,-34.653619654117],[-71.9050322779999,-34.653391033117],[-71.9039382809999,-34.653081831117],[-71.9034125889999,-34.653374397117],[-71.9030109319999,-34.653326978117],[-71.9023722289999,-34.6536397181171],[-71.9028911679999,-34.654195671117],[-71.904393222,-34.654098375117],[-71.9060585729999,-34.654699751117],[-71.9062134019999,-34.654289035117],[-71.9060880219999,-34.654713962117],[-71.9064027289999,-34.654865820117],[-71.9065558049999,-34.654394075117],[-71.9064324849999,-34.654880178117],[-71.9070765529999,-34.655183158117],[-71.907232614,-34.654602785117],[-71.9071064429999,-34.655198791117],[-71.9082682929999,-34.655833480117]]]}},{"type":"Feature","properties":{"id":"6206011001073","commune":"Paredones","code":"06206","gse":"E","quintil":"Q1","nse_score":569.4,"educ":9.3,"educ_score":420.0,"hacin":0.8,"hacin_class":"Sin Hacinamiento","hacin_score":893.6,"auto_score":166.7,"n_per":28,"n_hog":14,"source_year":2024,"crime_score":0.6664,"crime_nivel":"Alto","crime_color":"#f44336"},"geometry":{"type":"Polygon","coordinates":[[[-71.895079172,-34.654296421117],[-71.8979748889999,-34.656129437117],[-71.8982922289999,-34.655845685117],[-71.8983404179999,-34.655629689117],[-71.8989537549999,-34.655323514117],[-71.8990322739999,-34.655125211117],[-71.8996960949999,-34.654882287117],[-71.8997399279999,-34.654647979117],[-71.8999535439999,-34.654489430117],[-71.9001694339999,-34.654502707117],[-71.9010286489999,-34.653472458117],[-71.9016382919999,-34.653219248117],[-71.9009722529999,-34.652870506117],[-71.8999745119999,-34.652828279117],[-71.9000331299999,-34.653057732117],[-71.8999647379999,-34.654003718117],[-71.9002151949999,-34.654081480117],[-71.9000085199999,-34.654104607117],[-71.8999152439999,-34.654026561117],[-71.8999436619999,-34.652924482117],[-71.8998962429999,-34.652825809117],[-71.8994844229999,-34.6528464031171],[-71.8970130099999,-34.653400552117],[-71.8960214669999,-34.6537505251171],[-71.8968132329999,-34.654297655117],[-71.8972669749999,-34.654032048117],[-71.8977686639999,-34.654003850117],[-71.8972786829999,-34.654070192117],[-71.8968519859999,-34.654317361117],[-71.8975346379999,-34.654501743117],[-71.8970192379999,-34.654446801117],[-71.8959810139999,-34.653789886117],[-71.895079172,-34.654296421117]]]}},{"type":"Feature","properties":{"id":"6206011001031","commune":"Paredones","code":"06206","gse":"E","quintil":"Q1","nse_score":579.8,"educ":10.6,"educ_score":506.7,"hacin":1.529,"hacin_class":"Hacinamiento Medio","hacin_score":738.4,"auto_score":111.1,"n_per":26,"n_hog":7,"source_year":2024,"crime_score":0.6621,"crime_nivel":"Alto","crime_color":"#f44336"},"geometry":{"type":"MultiPolygon","coordinates":[[[[-71.9046401909999,-34.6474976161171],[-71.9047977389999,-34.6473034111171],[-71.9037988059999,-34.6469933341171],[-71.9037955899999,-34.6473785151171],[-71.9046401909999,-34.6474976161171]]],[[[-71.9036037519999,-34.6460742821171],[-71.9035977429999,-34.6468956071171],[-71.9048249709999,-34.6472608151171],[-71.9054208409999,-34.6465912141171],[-71.9060556259999,-34.6463422161171],[-71.9036037519999,-34.6460742821171]]],[[[-71.9030842279999,-34.6459772951171],[-71.9035735769999,-34.6459868131171],[-71.9035943119999,-34.6455617951171],[-71.902940209,-34.6454843471171],[-71.9030842279999,-34.6459772951171]]]]}},{"type":"Feature","properties":{"id":"6206011001022","commune":"Paredones","code":"06206","gse":"C2","quintil":"Q4","nse_score":758.6,"educ":13.2,"educ_score":680.0,"hacin":0.824,"hacin_class":"Sin Hacinamiento","hacin_score":888.6,"auto_score":100.0,"n_per":14,"n_hog":5,"source_year":2024,"crime_score":0.5969,"crime_nivel":"Alto","crime_color":"#f44336"},"geometry":{"type":"MultiPolygon","coordinates":[[[[-71.8927370079999,-34.6452360531171],[-71.8927751579999,-34.6456204081171],[-71.8933905909999,-34.6455216351171],[-71.8934249739999,-34.6451992431171],[-71.8927370079999,-34.6452360531171]]],[[[-71.8926553579999,-34.6451927951171],[-71.8946849089999,-34.6450224411171],[-71.8944728689999,-34.6441558001172],[-71.892343379,-34.6444029361171],[-71.8926553579999,-34.6451927951171]]]]}},{"type":"Feature","properties":{"id":"6206011001060","commune":"Paredones","code":"06206","gse":"D","quintil":"Q1","nse_score":617.1,"educ":10.8,"educ_score":520.0,"hacin":0.87,"hacin_class":"Sin Hacinamiento","hacin_score":878.8,"auto_score":136.4,"n_per":20,"n_hog":10,"source_year":2024,"crime_score":0.6473,"crime_nivel":"Alto","crime_color":"#f44336"},"geometry":{"type":"MultiPolygon","coordinates":[[[[-71.904934152,-34.652654347117],[-71.9057617579999,-34.652862897117],[-71.9060255479999,-34.651971737117],[-71.9052147849999,-34.651793168117],[-71.904934152,-34.652654347117]]],[[[-71.9046631369999,-34.651637533117],[-71.9051981739999,-34.6517375601171],[-71.9053776619999,-34.6509094361171],[-71.9056225249999,-34.6506815081171],[-71.9052748969999,-34.650376706117],[-71.9049179009999,-34.6506922231171],[-71.9046631369999,-34.651637533117]]]]}},{"type":"Feature","properties":{"id":"6206011001064","commune":"Paredones","code":"06206","gse":"D","quintil":"Q2","nse_score":658.8,"educ":10.7,"educ_score":513.3,"hacin":1.421,"hacin_class":"Hacinamiento Leve","hacin_score":761.5,"auto_score":0.0,"n_per":27,"n_hog":8,"source_year":2024,"crime_score":0.6352,"crime_nivel":"Alto","crime_color":"#f44336"},"geometry":{"type":"MultiPolygon","coordinates":[[[[-71.9050058379999,-34.653352909117],[-71.9051750619999,-34.653209959117],[-71.905164651,-34.653047101117],[-71.9047022979999,-34.652925138117],[-71.9038856669999,-34.652614294117],[-71.9039211119999,-34.653042734117],[-71.9050058379999,-34.653352909117]]],[[[-71.9043203699999,-34.652695795117],[-71.9052416049999,-34.6529981941171],[-71.9052593359999,-34.652795868117],[-71.9048944229999,-34.652669964117],[-71.9051874989999,-34.6517721871171],[-71.9046519699999,-34.651672069117],[-71.9043203699999,-34.652695795117]]]]}},{"type":"Feature","properties":{"id":"6206011001027","commune":"Paredones","code":"06206","gse":"E","quintil":"Q1","nse_score":491.5,"educ":8.8,"educ_score":386.7,"hacin":1.067,"hacin_class":"Hacinamiento Leve","hacin_score":836.9,"auto_score":71.4,"n_per":16,"n_hog":6,"source_year":2024,"crime_score":0.6891,"crime_nivel":"Alto","crime_color":"#f44336"},"geometry":{"type":"MultiPolygon","coordinates":[[[[-71.9024359669999,-34.6468008301171],[-71.9024387809999,-34.6462073671171],[-71.9019940079999,-34.6461919851171],[-71.9019682799999,-34.6467761981171],[-71.9024359669999,-34.6468008301171]]],[[[-71.9017138249999,-34.6461210191171],[-71.9024788349999,-34.6461722551171],[-71.9029841439999,-34.6460049141171],[-71.9028324829999,-34.6454455501171],[-71.9017367379999,-34.6451793641171],[-71.9017138249999,-34.6461210191171]]]]}},{"type":"Feature","properties":{"id":"6206023002001","commune":"Paredones","code":"06206","gse":"D","quintil":"Q1","nse_score":609.6,"educ":9.9,"educ_score":460.0,"hacin":1.204,"hacin_class":"Hacinamiento Leve","hacin_score":807.7,"auto_score":125.0,"n_per":65,"n_hog":24,"source_year":2024,"crime_score":0.6644,"crime_nivel":"Alto","crime_color":"#f44336"},"geometry":{"type":"Polygon","coordinates":[[[-72.0388626929999,-34.6404439721172],[-72.0380658739999,-34.6412877741171],[-72.0370014049999,-34.6420138761172],[-72.0355331999999,-34.6425012941172],[-72.0347567429999,-34.6426233671172],[-72.0347818379999,-34.6427333191172],[-72.0390442369999,-34.6424145291172],[-72.0389768109999,-34.6418377191172],[-72.0372515109999,-34.6419664351171],[-72.0378786939999,-34.6418689741171],[-72.0388778099999,-34.6413960331171],[-72.0389848969999,-34.6413954761172],[-72.0390277119999,-34.6418041931171],[-72.0408634649999,-34.6416876151172],[-72.0403195609999,-34.6412220991172],[-72.0407478519999,-34.6414801831172],[-72.0405534219999,-34.6410235891172],[-72.0406165459999,-34.6405159451172],[-72.0405971709999,-34.6410218671172],[-72.0409422449999,-34.6416943031172],[-72.0414953979999,-34.6416740281172],[-72.0409207089999,-34.6417319891172],[-72.0409641429999,-34.6423045571172],[-72.0418104269999,-34.6422678311171],[-72.0424861939999,-34.6420667671172],[-72.04329759,-34.6416360841171],[-72.0436926639999,-34.6411309301171],[-72.0432826899999,-34.6409909121172],[-72.0427033349999,-34.6411101001172],[-72.0426154269999,-34.6414145201172],[-72.0421608159999,-34.6414825391171],[-72.0415998999999,-34.6413517271171],[-72.0410432019999,-34.6407108021172],[-72.0407712319999,-34.6390594121172],[-72.0402256019999,-34.6391352111172],[-72.0396709139999,-34.6393977841172],[-72.039269396,-34.6397342631172],[-72.0388626929999,-34.6404439721172]]]}},{"type":"Feature","properties":{"id":"6206023002002","commune":"Paredones","code":"06206","gse":"D","quintil":"Q1","nse_score":614.0,"educ":10.2,"educ_score":480.0,"hacin":1.0,"hacin_class":"Hacinamiento Leve","hacin_score":851.1,"auto_score":125.0,"n_per":52,"n_hog":24,"source_year":2024,"crime_score":0.6587,"crime_nivel":"Alto","crime_color":"#f44336"},"geometry":{"type":"Polygon","coordinates":[[[-72.0454131829999,-34.6392270041172],[-72.0453355919999,-34.6394721941172],[-72.0446345769999,-34.6398180221172],[-72.0434458489999,-34.6396426261172],[-72.043397792,-34.6397487581172],[-72.0437611319999,-34.6400433021172],[-72.0437571339999,-34.6402644411172],[-72.0434749189999,-34.6407532221172],[-72.0430443909999,-34.6409738391172],[-72.0428111489999,-34.6409081201172],[-72.0428175579999,-34.6410914711172],[-72.0432826899999,-34.6409909121172],[-72.0436926639999,-34.6411309301171],[-72.0438641469999,-34.6408125801172],[-72.0438007939999,-34.6404938201172],[-72.0438661249999,-34.6402285781172],[-72.0439289509999,-34.6408618971172],[-72.0438033999999,-34.6410821421172],[-72.0442417689999,-34.6410964691172],[-72.0443335649999,-34.6409880861172],[-72.0442120739999,-34.6407071391171],[-72.0442629619999,-34.6404996881171],[-72.0449108449999,-34.6402372961172],[-72.0457179549999,-34.6402332291172],[-72.0457758699999,-34.6399499431172],[-72.04576506,-34.6403022531172],[-72.0450002949999,-34.6403026721172],[-72.044555784,-34.6404372641172],[-72.0449547949999,-34.6409767031171],[-72.0455549339999,-34.6406158481172],[-72.0459571629999,-34.6411697251172],[-72.0455650799999,-34.6406954221172],[-72.04498953,-34.6410403831172],[-72.045319075,-34.6415555581172],[-72.0455784129999,-34.6414670371172],[-72.0456899289999,-34.6415554821172],[-72.046166835,-34.6412639211172],[-72.0457123769999,-34.6415753771171],[-72.0462423389999,-34.6420456661172],[-72.0473440079999,-34.6427118011172],[-72.0473407529999,-34.6431035021171],[-72.0475050209999,-34.6427767061172],[-72.0480166059999,-34.6427291171171],[-72.0478275819999,-34.6422755681172],[-72.0475536569999,-34.6421764631172],[-72.0473632599999,-34.6419206371171],[-72.0473446519999,-34.6415080391171],[-72.0474784779999,-34.6413503481172],[-72.0471133299999,-34.6409332781171],[-72.0473179299999,-34.6409225351172],[-72.0471957769999,-34.6406173341172],[-72.0467868279999,-34.6403640611172],[-72.0469538689999,-34.6402071751172],[-72.0468971769999,-34.6399310371172],[-72.0464110569999,-34.6397112181172],[-72.0463976429999,-34.6395538851172],[-72.046060156,-34.6392944901172],[-72.0454131829999,-34.6392270041172]]]}},{"type":"Feature","properties":{"id":"6206023002004","commune":"Paredones","code":"06206","gse":"E","quintil":"Q1","nse_score":577.9,"educ":10.0,"educ_score":466.7,"hacin":1.333,"hacin_class":"Hacinamiento Leve","hacin_score":780.1,"auto_score":214.3,"n_per":20,"n_hog":5,"source_year":2024,"crime_score":0.6608,"crime_nivel":"Alto","crime_color":"#f44336"},"geometry":{"type":"Polygon","coordinates":[[[-72.0446218169999,-34.6413774731171],[-72.0451058419999,-34.6420686761172],[-72.0452606449999,-34.6415857441172],[-72.0449341749999,-34.6410879821171],[-72.0446218169999,-34.6413774731171]]]}},{"type":"Feature","properties":{"id":"6206023002006","commune":"Paredones","code":"06206","gse":"E","quintil":"Q1","nse_score":550.7,"educ":8.8,"educ_score":386.7,"hacin":1.386,"hacin_class":"Hacinamiento Leve","hacin_score":768.9,"auto_score":38.5,"n_per":61,"n_hog":26,"source_year":2024,"crime_score":0.6838,"crime_nivel":"Alto","crime_color":"#f44336"},"geometry":{"type":"Polygon","coordinates":[[[-72.0450106329999,-34.6430270961171],[-72.0455898589999,-34.6438375361171],[-72.0449647849999,-34.6430259841172],[-72.0449570149999,-34.6428140551171],[-72.0447316589999,-34.6435607401171],[-72.0450157649999,-34.6439595071171],[-72.0448415149999,-34.6444514471171],[-72.0445309539999,-34.6449053161171],[-72.0449662089999,-34.6439551451171],[-72.044711435,-34.6435918521171],[-72.0441265859999,-34.6447325691171],[-72.0445421499999,-34.6449946821171],[-72.0461510919999,-34.6436491571171],[-72.0470172319999,-34.6434429551172],[-72.0473247969999,-34.6431282551172],[-72.0473259569999,-34.6427216911172],[-72.0461105459999,-34.6419938531171],[-72.0459110149999,-34.6421852561172],[-72.0467827519999,-34.6427682231172],[-72.0463274519999,-34.6424758101172],[-72.0461557369999,-34.6426202421172],[-72.0466012329999,-34.6430921411172],[-72.0461167389999,-34.6426290621171],[-72.0462967639999,-34.6424569741171],[-72.0458592379999,-34.6421906631172],[-72.046082839,-34.6419733171172],[-72.0455218979999,-34.6415509951172],[-72.0453469479999,-34.6416320811172],[-72.0449703819999,-34.6427606551172],[-72.0450106329999,-34.6430270961171]]]}},{"type":"Feature","properties":{"id":"6206023002007","commune":"Paredones","code":"06206","gse":"C3","quintil":"Q2","nse_score":680.7,"educ":11.5,"educ_score":566.7,"hacin":1.052,"hacin_class":"Hacinamiento Leve","hacin_score":839.9,"auto_score":377.6,"n_per":141,"n_hog":49,"source_year":2024,"crime_score":0.6629,"crime_nivel":"Alto","crime_color":"#f44336"},"geometry":{"type":"Polygon","coordinates":[[[-72.0432222159999,-34.6438147101171],[-72.0436180789999,-34.6434808781171],[-72.0430659199999,-34.6426357231172],[-72.0442973089999,-34.6443221681171],[-72.0444764959999,-34.6439622281172],[-72.043455762,-34.6425099171171],[-72.043836988,-34.6423332081172],[-72.0434065779999,-34.6416798231172],[-72.0420511669999,-34.6423092201172],[-72.0421024749999,-34.6425406741171],[-72.0420078429999,-34.6423185381172],[-72.0405566069999,-34.6424708671171],[-72.0405522099999,-34.6427072861172],[-72.0410213049999,-34.6430654701172],[-72.0414912489999,-34.6437019761171],[-72.0417291949999,-34.6446537601171],[-72.0417410919999,-34.6449392951171],[-72.0409572069999,-34.6451736021171],[-72.0415001719999,-34.6471283991171],[-72.0411075609999,-34.6476459321171],[-72.0421634819999,-34.6484985091171],[-72.0433087649999,-34.6463704811171],[-72.0432748139999,-34.6461421171171],[-72.0431492789999,-34.6458043971171],[-72.0415748659999,-34.6462283941171],[-72.0412244819999,-34.6451510311171],[-72.0416044269999,-34.6461797121171],[-72.0420333339999,-34.6460638461171],[-72.0417443789999,-34.6450411911171],[-72.0420749389999,-34.6460526061171],[-72.0425238969999,-34.6459313211171],[-72.0423659809999,-34.6454530521171],[-72.0425653969999,-34.6459201101171],[-72.0431352239999,-34.6457658151171],[-72.0428687609999,-34.6453011061171],[-72.0423991149999,-34.6441123001172],[-72.0431345449999,-34.6456773101171],[-72.0434380859999,-34.6453620751171],[-72.0426097469999,-34.6430237251171],[-72.0434714319999,-34.6453297731171],[-72.0439638469999,-34.6448529621171],[-72.0432222159999,-34.6438147101171]]]}},{"type":"Feature","properties":{"id":"6206023002014","commune":"Paredones","code":"06206","gse":"D","quintil":"Q2","nse_score":642.4,"educ":10.9,"educ_score":526.7,"hacin":0.989,"hacin_class":"Sin Hacinamiento","hacin_score":853.4,"auto_score":27.0,"n_per":91,"n_hog":36,"source_year":2024,"crime_score":0.6611,"crime_nivel":"Alto","crime_color":"#f44336"},"geometry":{"type":"Polygon","coordinates":[[[-72.0371890599999,-34.6448450601172],[-72.0378283339999,-34.6459028761171],[-72.0398404979999,-34.6455073921171],[-72.0417410919999,-34.6449392951171],[-72.0414912489999,-34.6437019761171],[-72.0410213049999,-34.6430654701172],[-72.0405275279999,-34.6427080421171],[-72.0405065679999,-34.6424743461171],[-72.0390563869999,-34.6425645151172],[-72.0390898729999,-34.6434157981171],[-72.0390098579999,-34.6429509431172],[-72.0386417349999,-34.6429799211171],[-72.0386585929999,-34.6434733351171],[-72.0386038669999,-34.6429695191172],[-72.0382587789999,-34.6429958951172],[-72.0383076619999,-34.6434490041171],[-72.0382129329999,-34.6429947801171],[-72.0378715539999,-34.6430244051171],[-72.0379303209999,-34.6437368981171],[-72.0378180669999,-34.6430231051171],[-72.0374805089999,-34.6430528221172],[-72.0375079149999,-34.6443239221172],[-72.0374309529999,-34.6430484561171],[-72.0370969909999,-34.6430845801171],[-72.0370856219999,-34.6444137421171],[-72.0371890599999,-34.6448450601172]]]}},{"type":"Feature","properties":{"id":"6206023002016","commune":"Paredones","code":"06206","gse":"D","quintil":"Q2","nse_score":648.5,"educ":9.9,"educ_score":460.0,"hacin":0.968,"hacin_class":"Sin Hacinamiento","hacin_score":857.9,"auto_score":178.6,"n_per":30,"n_hog":14,"source_year":2024,"crime_score":0.6397,"crime_nivel":"Alto","crime_color":"#f44336"},"geometry":{"type":"Polygon","coordinates":[[[-72.0389998139999,-34.6425727671171],[-72.0371903739999,-34.6427170971172],[-72.0372031499999,-34.6430181741172],[-72.0390016929999,-34.6429072921172],[-72.0389998139999,-34.6425727671171]]]}},{"type":"Feature","properties":{"id":"6206023002019","commune":"Paredones","code":"06206","gse":"C3","quintil":"Q2","nse_score":666.7,"educ":11.2,"educ_score":546.7,"hacin":0.992,"hacin_class":"Sin Hacinamiento","hacin_score":852.8,"auto_score":245.1,"n_per":123,"n_hog":53,"source_year":2024,"crime_score":0.6624,"crime_nivel":"Alto","crime_color":"#f44336"},"geometry":{"type":"Polygon","coordinates":[[[-72.0376731599999,-34.6456818541171],[-72.0366387639999,-34.6452886751171],[-72.0360712629999,-34.6447656421171],[-72.0356526189999,-34.6446219671171],[-72.035092044,-34.6437148041172],[-72.0352814379999,-34.6435377461171],[-72.0370440599999,-34.6433898401171],[-72.0370470979999,-34.6430896871171],[-72.036879913,-34.6430746071171],[-72.0371392519999,-34.6430200531171],[-72.037125424,-34.6427155171171],[-72.0358002549999,-34.6427749351171],[-72.035839715,-34.6432793321172],[-72.0357470249999,-34.6427682721172],[-72.0349190869999,-34.6428239741172],[-72.0345128629999,-34.6430637501172],[-72.0338785579999,-34.6438154981171],[-72.0344018179999,-34.6440669781172],[-72.0343316239999,-34.6444084301171],[-72.0343494699999,-34.6440836341171],[-72.0338502579999,-34.6438430601171],[-72.0333959149999,-34.6443597661171],[-72.0337331239999,-34.6446618821171],[-72.0323407909999,-34.6461334801171],[-72.0325268319999,-34.6458290091171],[-72.0322017139999,-34.6456344071171],[-72.0312873949999,-34.6468682351171],[-72.0327575049999,-34.6469302821171],[-72.0334421769999,-34.6473546311171],[-72.0335366459999,-34.6477487291171],[-72.0334032479999,-34.6473766591171],[-72.0327297469999,-34.6469580491171],[-72.0312434849999,-34.6469218431171],[-72.0310489739999,-34.6472074761171],[-72.0315207459999,-34.6472471081171],[-72.0316896889999,-34.6475782781171],[-72.0314981289999,-34.6472669281171],[-72.0310339649999,-34.6472295151171],[-72.0305211519999,-34.6479818941171],[-72.0326603269999,-34.6485523031171],[-72.0331754449999,-34.6488381591171],[-72.0354483099999,-34.6470726311171],[-72.0366267799999,-34.6463749931171],[-72.0377945629999,-34.6458796681171],[-72.0376731599999,-34.6456818541171]]]}},{"type":"Feature","properties":{"id":"6206023002020","commune":"Paredones","code":"06206","gse":"D","quintil":"Q1","nse_score":619.3,"educ":11.2,"educ_score":546.7,"hacin":1.231,"hacin_class":"Hacinamiento Leve","hacin_score":802.0,"auto_score":200.0,"n_per":16,"n_hog":5,"source_year":2024,"crime_score":0.6453,"crime_nivel":"Alto","crime_color":"#f44336"},"geometry":{"type":"Polygon","coordinates":[[[-72.0351599759999,-34.6438032061171],[-72.0352785669999,-34.6439174831171],[-72.0370301199999,-34.6437813761171],[-72.0370390009999,-34.6434244811172],[-72.0352368349999,-34.6435878301171],[-72.0351599759999,-34.6438032061171]]]}},{"type":"Feature","properties":{"id":"6206023002022","commune":"Paredones","code":"06206","gse":"D","quintil":"Q1","nse_score":608.9,"educ":9.1,"educ_score":406.7,"hacin":1.0,"hacin_class":"Hacinamiento Leve","hacin_score":851.1,"auto_score":45.5,"n_per":21,"n_hog":11,"source_year":2024,"crime_score":0.6505,"crime_nivel":"Alto","crime_color":"#f44336"},"geometry":{"type":"Polygon","coordinates":[[[-72.0366639299999,-34.6452589631171],[-72.0376268809999,-34.6456233671171],[-72.0370932799999,-34.6447681901171],[-72.0370323669999,-34.6438256761171],[-72.0353106419999,-34.6439521801171],[-72.0357422709999,-34.6443204971172],[-72.0368088319999,-34.6442658381172],[-72.0355179419999,-34.6443647471171],[-72.0359295879999,-34.6447192861171],[-72.0369089739999,-34.6446076901171],[-72.0361124659999,-34.6447519061171],[-72.0366639299999,-34.6452589631171]]]}},{"type":"Feature","properties":{"id":"6206023002025","commune":"Paredones","code":"06206","gse":"E","quintil":"Q1","nse_score":504.1,"educ":9.6,"educ_score":440.0,"hacin":0.8,"hacin_class":"Sin Hacinamiento","hacin_score":893.6,"auto_score":100.0,"n_per":8,"n_hog":5,"source_year":2024,"crime_score":0.6821,"crime_nivel":"Alto","crime_color":"#f44336"},"geometry":{"type":"Polygon","coordinates":[[[-72.0325269639999,-34.6457593391171],[-72.0332836129999,-34.6450428121171],[-72.0336409839999,-34.6445648301171],[-72.0333605159999,-34.6443873461171],[-72.0323992209999,-34.6453941881171],[-72.0322545669999,-34.6455924731171],[-72.0325269639999,-34.6457593391171]]]}},{"type":"Feature","properties":{"id":"6206023002028","commune":"Paredones","code":"06206","gse":"E","quintil":"Q1","nse_score":590.7,"educ":9.5,"educ_score":433.3,"hacin":1.36,"hacin_class":"Hacinamiento Leve","hacin_score":774.5,"auto_score":25.0,"n_per":170,"n_hog":59,"source_year":2024,"crime_score":0.7051,"crime_nivel":"Alto","crime_color":"#f44336"},"geometry":{"type":"Polygon","coordinates":[[[-72.0375464039999,-34.651785255117],[-72.0387996959999,-34.652934051117],[-72.0394014099999,-34.653149145117],[-72.0403703249999,-34.653859136117],[-72.0405102009999,-34.652351546117],[-72.039983532,-34.650958819117],[-72.0401610479999,-34.6499717411171],[-72.0391729319999,-34.650491656117],[-72.0401749409999,-34.6499200241171],[-72.0402391439999,-34.649651519117],[-72.0396426519999,-34.6499275991171],[-72.0402545339999,-34.649610178117],[-72.0404177119999,-34.6493214161171],[-72.0407365319999,-34.6491369551171],[-72.0397620429999,-34.6488585471171],[-72.0397423149999,-34.6490536701171],[-72.0389615059999,-34.6493493461171],[-72.0397018789999,-34.6490293421171],[-72.0397189479999,-34.6488494571171],[-72.0393120699999,-34.648757077117],[-72.0393085059999,-34.6488059191171],[-72.0386123239999,-34.6490245791171],[-72.0392844679999,-34.6487461961171],[-72.0386928769999,-34.6489190701171],[-72.039268036,-34.6487199041171],[-72.0384868249999,-34.6475750331171],[-72.0379216269999,-34.6477626061171],[-72.0381748889999,-34.6481536981171],[-72.0378879399999,-34.6477689491171],[-72.0376713089999,-34.6478094841171],[-72.0378029359999,-34.6481062511171],[-72.0376382349999,-34.6478148331171],[-72.0374357169999,-34.6478406481171],[-72.0376020519999,-34.6481595441171],[-72.0374004169999,-34.6478453341171],[-72.0369615079999,-34.6479170041171],[-72.0371881659999,-34.6483252801171],[-72.0369176799999,-34.6479459091171],[-72.0367394379999,-34.6480150781171],[-72.0369773839999,-34.6485028671171],[-72.0366680539999,-34.6479942581171],[-72.0369787109999,-34.6478693631171],[-72.0378841269999,-34.6477326731171],[-72.0378919649999,-34.6471189761171],[-72.0365395709999,-34.6464512201171],[-72.0354483099999,-34.6470726311171],[-72.0331754449999,-34.6488381591171],[-72.0334119329999,-34.6489523541171],[-72.0333665169999,-34.6492943511171],[-72.0335530579999,-34.6495598601171],[-72.0341282839999,-34.6499188221171],[-72.0345531569999,-34.6505245911171],[-72.0345320279999,-34.6507100531171],[-72.0359535349999,-34.651971494117],[-72.0360921909999,-34.6523588201171],[-72.036871372,-34.652566459117],[-72.0380167579999,-34.653622595117],[-72.0387965209999,-34.653934019117],[-72.0397721179999,-34.654670966117],[-72.0405005569999,-34.654845144117],[-72.0403846829999,-34.653951929117],[-72.0393767819999,-34.6531789461171],[-72.0387733709999,-34.652963165117],[-72.0381130459999,-34.6523451091171],[-72.0378361129999,-34.6524925571171],[-72.0380920689999,-34.6523241251171],[-72.036788639,-34.6512955271171],[-72.0361365919999,-34.6503849011171],[-72.0361970419999,-34.6502281041171],[-72.0364340469999,-34.650106346117],[-72.0361593259999,-34.6503365361171],[-72.0368233049999,-34.651273356117],[-72.0370351819999,-34.651457393117],[-72.0372616339999,-34.651340476117],[-72.0370576179999,-34.651477157117],[-72.0371563939999,-34.651556530117],[-72.0374504839999,-34.6517303801171],[-72.0378388279999,-34.6514600781171],[-72.0381096129999,-34.651568096117],[-72.0382407079999,-34.651741157117],[-72.0378422679999,-34.651490240117],[-72.0375464039999,-34.651785255117]]]}},{"type":"Feature","properties":{"id":"6206023002030","commune":"Paredones","code":"06206","gse":"D","quintil":"Q1","nse_score":623.2,"educ":10.8,"educ_score":520.0,"hacin":1.889,"hacin_class":"Hacinamiento Medio","hacin_score":661.9,"auto_score":0.0,"n_per":17,"n_hog":6,"source_year":2024,"crime_score":0.6443,"crime_nivel":"Alto","crime_color":"#f44336"},"geometry":{"type":"Polygon","coordinates":[[[-72.0399489359999,-34.6488632591171],[-72.0395184669999,-34.6480564111171],[-72.0389753829999,-34.6482306021171],[-72.0393447929999,-34.6487329481171],[-72.0399489359999,-34.6488632591171]]]}},{"type":"Feature","properties":{"id":"6206023002018","commune":"Paredones","code":"06206","gse":"C3","quintil":"Q3","nse_score":684.6,"educ":11.6,"educ_score":573.3,"hacin":1.0,"hacin_class":"Hacinamiento Leve","hacin_score":851.1,"auto_score":0.0,"n_per":5,"n_hog":4,"source_year":2024,"crime_score":0.6195,"crime_nivel":"Alto","crime_color":"#f44336"},"geometry":{"type":"MultiPolygon","coordinates":[[[[-72.0312323339999,-34.6445980351171],[-72.0321329319999,-34.6451030681171],[-72.0323063219999,-34.6448569041171],[-72.0313763519999,-34.6442901271171],[-72.0311639249999,-34.6444194581172],[-72.0312323339999,-34.6445980351171]]],[[[-72.0310817119999,-34.6442288921171],[-72.0301772349999,-34.6447022211171],[-72.0296428329999,-34.6455238981171],[-72.0295057879999,-34.6469264381171],[-72.0297263429999,-34.6478175211171],[-72.0304376019999,-34.6479845351171],[-72.0324979369999,-34.6452005271171],[-72.0322680789999,-34.6450607551171],[-72.0320750429999,-34.6451405831171],[-72.0319390649999,-34.6450658781171],[-72.0312017589999,-34.6446238191171],[-72.0310740899999,-34.6444918381172],[-72.0311290629999,-34.6443976471171],[-72.0313964949999,-34.6442574231171],[-72.0323415479999,-34.6448334441171],[-72.0322948509999,-34.6450322681172],[-72.0325242709999,-34.6451717731171],[-72.0347244299999,-34.6428119641171],[-72.0346854279999,-34.6426293661171],[-72.0320118809999,-34.6434284521172],[-72.0310817119999,-34.6442288921171]]]]}},{"type":"Feature","properties":{"id":"6206023002005","commune":"Paredones","code":"06206","gse":"C3","quintil":"Q2","nse_score":673.7,"educ":11.3,"educ_score":553.3,"hacin":0.85,"hacin_class":"Sin Hacinamiento","hacin_score":883.0,"auto_score":62.5,"n_per":17,"n_hog":8,"source_year":2024,"crime_score":0.6269,"crime_nivel":"Alto","crime_color":"#f44336"},"geometry":{"type":"MultiPolygon","coordinates":[[[[-72.0390984039999,-34.6424063851172],[-72.0403115239999,-34.6423471621172],[-72.0402563899999,-34.6417683991172],[-72.0390300729999,-34.6418453331171],[-72.0390984039999,-34.6424063851172]]],[[[-72.0379721389999,-34.6418597391171],[-72.0389797249999,-34.6417947541172],[-72.0389492709999,-34.6414335601172],[-72.0387934759999,-34.6414655641171],[-72.0379721389999,-34.6418597391171]]]]}},{"type":"Feature","properties":{"id":"6206023002003","commune":"Paredones","code":"06206","gse":"E","quintil":"Q1","nse_score":588.9,"educ":8.6,"educ_score":373.3,"hacin":0.933,"hacin_class":"Sin Hacinamiento","hacin_score":865.2,"auto_score":200.0,"n_per":56,"n_hog":23,"source_year":2024,"crime_score":0.6687,"crime_nivel":"Alto","crime_color":"#f44336"},"geometry":{"type":"MultiPolygon","coordinates":[[[[-72.0435367619999,-34.6425509501171],[-72.0444935709999,-34.6439120791172],[-72.0446549099999,-34.6435683601172],[-72.0438282469999,-34.6423810321172],[-72.0435367619999,-34.6425509501171]]],[[[-72.0435681369999,-34.6415143981171],[-72.0437695369999,-34.6416300301171],[-72.0435468199999,-34.6415352731171],[-72.0434065779999,-34.6416798231172],[-72.0446611989999,-34.6434989851171],[-72.0448675729999,-34.6428561301171],[-72.0444607479999,-34.6422521281171],[-72.0448958849999,-34.6428125731172],[-72.0450925879999,-34.6421189191171],[-72.0445675439999,-34.6413982791172],[-72.0443081729999,-34.6416126711172],[-72.0441991859999,-34.6415464411172],[-72.0448825939999,-34.6410330051172],[-72.0445119649999,-34.6404867661171],[-72.0442898249999,-34.6406046301172],[-72.0443523389999,-34.6411054721172],[-72.0438472559999,-34.6412227911172],[-72.0435681369999,-34.6415143981171]]]]}},{"type":"Feature","properties":{"id":"6206023002021","commune":"Paredones","code":"06206","gse":"D","quintil":"Q2","nse_score":658.4,"educ":11.5,"educ_score":566.7,"hacin":1.282,"hacin_class":"Hacinamiento Leve","hacin_score":791.1,"auto_score":27.8,"n_per":50,"n_hog":18,"source_year":2024,"crime_score":0.6425,"crime_nivel":"Alto","crime_color":"#f44336"},"geometry":{"type":"MultiPolygon","coordinates":[[[[-72.0404638939999,-34.6493602681171],[-72.0400587689999,-34.6505992381171],[-72.0410407179999,-34.650227552117],[-72.0400516369999,-34.650641046117],[-72.0400554539999,-34.651074248117],[-72.0405548059999,-34.652267624117],[-72.0413928179999,-34.652110549117],[-72.0414403639999,-34.652113155117],[-72.0415157959999,-34.652215938117],[-72.0413955669999,-34.6521285531171],[-72.0405597699999,-34.652286239117],[-72.0404234439999,-34.653588237117],[-72.0416753999999,-34.653976135117],[-72.041632122,-34.653487145117],[-72.0418207299999,-34.6524813711171],[-72.04127073,-34.650920817117],[-72.0416096069999,-34.6495001671171],[-72.0417264689999,-34.6492707021171],[-72.0424766219999,-34.6489265921171],[-72.0427674039999,-34.6486070701171],[-72.0438741509999,-34.6464590811171],[-72.0437543549999,-34.6457871661171],[-72.0445196169999,-34.6450232071171],[-72.0441046479999,-34.6447611751171],[-72.043199608,-34.6456757291171],[-72.0433658499999,-34.6463781881171],[-72.0422985149999,-34.6484362561171],[-72.0404638939999,-34.6493602681171]]],[[[-72.0432845079999,-34.6437821511171],[-72.0440117759999,-34.6447909851171],[-72.0442691349999,-34.6443738431171],[-72.0436505389999,-34.6435263361171],[-72.0432845079999,-34.6437821511171]]]]}},{"type":"Feature","properties":{"id":"6206023002027","commune":"Paredones","code":"06206","gse":"D","quintil":"Q2","nse_score":649.7,"educ":10.6,"educ_score":506.7,"hacin":1.241,"hacin_class":"Hacinamiento Leve","hacin_score":799.7,"auto_score":321.4,"n_per":36,"n_hog":14,"source_year":2024,"crime_score":0.6412,"crime_nivel":"Alto","crime_color":"#f44336"},"geometry":{"type":"MultiPolygon","coordinates":[[[[-72.0379056069999,-34.6477092381171],[-72.03846017,-34.6475448101171],[-72.0379095199999,-34.6471287051171],[-72.0379056069999,-34.6477092381171]]],[[[-72.0377387299999,-34.6459574291171],[-72.0365941379999,-34.6464801151171],[-72.0371101879999,-34.6466127541171],[-72.0380429319999,-34.6462775341171],[-72.0371447639999,-34.6466298001171],[-72.0377179999999,-34.6469566321171],[-72.0382694459999,-34.6467806281171],[-72.0380338539999,-34.6465643961171],[-72.0379911209999,-34.6464399531171],[-72.0383008739999,-34.6467703671171],[-72.0390004989999,-34.6465019591171],[-72.0388631669999,-34.6460450681171],[-72.0389992539999,-34.6461685301171],[-72.0390274569999,-34.6465188891171],[-72.0377480159999,-34.6469760261171],[-72.0381691649999,-34.6472694741171],[-72.0392695979999,-34.6469423401171],[-72.0381892309999,-34.6472844601171],[-72.0385639119999,-34.6476030261171],[-72.0389543049999,-34.6481987061171],[-72.0395415519999,-34.6480103501171],[-72.0400032759999,-34.6488757821171],[-72.0408457419999,-34.6491162771171],[-72.0421634819999,-34.6484985091171],[-72.0411075609999,-34.6476459321171],[-72.0415001719999,-34.6471283991171],[-72.0409572069999,-34.6451736021171],[-72.0377387299999,-34.6459574291171]]]]}}]}