{"type":"FeatureCollection","features":[{"type":"Feature","properties":{"id":"7106011001002","commune":"Pelarco","code":"07106","gse":"C3","quintil":"Q2","nse_score":665.4,"educ":10.4,"educ_score":493.3,"hacin":1.348,"hacin_class":"Hacinamiento Leve","hacin_score":777.1,"auto_score":225.0,"n_per":62,"n_hog":20,"source_year":2024,"crime_score":0.916,"crime_nivel":"Alto","crime_color":"#f44336"},"geometry":{"type":"Polygon","coordinates":[[[-71.4443090619999,-35.3803569341089],[-71.4424625289999,-35.3812317211089],[-71.4409860089999,-35.3819311821089],[-71.4414353399999,-35.3820495631089],[-71.4428151129999,-35.3813958351089],[-71.4427324219999,-35.3811641131089],[-71.4429196489999,-35.3813368641089],[-71.4444536159999,-35.3806222971089],[-71.4443634869999,-35.3803936191089],[-71.4449097959999,-35.3809811641089],[-71.4457593369999,-35.3806718051089],[-71.4463784159999,-35.3802731891089],[-71.4458018559999,-35.3791316131089],[-71.4442067369999,-35.3802232451089],[-71.4443090619999,-35.3803569341089]]]}},{"type":"Feature","properties":{"id":"7106011001003","commune":"Pelarco","code":"07106","gse":"D","quintil":"Q2","nse_score":629.8,"educ":9.3,"educ_score":420.0,"hacin":1.134,"hacin_class":"Hacinamiento Leve","hacin_score":822.5,"auto_score":37.5,"n_per":93,"n_hog":43,"source_year":2024,"crime_score":0.9478,"crime_nivel":"Alto","crime_color":"#f44336"},"geometry":{"type":"Polygon","coordinates":[[[-71.4463375899999,-35.3799554501089],[-71.4469609509999,-35.3822548901089],[-71.4472198749999,-35.3827087141088],[-71.4477712229999,-35.3825378871089],[-71.4473065309999,-35.3827691411089],[-71.4473943829999,-35.3829815431088],[-71.4482314969999,-35.3826121631088],[-71.4481440169999,-35.3823924501089],[-71.4483310249999,-35.3825683431089],[-71.448866172,-35.3823319101089],[-71.4485975889999,-35.3818293381089],[-71.4489346239999,-35.3822796811089],[-71.4492945639999,-35.3821449081089],[-71.4490153979999,-35.3816279551089],[-71.4493216929999,-35.3820408261088],[-71.4494874549999,-35.3820030391089],[-71.4488485079999,-35.3808015741089],[-71.4472549489999,-35.3814645231089],[-71.4466490089999,-35.3802781521089],[-71.44679629,-35.3799436591089],[-71.4465939639999,-35.3798152821089],[-71.4463375899999,-35.3799554501089]]]}},{"type":"Feature","properties":{"id":"7106011001004","commune":"Pelarco","code":"07106","gse":"C3","quintil":"Q3","nse_score":687.8,"educ":11.3,"educ_score":553.3,"hacin":2.0,"hacin_class":"Hacinamiento Medio","hacin_score":638.3,"auto_score":125.0,"n_per":12,"n_hog":4,"source_year":2024,"crime_score":0.8829,"crime_nivel":"Alto","crime_color":"#f44336"},"geometry":{"type":"Polygon","coordinates":[[[-71.4486705279999,-35.3804556061089],[-71.4489531379999,-35.3808555961089],[-71.4492365899999,-35.3807526371089],[-71.4490204349999,-35.3803451351089],[-71.4486705279999,-35.3804556061089]]]}},{"type":"Feature","properties":{"id":"7106011001005","commune":"Pelarco","code":"07106","gse":"D","quintil":"Q1","nse_score":603.9,"educ":10.7,"educ_score":513.3,"hacin":1.575,"hacin_class":"Hacinamiento Medio","hacin_score":728.7,"auto_score":250.0,"n_per":63,"n_hog":20,"source_year":2024,"crime_score":0.9472,"crime_nivel":"Alto","crime_color":"#f44336"},"geometry":{"type":"Polygon","coordinates":[[[-71.4468756829999,-35.3821491431089],[-71.4464444839999,-35.3804490691089],[-71.4463617679999,-35.3803670031089],[-71.4456960159999,-35.3807581811089],[-71.4457351839999,-35.3827185951088],[-71.4468756829999,-35.3821491431089]]]}},{"type":"Feature","properties":{"id":"7106011001006","commune":"Pelarco","code":"07106","gse":"D","quintil":"Q1","nse_score":599.9,"educ":9.4,"educ_score":426.7,"hacin":1.52,"hacin_class":"Hacinamiento Medio","hacin_score":740.4,"auto_score":35.7,"n_per":38,"n_hog":14,"source_year":2024,"crime_score":0.9376,"crime_nivel":"Alto","crime_color":"#f44336"},"geometry":{"type":"Polygon","coordinates":[[[-71.4494521969999,-35.3810778331089],[-71.4497003959999,-35.3812792881088],[-71.4503914309999,-35.3807949421089],[-71.450283812,-35.3806229671089],[-71.4494521969999,-35.3810778331089]]]}},{"type":"Feature","properties":{"id":"7106011001007","commune":"Pelarco","code":"07106","gse":"D","quintil":"Q2","nse_score":641.3,"educ":10.4,"educ_score":493.3,"hacin":1.429,"hacin_class":"Hacinamiento Leve","hacin_score":759.9,"auto_score":180.0,"n_per":70,"n_hog":26,"source_year":2024,"crime_score":0.9316,"crime_nivel":"Alto","crime_color":"#f44336"},"geometry":{"type":"Polygon","coordinates":[[[-71.4432857229999,-35.3816861821089],[-71.4447503,-35.3810007421089],[-71.4447567879999,-35.3809578851089],[-71.4444686119999,-35.3806536581089],[-71.4429655299999,-35.3813583121089],[-71.4432857229999,-35.3816861821089]]]}},{"type":"Feature","properties":{"id":"7106011001008","commune":"Pelarco","code":"07106","gse":"C3","quintil":"Q2","nse_score":665.4,"educ":11.3,"educ_score":553.3,"hacin":1.4,"hacin_class":"Hacinamiento Leve","hacin_score":766.0,"auto_score":285.7,"n_per":21,"n_hog":7,"source_year":2024,"crime_score":0.8978,"crime_nivel":"Alto","crime_color":"#f44336"},"geometry":{"type":"Polygon","coordinates":[[[-71.4451462469999,-35.3813418931089],[-71.4456163559999,-35.3812293411089],[-71.4456023819999,-35.3807353151089],[-71.444923361,-35.3810023341089],[-71.4451462469999,-35.3813418931089]]]}},{"type":"Feature","properties":{"id":"7106011001009","commune":"Pelarco","code":"07106","gse":"D","quintil":"Q2","nse_score":643.3,"educ":10.4,"educ_score":493.3,"hacin":1.733,"hacin_class":"Hacinamiento Medio","hacin_score":695.0,"auto_score":62.5,"n_per":26,"n_hog":8,"source_year":2024,"crime_score":0.9108,"crime_nivel":"Alto","crime_color":"#f44336"},"geometry":{"type":"Polygon","coordinates":[[[-71.4491445579999,-35.3812138231089],[-71.4493904129999,-35.3811010731089],[-71.449237175,-35.3808098271089],[-71.4489725789999,-35.3809214731089],[-71.4491445579999,-35.3812138231089]]]}},{"type":"Feature","properties":{"id":"7106011001010","commune":"Pelarco","code":"07106","gse":"D","quintil":"Q2","nse_score":639.6,"educ":10.7,"educ_score":513.3,"hacin":1.405,"hacin_class":"Hacinamiento Leve","hacin_score":764.9,"auto_score":95.2,"n_per":59,"n_hog":20,"source_year":2024,"crime_score":0.9275,"crime_nivel":"Alto","crime_color":"#f44336"},"geometry":{"type":"Polygon","coordinates":[[[-71.4505751609999,-35.3812082001089],[-71.4503701789999,-35.3808749931089],[-71.449726773,-35.3813659551089],[-71.449941813,-35.3816683161089],[-71.4505751609999,-35.3812082001089]]]}},{"type":"Feature","properties":{"id":"7106011001011","commune":"Pelarco","code":"07106","gse":"D","quintil":"Q1","nse_score":621.0,"educ":9.9,"educ_score":460.0,"hacin":1.348,"hacin_class":"Hacinamiento Leve","hacin_score":777.1,"auto_score":19.2,"n_per":62,"n_hog":26,"source_year":2024,"crime_score":0.9382,"crime_nivel":"Alto","crime_color":"#f44336"},"geometry":{"type":"Polygon","coordinates":[[[-71.4436122319999,-35.3820904771089],[-71.444912342,-35.3814800391089],[-71.4450658059999,-35.3813534381089],[-71.4447582069999,-35.3810331191089],[-71.443228056,-35.3817487681089],[-71.4436122319999,-35.3820904771089]]]}},{"type":"Feature","properties":{"id":"7106011001013","commune":"Pelarco","code":"07106","gse":"E","quintil":"Q1","nse_score":593.8,"educ":8.9,"educ_score":393.3,"hacin":1.425,"hacin_class":"Hacinamiento Leve","hacin_score":760.5,"auto_score":41.7,"n_per":67,"n_hog":24,"source_year":2024,"crime_score":0.954,"crime_nivel":"Alto","crime_color":"#f44336"},"geometry":{"type":"Polygon","coordinates":[[[-71.4505788299999,-35.3812754331088],[-71.4500021379999,-35.3817130561089],[-71.4501972269999,-35.3821044851089],[-71.4508448819999,-35.3816288851089],[-71.4505788299999,-35.3812754331088]]]}},{"type":"Feature","properties":{"id":"7106011001014","commune":"Pelarco","code":"07106","gse":"E","quintil":"Q1","nse_score":515.2,"educ":9.1,"educ_score":406.7,"hacin":1.2,"hacin_class":"Hacinamiento Leve","hacin_score":808.5,"auto_score":100.0,"n_per":24,"n_hog":10,"source_year":2024,"crime_score":0.9727,"crime_nivel":"Alto","crime_color":"#f44336"},"geometry":{"type":"Polygon","coordinates":[[[-71.4444017409999,-35.3833800121088],[-71.4456626999999,-35.3827822611088],[-71.4455971309999,-35.3812961651089],[-71.4436408079999,-35.3821546381089],[-71.4444017409999,-35.3833800121088]]]}},{"type":"Feature","properties":{"id":"7106011001015","commune":"Pelarco","code":"07106","gse":"D","quintil":"Q2","nse_score":630.5,"educ":9.8,"educ_score":453.3,"hacin":1.297,"hacin_class":"Hacinamiento Leve","hacin_score":787.8,"auto_score":141.0,"n_per":96,"n_hog":39,"source_year":2024,"crime_score":0.9488,"crime_nivel":"Alto","crime_color":"#f44336"},"geometry":{"type":"Polygon","coordinates":[[[-71.4428740369999,-35.3814262831089],[-71.4414486739999,-35.3821086771089],[-71.4418951759999,-35.3823674131089],[-71.4423983819999,-35.3829490721088],[-71.4424682139999,-35.3825790711089],[-71.4421297999999,-35.3821414941088],[-71.4425654679999,-35.3825705891089],[-71.4429830379999,-35.3823908091089],[-71.4426316459999,-35.3819218241089],[-71.4430208819999,-35.3823723781089],[-71.4434386119999,-35.3821501021089],[-71.4428740369999,-35.3814262831089]]]}},{"type":"Feature","properties":{"id":"7106011001017","commune":"Pelarco","code":"07106","gse":"C3","quintil":"Q2","nse_score":673.3,"educ":11.2,"educ_score":546.7,"hacin":1.273,"hacin_class":"Hacinamiento Leve","hacin_score":793.0,"auto_score":83.3,"n_per":28,"n_hog":11,"source_year":2024,"crime_score":0.897,"crime_nivel":"Alto","crime_color":"#f44336"},"geometry":{"type":"Polygon","coordinates":[[[-71.4492801319999,-35.3828529211089],[-71.4495598389999,-35.3826165481089],[-71.4492752909999,-35.3822101911089],[-71.4488842389999,-35.3824046461089],[-71.4492801319999,-35.3828529211089]]]}},{"type":"Feature","properties":{"id":"7106011001018","commune":"Pelarco","code":"07106","gse":"E","quintil":"Q1","nse_score":493.1,"educ":7.9,"educ_score":326.7,"hacin":1.316,"hacin_class":"Hacinamiento Leve","hacin_score":783.9,"auto_score":45.5,"n_per":25,"n_hog":11,"source_year":2024,"crime_score":0.984,"crime_nivel":"Alto","crime_color":"#f44336"},"geometry":{"type":"Polygon","coordinates":[[[-71.4430921469999,-35.3840227221089],[-71.4443225399999,-35.3834181221089],[-71.4435157429999,-35.3822240571088],[-71.4425119929999,-35.3827126271089],[-71.4424649379999,-35.3830228351089],[-71.4430921469999,-35.3840227221089]]]}},{"type":"Feature","properties":{"id":"7106011001020","commune":"Pelarco","code":"07106","gse":"D","quintil":"Q1","nse_score":609.2,"educ":8.9,"educ_score":393.3,"hacin":1.185,"hacin_class":"Hacinamiento Leve","hacin_score":811.7,"auto_score":125.0,"n_per":32,"n_hog":13,"source_year":2024,"crime_score":0.9303,"crime_nivel":"Alto","crime_color":"#f44336"},"geometry":{"type":"Polygon","coordinates":[[[-71.4487495619999,-35.3831747031089],[-71.449127201,-35.3829466391089],[-71.4487757769999,-35.3824363961089],[-71.4483410269999,-35.3826445411089],[-71.4487495619999,-35.3831747031089]]]}},{"type":"Feature","properties":{"id":"7106011001021","commune":"Pelarco","code":"07106","gse":"C3","quintil":"Q2","nse_score":664.4,"educ":10.7,"educ_score":513.3,"hacin":1.574,"hacin_class":"Hacinamiento Medio","hacin_score":728.9,"auto_score":105.8,"n_per":159,"n_hog":53,"source_year":2024,"crime_score":0.9596,"crime_nivel":"Alto","crime_color":"#f44336"},"geometry":{"type":"Polygon","coordinates":[[[-71.4487987649999,-35.3832084091089],[-71.4478311969999,-35.3836218811089],[-71.4482037509999,-35.3841237591088],[-71.448541169,-35.3841642101088],[-71.4500727559999,-35.3834326381088],[-71.4499396179999,-35.3831790851088],[-71.4490436849999,-35.3835390431088],[-71.4498739499999,-35.3831528501088],[-71.4497588979999,-35.3828163371089],[-71.4488643639999,-35.3832201121089],[-71.449760437,-35.3827655281089],[-71.4496988969999,-35.3826120471089],[-71.4487987649999,-35.3832084091089]]]}},{"type":"Feature","properties":{"id":"7106011001022","commune":"Pelarco","code":"07106","gse":"D","quintil":"Q1","nse_score":610.1,"educ":10.0,"educ_score":466.7,"hacin":1.5,"hacin_class":"Hacinamiento Medio","hacin_score":744.7,"auto_score":222.2,"n_per":33,"n_hog":11,"source_year":2024,"crime_score":0.9303,"crime_nivel":"Alto","crime_color":"#f44336"},"geometry":{"type":"Polygon","coordinates":[[[-71.4477624089999,-35.3835700081089],[-71.4486426589999,-35.3832161381089],[-71.4482985079999,-35.3826645651088],[-71.4474308689999,-35.3830306521089],[-71.4477624089999,-35.3835700081089]]]}},{"type":"Feature","properties":{"id":"7106011001023","commune":"Pelarco","code":"07106","gse":"D","quintil":"Q2","nse_score":633.7,"educ":11.4,"educ_score":560.0,"hacin":1.379,"hacin_class":"Hacinamiento Leve","hacin_score":770.4,"auto_score":142.9,"n_per":40,"n_hog":14,"source_year":2024,"crime_score":0.9219,"crime_nivel":"Alto","crime_color":"#f44336"},"geometry":{"type":"Polygon","coordinates":[[[-71.445173484,-35.3846172621088],[-71.4465214289999,-35.3840893131089],[-71.4457434869999,-35.3828586871089],[-71.4444611289999,-35.3834658861089],[-71.445173484,-35.3846172621088]]]}},{"type":"Feature","properties":{"id":"7106011001024","commune":"Pelarco","code":"07106","gse":"D","quintil":"Q2","nse_score":641.6,"educ":10.3,"educ_score":486.7,"hacin":1.444,"hacin_class":"Hacinamiento Leve","hacin_score":756.5,"auto_score":280.0,"n_per":65,"n_hog":27,"source_year":2024,"crime_score":0.9292,"crime_nivel":"Alto","crime_color":"#f44336"},"geometry":{"type":"Polygon","coordinates":[[[-71.440840196,-35.3838771651088],[-71.4398468839999,-35.3846914451088],[-71.43947807,-35.3851323701088],[-71.4394623509999,-35.3854167241088],[-71.4403802829999,-35.3853286341088],[-71.4416638739999,-35.3847107761089],[-71.4412998939999,-35.3841629621089],[-71.4411969949999,-35.3838782451089],[-71.4416943699999,-35.3846961891088],[-71.4430122879999,-35.3840463331088],[-71.4424151379999,-35.3830775091088],[-71.440840196,-35.3838771651088]]]}},{"type":"Feature","properties":{"id":"7106011001026","commune":"Pelarco","code":"07106","gse":"C2","quintil":"Q3","nse_score":711.9,"educ":11.7,"educ_score":580.0,"hacin":1.439,"hacin_class":"Hacinamiento Leve","hacin_score":757.7,"auto_score":52.6,"n_per":59,"n_hog":19,"source_year":2024,"crime_score":0.8915,"crime_nivel":"Alto","crime_color":"#f44336"},"geometry":{"type":"Polygon","coordinates":[[[-71.4495704049999,-35.3841523641088],[-71.4503193939999,-35.3838470571089],[-71.4501401899999,-35.3834941561088],[-71.4494276369999,-35.3838608801088],[-71.4495704049999,-35.3841523641088]]]}},{"type":"Feature","properties":{"id":"7106011001027","commune":"Pelarco","code":"07106","gse":"E","quintil":"Q1","nse_score":531.3,"educ":8.7,"educ_score":380.0,"hacin":1.367,"hacin_class":"Hacinamiento Leve","hacin_score":773.0,"auto_score":105.3,"n_per":41,"n_hog":17,"source_year":2024,"crime_score":0.9729,"crime_nivel":"Alto","crime_color":"#f44336"},"geometry":{"type":"Polygon","coordinates":[[[-71.4442499349999,-35.3850832421088],[-71.4451350349999,-35.3846817711088],[-71.4443816499999,-35.3835057151089],[-71.4435098379999,-35.3839321691088],[-71.4442499349999,-35.3850832421088]]]}},{"type":"Feature","properties":{"id":"7106011001028","commune":"Pelarco","code":"07106","gse":"E","quintil":"Q1","nse_score":539.6,"educ":8.9,"educ_score":393.3,"hacin":1.314,"hacin_class":"Hacinamiento Leve","hacin_score":784.2,"auto_score":117.6,"n_per":46,"n_hog":17,"source_year":2024,"crime_score":0.9712,"crime_nivel":"Alto","crime_color":"#f44336"},"geometry":{"type":"Polygon","coordinates":[[[-71.4479558319999,-35.3883881981088],[-71.450473057,-35.3870135381088],[-71.4476705839999,-35.3836565121089],[-71.4465954299999,-35.3841414481088],[-71.4477374259999,-35.3858788541088],[-71.4476828129999,-35.3860458221088],[-71.4469802439999,-35.3864948131088],[-71.4479558319999,-35.3883881981088]]]}},{"type":"Feature","properties":{"id":"7106011001029","commune":"Pelarco","code":"07106","gse":"E","quintil":"Q1","nse_score":590.1,"educ":8.8,"educ_score":386.7,"hacin":1.375,"hacin_class":"Hacinamiento Leve","hacin_score":771.3,"auto_score":140.0,"n_per":77,"n_hog":26,"source_year":2024,"crime_score":0.9605,"crime_nivel":"Alto","crime_color":"#f44336"},"geometry":{"type":"Polygon","coordinates":[[[-71.4498213049999,-35.3844961191089],[-71.4504769049999,-35.3841704781088],[-71.4503388989999,-35.3838863211088],[-71.4496049069999,-35.3842059021089],[-71.4498213049999,-35.3844961191089]]]}},{"type":"Feature","properties":{"id":"7106011001030","commune":"Pelarco","code":"07106","gse":"D","quintil":"Q2","nse_score":650.8,"educ":9.7,"educ_score":446.7,"hacin":1.432,"hacin_class":"Hacinamiento Leve","hacin_score":759.1,"auto_score":83.3,"n_per":53,"n_hog":18,"source_year":2024,"crime_score":0.9192,"crime_nivel":"Alto","crime_color":"#f44336"},"geometry":{"type":"Polygon","coordinates":[[[-71.4487577429999,-35.3845071171088],[-71.4494650449999,-35.3841956711088],[-71.4493575759999,-35.3839157371088],[-71.448583132,-35.3842250591089],[-71.4487577429999,-35.3845071171088]]]}},{"type":"Feature","properties":{"id":"7106011001032","commune":"Pelarco","code":"07106","gse":"D","quintil":"Q2","nse_score":634.9,"educ":9.9,"educ_score":460.0,"hacin":1.382,"hacin_class":"Hacinamiento Leve","hacin_score":769.7,"auto_score":185.7,"n_per":94,"n_hog":33,"source_year":2024,"crime_score":0.9457,"crime_nivel":"Alto","crime_color":"#f44336"},"geometry":{"type":"Polygon","coordinates":[[[-71.448272072,-35.3841650171088],[-71.4491659539999,-35.3852677761088],[-71.4507291229999,-35.3846287751089],[-71.4505019639999,-35.3842047131088],[-71.4497994099999,-35.3845616701088],[-71.4499310109999,-35.3848920751088],[-71.4493874549999,-35.3851040281088],[-71.4498875619999,-35.3848698361089],[-71.449734497,-35.3845997731088],[-71.4489331209999,-35.3848902551088],[-71.4496811819999,-35.3845603101088],[-71.4495411379999,-35.3842563471089],[-71.4487190339999,-35.3845573491088],[-71.4484561029999,-35.3841885321088],[-71.448272072,-35.3841650171088]]]}},{"type":"Feature","properties":{"id":"7106011001033","commune":"Pelarco","code":"07106","gse":"E","quintil":"Q1","nse_score":590.4,"educ":10.1,"educ_score":473.3,"hacin":1.28,"hacin_class":"Hacinamiento Leve","hacin_score":791.5,"auto_score":136.4,"n_per":64,"n_hog":24,"source_year":2024,"crime_score":0.9544,"crime_nivel":"Alto","crime_color":"#f44336"},"geometry":{"type":"Polygon","coordinates":[[[-71.4418173739999,-35.3847805471088],[-71.44248841,-35.3858584081088],[-71.4432384279999,-35.3855091371088],[-71.4428042629999,-35.3847860061089],[-71.4432965489999,-35.3854692791088],[-71.4437638469999,-35.3853009471088],[-71.4430851469999,-35.3841482511089],[-71.4418173739999,-35.3847805471088]]]}},{"type":"Feature","properties":{"id":"7106011001034","commune":"Pelarco","code":"07106","gse":"D","quintil":"Q1","nse_score":624.3,"educ":10.8,"educ_score":520.0,"hacin":0.875,"hacin_class":"Sin Hacinamiento","hacin_score":877.7,"auto_score":88.2,"n_per":35,"n_hog":17,"source_year":2024,"crime_score":0.9242,"crime_nivel":"Alto","crime_color":"#f44336"},"geometry":{"type":"Polygon","coordinates":[[[-71.4462386379999,-35.3866210751088],[-71.4469513039999,-35.3864514111088],[-71.4476747139999,-35.3859380871088],[-71.4465354009999,-35.3841619541088],[-71.4452484419999,-35.3847339191088],[-71.4459667749999,-35.3859184311088],[-71.4462386379999,-35.3866210751088]]]}},{"type":"Feature","properties":{"id":"7106011001035","commune":"Pelarco","code":"07106","gse":"E","quintil":"Q1","nse_score":580.6,"educ":9.5,"educ_score":433.3,"hacin":1.2,"hacin_class":"Hacinamiento Leve","hacin_score":808.5,"auto_score":166.7,"n_per":132,"n_hog":53,"source_year":2024,"crime_score":0.9909,"crime_nivel":"Alto","crime_color":"#f44336"},"geometry":{"type":"Polygon","coordinates":[[[-71.4444695759999,-35.3864442121088],[-71.444236557,-35.3861160471088],[-71.4438231259999,-35.3853457931088],[-71.4425257789999,-35.3859258891088],[-71.4433630849999,-35.3875817541088],[-71.4461140729999,-35.3867144361088],[-71.4480013539999,-35.3902172311088],[-71.4495921829999,-35.3885286341088],[-71.4509889669999,-35.3876363981088],[-71.4505033319999,-35.3870940421088],[-71.4480160509999,-35.3884520241088],[-71.4484007959999,-35.3893031151088],[-71.4469331509999,-35.3864845001088],[-71.4462281219999,-35.3866701441088],[-71.4459103229999,-35.3859080371088],[-71.4451810449999,-35.3847619661088],[-71.4438522379999,-35.3853329021089],[-71.4444695759999,-35.3864442121088]]]}},{"type":"Feature","properties":{"id":"7106011001036","commune":"Pelarco","code":"07106","gse":"C3","quintil":"Q2","nse_score":670.2,"educ":11.7,"educ_score":580.0,"hacin":1.19,"hacin_class":"Hacinamiento Leve","hacin_score":810.5,"auto_score":75.0,"n_per":50,"n_hog":19,"source_year":2024,"crime_score":0.9083,"crime_nivel":"Alto","crime_color":"#f44336"},"geometry":{"type":"Polygon","coordinates":[[[-71.4407492389999,-35.3853064841089],[-71.4414181419999,-35.3863139041088],[-71.4418581779999,-35.3861218081088],[-71.4415718719999,-35.3856131341088],[-71.4419192219999,-35.3860891611088],[-71.4424011949999,-35.3858900091088],[-71.4417319609999,-35.3847806511088],[-71.4407492389999,-35.3853064841089]]]}},{"type":"Feature","properties":{"id":"7106011001037","commune":"Pelarco","code":"07106","gse":"D","quintil":"Q1","nse_score":605.5,"educ":8.8,"educ_score":386.7,"hacin":1.463,"hacin_class":"Hacinamiento Leve","hacin_score":752.6,"auto_score":152.8,"n_per":98,"n_hog":38,"source_year":2024,"crime_score":0.9624,"crime_nivel":"Alto","crime_color":"#f44336"},"geometry":{"type":"Polygon","coordinates":[[[-71.438223665,-35.3852660081088],[-71.4368110679999,-35.3853906641088],[-71.4356101509999,-35.3869632931088],[-71.4384250449999,-35.3867061061088],[-71.4382809349999,-35.3855940551088],[-71.4375270589999,-35.3856456931088],[-71.4375652049999,-35.3861134271088],[-71.4374858149999,-35.3856394951088],[-71.4372524339999,-35.3856340481088],[-71.4382588749999,-35.3855144821089],[-71.438223665,-35.3852660081088]]]}},{"type":"Feature","properties":{"id":"7106011001038","commune":"Pelarco","code":"07106","gse":"D","quintil":"Q2","nse_score":649.4,"educ":10.4,"educ_score":493.3,"hacin":1.235,"hacin_class":"Hacinamiento Leve","hacin_score":801.0,"auto_score":117.6,"n_per":42,"n_hog":16,"source_year":2024,"crime_score":0.915,"crime_nivel":"Alto","crime_color":"#f44336"},"geometry":{"type":"Polygon","coordinates":[[[-71.4383650389999,-35.3855687401088],[-71.4384740899999,-35.3861096061088],[-71.4391975629999,-35.3860557391088],[-71.4384676009999,-35.3861722071088],[-71.4385420399999,-35.3867056361088],[-71.4407264349999,-35.3865292641088],[-71.4413403349999,-35.3863363001088],[-71.4406497249999,-35.3852879431088],[-71.4383650389999,-35.3855687401088]]]}},{"type":"Feature","properties":{"id":"7106011001039","commune":"Pelarco","code":"07106","gse":"D","quintil":"Q2","nse_score":630.3,"educ":10.3,"educ_score":486.7,"hacin":1.469,"hacin_class":"Hacinamiento Leve","hacin_score":751.3,"auto_score":283.5,"n_per":404,"n_hog":127,"source_year":2024,"crime_score":1.0,"crime_nivel":"Alto","crime_color":"#f44336"},"geometry":{"type":"Polygon","coordinates":[[[-71.4397331079999,-35.3866997001088],[-71.4398525069999,-35.3873858751088],[-71.4411481079999,-35.3871817951088],[-71.4398270729999,-35.3874248631088],[-71.4396880649999,-35.3866963551088],[-71.4394026849999,-35.3867055931088],[-71.4395586699999,-35.3877374501088],[-71.4392048209999,-35.3878350031088],[-71.4395222859999,-35.3877250481088],[-71.4393697559999,-35.3867079141088],[-71.4378579989999,-35.3868488491088],[-71.4378868089999,-35.3869585161088],[-71.4384170789999,-35.3869093411088],[-71.4379007639999,-35.3870116341088],[-71.4380425059999,-35.3875511741088],[-71.4385380399999,-35.3874592431088],[-71.4380563949999,-35.3876040361088],[-71.4381209379999,-35.3878497171088],[-71.4385817159999,-35.3877682221088],[-71.4381348239999,-35.3879025751088],[-71.4382129679999,-35.3882000251088],[-71.4401587699999,-35.3878689341088],[-71.4402933789999,-35.3883430981088],[-71.4402045759999,-35.3882520661088],[-71.4383147379999,-35.3885874001088],[-71.4382840619999,-35.3887260231088],[-71.4377507819999,-35.3868599621088],[-71.4381856479999,-35.3887405281088],[-71.4376850189999,-35.3868667791088],[-71.4372119529999,-35.3869215361088],[-71.437389735,-35.3877270061088],[-71.436964052,-35.3878379041088],[-71.4373586369999,-35.3877144751088],[-71.4371650869999,-35.3869234131088],[-71.4356856709999,-35.3870500451088],[-71.4363006039999,-35.3887445811088],[-71.4376244469999,-35.3877363641088],[-71.4378457129999,-35.3884225431088],[-71.437985066,-35.3883803101088],[-71.4380731729999,-35.3888381241088],[-71.4405059529999,-35.3883496161088],[-71.4403041019999,-35.3876900471088],[-71.4413325279999,-35.3875130231088],[-71.4421025429999,-35.3887133991088],[-71.4434334489999,-35.3878980961088],[-71.4427604909999,-35.3864881931088],[-71.4421737869999,-35.3868316081088],[-71.4424704019999,-35.3873698161088],[-71.4421282819999,-35.3868222421088],[-71.4427459979999,-35.3864611141088],[-71.4424423869999,-35.3859565111088],[-71.4411257809999,-35.3865182161088],[-71.4397331079999,-35.3866997001088]]]}},{"type":"Feature","properties":{"id":"7106011001040","commune":"Pelarco","code":"07106","gse":"C3","quintil":"Q2","nse_score":663.5,"educ":10.4,"educ_score":493.3,"hacin":1.393,"hacin_class":"Hacinamiento Leve","hacin_score":767.5,"auto_score":115.4,"n_per":117,"n_hog":39,"source_year":2024,"crime_score":0.9414,"crime_nivel":"Alto","crime_color":"#f44336"},"geometry":{"type":"Polygon","coordinates":[[[-71.4382268549999,-35.3882528851088],[-71.438300851,-35.3885345421088],[-71.4401920089999,-35.3881989751088],[-71.4401278049999,-35.3879277361088],[-71.4382268549999,-35.3882528851088]]]}},{"type":"Feature","properties":{"id":"7106011001012","commune":"Pelarco","code":"07106","gse":"C3","quintil":"Q2","nse_score":660.7,"educ":9.8,"educ_score":453.3,"hacin":1.346,"hacin_class":"Hacinamiento Leve","hacin_score":777.4,"auto_score":192.3,"n_per":35,"n_hog":13,"source_year":2024,"crime_score":0.9063,"crime_nivel":"Alto","crime_color":"#f44336"},"geometry":{"type":"MultiPolygon","coordinates":[[[[-71.4501217979999,-35.3828039801089],[-71.4502578049999,-35.3825469511089],[-71.4500604499999,-35.3823076871088],[-71.4497623209999,-35.3825934641089],[-71.4505372089999,-35.3841446061089],[-71.4510222769999,-35.3839705421088],[-71.4503848479999,-35.3825109611088],[-71.4508107979999,-35.3822231271089],[-71.4505850369999,-35.3818965421089],[-71.4501185809999,-35.3822553291088],[-71.450291122,-35.3825467391089],[-71.4501217979999,-35.3828039801089]]],[[[-71.4495762549999,-35.3825366591088],[-71.4500930739999,-35.3821454751089],[-71.4494265799999,-35.3811591321089],[-71.4491544429999,-35.3812711481089],[-71.4495317569999,-35.3819959721088],[-71.4493621729999,-35.3822148971089],[-71.4495762549999,-35.3825366591088]]]]}},{"type":"Feature","properties":{"id":"7106023063004","commune":"Pelarco","code":"07106","gse":"D","quintil":"Q1","nse_score":605.8,"educ":9.3,"educ_score":420.0,"hacin":1.221,"hacin_class":"Hacinamiento Leve","hacin_score":804.1,"auto_score":241.4,"n_per":83,"n_hog":27,"source_year":2024,"crime_score":0.9554,"crime_nivel":"Alto","crime_color":"#f44336"},"geometry":{"type":"Polygon","coordinates":[[[-71.5320638819999,-35.3923583541088],[-71.5291647949999,-35.3932928081088],[-71.5262107029999,-35.3942449121087],[-71.5273656209999,-35.3962199861087],[-71.5290063609999,-35.3957287141087],[-71.5288605379999,-35.3954531931087],[-71.5287239529999,-35.3954501661087],[-71.5288893749999,-35.3954192601087],[-71.5290475229999,-35.3957158411087],[-71.5295041339999,-35.3955730311087],[-71.5293997869999,-35.3952907701087],[-71.5295452559999,-35.3955601691087],[-71.5301603739999,-35.3953677801087],[-71.5299549209999,-35.3949567181087],[-71.5302015689999,-35.3953548951087],[-71.5329520649999,-35.3944938911088],[-71.5323637499999,-35.3930768961088],[-71.5289941249999,-35.3940514021087],[-71.5323423979999,-35.3930257321088],[-71.5320638819999,-35.3923583541088]]]}},{"type":"Feature","properties":{"id":"7106023063005","commune":"Pelarco","code":"07106","gse":"C3","quintil":"Q3","nse_score":707.4,"educ":13.0,"educ_score":666.7,"hacin":1.49,"hacin_class":"Hacinamiento Leve","hacin_score":746.8,"auto_score":541.7,"n_per":76,"n_hog":21,"source_year":2024,"crime_score":0.9011,"crime_nivel":"Alto","crime_color":"#f44336"},"geometry":{"type":"Polygon","coordinates":[[[-71.5213111589999,-35.3925875851088],[-71.5196713109999,-35.3931786591087],[-71.5213890309999,-35.3962289351087],[-71.5191618789999,-35.3963653141087],[-71.5195915699999,-35.3972804701087],[-71.5212715319999,-35.3971750191087],[-71.5208717639999,-35.3963092361087],[-71.5213219539999,-35.3971716751087],[-71.522822157,-35.3970809161087],[-71.5206850229999,-35.3930301071088],[-71.5228909329999,-35.3970747011087],[-71.5254863039999,-35.3965981111087],[-71.5252648399999,-35.3961834381087],[-71.5240258009999,-35.3964695091087],[-71.5252514869999,-35.3961584351087],[-71.5251297179999,-35.3959304311087],[-71.5239225439999,-35.3961924241087],[-71.5251163359999,-35.3959053731087],[-71.5241086309999,-35.3941568921088],[-71.5223633719999,-35.3945108281088],[-71.5213111589999,-35.3925875851088]]]}},{"type":"Feature","properties":{"id":"7106023063007","commune":"Pelarco","code":"07106","gse":"D","quintil":"Q2","nse_score":637.6,"educ":9.8,"educ_score":453.3,"hacin":1.269,"hacin_class":"Hacinamiento Leve","hacin_score":793.8,"auto_score":181.8,"n_per":33,"n_hog":11,"source_year":2024,"crime_score":0.9168,"crime_nivel":"Alto","crime_color":"#f44336"},"geometry":{"type":"Polygon","coordinates":[[[-71.5241500899999,-35.3941452501088],[-71.5255315439999,-35.3965928601087],[-71.5272976749999,-35.3962294611087],[-71.5257304949999,-35.3935733171087],[-71.5241500899999,-35.3941452501088]]]}},{"type":"Feature","properties":{"id":"7106023063008","commune":"Pelarco","code":"07106","gse":"D","quintil":"Q1","nse_score":609.7,"educ":10.5,"educ_score":500.0,"hacin":1.283,"hacin_class":"Hacinamiento Leve","hacin_score":790.8,"auto_score":250.0,"n_per":213,"n_hog":69,"source_year":2024,"crime_score":1.0,"crime_nivel":"Alto","crime_color":"#f44336"},"geometry":{"type":"Polygon","coordinates":[[[-71.5349948119999,-35.3945038351087],[-71.5347194069999,-35.3939916191088],[-71.5337363129999,-35.3943050011087],[-71.5339952329999,-35.3947863501087],[-71.5336951599999,-35.3943181201087],[-71.5330762859999,-35.3945146191087],[-71.5336591609999,-35.3953400451087],[-71.5330344269999,-35.3945277091087],[-71.5324146659999,-35.3947215101088],[-71.5328040249999,-35.3951877441087],[-71.5332070719999,-35.3958499761087],[-71.5323732689999,-35.3947344541087],[-71.5315552539999,-35.3949899421087],[-71.5320595569999,-35.3961781291087],[-71.5315140999999,-35.3950027411087],[-71.5303023069999,-35.3953803221087],[-71.530518948,-35.3958069961087],[-71.5307645089999,-35.3966554411087],[-71.5302611709999,-35.3953931501087],[-71.5279403819999,-35.3961234121087],[-71.5281591649999,-35.3966068351087],[-71.5286289139999,-35.3964910541087],[-71.5285155839999,-35.3965479201087],[-71.5286321559999,-35.3968822991087],[-71.5284741739999,-35.3965601501087],[-71.5281703569999,-35.3966475501087],[-71.5283868129999,-35.3971846351087],[-71.5278889259999,-35.3961399091087],[-71.5260041939999,-35.3965471741087],[-71.5262736809999,-35.3972324501087],[-71.5259613259999,-35.3965560061087],[-71.5252802709999,-35.3966967761087],[-71.5255074299999,-35.3973630391087],[-71.5256252389999,-35.3973917931087],[-71.5252166939999,-35.3974312891087],[-71.5254559519999,-35.3973662071087],[-71.5252312089999,-35.3967070321087],[-71.5234509269999,-35.3970694501087],[-71.5221259729999,-35.3971948631087],[-71.5223621629999,-35.3982510481087],[-71.5241729719999,-35.3981847511087],[-71.5248240049999,-35.3977656961087],[-71.5256756879999,-35.3977097221087],[-71.5267184679999,-35.3973376431087],[-71.5271367029999,-35.3974936761087],[-71.5277195479999,-35.3974952291087],[-71.5288302189999,-35.3973384121087],[-71.529240065,-35.3970317091087],[-71.5295300559999,-35.3965247951087],[-71.5308853069999,-35.3967538591087],[-71.5315363939999,-35.3966019871087],[-71.531953315,-35.3963356711087],[-71.5325966889999,-35.3964293531087],[-71.5332638279999,-35.3963296431087],[-71.5336620819999,-35.3961185661087],[-71.5336820159999,-35.3956387741087],[-71.5341676629999,-35.3953352341087],[-71.5340716159999,-35.3945001361087],[-71.5343378299999,-35.3945031111087],[-71.5351680529999,-35.3950065731087],[-71.5359084239999,-35.3948388341087],[-71.5354800809999,-35.3937507141088],[-71.5347612239999,-35.3939782891088],[-71.5349948119999,-35.3945038351087]]]}},{"type":"Feature","properties":{"id":"7106023063009","commune":"Pelarco","code":"07106","gse":"D","quintil":"Q1","nse_score":603.2,"educ":8.7,"educ_score":380.0,"hacin":1.4,"hacin_class":"Hacinamiento Leve","hacin_score":766.0,"auto_score":178.6,"n_per":42,"n_hog":15,"source_year":2024,"crime_score":0.9379,"crime_nivel":"Alto","crime_color":"#f44336"},"geometry":{"type":"Polygon","coordinates":[[[-71.517057942,-35.3971412021087],[-71.5173533429999,-35.3984871181087],[-71.5179841429999,-35.3985096911087],[-71.5191913119999,-35.3981700801087],[-71.5190902189999,-35.3989586201086],[-71.5194984929999,-35.3988438671087],[-71.5220223319999,-35.3989539331087],[-71.5222715899999,-35.3983254351087],[-71.5212233499999,-35.3982424991087],[-71.5222895799999,-35.3982651871087],[-71.5195162479999,-35.3980977491087],[-71.5186498909999,-35.3982043651087],[-71.5195157179999,-35.3980616541087],[-71.5223211209999,-35.3981890081087],[-71.5222585039999,-35.3977949741087],[-71.521948457,-35.3977836681087],[-71.5218290719999,-35.3979489201087],[-71.5214458989999,-35.3979214311087],[-71.5218513559999,-35.3979065021087],[-71.5219280129999,-35.3977473791087],[-71.5222512229999,-35.3977586291087],[-71.5220693989999,-35.3971979091087],[-71.5204836509999,-35.3972849051087],[-71.5205488939999,-35.3977934021087],[-71.5208968719999,-35.3978284071087],[-71.5205535609999,-35.3978297721087],[-71.5205387849999,-35.3979286671087],[-71.5204331109999,-35.3972877241087],[-71.5179405079999,-35.3974364801087],[-71.517057942,-35.3971412021087]]]}},{"type":"Feature","properties":{"id":"7106023063003","commune":"Pelarco","code":"07106","gse":"D","quintil":"Q1","nse_score":608.0,"educ":10.7,"educ_score":513.3,"hacin":1.433,"hacin_class":"Hacinamiento Leve","hacin_score":758.9,"auto_score":437.5,"n_per":43,"n_hog":13,"source_year":2024,"crime_score":0.9359,"crime_nivel":"Alto","crime_color":"#f44336"},"geometry":{"type":"MultiPolygon","coordinates":[[[[-71.5359517379999,-35.3948027561087],[-71.5363931539999,-35.3945992511087],[-71.5362039479999,-35.3939521381087],[-71.5369396659999,-35.3936361781088],[-71.5373680529999,-35.3931661571087],[-71.5355315319999,-35.3937345091088],[-71.5359517379999,-35.3948027561087]]],[[[-71.5332450919999,-35.3912166881088],[-71.5318258159999,-35.3916764261088],[-71.5330014439999,-35.3945008431087],[-71.5355679719999,-35.3936651041087],[-71.5351424699999,-35.3925110251087],[-71.5356091299999,-35.3936521411088],[-71.5361301039999,-35.3934880551087],[-71.5359692679999,-35.3930130061088],[-71.5359650859999,-35.3926935101088],[-71.5361713189999,-35.3934750731087],[-71.5369563669999,-35.3932298811088],[-71.5367101659999,-35.3924468791087],[-71.5369978999999,-35.3932176521087],[-71.5373630199999,-35.3931101861088],[-71.5372057669999,-35.3913612831088],[-71.5339038119999,-35.3924697011087],[-71.5332450919999,-35.3912166881088]]]]}},{"type":"Feature","properties":{"id":"7106023063001","commune":"Pelarco","code":"07106","gse":"C2","quintil":"Q4","nse_score":726.4,"educ":13.4,"educ_score":693.3,"hacin":1.294,"hacin_class":"Hacinamiento Leve","hacin_score":788.5,"auto_score":687.5,"n_per":22,"n_hog":8,"source_year":2024,"crime_score":0.8684,"crime_nivel":"Alto","crime_color":"#f44336"},"geometry":{"type":"MultiPolygon","coordinates":[[[[-71.530810647,-35.3892449231088],[-71.5318094439999,-35.3916371951087],[-71.5332411969999,-35.3911726041088],[-71.5327682719999,-35.3895994761088],[-71.5333712219999,-35.3894393141088],[-71.5330652029999,-35.3886311591088],[-71.533034847,-35.3886849001088],[-71.530810647,-35.3892449231088]]],[[[-71.5304715659999,-35.3884546421088],[-71.5307964149999,-35.3892103211088],[-71.5309902649999,-35.3891839631088],[-71.5330305639999,-35.3886011621088],[-71.5327391929999,-35.3878526521088],[-71.5304715659999,-35.3884546421088]]]]}}]}