{"type":"FeatureCollection","features":[{"type":"Feature","properties":{"id":"16105011001003","commune":"Pemuco","code":"16105","gse":"D","quintil":"Q1","nse_score":610.8,"educ":11.1,"educ_score":540.0,"hacin":1.5,"hacin_class":"Hacinamiento Medio","hacin_score":744.7,"auto_score":178.6,"n_per":42,"n_hog":13,"source_year":2024,"crime_score":0.2345,"crime_nivel":"Medio","crime_color":"#ff9800"},"geometry":{"type":"Polygon","coordinates":[[[-72.0985560009999,-36.9694983660931],[-72.0991031279999,-36.971990481093],[-72.1039612269999,-36.9709500960931],[-72.1033199619999,-36.9693256870931],[-72.1020803589999,-36.9696857320931],[-72.101669409,-36.9685231780931],[-72.1018312669999,-36.9684630600931],[-72.1017848089999,-36.9683654390931],[-72.0985560009999,-36.9694983660931]]]}},{"type":"Feature","properties":{"id":"16105011001005","commune":"Pemuco","code":"16105","gse":"D","quintil":"Q2","nse_score":642.8,"educ":10.2,"educ_score":480.0,"hacin":1.175,"hacin_class":"Hacinamiento Leve","hacin_score":813.9,"auto_score":75.0,"n_per":343,"n_hog":116,"source_year":2024,"crime_score":0.2596,"crime_nivel":"Medio","crime_color":"#ff9800"},"geometry":{"type":"Polygon","coordinates":[[[-72.093770849,-36.9717171300931],[-72.0930374739999,-36.9720956690931],[-72.0927439069999,-36.9721121800931],[-72.0925439139999,-36.9723496020931],[-72.0918427569999,-36.9725396580931],[-72.0908529179999,-36.9735788930931],[-72.0920893129999,-36.974917643093],[-72.0941110599999,-36.974436896093],[-72.0931189429999,-36.9733172420931],[-72.0941775949999,-36.9744252680931],[-72.0969285189999,-36.973778387093],[-72.0967733639999,-36.9733503570931],[-72.0954624089999,-36.973624467093],[-72.0948148089999,-36.9728950520931],[-72.0945556859999,-36.9728816240931],[-72.0964832949999,-36.972429494093],[-72.0965280809999,-36.9722623280931],[-72.0965938339999,-36.9724040300931],[-72.0976104129999,-36.9721763270931],[-72.0979181959999,-36.9722599050931],[-72.0978929459999,-36.9720110110931],[-72.0979910769999,-36.9722452920931],[-72.0982569589999,-36.972213627093],[-72.0982085199999,-36.9718791540931],[-72.0983352379999,-36.9722005030931],[-72.0985913139999,-36.972157607093],[-72.0985268759999,-36.9718275180931],[-72.0986518359999,-36.9721539560931],[-72.099007878,-36.9720944770931],[-72.0986582849999,-36.9703679620931],[-72.0976349599999,-36.9705707550931],[-72.0942966059999,-36.9707984310931],[-72.0940042569999,-36.9710524560931],[-72.093770849,-36.9717171300931]]]}},{"type":"Feature","properties":{"id":"16105011001006","commune":"Pemuco","code":"16105","gse":"D","quintil":"Q1","nse_score":632.4,"educ":10.5,"educ_score":500.0,"hacin":1.336,"hacin_class":"Hacinamiento Leve","hacin_score":779.6,"auto_score":205.9,"n_per":187,"n_hog":63,"source_year":2024,"crime_score":0.2482,"crime_nivel":"Medio","crime_color":"#ff9800"},"geometry":{"type":"Polygon","coordinates":[[[-72.1046525539999,-36.9760800380931],[-72.1050984959999,-36.976127492093],[-72.1040045869999,-36.9715857900931],[-72.1059568129999,-36.9711268930931],[-72.1058217249999,-36.970585435093],[-72.1041725879999,-36.9709687880931],[-72.1042034129999,-36.9711050020931],[-72.1006440999999,-36.971866377093],[-72.1009397819999,-36.9727004010931],[-72.1021944299999,-36.9725482660931],[-72.1017026629999,-36.9727715700931],[-72.1020904499999,-36.973927798093],[-72.1026014489999,-36.973905479093],[-72.1024288839999,-36.973946562093],[-72.1025578939999,-36.9743363090931],[-72.1023887499999,-36.973956118093],[-72.1021315109999,-36.9740431450931],[-72.1025069379999,-36.975144383093],[-72.1042461709999,-36.9747593050931],[-72.1043119589999,-36.974356211093],[-72.1046779369999,-36.9756829390931],[-72.1045451569999,-36.975861986093],[-72.1046525539999,-36.9760800380931]]]}},{"type":"Feature","properties":{"id":"16105011001009","commune":"Pemuco","code":"16105","gse":"C3","quintil":"Q2","nse_score":674.9,"educ":10.6,"educ_score":506.7,"hacin":0.865,"hacin_class":"Sin Hacinamiento","hacin_score":879.8,"auto_score":125.0,"n_per":32,"n_hog":12,"source_year":2024,"crime_score":0.2254,"crime_nivel":"Medio","crime_color":"#ff9800"},"geometry":{"type":"Polygon","coordinates":[[[-72.0993114469999,-36.9730789470931],[-72.1007443839999,-36.972749725093],[-72.1004814919999,-36.9719387530931],[-72.0991197819999,-36.9722105710931],[-72.0993114469999,-36.9730789470931]]]}},{"type":"Feature","properties":{"id":"16105011001010","commune":"Pemuco","code":"16105","gse":"D","quintil":"Q1","nse_score":622.3,"educ":10.3,"educ_score":486.7,"hacin":1.351,"hacin_class":"Hacinamiento Leve","hacin_score":776.3,"auto_score":131.6,"n_per":50,"n_hog":18,"source_year":2024,"crime_score":0.234,"crime_nivel":"Medio","crime_color":"#ff9800"},"geometry":{"type":"Polygon","coordinates":[[[-72.0988176129999,-36.9727806140931],[-72.0991322829999,-36.972692469093],[-72.0990044369999,-36.972169068093],[-72.098661552,-36.972230918093],[-72.0988176129999,-36.9727806140931]]]}},{"type":"Feature","properties":{"id":"16105011001011","commune":"Pemuco","code":"16105","gse":"C2","quintil":"Q4","nse_score":718.5,"educ":10.8,"educ_score":520.0,"hacin":0.985,"hacin_class":"Sin Hacinamiento","hacin_score":854.3,"auto_score":62.5,"n_per":64,"n_hog":24,"source_year":2024,"crime_score":0.2235,"crime_nivel":"Medio","crime_color":"#ff9800"},"geometry":{"type":"Polygon","coordinates":[[[-72.0980014029999,-36.9723318120931],[-72.0981417399999,-36.972939437093],[-72.098403232,-36.9728761980931],[-72.0983435999999,-36.9725352670931],[-72.0984613059999,-36.972858736093],[-72.0987275189999,-36.972794402093],[-72.0986006309999,-36.9722290870931],[-72.0980014029999,-36.9723318120931]]]}},{"type":"Feature","properties":{"id":"16105011001012","commune":"Pemuco","code":"16105","gse":"D","quintil":"Q1","nse_score":629.1,"educ":9.6,"educ_score":440.0,"hacin":1.325,"hacin_class":"Hacinamiento Leve","hacin_score":781.9,"auto_score":129.6,"n_per":110,"n_hog":27,"source_year":2024,"crime_score":0.2399,"crime_nivel":"Medio","crime_color":"#ff9800"},"geometry":{"type":"Polygon","coordinates":[[[-72.0967010389999,-36.9727565090931],[-72.0977061209999,-36.9725382240931],[-72.0976966839999,-36.9722646190931],[-72.0966126179999,-36.9724569620931],[-72.0967010389999,-36.9727565090931]]]}},{"type":"Feature","properties":{"id":"16105011001013","commune":"Pemuco","code":"16105","gse":"D","quintil":"Q2","nse_score":653.1,"educ":10.4,"educ_score":493.3,"hacin":1.042,"hacin_class":"Hacinamiento Leve","hacin_score":842.2,"auto_score":15.6,"n_per":75,"n_hog":31,"source_year":2024,"crime_score":0.2329,"crime_nivel":"Medio","crime_color":"#ff9800"},"geometry":{"type":"Polygon","coordinates":[[[-72.0977971649999,-36.9725361130931],[-72.0967147659999,-36.972814859093],[-72.096840116,-36.9732503010931],[-72.0971572309999,-36.973182061093],[-72.0970526249999,-36.9728361590931],[-72.097218601,-36.9731659540931],[-72.0974958189999,-36.973108166093],[-72.097392769,-36.972749214093],[-72.0975699709999,-36.9730879050931],[-72.0980805629999,-36.9729576610931],[-72.0979427239999,-36.9723207740931],[-72.0977970709999,-36.972336296093],[-72.0977971649999,-36.9725361130931]]]}},{"type":"Feature","properties":{"id":"16105011001015","commune":"Pemuco","code":"16105","gse":"C3","quintil":"Q3","nse_score":681.3,"educ":10.7,"educ_score":513.3,"hacin":1.207,"hacin_class":"Hacinamiento Leve","hacin_score":806.9,"auto_score":178.6,"n_per":163,"n_hog":54,"source_year":2024,"crime_score":0.2391,"crime_nivel":"Medio","crime_color":"#ff9800"},"geometry":{"type":"Polygon","coordinates":[[[-72.0963815549999,-36.973363802093],[-72.0960850579999,-36.9725808430931],[-72.0957821509999,-36.9726551030931],[-72.0958555289999,-36.9730748340931],[-72.0957111629999,-36.9726633930931],[-72.0948895589999,-36.9728717720931],[-72.0950999439999,-36.973127651093],[-72.0955536729999,-36.9730753305931],[-72.0956482079999,-36.9733426070931],[-72.0953930389999,-36.973457969093],[-72.0954975009999,-36.9735778270931],[-72.0960332459999,-36.9734664370931],[-72.0959397179999,-36.973155294093],[-72.0960988319999,-36.973445063093],[-72.0963815549999,-36.973363802093]]]}},{"type":"Feature","properties":{"id":"16105011001017","commune":"Pemuco","code":"16105","gse":"D","quintil":"Q2","nse_score":641.4,"educ":9.8,"educ_score":453.3,"hacin":1.261,"hacin_class":"Hacinamiento Leve","hacin_score":795.6,"auto_score":89.3,"n_per":58,"n_hog":27,"source_year":2024,"crime_score":0.2325,"crime_nivel":"Medio","crime_color":"#ff9800"},"geometry":{"type":"Polygon","coordinates":[[[-72.1005758489999,-36.974302907093],[-72.1020088359999,-36.973981345093],[-72.1016102129999,-36.9727746940931],[-72.1001681199999,-36.9731061710931],[-72.1005758489999,-36.974302907093]]]}},{"type":"Feature","properties":{"id":"16105011001018","commune":"Pemuco","code":"16105","gse":"C3","quintil":"Q2","nse_score":677.9,"educ":11.4,"educ_score":560.0,"hacin":1.203,"hacin_class":"Hacinamiento Leve","hacin_score":807.8,"auto_score":76.9,"n_per":71,"n_hog":26,"source_year":2024,"crime_score":0.2294,"crime_nivel":"Medio","crime_color":"#ff9800"},"geometry":{"type":"Polygon","coordinates":[[[-72.0977402779999,-36.9735898710931],[-72.0991893409999,-36.9732496190931],[-72.0991197139999,-36.9727749290931],[-72.0975750759999,-36.973161534093],[-72.0977402779999,-36.9735898710931]]]}},{"type":"Feature","properties":{"id":"16105011001020","commune":"Pemuco","code":"16105","gse":"C3","quintil":"Q3","nse_score":687.0,"educ":11.6,"educ_score":573.3,"hacin":1.188,"hacin_class":"Hacinamiento Leve","hacin_score":811.2,"auto_score":71.4,"n_per":19,"n_hog":7,"source_year":2024,"crime_score":0.2225,"crime_nivel":"Medio","crime_color":"#ff9800"},"geometry":{"type":"Polygon","coordinates":[[[-72.0953504439999,-36.9734174640931],[-72.0955988839999,-36.973348291093],[-72.0955006039999,-36.9730859210931],[-72.0951482179999,-36.9731704100931],[-72.0953504439999,-36.9734174640931]]]}},{"type":"Feature","properties":{"id":"16105011001021","commune":"Pemuco","code":"16105","gse":"D","quintil":"Q1","nse_score":609.0,"educ":10.2,"educ_score":480.0,"hacin":1.238,"hacin_class":"Hacinamiento Leve","hacin_score":800.4,"auto_score":115.4,"n_per":78,"n_hog":25,"source_year":2024,"crime_score":0.2388,"crime_nivel":"Medio","crime_color":"#ff9800"},"geometry":{"type":"Polygon","coordinates":[[[-72.0985969149999,-36.973519777093],[-72.099026336,-36.974656978093],[-72.1000984159999,-36.9744249760931],[-72.0998864379999,-36.9738139820931],[-72.1001421509999,-36.974414128093],[-72.1004750549999,-36.9743179860931],[-72.1000660049999,-36.973127151093],[-72.0985969149999,-36.973519777093]]]}},{"type":"Feature","properties":{"id":"16105011001022","commune":"Pemuco","code":"16105","gse":"C3","quintil":"Q3","nse_score":694.0,"educ":11.6,"educ_score":573.3,"hacin":1.094,"hacin_class":"Hacinamiento Leve","hacin_score":831.1,"auto_score":153.8,"n_per":35,"n_hog":12,"source_year":2024,"crime_score":0.2234,"crime_nivel":"Medio","crime_color":"#ff9800"},"geometry":{"type":"Polygon","coordinates":[[[-72.0973881799999,-36.973666827093],[-72.0976726019999,-36.9736022810931],[-72.0975299259999,-36.973162250093],[-72.0972337189999,-36.973233432093],[-72.0973881799999,-36.973666827093]]]}},{"type":"Feature","properties":{"id":"16105011001023","commune":"Pemuco","code":"16105","gse":"D","quintil":"Q1","nse_score":630.6,"educ":10.6,"educ_score":506.7,"hacin":1.429,"hacin_class":"Hacinamiento Leve","hacin_score":759.9,"auto_score":200.0,"n_per":30,"n_hog":9,"source_year":2024,"crime_score":0.2306,"crime_nivel":"Medio","crime_color":"#ff9800"},"geometry":{"type":"Polygon","coordinates":[[[-72.0970316139999,-36.973746018093],[-72.0973294339999,-36.9736941090931],[-72.0971843859999,-36.9732428030931],[-72.0968623439999,-36.9733227050931],[-72.0970316139999,-36.973746018093]]]}},{"type":"Feature","properties":{"id":"16105011001024","commune":"Pemuco","code":"16105","gse":"D","quintil":"Q1","nse_score":628.3,"educ":11.3,"educ_score":553.3,"hacin":0.896,"hacin_class":"Sin Hacinamiento","hacin_score":873.2,"auto_score":50.0,"n_per":43,"n_hog":19,"source_year":2024,"crime_score":0.2324,"crime_nivel":"Medio","crime_color":"#ff9800"},"geometry":{"type":"Polygon","coordinates":[[[-72.0974770839999,-36.975004504093],[-72.0989206579999,-36.974679173093],[-72.0985074219999,-36.973498045093],[-72.0970722409999,-36.9738477330931],[-72.0974770839999,-36.975004504093]]]}},{"type":"Feature","properties":{"id":"16105011001025","commune":"Pemuco","code":"16105","gse":"D","quintil":"Q1","nse_score":627.6,"educ":10.4,"educ_score":493.3,"hacin":1.308,"hacin_class":"Hacinamiento Leve","hacin_score":785.6,"auto_score":189.2,"n_per":102,"n_hog":36,"source_year":2024,"crime_score":0.2392,"crime_nivel":"Medio","crime_color":"#ff9800"},"geometry":{"type":"Polygon","coordinates":[[[-72.0870378239999,-36.974564903093],[-72.0881988579999,-36.978210726093],[-72.0896955899999,-36.978004219093],[-72.0894971539999,-36.977520434093],[-72.0896512709999,-36.977595472093],[-72.0897974,-36.977988489093],[-72.0916588759999,-36.977709978093],[-72.0913252959999,-36.976539496093],[-72.0894832959999,-36.976908604093],[-72.0913133739999,-36.9764729170931],[-72.0910067599999,-36.9754149120931],[-72.0891531999999,-36.9756981940931],[-72.0882296889999,-36.975778807093],[-72.0910021289999,-36.975377822093],[-72.0911178889999,-36.975152342093],[-72.0920078909999,-36.9749405050931],[-72.0908241779999,-36.973602134093],[-72.0897522419999,-36.974461569093],[-72.0886141589999,-36.974665239093],[-72.0870378239999,-36.974564903093]]]}},{"type":"Feature","properties":{"id":"16105011001026","commune":"Pemuco","code":"16105","gse":"E","quintil":"Q1","nse_score":592.6,"educ":9.9,"educ_score":460.0,"hacin":1.119,"hacin_class":"Hacinamiento Leve","hacin_score":825.8,"auto_score":130.4,"n_per":66,"n_hog":22,"source_year":2024,"crime_score":0.2395,"crime_nivel":"Medio","crime_color":"#ff9800"},"geometry":{"type":"Polygon","coordinates":[[[-72.0959532699999,-36.975368295093],[-72.0973592029999,-36.975029846093],[-72.0969746099999,-36.9738669320931],[-72.095532192,-36.9741922580931],[-72.0959532699999,-36.975368295093]]]}},{"type":"Feature","properties":{"id":"16105011001027","commune":"Pemuco","code":"16105","gse":"C3","quintil":"Q3","nse_score":701.1,"educ":12.3,"educ_score":620.0,"hacin":0.969,"hacin_class":"Sin Hacinamiento","hacin_score":857.7,"auto_score":62.5,"n_per":62,"n_hog":25,"source_year":2024,"crime_score":0.2254,"crime_nivel":"Medio","crime_color":"#ff9800"},"geometry":{"type":"Polygon","coordinates":[[[-72.1013239359999,-36.9744640220931],[-72.1012321379999,-36.974227743093],[-72.1006014519999,-36.974397514093],[-72.1009784099999,-36.975509483093],[-72.1016973989999,-36.9753486010931],[-72.101538564,-36.974837952093],[-72.1017908099999,-36.975329150093],[-72.1023999939999,-36.9751690040931],[-72.1020499929999,-36.9740599840931],[-72.1012578579999,-36.9742218540931],[-72.1013239359999,-36.9744640220931]]]}},{"type":"Feature","properties":{"id":"16105011001028","commune":"Pemuco","code":"16105","gse":"E","quintil":"Q1","nse_score":600.8,"educ":9.1,"educ_score":406.7,"hacin":1.161,"hacin_class":"Hacinamiento Leve","hacin_score":816.7,"auto_score":103.4,"n_per":72,"n_hog":28,"source_year":2024,"crime_score":0.2392,"crime_nivel":"Medio","crime_color":"#ff9800"},"geometry":{"type":"Polygon","coordinates":[[[-72.0939608459999,-36.9745742310931],[-72.0943795299999,-36.975737945093],[-72.094770363,-36.975659723093],[-72.094692199,-36.9753832000931],[-72.0947919139999,-36.975654637093],[-72.0958380959999,-36.9753928260931],[-72.0954207209999,-36.974219764093],[-72.0939608459999,-36.9745742310931]]]}},{"type":"Feature","properties":{"id":"16105011001030","commune":"Pemuco","code":"16105","gse":"C2","quintil":"Q4","nse_score":723.7,"educ":12.1,"educ_score":606.7,"hacin":1.27,"hacin_class":"Hacinamiento Leve","hacin_score":793.7,"auto_score":178.6,"n_per":80,"n_hog":28,"source_year":2024,"crime_score":0.2246,"crime_nivel":"Medio","crime_color":"#ff9800"},"geometry":{"type":"Polygon","coordinates":[[[-72.0938561379999,-36.974563700093],[-72.0923127559999,-36.974939143093],[-72.0927480139999,-36.9761317950931],[-72.0942696399999,-36.975763578093],[-72.0938561379999,-36.974563700093]]]}},{"type":"Feature","properties":{"id":"16105011001031","commune":"Pemuco","code":"16105","gse":"C2","quintil":"Q4","nse_score":739.1,"educ":12.9,"educ_score":660.0,"hacin":1.016,"hacin_class":"Hacinamiento Leve","hacin_score":847.7,"auto_score":62.5,"n_per":65,"n_hog":25,"source_year":2024,"crime_score":0.221,"crime_nivel":"Medio","crime_color":"#ff9800"},"geometry":{"type":"Polygon","coordinates":[[[-72.0989572339999,-36.9747653630931],[-72.0975015759999,-36.9751136610931],[-72.0979127949999,-36.976255488093],[-72.0993330109999,-36.975923873093],[-72.0989572339999,-36.9747653630931]]]}},{"type":"Feature","properties":{"id":"16105011001032","commune":"Pemuco","code":"16105","gse":"D","quintil":"Q1","nse_score":619.2,"educ":9.5,"educ_score":433.3,"hacin":1.106,"hacin_class":"Hacinamiento Leve","hacin_score":828.5,"auto_score":118.4,"n_per":94,"n_hog":35,"source_year":2024,"crime_score":0.2394,"crime_nivel":"Medio","crime_color":"#ff9800"},"geometry":{"type":"Polygon","coordinates":[[[-72.1037859049999,-36.9755631850931],[-72.1034891349999,-36.974977261093],[-72.102539685,-36.975233059093],[-72.1029866749999,-36.976465159093],[-72.1034699749999,-36.976360336093],[-72.1033313679999,-36.975929008093],[-72.103521983,-36.976350998093],[-72.1045784569999,-36.976115595093],[-72.1044717239999,-36.975793960093],[-72.104617404,-36.975658723093],[-72.1042950909999,-36.9747976940931],[-72.1035323399999,-36.974967086093],[-72.1037859049999,-36.9755631850931]]]}},{"type":"Feature","properties":{"id":"16105011001033","commune":"Pemuco","code":"16105","gse":"D","quintil":"Q1","nse_score":621.3,"educ":10.3,"educ_score":486.7,"hacin":1.123,"hacin_class":"Hacinamiento Leve","hacin_score":824.9,"auto_score":270.8,"n_per":73,"n_hog":25,"source_year":2024,"crime_score":0.2367,"crime_nivel":"Medio","crime_color":"#ff9800"},"geometry":{"type":"Polygon","coordinates":[[[-72.0914110749999,-36.976438597093],[-72.0926699339999,-36.9761700000931],[-72.0922149339999,-36.974963975093],[-72.0910991179999,-36.9752488820931],[-72.0914110749999,-36.976438597093]]]}},{"type":"Feature","properties":{"id":"16105011001034","commune":"Pemuco","code":"16105","gse":"C3","quintil":"Q3","nse_score":684.9,"educ":12.7,"educ_score":646.7,"hacin":1.143,"hacin_class":"Hacinamiento Leve","hacin_score":820.7,"auto_score":100.0,"n_per":32,"n_hog":9,"source_year":2024,"crime_score":0.2242,"crime_nivel":"Medio","crime_color":"#ff9800"},"geometry":{"type":"Polygon","coordinates":[[[-72.0963724039999,-36.976597917093],[-72.0977874579999,-36.976268148093],[-72.0974004849999,-36.9751265890931],[-72.0959595499999,-36.9754441200931],[-72.0963724039999,-36.976597917093]]]}},{"type":"Feature","properties":{"id":"16105011001035","commune":"Pemuco","code":"16105","gse":"E","quintil":"Q1","nse_score":538.3,"educ":9.4,"educ_score":426.7,"hacin":1.815,"hacin_class":"Hacinamiento Medio","hacin_score":677.7,"auto_score":178.6,"n_per":49,"n_hog":14,"source_year":2024,"crime_score":0.2443,"crime_nivel":"Medio","crime_color":"#ff9800"},"geometry":{"type":"Polygon","coordinates":[[[-72.1014425729999,-36.976799839093],[-72.1028522839999,-36.976473880093],[-72.1024311759999,-36.975246681093],[-72.1010200929999,-36.9756090970931],[-72.1014425729999,-36.976799839093]]]}},{"type":"Feature","properties":{"id":"16105011001036","commune":"Pemuco","code":"16105","gse":"D","quintil":"Q1","nse_score":637.8,"educ":10.9,"educ_score":526.7,"hacin":1.356,"hacin_class":"Hacinamiento Leve","hacin_score":775.4,"auto_score":166.7,"n_per":61,"n_hog":20,"source_year":2024,"crime_score":0.2333,"crime_nivel":"Medio","crime_color":"#ff9800"},"geometry":{"type":"Polygon","coordinates":[[[-72.0944019679999,-36.975869592093],[-72.0948168469999,-36.976980822093],[-72.0962749079999,-36.976614972093],[-72.0960051669999,-36.975819130093],[-72.0954150149999,-36.975960031093],[-72.0959929679999,-36.9757844040931],[-72.0958722179999,-36.975461222093],[-72.0944019679999,-36.975869592093]]]}},{"type":"Feature","properties":{"id":"16105011001038","commune":"Pemuco","code":"16105","gse":"D","quintil":"Q2","nse_score":653.6,"educ":11.1,"educ_score":540.0,"hacin":1.054,"hacin_class":"Hacinamiento Leve","hacin_score":839.7,"auto_score":238.1,"n_per":59,"n_hog":21,"source_year":2024,"crime_score":0.2311,"crime_nivel":"Medio","crime_color":"#ff9800"},"geometry":{"type":"Polygon","coordinates":[[[-72.0927938529999,-36.976251832093],[-72.0932335449999,-36.977358935093],[-72.094160256,-36.977150126093],[-72.0937736239999,-36.976621945093],[-72.0941862079999,-36.977145369093],[-72.0947009839999,-36.976985343093],[-72.0942938729999,-36.975847187093],[-72.0927938529999,-36.976251832093]]]}},{"type":"Feature","properties":{"id":"16105011001040","commune":"Pemuco","code":"16105","gse":"C2","quintil":"Q4","nse_score":731.9,"educ":12.3,"educ_score":620.0,"hacin":1.244,"hacin_class":"Hacinamiento Leve","hacin_score":799.1,"auto_score":58.1,"n_per":112,"n_hog":43,"source_year":2024,"crime_score":0.227,"crime_nivel":"Medio","crime_color":"#ff9800"},"geometry":{"type":"Polygon","coordinates":[[[-72.1045596899999,-36.977382160093],[-72.1018505899999,-36.978074873093],[-72.1020471809999,-36.978742746093],[-72.1024104899999,-36.978638000093],[-72.1020583079999,-36.978783718093],[-72.1021768719999,-36.979224139093],[-72.1007444789999,-36.979650405093],[-72.1009135029999,-36.980209073093],[-72.1018103469999,-36.980081755093],[-72.1022621639999,-36.980483200093],[-72.1024033779999,-36.980383488093],[-72.1023957619999,-36.980014020093],[-72.1027248939999,-36.979736457093],[-72.1026519299999,-36.979193074093],[-72.1034900799999,-36.978854382093],[-72.1033812319999,-36.978354883093],[-72.1037949649999,-36.977971024093],[-72.1040181349999,-36.977840595093],[-72.1046839169999,-36.977320358093],[-72.1047736029999,-36.977213325093],[-72.1050272269999,-36.976732115093],[-72.1048717769999,-36.976161127093],[-72.1045045419999,-36.9762044380931],[-72.1047662399999,-36.977188807093],[-72.1045596899999,-36.977382160093]]]}},{"type":"Feature","properties":{"id":"16105011001041","commune":"Pemuco","code":"16105","gse":"D","quintil":"Q1","nse_score":616.8,"educ":8.4,"educ_score":360.0,"hacin":1.118,"hacin_class":"Hacinamiento Leve","hacin_score":826.0,"auto_score":62.5,"n_per":38,"n_hog":16,"source_year":2024,"crime_score":0.2333,"crime_nivel":"Medio","crime_color":"#ff9800"},"geometry":{"type":"Polygon","coordinates":[[[-72.1037255979999,-36.976733491093],[-72.1045846599999,-36.976548911093],[-72.1044547729999,-36.9762149320931],[-72.1036477149999,-36.976390710093],[-72.1037255979999,-36.976733491093]]]}},{"type":"Feature","properties":{"id":"16105011001042","commune":"Pemuco","code":"16105","gse":"E","quintil":"Q1","nse_score":595.5,"educ":10.2,"educ_score":480.0,"hacin":1.29,"hacin_class":"Hacinamiento Leve","hacin_score":789.5,"auto_score":133.3,"n_per":49,"n_hog":15,"source_year":2024,"crime_score":0.2372,"crime_nivel":"Medio","crime_color":"#ff9800"},"geometry":{"type":"Polygon","coordinates":[[[-72.0917801479999,-36.977708517093],[-72.093129142,-36.977394842093],[-72.0927042599999,-36.976235855093],[-72.091430193,-36.9765168860931],[-72.0917801479999,-36.977708517093]]]}},{"type":"Feature","properties":{"id":"16105011001043","commune":"Pemuco","code":"16105","gse":"C2","quintil":"Q4","nse_score":753.6,"educ":13.5,"educ_score":700.0,"hacin":0.844,"hacin_class":"Sin Hacinamiento","hacin_score":884.3,"auto_score":83.3,"n_per":27,"n_hog":12,"source_year":2024,"crime_score":0.2152,"crime_nivel":"Medio","crime_color":"#ff9800"},"geometry":{"type":"Polygon","coordinates":[[[-72.0968330129999,-36.977838971093],[-72.0982130119999,-36.977511649093],[-72.0978429199999,-36.976378054093],[-72.0964054129999,-36.976693175093],[-72.0968330129999,-36.977838971093]]]}},{"type":"Feature","properties":{"id":"16105011001044","commune":"Pemuco","code":"16105","gse":"E","quintil":"Q1","nse_score":592.1,"educ":9.2,"educ_score":413.3,"hacin":1.0,"hacin_class":"Hacinamiento Leve","hacin_score":851.1,"auto_score":71.4,"n_per":32,"n_hog":13,"source_year":2024,"crime_score":0.2356,"crime_nivel":"Medio","crime_color":"#ff9800"},"geometry":{"type":"Polygon","coordinates":[[[-72.1033819149999,-36.977612971093],[-72.1039018369999,-36.977459235093],[-72.1035361109999,-36.976424948093],[-72.1029909979999,-36.976553464093],[-72.1033819149999,-36.977612971093]]]}},{"type":"Feature","properties":{"id":"16105011001045","commune":"Pemuco","code":"16105","gse":"C3","quintil":"Q2","nse_score":672.5,"educ":12.0,"educ_score":600.0,"hacin":1.133,"hacin_class":"Hacinamiento Leve","hacin_score":822.7,"auto_score":142.9,"n_per":51,"n_hog":19,"source_year":2024,"crime_score":0.2278,"crime_nivel":"Medio","crime_color":"#ff9800"},"geometry":{"type":"Polygon","coordinates":[[[-72.1014463019999,-36.976905913093],[-72.1018235809999,-36.977992432093],[-72.1032536289999,-36.977642401093],[-72.1028766939999,-36.976570934093],[-72.1014463019999,-36.976905913093]]]}},{"type":"Feature","properties":{"id":"16105011001046","commune":"Pemuco","code":"16105","gse":"C3","quintil":"Q3","nse_score":695.9,"educ":11.6,"educ_score":573.3,"hacin":1.185,"hacin_class":"Hacinamiento Leve","hacin_score":811.7,"auto_score":269.2,"n_per":32,"n_hog":12,"source_year":2024,"crime_score":0.2228,"crime_nivel":"Medio","crime_color":"#ff9800"},"geometry":{"type":"Polygon","coordinates":[[[-72.1037446619999,-36.976788207093],[-72.1038730479999,-36.977081329093],[-72.1047121679999,-36.976927640093],[-72.1046122739999,-36.976595551093],[-72.1037446619999,-36.976788207093]]]}},{"type":"Feature","properties":{"id":"16105011001047","commune":"Pemuco","code":"16105","gse":"D","quintil":"Q2","nse_score":654.0,"educ":10.6,"educ_score":506.7,"hacin":0.951,"hacin_class":"Sin Hacinamiento","hacin_score":861.4,"auto_score":0.0,"n_per":39,"n_hog":14,"source_year":2024,"crime_score":0.2288,"crime_nivel":"Medio","crime_color":"#ff9800"},"geometry":{"type":"Polygon","coordinates":[[[-72.0952661269999,-36.978236187093],[-72.0967048239999,-36.977865674093],[-72.0963138919999,-36.976727484093],[-72.0948307279999,-36.977077224093],[-72.0952661269999,-36.978236187093]]]}},{"type":"Feature","properties":{"id":"16105011001048","commune":"Pemuco","code":"16105","gse":"C3","quintil":"Q2","nse_score":667.8,"educ":12.0,"educ_score":600.0,"hacin":1.14,"hacin_class":"Hacinamiento Leve","hacin_score":821.2,"auto_score":111.1,"n_per":65,"n_hog":26,"source_year":2024,"crime_score":0.23,"crime_nivel":"Medio","crime_color":"#ff9800"},"geometry":{"type":"Polygon","coordinates":[[[-72.1003148409999,-36.978339595093],[-72.1017038189999,-36.978005952093],[-72.1013412489999,-36.976901101093],[-72.0999250589999,-36.977246227093],[-72.1003148409999,-36.978339595093]]]}},{"type":"Feature","properties":{"id":"16105011001049","commune":"Pemuco","code":"16105","gse":"D","quintil":"Q2","nse_score":654.7,"educ":9.3,"educ_score":420.0,"hacin":0.857,"hacin_class":"Sin Hacinamiento","hacin_score":881.5,"auto_score":55.6,"n_per":18,"n_hog":9,"source_year":2024,"crime_score":0.2263,"crime_nivel":"Medio","crime_color":"#ff9800"},"geometry":{"type":"Polygon","coordinates":[[[-72.1039777439999,-36.977437674093],[-72.10465611,-36.977253890093],[-72.1047155969999,-36.976964786093],[-72.1038704739999,-36.977157452093],[-72.1039777439999,-36.977437674093]]]}},{"type":"Feature","properties":{"id":"16105011001050","commune":"Pemuco","code":"16105","gse":"D","quintil":"Q1","nse_score":632.1,"educ":11.3,"educ_score":553.3,"hacin":1.088,"hacin_class":"Hacinamiento Leve","hacin_score":832.3,"auto_score":166.7,"n_per":37,"n_hog":18,"source_year":2024,"crime_score":0.2313,"crime_nivel":"Medio","crime_color":"#ff9800"},"geometry":{"type":"Polygon","coordinates":[[[-72.0937178499999,-36.978617205093],[-72.0951276309999,-36.978258885093],[-72.0947247099999,-36.977098326093],[-72.0932591139999,-36.977451680093],[-72.0937178499999,-36.978617205093]]]}},{"type":"Feature","properties":{"id":"16105011001052","commune":"Pemuco","code":"16105","gse":"D","quintil":"Q1","nse_score":633.1,"educ":11.4,"educ_score":560.0,"hacin":1.394,"hacin_class":"Hacinamiento Leve","hacin_score":767.2,"auto_score":210.5,"n_per":46,"n_hog":18,"source_year":2024,"crime_score":0.2322,"crime_nivel":"Medio","crime_color":"#ff9800"},"geometry":{"type":"Polygon","coordinates":[[[-72.098759776,-36.978728060093],[-72.1001937919999,-36.978362676093],[-72.0998181049999,-36.977273308093],[-72.0983514789999,-36.977590010093],[-72.098759776,-36.978728060093]]]}},{"type":"Feature","properties":{"id":"16105011001053","commune":"Pemuco","code":"16105","gse":"C3","quintil":"Q2","nse_score":664.5,"educ":11.9,"educ_score":593.3,"hacin":1.2,"hacin_class":"Hacinamiento Leve","hacin_score":808.5,"auto_score":115.4,"n_per":36,"n_hog":13,"source_year":2024,"crime_score":0.2271,"crime_nivel":"Medio","crime_color":"#ff9800"},"geometry":{"type":"Polygon","coordinates":[[[-72.092110192,-36.979004075093],[-72.0935776509999,-36.978643062093],[-72.0931581129999,-36.977472386093],[-72.0917978519999,-36.977791696093],[-72.092110192,-36.979004075093]]]}},{"type":"Feature","properties":{"id":"16105011001054","commune":"Pemuco","code":"16105","gse":"ABC1","quintil":"Q5","nse_score":815.3,"educ":14.0,"educ_score":733.3,"hacin":1.13,"hacin_class":"Hacinamiento Leve","hacin_score":823.3,"auto_score":218.8,"n_per":52,"n_hog":20,"source_year":2024,"crime_score":0.2101,"crime_nivel":"Medio","crime_color":"#ff9800"},"geometry":{"type":"Polygon","coordinates":[[[-72.0972590329999,-36.979107679093],[-72.0986304149999,-36.978755364093],[-72.0982438749999,-36.977615491093],[-72.0968348399999,-36.977921385093],[-72.0972590329999,-36.979107679093]]]}},{"type":"Feature","properties":{"id":"16105011001055","commune":"Pemuco","code":"16105","gse":"D","quintil":"Q1","nse_score":636.4,"educ":10.7,"educ_score":513.3,"hacin":1.05,"hacin_class":"Hacinamiento Leve","hacin_score":840.4,"auto_score":105.3,"n_per":42,"n_hog":17,"source_year":2024,"crime_score":0.2313,"crime_nivel":"Medio","crime_color":"#ff9800"},"geometry":{"type":"Polygon","coordinates":[[[-72.0905056509999,-36.979195801093],[-72.0909985249999,-36.979259323093],[-72.0920009179999,-36.979017041093],[-72.0916849999999,-36.977795836093],[-72.0902272989999,-36.978005549093],[-72.0905056509999,-36.979195801093]]]}},{"type":"Feature","properties":{"id":"16105011001056","commune":"Pemuco","code":"16105","gse":"C3","quintil":"Q3","nse_score":685.2,"educ":11.5,"educ_score":566.7,"hacin":0.95,"hacin_class":"Sin Hacinamiento","hacin_score":861.7,"auto_score":147.1,"n_per":38,"n_hog":18,"source_year":2024,"crime_score":0.2248,"crime_nivel":"Medio","crime_color":"#ff9800"},"geometry":{"type":"Polygon","coordinates":[[[-72.0956993329999,-36.979501684093],[-72.0971340379999,-36.979149417093],[-72.0967460009999,-36.977961719093],[-72.0952725519999,-36.978322667093],[-72.0956993329999,-36.979501684093]]]}},{"type":"Feature","properties":{"id":"16105011001057","commune":"Pemuco","code":"16105","gse":"D","quintil":"Q2","nse_score":641.9,"educ":9.6,"educ_score":440.0,"hacin":1.238,"hacin_class":"Hacinamiento Leve","hacin_score":800.4,"auto_score":145.2,"n_per":78,"n_hog":32,"source_year":2024,"crime_score":0.2347,"crime_nivel":"Medio","crime_color":"#ff9800"},"geometry":{"type":"Polygon","coordinates":[[[-72.0880994139999,-36.978354901093],[-72.0883733719999,-36.979431599093],[-72.0895068709999,-36.979288402093],[-72.0894621209999,-36.978730372093],[-72.0896742479999,-36.979648157093],[-72.0904696329999,-36.979417958093],[-72.0901059789999,-36.978021251093],[-72.0880994139999,-36.978354901093]]]}},{"type":"Feature","properties":{"id":"16105011001058","commune":"Pemuco","code":"16105","gse":"D","quintil":"Q2","nse_score":641.9,"educ":10.7,"educ_score":513.3,"hacin":1.381,"hacin_class":"Hacinamiento Leve","hacin_score":770.0,"auto_score":111.1,"n_per":58,"n_hog":18,"source_year":2024,"crime_score":0.2324,"crime_nivel":"Medio","crime_color":"#ff9800"},"geometry":{"type":"Polygon","coordinates":[[[-72.1007255009999,-36.979579466093],[-72.1021031589999,-36.979213714093],[-72.1017540529999,-36.978110335093],[-72.1003222959999,-36.978432391093],[-72.1007255009999,-36.979579466093]]]}},{"type":"Feature","properties":{"id":"16105011001059","commune":"Pemuco","code":"16105","gse":"E","quintil":"Q1","nse_score":607.3,"educ":10.4,"educ_score":493.3,"hacin":1.353,"hacin_class":"Hacinamiento Leve","hacin_score":776.1,"auto_score":178.6,"n_per":211,"n_hog":69,"source_year":2024,"crime_score":0.2543,"crime_nivel":"Medio","crime_color":"#ff9800"},"geometry":{"type":"Polygon","coordinates":[[[-72.0867659489999,-36.978485301093],[-72.0871844359999,-36.980038497093],[-72.0880456439999,-36.979915224093],[-72.0871948959999,-36.980073551093],[-72.0876836959999,-36.981901039093],[-72.0917018669999,-36.981106024093],[-72.0918683609999,-36.981597054093],[-72.0916037759999,-36.9828542740929],[-72.0926551549999,-36.981646304093],[-72.0925071909999,-36.980898664093],[-72.0920099189999,-36.981003943093],[-72.0920624849999,-36.981295771093],[-72.0918557169999,-36.980568669093],[-72.0903223209999,-36.980850430093],[-72.0923579169999,-36.980368804093],[-72.0920121489999,-36.979113325093],[-72.0906027349999,-36.979565968093],[-72.0907105089999,-36.980044215093],[-72.0904800419999,-36.980152204093],[-72.0905913259999,-36.980485725093],[-72.0904376979999,-36.980164687093],[-72.0898132879999,-36.980335407093],[-72.0899057299999,-36.980836479093],[-72.0897508749999,-36.980347133093],[-72.0881709279999,-36.980762151093],[-72.0885471939999,-36.980549598093],[-72.0879996699999,-36.978321946093],[-72.0867659489999,-36.978485301093]]]}},{"type":"Feature","properties":{"id":"16105011001060","commune":"Pemuco","code":"16105","gse":"D","quintil":"Q2","nse_score":639.9,"educ":11.1,"educ_score":540.0,"hacin":1.179,"hacin_class":"Hacinamiento Leve","hacin_score":812.9,"auto_score":300.0,"n_per":46,"n_hog":15,"source_year":2024,"crime_score":0.2313,"crime_nivel":"Medio","crime_color":"#ff9800"},"geometry":{"type":"Polygon","coordinates":[[[-72.0941506879999,-36.979897012093],[-72.0955817839999,-36.979528606093],[-72.0951809929999,-36.978344558093],[-72.0937263349999,-36.978701543093],[-72.0941506879999,-36.979897012093]]]}},{"type":"Feature","properties":{"id":"16105011001061","commune":"Pemuco","code":"16105","gse":"D","quintil":"Q1","nse_score":619.9,"educ":10.4,"educ_score":493.3,"hacin":1.2,"hacin_class":"Hacinamiento Leve","hacin_score":808.5,"auto_score":66.7,"n_per":30,"n_hog":14,"source_year":2024,"crime_score":0.232,"crime_nivel":"Medio","crime_color":"#ff9800"},"geometry":{"type":"Polygon","coordinates":[[[-72.0991880139999,-36.979971208093],[-72.1006050249999,-36.979608545093],[-72.1002265229999,-36.978464071093],[-72.0987795969999,-36.978815858093],[-72.0991880139999,-36.979971208093]]]}},{"type":"Feature","properties":{"id":"16105011001062","commune":"Pemuco","code":"16105","gse":"C3","quintil":"Q2","nse_score":667.6,"educ":11.7,"educ_score":580.0,"hacin":1.167,"hacin_class":"Hacinamiento Leve","hacin_score":815.6,"auto_score":68.2,"n_per":56,"n_hog":21,"source_year":2024,"crime_score":0.229,"crime_nivel":"Medio","crime_color":"#ff9800"},"geometry":{"type":"Polygon","coordinates":[[[-72.0924531459999,-36.980309374093],[-72.09402388,-36.979918456093],[-72.0936222789999,-36.978719211093],[-72.0921297959999,-36.979096749093],[-72.0924531459999,-36.980309374093]]]}},{"type":"Feature","properties":{"id":"16105011001063","commune":"Pemuco","code":"16105","gse":"E","quintil":"Q1","nse_score":575.4,"educ":8.9,"educ_score":393.3,"hacin":0.842,"hacin_class":"Sin Hacinamiento","hacin_score":884.7,"auto_score":210.5,"n_per":32,"n_hog":15,"source_year":2024,"crime_score":0.2377,"crime_nivel":"Medio","crime_color":"#ff9800"},"geometry":{"type":"Polygon","coordinates":[[[-72.0976620619999,-36.980344030093],[-72.0990755309999,-36.979971312093],[-72.0986851669999,-36.978841539093],[-72.097261252,-36.979197245093],[-72.0976620619999,-36.980344030093]]]}},{"type":"Feature","properties":{"id":"16105011001065","commune":"Pemuco","code":"16105","gse":"E","quintil":"Q1","nse_score":571.7,"educ":9.0,"educ_score":400.0,"hacin":1.023,"hacin_class":"Hacinamiento Leve","hacin_score":846.1,"auto_score":78.9,"n_per":44,"n_hog":19,"source_year":2024,"crime_score":0.2396,"crime_nivel":"Medio","crime_color":"#ff9800"},"geometry":{"type":"Polygon","coordinates":[[[-72.0971642779999,-36.979221294093],[-72.0957098579999,-36.979586309093],[-72.0960984309999,-36.980739158093],[-72.0975526099999,-36.980381016093],[-72.0971642779999,-36.979221294093]]]}},{"type":"Feature","properties":{"id":"16105011001068","commune":"Pemuco","code":"16105","gse":"E","quintil":"Q1","nse_score":607.7,"educ":9.1,"educ_score":406.7,"hacin":1.292,"hacin_class":"Hacinamiento Leve","hacin_score":789.0,"auto_score":375.0,"n_per":31,"n_hog":12,"source_year":2024,"crime_score":0.2336,"crime_nivel":"Medio","crime_color":"#ff9800"},"geometry":{"type":"Polygon","coordinates":[[[-72.0885213249999,-36.979954325093],[-72.0892614049999,-36.979770972093],[-72.0891783999999,-36.979378555093],[-72.0883970469999,-36.979503309093],[-72.0885213249999,-36.979954325093]]]}},{"type":"Feature","properties":{"id":"16105011001069","commune":"Pemuco","code":"16105","gse":"E","quintil":"Q1","nse_score":598.5,"educ":10.2,"educ_score":480.0,"hacin":1.765,"hacin_class":"Hacinamiento Medio","hacin_score":688.4,"auto_score":136.4,"n_per":30,"n_hog":10,"source_year":2024,"crime_score":0.2346,"crime_nivel":"Medio","crime_color":"#ff9800"},"geometry":{"type":"Polygon","coordinates":[[[-72.0898056249999,-36.980259741093],[-72.0906187799999,-36.980043038093],[-72.0904923749999,-36.979489853093],[-72.0897026419999,-36.979709648093],[-72.0898056249999,-36.980259741093]]]}},{"type":"Feature","properties":{"id":"16105011001070","commune":"Pemuco","code":"16105","gse":"D","quintil":"Q2","nse_score":644.0,"educ":9.8,"educ_score":453.3,"hacin":1.276,"hacin_class":"Hacinamiento Leve","hacin_score":792.4,"auto_score":156.2,"n_per":37,"n_hog":16,"source_year":2024,"crime_score":0.2298,"crime_nivel":"Medio","crime_color":"#ff9800"},"geometry":{"type":"Polygon","coordinates":[[[-72.0945467799999,-36.981128905093],[-72.0959871219999,-36.980773589093],[-72.0955971949999,-36.979613460093],[-72.0941566499999,-36.979974648093],[-72.0945467799999,-36.981128905093]]]}},{"type":"Feature","properties":{"id":"16105011001071","commune":"Pemuco","code":"16105","gse":"E","quintil":"Q1","nse_score":594.8,"educ":9.8,"educ_score":453.3,"hacin":1.407,"hacin_class":"Hacinamiento Leve","hacin_score":764.6,"auto_score":136.4,"n_per":128,"n_hog":44,"source_year":2024,"crime_score":0.2464,"crime_nivel":"Medio","crime_color":"#ff9800"},"geometry":{"type":"Polygon","coordinates":[[[-72.0985256449999,-36.9827878270929],[-72.1000705419999,-36.982460139093],[-72.1008649659999,-36.982007356093],[-72.1015303819999,-36.981447657093],[-72.1010974339999,-36.980880173093],[-72.1006595519999,-36.979682946093],[-72.0991989069999,-36.980071468093],[-72.0994440109999,-36.980796668093],[-72.0999979129999,-36.980679296093],[-72.0994533229999,-36.980823410093],[-72.0996463199999,-36.981343505093],[-72.1004166139999,-36.981456795093],[-72.1006974299999,-36.981622746093],[-72.1006634969999,-36.981809176093],[-72.1004415909999,-36.981941295093],[-72.0999318979999,-36.982036550093],[-72.0998268219999,-36.981811922093],[-72.1002971319999,-36.981937764093],[-72.1005994599999,-36.981809267093],[-72.1006576539999,-36.981636688093],[-72.1003580139999,-36.981476905093],[-72.0995715749999,-36.981407964093],[-72.0991100449999,-36.980072609093],[-72.0976894139999,-36.980440548093],[-72.0985256449999,-36.9827878270929]]]}},{"type":"Feature","properties":{"id":"16105011001072","commune":"Pemuco","code":"16105","gse":"E","quintil":"Q1","nse_score":598.6,"educ":9.4,"educ_score":426.7,"hacin":1.625,"hacin_class":"Hacinamiento Medio","hacin_score":718.1,"auto_score":125.0,"n_per":39,"n_hog":16,"source_year":2024,"crime_score":0.2356,"crime_nivel":"Medio","crime_color":"#ff9800"},"geometry":{"type":"Polygon","coordinates":[[[-72.0886598209999,-36.980576705093],[-72.0897173119999,-36.980299975093],[-72.0896101949999,-36.979744956093],[-72.08852952,-36.980036250093],[-72.0886598209999,-36.980576705093]]]}},{"type":"Feature","properties":{"id":"16105011001073","commune":"Pemuco","code":"16105","gse":"D","quintil":"Q1","nse_score":628.3,"educ":9.2,"educ_score":413.3,"hacin":1.429,"hacin_class":"Hacinamiento Leve","hacin_score":759.9,"auto_score":25.0,"n_per":60,"n_hog":20,"source_year":2024,"crime_score":0.2343,"crime_nivel":"Medio","crime_color":"#ff9800"},"geometry":{"type":"Polygon","coordinates":[[[-72.0939675449999,-36.981282950093],[-72.0944405799999,-36.981145127093],[-72.0940297689999,-36.980005207093],[-72.0935676499999,-36.980154335093],[-72.0939675449999,-36.981282950093]]]}},{"type":"Feature","properties":{"id":"16105011001074","commune":"Pemuco","code":"16105","gse":"E","quintil":"Q1","nse_score":595.5,"educ":10.5,"educ_score":500.0,"hacin":1.35,"hacin_class":"Hacinamiento Leve","hacin_score":776.6,"auto_score":125.0,"n_per":27,"n_hog":8,"source_year":2024,"crime_score":0.2346,"crime_nivel":"Medio","crime_color":"#ff9800"},"geometry":{"type":"Polygon","coordinates":[[[-72.1018934459999,-36.981006899093],[-72.1014368199999,-36.980202666093],[-72.1009786319999,-36.980330081093],[-72.1012141979999,-36.980931885093],[-72.1016009239999,-36.981410721093],[-72.1020979969999,-36.981148317093],[-72.1020672439999,-36.980776454093],[-72.1022308779999,-36.980507662093],[-72.1018648069999,-36.980152774093],[-72.1014629149999,-36.980196197093],[-72.1018934459999,-36.981006899093]]]}},{"type":"Feature","properties":{"id":"16105011001075","commune":"Pemuco","code":"16105","gse":"C3","quintil":"Q2","nse_score":661.7,"educ":10.7,"educ_score":513.3,"hacin":1.547,"hacin_class":"Hacinamiento Medio","hacin_score":734.6,"auto_score":360.0,"n_per":82,"n_hog":25,"source_year":2024,"crime_score":0.2326,"crime_nivel":"Medio","crime_color":"#ff9800"},"geometry":{"type":"Polygon","coordinates":[[[-72.093406651,-36.981417442093],[-72.0938610439999,-36.981268576093],[-72.0934536009999,-36.980145658093],[-72.0930078249999,-36.980299439093],[-72.093406651,-36.981417442093]]]}},{"type":"Feature","properties":{"id":"16105011001076","commune":"Pemuco","code":"16105","gse":"D","quintil":"Q1","nse_score":625.9,"educ":8.5,"educ_score":366.7,"hacin":0.974,"hacin_class":"Sin Hacinamiento","hacin_score":856.7,"auto_score":111.1,"n_per":37,"n_hog":18,"source_year":2024,"crime_score":0.232,"crime_nivel":"Medio","crime_color":"#ff9800"},"geometry":{"type":"Polygon","coordinates":[[[-72.0927733069999,-36.981528978093],[-72.0933014349999,-36.981407804093],[-72.0928971089999,-36.980280256093],[-72.0924608829999,-36.980414269093],[-72.0927733069999,-36.981528978093]]]}},{"type":"Feature","properties":{"id":"16105011001077","commune":"Pemuco","code":"16105","gse":"D","quintil":"Q1","nse_score":617.1,"educ":11.8,"educ_score":586.7,"hacin":1.75,"hacin_class":"Hacinamiento Medio","hacin_score":691.5,"auto_score":62.5,"n_per":21,"n_hog":7,"source_year":2024,"crime_score":0.2313,"crime_nivel":"Medio","crime_color":"#ff9800"},"geometry":{"type":"Polygon","coordinates":[[[-72.0918995149999,-36.980560857093],[-72.0920089769999,-36.980966885093],[-72.0924984019999,-36.980863267093],[-72.0923756249999,-36.980404887093],[-72.0918995149999,-36.980560857093]]]}},{"type":"Feature","properties":{"id":"16105011001078","commune":"Pemuco","code":"16105","gse":"D","quintil":"Q1","nse_score":630.3,"educ":9.7,"educ_score":446.7,"hacin":1.435,"hacin_class":"Hacinamiento Leve","hacin_score":758.4,"auto_score":206.9,"n_per":89,"n_hog":31,"source_year":2024,"crime_score":0.2374,"crime_nivel":"Medio","crime_color":"#ff9800"},"geometry":{"type":"Polygon","coordinates":[[[-72.0903764189999,-36.983823813093],[-72.093362054,-36.9839720880929],[-72.094251573,-36.9842886200929],[-72.0981036849999,-36.983542760093],[-72.0984801339999,-36.9827797060929],[-72.0975545829999,-36.980455478093],[-72.0962301269999,-36.980792608093],[-72.0963732989999,-36.981644577093],[-72.0961721549999,-36.980805178093],[-72.0946545229999,-36.981195892093],[-72.0949824329999,-36.981978108093],[-72.0949889239999,-36.982147651093],[-72.0939927109999,-36.983902681093],[-72.0940271809999,-36.983611241093],[-72.0949441459999,-36.982142750093],[-72.0946119279999,-36.981207995093],[-72.0927617269999,-36.981614116093],[-72.0916379079999,-36.982902088093],[-72.0919702679999,-36.983024790093],[-72.0932875979999,-36.9830826770929],[-72.0919670209999,-36.983054717093],[-72.0916144459999,-36.982925405093],[-72.0910574739999,-36.983477110093],[-72.0903764189999,-36.983823813093]]]}},{"type":"Feature","properties":{"id":"16105011001001","commune":"Pemuco","code":"16105","gse":"D","quintil":"Q2","nse_score":650.1,"educ":11.5,"educ_score":566.7,"hacin":1.5,"hacin_class":"Hacinamiento Medio","hacin_score":744.7,"auto_score":416.7,"n_per":18,"n_hog":5,"source_year":2024,"crime_score":0.2269,"crime_nivel":"Medio","crime_color":"#ff9800"},"geometry":{"type":"MultiPolygon","coordinates":[[[[-72.0971255339999,-36.9692232910931],[-72.0972532249999,-36.9692066820931],[-72.0972379139999,-36.9690163800931],[-72.0969550849999,-36.9690168590931],[-72.0971255339999,-36.9692232910931]]],[[[-72.0953406519999,-36.9685794890931],[-72.0957415319999,-36.9706527950931],[-72.0976287479999,-36.9705205080931],[-72.0986449409999,-36.9703186080931],[-72.0984198419999,-36.9693720310931],[-72.0969090289999,-36.9693466690931],[-72.0972338059999,-36.9692783870931],[-72.0969809089999,-36.9691943130931],[-72.0969069189999,-36.9690218150931],[-72.0972779819999,-36.9688767790931],[-72.0973222279999,-36.9692341500931],[-72.0984107199999,-36.9693403220931],[-72.0982787689999,-36.9681620520931],[-72.0953406519999,-36.9685794890931]]],[[[-72.0984379859999,-36.9679448710931],[-72.0983535039999,-36.9685519400931],[-72.0985287069999,-36.9693753520931],[-72.1005244009999,-36.9687722230931],[-72.1003195469999,-36.9682385820931],[-72.101053137,-36.9680095930931],[-72.1004206389999,-36.9682957380931],[-72.1006337059999,-36.9687218650931],[-72.1017659249999,-36.9683257590931],[-72.1008640119999,-36.9663681270931],[-72.0990901719999,-36.9666544820931],[-72.0984379859999,-36.9679448710931]]]]}},{"type":"Feature","properties":{"id":"16105011001029","commune":"Pemuco","code":"16105","gse":"C3","quintil":"Q3","nse_score":684.5,"educ":12.4,"educ_score":626.7,"hacin":0.889,"hacin_class":"Sin Hacinamiento","hacin_score":874.7,"auto_score":142.9,"n_per":40,"n_hog":14,"source_year":2024,"crime_score":0.2251,"crime_nivel":"Medio","crime_color":"#ff9800"},"geometry":{"type":"MultiPolygon","coordinates":[[[[-72.0999097039999,-36.977151881093],[-72.1013081529999,-36.976821185093],[-72.1009194059999,-36.975637258093],[-72.0994949969999,-36.975977042093],[-72.0999097039999,-36.977151881093]]],[[[-72.0994802459999,-36.975889846093],[-72.100875115,-36.9755413980931],[-72.1005089739999,-36.974412484093],[-72.0990552009999,-36.974747085093],[-72.0994802459999,-36.975889846093]]]]}},{"type":"Feature","properties":{"id":"16105061001001","commune":"Pemuco","code":"16105","gse":"E","quintil":"Q1","nse_score":597.5,"educ":9.6,"educ_score":440.0,"hacin":1.529,"hacin_class":"Hacinamiento Medio","hacin_score":738.4,"auto_score":200.0,"n_per":26,"n_hog":10,"source_year":2024,"crime_score":0.2343,"crime_nivel":"Medio","crime_color":"#ff9800"},"geometry":{"type":"Polygon","coordinates":[[[-72.1033943709999,-36.982599405093],[-72.1042658189999,-36.982536249093],[-72.1049741719999,-36.982212462093],[-72.1041098719999,-36.981785083093],[-72.1035358959999,-36.981066345093],[-72.102633292,-36.980797689093],[-72.1022741729999,-36.980544242093],[-72.1021294039999,-36.980784220093],[-72.1021557289999,-36.981173472093],[-72.1016368049999,-36.981452166093],[-72.1024410649999,-36.982265976093],[-72.1033943709999,-36.982599405093]]]}},{"type":"Feature","properties":{"id":"16105091001001","commune":"Pemuco","code":"16105","gse":"E","quintil":"Q1","nse_score":575.9,"educ":9.3,"educ_score":420.0,"hacin":1.377,"hacin_class":"Hacinamiento Leve","hacin_score":770.8,"auto_score":116.7,"n_per":84,"n_hog":29,"source_year":2024,"crime_score":0.2437,"crime_nivel":"Medio","crime_color":"#ff9800"},"geometry":{"type":"Polygon","coordinates":[[[-72.1047989839999,-36.977373436093],[-72.1034371369999,-36.978380759093],[-72.1035443849999,-36.978886997093],[-72.1027068129999,-36.979217852093],[-72.102786825,-36.979749340093],[-72.1024775679999,-36.979986920093],[-72.1024846839999,-36.980356245093],[-72.1023365909999,-36.980543877093],[-72.1026794039999,-36.980742314093],[-72.1056829409999,-36.979408096093],[-72.1054242289999,-36.978370716093],[-72.1041471289999,-36.978716020093],[-72.1047496529999,-36.978523505093],[-72.1046199289999,-36.978051355093],[-72.1047782319999,-36.978514374093],[-72.1054013279999,-36.978305715093],[-72.1050523589999,-36.976832889093],[-72.1047989839999,-36.977373436093]]]}},{"type":"Feature","properties":{"id":"16105091001002","commune":"Pemuco","code":"16105","gse":"D","quintil":"Q1","nse_score":612.9,"educ":9.7,"educ_score":446.7,"hacin":0.939,"hacin_class":"Sin Hacinamiento","hacin_score":864.1,"auto_score":100.0,"n_per":46,"n_hog":18,"source_year":2024,"crime_score":0.2347,"crime_nivel":"Medio","crime_color":"#ff9800"},"geometry":{"type":"Polygon","coordinates":[[[-72.1027271679999,-36.980777030093],[-72.1035602329999,-36.981033880093],[-72.1040915049999,-36.981707855093],[-72.1045066719999,-36.981955506093],[-72.1056211239999,-36.981968555093],[-72.1062828959999,-36.9818260200929],[-72.1060021519999,-36.980617496093],[-72.1053033049999,-36.980822281093],[-72.1059949709999,-36.980588298093],[-72.1057041549999,-36.979479184093],[-72.1027271679999,-36.980777030093]]]}},{"type":"Feature","properties":{"id":"16105083025001","commune":"Pemuco","code":"16105","gse":"E","quintil":"Q1","nse_score":589.0,"educ":9.4,"educ_score":426.7,"hacin":1.356,"hacin_class":"Hacinamiento Leve","hacin_score":775.3,"auto_score":157.1,"n_per":99,"n_hog":35,"source_year":2024,"crime_score":0.2438,"crime_nivel":"Medio","crime_color":"#ff9800"},"geometry":{"type":"Polygon","coordinates":[[[-72.350682865,-36.9298727660935],[-72.3499248589999,-36.9325704860934],[-72.3506116399999,-36.9299819300934],[-72.3504310079999,-36.9299454840934],[-72.3496106569999,-36.9330179490934],[-72.3516620269999,-36.9333907030934],[-72.3510998629999,-36.9331891400934],[-72.3510309529999,-36.9329853920934],[-72.3513997409999,-36.9312638250934],[-72.35226008,-36.9330432510934],[-72.35234571,-36.9341766420934],[-72.3529276939999,-36.9341459870934],[-72.3528173059999,-36.9328303840934],[-72.351723665,-36.9306873720935],[-72.3513418039999,-36.9296630320935],[-72.3510486469999,-36.9296380990934],[-72.350682865,-36.9298727660935]]]}},{"type":"Feature","properties":{"id":"16105083025003","commune":"Pemuco","code":"16105","gse":"E","quintil":"Q1","nse_score":526.6,"educ":7.7,"educ_score":313.3,"hacin":1.533,"hacin_class":"Hacinamiento Medio","hacin_score":737.6,"auto_score":50.0,"n_per":23,"n_hog":9,"source_year":2024,"crime_score":0.2426,"crime_nivel":"Medio","crime_color":"#ff9800"},"geometry":{"type":"Polygon","coordinates":[[[-72.3511249439999,-36.9331542020934],[-72.3516848329999,-36.9332922970934],[-72.3518715999999,-36.9323176780934],[-72.3512724439999,-36.9322027500934],[-72.3510713789999,-36.9329818200934],[-72.3511249439999,-36.9331542020934]]]}},{"type":"Feature","properties":{"id":"16105083025005","commune":"Pemuco","code":"16105","gse":"E","quintil":"Q1","nse_score":602.2,"educ":10.1,"educ_score":473.3,"hacin":1.425,"hacin_class":"Hacinamiento Leve","hacin_score":760.7,"auto_score":179.5,"n_per":104,"n_hog":37,"source_year":2024,"crime_score":0.2427,"crime_nivel":"Medio","crime_color":"#ff9800"},"geometry":{"type":"Polygon","coordinates":[[[-72.3474406729999,-36.9342071480934],[-72.3484133119999,-36.9386180790934],[-72.3497680259999,-36.9445088780933],[-72.3508214059999,-36.9440906570933],[-72.3517052119999,-36.9434119660933],[-72.3520750549999,-36.9426406960934],[-72.3521206499999,-36.9417495420934],[-72.3518666289999,-36.9405137610933],[-72.3522025799999,-36.9390388110934],[-72.3523703079999,-36.9388352810934],[-72.3530011459999,-36.9385738690934],[-72.3538052729999,-36.9375511710934],[-72.3528663109999,-36.9368904210934],[-72.3520106119999,-36.9377194720933],[-72.3512593059999,-36.9381666690934],[-72.3512144739999,-36.9386347920934],[-72.3501635509999,-36.9405971640934],[-72.3512325979999,-36.9409941440934],[-72.3507096219999,-36.9408426100934],[-72.3504023849999,-36.9416978140934],[-72.3509871609999,-36.9418596150933],[-72.3503888219999,-36.9417355650933],[-72.3503142559999,-36.9420920540933],[-72.3503622879999,-36.9423322120933],[-72.3506261599999,-36.9425968690933],[-72.3509686459999,-36.9427063170933],[-72.3508996549999,-36.9428895120934],[-72.3502582489999,-36.9432488170933],[-72.3506610269999,-36.9437429410933],[-72.3514487229999,-36.9433250340933],[-72.3509282239999,-36.9436633170933],[-72.3506663129999,-36.9437838370933],[-72.3505322679999,-36.9437496220933],[-72.3495059449999,-36.9419791710934],[-72.3493871209999,-36.9412826640933],[-72.3496431709999,-36.9404465940933],[-72.3492259769999,-36.9402817590934],[-72.3492518389999,-36.9395492980933],[-72.3491284859999,-36.9395330060933],[-72.3491455599999,-36.9387056240934],[-72.3485573129999,-36.9387201730933],[-72.3491813489999,-36.9386707780934],[-72.3491686089999,-36.9395094870934],[-72.349263118,-36.9395092720934],[-72.3497179159999,-36.9385750190934],[-72.3504610599999,-36.9387564130934],[-72.3507166299999,-36.9385082170934],[-72.350073962,-36.9382659770934],[-72.3507457499999,-36.9384807220934],[-72.3510722459999,-36.9381373520934],[-72.3512177929999,-36.9370178860934],[-72.3510858449999,-36.9369899090934],[-72.3508753069999,-36.9377525340933],[-72.3498687389999,-36.9376055570934],[-72.3509074269999,-36.9333031200934],[-72.3490077479999,-36.9330399230934],[-72.3479347439999,-36.9335945090934],[-72.3475686989999,-36.9338880910934],[-72.3474406729999,-36.9342071480934]]]}},{"type":"Feature","properties":{"id":"16105083025014","commune":"Pemuco","code":"16105","gse":"E","quintil":"Q1","nse_score":605.5,"educ":9.9,"educ_score":460.0,"hacin":1.529,"hacin_class":"Hacinamiento Medio","hacin_score":738.4,"auto_score":444.4,"n_per":26,"n_hog":9,"source_year":2024,"crime_score":0.2333,"crime_nivel":"Medio","crime_color":"#ff9800"},"geometry":{"type":"Polygon","coordinates":[[[-72.3502716329999,-36.9360869930934],[-72.3509598529999,-36.9362081790934],[-72.3512295089999,-36.9351223660934],[-72.3505415629999,-36.9350417760934],[-72.3502716329999,-36.9360869930934]]]}},{"type":"Feature","properties":{"id":"16105083025018","commune":"Pemuco","code":"16105","gse":"D","quintil":"Q1","nse_score":628.9,"educ":11.0,"educ_score":533.3,"hacin":1.1,"hacin_class":"Hacinamiento Leve","hacin_score":829.8,"auto_score":0.0,"n_per":11,"n_hog":5,"source_year":2024,"crime_score":0.2287,"crime_nivel":"Medio","crime_color":"#ff9800"},"geometry":{"type":"Polygon","coordinates":[[[-72.3506074589999,-36.9368427040934],[-72.3512285729999,-36.9369744000934],[-72.3513882469999,-36.9363242290934],[-72.3507810419999,-36.9362173080934],[-72.3506074589999,-36.9368427040934]]]}},{"type":"Feature","properties":{"id":"16105083025023","commune":"Pemuco","code":"16105","gse":"E","quintil":"Q1","nse_score":581.5,"educ":10.0,"educ_score":466.7,"hacin":1.5,"hacin_class":"Hacinamiento Medio","hacin_score":744.7,"auto_score":71.4,"n_per":18,"n_hog":6,"source_year":2024,"crime_score":0.2353,"crime_nivel":"Medio","crime_color":"#ff9800"},"geometry":{"type":"Polygon","coordinates":[[[-72.3510348309999,-36.9370214800934],[-72.3505967399999,-36.9368813200934],[-72.3503818589999,-36.9376554890934],[-72.3508530279999,-36.9377090080934],[-72.3510348309999,-36.9370214800934]]]}},{"type":"Feature","properties":{"id":"16105083025026","commune":"Pemuco","code":"16105","gse":"D","quintil":"Q1","nse_score":634.0,"educ":10.4,"educ_score":493.3,"hacin":1.205,"hacin_class":"Hacinamiento Leve","hacin_score":807.4,"auto_score":27.8,"n_per":47,"n_hog":17,"source_year":2024,"crime_score":0.2322,"crime_nivel":"Medio","crime_color":"#ff9800"},"geometry":{"type":"Polygon","coordinates":[[[-72.3495390739999,-36.9403652700933],[-72.3500869009999,-36.9405687000933],[-72.3511411599999,-36.9386025890933],[-72.3511521389999,-36.9381616780934],[-72.3505691539999,-36.9386544300934],[-72.3495390739999,-36.9403652700933]]]}},{"type":"Feature","properties":{"id":"16105083025027","commune":"Pemuco","code":"16105","gse":"E","quintil":"Q1","nse_score":580.0,"educ":10.7,"educ_score":513.3,"hacin":1.167,"hacin_class":"Hacinamiento Leve","hacin_score":815.6,"auto_score":100.0,"n_per":14,"n_hog":7,"source_year":2024,"crime_score":0.235,"crime_nivel":"Medio","crime_color":"#ff9800"},"geometry":{"type":"Polygon","coordinates":[[[-72.3497392469999,-36.9386139800934],[-72.3493055699999,-36.9395091760934],[-72.3496969789999,-36.9394758320933],[-72.3499596809999,-36.9395891440934],[-72.3504403289999,-36.9387908450934],[-72.3497392469999,-36.9386139800934]]]}},{"type":"Feature","properties":{"id":"16105083025028","commune":"Pemuco","code":"16105","gse":"E","quintil":"Q1","nse_score":587.9,"educ":9.3,"educ_score":420.0,"hacin":1.556,"hacin_class":"Hacinamiento Medio","hacin_score":732.9,"auto_score":222.2,"n_per":28,"n_hog":9,"source_year":2024,"crime_score":0.2357,"crime_nivel":"Medio","crime_color":"#ff9800"},"geometry":{"type":"Polygon","coordinates":[[[-72.349262817,-36.9402626840934],[-72.3495009149999,-36.9403511000934],[-72.3499388649999,-36.9396237160933],[-72.3492923859999,-36.9395512950934],[-72.349262817,-36.9402626840934]]]}},{"type":"Feature","properties":{"id":"16105083025017","commune":"Pemuco","code":"16105","gse":"E","quintil":"Q1","nse_score":563.7,"educ":9.3,"educ_score":420.0,"hacin":1.308,"hacin_class":"Hacinamiento Leve","hacin_score":785.6,"auto_score":100.0,"n_per":17,"n_hog":8,"source_year":2024,"crime_score":0.2374,"crime_nivel":"Medio","crime_color":"#ff9800"},"geometry":{"type":"MultiPolygon","coordinates":[[[[-72.3499170029999,-36.9375713700934],[-72.3503410579999,-36.9376529280934],[-72.350557535,-36.9368730070934],[-72.3501061539999,-36.9367787360934],[-72.3499170029999,-36.9375713700934]]],[[[-72.3501350029999,-36.9367425280934],[-72.3505682539999,-36.9368343910934],[-72.350741464,-36.9362103390934],[-72.3502619409999,-36.9361259010934],[-72.3501350029999,-36.9367425280934]]]]}},{"type":"Feature","properties":{"id":"16105083025021","commune":"Pemuco","code":"16105","gse":"D","quintil":"Q1","nse_score":618.6,"educ":9.6,"educ_score":440.0,"hacin":1.2,"hacin_class":"Hacinamiento Leve","hacin_score":808.5,"auto_score":62.5,"n_per":24,"n_hog":8,"source_year":2024,"crime_score":0.2314,"crime_nivel":"Medio","crime_color":"#ff9800"},"geometry":{"type":"MultiPolygon","coordinates":[[[[-72.3514989379999,-36.9377800470934],[-72.351775443,-36.9373326730934],[-72.351271547,-36.9371335370934],[-72.3511399779999,-36.9376656240934],[-72.3514989379999,-36.9377800470934]]],[[[-72.3512867649999,-36.9370991640934],[-72.3517905949999,-36.9372923350934],[-72.3520435049999,-36.9369005020934],[-72.3515706139999,-36.9367004800934],[-72.3512867649999,-36.9370991640934]]]]}},{"type":"Feature","properties":{"id":"16105083025029","commune":"Pemuco","code":"16105","gse":"E","quintil":"Q1","nse_score":589.2,"educ":8.6,"educ_score":373.3,"hacin":1.242,"hacin_class":"Hacinamiento Leve","hacin_score":799.5,"auto_score":83.3,"n_per":41,"n_hog":12,"source_year":2024,"crime_score":0.237,"crime_nivel":"Medio","crime_color":"#ff9800"},"geometry":{"type":"MultiPolygon","coordinates":[[[[-72.3497526209999,-36.9424698760934],[-72.3502375129999,-36.9432168740933],[-72.3508594179999,-36.9428687650934],[-72.3503250669999,-36.9423488960934],[-72.3503530699999,-36.9417167730933],[-72.3494513089999,-36.9413772430933],[-72.3497526209999,-36.9424698760934]]],[[[-72.3494466469999,-36.9413339360933],[-72.3503678939999,-36.9416755120934],[-72.3506721209999,-36.9408286850933],[-72.3496806729999,-36.9404605200934],[-72.3494466469999,-36.9413339360933]]]]}},{"type":"Feature","properties":{"id":"16105083025007","commune":"Pemuco","code":"16105","gse":"E","quintil":"Q1","nse_score":582.1,"educ":9.4,"educ_score":426.7,"hacin":1.394,"hacin_class":"Hacinamiento Leve","hacin_score":767.2,"auto_score":31.2,"n_per":46,"n_hog":14,"source_year":2024,"crime_score":0.2385,"crime_nivel":"Medio","crime_color":"#ff9800"},"geometry":{"type":"MultiPolygon","coordinates":[[[[-72.3514077749999,-36.9345782750934],[-72.3519561999999,-36.9346574380934],[-72.3520287959999,-36.9338494550934],[-72.3516784369999,-36.9334970720934],[-72.3514077749999,-36.9345782750934]]],[[[-72.3509470359999,-36.9333045130934],[-72.3505511219999,-36.9350026220934],[-72.351239329,-36.9350832430934],[-72.3516427859999,-36.9334737290934],[-72.3509470359999,-36.9333045130934]]]]}},{"type":"Feature","properties":{"id":"16105083025010","commune":"Pemuco","code":"16105","gse":"E","quintil":"Q1","nse_score":523.4,"educ":8.3,"educ_score":353.3,"hacin":1.56,"hacin_class":"Hacinamiento Medio","hacin_score":731.9,"auto_score":125.0,"n_per":39,"n_hog":15,"source_year":2024,"crime_score":0.245,"crime_nivel":"Medio","crime_color":"#ff9800"},"geometry":{"type":"MultiPolygon","coordinates":[[[[-72.3517353979999,-36.9363491250934],[-72.3522772869999,-36.9365239340934],[-72.3528770559999,-36.9350229150934],[-72.3529295809999,-36.9341859430934],[-72.3523445419999,-36.9342167590934],[-72.3521896889999,-36.9351292950934],[-72.3517353979999,-36.9363491250934]]],[[[-72.3529624149999,-36.9348889960934],[-72.3540261719999,-36.9355546630934],[-72.3546029589999,-36.9349694300934],[-72.3529809169999,-36.9339101310934],[-72.3529624149999,-36.9348889960934]]]]}},{"type":"Feature","properties":{"id":"16105083025016","commune":"Pemuco","code":"16105","gse":"D","quintil":"Q1","nse_score":612.8,"educ":10.5,"educ_score":500.0,"hacin":1.667,"hacin_class":"Hacinamiento Medio","hacin_score":709.2,"auto_score":0.0,"n_per":25,"n_hog":8,"source_year":2024,"crime_score":0.2323,"crime_nivel":"Medio","crime_color":"#ff9800"},"geometry":{"type":"MultiPolygon","coordinates":[[[[-72.3515876569999,-36.9366642570934],[-72.3520648449999,-36.9368660970934],[-72.3522400799999,-36.9365835810934],[-72.3517187699999,-36.9363855960934],[-72.3515876569999,-36.9366642570934]]],[[[-72.3516079519999,-36.9378147960934],[-72.3519623579999,-36.9376545260934],[-72.353816203,-36.9357542590934],[-72.3525303439999,-36.9361348540934],[-72.3516079519999,-36.9378147960934]]]]}},{"type":"Feature","properties":{"id":"16105083058001","commune":"Pemuco","code":"16105","gse":"D","quintil":"Q1","nse_score":614.1,"educ":10.1,"educ_score":473.3,"hacin":1.373,"hacin_class":"Hacinamiento Leve","hacin_score":771.6,"auto_score":135.1,"n_per":217,"n_hog":72,"source_year":2024,"crime_score":0.2541,"crime_nivel":"Medio","crime_color":"#ff9800"},"geometry":{"type":"Polygon","coordinates":[[[-72.3308144359999,-36.869134878094],[-72.3332774609999,-36.868339600094],[-72.3340676629999,-36.870025304094],[-72.3344669799999,-36.869880904094],[-72.3341164149999,-36.870046772094],[-72.3349870509999,-36.870298068094],[-72.3340456919999,-36.870065374094],[-72.333946738,-36.869890816094],[-72.3333204549999,-36.870131808094],[-72.3336310439999,-36.870669733094],[-72.3332798079999,-36.870147050094],[-72.3318249259999,-36.870779521094],[-72.3321964749999,-36.871382232094],[-72.3329167499999,-36.871047595094],[-72.3321957379999,-36.871424690094],[-72.331784206,-36.870794623094],[-72.3295241309999,-36.871560457094],[-72.3300753769999,-36.872614833094],[-72.3363169519999,-36.870457719094],[-72.3343493159999,-36.8665917480941],[-72.3335555469999,-36.8669430190941],[-72.3323723499999,-36.867173965094],[-72.3318826489999,-36.867431210094],[-72.330684232,-36.867715445094],[-72.329111726,-36.8677703910941],[-72.327572271,-36.867664230094],[-72.3258072319999,-36.867219155094],[-72.3254183249999,-36.867258326094],[-72.3262291279999,-36.869114534094],[-72.3263406629999,-36.869074692094],[-72.325898692,-36.868042352094],[-72.3257164779999,-36.867445933094],[-72.3263800129999,-36.869064968094],[-72.3279518089999,-36.868708191094],[-72.3286947199999,-36.868966271094],[-72.3288228259999,-36.869492894094],[-72.3294709929999,-36.869623387094],[-72.330261962,-36.869582139094],[-72.3306495759999,-36.869334517094],[-72.3307878949999,-36.869176057094],[-72.330472944,-36.868626271094],[-72.3305348369999,-36.868448161094],[-72.3325068299999,-36.867784776094],[-72.3335651989999,-36.867510226094],[-72.3305632269999,-36.868480399094],[-72.3306270179999,-36.868810778094],[-72.3316376169999,-36.868433524094],[-72.3332221189999,-36.867958746094],[-72.3306443779999,-36.868844038094],[-72.3308144359999,-36.869134878094]]]}},{"type":"Feature","properties":{"id":"16105083058003","commune":"Pemuco","code":"16105","gse":"E","quintil":"Q1","nse_score":604.6,"educ":10.0,"educ_score":466.7,"hacin":1.368,"hacin_class":"Hacinamiento Leve","hacin_score":772.8,"auto_score":104.7,"n_per":119,"n_hog":41,"source_year":2024,"crime_score":0.2441,"crime_nivel":"Medio","crime_color":"#ff9800"},"geometry":{"type":"Polygon","coordinates":[[[-72.329953772,-36.869649772094],[-72.3300531899999,-36.870031935094],[-72.3305532919999,-36.869927507094],[-72.3300353199999,-36.870062081094],[-72.3299198379999,-36.869651371094],[-72.3288239049999,-36.869533914094],[-72.3287388789999,-36.870034618094],[-72.329225672,-36.871617553094],[-72.3320624569999,-36.870648769094],[-72.3339303789999,-36.869854311094],[-72.3332597089999,-36.868382677094],[-72.3308959099999,-36.869174102094],[-72.3305415279999,-36.869499725094],[-72.329953772,-36.869649772094]]]}},{"type":"Feature","properties":{"id":"16105083058004","commune":"Pemuco","code":"16105","gse":"E","quintil":"Q1","nse_score":591.4,"educ":9.2,"educ_score":413.3,"hacin":1.234,"hacin_class":"Hacinamiento Leve","hacin_score":801.3,"auto_score":71.4,"n_per":58,"n_hog":20,"source_year":2024,"crime_score":0.2387,"crime_nivel":"Medio","crime_color":"#ff9800"},"geometry":{"type":"Polygon","coordinates":[[[-72.3272992809999,-36.871541862094],[-72.3289948389999,-36.871084315094],[-72.3286986399999,-36.870039116094],[-72.3287860559999,-36.869511256094],[-72.3286649209999,-36.868996894094],[-72.3279471899999,-36.868748653094],[-72.3262451719999,-36.869151269094],[-72.3272992809999,-36.871541862094]]]}},{"type":"Feature","properties":{"id":"16105083058006","commune":"Pemuco","code":"16105","gse":"E","quintil":"Q1","nse_score":592.3,"educ":9.2,"educ_score":413.3,"hacin":1.27,"hacin_class":"Hacinamiento Leve","hacin_score":793.6,"auto_score":138.9,"n_per":94,"n_hog":35,"source_year":2024,"crime_score":0.2428,"crime_nivel":"Medio","crime_color":"#ff9800"},"geometry":{"type":"Polygon","coordinates":[[[-72.3275693589999,-36.871647569094],[-72.3283714639999,-36.873529505094],[-72.3293868999999,-36.8732896800939],[-72.3283826749999,-36.873554996094],[-72.3287641509999,-36.874423104094],[-72.3296724849999,-36.874230352094],[-72.3287753489999,-36.874448636094],[-72.3291169499999,-36.8752293710939],[-72.3300130649999,-36.8749115120939],[-72.3291281549999,-36.875254973094],[-72.3303448579999,-36.8780322650939],[-72.3316946449999,-36.877608623094],[-72.3295768509999,-36.872787135094],[-72.3300753769999,-36.872614833094],[-72.329482159,-36.871574725094],[-72.3292004379999,-36.871658067094],[-72.3289974169999,-36.871125894094],[-72.3275693589999,-36.871647569094]]]}},{"type":"Feature","properties":{"id":"16105083058010","commune":"Pemuco","code":"16105","gse":"E","quintil":"Q1","nse_score":602.1,"educ":10.4,"educ_score":493.3,"hacin":1.4,"hacin_class":"Hacinamiento Leve","hacin_score":766.0,"auto_score":250.0,"n_per":21,"n_hog":8,"source_year":2024,"crime_score":0.2331,"crime_nivel":"Medio","crime_color":"#ff9800"},"geometry":{"type":"Polygon","coordinates":[[[-72.3303597079999,-36.8780662900939],[-72.3308122169999,-36.8791159670939],[-72.3311333479999,-36.8790671640939],[-72.3313236849999,-36.8793190320939],[-72.3321148169999,-36.8791382460939],[-72.331326998,-36.8793463280939],[-72.331117247,-36.8790910200939],[-72.3308238999999,-36.8791431100939],[-72.3312880359999,-36.8802213900939],[-72.3326809789999,-36.8797758050939],[-72.331709815,-36.8776425480939],[-72.3303597079999,-36.8780662900939]]]}},{"type":"Feature","properties":{"id":"16105083058005","commune":"Pemuco","code":"16105","gse":"E","quintil":"Q1","nse_score":600.5,"educ":9.8,"educ_score":453.3,"hacin":1.31,"hacin_class":"Hacinamiento Leve","hacin_score":785.1,"auto_score":61.2,"n_per":131,"n_hog":49,"source_year":2024,"crime_score":0.246,"crime_nivel":"Medio","crime_color":"#ff9800"},"geometry":{"type":"MultiPolygon","coordinates":[[[[-72.324815284,-36.873612225094],[-72.3245169409999,-36.874713451094],[-72.324043947,-36.875320219094],[-72.3269546089999,-36.8755830410939],[-72.328132562,-36.8752232180939],[-72.3287233689999,-36.875204531094],[-72.3281514339999,-36.873891060094],[-72.3277968419999,-36.873815032094],[-72.327624667,-36.8738205050939],[-72.3275527909999,-36.873951991094],[-72.3268560839999,-36.8742386950939],[-72.3267495619999,-36.8742330140939],[-72.326699517,-36.8746468390939],[-72.3267096069999,-36.874230234094],[-72.3258924809999,-36.8741733830939],[-72.3257771039999,-36.874866978094],[-72.3258524089999,-36.874170595094],[-72.3250356199999,-36.8741142170939],[-72.3248867139999,-36.8749353350939],[-72.3252448549999,-36.8749411980939],[-72.3244134849999,-36.875069140094],[-72.3248445139999,-36.874943866094],[-72.3249957349999,-36.874109990094],[-72.3248263039999,-36.8740458700939],[-72.3268459619999,-36.8741996240939],[-72.3275528359999,-36.8738888860939],[-72.324815284,-36.873612225094]]],[[[-72.3248169789999,-36.873532317094],[-72.3274175329999,-36.8738178320939],[-72.3279700579999,-36.873474965094],[-72.3265382209999,-36.870294127094],[-72.3263782309999,-36.870353078094],[-72.3257592679999,-36.871758510094],[-72.3248191669999,-36.873305399094],[-72.3248169789999,-36.873532317094]]]]}}]}