{"type":"FeatureCollection","features":[{"type":"Feature","properties":{"id":"6307011001001","commune":"Peralillo","code":"06307","gse":"C3","quintil":"Q2","nse_score":682.1,"educ":10.8,"educ_score":520.0,"hacin":1.504,"hacin_class":"Hacinamiento Medio","hacin_score":743.7,"auto_score":278.8,"n_per":340,"n_hog":106,"source_year":2024},"geometry":{"type":"Polygon","coordinates":[[[-71.4681971269999,-34.4710081471192],[-71.4671516599999,-34.4728613191191],[-71.4673045159999,-34.4737898391191],[-71.4686014659999,-34.4738704651191],[-71.4692995149999,-34.4736388811191],[-71.4709606759999,-34.4743530981191],[-71.4738980999999,-34.4759509271191],[-71.4742407849999,-34.4758388681191],[-71.4745316199999,-34.4763280491191],[-71.4742180799999,-34.4764564731191],[-71.4744796599999,-34.4768271861191],[-71.4753099639999,-34.4765974041191],[-71.4745467259999,-34.4754331921191],[-71.4743718499999,-34.4754843671191],[-71.4745526099999,-34.4753727371191],[-71.4743284939999,-34.4747827911191],[-71.4741416639999,-34.4747014951191],[-71.4747689499999,-34.4749079001191],[-71.4749100269999,-34.4752702301191],[-71.4753094109999,-34.4751605201191],[-71.4751995759999,-34.4748592641191],[-71.4756050089999,-34.4740124511191],[-71.4691897149999,-34.4713943301192],[-71.4686483909999,-34.4723845411191],[-71.4691347419999,-34.4713708561192],[-71.4681971269999,-34.4710081471192]]]}},{"type":"Feature","properties":{"id":"6307011001002","commune":"Peralillo","code":"06307","gse":"C3","quintil":"Q3","nse_score":711.0,"educ":12.0,"educ_score":600.0,"hacin":1.314,"hacin_class":"Hacinamiento Leve","hacin_score":784.3,"auto_score":250.0,"n_per":113,"n_hog":41,"source_year":2024},"geometry":{"type":"Polygon","coordinates":[[[-71.4764379409999,-34.4753314081191],[-71.4768854859999,-34.4760224651191],[-71.4772599529999,-34.4758799501191],[-71.4770561959999,-34.4755413101191],[-71.4773162989999,-34.4758496351191],[-71.4783000759999,-34.4756145351191],[-71.4787612359999,-34.4752769911191],[-71.4756443369999,-34.4740279711191],[-71.4752449839999,-34.4748605951191],[-71.4753623499999,-34.4751417121191],[-71.4764379409999,-34.4753314081191]]]}},{"type":"Feature","properties":{"id":"6307011001003","commune":"Peralillo","code":"06307","gse":"C2","quintil":"Q4","nse_score":728.9,"educ":12.6,"educ_score":640.0,"hacin":1.769,"hacin_class":"Hacinamiento Medio","hacin_score":687.4,"auto_score":583.3,"n_per":23,"n_hog":6,"source_year":2024},"geometry":{"type":"Polygon","coordinates":[[[-71.4744033429999,-34.4748153601191],[-71.4746095309999,-34.4753525311191],[-71.4748414219999,-34.4752843221191],[-71.4747204429999,-34.4749533411191],[-71.4744033429999,-34.4748153601191]]]}},{"type":"Feature","properties":{"id":"6307011001004","commune":"Peralillo","code":"06307","gse":"C3","quintil":"Q3","nse_score":688.6,"educ":10.8,"educ_score":520.0,"hacin":1.469,"hacin_class":"Hacinamiento Leve","hacin_score":751.3,"auto_score":224.1,"n_per":94,"n_hog":30,"source_year":2024},"geometry":{"type":"Polygon","coordinates":[[[-71.4758813669999,-34.4764467391191],[-71.4762498839999,-34.4762795341191],[-71.4758630389999,-34.4752711881191],[-71.475380663,-34.4751959991191],[-71.4758813669999,-34.4764467391191]]]}},{"type":"Feature","properties":{"id":"6307011001005","commune":"Peralillo","code":"06307","gse":"D","quintil":"Q2","nse_score":641.5,"educ":9.5,"educ_score":433.3,"hacin":1.349,"hacin_class":"Hacinamiento Leve","hacin_score":776.9,"auto_score":148.6,"n_per":89,"n_hog":36,"source_year":2024},"geometry":{"type":"Polygon","coordinates":[[[-71.4758041419999,-34.4764720951191],[-71.4753276449999,-34.4752072701191],[-71.4749246129999,-34.4753173951191],[-71.4754215119999,-34.4765784101191],[-71.4758041419999,-34.4764720951191]]]}},{"type":"Feature","properties":{"id":"6307011001006","commune":"Peralillo","code":"06307","gse":"C3","quintil":"Q3","nse_score":708.9,"educ":11.4,"educ_score":560.0,"hacin":1.463,"hacin_class":"Hacinamiento Leve","hacin_score":752.6,"auto_score":250.0,"n_per":79,"n_hog":22,"source_year":2024},"geometry":{"type":"Polygon","coordinates":[[[-71.4768287099999,-34.4760382021191],[-71.476390395,-34.4753615441191],[-71.4759433509999,-34.4752830911191],[-71.4763286699999,-34.4762525461191],[-71.4768287099999,-34.4760382021191]]]}},{"type":"Feature","properties":{"id":"6307011001007","commune":"Peralillo","code":"06307","gse":"C2","quintil":"Q4","nse_score":749.9,"educ":12.6,"educ_score":640.0,"hacin":1.067,"hacin_class":"Hacinamiento Leve","hacin_score":836.9,"auto_score":71.4,"n_per":16,"n_hog":7,"source_year":2024},"geometry":{"type":"Polygon","coordinates":[[[-71.4798482469999,-34.4757034481191],[-71.4788368,-34.4753009831191],[-71.4784719159999,-34.4756183421191],[-71.4788499109999,-34.4761904661191],[-71.4798482469999,-34.4757034481191]]]}},{"type":"Feature","properties":{"id":"6307011001008","commune":"Peralillo","code":"06307","gse":"C3","quintil":"Q2","nse_score":676.1,"educ":10.6,"educ_score":506.7,"hacin":1.5,"hacin_class":"Hacinamiento Medio","hacin_score":744.7,"auto_score":0.0,"n_per":12,"n_hog":4,"source_year":2024},"geometry":{"type":"Polygon","coordinates":[[[-71.4748757979999,-34.4753319791191],[-71.4745992069999,-34.4754157501191],[-71.4752991559999,-34.4764653371191],[-71.4748757979999,-34.4753319791191]]]}},{"type":"Feature","properties":{"id":"6307011001009","commune":"Peralillo","code":"06307","gse":"C1","quintil":"Q5","nse_score":788.0,"educ":13.9,"educ_score":726.7,"hacin":1.125,"hacin_class":"Hacinamiento Leve","hacin_score":824.5,"auto_score":250.0,"n_per":18,"n_hog":10,"source_year":2024},"geometry":{"type":"Polygon","coordinates":[[[-71.4787624369999,-34.4762104741191],[-71.4783891659999,-34.4756491921191],[-71.4779002869999,-34.4757940321191],[-71.4783060849999,-34.4764130001191],[-71.4787624369999,-34.4762104741191]]]}},{"type":"Feature","properties":{"id":"6307011001011","commune":"Peralillo","code":"06307","gse":"C2","quintil":"Q4","nse_score":756.4,"educ":12.7,"educ_score":646.7,"hacin":1.276,"hacin_class":"Hacinamiento Leve","hacin_score":792.4,"auto_score":200.0,"n_per":37,"n_hog":15,"source_year":2024},"geometry":{"type":"Polygon","coordinates":[[[-71.4782409379999,-34.4764434941191],[-71.4778167839999,-34.4757993721191],[-71.4773703989999,-34.4758922961191],[-71.4778325599999,-34.4766304581191],[-71.4782409379999,-34.4764434941191]]]}},{"type":"Feature","properties":{"id":"6307011001012","commune":"Peralillo","code":"06307","gse":"C2","quintil":"Q4","nse_score":736.7,"educ":13.1,"educ_score":673.3,"hacin":1.37,"hacin_class":"Hacinamiento Leve","hacin_score":772.3,"auto_score":178.6,"n_per":37,"n_hog":14,"source_year":2024},"geometry":{"type":"Polygon","coordinates":[[[-71.4800829959999,-34.4758022341191],[-71.4791530079999,-34.4762448181191],[-71.4797554659999,-34.4771661971191],[-71.4808179619999,-34.4766587641191],[-71.4802962749999,-34.4758754741191],[-71.4800829959999,-34.4758022341191]]]}},{"type":"Feature","properties":{"id":"6307011001013","commune":"Peralillo","code":"06307","gse":"C3","quintil":"Q3","nse_score":684.9,"educ":10.8,"educ_score":520.0,"hacin":1.473,"hacin_class":"Hacinamiento Leve","hacin_score":750.5,"auto_score":258.6,"n_per":81,"n_hog":29,"source_year":2024},"geometry":{"type":"Polygon","coordinates":[[[-71.473232504,-34.4759115801191],[-71.4739981319999,-34.4770140641191],[-71.4744104789999,-34.476872740119],[-71.4737451829999,-34.4758336471191],[-71.4734204739999,-34.4760160791191],[-71.473232504,-34.4759115801191]]]}},{"type":"Feature","properties":{"id":"6307011001014","commune":"Peralillo","code":"06307","gse":"D","quintil":"Q2","nse_score":645.7,"educ":9.8,"educ_score":453.3,"hacin":1.25,"hacin_class":"Hacinamiento Leve","hacin_score":797.9,"auto_score":0.0,"n_per":15,"n_hog":4,"source_year":2024},"geometry":{"type":"Polygon","coordinates":[[[-71.4739404729999,-34.4759992371191],[-71.4741776029999,-34.4764030381191],[-71.4744582129999,-34.4762902741191],[-71.4742247259999,-34.4759007161191],[-71.4739404729999,-34.4759992371191]]]}},{"type":"Feature","properties":{"id":"6307011001015","commune":"Peralillo","code":"06307","gse":"C2","quintil":"Q4","nse_score":730.5,"educ":12.0,"educ_score":600.0,"hacin":1.233,"hacin_class":"Hacinamiento Leve","hacin_score":801.6,"auto_score":25.0,"n_per":53,"n_hog":21,"source_year":2024},"geometry":{"type":"Polygon","coordinates":[[[-71.4777453019999,-34.4766577531191],[-71.4772832489999,-34.4759232361191],[-71.4769400179999,-34.4760797041191],[-71.4774023909999,-34.4768251551191],[-71.4777453019999,-34.4766577531191]]]}},{"type":"Feature","properties":{"id":"6307011001016","commune":"Peralillo","code":"06307","gse":"C2","quintil":"Q4","nse_score":761.4,"educ":12.3,"educ_score":620.0,"hacin":1.5,"hacin_class":"Hacinamiento Medio","hacin_score":744.7,"auto_score":100.0,"n_per":39,"n_hog":10,"source_year":2024},"geometry":{"type":"Polygon","coordinates":[[[-71.4712352059999,-34.4767765571191],[-71.4713709079999,-34.4768980001191],[-71.4732512569999,-34.4760384821191],[-71.4731872939999,-34.4759282371191],[-71.4712352059999,-34.4767765571191]]]}},{"type":"Feature","properties":{"id":"6307011001018","commune":"Peralillo","code":"06307","gse":"C2","quintil":"Q3","nse_score":718.4,"educ":11.7,"educ_score":580.0,"hacin":1.253,"hacin_class":"Hacinamiento Leve","hacin_score":797.2,"auto_score":208.3,"n_per":94,"n_hog":36,"source_year":2024},"geometry":{"type":"Polygon","coordinates":[[[-71.473497231,-34.4763797871191],[-71.4732650439999,-34.4761101981191],[-71.4714022599999,-34.4769868441191],[-71.4715735769999,-34.4772189961191],[-71.473497231,-34.4763797871191]]]}},{"type":"Feature","properties":{"id":"6307011001021","commune":"Peralillo","code":"06307","gse":"C3","quintil":"Q3","nse_score":693.0,"educ":10.8,"educ_score":520.0,"hacin":1.138,"hacin_class":"Hacinamiento Leve","hacin_score":821.7,"auto_score":307.7,"n_per":33,"n_hog":13,"source_year":2024},"geometry":{"type":"Polygon","coordinates":[[[-71.4760603859999,-34.4769495041191],[-71.4764544729999,-34.4770927141191],[-71.476519015,-34.4769958611191],[-71.4762722989999,-34.4763436531191],[-71.4759034809999,-34.4765006691191],[-71.4760603859999,-34.4769495041191]]]}},{"type":"Feature","properties":{"id":"6307011001022","commune":"Peralillo","code":"06307","gse":"C2","quintil":"Q4","nse_score":745.3,"educ":13.1,"educ_score":673.3,"hacin":1.321,"hacin_class":"Hacinamiento Leve","hacin_score":782.7,"auto_score":294.1,"n_per":37,"n_hog":15,"source_year":2024},"geometry":{"type":"Polygon","coordinates":[[[-71.4739518639999,-34.4770481091191],[-71.4735427809999,-34.4764302861191],[-71.4732688909999,-34.4765274731191],[-71.4736593179999,-34.4771901731191],[-71.4739518639999,-34.4770481091191]]]}},{"type":"Feature","properties":{"id":"6307011001023","commune":"Peralillo","code":"06307","gse":"C3","quintil":"Q3","nse_score":696.6,"educ":11.4,"educ_score":560.0,"hacin":1.381,"hacin_class":"Hacinamiento Leve","hacin_score":769.9,"auto_score":197.9,"n_per":134,"n_hog":51,"source_year":2024},"geometry":{"type":"Polygon","coordinates":[[[-71.4755210069999,-34.4768710261191],[-71.4753651699999,-34.4766582471191],[-71.474544153,-34.4768823951191],[-71.4748779869999,-34.4773793021191],[-71.4745018719999,-34.4768945861191],[-71.4738107629999,-34.4771895401191],[-71.4741529549999,-34.4777299631191],[-71.4743324439999,-34.4776898431191],[-71.4735656859999,-34.4780506601191],[-71.4737206869999,-34.4783650751191],[-71.4764753869999,-34.4772454471191],[-71.4760233329999,-34.4770005671191],[-71.4758331659999,-34.4765344421191],[-71.4754179779999,-34.4766285971191],[-71.4755210069999,-34.4768710261191]]]}},{"type":"Feature","properties":{"id":"6307011001024","commune":"Peralillo","code":"06307","gse":"C2","quintil":"Q4","nse_score":744.2,"educ":12.8,"educ_score":653.3,"hacin":1.45,"hacin_class":"Hacinamiento Leve","hacin_score":755.3,"auto_score":156.2,"n_per":58,"n_hog":15,"source_year":2024},"geometry":{"type":"Polygon","coordinates":[[[-71.4736085329999,-34.4772103141191],[-71.4732013699999,-34.4765697261191],[-71.4729392019999,-34.4766700871191],[-71.4733363159999,-34.4773391681191],[-71.4736085329999,-34.4772103141191]]]}},{"type":"Feature","properties":{"id":"6307011001025","commune":"Peralillo","code":"06307","gse":"C3","quintil":"Q2","nse_score":674.6,"educ":10.7,"educ_score":513.3,"hacin":1.274,"hacin_class":"Hacinamiento Leve","hacin_score":792.7,"auto_score":185.2,"n_per":130,"n_hog":54,"source_year":2024},"geometry":{"type":"Polygon","coordinates":[[[-71.470192644,-34.4766739001191],[-71.4690171969999,-34.4792818131191],[-71.4700411099999,-34.4797097371191],[-71.4691272629999,-34.480538115119],[-71.4698181229999,-34.480707506119],[-71.4705042839999,-34.4806658621191],[-71.4708445119999,-34.480832523119],[-71.4711078139999,-34.4813270591191],[-71.4717328169999,-34.4812971361191],[-71.4733765589999,-34.482761951119],[-71.4743795429999,-34.482189362119],[-71.4734365249999,-34.480889203119],[-71.4727838909999,-34.480599286119],[-71.4725898539999,-34.480759538119],[-71.4720633219999,-34.480544982119],[-71.4725906319999,-34.480729230119],[-71.4727710849999,-34.480312686119],[-71.4730964459999,-34.4799918421191],[-71.4725752439999,-34.4790264581191],[-71.4711126579999,-34.4798741601191],[-71.4725600289999,-34.4789954351191],[-71.4722883269999,-34.478393344119],[-71.4710765209999,-34.4781645531191],[-71.4705767949999,-34.4783785771191],[-71.4711272409999,-34.4781334841191],[-71.4722000199999,-34.4783390211191],[-71.4720633889999,-34.4781222241191],[-71.4712622349999,-34.4779464171191],[-71.4708530429999,-34.4779269841191],[-71.4708091789999,-34.4781160791191],[-71.4707023159999,-34.4781106951191],[-71.4712491669999,-34.4769003671191],[-71.4711113099999,-34.4766721991191],[-71.4709782139999,-34.4768827031191],[-71.470192644,-34.4766739001191]]]}},{"type":"Feature","properties":{"id":"6307011001026","commune":"Peralillo","code":"06307","gse":"C3","quintil":"Q3","nse_score":711.0,"educ":10.7,"educ_score":513.3,"hacin":1.232,"hacin_class":"Hacinamiento Leve","hacin_score":801.7,"auto_score":43.5,"n_per":69,"n_hog":24,"source_year":2024},"geometry":{"type":"Polygon","coordinates":[[[-71.4732911859999,-34.4773578931191],[-71.4728754179999,-34.4767107101191],[-71.4722951089999,-34.4769644111191],[-71.4727042439999,-34.4776242061191],[-71.4729697319999,-34.4774997191191],[-71.4726937089999,-34.4770713071191],[-71.4730169109999,-34.4774802191191],[-71.4732911859999,-34.4773578931191]]]}},{"type":"Feature","properties":{"id":"6307011001027","commune":"Peralillo","code":"06307","gse":"C2","quintil":"Q3","nse_score":719.0,"educ":12.4,"educ_score":626.7,"hacin":1.188,"hacin_class":"Hacinamiento Leve","hacin_score":811.2,"auto_score":93.8,"n_per":38,"n_hog":16,"source_year":2024},"geometry":{"type":"Polygon","coordinates":[[[-71.4803838269999,-34.4780552931191],[-71.4814133429999,-34.4775993331191],[-71.4808585409999,-34.4767341541191],[-71.4797921179999,-34.4772384901191],[-71.4803838269999,-34.4780552931191]]]}},{"type":"Feature","properties":{"id":"6307011001029","commune":"Peralillo","code":"06307","gse":"E","quintil":"Q1","nse_score":586.1,"educ":11.6,"educ_score":573.3,"hacin":1.5,"hacin_class":"Hacinamiento Medio","hacin_score":744.7,"auto_score":277.8,"n_per":24,"n_hog":10,"source_year":2024},"geometry":{"type":"Polygon","coordinates":[[[-71.4766778579999,-34.4773493101191],[-71.4772143049999,-34.4782434611191],[-71.4784828369999,-34.4777001141191],[-71.4778810439999,-34.4768009431191],[-71.4766778579999,-34.4773493101191]]]}},{"type":"Feature","properties":{"id":"6307011001030","commune":"Peralillo","code":"06307","gse":"C2","quintil":"Q4","nse_score":727.3,"educ":12.1,"educ_score":606.7,"hacin":1.323,"hacin_class":"Hacinamiento Leve","hacin_score":782.2,"auto_score":325.0,"n_per":45,"n_hog":20,"source_year":2024},"geometry":{"type":"Polygon","coordinates":[[[-71.4715102589999,-34.4779367721191],[-71.4720196049999,-34.4780329671191],[-71.4712788589999,-34.4769530041191],[-71.4711085499999,-34.4773184551191],[-71.4715102589999,-34.4779367721191]]]}},{"type":"Feature","properties":{"id":"6307011001031","commune":"Peralillo","code":"06307","gse":"C2","quintil":"Q4","nse_score":731.6,"educ":13.3,"educ_score":686.7,"hacin":1.393,"hacin_class":"Hacinamiento Leve","hacin_score":767.5,"auto_score":166.7,"n_per":39,"n_hog":15,"source_year":2024},"geometry":{"type":"Polygon","coordinates":[[[-71.4723811059999,-34.4777496371191],[-71.4726420119999,-34.4776319451191],[-71.4722168099999,-34.4769776471191],[-71.4719626369999,-34.4771027111191],[-71.4723811059999,-34.4777496371191]]]}},{"type":"Feature","properties":{"id":"6307011001032","commune":"Peralillo","code":"06307","gse":"C3","quintil":"Q3","nse_score":706.2,"educ":11.6,"educ_score":573.3,"hacin":1.333,"hacin_class":"Hacinamiento Leve","hacin_score":780.1,"auto_score":321.4,"n_per":36,"n_hog":13,"source_year":2024},"geometry":{"type":"Polygon","coordinates":[[[-71.4723241439999,-34.4777848961191],[-71.4719139979999,-34.4771257911191],[-71.4716107739999,-34.4772460431191],[-71.4720227909999,-34.4778817211191],[-71.4723241439999,-34.4777848961191]]]}},{"type":"Feature","properties":{"id":"6307011001033","commune":"Peralillo","code":"06307","gse":"D","quintil":"Q1","nse_score":616.5,"educ":9.2,"educ_score":413.3,"hacin":1.394,"hacin_class":"Hacinamiento Leve","hacin_score":767.2,"auto_score":184.2,"n_per":46,"n_hog":18,"source_year":2024},"geometry":{"type":"Polygon","coordinates":[[[-71.4734968089999,-34.4773427221191],[-71.4738153799999,-34.4778762731191],[-71.4741069999999,-34.4777614221191],[-71.4737776529999,-34.4772270921191],[-71.4734968089999,-34.4773427221191]]]}},{"type":"Feature","properties":{"id":"6307011001037","commune":"Peralillo","code":"06307","gse":"C3","quintil":"Q3","nse_score":684.9,"educ":11.4,"educ_score":560.0,"hacin":1.5,"hacin_class":"Hacinamiento Medio","hacin_score":744.7,"auto_score":145.8,"n_per":69,"n_hog":24,"source_year":2024},"geometry":{"type":"Polygon","coordinates":[[[-71.4737711339999,-34.4779101031191],[-71.4734512579999,-34.4773763251191],[-71.4731595909999,-34.4774906001191],[-71.4735037339999,-34.4780221481191],[-71.4737711339999,-34.4779101031191]]]}},{"type":"Feature","properties":{"id":"6307011001038","commune":"Peralillo","code":"06307","gse":"C3","quintil":"Q2","nse_score":681.0,"educ":10.8,"educ_score":520.0,"hacin":1.184,"hacin_class":"Hacinamiento Leve","hacin_score":811.9,"auto_score":294.1,"n_per":45,"n_hog":18,"source_year":2024},"geometry":{"type":"Polygon","coordinates":[[[-71.4753026679999,-34.4779170291191],[-71.4758626619999,-34.478829762119],[-71.4771344819999,-34.4782673091191],[-71.4765600879999,-34.4773866291191],[-71.4753026679999,-34.4779170291191]]]}},{"type":"Feature","properties":{"id":"6307011001040","commune":"Peralillo","code":"06307","gse":"C3","quintil":"Q2","nse_score":672.7,"educ":10.9,"educ_score":526.7,"hacin":1.448,"hacin_class":"Hacinamiento Leve","hacin_score":755.7,"auto_score":117.6,"n_per":42,"n_hog":16,"source_year":2024},"geometry":{"type":"Polygon","coordinates":[[[-71.4729392669999,-34.4781027811191],[-71.4727326509999,-34.4776872191191],[-71.4724342219999,-34.4777970241191],[-71.4726624109999,-34.4781898971191],[-71.4729392669999,-34.4781027811191]]]}},{"type":"Feature","properties":{"id":"6307011001041","commune":"Peralillo","code":"06307","gse":"D","quintil":"Q2","nse_score":654.9,"educ":13.3,"educ_score":686.7,"hacin":1.333,"hacin_class":"Hacinamiento Leve","hacin_score":780.1,"auto_score":76.9,"n_per":32,"n_hog":13,"source_year":2024},"geometry":{"type":"Polygon","coordinates":[[[-71.4819698579999,-34.4785783881191],[-71.4814355119999,-34.477700500119],[-71.4803868339999,-34.4781568491191],[-71.4809412659999,-34.4790093351191],[-71.4819698579999,-34.4785783881191]]]}},{"type":"Feature","properties":{"id":"6307011001043","commune":"Peralillo","code":"06307","gse":"D","quintil":"Q2","nse_score":650.6,"educ":9.1,"educ_score":406.7,"hacin":1.115,"hacin_class":"Hacinamiento Leve","hacin_score":826.5,"auto_score":66.7,"n_per":29,"n_hog":15,"source_year":2024},"geometry":{"type":"Polygon","coordinates":[[[-71.4723875979999,-34.4783028991191],[-71.4726292279999,-34.4781915611191],[-71.4723762069999,-34.4778208611191],[-71.4721039879999,-34.4779645621191],[-71.4723875979999,-34.4783028991191]]]}},{"type":"Feature","properties":{"id":"6307011001045","commune":"Peralillo","code":"06307","gse":"C2","quintil":"Q3","nse_score":721.0,"educ":11.3,"educ_score":553.3,"hacin":1.245,"hacin_class":"Hacinamiento Leve","hacin_score":799.0,"auto_score":175.0,"n_per":61,"n_hog":21,"source_year":2024},"geometry":{"type":"Polygon","coordinates":[[[-71.4739771419999,-34.4784907451191],[-71.4745644659999,-34.4794086151191],[-71.4757907849999,-34.4788629751191],[-71.4752152739999,-34.4779442041191],[-71.4739771419999,-34.4784907451191]]]}},{"type":"Feature","properties":{"id":"6307011001047","commune":"Peralillo","code":"06307","gse":"C3","quintil":"Q3","nse_score":708.5,"educ":12.0,"educ_score":600.0,"hacin":1.316,"hacin_class":"Hacinamiento Leve","hacin_score":783.9,"auto_score":222.2,"n_per":25,"n_hog":9,"source_year":2024},"geometry":{"type":"Polygon","coordinates":[[[-71.4802965499999,-34.4782158421191],[-71.4792403809999,-34.478678685119],[-71.4797290889999,-34.4795134571191],[-71.4808318179999,-34.4790687181191],[-71.4802965499999,-34.4782158421191]]]}},{"type":"Feature","properties":{"id":"6307011001048","commune":"Peralillo","code":"06307","gse":"D","quintil":"Q2","nse_score":645.1,"educ":11.1,"educ_score":540.0,"hacin":1.237,"hacin_class":"Hacinamiento Leve","hacin_score":800.7,"auto_score":55.6,"n_per":47,"n_hog":23,"source_year":2024},"geometry":{"type":"Polygon","coordinates":[[[-71.4777262839999,-34.4792174951191],[-71.4771749639999,-34.4783395251191],[-71.4759027689999,-34.478889285119],[-71.4764618379999,-34.4797702781191],[-71.4777262839999,-34.4792174951191]]]}},{"type":"Feature","properties":{"id":"6307011001049","commune":"Peralillo","code":"06307","gse":"C3","quintil":"Q3","nse_score":700.1,"educ":10.5,"educ_score":500.0,"hacin":1.278,"hacin_class":"Hacinamiento Leve","hacin_score":792.0,"auto_score":125.0,"n_per":23,"n_hog":9,"source_year":2024},"geometry":{"type":"Polygon","coordinates":[[[-71.4739005159999,-34.478577027119],[-71.4736828149999,-34.4784138331191],[-71.4725851519999,-34.4789192011191],[-71.4727548029999,-34.4791100201191],[-71.4739005159999,-34.478577027119]]]}},{"type":"Feature","properties":{"id":"6307011001050","commune":"Peralillo","code":"06307","gse":"C3","quintil":"Q3","nse_score":695.9,"educ":11.3,"educ_score":553.3,"hacin":1.315,"hacin_class":"Hacinamiento Leve","hacin_score":784.0,"auto_score":257.6,"n_per":96,"n_hog":34,"source_year":2024},"geometry":{"type":"Polygon","coordinates":[[[-71.4727268029999,-34.479153045119],[-71.4735264969999,-34.4804642181191],[-71.4734727379999,-34.480872812119],[-71.4744256849999,-34.482100473119],[-71.4756480859999,-34.481328486119],[-71.4744299969999,-34.479412557119],[-71.4738743919999,-34.4796379251191],[-71.4744080839999,-34.4793654211191],[-71.4739349339999,-34.478630707119],[-71.4727268029999,-34.479153045119]]]}},{"type":"Feature","properties":{"id":"6307011001052","commune":"Peralillo","code":"06307","gse":"C1","quintil":"Q5","nse_score":806.5,"educ":12.6,"educ_score":640.0,"hacin":0.88,"hacin_class":"Sin Hacinamiento","hacin_score":876.6,"auto_score":62.5,"n_per":22,"n_hog":8,"source_year":2024},"geometry":{"type":"Polygon","coordinates":[[[-71.4796657239999,-34.479575078119],[-71.479103919,-34.478732263119],[-71.477873229,-34.4792589711191],[-71.478446619,-34.4801047331191],[-71.4796657239999,-34.479575078119]]]}},{"type":"Feature","properties":{"id":"6307011001053","commune":"Peralillo","code":"06307","gse":"C2","quintil":"Q4","nse_score":755.9,"educ":12.9,"educ_score":660.0,"hacin":1.323,"hacin_class":"Hacinamiento Leve","hacin_score":782.4,"auto_score":71.4,"n_per":41,"n_hog":14,"source_year":2024},"geometry":{"type":"Polygon","coordinates":[[[-71.4758384619999,-34.4789191681191],[-71.4752289499999,-34.4791855651191],[-71.4758151219999,-34.480075539119],[-71.4764130479999,-34.4798061991191],[-71.4758384619999,-34.4789191681191]]]}},{"type":"Feature","properties":{"id":"6307011001054","commune":"Peralillo","code":"06307","gse":"D","quintil":"Q1","nse_score":608.2,"educ":10.0,"educ_score":466.7,"hacin":1.529,"hacin_class":"Hacinamiento Medio","hacin_score":738.4,"auto_score":0.0,"n_per":26,"n_hog":9,"source_year":2024},"geometry":{"type":"Polygon","coordinates":[[[-71.4823909629999,-34.4791450081191],[-71.480661386,-34.4799110271191],[-71.4809145629999,-34.480289912119],[-71.4826488409999,-34.4795652881191],[-71.4823909629999,-34.4791450081191]]]}},{"type":"Feature","properties":{"id":"6307011001055","commune":"Peralillo","code":"06307","gse":"C2","quintil":"Q4","nse_score":727.0,"educ":12.4,"educ_score":626.7,"hacin":1.454,"hacin_class":"Hacinamiento Leve","hacin_score":754.4,"auto_score":125.0,"n_per":32,"n_hog":12,"source_year":2024},"geometry":{"type":"Polygon","coordinates":[[[-71.4751494059999,-34.479218933119],[-71.4745783069999,-34.479487723119],[-71.4751411989999,-34.480368646119],[-71.4757432439999,-34.480108751119],[-71.4751494059999,-34.479218933119]]]}},{"type":"Feature","properties":{"id":"6307011001056","commune":"Peralillo","code":"06307","gse":"C3","quintil":"Q2","nse_score":681.3,"educ":11.9,"educ_score":593.3,"hacin":1.265,"hacin_class":"Hacinamiento Leve","hacin_score":794.7,"auto_score":250.0,"n_per":43,"n_hog":18,"source_year":2024},"geometry":{"type":"Polygon","coordinates":[[[-71.4777832229999,-34.4793274831191],[-71.4765100789999,-34.479845513119],[-71.4770332609999,-34.4806795981191],[-71.4782951989999,-34.480171317119],[-71.4777832229999,-34.4793274831191]]]}},{"type":"Feature","properties":{"id":"6307011001058","commune":"Peralillo","code":"06307","gse":"E","quintil":"Q1","nse_score":544.0,"educ":8.6,"educ_score":373.3,"hacin":1.429,"hacin_class":"Hacinamiento Leve","hacin_score":759.9,"auto_score":83.3,"n_per":60,"n_hog":18,"source_year":2024},"geometry":{"type":"Polygon","coordinates":[[[-71.4810053779999,-34.480362368119],[-71.4814854859999,-34.481133953119],[-71.48297027,-34.480823408119],[-71.4822851749999,-34.479809222119],[-71.4810053779999,-34.480362368119]]]}},{"type":"Feature","properties":{"id":"6307011001059","commune":"Peralillo","code":"06307","gse":"C3","quintil":"Q2","nse_score":678.0,"educ":11.1,"educ_score":540.0,"hacin":1.172,"hacin_class":"Hacinamiento Leve","hacin_score":814.4,"auto_score":88.2,"n_per":34,"n_hog":17,"source_year":2024},"geometry":{"type":"Polygon","coordinates":[[[-71.4764455839999,-34.4798690491191],[-71.4751771919999,-34.4804187251191],[-71.4757171029999,-34.481300110119],[-71.4769780259999,-34.480756931119],[-71.4764455839999,-34.4798690491191]]]}},{"type":"Feature","properties":{"id":"6307011001060","commune":"Peralillo","code":"06307","gse":"C3","quintil":"Q2","nse_score":675.2,"educ":10.2,"educ_score":480.0,"hacin":1.19,"hacin_class":"Hacinamiento Leve","hacin_score":810.5,"auto_score":228.6,"n_per":100,"n_hog":36,"source_year":2024},"geometry":{"type":"Polygon","coordinates":[[[-71.4806072559999,-34.479931208119],[-71.4792750679999,-34.480513623119],[-71.4774308189999,-34.481310741119],[-71.4777143849999,-34.481662231119],[-71.4798242549999,-34.4807849161191],[-71.4808551699999,-34.480326897119],[-71.4806072559999,-34.479931208119]]]}},{"type":"Feature","properties":{"id":"6307011001062","commune":"Peralillo","code":"06307","gse":"D","quintil":"Q1","nse_score":606.0,"educ":8.2,"educ_score":346.7,"hacin":1.073,"hacin_class":"Hacinamiento Leve","hacin_score":835.5,"auto_score":0.0,"n_per":44,"n_hog":19,"source_year":2024},"geometry":{"type":"Polygon","coordinates":[[[-71.4796775949999,-34.4809232741191],[-71.4798750159999,-34.4812675141191],[-71.4811234509999,-34.4807245581191],[-71.4808776529999,-34.4804003841191],[-71.4796775949999,-34.4809232741191]]]}},{"type":"Feature","properties":{"id":"6307011001064","commune":"Peralillo","code":"06307","gse":"D","quintil":"Q2","nse_score":660.7,"educ":10.6,"educ_score":506.7,"hacin":1.182,"hacin_class":"Hacinamiento Leve","hacin_score":812.4,"auto_score":71.4,"n_per":13,"n_hog":7,"source_year":2024},"geometry":{"type":"Polygon","coordinates":[[[-71.4807963709999,-34.4809625721191],[-71.4811207589999,-34.4813835571191],[-71.4815016279999,-34.4812280291191],[-71.4811964919999,-34.480794363119],[-71.4807963709999,-34.4809625721191]]]}},{"type":"Feature","properties":{"id":"6307011001066","commune":"Peralillo","code":"06307","gse":"E","quintil":"Q1","nse_score":593.1,"educ":8.4,"educ_score":360.0,"hacin":1.24,"hacin_class":"Hacinamiento Leve","hacin_score":800.0,"auto_score":90.9,"n_per":31,"n_hog":11,"source_year":2024},"geometry":{"type":"Polygon","coordinates":[[[-71.4807434169999,-34.4809734511191],[-71.479936371,-34.481327879119],[-71.4800734279999,-34.481555356119],[-71.4808966649999,-34.481227557119],[-71.4807434169999,-34.4809734511191]]]}},{"type":"Feature","properties":{"id":"6307011001067","commune":"Peralillo","code":"06307","gse":"D","quintil":"Q1","nse_score":620.2,"educ":9.5,"educ_score":433.3,"hacin":1.405,"hacin_class":"Hacinamiento Leve","hacin_score":764.9,"auto_score":130.4,"n_per":59,"n_hog":22,"source_year":2024},"geometry":{"type":"Polygon","coordinates":[[[-71.4795759369999,-34.4809921251191],[-71.4787247259999,-34.4813314141191],[-71.478914072,-34.481694902119],[-71.4798052359999,-34.481342874119],[-71.4795759369999,-34.4809921251191]]]}},{"type":"Feature","properties":{"id":"6307011001068","commune":"Peralillo","code":"06307","gse":"C2","quintil":"Q3","nse_score":722.1,"educ":11.7,"educ_score":580.0,"hacin":1.5,"hacin_class":"Hacinamiento Medio","hacin_score":744.7,"auto_score":333.3,"n_per":42,"n_hog":15,"source_year":2024},"geometry":{"type":"Polygon","coordinates":[[[-71.4804811649999,-34.4818896951191],[-71.4812005709999,-34.481549961119],[-71.4809704799999,-34.4812506261191],[-71.4802335899999,-34.481553542119],[-71.4804811649999,-34.4818896951191]]]}},{"type":"Feature","properties":{"id":"6307011001070","commune":"Peralillo","code":"06307","gse":"C2","quintil":"Q3","nse_score":719.5,"educ":11.7,"educ_score":580.0,"hacin":1.325,"hacin_class":"Hacinamiento Leve","hacin_score":781.9,"auto_score":205.9,"n_per":53,"n_hog":17,"source_year":2024},"geometry":{"type":"Polygon","coordinates":[[[-71.4777201369999,-34.481826936119],[-71.4779241189999,-34.482115714119],[-71.4788484959999,-34.481717700119],[-71.4786057939999,-34.481400615119],[-71.4777201369999,-34.481826936119]]]}},{"type":"Feature","properties":{"id":"6307011001071","commune":"Peralillo","code":"06307","gse":"E","quintil":"Q1","nse_score":497.9,"educ":9.2,"educ_score":413.3,"hacin":1.529,"hacin_class":"Hacinamiento Medio","hacin_score":738.4,"auto_score":166.7,"n_per":26,"n_hog":9,"source_year":2024},"geometry":{"type":"Polygon","coordinates":[[[-71.477354638,-34.481462970119],[-71.4750876489999,-34.482483743119],[-71.4752085659999,-34.483386764119],[-71.4775106659999,-34.482084514119],[-71.4787572859999,-34.484074294119],[-71.4790309179999,-34.483208187119],[-71.4805070329999,-34.481973641119],[-71.4801865339999,-34.481577951119],[-71.4796892449999,-34.481803200119],[-71.4798345319999,-34.482134497119],[-71.47837397,-34.482841086119],[-71.4787023409999,-34.483154210119],[-71.4782170759999,-34.482817002119],[-71.477354638,-34.481462970119]]]}},{"type":"Feature","properties":{"id":"6307011001072","commune":"Peralillo","code":"06307","gse":"D","quintil":"Q1","nse_score":633.8,"educ":9.2,"educ_score":413.3,"hacin":1.276,"hacin_class":"Hacinamiento Leve","hacin_score":792.4,"auto_score":230.8,"n_per":37,"n_hog":14,"source_year":2024},"geometry":{"type":"Polygon","coordinates":[[[-71.4794555819999,-34.4815593051191],[-71.4788839319999,-34.481790172119],[-71.4790374069999,-34.482034067119],[-71.4796026329999,-34.481786306119],[-71.4794555819999,-34.4815593051191]]]}},{"type":"Feature","properties":{"id":"6307011001073","commune":"Peralillo","code":"06307","gse":"D","quintil":"Q2","nse_score":655.9,"educ":9.9,"educ_score":460.0,"hacin":1.262,"hacin_class":"Hacinamiento Leve","hacin_score":795.3,"auto_score":83.3,"n_per":53,"n_hog":18,"source_year":2024},"geometry":{"type":"Polygon","coordinates":[[[-71.4779522399999,-34.482190406119],[-71.4781188029999,-34.482446198119],[-71.4789694609999,-34.482069945119],[-71.4788112269999,-34.481822482119],[-71.4779522399999,-34.482190406119]]]}},{"type":"Feature","properties":{"id":"6307011001074","commune":"Peralillo","code":"06307","gse":"C3","quintil":"Q3","nse_score":697.8,"educ":10.9,"educ_score":526.7,"hacin":1.286,"hacin_class":"Hacinamiento Leve","hacin_score":790.3,"auto_score":281.2,"n_per":36,"n_hog":16,"source_year":2024},"geometry":{"type":"Polygon","coordinates":[[[-71.4796438199999,-34.481825590119],[-71.4790471229999,-34.482090025119],[-71.4792071159999,-34.482321809119],[-71.4797584379999,-34.482097854119],[-71.4796438199999,-34.481825590119]]]}},{"type":"Feature","properties":{"id":"6307011001075","commune":"Peralillo","code":"06307","gse":"C3","quintil":"Q2","nse_score":669.4,"educ":9.9,"educ_score":460.0,"hacin":1.312,"hacin_class":"Hacinamiento Leve","hacin_score":784.6,"auto_score":218.8,"n_per":42,"n_hog":16,"source_year":2024},"geometry":{"type":"Polygon","coordinates":[[[-71.4791552069999,-34.4824028451191],[-71.4790133889999,-34.482113874119],[-71.4781260379999,-34.4825147281191],[-71.4783313029999,-34.482802867119],[-71.4791552069999,-34.4824028451191]]]}},{"type":"Feature","properties":{"id":"6307011001051","commune":"Peralillo","code":"06307","gse":"C2","quintil":"Q4","nse_score":769.5,"educ":14.3,"educ_score":753.3,"hacin":1.111,"hacin_class":"Hacinamiento Leve","hacin_score":827.4,"auto_score":200.0,"n_per":10,"n_hog":5,"source_year":2024},"geometry":{"type":"MultiPolygon","coordinates":[[[[-71.4740618629999,-34.482529053119],[-71.4742943519999,-34.482746895119],[-71.4773041689999,-34.4813043601191],[-71.4770263619999,-34.4808353391191],[-71.4752796009999,-34.481633960119],[-71.4740618629999,-34.482529053119]]],[[[-71.4771214229999,-34.4808080071191],[-71.4774011659999,-34.481262558119],[-71.4823509469999,-34.479088662119],[-71.4820616609999,-34.4786436141191],[-71.4797784609999,-34.4796267741191],[-71.4771214229999,-34.4808080071191]]]]}},{"type":"Feature","properties":{"id":"6307011001057","commune":"Peralillo","code":"06307","gse":"D","quintil":"Q1","nse_score":613.7,"educ":8.9,"educ_score":393.3,"hacin":1.571,"hacin_class":"Hacinamiento Medio","hacin_score":729.5,"auto_score":125.0,"n_per":22,"n_hog":8,"source_year":2024},"geometry":{"type":"MultiPolygon","coordinates":[[[[-71.4831129059999,-34.480845338119],[-71.4815091739999,-34.4811674631191],[-71.4815664189999,-34.4812482231191],[-71.4811430609999,-34.481414645119],[-71.4812333579999,-34.481532990119],[-71.4818709039999,-34.481314731119],[-71.4829749739999,-34.481619302119],[-71.4839798049999,-34.481538094119],[-71.4833878329999,-34.4807262471191],[-71.4831129059999,-34.480845338119]]],[[[-71.4830470119999,-34.4808262601191],[-71.4833411139999,-34.480694913119],[-71.4826618579999,-34.4796669231191],[-71.4823275529999,-34.479789365119],[-71.4830470119999,-34.4808262601191]]]]}},{"type":"Feature","properties":{"id":"6307011001039","commune":"Peralillo","code":"06307","gse":"D","quintil":"Q1","nse_score":635.1,"educ":8.4,"educ_score":360.0,"hacin":1.111,"hacin_class":"Hacinamiento Leve","hacin_score":827.4,"auto_score":71.4,"n_per":20,"n_hog":7,"source_year":2024},"geometry":{"type":"MultiPolygon","coordinates":[[[[-71.4735286629999,-34.478063477119],[-71.472358331,-34.4783754421191],[-71.4725542829999,-34.4788637151191],[-71.4736688399999,-34.4783880981191],[-71.4735286629999,-34.478063477119]]],[[[-71.4730131529999,-34.4780546291191],[-71.4734652539999,-34.4780351371191],[-71.47312188,-34.4775132101191],[-71.4727641389999,-34.4776758901191],[-71.4730131529999,-34.4780546291191]]]]}},{"type":"Feature","properties":{"id":"6307011001020","commune":"Peralillo","code":"06307","gse":"C2","quintil":"Q4","nse_score":741.0,"educ":13.3,"educ_score":686.7,"hacin":1.177,"hacin_class":"Hacinamiento Leve","hacin_score":813.5,"auto_score":166.7,"n_per":20,"n_hog":9,"source_year":2024},"geometry":{"type":"MultiPolygon","coordinates":[[[[-71.4777937649999,-34.4791653171191],[-71.4790441779999,-34.4786572621191],[-71.4785192999999,-34.4777660611191],[-71.4772889029999,-34.4783022831191],[-71.4777937649999,-34.4791653171191]]],[[[-71.4779979669999,-34.4767350601191],[-71.4785658339999,-34.4776539721191],[-71.4796640559999,-34.4771871061191],[-71.4790502879999,-34.4762723071191],[-71.4779979669999,-34.4767350601191]]]]}},{"type":"Feature","properties":{"id":"6307011002001","commune":"Peralillo","code":"06307","gse":"C3","quintil":"Q2","nse_score":677.9,"educ":10.7,"educ_score":513.3,"hacin":1.444,"hacin_class":"Hacinamiento Leve","hacin_score":756.6,"auto_score":214.7,"n_per":566,"n_hog":191,"source_year":2024},"geometry":{"type":"Polygon","coordinates":[[[-71.4710890679999,-34.4702981461192],[-71.4705877679999,-34.4695592181192],[-71.4697934329999,-34.4710633621192],[-71.4700330889999,-34.4711846961192],[-71.4697719759999,-34.4711048471191],[-71.4695748859999,-34.4714859081191],[-71.4744199219999,-34.4734477761191],[-71.4748016899999,-34.4728150981191],[-71.4744939549999,-34.4734771081191],[-71.474669876,-34.4735468071191],[-71.4748354649999,-34.4733634621191],[-71.4747189729999,-34.4735662591191],[-71.476941328,-34.4744525651191],[-71.4773000469999,-34.4735678651191],[-71.4772585659999,-34.4733733001191],[-71.4773872229999,-34.4731658811191],[-71.4773541539999,-34.4735750751191],[-71.4769903429999,-34.4744721851191],[-71.4776065969999,-34.4747159231191],[-71.4783353089999,-34.4730394611191],[-71.4782561299999,-34.4721701921192],[-71.4756379709999,-34.4717770251192],[-71.4757770429999,-34.4711043801191],[-71.4757122669999,-34.4717219431191],[-71.4761203919999,-34.4717730681192],[-71.4762441089999,-34.4712551611191],[-71.4761801789999,-34.4717891011192],[-71.4765852779999,-34.4718437131191],[-71.4767098679999,-34.4713080761192],[-71.4766466039999,-34.4718574061191],[-71.477038864,-34.4719092621191],[-71.4772218939999,-34.4713911581192],[-71.4771046529999,-34.4719195061191],[-71.4775123789999,-34.4719801531192],[-71.4776375879999,-34.4713650021191],[-71.4775608139999,-34.4719922811191],[-71.4782874239999,-34.4721038541192],[-71.4783866809999,-34.4717314371192],[-71.4798066519999,-34.4722315391192],[-71.4799960629999,-34.4718321351191],[-71.4785159259999,-34.4712975961191],[-71.4768612059999,-34.4710736501191],[-71.4758872449999,-34.4707976951192],[-71.4750013069999,-34.4712309091192],[-71.4713031119999,-34.4716953991191],[-71.4711313679999,-34.4716628201192],[-71.4723642469999,-34.4700794501192],[-71.4711376829999,-34.4697494591192],[-71.4708033079999,-34.4691681381192],[-71.4706103789999,-34.4695181921192],[-71.4710890679999,-34.4702981461192]]]}},{"type":"Feature","properties":{"id":"6307011002002","commune":"Peralillo","code":"06307","gse":"C3","quintil":"Q2","nse_score":666.3,"educ":10.4,"educ_score":493.3,"hacin":1.385,"hacin_class":"Hacinamiento Leve","hacin_score":769.2,"auto_score":264.7,"n_per":108,"n_hog":34,"source_year":2024},"geometry":{"type":"Polygon","coordinates":[[[-71.4781628989999,-34.4711708371191],[-71.4793880719999,-34.4715530351191],[-71.4796079899999,-34.4712260821191],[-71.4794375689999,-34.4715718851192],[-71.4800196539999,-34.4717816511192],[-71.480243663,-34.4712897121192],[-71.4792589869999,-34.4707233561192],[-71.4802663119999,-34.4712369311192],[-71.4803739189999,-34.4710093661191],[-71.4795630699999,-34.4705363951192],[-71.4803888879999,-34.4709737331192],[-71.4807050319999,-34.4703641771192],[-71.4803204819999,-34.4701876981192],[-71.4796095929999,-34.4702315341192],[-71.4794382719999,-34.4703647831191],[-71.4792859859999,-34.4703076761192],[-71.4788760909999,-34.4706635391191],[-71.4785801629999,-34.4705321531192],[-71.478480611,-34.4707302421192],[-71.478195808,-34.4706243891192],[-71.4781628989999,-34.4711708371191]]]}},{"type":"Feature","properties":{"id":"6307011002003","commune":"Peralillo","code":"06307","gse":"C3","quintil":"Q3","nse_score":692.8,"educ":11.6,"educ_score":573.3,"hacin":1.32,"hacin_class":"Hacinamiento Leve","hacin_score":783.0,"auto_score":271.4,"n_per":99,"n_hog":35,"source_year":2024},"geometry":{"type":"Polygon","coordinates":[[[-71.4804542689999,-34.4710181811191],[-71.4797480439999,-34.4725110041192],[-71.4797137709999,-34.4728542231192],[-71.4803824009999,-34.4727470801191],[-71.4809430409999,-34.4724066271191],[-71.4813266649999,-34.4723369061192],[-71.4813981899999,-34.4719739991191],[-71.4814569839999,-34.4722007241191],[-71.4811335439999,-34.4725397561191],[-71.4811272389999,-34.4731595941191],[-71.4804083769999,-34.4741663301191],[-71.4803055169999,-34.4757990731191],[-71.482463418,-34.4766729671191],[-71.4824888789999,-34.4758499851191],[-71.4816486349999,-34.4755749101191],[-71.4824988699999,-34.4757989741191],[-71.4826606629999,-34.4732362001191],[-71.4828943279999,-34.4732282761191],[-71.4860222769999,-34.4744888541191],[-71.4864019799999,-34.4738660241191],[-71.4847757509999,-34.4735355531191],[-71.4849198359999,-34.4730525881191],[-71.4845280659999,-34.4729532201192],[-71.4841369069999,-34.4723887121191],[-71.4837088959999,-34.4722811341192],[-71.4834464469999,-34.4729006761191],[-71.4825321479999,-34.4726628451192],[-71.4825730509999,-34.4717347411191],[-71.4809068079999,-34.4716344221192],[-71.4808276629999,-34.4711500311192],[-71.4804542689999,-34.4710181811191]]]}},{"type":"Feature","properties":{"id":"6307011002006","commune":"Peralillo","code":"06307","gse":"C3","quintil":"Q2","nse_score":673.6,"educ":10.9,"educ_score":526.7,"hacin":1.451,"hacin_class":"Hacinamiento Leve","hacin_score":755.1,"auto_score":159.1,"n_per":74,"n_hog":22,"source_year":2024},"geometry":{"type":"Polygon","coordinates":[[[-71.4781838089999,-34.4736927311191],[-71.4796023899999,-34.4741969981191],[-71.4796379519999,-34.4733480711191],[-71.4783996099999,-34.4730594481191],[-71.4783018199999,-34.4733513441191],[-71.4786202069999,-34.4734621071191],[-71.4782818999999,-34.4733936901191],[-71.4781838089999,-34.4736927311191]]]}},{"type":"Feature","properties":{"id":"6307011002008","commune":"Peralillo","code":"06307","gse":"E","quintil":"Q1","nse_score":588.5,"educ":9.4,"educ_score":426.7,"hacin":1.444,"hacin_class":"Hacinamiento Leve","hacin_score":756.5,"auto_score":272.7,"n_per":26,"n_hog":10,"source_year":2024},"geometry":{"type":"Polygon","coordinates":[[[-71.4871809069999,-34.4749588711191],[-71.4878674129999,-34.4736207661191],[-71.486707582,-34.4733721651191],[-71.4861076189999,-34.4745220481191],[-71.4871809069999,-34.4749588711191]]]}},{"type":"Feature","properties":{"id":"6307011002009","commune":"Peralillo","code":"06307","gse":"C3","quintil":"Q3","nse_score":682.3,"educ":10.3,"educ_score":486.7,"hacin":1.364,"hacin_class":"Hacinamiento Leve","hacin_score":773.7,"auto_score":250.0,"n_per":45,"n_hog":18,"source_year":2024},"geometry":{"type":"Polygon","coordinates":[[[-71.4848246459999,-34.4740776941191],[-71.4837176519999,-34.4736387921191],[-71.4831827069999,-34.4745253461191],[-71.4842863469999,-34.4749878971191],[-71.4848246459999,-34.4740776941191]]]}},{"type":"Feature","properties":{"id":"6307011002010","commune":"Peralillo","code":"06307","gse":"C3","quintil":"Q2","nse_score":674.9,"educ":10.8,"educ_score":520.0,"hacin":1.5,"hacin_class":"Hacinamiento Medio","hacin_score":744.7,"auto_score":195.7,"n_per":69,"n_hog":23,"source_year":2024},"geometry":{"type":"Polygon","coordinates":[[[-71.4780281499999,-34.4740666511191],[-71.4795876819999,-34.4746069411191],[-71.4796037049999,-34.4742414291191],[-71.4781607669999,-34.4737545381191],[-71.4780281499999,-34.4740666511191]]]}},{"type":"Feature","properties":{"id":"6307011002011","commune":"Peralillo","code":"06307","gse":"D","quintil":"Q2","nse_score":641.2,"educ":10.0,"educ_score":466.7,"hacin":1.361,"hacin_class":"Hacinamiento Leve","hacin_score":774.3,"auto_score":222.2,"n_per":83,"n_hog":27,"source_year":2024},"geometry":{"type":"Polygon","coordinates":[[[-71.4776795059999,-34.4747415201191],[-71.4782643139999,-34.4749799331191],[-71.479509387,-34.4754595771191],[-71.4795440029999,-34.4750615721191],[-71.4787386779999,-34.4747190211191],[-71.4795536249999,-34.4750109271191],[-71.4795774059999,-34.4746484321191],[-71.4780119579999,-34.4741032071191],[-71.4776795059999,-34.4747415201191]]]}},{"type":"Feature","properties":{"id":"6307011002012","commune":"Peralillo","code":"06307","gse":"E","quintil":"Q1","nse_score":600.0,"educ":10.1,"educ_score":473.3,"hacin":1.525,"hacin_class":"Hacinamiento Medio","hacin_score":739.4,"auto_score":83.3,"n_per":61,"n_hog":16,"source_year":2024},"geometry":{"type":"Polygon","coordinates":[[[-71.4859896539999,-34.4745524521191],[-71.4848946399999,-34.4741065811191],[-71.4843521749999,-34.4750135021191],[-71.4854554279999,-34.4754625771191],[-71.4859896539999,-34.4745524521191]]]}},{"type":"Feature","properties":{"id":"6307011002014","commune":"Peralillo","code":"06307","gse":"E","quintil":"Q1","nse_score":566.9,"educ":9.0,"educ_score":400.0,"hacin":1.676,"hacin_class":"Hacinamiento Medio","hacin_score":707.3,"auto_score":52.6,"n_per":62,"n_hog":21,"source_year":2024},"geometry":{"type":"Polygon","coordinates":[[[-71.4866240219999,-34.4759204161191],[-71.4871333509999,-34.4749939521191],[-71.4860593469999,-34.4745712411191],[-71.4855130289999,-34.4754849811191],[-71.4866240219999,-34.4759204161191]]]}},{"type":"Feature","properties":{"id":"6307011002015","commune":"Peralillo","code":"06307","gse":"D","quintil":"Q2","nse_score":658.2,"educ":10.8,"educ_score":520.0,"hacin":1.342,"hacin_class":"Hacinamiento Leve","hacin_score":778.3,"auto_score":250.0,"n_per":51,"n_hog":18,"source_year":2024},"geometry":{"type":"Polygon","coordinates":[[[-71.4842437329999,-34.4750594911191],[-71.4831484229999,-34.4746035081191],[-71.4826305229999,-34.4755166581191],[-71.4837132509999,-34.4759594301191],[-71.4842437329999,-34.4750594911191]]]}},{"type":"Feature","properties":{"id":"6307011002016","commune":"Peralillo","code":"06307","gse":"E","quintil":"Q1","nse_score":604.9,"educ":8.6,"educ_score":373.3,"hacin":1.2,"hacin_class":"Hacinamiento Leve","hacin_score":808.5,"auto_score":108.7,"n_per":54,"n_hog":22,"source_year":2024},"geometry":{"type":"Polygon","coordinates":[[[-71.4840370399999,-34.4755471641191],[-71.4844214099999,-34.4757068641191],[-71.4845894239999,-34.4755431701191],[-71.4843729019999,-34.4759085861191],[-71.4843999829999,-34.4757446461191],[-71.4840126259999,-34.4755885811191],[-71.4837829449999,-34.4759782201191],[-71.4848863079999,-34.4764306661191],[-71.4854246089999,-34.4755204601191],[-71.484313428,-34.4750782821191],[-71.4840370399999,-34.4755471641191]]]}},{"type":"Feature","properties":{"id":"6307011002017","commune":"Peralillo","code":"06307","gse":"C2","quintil":"Q4","nse_score":764.7,"educ":12.9,"educ_score":660.0,"hacin":1.333,"hacin_class":"Hacinamiento Leve","hacin_score":780.1,"auto_score":333.3,"n_per":28,"n_hog":13,"source_year":2024},"geometry":{"type":"Polygon","coordinates":[[[-71.4883802449999,-34.4767528921191],[-71.4871600079999,-34.4764557351191],[-71.4878620399999,-34.4754907841191],[-71.4871285659999,-34.4752012581191],[-71.4859163399999,-34.4772505511191],[-71.485190267,-34.4777226031191],[-71.4859705449999,-34.4780433321191],[-71.4866550899999,-34.4774641521191],[-71.4881405359999,-34.4767384591191],[-71.4873476349999,-34.4771547261191],[-71.4873995289999,-34.4772235311191],[-71.4883802449999,-34.4767528921191]]]}},{"type":"Feature","properties":{"id":"6307011002018","commune":"Peralillo","code":"06307","gse":"E","quintil":"Q1","nse_score":583.2,"educ":9.5,"educ_score":433.3,"hacin":1.242,"hacin_class":"Hacinamiento Leve","hacin_score":799.6,"auto_score":200.0,"n_per":77,"n_hog":28,"source_year":2024},"geometry":{"type":"Polygon","coordinates":[[[-71.485745215,-34.4760295991191],[-71.4855703559999,-34.4763267271191],[-71.4851667969999,-34.4760870461191],[-71.4849520379999,-34.4764529051191],[-71.4860673049999,-34.4768949941191],[-71.4865973679999,-34.4759815821191],[-71.4854862749999,-34.4755427811191],[-71.4852044989999,-34.4760228171191],[-71.4855692499999,-34.4761768331191],[-71.485745215,-34.4760295991191]]]}},{"type":"Feature","properties":{"id":"6307011002019","commune":"Peralillo","code":"06307","gse":"D","quintil":"Q1","nse_score":625.8,"educ":11.9,"educ_score":593.3,"hacin":1.63,"hacin_class":"Hacinamiento Medio","hacin_score":717.1,"auto_score":166.7,"n_per":44,"n_hog":15,"source_year":2024},"geometry":{"type":"Polygon","coordinates":[[[-71.4836628079999,-34.4760412871191],[-71.4825997029999,-34.4755745401191],[-71.4825474659999,-34.4766937761191],[-71.483135978,-34.4769276771191],[-71.4836628079999,-34.4760412871191]]]}},{"type":"Feature","properties":{"id":"6307011002020","commune":"Peralillo","code":"06307","gse":"D","quintil":"Q1","nse_score":627.0,"educ":10.5,"educ_score":500.0,"hacin":1.444,"hacin_class":"Hacinamiento Leve","hacin_score":756.5,"auto_score":300.0,"n_per":13,"n_hog":6,"source_year":2024},"geometry":{"type":"Polygon","coordinates":[[[-71.4809131119999,-34.4766346031191],[-71.4815191299999,-34.4763809521191],[-71.4804361149999,-34.4759361451191],[-71.4809131119999,-34.4766346031191]]]}},{"type":"Feature","properties":{"id":"6307011002021","commune":"Peralillo","code":"06307","gse":"C2","quintil":"Q4","nse_score":732.4,"educ":12.5,"educ_score":633.3,"hacin":1.216,"hacin_class":"Hacinamiento Leve","hacin_score":805.1,"auto_score":343.8,"n_per":45,"n_hog":16,"source_year":2024},"geometry":{"type":"Polygon","coordinates":[[[-71.4843012159999,-34.477409182119],[-71.4848316009999,-34.4765058751191],[-71.4837284369999,-34.4760601611191],[-71.4832222309999,-34.4769562351191],[-71.4843012159999,-34.477409182119]]]}},{"type":"Feature","properties":{"id":"6307011002022","commune":"Peralillo","code":"06307","gse":"D","quintil":"Q2","nse_score":659.3,"educ":10.9,"educ_score":526.7,"hacin":1.366,"hacin_class":"Hacinamiento Leve","hacin_score":773.2,"auto_score":166.7,"n_per":56,"n_hog":18,"source_year":2024},"geometry":{"type":"Polygon","coordinates":[[[-71.481527561,-34.4775716081191],[-71.4829358709999,-34.4769586891191],[-71.4816313939999,-34.4764167781191],[-71.4809493879999,-34.4766942021191],[-71.481527561,-34.4775716081191]]]}},{"type":"Feature","properties":{"id":"6307011002023","commune":"Peralillo","code":"06307","gse":"D","quintil":"Q1","nse_score":609.5,"educ":9.0,"educ_score":400.0,"hacin":1.364,"hacin_class":"Hacinamiento Leve","hacin_score":773.7,"auto_score":152.2,"n_per":60,"n_hog":22,"source_year":2024},"geometry":{"type":"Polygon","coordinates":[[[-71.4860126989999,-34.4769735691191],[-71.4849099239999,-34.4765413301191],[-71.484371011,-34.4774313381191],[-71.4851300459999,-34.4776550251191],[-71.4854921609999,-34.4775230411191],[-71.4849911619999,-34.4772233801191],[-71.4855724539999,-34.4774877271191],[-71.4860126989999,-34.4769735691191]]]}},{"type":"Feature","properties":{"id":"6307011002024","commune":"Peralillo","code":"06307","gse":"C3","quintil":"Q2","nse_score":663.8,"educ":11.1,"educ_score":540.0,"hacin":1.607,"hacin_class":"Hacinamiento Medio","hacin_score":721.9,"auto_score":93.8,"n_per":45,"n_hog":17,"source_year":2024},"geometry":{"type":"Polygon","coordinates":[[[-71.4830864589999,-34.4769937351191],[-71.4826049299999,-34.4771790391191],[-71.4828114599999,-34.4774819711191],[-71.4831962139999,-34.4774457611191],[-71.4833154859999,-34.4774535961191],[-71.4833569599999,-34.4774917261191],[-71.4828674039999,-34.4775266361191],[-71.4827982039999,-34.4774981411191],[-71.4825860899999,-34.4771870771191],[-71.4815598169999,-34.4776249371191],[-71.4821467959999,-34.478540267119],[-71.4843792679999,-34.4775295161191],[-71.4830864589999,-34.4769937351191]]]}},{"type":"Feature","properties":{"id":"6307011002026","commune":"Peralillo","code":"06307","gse":"C3","quintil":"Q3","nse_score":697.0,"educ":11.0,"educ_score":533.3,"hacin":1.213,"hacin_class":"Hacinamiento Leve","hacin_score":805.7,"auto_score":96.8,"n_per":74,"n_hog":31,"source_year":2024},"geometry":{"type":"Polygon","coordinates":[[[-71.4845107909999,-34.477568123119],[-71.4822168129999,-34.4785737751191],[-71.4827222909999,-34.479455827119],[-71.4858612909999,-34.4781090661191],[-71.4845107909999,-34.477568123119]]]}},{"type":"Feature","properties":{"id":"6307011002004","commune":"Peralillo","code":"06307","gse":"C3","quintil":"Q3","nse_score":702.7,"educ":12.2,"educ_score":613.3,"hacin":1.489,"hacin_class":"Hacinamiento Leve","hacin_score":746.9,"auto_score":404.8,"n_per":70,"n_hog":21,"source_year":2024},"geometry":{"type":"MultiPolygon","coordinates":[[[[-71.4795950109999,-34.4755022961191],[-71.4801929719999,-34.4757537261191],[-71.4803334199999,-34.4741546221191],[-71.4810544669999,-34.4731393341191],[-71.4810242049999,-34.4726542091191],[-71.4811561909999,-34.4724027791191],[-71.4803979839999,-34.4727808011191],[-71.4797132229999,-34.4728904531191],[-71.4795950109999,-34.4755022961191]]],[[[-71.4783612929999,-34.4724696131191],[-71.4786591469999,-34.4725413931191],[-71.478367466,-34.4725282101192],[-71.4784019869999,-34.4728027021192],[-71.4785845489999,-34.4728432581191],[-71.4783996439999,-34.4728584301191],[-71.4784330919999,-34.4730215371192],[-71.4796395369999,-34.4732893241191],[-71.4796602999999,-34.4726556841191],[-71.4791880789999,-34.4725215191191],[-71.4796550589999,-34.4726081581192],[-71.4797873589999,-34.4722847431191],[-71.4784334119999,-34.4718159701192],[-71.4783612929999,-34.4724696131191]]]]}},{"type":"Feature","properties":{"id":"6307011002007","commune":"Peralillo","code":"06307","gse":"C3","quintil":"Q3","nse_score":704.8,"educ":11.3,"educ_score":553.3,"hacin":1.389,"hacin_class":"Hacinamiento Leve","hacin_score":768.3,"auto_score":176.5,"n_per":50,"n_hog":17,"source_year":2024},"geometry":{"type":"MultiPolygon","coordinates":[[[[-71.4826584719999,-34.4744012831191],[-71.4826133409999,-34.4753486071191],[-71.4830664359999,-34.4745815981191],[-71.4826584719999,-34.4744012831191]]],[[[-71.4826436849999,-34.4743140151191],[-71.4831253069999,-34.4745096741191],[-71.4836435959999,-34.4736099851191],[-71.4827267649999,-34.4732749841191],[-71.4826436849999,-34.4743140151191]]]]}},{"type":"Feature","properties":{"id":"6307021001001","commune":"Peralillo","code":"06307","gse":"D","quintil":"Q1","nse_score":607.9,"educ":9.5,"educ_score":433.3,"hacin":1.4,"hacin_class":"Hacinamiento Leve","hacin_score":766.0,"auto_score":190.5,"n_per":105,"n_hog":40,"source_year":2024},"geometry":{"type":"Polygon","coordinates":[[[-71.5451794199999,-34.4458495991194],[-71.5441431709999,-34.4462000591194],[-71.5454448359999,-34.4492883031194],[-71.5469358809999,-34.4485427391194],[-71.546794056,-34.4482802601194],[-71.5468895019999,-34.4482380601194],[-71.5472458849999,-34.4487231511195],[-71.5490520739999,-34.4478526101194],[-71.5492425189999,-34.4476652551194],[-71.5485769599999,-34.4467002481195],[-71.5486827459999,-34.4466605011195],[-71.5488525749999,-34.4469504321194],[-71.5492530149999,-34.4467727481194],[-71.5490671029999,-34.4464756971194],[-71.5493113769999,-34.4467476921194],[-71.5496408899999,-34.4466002351194],[-71.5494542469999,-34.4462885211194],[-71.5484324759999,-34.4467483501194],[-71.5488541219999,-34.4474714551194],[-71.5478207539999,-34.4479324641195],[-71.5478699209999,-34.4473874241194],[-71.5477726519999,-34.4471861471195],[-71.5463071959999,-34.4478788891194],[-71.5451794199999,-34.4458495991194]]]}},{"type":"Feature","properties":{"id":"6307021001002","commune":"Peralillo","code":"06307","gse":"E","quintil":"Q1","nse_score":540.1,"educ":9.3,"educ_score":420.0,"hacin":1.375,"hacin_class":"Hacinamiento Leve","hacin_score":771.3,"auto_score":92.6,"n_per":66,"n_hog":29,"source_year":2024},"geometry":{"type":"Polygon","coordinates":[[[-71.5447295989999,-34.4519370321194],[-71.546151516,-34.4513218731194],[-71.5440624129999,-34.4462273711195],[-71.5438806339999,-34.4462888491194],[-71.5442780559999,-34.4471859281195],[-71.5443190279999,-34.4477956731194],[-71.5437957489999,-34.4487534721194],[-71.5436525699999,-34.4492721661194],[-71.5447295989999,-34.4519370321194]]]}},{"type":"Feature","properties":{"id":"6307021001003","commune":"Peralillo","code":"06307","gse":"D","quintil":"Q1","nse_score":629.0,"educ":9.8,"educ_score":453.3,"hacin":1.679,"hacin_class":"Hacinamiento Medio","hacin_score":706.7,"auto_score":0.0,"n_per":47,"n_hog":14,"source_year":2024},"geometry":{"type":"Polygon","coordinates":[[[-71.5490813289999,-34.4472816691195],[-71.5498405369999,-34.4469480711195],[-71.549682775,-34.4466592141195],[-71.5488763209999,-34.4469848011194],[-71.5490813289999,-34.4472816691195]]]}},{"type":"Feature","properties":{"id":"6307021001004","commune":"Peralillo","code":"06307","gse":"D","quintil":"Q1","nse_score":635.1,"educ":9.1,"educ_score":406.7,"hacin":1.613,"hacin_class":"Hacinamiento Medio","hacin_score":720.7,"auto_score":93.8,"n_per":50,"n_hog":16,"source_year":2024},"geometry":{"type":"Polygon","coordinates":[[[-71.5493092939999,-34.4476282621195],[-71.5500548649999,-34.4472914071195],[-71.5498896009999,-34.4469926391194],[-71.5490919029999,-34.4473199591194],[-71.5493092939999,-34.4476282621195]]]}},{"type":"Feature","properties":{"id":"6307021001005","commune":"Peralillo","code":"06307","gse":"E","quintil":"Q1","nse_score":569.5,"educ":8.4,"educ_score":360.0,"hacin":1.393,"hacin_class":"Hacinamiento Leve","hacin_score":767.5,"auto_score":166.7,"n_per":39,"n_hog":19,"source_year":2024},"geometry":{"type":"Polygon","coordinates":[[[-71.5503736629999,-34.4472755951194],[-71.5472760579999,-34.4487751311194],[-71.5475343959999,-34.4491645711194],[-71.5493458479999,-34.4483512541194],[-71.5475608259999,-34.4492172191194],[-71.5479051879999,-34.4498054951194],[-71.551141201,-34.4483809331194],[-71.5503736629999,-34.4472755951194]]]}},{"type":"Feature","properties":{"id":"6307021001007","commune":"Peralillo","code":"06307","gse":"E","quintil":"Q1","nse_score":492.2,"educ":7.6,"educ_score":306.7,"hacin":1.3,"hacin_class":"Hacinamiento Leve","hacin_score":787.2,"auto_score":0.0,"n_per":13,"n_hog":6,"source_year":2024},"geometry":{"type":"Polygon","coordinates":[[[-71.5508027399999,-34.4485974391194],[-71.5498056769999,-34.4490302041194],[-71.5502454499999,-34.4495854341194],[-71.5515370919999,-34.4490130451194],[-71.5513629239999,-34.4487349551194],[-71.5508027399999,-34.4485974391194]]]}},{"type":"Feature","properties":{"id":"6307021001008","commune":"Peralillo","code":"06307","gse":"D","quintil":"Q1","nse_score":635.8,"educ":11.4,"educ_score":560.0,"hacin":1.32,"hacin_class":"Hacinamiento Leve","hacin_score":783.0,"auto_score":115.4,"n_per":33,"n_hog":12,"source_year":2024},"geometry":{"type":"Polygon","coordinates":[[[-71.5457550629999,-34.4500928671194],[-71.5474442229999,-34.4492940891194],[-71.5470377949999,-34.4486496931194],[-71.5454956549999,-34.4494156171194],[-71.5457550629999,-34.4500928671194]]]}},{"type":"Feature","properties":{"id":"6307021001009","commune":"Peralillo","code":"06307","gse":"D","quintil":"Q2","nse_score":650.2,"educ":10.7,"educ_score":513.3,"hacin":1.476,"hacin_class":"Hacinamiento Leve","hacin_score":749.7,"auto_score":300.0,"n_per":31,"n_hog":10,"source_year":2024},"geometry":{"type":"Polygon","coordinates":[[[-71.5509636499999,-34.4493538441194],[-71.5511422889999,-34.4499096761194],[-71.5515187809999,-34.4498346701194],[-71.5511976529999,-34.4500017321194],[-71.5517011029999,-34.4511315371194],[-71.5541181709999,-34.4500595851194],[-71.5537834939999,-34.4496006241194],[-71.5531159199999,-34.4499266581194],[-71.5522430339999,-34.4487727151194],[-71.5509636499999,-34.4493538441194]]]}},{"type":"Feature","properties":{"id":"6307021001012","commune":"Peralillo","code":"06307","gse":"D","quintil":"Q2","nse_score":650.0,"educ":11.8,"educ_score":586.7,"hacin":1.0,"hacin_class":"Hacinamiento Leve","hacin_score":851.1,"auto_score":0.0,"n_per":4,"n_hog":4,"source_year":2024},"geometry":{"type":"Polygon","coordinates":[[[-71.5460195829999,-34.4506642491194],[-71.5477951199999,-34.4498792001194],[-71.5478063509999,-34.4498459171194],[-71.5475108559999,-34.4494309901194],[-71.5458314729999,-34.4502352091194],[-71.5460195829999,-34.4506642491194]]]}},{"type":"Feature","properties":{"id":"6307021001016","commune":"Peralillo","code":"06307","gse":"E","quintil":"Q1","nse_score":589.1,"educ":10.3,"educ_score":486.7,"hacin":1.536,"hacin_class":"Hacinamiento Medio","hacin_score":737.1,"auto_score":133.3,"n_per":43,"n_hog":15,"source_year":2024},"geometry":{"type":"Polygon","coordinates":[[[-71.5511143009999,-34.4500127311194],[-71.5504740459999,-34.4502780631194],[-71.5510011349999,-34.4514404851194],[-71.5516327909999,-34.4511650281194],[-71.5511143009999,-34.4500127311194]]]}},{"type":"Feature","properties":{"id":"6307021001019","commune":"Peralillo","code":"06307","gse":"C3","quintil":"Q2","nse_score":667.0,"educ":11.1,"educ_score":540.0,"hacin":0.918,"hacin_class":"Sin Hacinamiento","hacin_score":868.4,"auto_score":142.9,"n_per":45,"n_hog":20,"source_year":2024},"geometry":{"type":"Polygon","coordinates":[[[-71.5509054729999,-34.4514595051194],[-71.5503948929999,-34.4503254961194],[-71.5497587819999,-34.4505784401194],[-71.5502444269999,-34.4517329911194],[-71.5509054729999,-34.4514595051194]]]}},{"type":"Feature","properties":{"id":"6307021001020","commune":"Peralillo","code":"06307","gse":"E","quintil":"Q1","nse_score":548.2,"educ":8.4,"educ_score":360.0,"hacin":1.105,"hacin_class":"Hacinamiento Leve","hacin_score":828.7,"auto_score":55.6,"n_per":21,"n_hog":8,"source_year":2024},"geometry":{"type":"Polygon","coordinates":[[[-71.548916458,-34.4508707191194],[-71.5486404829999,-34.4503710421194],[-71.5473226369999,-34.4509351011194],[-71.5475809609999,-34.4514575061194],[-71.548916458,-34.4508707191194]]]}},{"type":"Feature","properties":{"id":"6307021001022","commune":"Peralillo","code":"06307","gse":"D","quintil":"Q1","nse_score":634.1,"educ":11.8,"educ_score":586.7,"hacin":1.273,"hacin_class":"Hacinamiento Leve","hacin_score":793.0,"auto_score":153.8,"n_per":28,"n_hog":11,"source_year":2024},"geometry":{"type":"Polygon","coordinates":[[[-71.5501479429999,-34.4517867161194],[-71.5496970489999,-34.4506377351194],[-71.5490457439999,-34.4508940271194],[-71.5494819889999,-34.4520314331194],[-71.5501479429999,-34.4517867161194]]]}},{"type":"Feature","properties":{"id":"6307021001023","commune":"Peralillo","code":"06307","gse":"E","quintil":"Q1","nse_score":575.9,"educ":8.8,"educ_score":386.7,"hacin":1.143,"hacin_class":"Hacinamiento Leve","hacin_score":820.7,"auto_score":125.0,"n_per":8,"n_hog":4,"source_year":2024},"geometry":{"type":"Polygon","coordinates":[[[-71.5472290319999,-34.4509503721194],[-71.5462929329999,-34.4513423651194],[-71.5464036759999,-34.4517213351194],[-71.5474597549999,-34.4515055391194],[-71.5472290319999,-34.4509503721194]]]}},{"type":"Feature","properties":{"id":"6307021001024","commune":"Peralillo","code":"06307","gse":"D","quintil":"Q2","nse_score":654.8,"educ":10.3,"educ_score":486.7,"hacin":1.219,"hacin_class":"Hacinamiento Leve","hacin_score":804.5,"auto_score":187.5,"n_per":39,"n_hog":16,"source_year":2024},"geometry":{"type":"Polygon","coordinates":[[[-71.5494169129999,-34.4520841761194],[-71.5489474969999,-34.4509611941194],[-71.5483057419999,-34.4512120871194],[-71.5487527869999,-34.4523481481194],[-71.5494169129999,-34.4520841761194]]]}},{"type":"Feature","properties":{"id":"6307021001025","commune":"Peralillo","code":"06307","gse":"E","quintil":"Q1","nse_score":600.2,"educ":9.5,"educ_score":433.3,"hacin":1.25,"hacin_class":"Hacinamiento Leve","hacin_score":797.9,"auto_score":187.5,"n_per":20,"n_hog":8,"source_year":2024},"geometry":{"type":"Polygon","coordinates":[[[-71.5517332999999,-34.4511988051194],[-71.5519553609999,-34.4517569181194],[-71.5523229649999,-34.4516911261194],[-71.5519878009999,-34.4518357061194],[-71.5522173139999,-34.4523801681194],[-71.5525892279999,-34.4522941981194],[-71.5522496499999,-34.4524271611194],[-71.5524477979999,-34.4528160611194],[-71.5528024779999,-34.4526255221194],[-71.5520122539999,-34.4510254801194],[-71.5517332999999,-34.4511988051194]]]}},{"type":"Feature","properties":{"id":"6307021001026","commune":"Peralillo","code":"06307","gse":"E","quintil":"Q1","nse_score":573.5,"educ":9.7,"educ_score":446.7,"hacin":1.053,"hacin_class":"Hacinamiento Leve","hacin_score":839.9,"auto_score":428.6,"n_per":20,"n_hog":7,"source_year":2024},"geometry":{"type":"Polygon","coordinates":[[[-71.5518753649999,-34.4518057921194],[-71.5516773109999,-34.4512540311194],[-71.5510093299999,-34.4515098641194],[-71.5512565369999,-34.4520422981194],[-71.5518753649999,-34.4518057921194]]]}},{"type":"Feature","properties":{"id":"6307021001027","commune":"Peralillo","code":"06307","gse":"C3","quintil":"Q2","nse_score":672.8,"educ":10.9,"educ_score":526.7,"hacin":1.286,"hacin_class":"Hacinamiento Leve","hacin_score":790.3,"auto_score":208.3,"n_per":27,"n_hog":12,"source_year":2024},"geometry":{"type":"Polygon","coordinates":[[[-71.5482341859999,-34.4512662361194],[-71.5475923979999,-34.4515480331194],[-71.548087258,-34.4526720151194],[-71.5486927569999,-34.4523963951194],[-71.5482341859999,-34.4512662361194]]]}},{"type":"Feature","properties":{"id":"6307021001028","commune":"Peralillo","code":"06307","gse":"D","quintil":"Q1","nse_score":627.6,"educ":10.7,"educ_score":513.3,"hacin":1.256,"hacin_class":"Hacinamiento Leve","hacin_score":796.6,"auto_score":135.4,"n_per":103,"n_hog":48,"source_year":2024},"geometry":{"type":"Polygon","coordinates":[[[-71.5454378819999,-34.4533065841194],[-71.5448454329999,-34.4519793501194],[-71.5425241429999,-34.4530105831193],[-71.5430794259999,-34.4542383501194],[-71.5446347069999,-34.4536067871194],[-71.5447882389999,-34.4539804981194],[-71.5451452409999,-34.4541128041193],[-71.5453656219999,-34.4545564361194],[-71.5455888019999,-34.4546814081193],[-71.5457688679999,-34.4553412691193],[-71.5456488319999,-34.4555050781193],[-71.5468754379999,-34.4592494371193],[-71.5475571139999,-34.4595640781193],[-71.5491286439999,-34.4594704941193],[-71.5484327289999,-34.4570643661193],[-71.5472543219999,-34.4539814501194],[-71.5471165009999,-34.4546006321194],[-71.5471505789999,-34.4537889891193],[-71.5461767469999,-34.4514160831194],[-71.5448637569999,-34.4519711871194],[-71.5454378819999,-34.4533065841194]]]}},{"type":"Feature","properties":{"id":"6307021001029","commune":"Peralillo","code":"06307","gse":"E","quintil":"Q1","nse_score":523.4,"educ":9.1,"educ_score":406.7,"hacin":1.438,"hacin_class":"Hacinamiento Leve","hacin_score":758.0,"auto_score":83.3,"n_per":23,"n_hog":8,"source_year":2024},"geometry":{"type":"Polygon","coordinates":[[[-71.5511514769999,-34.4520804071194],[-71.5509205609999,-34.4515283621194],[-71.5502834489999,-34.4518058621194],[-71.5504831599999,-34.4523213871193],[-71.5511514769999,-34.4520804071194]]]}},{"type":"Feature","properties":{"id":"6307021001030","commune":"Peralillo","code":"06307","gse":"C3","quintil":"Q3","nse_score":684.6,"educ":11.7,"educ_score":580.0,"hacin":1.435,"hacin_class":"Hacinamiento Leve","hacin_score":758.6,"auto_score":0.0,"n_per":33,"n_hog":12,"source_year":2024},"geometry":{"type":"Polygon","coordinates":[[[-71.5479728529999,-34.4526890491194],[-71.5475087409999,-34.4515741671194],[-71.5464631389999,-34.4518006971194],[-71.5469212829999,-34.4529439121194],[-71.5479728529999,-34.4526890491194]]]}},{"type":"Feature","properties":{"id":"6307021001031","commune":"Peralillo","code":"06307","gse":"C2","quintil":"Q4","nse_score":736.4,"educ":11.8,"educ_score":586.7,"hacin":0.944,"hacin_class":"Sin Hacinamiento","hacin_score":862.9,"auto_score":214.3,"n_per":17,"n_hog":7,"source_year":2024},"geometry":{"type":"Polygon","coordinates":[[[-71.5504248659999,-34.4523476081194],[-71.5501849379999,-34.4518443311194],[-71.5495236899999,-34.4521268621194],[-71.5497429189999,-34.4526320511194],[-71.5504248659999,-34.4523476081194]]]}},{"type":"Feature","properties":{"id":"6307021001032","commune":"Peralillo","code":"06307","gse":"D","quintil":"Q1","nse_score":610.4,"educ":10.1,"educ_score":473.3,"hacin":1.312,"hacin_class":"Hacinamiento Leve","hacin_score":784.6,"auto_score":214.3,"n_per":21,"n_hog":7,"source_year":2024},"geometry":{"type":"Polygon","coordinates":[[[-71.5521442649999,-34.4524067531194],[-71.5519004229999,-34.4518571691194],[-71.5512652449999,-34.4521179901194],[-71.5514825919999,-34.4526670961193],[-71.5521442649999,-34.4524067531194]]]}},{"type":"Feature","properties":{"id":"6307021001033","commune":"Peralillo","code":"06307","gse":"C3","quintil":"Q3","nse_score":703.0,"educ":12.1,"educ_score":606.7,"hacin":1.444,"hacin_class":"Hacinamiento Leve","hacin_score":756.5,"auto_score":0.0,"n_per":13,"n_hog":6,"source_year":2024},"geometry":{"type":"Polygon","coordinates":[[[-71.5514208379999,-34.4526808381194],[-71.5511844599999,-34.4521348631193],[-71.5505292849999,-34.4523928981193],[-71.5507588939999,-34.4529481921194],[-71.5514208379999,-34.4526808381194]]]}},{"type":"Feature","properties":{"id":"6307021001034","commune":"Peralillo","code":"06307","gse":"C3","quintil":"Q3","nse_score":707.8,"educ":11.5,"educ_score":566.7,"hacin":1.222,"hacin_class":"Hacinamiento Leve","hacin_score":803.8,"auto_score":500.0,"n_per":11,"n_hog":5,"source_year":2024},"geometry":{"type":"Polygon","coordinates":[[[-71.5494558389999,-34.4521680621194],[-71.5488106729999,-34.4524313931194],[-71.5490071439999,-34.4529216831194],[-71.5496610329999,-34.4526869251194],[-71.5494558389999,-34.4521680621194]]]}},{"type":"Feature","properties":{"id":"6307021001035","commune":"Peralillo","code":"06307","gse":"E","quintil":"Q1","nse_score":604.2,"educ":10.5,"educ_score":500.0,"hacin":1.214,"hacin_class":"Hacinamiento Leve","hacin_score":805.5,"auto_score":62.5,"n_per":17,"n_hog":8,"source_year":2024},"geometry":{"type":"Polygon","coordinates":[[[-71.5499913509999,-34.4532131851194],[-71.5506405529999,-34.4534943361194],[-71.5510034209999,-34.4536046181193],[-71.5504435619999,-34.4524362441194],[-71.549795764,-34.4526958221194],[-71.5499913509999,-34.4532131851194]]]}},{"type":"Feature","properties":{"id":"6307021001037","commune":"Peralillo","code":"06307","gse":"E","quintil":"Q1","nse_score":579.0,"educ":9.3,"educ_score":420.0,"hacin":1.246,"hacin_class":"Hacinamiento Leve","hacin_score":798.6,"auto_score":128.6,"n_per":86,"n_hog":34,"source_year":2024},"geometry":{"type":"Polygon","coordinates":[[[-71.5503367049999,-34.4590011561193],[-71.5503455929999,-34.4585135711193],[-71.5497981179999,-34.4585090661193],[-71.5482602429999,-34.4539031841194],[-71.5479185069999,-34.4533081221194],[-71.5483882289999,-34.4533833871193],[-71.5488636839999,-34.4531577311194],[-71.5499145109999,-34.4532083051193],[-71.5497235619999,-34.4527456811194],[-71.5489817659999,-34.4529691331194],[-71.5487183239999,-34.4524812071194],[-71.5480840689999,-34.4527494221194],[-71.5482921529999,-34.4532812931193],[-71.5479971099999,-34.4527639291194],[-71.5469621489999,-34.4530152461194],[-71.5484673309999,-34.4569144331193],[-71.5491004419999,-34.4590615461193],[-71.5500751709999,-34.4590140321193],[-71.5500038899999,-34.4586646471193],[-71.5501188029999,-34.4590118841193],[-71.5503367049999,-34.4590011561193]]]}},{"type":"Feature","properties":{"id":"6307021001039","commune":"Peralillo","code":"06307","gse":"E","quintil":"Q1","nse_score":584.7,"educ":8.8,"educ_score":386.7,"hacin":1.459,"hacin_class":"Hacinamiento Leve","hacin_score":753.4,"auto_score":120.0,"n_per":143,"n_hog":47,"source_year":2024},"geometry":{"type":"Polygon","coordinates":[[[-71.5491219809999,-34.4591259701193],[-71.5495256039999,-34.4604971121192],[-71.5499244989999,-34.4604098561193],[-71.5497872479999,-34.4599678231193],[-71.5498990639999,-34.4600828711193],[-71.5506151299999,-34.4599349311193],[-71.5506580599999,-34.4597601681193],[-71.5510618569999,-34.4610687171193],[-71.5509422009999,-34.4609421941193],[-71.5502048659999,-34.4611044941193],[-71.5501650809999,-34.4612320841193],[-71.5499410919999,-34.4604673631193],[-71.5495408619999,-34.4605390341193],[-71.5496506099999,-34.4618558171193],[-71.5499806889999,-34.4617794211193],[-71.5498845619999,-34.4614594231193],[-71.5513549129999,-34.4611603861193],[-71.5506900779999,-34.4590446721193],[-71.5491219809999,-34.4591259701193]]]}},{"type":"Feature","properties":{"id":"6307021001041","commune":"Peralillo","code":"06307","gse":"D","quintil":"Q2","nse_score":645.5,"educ":9.9,"educ_score":460.0,"hacin":1.393,"hacin_class":"Hacinamiento Leve","hacin_score":767.5,"auto_score":218.8,"n_per":39,"n_hog":16,"source_year":2024},"geometry":{"type":"Polygon","coordinates":[[[-71.5507060209999,-34.4602614221193],[-71.5506437679999,-34.4599790751193],[-71.5498927109999,-34.4601462321193],[-71.549995125,-34.4604084831193],[-71.5507060209999,-34.4602614221193]]]}},{"type":"Feature","properties":{"id":"6307021001042","commune":"Peralillo","code":"06307","gse":"E","quintil":"Q1","nse_score":487.9,"educ":5.2,"educ_score":146.7,"hacin":1.409,"hacin_class":"Hacinamiento Leve","hacin_score":764.0,"auto_score":0.0,"n_per":31,"n_hog":14,"source_year":2024},"geometry":{"type":"Polygon","coordinates":[[[-71.5508237029999,-34.4605731341193],[-71.5507385539999,-34.4602988931193],[-71.5499972819999,-34.4604660891193],[-71.5500872639999,-34.4607347431193],[-71.5508237029999,-34.4605731341193]]]}},{"type":"Feature","properties":{"id":"6307021001043","commune":"Peralillo","code":"06307","gse":"C3","quintil":"Q2","nse_score":665.1,"educ":10.8,"educ_score":520.0,"hacin":1.364,"hacin_class":"Hacinamiento Leve","hacin_score":773.7,"auto_score":218.8,"n_per":45,"n_hog":16,"source_year":2024},"geometry":{"type":"Polygon","coordinates":[[[-71.5509299389999,-34.4608945871193],[-71.5508435609999,-34.4606117281193],[-71.5501042599999,-34.4607896021193],[-71.5501889869999,-34.4610565581193],[-71.5509299389999,-34.4608945871193]]]}},{"type":"Feature","properties":{"id":"6307021001010","commune":"Peralillo","code":"06307","gse":"D","quintil":"Q2","nse_score":656.3,"educ":11.6,"educ_score":573.3,"hacin":1.444,"hacin_class":"Hacinamiento Leve","hacin_score":756.5,"auto_score":0.0,"n_per":13,"n_hog":4,"source_year":2024},"geometry":{"type":"MultiPolygon","coordinates":[[[[-71.549000669,-34.4508102371194],[-71.5496251419999,-34.4505617671194],[-71.5494552389999,-34.4501469681194],[-71.5488138359999,-34.4502897121194],[-71.549000669,-34.4508102371194]]],[[[-71.5504370529999,-34.4502204491194],[-71.5510984159999,-34.4499503881194],[-71.5508452549999,-34.4494684971194],[-71.5502304049999,-34.4497205791194],[-71.5504370529999,-34.4502204491194]]],[[[-71.5479210259999,-34.4498847251194],[-71.5481489039999,-34.4504750121194],[-71.5501912569999,-34.4496060281194],[-71.5497401399999,-34.4490640081194],[-71.5479210259999,-34.4498847251194]]]]}},{"type":"Feature","properties":{"id":"6307021001036","commune":"Peralillo","code":"06307","gse":"E","quintil":"Q1","nse_score":596.0,"educ":9.3,"educ_score":420.0,"hacin":1.429,"hacin_class":"Hacinamiento Leve","hacin_score":759.9,"auto_score":214.3,"n_per":20,"n_hog":7,"source_year":2024},"geometry":{"type":"MultiPolygon","coordinates":[[[[-71.5510586649999,-34.4535834821194],[-71.5516358699999,-34.4532284421194],[-71.5514541609999,-34.4527541871194],[-71.5507887119999,-34.4530158381194],[-71.5510586649999,-34.4535834821194]]],[[[-71.5516915359999,-34.4531784511194],[-71.5523575729999,-34.4528502021194],[-71.5521785839999,-34.4524823981194],[-71.551521411,-34.4527179521194],[-71.5516915359999,-34.4531784511194]]]]}},{"type":"Feature","properties":{"id":"6307021001040","commune":"Peralillo","code":"06307","gse":"E","quintil":"Q1","nse_score":589.2,"educ":9.1,"educ_score":406.7,"hacin":1.452,"hacin_class":"Hacinamiento Leve","hacin_score":755.0,"auto_score":125.0,"n_per":45,"n_hog":17,"source_year":2024},"geometry":{"type":"MultiPolygon","coordinates":[[[[-71.5485333339999,-34.4632679261193],[-71.5486435409999,-34.4633114821192],[-71.5498207809999,-34.4626985521193],[-71.5496395789999,-34.4621091261192],[-71.5492626769999,-34.4620780671193],[-71.5485719409999,-34.4618994771193],[-71.5485333339999,-34.4632679261193]]],[[[-71.5491357749999,-34.4594968831193],[-71.5477052209999,-34.4595886181193],[-71.5476922669999,-34.4600391051193],[-71.5462571969999,-34.4608997641192],[-71.5461421559999,-34.4613359901193],[-71.5496305689999,-34.4620703901193],[-71.5495127069999,-34.4616510891193],[-71.5472827289999,-34.4611791971192],[-71.5495066189999,-34.4616136421193],[-71.5495016019999,-34.4607918101193],[-71.5491357749999,-34.4594968831193]]]]}}]}