{"type":"FeatureCollection","features":[{"type":"Feature","properties":{"id":"9113011001004","commune":"Perquenco","code":"09113","gse":"C3","quintil":"Q3","nse_score":704.2,"educ":11.3,"educ_score":553.3,"hacin":1.231,"hacin_class":"Hacinamiento Leve","hacin_score":802.0,"auto_score":269.2,"n_per":64,"n_hog":25,"source_year":2024,"crime_score":0.0672,"crime_nivel":"Bajo","crime_color":"#cddc39"},"geometry":{"type":"Polygon","coordinates":[[[-72.3794787699999,-38.4157827120812],[-72.3788452239999,-38.4149033410812],[-72.3776693269999,-38.4153982270811],[-72.3783146999999,-38.4162988550811],[-72.3794787699999,-38.4157827120812]]]}},{"type":"Feature","properties":{"id":"9113011001005","commune":"Perquenco","code":"09113","gse":"D","quintil":"Q1","nse_score":614.0,"educ":10.2,"educ_score":480.0,"hacin":1.357,"hacin_class":"Hacinamiento Leve","hacin_score":775.1,"auto_score":105.3,"n_per":38,"n_hog":18,"source_year":2024,"crime_score":0.0696,"crime_nivel":"Bajo","crime_color":"#cddc39"},"geometry":{"type":"Polygon","coordinates":[[[-72.3764510739999,-38.4159039750811],[-72.377086275,-38.4167981850812],[-72.3782200679999,-38.4163258380811],[-72.3775773929999,-38.4154254940811],[-72.3764510739999,-38.4159039750811]]]}},{"type":"Feature","properties":{"id":"9113011001006","commune":"Perquenco","code":"09113","gse":"E","quintil":"Q1","nse_score":603.8,"educ":9.7,"educ_score":446.7,"hacin":1.262,"hacin_class":"Hacinamiento Leve","hacin_score":795.3,"auto_score":134.6,"n_per":130,"n_hog":49,"source_year":2024,"crime_score":0.0732,"crime_nivel":"Bajo","crime_color":"#cddc39"},"geometry":{"type":"Polygon","coordinates":[[[-72.3796024159999,-38.4158704490812],[-72.3836101009999,-38.4215857670811],[-72.3845093259999,-38.4210710930811],[-72.3840135449999,-38.4203631020811],[-72.3837045149999,-38.4210455120811],[-72.3836397199999,-38.4209813120811],[-72.3800202549999,-38.4156869720812],[-72.3796024159999,-38.4158704490812]]]}},{"type":"Feature","properties":{"id":"9113011001008","commune":"Perquenco","code":"09113","gse":"C2","quintil":"Q3","nse_score":720.0,"educ":11.8,"educ_score":586.7,"hacin":1.412,"hacin_class":"Hacinamiento Leve","hacin_score":763.5,"auto_score":250.0,"n_per":48,"n_hog":16,"source_year":2024,"crime_score":0.066,"crime_nivel":"Bajo","crime_color":"#cddc39"},"geometry":{"type":"Polygon","coordinates":[[[-72.3752776849999,-38.4164200130811],[-72.3758536019999,-38.4173236360811],[-72.3769943609999,-38.4168505500811],[-72.376370801,-38.4159503900811],[-72.3752776849999,-38.4164200130811]]]}},{"type":"Feature","properties":{"id":"9113011001009","commune":"Perquenco","code":"09113","gse":"C2","quintil":"Q3","nse_score":719.9,"educ":11.5,"educ_score":566.7,"hacin":1.25,"hacin_class":"Hacinamiento Leve","hacin_score":797.9,"auto_score":76.9,"n_per":30,"n_hog":13,"source_year":2024,"crime_score":0.0655,"crime_nivel":"Bajo","crime_color":"#cddc39"},"geometry":{"type":"Polygon","coordinates":[[[-72.3725279609999,-38.4163614990811],[-72.36817099,-38.4182540920811],[-72.3691691179999,-38.4184789320811],[-72.3709049979999,-38.4202344980811],[-72.3706521679999,-38.4202703810811],[-72.3708273649999,-38.4209047550811],[-72.3722826879999,-38.4203108260811],[-72.3719820439999,-38.4198653650811],[-72.3721375999999,-38.4198003870811],[-72.3724382459999,-38.4202458480811],[-72.3735137419999,-38.4197714610811],[-72.3721486769999,-38.4177944410812],[-72.3731288359999,-38.4172767420812],[-72.3725279609999,-38.4163614990811]]]}},{"type":"Feature","properties":{"id":"9113011001010","commune":"Perquenco","code":"09113","gse":"C2","quintil":"Q4","nse_score":730.9,"educ":11.8,"educ_score":586.7,"hacin":1.0,"hacin_class":"Hacinamiento Leve","hacin_score":851.1,"auto_score":204.5,"n_per":44,"n_hog":22,"source_year":2024,"crime_score":0.0655,"crime_nivel":"Bajo","crime_color":"#cddc39"},"geometry":{"type":"Polygon","coordinates":[[[-72.3782842289999,-38.4164126550811],[-72.3771364649999,-38.4168657640812],[-72.3777686059999,-38.4177592960811],[-72.3789048089999,-38.4172746640811],[-72.3782842289999,-38.4164126550811]]]}},{"type":"Feature","properties":{"id":"9113011001011","commune":"Perquenco","code":"09113","gse":"D","quintil":"Q1","nse_score":636.9,"educ":11.6,"educ_score":573.3,"hacin":1.636,"hacin_class":"Hacinamiento Medio","hacin_score":715.7,"auto_score":214.3,"n_per":36,"n_hog":13,"source_year":2024,"crime_score":0.0687,"crime_nivel":"Bajo","crime_color":"#cddc39"},"geometry":{"type":"Polygon","coordinates":[[[-72.3751637299999,-38.4164885370812],[-72.3740096079999,-38.4170273300811],[-72.3746099259999,-38.4178600050812],[-72.3757696359999,-38.4173756230811],[-72.3751637299999,-38.4164885370812]]]}},{"type":"Feature","properties":{"id":"9113011001012","commune":"Perquenco","code":"09113","gse":"C3","quintil":"Q2","nse_score":679.5,"educ":12.1,"educ_score":606.7,"hacin":1.222,"hacin_class":"Hacinamiento Leve","hacin_score":803.8,"auto_score":239.1,"n_per":66,"n_hog":21,"source_year":2024,"crime_score":0.0681,"crime_nivel":"Bajo","crime_color":"#cddc39"},"geometry":{"type":"Polygon","coordinates":[[[-72.3790783679999,-38.4172516160811],[-72.3797553399999,-38.4183073230811],[-72.3808743559999,-38.4178132840811],[-72.3801661569999,-38.4167701950811],[-72.3790783679999,-38.4172516160811]]]}},{"type":"Feature","properties":{"id":"9113011001013","commune":"Perquenco","code":"09113","gse":"D","quintil":"Q1","nse_score":633.3,"educ":9.9,"educ_score":460.0,"hacin":1.577,"hacin_class":"Hacinamiento Medio","hacin_score":728.3,"auto_score":76.9,"n_per":41,"n_hog":13,"source_year":2024,"crime_score":0.069,"crime_nivel":"Bajo","crime_color":"#cddc39"},"geometry":{"type":"Polygon","coordinates":[[[-72.3759223029999,-38.4173884240812],[-72.3765941069999,-38.4182720510811],[-72.3776993379999,-38.4178048720811],[-72.3770610439999,-38.4169010270812],[-72.3759223029999,-38.4173884240812]]]}},{"type":"Feature","properties":{"id":"9113011001014","commune":"Perquenco","code":"09113","gse":"C3","quintil":"Q3","nse_score":705.8,"educ":11.8,"educ_score":586.7,"hacin":1.333,"hacin_class":"Hacinamiento Leve","hacin_score":780.1,"auto_score":111.1,"n_per":64,"n_hog":27,"source_year":2024,"crime_score":0.0671,"crime_nivel":"Bajo","crime_color":"#cddc39"},"geometry":{"type":"Polygon","coordinates":[[[-72.3730578049999,-38.4173870120812],[-72.3764830909999,-38.4221827950811],[-72.3773012629999,-38.4218424100811],[-72.3760636369999,-38.4200132730811],[-72.3753794629999,-38.4202162590811],[-72.3759976089999,-38.4199106300811],[-72.3752773339999,-38.4189162890811],[-72.3748324949999,-38.4190965460811],[-72.3751992109999,-38.4188220320811],[-72.373950653,-38.4170566630811],[-72.3730578049999,-38.4173870120812]]]}},{"type":"Feature","properties":{"id":"9113011001015","commune":"Perquenco","code":"09113","gse":"D","quintil":"Q1","nse_score":631.4,"educ":10.6,"educ_score":506.7,"hacin":1.194,"hacin_class":"Hacinamiento Leve","hacin_score":809.9,"auto_score":142.9,"n_per":37,"n_hog":13,"source_year":2024,"crime_score":0.069,"crime_nivel":"Bajo","crime_color":"#cddc39"},"geometry":{"type":"Polygon","coordinates":[[[-72.3789575799999,-38.4173240020811],[-72.3778136029999,-38.4178259340811],[-72.3785126209999,-38.4188180070811],[-72.3796662199999,-38.4183476780811],[-72.3789575799999,-38.4173240020811]]]}},{"type":"Feature","properties":{"id":"9113011001016","commune":"Perquenco","code":"09113","gse":"D","quintil":"Q2","nse_score":647.3,"educ":9.9,"educ_score":460.0,"hacin":0.875,"hacin_class":"Sin Hacinamiento","hacin_score":877.7,"auto_score":71.4,"n_per":42,"n_hog":21,"source_year":2024,"crime_score":0.0685,"crime_nivel":"Bajo","crime_color":"#cddc39"},"geometry":{"type":"Polygon","coordinates":[[[-72.372234192,-38.4177353360812],[-72.3749110909999,-38.4216083260811],[-72.3757876509999,-38.4212241030811],[-72.3730578049999,-38.4173870120812],[-72.372234192,-38.4177353360812]]]}},{"type":"Feature","properties":{"id":"9113011001017","commune":"Perquenco","code":"09113","gse":"C2","quintil":"Q4","nse_score":751.0,"educ":12.8,"educ_score":653.3,"hacin":1.316,"hacin_class":"Hacinamiento Leve","hacin_score":783.9,"auto_score":90.9,"n_per":25,"n_hog":11,"source_year":2024,"crime_score":0.0642,"crime_nivel":"Bajo","crime_color":"#cddc39"},"geometry":{"type":"Polygon","coordinates":[[[-72.3758255029999,-38.4174361880811],[-72.374703554,-38.4179871630812],[-72.3752868539999,-38.4187969700811],[-72.3764472159999,-38.4183199180812],[-72.3758255029999,-38.4174361880811]]]}},{"type":"Feature","properties":{"id":"9113011001018","commune":"Perquenco","code":"09113","gse":"C3","quintil":"Q3","nse_score":689.5,"educ":11.9,"educ_score":593.3,"hacin":1.532,"hacin_class":"Hacinamiento Medio","hacin_score":737.9,"auto_score":57.7,"n_per":72,"n_hog":23,"source_year":2024,"crime_score":0.068,"crime_nivel":"Bajo","crime_color":"#cddc39"},"geometry":{"type":"Polygon","coordinates":[[[-72.3772942459999,-38.4193487870811],[-72.378441946,-38.4188567900811],[-72.3777449709999,-38.4178437690811],[-72.3765954289999,-38.4183345900811],[-72.3772942459999,-38.4193487870811]]]}},{"type":"Feature","properties":{"id":"9113011001019","commune":"Perquenco","code":"09113","gse":"D","quintil":"Q2","nse_score":644.3,"educ":10.9,"educ_score":526.7,"hacin":0.818,"hacin_class":"Sin Hacinamiento","hacin_score":889.7,"auto_score":0.0,"n_per":9,"n_hog":5,"source_year":2024,"crime_score":0.0675,"crime_nivel":"Bajo","crime_color":"#cddc39"},"geometry":{"type":"Polygon","coordinates":[[[-72.3804425949999,-38.4192543580811],[-72.3815474789999,-38.4188013430811],[-72.3809437929999,-38.4178984780811],[-72.3797913509999,-38.4183821780811],[-72.3804425949999,-38.4192543580811]]]}},{"type":"Feature","properties":{"id":"9113011001020","commune":"Perquenco","code":"09113","gse":"C2","quintil":"Q4","nse_score":751.2,"educ":13.5,"educ_score":700.0,"hacin":1.065,"hacin_class":"Hacinamiento Leve","hacin_score":837.3,"auto_score":66.7,"n_per":33,"n_hog":16,"source_year":2024,"crime_score":0.0644,"crime_nivel":"Bajo","crime_color":"#cddc39"},"geometry":{"type":"Polygon","coordinates":[[[-72.3760639019999,-38.4198855390811],[-72.3772073039999,-38.4194056440811],[-72.3764843429999,-38.4183850030811],[-72.3753691269999,-38.4188576330811],[-72.3760639019999,-38.4198855390811]]]}},{"type":"Feature","properties":{"id":"9113011001021","commune":"Perquenco","code":"09113","gse":"D","quintil":"Q1","nse_score":636.6,"educ":10.5,"educ_score":500.0,"hacin":1.0,"hacin_class":"Hacinamiento Leve","hacin_score":851.1,"auto_score":125.0,"n_per":39,"n_hog":16,"source_year":2024,"crime_score":0.0688,"crime_nivel":"Bajo","crime_color":"#cddc39"},"geometry":{"type":"Polygon","coordinates":[[[-72.3797280729999,-38.4184123230811],[-72.3785751979999,-38.4188962700811],[-72.3791874139999,-38.4197697090811],[-72.3803243999999,-38.4193018950811],[-72.3797280729999,-38.4184123230811]]]}},{"type":"Feature","properties":{"id":"9113011001022","commune":"Perquenco","code":"09113","gse":"C3","quintil":"Q3","nse_score":710.3,"educ":12.2,"educ_score":613.3,"hacin":1.37,"hacin_class":"Hacinamiento Leve","hacin_score":772.3,"auto_score":125.0,"n_per":37,"n_hog":12,"source_year":2024,"crime_score":0.0661,"crime_nivel":"Bajo","crime_color":"#cddc39"},"geometry":{"type":"Polygon","coordinates":[[[-72.3815952219999,-38.4188538920811],[-72.3812195109999,-38.4190105830811],[-72.3815463939999,-38.4195184950811],[-72.3808404389999,-38.4198222420811],[-72.3810559549999,-38.4201768210811],[-72.3821667589999,-38.4197023290811],[-72.3815952219999,-38.4188538920811]]]}},{"type":"Feature","properties":{"id":"9113011001023","commune":"Perquenco","code":"09113","gse":"C3","quintil":"Q2","nse_score":667.2,"educ":11.6,"educ_score":573.3,"hacin":1.077,"hacin_class":"Hacinamiento Leve","hacin_score":834.7,"auto_score":93.8,"n_per":42,"n_hog":15,"source_year":2024,"crime_score":0.0678,"crime_nivel":"Bajo","crime_color":"#cddc39"},"geometry":{"type":"Polygon","coordinates":[[[-72.3785072469999,-38.4189208030811],[-72.3773652059999,-38.4194599300811],[-72.3779725069999,-38.4202962080811],[-72.3790988709999,-38.4198207340811],[-72.3785072469999,-38.4189208030811]]]}},{"type":"Feature","properties":{"id":"9113011001024","commune":"Perquenco","code":"09113","gse":"D","quintil":"Q2","nse_score":658.1,"educ":11.4,"educ_score":560.0,"hacin":1.19,"hacin_class":"Hacinamiento Leve","hacin_score":810.5,"auto_score":136.4,"n_per":25,"n_hog":10,"source_year":2024,"crime_score":0.0676,"crime_nivel":"Bajo","crime_color":"#cddc39"},"geometry":{"type":"Polygon","coordinates":[[[-72.3807807819999,-38.4197871790811],[-72.3814863529999,-38.4194940750811],[-72.3811707129999,-38.4190208530811],[-72.3804633839999,-38.4193162370811],[-72.3807807819999,-38.4197871790811]]]}},{"type":"Feature","properties":{"id":"9113011001025","commune":"Perquenco","code":"09113","gse":"C2","quintil":"Q4","nse_score":740.7,"educ":11.7,"educ_score":580.0,"hacin":1.16,"hacin_class":"Hacinamiento Leve","hacin_score":817.0,"auto_score":181.8,"n_per":29,"n_hog":11,"source_year":2024,"crime_score":0.0647,"crime_nivel":"Bajo","crime_color":"#cddc39"},"geometry":{"type":"Polygon","coordinates":[[[-72.3798355769999,-38.4207193650811],[-72.3810040989999,-38.4202545490811],[-72.3803798369999,-38.4193584770811],[-72.3792535309999,-38.4198319900811],[-72.3798355769999,-38.4207193650811]]]}},{"type":"Feature","properties":{"id":"9113011001026","commune":"Perquenco","code":"09113","gse":"C3","quintil":"Q2","nse_score":670.1,"educ":11.6,"educ_score":573.3,"hacin":1.227,"hacin_class":"Hacinamiento Leve","hacin_score":802.7,"auto_score":45.5,"n_per":27,"n_hog":10,"source_year":2024,"crime_score":0.0672,"crime_nivel":"Bajo","crime_color":"#cddc39"},"geometry":{"type":"Polygon","coordinates":[[[-72.3772567869999,-38.4194689930811],[-72.3761385129999,-38.4199956970811],[-72.3767448769999,-38.4208241450811],[-72.3778853039999,-38.4203457020811],[-72.3772567869999,-38.4194689930811]]]}},{"type":"Feature","properties":{"id":"9113011001027","commune":"Perquenco","code":"09113","gse":"E","quintil":"Q1","nse_score":608.4,"educ":9.6,"educ_score":440.0,"hacin":1.292,"hacin_class":"Hacinamiento Leve","hacin_score":789.0,"auto_score":130.4,"n_per":62,"n_hog":23,"source_year":2024,"crime_score":0.0707,"crime_nivel":"Bajo","crime_color":"#cddc39"},"geometry":{"type":"Polygon","coordinates":[[[-72.3822256049999,-38.4197663830811],[-72.3811453409999,-38.4202344340811],[-72.3813484649999,-38.4206191930811],[-72.3824870349999,-38.4201508530811],[-72.3822256049999,-38.4197663830811]]]}},{"type":"Feature","properties":{"id":"9113011001028","commune":"Perquenco","code":"09113","gse":"C2","quintil":"Q4","nse_score":734.0,"educ":13.0,"educ_score":666.7,"hacin":1.4,"hacin_class":"Hacinamiento Leve","hacin_score":766.0,"auto_score":187.5,"n_per":21,"n_hog":8,"source_year":2024,"crime_score":0.0647,"crime_nivel":"Bajo","crime_color":"#cddc39"},"geometry":{"type":"Polygon","coordinates":[[[-72.3724315279999,-38.4203150030811],[-72.3730743149999,-38.4212349990811],[-72.3742130219999,-38.4207267890811],[-72.3735964979999,-38.4198596690811],[-72.3724315279999,-38.4203150030811]]]}},{"type":"Feature","properties":{"id":"9113011001029","commune":"Perquenco","code":"09113","gse":"C3","quintil":"Q3","nse_score":710.4,"educ":11.2,"educ_score":546.7,"hacin":1.033,"hacin_class":"Hacinamiento Leve","hacin_score":844.0,"auto_score":76.9,"n_per":31,"n_hog":13,"source_year":2024,"crime_score":0.0659,"crime_nivel":"Bajo","crime_color":"#cddc39"},"geometry":{"type":"Polygon","coordinates":[[[-72.3786380369999,-38.4212605710811],[-72.3797747179999,-38.4207672300811],[-72.379160237,-38.4198910940811],[-72.378045643,-38.4203579430811],[-72.3786380369999,-38.4212605710811]]]}},{"type":"Feature","properties":{"id":"9113011001030","commune":"Perquenco","code":"09113","gse":"E","quintil":"Q1","nse_score":572.4,"educ":9.8,"educ_score":453.3,"hacin":1.197,"hacin_class":"Hacinamiento Leve","hacin_score":809.2,"auto_score":51.7,"n_per":73,"n_hog":26,"source_year":2024,"crime_score":0.0724,"crime_nivel":"Bajo","crime_color":"#cddc39"},"geometry":{"type":"Polygon","coordinates":[[[-72.3814022279999,-38.4206402330811],[-72.3817673879999,-38.4211773930811],[-72.3824644719999,-38.4209002070811],[-72.3822620759999,-38.4206186950811],[-72.3819339419999,-38.4207229890811],[-72.3824218249999,-38.4205200840811],[-72.3822989589999,-38.4206022920811],[-72.3824991509999,-38.4208853660811],[-72.3828999689999,-38.4206919320811],[-72.3825431369999,-38.4201686410811],[-72.3814022279999,-38.4206402330811]]]}},{"type":"Feature","properties":{"id":"9113011001031","commune":"Perquenco","code":"09113","gse":"C3","quintil":"Q3","nse_score":703.6,"educ":11.7,"educ_score":580.0,"hacin":1.405,"hacin_class":"Hacinamiento Leve","hacin_score":764.9,"auto_score":157.9,"n_per":59,"n_hog":18,"source_year":2024,"crime_score":0.067,"crime_nivel":"Bajo","crime_color":"#cddc39"},"geometry":{"type":"Polygon","coordinates":[[[-72.3799446549999,-38.4207985810811],[-72.3805307759999,-38.4217109040811],[-72.381688558,-38.4212259940811],[-72.3810690999999,-38.4203232740811],[-72.3799446549999,-38.4207985810811]]]}},{"type":"Feature","properties":{"id":"9113011001032","commune":"Perquenco","code":"09113","gse":"D","quintil":"Q2","nse_score":658.1,"educ":11.5,"educ_score":566.7,"hacin":1.375,"hacin_class":"Hacinamiento Leve","hacin_score":771.3,"auto_score":204.5,"n_per":55,"n_hog":21,"source_year":2024,"crime_score":0.0686,"crime_nivel":"Bajo","crime_color":"#cddc39"},"geometry":{"type":"Polygon","coordinates":[[[-72.3723072289999,-38.4203578340811],[-72.370185509,-38.4212655780811],[-72.3704925959999,-38.4217528370811],[-72.3709472319999,-38.4215911040811],[-72.3712765989999,-38.4220384590811],[-72.3729972509999,-38.4212694350811],[-72.3723072289999,-38.4203578340811]]]}},{"type":"Feature","properties":{"id":"9113011001034","commune":"Perquenco","code":"09113","gse":"C3","quintil":"Q3","nse_score":691.2,"educ":10.6,"educ_score":506.7,"hacin":1.263,"hacin_class":"Hacinamiento Leve","hacin_score":795.1,"auto_score":138.9,"n_per":48,"n_hog":18,"source_year":2024,"crime_score":0.0671,"crime_nivel":"Bajo","crime_color":"#cddc39"},"geometry":{"type":"Polygon","coordinates":[[[-72.3835225019999,-38.4216146150811],[-72.3829309159999,-38.4207519750811],[-72.3818173959999,-38.4212609050811],[-72.3824231679999,-38.4221155030811],[-72.3835225019999,-38.4216146150811]]]}},{"type":"Feature","properties":{"id":"9113011001035","commune":"Perquenco","code":"09113","gse":"C1","quintil":"Q5","nse_score":801.7,"educ":13.4,"educ_score":693.3,"hacin":1.2,"hacin_class":"Hacinamiento Leve","hacin_score":808.5,"auto_score":45.5,"n_per":24,"n_hog":11,"source_year":2024,"crime_score":0.0623,"crime_nivel":"Bajo","crime_color":"#cddc39"},"geometry":{"type":"Polygon","coordinates":[[[-72.3736713609999,-38.4221148810811],[-72.3748249309999,-38.4216327690811],[-72.3742499389999,-38.4207724370811],[-72.3730951279999,-38.4212878350811],[-72.3736713609999,-38.4221148810811]]]}},{"type":"Feature","properties":{"id":"9113011001036","commune":"Perquenco","code":"09113","gse":"D","quintil":"Q1","nse_score":643.3,"educ":10.6,"educ_score":506.7,"hacin":1.454,"hacin_class":"Hacinamiento Leve","hacin_score":754.4,"auto_score":142.9,"n_per":16,"n_hog":7,"source_year":2024,"crime_score":0.0678,"crime_nivel":"Bajo","crime_color":"#cddc39"},"geometry":{"type":"Polygon","coordinates":[[[-72.3798340409999,-38.4208686220811],[-72.3787215859999,-38.4213749150811],[-72.3793412539999,-38.4222332180811],[-72.3804582129999,-38.4217580230811],[-72.3798340409999,-38.4208686220811]]]}},{"type":"Feature","properties":{"id":"9113011001037","commune":"Perquenco","code":"09113","gse":"D","quintil":"Q1","nse_score":622.0,"educ":8.2,"educ_score":346.7,"hacin":1.13,"hacin_class":"Hacinamiento Leve","hacin_score":823.3,"auto_score":0.0,"n_per":26,"n_hog":11,"source_year":2024,"crime_score":0.0689,"crime_nivel":"Bajo","crime_color":"#cddc39"},"geometry":{"type":"Polygon","coordinates":[[[-72.3845312569999,-38.4211024110811],[-72.3836229119999,-38.4216385520811],[-72.3837665099999,-38.4218604340811],[-72.3844615509999,-38.4215562190811],[-72.3837870949999,-38.4218886440811],[-72.3842535029999,-38.4225990910811],[-72.3845933539999,-38.4224703590811],[-72.3854656279999,-38.4224885200811],[-72.3845312569999,-38.4211024110811]]]}},{"type":"Feature","properties":{"id":"9113011001039","commune":"Perquenco","code":"09113","gse":"C3","quintil":"Q2","nse_score":669.6,"educ":10.8,"educ_score":520.0,"hacin":1.25,"hacin_class":"Hacinamiento Leve","hacin_score":797.9,"auto_score":333.3,"n_per":20,"n_hog":8,"source_year":2024,"crime_score":0.067,"crime_nivel":"Bajo","crime_color":"#cddc39"},"geometry":{"type":"Polygon","coordinates":[[[-72.3811831849999,-38.4226341250811],[-72.3823396449999,-38.4221510560811],[-72.3817389809999,-38.4212902260811],[-72.3805932799999,-38.4217900530811],[-72.3811831849999,-38.4226341250811]]]}},{"type":"Feature","properties":{"id":"9113011001040","commune":"Perquenco","code":"09113","gse":"C3","quintil":"Q2","nse_score":675.0,"educ":11.4,"educ_score":560.0,"hacin":1.437,"hacin_class":"Hacinamiento Leve","hacin_score":758.1,"auto_score":118.1,"n_per":171,"n_hog":68,"source_year":2024,"crime_score":0.0718,"crime_nivel":"Bajo","crime_color":"#cddc39"},"geometry":{"type":"Polygon","coordinates":[[[-72.3700536769999,-38.4212973800811],[-72.3683879529999,-38.4219689940811],[-72.3686994409999,-38.4226542520811],[-72.3702480229999,-38.4234451630811],[-72.3716923239999,-38.4237724110811],[-72.3736049269999,-38.4243451220811],[-72.3738958249999,-38.4245354540811],[-72.3750387869999,-38.4241075690811],[-72.3743477829999,-38.4231603390811],[-72.3734406559999,-38.4234920830811],[-72.3743015309999,-38.4230952060811],[-72.3736659659999,-38.4222516830811],[-72.3728779379999,-38.4225603120811],[-72.3736074939999,-38.4222062290811],[-72.3730304379999,-38.4213167540811],[-72.369506526,-38.4228712280811],[-72.3696445129999,-38.4227111330811],[-72.369132282,-38.4219090640811],[-72.369282058,-38.4220275600811],[-72.3697903499999,-38.4218078900811],[-72.3696976219999,-38.4216381980811],[-72.3698731179999,-38.4217740190811],[-72.370293951,-38.4215776800811],[-72.3700536769999,-38.4212973800811]]]}},{"type":"Feature","properties":{"id":"9113011001041","commune":"Perquenco","code":"09113","gse":"C3","quintil":"Q2","nse_score":665.4,"educ":11.0,"educ_score":533.3,"hacin":1.364,"hacin_class":"Hacinamiento Leve","hacin_score":773.7,"auto_score":100.0,"n_per":15,"n_hog":5,"source_year":2024,"crime_score":0.067,"crime_nivel":"Bajo","crime_color":"#cddc39"},"geometry":{"type":"Polygon","coordinates":[[[-72.3786199199999,-38.4213856630811],[-72.3775117739999,-38.4219069990811],[-72.3781239959999,-38.4227664720811],[-72.3792430409999,-38.4222756620811],[-72.3786199199999,-38.4213856630811]]]}},{"type":"Feature","properties":{"id":"9113011001042","commune":"Perquenco","code":"09113","gse":"C3","quintil":"Q2","nse_score":672.7,"educ":11.4,"educ_score":560.0,"hacin":1.512,"hacin_class":"Hacinamiento Medio","hacin_score":742.2,"auto_score":130.4,"n_per":65,"n_hog":21,"source_year":2024,"crime_score":0.0684,"crime_nivel":"Bajo","crime_color":"#cddc39"},"geometry":{"type":"Polygon","coordinates":[[[-72.3704824569999,-38.4219263260811],[-72.3703162469999,-38.4216368650811],[-72.3692786549999,-38.4220972800811],[-72.3694982809999,-38.4223552180811],[-72.3704824569999,-38.4219263260811]]]}},{"type":"Feature","properties":{"id":"9113011001043","commune":"Perquenco","code":"09113","gse":"D","quintil":"Q2","nse_score":656.7,"educ":11.4,"educ_score":560.0,"hacin":1.783,"hacin_class":"Hacinamiento Medio","hacin_score":684.6,"auto_score":90.9,"n_per":41,"n_hog":10,"source_year":2024,"crime_score":0.0682,"crime_nivel":"Bajo","crime_color":"#cddc39"},"geometry":{"type":"Polygon","coordinates":[[[-72.3835805319999,-38.4216570920811],[-72.3824588579999,-38.4221846940811],[-72.3830541909999,-38.4230597400811],[-72.3842105619999,-38.4226167770811],[-72.3835805319999,-38.4216570920811]]]}},{"type":"Feature","properties":{"id":"9113011001044","commune":"Perquenco","code":"09113","gse":"C3","quintil":"Q3","nse_score":688.1,"educ":11.5,"educ_score":566.7,"hacin":1.76,"hacin_class":"Hacinamiento Medio","hacin_score":689.4,"auto_score":0.0,"n_per":44,"n_hog":10,"source_year":2024,"crime_score":0.0671,"crime_nivel":"Bajo","crime_color":"#cddc39"},"geometry":{"type":"Polygon","coordinates":[[[-72.3712250219999,-38.4220679420811],[-72.3709384779999,-38.4216652870811],[-72.3705521799999,-38.4218042800811],[-72.3708265189999,-38.4221980080811],[-72.3712250219999,-38.4220679420811]]]}},{"type":"Feature","properties":{"id":"9113011001045","commune":"Perquenco","code":"09113","gse":"C3","quintil":"Q3","nse_score":694.1,"educ":11.4,"educ_score":560.0,"hacin":1.25,"hacin_class":"Hacinamiento Leve","hacin_score":797.9,"auto_score":115.4,"n_per":30,"n_hog":12,"source_year":2024,"crime_score":0.0664,"crime_nivel":"Bajo","crime_color":"#cddc39"},"geometry":{"type":"Polygon","coordinates":[[[-72.3737793249999,-38.4221883690811],[-72.3743972589999,-38.4230677740811],[-72.3754996819999,-38.4225843140811],[-72.374872379,-38.4216986720811],[-72.3737793249999,-38.4221883690811]]]}},{"type":"Feature","properties":{"id":"9113011001046","commune":"Perquenco","code":"09113","gse":"C2","quintil":"Q4","nse_score":742.5,"educ":12.1,"educ_score":606.7,"hacin":1.31,"hacin_class":"Hacinamiento Leve","hacin_score":785.0,"auto_score":178.6,"n_per":38,"n_hog":13,"source_year":2024,"crime_score":0.0649,"crime_nivel":"Bajo","crime_color":"#cddc39"},"geometry":{"type":"Polygon","coordinates":[[[-72.3793915859999,-38.4223397200811],[-72.3800032649999,-38.4231734990811],[-72.3811413379999,-38.4226959640811],[-72.3805018999999,-38.4218199690811],[-72.3793915859999,-38.4223397200811]]]}},{"type":"Feature","properties":{"id":"9113011001047","commune":"Perquenco","code":"09113","gse":"D","quintil":"Q2","nse_score":659.7,"educ":10.9,"educ_score":526.7,"hacin":1.294,"hacin_class":"Hacinamiento Leve","hacin_score":788.5,"auto_score":62.5,"n_per":22,"n_hog":7,"source_year":2024,"crime_score":0.0674,"crime_nivel":"Bajo","crime_color":"#cddc39"},"geometry":{"type":"Polygon","coordinates":[[[-72.3767810889999,-38.4221295340811],[-72.3773938539999,-38.4230852860811],[-72.3780319139999,-38.4228133370811],[-72.3774153979999,-38.4219040700811],[-72.3767810889999,-38.4221295340811]]]}},{"type":"Feature","properties":{"id":"9113011001048","commune":"Perquenco","code":"09113","gse":"C3","quintil":"Q2","nse_score":673.8,"educ":10.9,"educ_score":526.7,"hacin":1.4,"hacin_class":"Hacinamiento Leve","hacin_score":766.0,"auto_score":238.1,"n_per":56,"n_hog":21,"source_year":2024,"crime_score":0.068,"crime_nivel":"Bajo","crime_color":"#cddc39"},"geometry":{"type":"Polygon","coordinates":[[[-72.3707191159999,-38.4222877350811],[-72.3705082659999,-38.4219665490811],[-72.3695313829999,-38.4224412290811],[-72.3698108849999,-38.4226762060811],[-72.3707191159999,-38.4222877350811]]]}},{"type":"Feature","properties":{"id":"9113011001050","commune":"Perquenco","code":"09113","gse":"C3","quintil":"Q3","nse_score":700.8,"educ":11.2,"educ_score":546.7,"hacin":1.323,"hacin_class":"Hacinamiento Leve","hacin_score":782.4,"auto_score":315.8,"n_per":41,"n_hog":19,"source_year":2024,"crime_score":0.0665,"crime_nivel":"Bajo","crime_color":"#cddc39"},"geometry":{"type":"Polygon","coordinates":[[[-72.3823922259999,-38.4222164860811],[-72.3812622479999,-38.4227338940811],[-72.3818611739999,-38.4235890120811],[-72.3829999779999,-38.4231036950811],[-72.3823922259999,-38.4222164860811]]]}},{"type":"Feature","properties":{"id":"9113011001052","commune":"Perquenco","code":"09113","gse":"D","quintil":"Q1","nse_score":619.6,"educ":9.5,"educ_score":433.3,"hacin":1.0,"hacin_class":"Hacinamiento Leve","hacin_score":851.1,"auto_score":0.0,"n_per":25,"n_hog":11,"source_year":2024,"crime_score":0.069,"crime_nivel":"Bajo","crime_color":"#cddc39"},"geometry":{"type":"Polygon","coordinates":[[[-72.3781746769999,-38.4228644380811],[-72.3787927219999,-38.4236893780811],[-72.3799184689999,-38.4232051090811],[-72.3793056629999,-38.4223456370811],[-72.3781746769999,-38.4228644380811]]]}},{"type":"Feature","properties":{"id":"9113011001053","commune":"Perquenco","code":"09113","gse":"D","quintil":"Q1","nse_score":613.3,"educ":8.7,"educ_score":380.0,"hacin":1.255,"hacin_class":"Hacinamiento Leve","hacin_score":796.8,"auto_score":166.7,"n_per":64,"n_hog":25,"source_year":2024,"crime_score":0.0706,"crime_nivel":"Bajo","crime_color":"#cddc39"},"geometry":{"type":"Polygon","coordinates":[[[-72.3843202929999,-38.4226164100811],[-72.3849107249999,-38.4235015340811],[-72.3852124789999,-38.4233870440811],[-72.3849470089999,-38.4235550260811],[-72.3851486099999,-38.4238429750811],[-72.3848892809999,-38.4235800380811],[-72.382613251,-38.4246381500811],[-72.3834701369999,-38.4252126260811],[-72.3864823899999,-38.4238915740811],[-72.3854914409999,-38.4225241400811],[-72.384619342,-38.4225060510811],[-72.3843202929999,-38.4226164100811]]]}},{"type":"Feature","properties":{"id":"9113011001055","commune":"Perquenco","code":"09113","gse":"C3","quintil":"Q3","nse_score":704.9,"educ":10.5,"educ_score":500.0,"hacin":1.308,"hacin_class":"Hacinamiento Leve","hacin_score":785.6,"auto_score":153.8,"n_per":34,"n_hog":13,"source_year":2024,"crime_score":0.0662,"crime_nivel":"Bajo","crime_color":"#cddc39"},"geometry":{"type":"Polygon","coordinates":[[[-72.3837882879999,-38.4239860440811],[-72.3848631079999,-38.4235407370811],[-72.3842437949999,-38.4226680430811],[-72.3831216789999,-38.4231325650811],[-72.3837882879999,-38.4239860440811]]]}},{"type":"Feature","properties":{"id":"9113011001056","commune":"Perquenco","code":"09113","gse":"E","quintil":"Q1","nse_score":563.8,"educ":9.1,"educ_score":406.7,"hacin":1.48,"hacin_class":"Hacinamiento Leve","hacin_score":748.9,"auto_score":58.8,"n_per":37,"n_hog":15,"source_year":2024,"crime_score":0.0715,"crime_nivel":"Bajo","crime_color":"#cddc39"},"geometry":{"type":"Polygon","coordinates":[[[-72.3800831999999,-38.4232135990811],[-72.3806845149999,-38.4241232980811],[-72.3817983259999,-38.4236385860811],[-72.3811757389999,-38.4227455410811],[-72.3800831999999,-38.4232135990811]]]}},{"type":"Feature","properties":{"id":"9113011001058","commune":"Perquenco","code":"09113","gse":"D","quintil":"Q2","nse_score":654.8,"educ":10.4,"educ_score":493.3,"hacin":1.259,"hacin_class":"Hacinamiento Leve","hacin_score":795.9,"auto_score":62.5,"n_per":34,"n_hog":15,"source_year":2024,"crime_score":0.068,"crime_nivel":"Bajo","crime_color":"#cddc39"},"geometry":{"type":"Polygon","coordinates":[[[-72.3825439089999,-38.4245439410811],[-72.3836917689999,-38.4240469570811],[-72.3830650019999,-38.4231795780811],[-72.3819324199999,-38.4236626110811],[-72.3825439089999,-38.4245439410811]]]}},{"type":"Feature","properties":{"id":"9113011001059","commune":"Perquenco","code":"09113","gse":"C3","quintil":"Q3","nse_score":686.0,"educ":11.7,"educ_score":580.0,"hacin":1.119,"hacin_class":"Hacinamiento Leve","hacin_score":825.7,"auto_score":250.0,"n_per":47,"n_hog":16,"source_year":2024,"crime_score":0.0673,"crime_nivel":"Bajo","crime_color":"#cddc39"},"geometry":{"type":"Polygon","coordinates":[[[-72.3788293909999,-38.4237384810811],[-72.3795031809999,-38.4246620840811],[-72.3805906279999,-38.4241693500811],[-72.3799473829999,-38.4232727940811],[-72.3788293909999,-38.4237384810811]]]}},{"type":"Feature","properties":{"id":"9113011001060","commune":"Perquenco","code":"09113","gse":"C2","quintil":"Q4","nse_score":727.0,"educ":12.2,"educ_score":613.3,"hacin":1.24,"hacin_class":"Hacinamiento Leve","hacin_score":800.0,"auto_score":208.3,"n_per":31,"n_hog":12,"source_year":2024,"crime_score":0.0652,"crime_nivel":"Bajo","crime_color":"#cddc39"},"geometry":{"type":"Polygon","coordinates":[[[-72.3769791819999,-38.4244422200811],[-72.3775468139999,-38.4242024330811],[-72.3769585639999,-38.4233279040811],[-72.3763370039999,-38.4236179520811],[-72.3769791819999,-38.4244422200811]]]}},{"type":"Feature","properties":{"id":"9113011001061","commune":"Perquenco","code":"09113","gse":"C3","quintil":"Q3","nse_score":684.0,"educ":11.2,"educ_score":546.7,"hacin":1.212,"hacin_class":"Hacinamiento Leve","hacin_score":805.9,"auto_score":117.6,"n_per":40,"n_hog":17,"source_year":2024,"crime_score":0.0671,"crime_nivel":"Bajo","crime_color":"#cddc39"},"geometry":{"type":"Polygon","coordinates":[[[-72.3757551989999,-38.4250002150811],[-72.3768703599999,-38.4245117610811],[-72.376272991,-38.4236388960811],[-72.3751603969999,-38.4241344860811],[-72.3757551989999,-38.4250002150811]]]}},{"type":"Feature","properties":{"id":"9113011001062","commune":"Perquenco","code":"09113","gse":"D","quintil":"Q2","nse_score":651.1,"educ":10.6,"educ_score":506.7,"hacin":1.5,"hacin_class":"Hacinamiento Medio","hacin_score":744.7,"auto_score":93.8,"n_per":45,"n_hog":16,"source_year":2024,"crime_score":0.0685,"crime_nivel":"Bajo","crime_color":"#cddc39"},"geometry":{"type":"Polygon","coordinates":[[[-72.3813456699999,-38.4250504020811],[-72.3824318309999,-38.4245901420811],[-72.3818440709999,-38.4237217500811],[-72.3807208039999,-38.4242052040811],[-72.3813456699999,-38.4250504020811]]]}},{"type":"Feature","properties":{"id":"9113011001063","commune":"Perquenco","code":"09113","gse":"C3","quintil":"Q3","nse_score":686.1,"educ":11.9,"educ_score":593.3,"hacin":1.364,"hacin_class":"Hacinamiento Leve","hacin_score":773.7,"auto_score":166.7,"n_per":15,"n_hog":6,"source_year":2024,"crime_score":0.0662,"crime_nivel":"Bajo","crime_color":"#cddc39"},"geometry":{"type":"Polygon","coordinates":[[[-72.3781243579999,-38.4240419250811],[-72.3787372649999,-38.4249489800811],[-72.3793842799999,-38.4246988560811],[-72.3787461359999,-38.4237847510811],[-72.3781243579999,-38.4240419250811]]]}},{"type":"Feature","properties":{"id":"9113011001065","commune":"Perquenco","code":"09113","gse":"D","quintil":"Q2","nse_score":658.9,"educ":11.4,"educ_score":560.0,"hacin":1.32,"hacin_class":"Hacinamiento Leve","hacin_score":783.0,"auto_score":107.1,"n_per":33,"n_hog":13,"source_year":2024,"crime_score":0.0678,"crime_nivel":"Bajo","crime_color":"#cddc39"},"geometry":{"type":"Polygon","coordinates":[[[-72.3801212499999,-38.4255845620811],[-72.3812341119999,-38.4251191550811],[-72.3806529749999,-38.4242496530811],[-72.3795179599999,-38.4247284680811],[-72.3801212499999,-38.4255845620811]]]}},{"type":"Feature","properties":{"id":"9113011001066","commune":"Perquenco","code":"09113","gse":"C3","quintil":"Q3","nse_score":695.1,"educ":10.1,"educ_score":473.3,"hacin":1.054,"hacin_class":"Hacinamiento Leve","hacin_score":839.6,"auto_score":115.4,"n_per":39,"n_hog":13,"source_year":2024,"crime_score":0.0667,"crime_nivel":"Bajo","crime_color":"#cddc39"},"geometry":{"type":"Polygon","coordinates":[[[-72.377029262,-38.4245278000811],[-72.3776683209999,-38.4254175660811],[-72.3782757949999,-38.4251902650811],[-72.3776172399999,-38.4242871620811],[-72.377029262,-38.4245278000811]]]}},{"type":"Feature","properties":{"id":"9113011001067","commune":"Perquenco","code":"09113","gse":"C3","quintil":"Q3","nse_score":695.4,"educ":10.5,"educ_score":500.0,"hacin":1.083,"hacin_class":"Hacinamiento Leve","hacin_score":833.3,"auto_score":136.4,"n_per":26,"n_hog":11,"source_year":2024,"crime_score":0.0662,"crime_nivel":"Bajo","crime_color":"#cddc39"},"geometry":{"type":"Polygon","coordinates":[[[-72.3749028039999,-38.427972423081],[-72.3749944799999,-38.4278434390811],[-72.3748439699999,-38.427461700081],[-72.3749392809999,-38.4273755520811],[-72.3758053539999,-38.4270355150811],[-72.3761205309999,-38.4274083300811],[-72.3770190809999,-38.426946044081],[-72.3763961069999,-38.4260537660811],[-72.3758691799999,-38.4262397220811],[-72.37634048,-38.4259672260811],[-72.3757316259999,-38.4250845240811],[-72.3751519889999,-38.4253062900811],[-72.3746678269999,-38.4247168580811],[-72.3740962459999,-38.4245844620811],[-72.3738827689999,-38.4246749300811],[-72.3740524879999,-38.4245461400811],[-72.3734339999999,-38.4242939390811],[-72.3749028039999,-38.427972423081]]]}},{"type":"Feature","properties":{"id":"9113011001068","commune":"Perquenco","code":"09113","gse":"C3","quintil":"Q3","nse_score":697.3,"educ":11.3,"educ_score":553.3,"hacin":1.286,"hacin_class":"Hacinamiento Leve","hacin_score":790.3,"auto_score":166.7,"n_per":45,"n_hog":17,"source_year":2024,"crime_score":0.0668,"crime_nivel":"Bajo","crime_color":"#cddc39"},"geometry":{"type":"Polygon","coordinates":[[[-72.3764313409999,-38.4259523650811],[-72.377541075,-38.4254738390811],[-72.3769381829999,-38.4245825460811],[-72.3757872399999,-38.4250489310811],[-72.3764313409999,-38.4259523650811]]]}},{"type":"Feature","properties":{"id":"9113011001069","commune":"Perquenco","code":"09113","gse":"C3","quintil":"Q2","nse_score":682.4,"educ":11.1,"educ_score":540.0,"hacin":1.274,"hacin_class":"Hacinamiento Leve","hacin_score":792.8,"auto_score":173.5,"n_per":121,"n_hog":46,"source_year":2024,"crime_score":0.0698,"crime_nivel":"Bajo","crime_color":"#cddc39"},"geometry":{"type":"Polygon","coordinates":[[[-72.3805860489999,-38.4275589600811],[-72.3855835789999,-38.429916699081],[-72.3880263749999,-38.428834361081],[-72.3875250139999,-38.428346376081],[-72.3851217559999,-38.4293770950811],[-72.387495784,-38.428317926081],[-72.3871321029999,-38.4279917360811],[-72.3843995899999,-38.429250745081],[-72.3871006999999,-38.4279644630811],[-72.3852305639999,-38.4265263180811],[-72.3824654779999,-38.4246458460811],[-72.3794613389999,-38.425959624081],[-72.3805860489999,-38.4275589600811]]]}},{"type":"Feature","properties":{"id":"9113011001070","commune":"Perquenco","code":"09113","gse":"C1","quintil":"Q5","nse_score":782.7,"educ":12.9,"educ_score":660.0,"hacin":1.182,"hacin_class":"Hacinamiento Leve","hacin_score":812.4,"auto_score":0.0,"n_per":13,"n_hog":4,"source_year":2024,"crime_score":0.0626,"crime_nivel":"Bajo","crime_color":"#cddc39"},"geometry":{"type":"Polygon","coordinates":[[[-72.3793997989999,-38.4259035730811],[-72.3800372059999,-38.4256344390811],[-72.3794094399999,-38.4247638210811],[-72.3787737999999,-38.4250338470811],[-72.3793997989999,-38.4259035730811]]]}},{"type":"Feature","properties":{"id":"9113011001072","commune":"Perquenco","code":"09113","gse":"E","quintil":"Q1","nse_score":526.3,"educ":8.5,"educ_score":366.7,"hacin":1.633,"hacin_class":"Hacinamiento Medio","hacin_score":716.3,"auto_score":58.8,"n_per":49,"n_hog":15,"source_year":2024,"crime_score":0.0733,"crime_nivel":"Bajo","crime_color":"#cddc39"},"geometry":{"type":"Polygon","coordinates":[[[-72.3783979399999,-38.4264397150811],[-72.379027935,-38.4261570100811],[-72.3783117659999,-38.4252267030811],[-72.3777114219999,-38.4255174330811],[-72.3783979399999,-38.4264397150811]]]}},{"type":"Feature","properties":{"id":"9113011001073","commune":"Perquenco","code":"09113","gse":"E","quintil":"Q1","nse_score":574.4,"educ":11.1,"educ_score":540.0,"hacin":1.538,"hacin_class":"Hacinamiento Medio","hacin_score":736.5,"auto_score":62.5,"n_per":20,"n_hog":6,"source_year":2024,"crime_score":0.0705,"crime_nivel":"Bajo","crime_color":"#cddc39"},"geometry":{"type":"Polygon","coordinates":[[[-72.3771526689999,-38.4269539900811],[-72.3782335789999,-38.4264855220811],[-72.3776266929999,-38.4255315620811],[-72.3764807459999,-38.4260124920811],[-72.3771526689999,-38.4269539900811]]]}},{"type":"Feature","properties":{"id":"9113011001074","commune":"Perquenco","code":"09113","gse":"D","quintil":"Q2","nse_score":657.9,"educ":10.6,"educ_score":506.7,"hacin":1.502,"hacin_class":"Hacinamiento Medio","hacin_score":744.2,"auto_score":123.0,"n_per":344,"n_hog":117,"source_year":2024,"crime_score":0.0768,"crime_nivel":"Bajo","crime_color":"#cddc39"},"geometry":{"type":"Polygon","coordinates":[[[-72.3812716729999,-38.429273150081],[-72.381073463,-38.429131936081],[-72.3804390939999,-38.4293988790811],[-72.3805686859999,-38.4295721940811],[-72.3803885709999,-38.429447908081],[-72.3796349129999,-38.4297824550811],[-72.3803432149999,-38.429392281081],[-72.3800903539999,-38.429007638081],[-72.3788955029999,-38.4295533540811],[-72.378526727,-38.4290935660811],[-72.3780970639999,-38.429276894081],[-72.3782652049999,-38.429524842081],[-72.3780668699999,-38.4292897760811],[-72.3775850589999,-38.429495349081],[-72.3785271239999,-38.4290258340811],[-72.3782517179999,-38.4287102700811],[-72.377378157,-38.4290921240811],[-72.3782606059999,-38.428631931081],[-72.3780067939999,-38.4283285810811],[-72.3771097309999,-38.4286621110811],[-72.3779898779999,-38.4282539220811],[-72.3777233359999,-38.4279697900811],[-72.3769562949999,-38.4283021380811],[-72.3777174449999,-38.427889801081],[-72.3774597679999,-38.4275353000811],[-72.3766527749999,-38.4278652640811],[-72.3774071969999,-38.4274650660811],[-72.3770834379999,-38.4270940000811],[-72.3749628049999,-38.428053983081],[-72.3758304219999,-38.4302454140811],[-72.3765896079999,-38.4298542000811],[-72.37767328,-38.4296622250811],[-72.380915264,-38.4299690440811],[-72.3819483869999,-38.4295751220811],[-72.3793871769999,-38.4260257170811],[-72.3791299439999,-38.4261834800811],[-72.3812716729999,-38.429273150081]]]}},{"type":"Feature","properties":{"id":"9113011001075","commune":"Perquenco","code":"09113","gse":"C3","quintil":"Q2","nse_score":680.2,"educ":10.9,"educ_score":526.7,"hacin":1.33,"hacin_class":"Hacinamiento Leve","hacin_score":780.8,"auto_score":186.3,"n_per":153,"n_hog":51,"source_year":2024,"crime_score":0.071,"crime_nivel":"Bajo","crime_color":"#cddc39"},"geometry":{"type":"Polygon","coordinates":[[[-72.3784394599999,-38.4265587680811],[-72.3796263169999,-38.4282363400811],[-72.3802777739999,-38.4279862490811],[-72.3801039289999,-38.427683626081],[-72.3796271329999,-38.427844830081],[-72.3800831259999,-38.4276553010811],[-72.3798629929999,-38.427335907081],[-72.3793843259999,-38.4274890460811],[-72.3798412629999,-38.4272988430811],[-72.3796347799999,-38.4269935550811],[-72.3791470029999,-38.4271521650811],[-72.3796097599999,-38.426955069081],[-72.3793956439999,-38.4266459810811],[-72.378901546,-38.4268182570811],[-72.3793689809999,-38.4266099400811],[-72.3791095389999,-38.4262365600811],[-72.3784394599999,-38.4265587680811]]]}},{"type":"Feature","properties":{"id":"9113011001076","commune":"Perquenco","code":"09113","gse":"D","quintil":"Q2","nse_score":652.4,"educ":9.6,"educ_score":440.0,"hacin":1.314,"hacin_class":"Hacinamiento Leve","hacin_score":784.2,"auto_score":176.5,"n_per":46,"n_hog":18,"source_year":2024,"crime_score":0.0685,"crime_nivel":"Bajo","crime_color":"#cddc39"},"geometry":{"type":"Polygon","coordinates":[[[-72.3772223719999,-38.4271077080811],[-72.3774919399999,-38.4274784240811],[-72.3786907249999,-38.4270178800811],[-72.3783412209999,-38.4265557480811],[-72.3772223719999,-38.4271077080811]]]}},{"type":"Feature","properties":{"id":"9113011001077","commune":"Perquenco","code":"09113","gse":"D","quintil":"Q2","nse_score":661.6,"educ":10.1,"educ_score":473.3,"hacin":1.362,"hacin_class":"Hacinamiento Leve","hacin_score":774.1,"auto_score":150.0,"n_per":64,"n_hog":20,"source_year":2024,"crime_score":0.0687,"crime_nivel":"Bajo","crime_color":"#cddc39"},"geometry":{"type":"Polygon","coordinates":[[[-72.3787131859999,-38.4270592990811],[-72.3775089979999,-38.4275018810811],[-72.3778006779999,-38.427875435081],[-72.378959844,-38.4273874560811],[-72.3787131859999,-38.4270592990811]]]}},{"type":"Feature","properties":{"id":"9113011001078","commune":"Perquenco","code":"09113","gse":"D","quintil":"Q2","nse_score":649.5,"educ":8.8,"educ_score":386.7,"hacin":1.262,"hacin_class":"Hacinamiento Leve","hacin_score":795.3,"auto_score":250.0,"n_per":53,"n_hog":16,"source_year":2024,"crime_score":0.0688,"crime_nivel":"Bajo","crime_color":"#cddc39"},"geometry":{"type":"Polygon","coordinates":[[[-72.3751348569999,-38.4278322580811],[-72.3759756079999,-38.427474182081],[-72.3757988199999,-38.4270919520811],[-72.3749167909999,-38.4274518030811],[-72.3751348569999,-38.4278322580811]]]}},{"type":"Feature","properties":{"id":"9113011001079","commune":"Perquenco","code":"09113","gse":"C2","quintil":"Q4","nse_score":725.6,"educ":10.8,"educ_score":520.0,"hacin":1.143,"hacin_class":"Hacinamiento Leve","hacin_score":820.7,"auto_score":357.1,"n_per":16,"n_hog":7,"source_year":2024,"crime_score":0.0648,"crime_nivel":"Bajo","crime_color":"#cddc39"},"geometry":{"type":"Polygon","coordinates":[[[-72.3787599149999,-38.4279205830811],[-72.3792011859999,-38.427737850081],[-72.3790028069999,-38.4274581490811],[-72.3785921369999,-38.4276085670811],[-72.3787599149999,-38.4279205830811]]]}},{"type":"Feature","properties":{"id":"9113011001081","commune":"Perquenco","code":"09113","gse":"C3","quintil":"Q2","nse_score":679.3,"educ":10.7,"educ_score":513.3,"hacin":1.119,"hacin_class":"Hacinamiento Leve","hacin_score":825.7,"auto_score":184.2,"n_per":47,"n_hog":18,"source_year":2024,"crime_score":0.0675,"crime_nivel":"Bajo","crime_color":"#cddc39"},"geometry":{"type":"Polygon","coordinates":[[[-72.3781064249999,-38.4282861360811],[-72.3783681939999,-38.428622311081],[-72.3794792179999,-38.4281397600811],[-72.3792101479999,-38.427825650081],[-72.3781064249999,-38.4282861360811]]]}},{"type":"Feature","properties":{"id":"9113011001083","commune":"Perquenco","code":"09113","gse":"C3","quintil":"Q2","nse_score":673.6,"educ":11.0,"educ_score":533.3,"hacin":1.619,"hacin_class":"Hacinamiento Medio","hacin_score":719.4,"auto_score":166.7,"n_per":34,"n_hog":8,"source_year":2024,"crime_score":0.0673,"crime_nivel":"Bajo","crime_color":"#cddc39"},"geometry":{"type":"Polygon","coordinates":[[[-72.3783864819999,-38.428657038081],[-72.3786299269999,-38.429006050081],[-72.3797428069999,-38.428503118081],[-72.3794698999999,-38.428207227081],[-72.3783864819999,-38.428657038081]]]}},{"type":"Feature","properties":{"id":"9113011001084","commune":"Perquenco","code":"09113","gse":"C3","quintil":"Q2","nse_score":670.8,"educ":10.2,"educ_score":480.0,"hacin":1.286,"hacin_class":"Hacinamiento Leve","hacin_score":790.3,"auto_score":83.3,"n_per":27,"n_hog":12,"source_year":2024,"crime_score":0.0672,"crime_nivel":"Bajo","crime_color":"#cddc39"},"geometry":{"type":"Polygon","coordinates":[[[-72.3799160169999,-38.4285582580811],[-72.3801555339999,-38.428962115081],[-72.3807772919999,-38.428697104081],[-72.3804786839999,-38.4283296730811],[-72.3799160169999,-38.4285582580811]]]}},{"type":"Feature","properties":{"id":"9113011001085","commune":"Perquenco","code":"09113","gse":"C3","quintil":"Q3","nse_score":688.0,"educ":10.9,"educ_score":526.7,"hacin":1.439,"hacin_class":"Hacinamiento Leve","hacin_score":757.7,"auto_score":55.6,"n_per":59,"n_hog":17,"source_year":2024,"crime_score":0.0676,"crime_nivel":"Bajo","crime_color":"#cddc39"},"geometry":{"type":"Polygon","coordinates":[[[-72.380036834,-38.4289761470811],[-72.3797411389999,-38.428573106081],[-72.378631503,-38.4290865150811],[-72.378904298,-38.429453811081],[-72.380036834,-38.4289761470811]]]}},{"type":"Feature","properties":{"id":"9113011001086","commune":"Perquenco","code":"09113","gse":"C3","quintil":"Q3","nse_score":684.6,"educ":10.2,"educ_score":480.0,"hacin":1.2,"hacin_class":"Hacinamiento Leve","hacin_score":808.5,"auto_score":150.0,"n_per":30,"n_hog":10,"source_year":2024,"crime_score":0.0668,"crime_nivel":"Bajo","crime_color":"#cddc39"},"geometry":{"type":"Polygon","coordinates":[[[-72.3808183949999,-38.428761600081],[-72.3801989629999,-38.429018469081],[-72.3803911389999,-38.429321706081],[-72.3810250889999,-38.4290661850811],[-72.3808183949999,-38.428761600081]]]}},{"type":"Feature","properties":{"id":"9113011001001","commune":"Perquenco","code":"09113","gse":"C3","quintil":"Q3","nse_score":700.3,"educ":12.0,"educ_score":600.0,"hacin":1.333,"hacin_class":"Hacinamiento Leve","hacin_score":780.1,"auto_score":26.3,"n_per":48,"n_hog":18,"source_year":2024,"crime_score":0.0668,"crime_nivel":"Bajo","crime_color":"#cddc39"},"geometry":{"type":"MultiPolygon","coordinates":[[[[-72.3764930219999,-38.4158261210812],[-72.3781665859999,-38.4151079800812],[-72.3776409209999,-38.4143474790812],[-72.3765872989999,-38.4147882820812],[-72.3764930219999,-38.4158261210812]]],[[[-72.3766702089999,-38.4140822040812],[-72.3741527859999,-38.4149982250811],[-72.3736664419999,-38.4143160270811],[-72.3717617189999,-38.4151474910811],[-72.3721721639999,-38.4157333300812],[-72.3724754219999,-38.4155456510812],[-72.3729677549999,-38.4154175180811],[-72.3721907389999,-38.4157596730812],[-72.3724618489999,-38.4161480740811],[-72.3743876519999,-38.4154214190811],[-72.3724832489999,-38.4161799360812],[-72.3732973669999,-38.4172326180811],[-72.3763601979999,-38.4158866810812],[-72.3766702089999,-38.4140822040812]]]]}},{"type":"Feature","properties":{"id":"9113011001003","commune":"Perquenco","code":"09113","gse":"D","quintil":"Q2","nse_score":660.0,"educ":11.4,"educ_score":560.0,"hacin":1.4,"hacin_class":"Hacinamiento Leve","hacin_score":766.0,"auto_score":343.8,"n_per":49,"n_hog":16,"source_year":2024,"crime_score":0.0683,"crime_nivel":"Bajo","crime_color":"#cddc39"},"geometry":{"type":"MultiPolygon","coordinates":[[[[-72.3789790049999,-38.4172307390811],[-72.3801334109999,-38.4167448850812],[-72.3795558059999,-38.4158965520811],[-72.3783606179999,-38.4163717320812],[-72.3789790049999,-38.4172307390811]]],[[[-72.3795802789999,-38.4158380470812],[-72.3799926559999,-38.4156578530811],[-72.3793332379999,-38.4146596690812],[-72.3788632289999,-38.4148571800812],[-72.3795802789999,-38.4158380470812]]]]}},{"type":"Feature","properties":{"id":"9113011001038","commune":"Perquenco","code":"09113","gse":"C2","quintil":"Q4","nse_score":758.4,"educ":13.6,"educ_score":706.7,"hacin":1.071,"hacin_class":"Hacinamiento Leve","hacin_score":835.9,"auto_score":0.0,"n_per":15,"n_hog":7,"source_year":2024,"crime_score":0.0636,"crime_nivel":"Bajo","crime_color":"#cddc39"},"geometry":{"type":"MultiPolygon","coordinates":[[[[-72.3762761289999,-38.4235345230811],[-72.3769407899999,-38.4232559360811],[-72.3762948679999,-38.4223320200811],[-72.3756515579999,-38.4226331980811],[-72.3762761289999,-38.4235345230811]]],[[[-72.3756013809999,-38.4225311670811],[-72.3764830909999,-38.4221827950811],[-72.3758160259999,-38.4212632150811],[-72.3749388049999,-38.4216477290811],[-72.3756013809999,-38.4225311670811]]]]}},{"type":"Feature","properties":{"id":"9113011001054","commune":"Perquenco","code":"09113","gse":"C3","quintil":"Q3","nse_score":685.7,"educ":12.7,"educ_score":646.7,"hacin":1.667,"hacin_class":"Hacinamiento Medio","hacin_score":709.2,"auto_score":0.0,"n_per":15,"n_hog":6,"source_year":2024,"crime_score":0.0662,"crime_nivel":"Bajo","crime_color":"#cddc39"},"geometry":{"type":"MultiPolygon","coordinates":[[[[-72.3746678269999,-38.4247168580811],[-72.3750388049999,-38.4252557770811],[-72.3756819569999,-38.4250126080811],[-72.3750910729999,-38.4241839250811],[-72.3740962459999,-38.4245844620811],[-72.3746678269999,-38.4247168580811]]],[[[-72.3750961779999,-38.4240684190811],[-72.3762044029999,-38.4236067750811],[-72.375566493,-38.4226693560811],[-72.3744381669999,-38.4231315460811],[-72.3750961779999,-38.4240684190811]]]]}}]}