{"type":"FeatureCollection","features":[{"type":"Feature","properties":{"id":"1405011001001","commune":"Pica","code":"01405","gse":"D","quintil":"Q1","nse_score":527.1,"educ":10.6,"educ_score":506.7,"hacin":1.962,"hacin_class":"Hacinamiento Medio","hacin_score":646.5,"auto_score":260.9,"n_per":102,"n_hog":25,"source_year":2024},"geometry":{"type":"Polygon","coordinates":[[[-69.3130452689999,-20.4738880503809],[-69.3115813679999,-20.4807376333808],[-69.3119938009999,-20.4808395053808],[-69.3127011509999,-20.4776213053809],[-69.3128812169999,-20.4775423693809],[-69.3145871519999,-20.4781480353809],[-69.3137136839999,-20.4778749883809],[-69.3136643209999,-20.4782110183809],[-69.314646207,-20.4785202573809],[-69.3136595149999,-20.4782437313809],[-69.3133619909999,-20.4801401853808],[-69.3130697009999,-20.4804009753808],[-69.3127797309999,-20.4810678823808],[-69.3155742479999,-20.4818050773808],[-69.3160125649999,-20.4797313673808],[-69.3156372179999,-20.4818201283808],[-69.316674997,-20.4820986153808],[-69.3170971209999,-20.4791087823809],[-69.3198483639999,-20.4803420983808],[-69.320100437,-20.4796634423809],[-69.3209184569999,-20.4793053593809],[-69.3213062969999,-20.4786364693808],[-69.3213268939999,-20.4783882013808],[-69.3208993309999,-20.4778130853809],[-69.3209588979999,-20.4774207183809],[-69.3219202159999,-20.4767436263809],[-69.3134097849999,-20.473276070381],[-69.3130452689999,-20.4738880503809]]]}},{"type":"Feature","properties":{"id":"1405011001002","commune":"Pica","code":"01405","gse":"D","quintil":"Q1","nse_score":583.8,"educ":12.0,"educ_score":600.0,"hacin":1.259,"hacin_class":"Hacinamiento Leve","hacin_score":796.0,"auto_score":41.7,"n_per":73,"n_hog":30,"source_year":2024},"geometry":{"type":"Polygon","coordinates":[[[-69.320954749,-20.4777986693809],[-69.3214001599999,-20.4785442963809],[-69.3210284939999,-20.4792769053809],[-69.3201424419999,-20.4797005883808],[-69.3198866669999,-20.4803852353808],[-69.3189958049999,-20.4800297133808],[-69.3188570819999,-20.4803215253808],[-69.3200747599999,-20.4807948413808],[-69.3188414049999,-20.4803544073808],[-69.3185597099999,-20.4809452393808],[-69.3190395979999,-20.4810550113808],[-69.3191903229999,-20.4807230203808],[-69.3192997259999,-20.4806940613808],[-69.3201330649999,-20.4810439113808],[-69.3192503799999,-20.4807281793808],[-69.3190771789999,-20.4810636083808],[-69.3201457829999,-20.4813441273808],[-69.3185437899999,-20.4809786313808],[-69.3182614839999,-20.4815778233808],[-69.3194181439999,-20.4816774153808],[-69.3194850669999,-20.4815421743808],[-69.3194269459999,-20.4816975723808],[-69.3182926689999,-20.4816499273808],[-69.3184381619999,-20.4819794983808],[-69.3191144579999,-20.4822553293808],[-69.3192143619999,-20.4821855503808],[-69.3188058409999,-20.4829775683808],[-69.3188839509999,-20.4830492233808],[-69.3186066489999,-20.4847230723807],[-69.3194523469999,-20.4849744643807],[-69.3194687979999,-20.4853054673807],[-69.3212826219999,-20.4856317393807],[-69.3218075819999,-20.4846782053807],[-69.3205735879999,-20.4840465403807],[-69.3218257149999,-20.4846504073807],[-69.3222039079999,-20.4840701263807],[-69.3215283689999,-20.4837527913807],[-69.3222239709999,-20.4840393353807],[-69.3233707599999,-20.4818675833808],[-69.3214632859999,-20.4809477013808],[-69.3234021399999,-20.4818338303808],[-69.3237552439999,-20.4811713373808],[-69.322365455,-20.4805713063808],[-69.3237706799999,-20.4811422193808],[-69.3238719729999,-20.4809511413808],[-69.3232256109999,-20.4807073983808],[-69.3225246549999,-20.4802661833808],[-69.3238874529999,-20.4809219403808],[-69.3248780459999,-20.4789851783809],[-69.3241864899999,-20.4787097873809],[-69.3248906399999,-20.4789548843809],[-69.3250925649999,-20.4785656983809],[-69.3246181789999,-20.4783549293808],[-69.3251079909999,-20.4785363543808],[-69.3253103069999,-20.4781514873809],[-69.3220000419999,-20.4767743793809],[-69.3210084839999,-20.4774479023809],[-69.320954749,-20.4777986693809]]]}},{"type":"Feature","properties":{"id":"1405011001004","commune":"Pica","code":"01405","gse":"C3","quintil":"Q2","nse_score":672.4,"educ":12.2,"educ_score":613.3,"hacin":1.269,"hacin_class":"Hacinamiento Leve","hacin_score":793.8,"auto_score":611.1,"n_per":33,"n_hog":9,"source_year":2024},"geometry":{"type":"Polygon","coordinates":[[[-69.3179137059999,-20.4803548533808],[-69.3170183219999,-20.4799460993808],[-69.3167121469999,-20.4821095403808],[-69.3180979509999,-20.4826236253807],[-69.318399284,-20.4820016003808],[-69.3182156129999,-20.4815668163808],[-69.3189551379999,-20.4800101763808],[-69.3171341429999,-20.4791508393809],[-69.3170180459999,-20.4798803353809],[-69.3179137059999,-20.4803548533808]]]}},{"type":"Feature","properties":{"id":"1405011001007","commune":"Pica","code":"01405","gse":"C3","quintil":"Q2","nse_score":667.5,"educ":12.0,"educ_score":600.0,"hacin":1.246,"hacin_class":"Hacinamiento Leve","hacin_score":798.8,"auto_score":227.3,"n_per":218,"n_hog":73,"source_year":2024},"geometry":{"type":"Polygon","coordinates":[[[-69.3240430569999,-20.4849129003807],[-69.3235939669999,-20.4856760353807],[-69.3253236419999,-20.4866575273806],[-69.3257932239999,-20.4858121663807],[-69.3253483829999,-20.4866715653807],[-69.3254049379999,-20.4867112893807],[-69.3253689179999,-20.4868955903807],[-69.3266911619999,-20.4875687053806],[-69.3275690419999,-20.4861041223806],[-69.3245015209999,-20.4844335453807],[-69.3259728239999,-20.4813991723808],[-69.3240551999999,-20.4806877203808],[-69.3225388859999,-20.4836425893807],[-69.3240889479999,-20.4844143443807],[-69.3225117879999,-20.4836866363807],[-69.3213224609999,-20.4856657043807],[-69.3225928249999,-20.4865698213807],[-69.325285016,-20.4880944993806],[-69.3258695149999,-20.4871919953806],[-69.3253418979999,-20.4869113843807],[-69.3253745929999,-20.4867180813807],[-69.323563282,-20.4856894203807],[-69.3240430569999,-20.4849129003807]]]}},{"type":"Feature","properties":{"id":"1405011001009","commune":"Pica","code":"01405","gse":"C3","quintil":"Q2","nse_score":676.4,"educ":12.6,"educ_score":640.0,"hacin":1.1,"hacin_class":"Hacinamiento Leve","hacin_score":829.8,"auto_score":142.9,"n_per":11,"n_hog":6,"source_year":2024},"geometry":{"type":"Polygon","coordinates":[[[-69.3181479619999,-20.4826419583807],[-69.3187520249999,-20.4829399773807],[-69.3190954889999,-20.4822780943807],[-69.3184370229999,-20.4820095353808],[-69.3181479619999,-20.4826419583807]]]}},{"type":"Feature","properties":{"id":"1405011001011","commune":"Pica","code":"01405","gse":"D","quintil":"Q2","nse_score":636.9,"educ":12.1,"educ_score":606.7,"hacin":0.889,"hacin_class":"Sin Hacinamiento","hacin_score":874.7,"auto_score":204.5,"n_per":48,"n_hog":22,"source_year":2024},"geometry":{"type":"Polygon","coordinates":[[[-69.3149828549999,-20.4833002903807],[-69.3133872019999,-20.4832063333807],[-69.3134458999999,-20.4835741213807],[-69.3129328589999,-20.4839360573807],[-69.3126818129999,-20.4840022563807],[-69.3134065579999,-20.4835658243807],[-69.3133522599999,-20.4832112033808],[-69.3111155649999,-20.4833450873807],[-69.3109103639999,-20.4835385173807],[-69.3112678499999,-20.4840513113807],[-69.3123608359999,-20.4850863323807],[-69.3144564519999,-20.4864814923807],[-69.3147951629999,-20.4864859753807],[-69.3149284129999,-20.4861718873807],[-69.3147553339999,-20.4855558593807],[-69.3152141279999,-20.4861643523807],[-69.3154730229999,-20.4863159453807],[-69.3155525799999,-20.4862088103807],[-69.3159750659999,-20.4862999733806],[-69.3155691979999,-20.4862494763807],[-69.3155044709999,-20.4863366403807],[-69.3163714439999,-20.4870921253807],[-69.3167174109999,-20.4871706263807],[-69.3168958699999,-20.4869969253806],[-69.3168095429999,-20.4858679043807],[-69.3164790359999,-20.4855409673807],[-69.3164531599999,-20.4852855933807],[-69.3178772319999,-20.4852222043807],[-69.3178604669999,-20.4850481993807],[-69.3171348529999,-20.4849196703807],[-69.3177791409999,-20.4849814073807],[-69.3179562289999,-20.4841264393807],[-69.3149828549999,-20.4833002903807]]]}},{"type":"Feature","properties":{"id":"1405011001015","commune":"Pica","code":"01405","gse":"D","quintil":"Q2","nse_score":623.2,"educ":10.6,"educ_score":506.7,"hacin":1.546,"hacin_class":"Hacinamiento Medio","hacin_score":735.0,"auto_score":0.0,"n_per":17,"n_hog":4,"source_year":2024},"geometry":{"type":"Polygon","coordinates":[[[-69.3298340279999,-20.4851738303807],[-69.3309320249999,-20.4855982703807],[-69.3313449119999,-20.4847090973807],[-69.3302396459999,-20.4842766763807],[-69.3298340279999,-20.4851738303807]]]}},{"type":"Feature","properties":{"id":"1405011001016","commune":"Pica","code":"01405","gse":"D","quintil":"Q1","nse_score":568.3,"educ":10.9,"educ_score":526.7,"hacin":1.188,"hacin_class":"Hacinamiento Leve","hacin_score":811.2,"auto_score":214.3,"n_per":19,"n_hog":12,"source_year":2024},"geometry":{"type":"Polygon","coordinates":[[[-69.3178193039999,-20.4849795893807],[-69.3184673379999,-20.4851143913807],[-69.3185339629999,-20.4847484303807],[-69.3179150759999,-20.4845331033807],[-69.3178193039999,-20.4849795893807]]]}},{"type":"Feature","properties":{"id":"1405011001017","commune":"Pica","code":"01405","gse":"C3","quintil":"Q3","nse_score":696.6,"educ":11.4,"educ_score":560.0,"hacin":1.2,"hacin_class":"Hacinamiento Leve","hacin_score":808.5,"auto_score":100.0,"n_per":30,"n_hog":12,"source_year":2024},"geometry":{"type":"Polygon","coordinates":[[[-69.3289830599999,-20.4867795163807],[-69.3293671569999,-20.4860125693807],[-69.3262631279999,-20.4845353363807],[-69.3259657099999,-20.4851758573807],[-69.3289830599999,-20.4867795163807]]]}},{"type":"Feature","properties":{"id":"1405011001022","commune":"Pica","code":"01405","gse":"C2","quintil":"Q4","nse_score":751.1,"educ":12.5,"educ_score":633.3,"hacin":1.231,"hacin_class":"Hacinamiento Leve","hacin_score":802.0,"auto_score":142.9,"n_per":16,"n_hog":7,"source_year":2024},"geometry":{"type":"Polygon","coordinates":[[[-69.3164917069999,-20.4852785743807],[-69.3165017009999,-20.4855098583807],[-69.3168545859999,-20.4858749763807],[-69.3169601159999,-20.4870349963806],[-69.3172504099999,-20.4873086353806],[-69.3174336289999,-20.4871968003806],[-69.3186603599999,-20.4887038713806],[-69.3191529079999,-20.4895171713806],[-69.3197010959999,-20.4900152853806],[-69.3197458509999,-20.4893757143806],[-69.3194593829999,-20.4888775723806],[-69.3194683279999,-20.4886051923806],[-69.3198013859999,-20.4894830783806],[-69.3197430149999,-20.4901053743806],[-69.3202741099999,-20.4902690803806],[-69.3206738599999,-20.4900692063806],[-69.3211855669999,-20.4901427763806],[-69.3204715359999,-20.4888182053806],[-69.3203675759999,-20.4880015333806],[-69.3205816989999,-20.4877028853806],[-69.3203631709999,-20.4875454953806],[-69.3213516019999,-20.4877017213806],[-69.3214943689999,-20.4873690733807],[-69.3218755589999,-20.4872819853806],[-69.3219122839999,-20.4870023103806],[-69.3214515199999,-20.4862315353807],[-69.3216746129999,-20.4859757803807],[-69.3210564299999,-20.4856188603807],[-69.3193703439999,-20.4853390363807],[-69.3192012349999,-20.4856134793807],[-69.3193180469999,-20.4853192063807],[-69.3164917069999,-20.4852785743807]]]}},{"type":"Feature","properties":{"id":"1405011001026","commune":"Pica","code":"01405","gse":"C3","quintil":"Q2","nse_score":680.1,"educ":11.0,"educ_score":533.3,"hacin":1.316,"hacin_class":"Hacinamiento Leve","hacin_score":783.9,"auto_score":131.6,"n_per":50,"n_hog":19,"source_year":2024},"geometry":{"type":"Polygon","coordinates":[[[-69.3317306779999,-20.4868103833806],[-69.3314813689999,-20.4873353643806],[-69.3324243679999,-20.4877026183807],[-69.3325977729999,-20.4873247773807],[-69.3317306779999,-20.4868103833806]]]}},{"type":"Feature","properties":{"id":"1405011001027","commune":"Pica","code":"01405","gse":"C3","quintil":"Q3","nse_score":715.8,"educ":13.1,"educ_score":673.3,"hacin":1.217,"hacin_class":"Hacinamiento Leve","hacin_score":804.8,"auto_score":325.0,"n_per":56,"n_hog":24,"source_year":2024},"geometry":{"type":"Polygon","coordinates":[[[-69.3217280199999,-20.4873733353806],[-69.3215078639999,-20.4874091273806],[-69.3214039959999,-20.4877287303807],[-69.3206833309999,-20.4876846363806],[-69.3204073839999,-20.4879792143806],[-69.320678772,-20.4893056083806],[-69.3213661169999,-20.4903199613806],[-69.3215031729999,-20.4902514333806],[-69.3214805679999,-20.4898688163806],[-69.3215828339999,-20.4889001953806],[-69.3216776169999,-20.4886344373806],[-69.3215293469999,-20.4902628553806],[-69.3218339189999,-20.4905436313806],[-69.323504855,-20.4914351273805],[-69.3239672289999,-20.4918708053806],[-69.3247397949999,-20.4913304313805],[-69.3252561389999,-20.4911948023805],[-69.3255513199999,-20.4897185123806],[-69.3258115709999,-20.4892201173806],[-69.3250767489999,-20.4887515833806],[-69.3253622379999,-20.4888925313806],[-69.3254517069999,-20.4887440533806],[-69.3237775179999,-20.4877541963807],[-69.3237603859999,-20.4884813603806],[-69.3238841179999,-20.4885803453806],[-69.323787035,-20.4887897383806],[-69.3236719789999,-20.4876840833806],[-69.3232121579999,-20.4874172643806],[-69.3219964629999,-20.4870683143807],[-69.3217280199999,-20.4873733353806]]]}},{"type":"Feature","properties":{"id":"1405011001028","commune":"Pica","code":"01405","gse":"C3","quintil":"Q3","nse_score":705.5,"educ":11.3,"educ_score":553.3,"hacin":1.286,"hacin_class":"Hacinamiento Leve","hacin_score":790.3,"auto_score":235.3,"n_per":45,"n_hog":19,"source_year":2024},"geometry":{"type":"Polygon","coordinates":[[[-69.3253014429999,-20.4881036783807],[-69.3261420839999,-20.4885687583806],[-69.3266656979999,-20.4876171093806],[-69.3258787849999,-20.4872122123806],[-69.3253014429999,-20.4881036783807]]]}},{"type":"Feature","properties":{"id":"1405011001030","commune":"Pica","code":"01405","gse":"D","quintil":"Q2","nse_score":620.4,"educ":11.6,"educ_score":573.3,"hacin":1.63,"hacin_class":"Hacinamiento Medio","hacin_score":716.9,"auto_score":60.0,"n_per":75,"n_hog":27,"source_year":2024},"geometry":{"type":"Polygon","coordinates":[[[-69.3261267319999,-20.4886396563806],[-69.3236908579999,-20.4872568423807],[-69.3235281029999,-20.4874624273807],[-69.325929002,-20.4889570863806],[-69.3261267319999,-20.4886396563806]]]}},{"type":"Feature","properties":{"id":"1405011001031","commune":"Pica","code":"01405","gse":"D","quintil":"Q1","nse_score":583.8,"educ":10.1,"educ_score":473.3,"hacin":1.474,"hacin_class":"Hacinamiento Leve","hacin_score":750.3,"auto_score":166.7,"n_per":112,"n_hog":46,"source_year":2024},"geometry":{"type":"Polygon","coordinates":[[[-69.3287490679999,-20.4873179063806],[-69.3282180909999,-20.4883997283806],[-69.3292611279999,-20.4889378143806],[-69.3295664529999,-20.4883295293806],[-69.3289080159999,-20.4880665443806],[-69.329592111,-20.4882729633806],[-69.3298502619999,-20.4877218213806],[-69.3287490679999,-20.4873179063806]]]}},{"type":"Feature","properties":{"id":"1405011001032","commune":"Pica","code":"01405","gse":"D","quintil":"Q1","nse_score":607.8,"educ":11.3,"educ_score":553.3,"hacin":1.393,"hacin_class":"Hacinamiento Leve","hacin_score":767.5,"auto_score":31.2,"n_per":39,"n_hog":13,"source_year":2024},"geometry":{"type":"Polygon","coordinates":[[[-69.3326386589999,-20.4873459763806],[-69.3324792559999,-20.4877274073807],[-69.3334766069999,-20.4881315593806],[-69.3335780999999,-20.4879058643807],[-69.3326386589999,-20.4873459763806]]]}},{"type":"Feature","properties":{"id":"1405011001033","commune":"Pica","code":"01405","gse":"C3","quintil":"Q2","nse_score":669.6,"educ":10.9,"educ_score":526.7,"hacin":1.167,"hacin_class":"Hacinamiento Leve","hacin_score":815.6,"auto_score":0.0,"n_per":21,"n_hog":7,"source_year":2024},"geometry":{"type":"Polygon","coordinates":[[[-69.3313495609999,-20.4877271023806],[-69.3322174759999,-20.4881085213806],[-69.3323879419999,-20.4877500323806],[-69.3314592849999,-20.4873833493807],[-69.3313495609999,-20.4877271023806]]]}},{"type":"Feature","properties":{"id":"1405011001034","commune":"Pica","code":"01405","gse":"D","quintil":"Q1","nse_score":574.4,"educ":11.1,"educ_score":540.0,"hacin":0.952,"hacin_class":"Sin Hacinamiento","hacin_score":861.2,"auto_score":50.0,"n_per":20,"n_hog":10,"source_year":2024},"geometry":{"type":"Polygon","coordinates":[[[-69.3271346519999,-20.4890972443806],[-69.3277172919999,-20.4881950643807],[-69.3267315709999,-20.4876624293807],[-69.3262047579999,-20.4885682893806],[-69.3271346519999,-20.4890972443806]]]}},{"type":"Feature","properties":{"id":"1405011001036","commune":"Pica","code":"01405","gse":"D","quintil":"Q2","nse_score":648.7,"educ":12.1,"educ_score":606.7,"hacin":1.381,"hacin_class":"Hacinamiento Leve","hacin_score":770.0,"auto_score":41.7,"n_per":29,"n_hog":10,"source_year":2024},"geometry":{"type":"Polygon","coordinates":[[[-69.3298723899999,-20.4877601883806],[-69.3296278359999,-20.4883017523806],[-69.3307117849999,-20.4887698783806],[-69.3309575399999,-20.4881976953806],[-69.3298723899999,-20.4877601883806]]]}},{"type":"Feature","properties":{"id":"1405011001037","commune":"Pica","code":"01405","gse":"C3","quintil":"Q3","nse_score":690.2,"educ":11.4,"educ_score":560.0,"hacin":1.122,"hacin_class":"Hacinamiento Leve","hacin_score":825.0,"auto_score":0.0,"n_per":55,"n_hog":16,"source_year":2024},"geometry":{"type":"Polygon","coordinates":[[[-69.3311395079999,-20.4881492453806],[-69.3320128659999,-20.4885237843806],[-69.3322014729999,-20.4881525953806],[-69.3312792549999,-20.4877455123806],[-69.3311395079999,-20.4881492453806]]]}},{"type":"Feature","properties":{"id":"1405011001038","commune":"Pica","code":"01405","gse":"C2","quintil":"Q4","nse_score":742.6,"educ":12.6,"educ_score":640.0,"hacin":1.136,"hacin_class":"Hacinamiento Leve","hacin_score":822.1,"auto_score":25.0,"n_per":50,"n_hog":18,"source_year":2024},"geometry":{"type":"Polygon","coordinates":[[[-69.3324478509999,-20.4877732683806],[-69.3322826699999,-20.4881349253806],[-69.3332922449999,-20.4885529483806],[-69.3334608089999,-20.4881948863806],[-69.3324478509999,-20.4877732683806]]]}},{"type":"Feature","properties":{"id":"1405011001040","commune":"Pica","code":"01405","gse":"D","quintil":"Q2","nse_score":639.9,"educ":11.8,"educ_score":586.7,"hacin":1.707,"hacin_class":"Hacinamiento Medio","hacin_score":700.6,"auto_score":0.0,"n_per":70,"n_hog":22,"source_year":2024},"geometry":{"type":"Polygon","coordinates":[[[-69.3330856929999,-20.4889677173806],[-69.3332640379999,-20.4885971343806],[-69.3322538349999,-20.4881750963806],[-69.3320818489999,-20.4885499103806],[-69.3330856929999,-20.4889677173806]]]}},{"type":"Feature","properties":{"id":"1405011001041","commune":"Pica","code":"01405","gse":"C2","quintil":"Q4","nse_score":746.5,"educ":12.0,"educ_score":600.0,"hacin":0.982,"hacin_class":"Sin Hacinamiento","hacin_score":854.9,"auto_score":222.2,"n_per":55,"n_hog":18,"source_year":2024},"geometry":{"type":"Polygon","coordinates":[[[-69.3344316189999,-20.4886005103806],[-69.3335206659999,-20.4882023993806],[-69.3333518829999,-20.4885705643806],[-69.3342593309999,-20.4889493093806],[-69.3344316189999,-20.4886005103806]]]}},{"type":"Feature","properties":{"id":"1405011001042","commune":"Pica","code":"01405","gse":"C2","quintil":"Q4","nse_score":750.6,"educ":12.2,"educ_score":613.3,"hacin":1.0,"hacin_class":"Hacinamiento Leve","hacin_score":851.1,"auto_score":0.0,"n_per":9,"n_hog":4,"source_year":2024},"geometry":{"type":"Polygon","coordinates":[[[-69.327487662,-20.4886252453806],[-69.3279259579999,-20.4888479633806],[-69.3281244049999,-20.4884210873806],[-69.3277453559999,-20.4882116103806],[-69.327487662,-20.4886252453806]]]}},{"type":"Feature","properties":{"id":"1405011001043","commune":"Pica","code":"01405","gse":"C2","quintil":"Q3","nse_score":723.1,"educ":12.4,"educ_score":626.7,"hacin":1.094,"hacin_class":"Hacinamiento Leve","hacin_score":831.1,"auto_score":269.2,"n_per":35,"n_hog":13,"source_year":2024},"geometry":{"type":"Polygon","coordinates":[[[-69.3317105779999,-20.4891820763806],[-69.3319570639999,-20.4886128473806],[-69.3310348329999,-20.4882404613806],[-69.3307666109999,-20.4887944903806],[-69.3317105779999,-20.4891820763806]]]}},{"type":"Feature","properties":{"id":"1405011001044","commune":"Pica","code":"01405","gse":"C3","quintil":"Q2","nse_score":671.5,"educ":10.8,"educ_score":520.0,"hacin":1.227,"hacin_class":"Hacinamiento Leve","hacin_score":802.7,"auto_score":22.7,"n_per":81,"n_hog":28,"source_year":2024},"geometry":{"type":"Polygon","coordinates":[[[-69.3293267399999,-20.4889795313806],[-69.3303428799999,-20.4894857553806],[-69.3306794629999,-20.4888165353806],[-69.3296085299999,-20.4883563923806],[-69.3293267399999,-20.4889795313806]]]}},{"type":"Feature","properties":{"id":"1405011001047","commune":"Pica","code":"01405","gse":"C3","quintil":"Q2","nse_score":685.3,"educ":11.1,"educ_score":540.0,"hacin":1.707,"hacin_class":"Hacinamiento Medio","hacin_score":700.7,"auto_score":181.8,"n_per":99,"n_hog":29,"source_year":2024},"geometry":{"type":"Polygon","coordinates":[[[-69.3352772709999,-20.4893939163806],[-69.3354356009999,-20.4891390453806],[-69.334484776,-20.4886200713806],[-69.3343317409999,-20.4889905393806],[-69.3352772709999,-20.4893939163806]]]}},{"type":"Feature","properties":{"id":"1405011001048","commune":"Pica","code":"01405","gse":"C3","quintil":"Q3","nse_score":699.5,"educ":12.9,"educ_score":660.0,"hacin":1.311,"hacin_class":"Hacinamiento Leve","hacin_score":784.9,"auto_score":113.6,"n_per":59,"n_hog":21,"source_year":2024},"geometry":{"type":"Polygon","coordinates":[[[-69.3331911869999,-20.4890133883806],[-69.3340813059999,-20.4893644733806],[-69.3342393749999,-20.4890277993806],[-69.3333339509999,-20.4886220433806],[-69.3331911869999,-20.4890133883806]]]}},{"type":"Feature","properties":{"id":"1405011001049","commune":"Pica","code":"01405","gse":"C2","quintil":"Q3","nse_score":719.8,"educ":11.5,"educ_score":566.7,"hacin":1.244,"hacin_class":"Hacinamiento Leve","hacin_score":799.2,"auto_score":266.7,"n_per":51,"n_hog":15,"source_year":2024},"geometry":{"type":"Polygon","coordinates":[[[-69.3320303099999,-20.4886513053806],[-69.3317600439999,-20.4892177063806],[-69.3327972689999,-20.4896410913806],[-69.3330523679999,-20.4890725243806],[-69.3320303099999,-20.4886513053806]]]}},{"type":"Feature","properties":{"id":"1405011001050","commune":"Pica","code":"01405","gse":"D","quintil":"Q2","nse_score":610.2,"educ":10.5,"educ_score":500.0,"hacin":1.28,"hacin_class":"Hacinamiento Leve","hacin_score":791.5,"auto_score":0.0,"n_per":32,"n_hog":11,"source_year":2024},"geometry":{"type":"Polygon","coordinates":[[[-69.3270989589999,-20.4891457853806],[-69.3261865789999,-20.4886534663806],[-69.3259755979999,-20.4889806203806],[-69.3268655779999,-20.4894864393806],[-69.3270989589999,-20.4891457853806]]]}},{"type":"Feature","properties":{"id":"1405011001051","commune":"Pica","code":"01405","gse":"D","quintil":"Q2","nse_score":612.7,"educ":11.6,"educ_score":573.3,"hacin":1.5,"hacin_class":"Hacinamiento Medio","hacin_score":744.7,"auto_score":50.0,"n_per":36,"n_hog":11,"source_year":2024},"geometry":{"type":"Polygon","coordinates":[[[-69.327450542,-20.4886866353806],[-69.327177177,-20.4891153953806],[-69.3276447949999,-20.4893317953806],[-69.327893221,-20.4888888093806],[-69.327450542,-20.4886866353806]]]}},{"type":"Feature","properties":{"id":"1405011001052","commune":"Pica","code":"01405","gse":"C3","quintil":"Q2","nse_score":669.2,"educ":12.9,"educ_score":660.0,"hacin":1.786,"hacin_class":"Hacinamiento Medio","hacin_score":683.9,"auto_score":285.7,"n_per":25,"n_hog":7,"source_year":2024},"geometry":{"type":"Polygon","coordinates":[[[-69.3253822259999,-20.4889049043806],[-69.3258305159999,-20.4891780663806],[-69.3259218379999,-20.4890173473806],[-69.3254707419999,-20.4887540463806],[-69.3253822259999,-20.4889049043806]]]}},{"type":"Feature","properties":{"id":"1405011001053","commune":"Pica","code":"01405","gse":"C3","quintil":"Q2","nse_score":664.3,"educ":11.1,"educ_score":540.0,"hacin":1.231,"hacin_class":"Hacinamiento Leve","hacin_score":802.0,"auto_score":115.4,"n_per":32,"n_hog":14,"source_year":2024},"geometry":{"type":"Polygon","coordinates":[[[-69.3304233109999,-20.4895365733806],[-69.3313258889999,-20.4899238203806],[-69.3316813429999,-20.4892311543806],[-69.3307432969999,-20.4888367983806],[-69.3304233109999,-20.4895365733806]]]}},{"type":"Feature","properties":{"id":"1405011001055","commune":"Pica","code":"01405","gse":"C3","quintil":"Q2","nse_score":678.3,"educ":10.6,"educ_score":506.7,"hacin":0.794,"hacin_class":"Sin Hacinamiento","hacin_score":894.9,"auto_score":0.0,"n_per":27,"n_hog":13,"source_year":2024},"geometry":{"type":"Polygon","coordinates":[[[-69.3279172579999,-20.4889274783806],[-69.3276745009999,-20.4893509583806],[-69.3284967769999,-20.4897304213806],[-69.3287108979999,-20.4892731963806],[-69.3279172579999,-20.4889274783806]]]}},{"type":"Feature","properties":{"id":"1405011001056","commune":"Pica","code":"01405","gse":"D","quintil":"Q1","nse_score":593.2,"educ":12.6,"educ_score":640.0,"hacin":1.546,"hacin_class":"Hacinamiento Medio","hacin_score":735.0,"auto_score":500.0,"n_per":17,"n_hog":6,"source_year":2024},"geometry":{"type":"Polygon","coordinates":[[[-69.3258826269999,-20.4892095943806],[-69.3267083,-20.4896840593806],[-69.3268161319999,-20.4895615963806],[-69.325962467,-20.4890318253806],[-69.3258826269999,-20.4892095943806]]]}},{"type":"Feature","properties":{"id":"1405011001057","commune":"Pica","code":"01405","gse":"D","quintil":"Q2","nse_score":619.8,"educ":10.8,"educ_score":520.0,"hacin":1.54,"hacin_class":"Hacinamiento Medio","hacin_score":736.2,"auto_score":204.5,"n_per":77,"n_hog":21,"source_year":2024},"geometry":{"type":"Polygon","coordinates":[[[-69.3350355109999,-20.4897749813806],[-69.3352589279999,-20.4894392623806],[-69.3342934039999,-20.4890361963806],[-69.3341296219999,-20.4893907773806],[-69.3350355109999,-20.4897749813806]]]}},{"type":"Feature","properties":{"id":"1405011001059","commune":"Pica","code":"01405","gse":"C2","quintil":"Q3","nse_score":719.6,"educ":15.5,"educ_score":833.3,"hacin":1.118,"hacin_class":"Hacinamiento Leve","hacin_score":826.0,"auto_score":0.0,"n_per":19,"n_hog":8,"source_year":2024},"geometry":{"type":"Polygon","coordinates":[[[-69.3338565379999,-20.4901143013806],[-69.3341067509999,-20.4895147953806],[-69.3331072589999,-20.4890986703806],[-69.3328551949999,-20.4896865983806],[-69.3338565379999,-20.4901143013806]]]}},{"type":"Feature","properties":{"id":"1405011001060","commune":"Pica","code":"01405","gse":"D","quintil":"Q1","nse_score":593.2,"educ":11.5,"educ_score":566.7,"hacin":1.273,"hacin_class":"Hacinamiento Leve","hacin_score":793.0,"auto_score":0.0,"n_per":14,"n_hog":6,"source_year":2024},"geometry":{"type":"Polygon","coordinates":[[[-69.3273946079999,-20.4897556403806],[-69.3276102309999,-20.4893805883806],[-69.3271346519999,-20.4891557793806],[-69.3268937319999,-20.4894980643806],[-69.3273946079999,-20.4897556403806]]]}},{"type":"Feature","properties":{"id":"1405011001062","commune":"Pica","code":"01405","gse":"D","quintil":"Q2","nse_score":617.0,"educ":11.3,"educ_score":553.3,"hacin":1.151,"hacin_class":"Hacinamiento Leve","hacin_score":818.8,"auto_score":35.7,"n_per":38,"n_hog":16,"source_year":2024},"geometry":{"type":"Polygon","coordinates":[[[-69.325857218,-20.4892481733806],[-69.3256132809999,-20.4897733353806],[-69.3264293249999,-20.4901435183806],[-69.326676329,-20.4897170853806],[-69.325857218,-20.4892481733806]]]}},{"type":"Feature","properties":{"id":"1405011001063","commune":"Pica","code":"01405","gse":"D","quintil":"Q2","nse_score":655.1,"educ":10.4,"educ_score":493.3,"hacin":1.103,"hacin_class":"Hacinamiento Leve","hacin_score":829.1,"auto_score":0.0,"n_per":32,"n_hog":10,"source_year":2024},"geometry":{"type":"Polygon","coordinates":[[[-69.3324265429999,-20.4904032193805],[-69.3327504149999,-20.4896816203806],[-69.3317556379999,-20.4892574403806],[-69.3314211279999,-20.4899551253806],[-69.3324265429999,-20.4904032193805]]]}},{"type":"Feature","properties":{"id":"1405011001067","commune":"Pica","code":"01405","gse":"C3","quintil":"Q3","nse_score":715.3,"educ":11.9,"educ_score":593.3,"hacin":1.167,"hacin_class":"Hacinamiento Leve","hacin_score":815.6,"auto_score":0.0,"n_per":14,"n_hog":6,"source_year":2024},"geometry":{"type":"Polygon","coordinates":[[[-69.3273675379999,-20.4898411493806],[-69.3268605369999,-20.4895413143806],[-69.3264485019999,-20.4901579033806],[-69.3270472669999,-20.4904426263806],[-69.3273675379999,-20.4898411493806]]]}},{"type":"Feature","properties":{"id":"1405011001069","commune":"Pica","code":"01405","gse":"D","quintil":"Q1","nse_score":573.1,"educ":9.4,"educ_score":426.7,"hacin":0.889,"hacin_class":"Sin Hacinamiento","hacin_score":874.7,"auto_score":0.0,"n_per":32,"n_hog":11,"source_year":2024},"geometry":{"type":"Polygon","coordinates":[[[-69.330924293,-20.4908212833806],[-69.3313034539999,-20.4899761833806],[-69.3303695159999,-20.4895722713806],[-69.3299642209999,-20.4904194043806],[-69.330924293,-20.4908212833806]]]}},{"type":"Feature","properties":{"id":"1405011001070","commune":"Pica","code":"01405","gse":"D","quintil":"Q1","nse_score":604.2,"educ":10.2,"educ_score":480.0,"hacin":2.175,"hacin_class":"Hacinamiento Medio","hacin_score":601.1,"auto_score":0.0,"n_per":87,"n_hog":23,"source_year":2024},"geometry":{"type":"Polygon","coordinates":[[[-69.3336250799999,-20.4905782753806],[-69.3338413399999,-20.4901447333806],[-69.3328233339999,-20.4897250113806],[-69.3326503479999,-20.4901711603806],[-69.3336250799999,-20.4905782753806]]]}},{"type":"Feature","properties":{"id":"1405011001071","commune":"Pica","code":"01405","gse":"C3","quintil":"Q3","nse_score":712.6,"educ":12.9,"educ_score":660.0,"hacin":1.105,"hacin_class":"Hacinamiento Leve","hacin_score":828.7,"auto_score":187.5,"n_per":21,"n_hog":7,"source_year":2024},"geometry":{"type":"Polygon","coordinates":[[[-69.3295145479999,-20.4902827033806],[-69.3285174289999,-20.4897941543806],[-69.3283368439999,-20.4901449213806],[-69.3293380239999,-20.4905933713806],[-69.3295145479999,-20.4902827033806]]]}},{"type":"Feature","properties":{"id":"1405011001072","commune":"Pica","code":"01405","gse":"C3","quintil":"Q3","nse_score":706.2,"educ":13.6,"educ_score":706.7,"hacin":1.15,"hacin_class":"Hacinamiento Leve","hacin_score":819.1,"auto_score":277.8,"n_per":23,"n_hog":11,"source_year":2024},"geometry":{"type":"Polygon","coordinates":[[[-69.3263885089999,-20.4901911443806],[-69.3255744019999,-20.4898194183806],[-69.3254948639999,-20.4903729073806],[-69.3260565309999,-20.4905915463806],[-69.3263885089999,-20.4901911443806]]]}},{"type":"Feature","properties":{"id":"1405011001073","commune":"Pica","code":"01405","gse":"D","quintil":"Q1","nse_score":572.7,"educ":10.7,"educ_score":513.3,"hacin":1.172,"hacin_class":"Hacinamiento Leve","hacin_score":814.4,"auto_score":0.0,"n_per":34,"n_hog":12,"source_year":2024},"geometry":{"type":"Polygon","coordinates":[[[-69.328264224,-20.4902061613806],[-69.3274057589999,-20.4898292953806],[-69.3270692159999,-20.4904546073806],[-69.3279646209999,-20.4908748473805],[-69.328264224,-20.4902061613806]]]}},{"type":"Feature","properties":{"id":"1405011001075","commune":"Pica","code":"01405","gse":"D","quintil":"Q2","nse_score":617.8,"educ":10.4,"educ_score":493.3,"hacin":1.154,"hacin_class":"Hacinamiento Leve","hacin_score":818.3,"auto_score":125.0,"n_per":30,"n_hog":10,"source_year":2024},"geometry":{"type":"Polygon","coordinates":[[[-69.3319737389999,-20.4912790213806],[-69.3323989799999,-20.4904356393806],[-69.3313781689999,-20.4900021803806],[-69.3309982889999,-20.4908363773806],[-69.3319737389999,-20.4912790213806]]]}},{"type":"Feature","properties":{"id":"1405011001077","commune":"Pica","code":"01405","gse":"D","quintil":"Q2","nse_score":633.0,"educ":13.6,"educ_score":706.7,"hacin":1.75,"hacin_class":"Hacinamiento Medio","hacin_score":691.5,"auto_score":71.4,"n_per":28,"n_hog":7,"source_year":2024},"geometry":{"type":"Polygon","coordinates":[[[-69.3261055439999,-20.4905920123805],[-69.3273169279999,-20.4910253123805],[-69.3274620169999,-20.4907114243805],[-69.3264225319999,-20.4902126013806],[-69.3261055439999,-20.4905920123805]]]}},{"type":"Feature","properties":{"id":"1405011001080","commune":"Pica","code":"01405","gse":"C3","quintil":"Q3","nse_score":689.0,"educ":11.8,"educ_score":586.7,"hacin":1.643,"hacin_class":"Hacinamiento Medio","hacin_score":714.3,"auto_score":300.0,"n_per":23,"n_hog":7,"source_year":2024},"geometry":{"type":"Polygon","coordinates":[[[-69.3257075069999,-20.4910977193805],[-69.3260153399999,-20.4906277973806],[-69.3254866749999,-20.4904079973806],[-69.3253320289999,-20.4909635173806],[-69.3257075069999,-20.4910977193805]]]}},{"type":"Feature","properties":{"id":"1405011001081","commune":"Pica","code":"01405","gse":"C1","quintil":"Q5","nse_score":810.4,"educ":14.5,"educ_score":766.7,"hacin":1.182,"hacin_class":"Hacinamiento Leve","hacin_score":812.4,"auto_score":150.0,"n_per":26,"n_hog":10,"source_year":2024},"geometry":{"type":"Polygon","coordinates":[[[-69.3324699089999,-20.4904641313806],[-69.3320399069999,-20.4913011753805],[-69.3324585789999,-20.4914878903805],[-69.3328704289999,-20.4906466973805],[-69.3324699089999,-20.4904641313806]]]}},{"type":"Feature","properties":{"id":"1405011001082","commune":"Pica","code":"01405","gse":"D","quintil":"Q1","nse_score":542.3,"educ":8.4,"educ_score":360.0,"hacin":1.72,"hacin_class":"Hacinamiento Medio","hacin_score":697.9,"auto_score":333.3,"n_per":43,"n_hog":9,"source_year":2024},"geometry":{"type":"Polygon","coordinates":[[[-69.3298537739999,-20.4908029533806],[-69.3307747069999,-20.4911781563805],[-69.3309226129999,-20.4908771483805],[-69.3299341409999,-20.4904704913806],[-69.3298537739999,-20.4908029533806]]]}},{"type":"Feature","properties":{"id":"1405011001085","commune":"Pica","code":"01405","gse":"D","quintil":"Q2","nse_score":660.9,"educ":12.2,"educ_score":613.3,"hacin":1.1,"hacin_class":"Hacinamiento Leve","hacin_score":829.8,"auto_score":166.7,"n_per":22,"n_hog":9,"source_year":2024},"geometry":{"type":"Polygon","coordinates":[[[-69.3260596079999,-20.4906472873806],[-69.3258770459999,-20.4909960613805],[-69.3267273379999,-20.4911243423805],[-69.3267586389999,-20.4908824223806],[-69.3260596079999,-20.4906472873806]]]}},{"type":"Feature","properties":{"id":"1405011001086","commune":"Pica","code":"01405","gse":"C3","quintil":"Q2","nse_score":670.8,"educ":11.2,"educ_score":546.7,"hacin":1.442,"hacin_class":"Hacinamiento Leve","hacin_score":757.0,"auto_score":50.0,"n_per":75,"n_hog":18,"source_year":2024},"geometry":{"type":"Polygon","coordinates":[[[-69.3329099629999,-20.4906579183806],[-69.3324950929999,-20.4914976453805],[-69.3328264429999,-20.4916646053805],[-69.3332480839999,-20.4908118063806],[-69.3329099629999,-20.4906579183806]]]}},{"type":"Feature","properties":{"id":"1405011001091","commune":"Pica","code":"01405","gse":"C3","quintil":"Q2","nse_score":667.8,"educ":11.1,"educ_score":540.0,"hacin":1.056,"hacin_class":"Hacinamiento Leve","hacin_score":839.2,"auto_score":250.0,"n_per":19,"n_hog":6,"source_year":2024},"geometry":{"type":"Polygon","coordinates":[[[-69.3268399659999,-20.4909112493806],[-69.3267869339999,-20.4909861033806],[-69.3267754299999,-20.4911575173805],[-69.327239286,-20.4912502873806],[-69.3273012569999,-20.4910645493805],[-69.3268399659999,-20.4909112493806]]]}},{"type":"Feature","properties":{"id":"1405011001093","commune":"Pica","code":"01405","gse":"D","quintil":"Q1","nse_score":540.1,"educ":13.0,"educ_score":666.7,"hacin":1.5,"hacin_class":"Hacinamiento Medio","hacin_score":744.7,"auto_score":0.0,"n_per":15,"n_hog":5,"source_year":2024},"geometry":{"type":"Polygon","coordinates":[[[-69.3285226869999,-20.4916784273806],[-69.3286964919999,-20.4912918123805],[-69.3279865669999,-20.4909673433806],[-69.327806097,-20.4914483803805],[-69.3285226869999,-20.4916784273806]]]}},{"type":"Feature","properties":{"id":"1405011001096","commune":"Pica","code":"01405","gse":"C3","quintil":"Q2","nse_score":678.9,"educ":11.8,"educ_score":586.7,"hacin":1.408,"hacin_class":"Hacinamiento Leve","hacin_score":764.2,"auto_score":275.0,"n_per":69,"n_hog":22,"source_year":2024},"geometry":{"type":"Polygon","coordinates":[[[-69.3335854449999,-20.4910592583806],[-69.3330937609999,-20.4917629013805],[-69.3334342869999,-20.4919584683805],[-69.3338477329999,-20.4913585343805],[-69.3335854449999,-20.4910592583806]]]}},{"type":"Feature","properties":{"id":"1405011001099","commune":"Pica","code":"01405","gse":"ABC1","quintil":"Q5","nse_score":832.7,"educ":14.0,"educ_score":733.3,"hacin":0.467,"hacin_class":"Sin Hacinamiento","hacin_score":964.5,"auto_score":0.0,"n_per":7,"n_hog":6,"source_year":2024},"geometry":{"type":"Polygon","coordinates":[[[-69.3274980349999,-20.4925709973805],[-69.3293522819999,-20.4923998333805],[-69.3302977419999,-20.4926454783805],[-69.3301759889999,-20.4925517853805],[-69.3304301159999,-20.4920949293805],[-69.3287422859999,-20.4913088673805],[-69.328541588,-20.4917208283805],[-69.3280429009999,-20.4915913863805],[-69.3274980349999,-20.4925709973805]]]}},{"type":"Feature","properties":{"id":"1405011001102","commune":"Pica","code":"01405","gse":"D","quintil":"Q2","nse_score":653.1,"educ":11.1,"educ_score":540.0,"hacin":1.677,"hacin_class":"Hacinamiento Medio","hacin_score":706.9,"auto_score":17.9,"n_per":104,"n_hog":26,"source_year":2024},"geometry":{"type":"Polygon","coordinates":[[[-69.3350680249999,-20.4921010693805],[-69.3339876209999,-20.4914785893805],[-69.3337265579999,-20.4918375813806],[-69.3348282869999,-20.4924736853805],[-69.3350680249999,-20.4921010693805]]]}},{"type":"Feature","properties":{"id":"1405011001103","commune":"Pica","code":"01405","gse":"D","quintil":"Q2","nse_score":612.3,"educ":10.8,"educ_score":520.0,"hacin":1.8,"hacin_class":"Hacinamiento Medio","hacin_score":680.9,"auto_score":0.0,"n_per":18,"n_hog":5,"source_year":2024},"geometry":{"type":"Polygon","coordinates":[[[-69.3323451489999,-20.4919845403805],[-69.3326132159999,-20.4924990903805],[-69.3328166519999,-20.4921738213805],[-69.3327021789999,-20.4921124263805],[-69.3328364729999,-20.4921425643805],[-69.3330340799999,-20.4918261793805],[-69.3324946029999,-20.4915735033805],[-69.3323451489999,-20.4919845403805]]]}},{"type":"Feature","properties":{"id":"1405011001105","commune":"Pica","code":"01405","gse":"D","quintil":"Q2","nse_score":646.6,"educ":10.8,"educ_score":520.0,"hacin":1.436,"hacin_class":"Hacinamiento Leve","hacin_score":758.3,"auto_score":0.0,"n_per":56,"n_hog":18,"source_year":2024},"geometry":{"type":"Polygon","coordinates":[[[-69.3326341109999,-20.4925391983805],[-69.3328402349999,-20.4929348463805],[-69.3334062859999,-20.4920049473805],[-69.3330620919999,-20.4918395443805],[-69.3326341109999,-20.4925391983805]]]}},{"type":"Feature","properties":{"id":"1405011001106","commune":"Pica","code":"01405","gse":"C3","quintil":"Q3","nse_score":692.0,"educ":11.9,"educ_score":593.3,"hacin":1.579,"hacin_class":"Hacinamiento Medio","hacin_score":727.8,"auto_score":151.5,"n_per":139,"n_hog":39,"source_year":2024},"geometry":{"type":"Polygon","coordinates":[[[-69.3345194299999,-20.4928574863805],[-69.3347823419999,-20.4925217213805],[-69.3336932809999,-20.4918973733805],[-69.3334638539999,-20.4922565343805],[-69.3345194299999,-20.4928574863805]]]}},{"type":"Feature","properties":{"id":"1405011001108","commune":"Pica","code":"01405","gse":"C3","quintil":"Q3","nse_score":699.2,"educ":12.5,"educ_score":633.3,"hacin":1.34,"hacin_class":"Hacinamiento Leve","hacin_score":778.8,"auto_score":78.9,"n_per":142,"n_hog":55,"source_year":2024},"geometry":{"type":"Polygon","coordinates":[[[-69.3372029579999,-20.4933382503805],[-69.3351212349999,-20.4921419633805],[-69.3335693189999,-20.4943394843805],[-69.3345850149999,-20.4950980883805],[-69.3349391269999,-20.4946456013805],[-69.3341027269999,-20.4940225333805],[-69.3345170109999,-20.4935542623805],[-69.3362865109999,-20.4948716223805],[-69.3372029579999,-20.4933382503805]]]}},{"type":"Feature","properties":{"id":"1405011001109","commune":"Pica","code":"01405","gse":"C3","quintil":"Q3","nse_score":702.8,"educ":12.2,"educ_score":613.3,"hacin":1.506,"hacin_class":"Hacinamiento Medio","hacin_score":743.5,"auto_score":296.9,"n_per":134,"n_hog":33,"source_year":2024},"geometry":{"type":"Polygon","coordinates":[[[-69.3342639709999,-20.4932813873805],[-69.3345151939999,-20.4929245473805],[-69.3334210269999,-20.4923024703805],[-69.3331956929999,-20.4926581813805],[-69.3342639709999,-20.4932813873805]]]}},{"type":"Feature","properties":{"id":"1405011001112","commune":"Pica","code":"01405","gse":"C2","quintil":"Q4","nse_score":740.5,"educ":11.5,"educ_score":566.7,"hacin":1.324,"hacin_class":"Hacinamiento Leve","hacin_score":782.1,"auto_score":125.0,"n_per":94,"n_hog":26,"source_year":2024},"geometry":{"type":"Polygon","coordinates":[[[-69.3342504399999,-20.4933361843805],[-69.3338803019999,-20.4931309163805],[-69.333295657,-20.4938615073805],[-69.3334905589999,-20.4942592963805],[-69.3342504399999,-20.4933361843805]]]}},{"type":"Feature","properties":{"id":"1405011001113","commune":"Pica","code":"01405","gse":"ABC1","quintil":"Q5","nse_score":834.9,"educ":14.4,"educ_score":760.0,"hacin":0.6,"hacin_class":"Sin Hacinamiento","hacin_score":936.2,"auto_score":125.0,"n_per":9,"n_hog":4,"source_year":2024},"geometry":{"type":"Polygon","coordinates":[[[-69.3372715869999,-20.4933573823805],[-69.3363606109999,-20.4948714163805],[-69.3355477929999,-20.4958256953804],[-69.33577786,-20.4959933093804],[-69.3361880119999,-20.4956526683804],[-69.3358227399999,-20.4960269973804],[-69.3379459939999,-20.4976077943804],[-69.3390740799999,-20.4958744793804],[-69.3395538539999,-20.4961516463804],[-69.3402404969999,-20.4950632873805],[-69.3372715869999,-20.4933573823805]]]}},{"type":"Feature","properties":{"id":"1405011001114","commune":"Pica","code":"01405","gse":"C2","quintil":"Q4","nse_score":768.4,"educ":15.4,"educ_score":826.7,"hacin":1.5,"hacin_class":"Hacinamiento Medio","hacin_score":744.7,"auto_score":178.6,"n_per":30,"n_hog":11,"source_year":2024},"geometry":{"type":"Polygon","coordinates":[[[-69.3341891159999,-20.4940185553805],[-69.3349748189999,-20.4946155023804],[-69.3353036739999,-20.4942215923805],[-69.3345217539999,-20.4936297803805],[-69.3341891159999,-20.4940185553805]]]}},{"type":"Feature","properties":{"id":"1405011001116","commune":"Pica","code":"01405","gse":"C1","quintil":"Q5","nse_score":782.8,"educ":13.6,"educ_score":706.7,"hacin":0.97,"hacin_class":"Sin Hacinamiento","hacin_score":857.5,"auto_score":71.4,"n_per":32,"n_hog":14,"source_year":2024},"geometry":{"type":"Polygon","coordinates":[[[-69.3358331349999,-20.4952543503804],[-69.3361766739999,-20.4948741273805],[-69.3353521939999,-20.4942559673805],[-69.3350311449999,-20.4946510113804],[-69.3358331349999,-20.4952543503804]]]}},{"type":"Feature","properties":{"id":"1405011001117","commune":"Pica","code":"01405","gse":"C2","quintil":"Q4","nse_score":774.0,"educ":15.5,"educ_score":833.3,"hacin":0.917,"hacin_class":"Sin Hacinamiento","hacin_score":868.8,"auto_score":200.0,"n_per":11,"n_hog":5,"source_year":2024},"geometry":{"type":"Polygon","coordinates":[[[-69.3346132419999,-20.4951218713804],[-69.3354225479999,-20.4957372823804],[-69.3358035809999,-20.4953011603804],[-69.3349946209999,-20.4946861443805],[-69.3346132419999,-20.4951218713804]]]}},{"type":"Feature","properties":{"id":"1405011001065","commune":"Pica","code":"01405","gse":"D","quintil":"Q1","nse_score":591.0,"educ":11.7,"educ_score":580.0,"hacin":1.167,"hacin_class":"Hacinamiento Leve","hacin_score":815.6,"auto_score":71.4,"n_per":14,"n_hog":8,"source_year":2024},"geometry":{"type":"MultiPolygon","coordinates":[[[[-69.3291223049999,-20.4909377573805],[-69.3293190529999,-20.4906265853805],[-69.3283015549999,-20.4902200923806],[-69.328169752,-20.4904966993806],[-69.3291223049999,-20.4909377573805]]],[[[-69.3282706659999,-20.4901558663806],[-69.3284739089999,-20.4897765923806],[-69.3276237489999,-20.4894200173806],[-69.3274350589999,-20.4897922843806],[-69.3282706659999,-20.4901558663806]]]]}},{"type":"Feature","properties":{"id":"1405011001079","commune":"Pica","code":"01405","gse":"C3","quintil":"Q2","nse_score":678.0,"educ":12.1,"educ_score":606.7,"hacin":1.0,"hacin_class":"Hacinamiento Leve","hacin_score":851.1,"auto_score":0.0,"n_per":8,"n_hog":4,"source_year":2024},"geometry":{"type":"MultiPolygon","coordinates":[[[[-69.3291787019999,-20.4909651903805],[-69.3295448969999,-20.4911233543806],[-69.3297271869999,-20.4907979203805],[-69.3293489589999,-20.4906438043806],[-69.3291787019999,-20.4909651903805]]],[[[-69.3297455419999,-20.4907541603806],[-69.3298857749999,-20.4904542863806],[-69.3295415309999,-20.4903004613806],[-69.3293696129999,-20.4906056883806],[-69.3297455419999,-20.4907541603806]]]]}},{"type":"Feature","properties":{"id":"1405011001083","commune":"Pica","code":"01405","gse":"E","quintil":"Q1","nse_score":495.6,"educ":11.1,"educ_score":540.0,"hacin":1.143,"hacin_class":"Hacinamiento Leve","hacin_score":820.7,"auto_score":0.0,"n_per":8,"n_hog":4,"source_year":2024},"geometry":{"type":"MultiPolygon","coordinates":[[[[-69.327780146,-20.4914390003806],[-69.3279665199999,-20.4909667773805],[-69.3274845159999,-20.4907281423806],[-69.3272780549999,-20.4912638103806],[-69.327780146,-20.4914390003806]]],[[[-69.3287881799999,-20.4912667273805],[-69.3289618289999,-20.4909117653806],[-69.3281494919999,-20.4905331293805],[-69.327985011,-20.4908975943805],[-69.3287881799999,-20.4912667273805]]]]}},{"type":"Feature","properties":{"id":"1405011001003","commune":"Pica","code":"01405","gse":"C3","quintil":"Q2","nse_score":673.7,"educ":12.8,"educ_score":653.3,"hacin":0.889,"hacin_class":"Sin Hacinamiento","hacin_score":874.7,"auto_score":250.0,"n_per":8,"n_hog":4,"source_year":2024},"geometry":{"type":"MultiPolygon","coordinates":[[[[-69.3120509089999,-20.4808632993808],[-69.3127521019999,-20.4810601263808],[-69.3130434619999,-20.4803890473808],[-69.3133248529999,-20.4801348433808],[-69.3134303609999,-20.4794963683809],[-69.3124016239999,-20.4792290873809],[-69.3120509089999,-20.4808632993808]]],[[[-69.3124505599999,-20.4792147733809],[-69.3134348329999,-20.4794694143808],[-69.31367689,-20.4778618693809],[-69.3127809699999,-20.4775849993809],[-69.3124505599999,-20.4792147733809]]]]}},{"type":"Feature","properties":{"id":"1405011001008","commune":"Pica","code":"01405","gse":"D","quintil":"Q1","nse_score":592.8,"educ":10.6,"educ_score":506.7,"hacin":1.5,"hacin_class":"Hacinamiento Medio","hacin_score":744.7,"auto_score":166.7,"n_per":15,"n_hog":6,"source_year":2024},"geometry":{"type":"MultiPolygon","coordinates":[[[[-69.3320611679999,-20.4860364183807],[-69.3323954849999,-20.4851895313807],[-69.3313802679999,-20.4847231193807],[-69.3309720009999,-20.4856154033807],[-69.3320611679999,-20.4860364183807]]],[[[-69.3316926969999,-20.4840454083807],[-69.331395557,-20.4846899633807],[-69.3322793119999,-20.4850459533807],[-69.3324077919999,-20.4851665603807],[-69.3324301169999,-20.4852952573807],[-69.3329084439999,-20.4842576163807],[-69.3328079479999,-20.4843236833807],[-69.3325062489999,-20.4843061883807],[-69.3316926969999,-20.4840454083807]]],[[[-69.3325162879999,-20.4842637833807],[-69.3329323429999,-20.4841873173807],[-69.3337835169999,-20.4817755593808],[-69.3318904539999,-20.4810602053808],[-69.3305958629999,-20.4834814573807],[-69.3325162879999,-20.4842637833807]]]]}},{"type":"Feature","properties":{"id":"1405011001021","commune":"Pica","code":"01405","gse":"C3","quintil":"Q3","nse_score":709.1,"educ":12.3,"educ_score":620.0,"hacin":1.222,"hacin_class":"Hacinamiento Leve","hacin_score":803.8,"auto_score":100.0,"n_per":22,"n_hog":8,"source_year":2024},"geometry":{"type":"MultiPolygon","coordinates":[[[[-69.3281568629999,-20.4883702773806],[-69.3289452359999,-20.4868404843807],[-69.3276569509999,-20.4861625923806],[-69.326755708,-20.4875718713806],[-69.3281568629999,-20.4883702773806]]],[[[-69.3310361619999,-20.4881097833806],[-69.3320210899999,-20.4860599093807],[-69.3298165339999,-20.4852023283807],[-69.3288509189999,-20.4871671203806],[-69.3310361619999,-20.4881097833806]]]]}},{"type":"Feature","properties":{"id":"1405011001023","commune":"Pica","code":"01405","gse":"C2","quintil":"Q4","nse_score":760.2,"educ":14.0,"educ_score":733.3,"hacin":0.818,"hacin_class":"Sin Hacinamiento","hacin_score":889.7,"auto_score":0.0,"n_per":9,"n_hog":4,"source_year":2024},"geometry":{"type":"MultiPolygon","coordinates":[[[[-69.3223618099999,-20.4870781523806],[-69.3234629059999,-20.4874881263807],[-69.3236189979999,-20.4872282883806],[-69.3227615589999,-20.4867297993806],[-69.3223618099999,-20.4870781523806]]],[[[-69.3221949069999,-20.4870652953806],[-69.3226742489999,-20.4866894593807],[-69.3217103289999,-20.4860014383807],[-69.3215108109999,-20.4862461663807],[-69.3219819449999,-20.4870129473806],[-69.3221949069999,-20.4870652953806]]]]}},{"type":"Feature","properties":{"id":"1405011001045","commune":"Pica","code":"01405","gse":"D","quintil":"Q2","nse_score":632.7,"educ":8.8,"educ_score":386.7,"hacin":0.84,"hacin_class":"Sin Hacinamiento","hacin_score":885.1,"auto_score":187.5,"n_per":21,"n_hog":8,"source_year":2024},"geometry":{"type":"MultiPolygon","coordinates":[[[[-69.328794823,-20.4892606473806],[-69.3294755229999,-20.4895558913806],[-69.3296505329999,-20.4892146773806],[-69.3289833499999,-20.4888637603806],[-69.328794823,-20.4892606473806]]],[[[-69.328721405,-20.4892365253806],[-69.328957365,-20.4888471423806],[-69.3281886999999,-20.4884556203806],[-69.3279576869999,-20.4888903103806],[-69.328721405,-20.4892365253806]]]]}},{"type":"Feature","properties":{"id":"1405011001061","commune":"Pica","code":"01405","gse":"D","quintil":"Q2","nse_score":628.8,"educ":11.6,"educ_score":573.3,"hacin":1.091,"hacin_class":"Hacinamiento Leve","hacin_score":831.7,"auto_score":62.5,"n_per":36,"n_hog":14,"source_year":2024},"geometry":{"type":"MultiPolygon","coordinates":[[[[-69.329899672,-20.4903929543806],[-69.3301403099999,-20.4898899103806],[-69.3287601069999,-20.4893026363806],[-69.3285568509999,-20.4897596083806],[-69.329899672,-20.4903929543806]]],[[[-69.3301291609999,-20.4898590353806],[-69.3303052709999,-20.4895365793806],[-69.3296686159999,-20.4892280033806],[-69.3294963439999,-20.4895782583806],[-69.3301291609999,-20.4898590353806]]]]}},{"type":"Feature","properties":{"id":"1405011001076","commune":"Pica","code":"01405","gse":"C3","quintil":"Q3","nse_score":688.9,"educ":12.4,"educ_score":626.7,"hacin":1.125,"hacin_class":"Hacinamiento Leve","hacin_score":824.5,"auto_score":318.2,"n_per":36,"n_hog":13,"source_year":2024},"geometry":{"type":"MultiPolygon","coordinates":[[[[-69.3330261989999,-20.4917587133806],[-69.333509348,-20.4910223893806],[-69.3332837749999,-20.4908303653806],[-69.3328778399999,-20.4916765823806],[-69.3330261989999,-20.4917587133806]]],[[[-69.3334883709999,-20.4908884313805],[-69.3336123129999,-20.4906154093806],[-69.3325899249999,-20.4902041713806],[-69.3324989109999,-20.4904224873806],[-69.3334883709999,-20.4908884313805]]]]}},{"type":"Feature","properties":{"id":"1405011001088","commune":"Pica","code":"01405","gse":"D","quintil":"Q2","nse_score":656.6,"educ":12.6,"educ_score":640.0,"hacin":1.269,"hacin_class":"Hacinamiento Leve","hacin_score":793.8,"auto_score":125.0,"n_per":33,"n_hog":11,"source_year":2024},"geometry":{"type":"MultiPolygon","coordinates":[[[[-69.3321397449999,-20.4917135643805],[-69.3319225809999,-20.4913147133806],[-69.3309733979999,-20.4908946573806],[-69.3308413549999,-20.4912053763805],[-69.3321397449999,-20.4917135643805]]],[[[-69.3305451269999,-20.4921099973805],[-69.3324438579999,-20.4935234173805],[-69.3328047329999,-20.4930420343805],[-69.3321901069999,-20.4917659333805],[-69.3297667229999,-20.4908281033806],[-69.3294741469999,-20.4915474943805],[-69.3305451269999,-20.4921099973805]]]]}},{"type":"Feature","properties":{"id":"1405011001095","commune":"Pica","code":"01405","gse":"D","quintil":"Q1","nse_score":570.9,"educ":13.1,"educ_score":673.3,"hacin":1.1,"hacin_class":"Hacinamiento Leve","hacin_score":829.8,"auto_score":0.0,"n_per":11,"n_hog":7,"source_year":2024},"geometry":{"type":"MultiPolygon","coordinates":[[[[-69.3263277749999,-20.4913955163806],[-69.3271341729999,-20.4915272123805],[-69.3271849909999,-20.4912898763805],[-69.3263659099999,-20.4911606743806],[-69.3263277749999,-20.4913955163806]]],[[[-69.3257315629999,-20.4912809333805],[-69.3262612749999,-20.4913810493805],[-69.3263354489999,-20.4911535383805],[-69.3257883489999,-20.4910370433806],[-69.3257315629999,-20.4912809333805]]]]}},{"type":"Feature","properties":{"id":"1405011001098","commune":"Pica","code":"01405","gse":"D","quintil":"Q1","nse_score":587.6,"educ":11.3,"educ_score":553.3,"hacin":1.35,"hacin_class":"Hacinamiento Leve","hacin_score":776.6,"auto_score":166.7,"n_per":27,"n_hog":10,"source_year":2024},"geometry":{"type":"MultiPolygon","coordinates":[[[[-69.3253788119999,-20.4939094313805],[-69.3262523559999,-20.4944600343805],[-69.3266645979999,-20.4939589493805],[-69.3242448679999,-20.4917420783806],[-69.3238947559999,-20.4920028163806],[-69.3253788119999,-20.4939094313805]]],[[[-69.3247802469999,-20.4913613643805],[-69.3242716519999,-20.4917304123805],[-69.3266794699999,-20.4939210873805],[-69.3271627379999,-20.4933617053805],[-69.3280144189999,-20.4915771093805],[-69.3272773229999,-20.4913249863806],[-69.3271531729999,-20.4915830583805],[-69.3252537589999,-20.4912519093806],[-69.3247802469999,-20.4913613643805]]]]}},{"type":"Feature","properties":{"id":"1405011001006","commune":"Pica","code":"01405","gse":"E","quintil":"Q1","nse_score":455.1,"educ":8.8,"educ_score":386.7,"hacin":1.583,"hacin_class":"Hacinamiento Medio","hacin_score":727.0,"auto_score":29.4,"n_per":19,"n_hog":8,"source_year":2024},"geometry":{"type":"MultiPolygon","coordinates":[[[[-69.3167100699999,-20.4821659903808],[-69.3163579479999,-20.4836277673807],[-69.3186348019999,-20.4842219343807],[-69.3187873689999,-20.4830232933807],[-69.3175845259999,-20.4824725963807],[-69.3174472709999,-20.4828901073808],[-69.3180612209999,-20.4830752793807],[-69.3174197049999,-20.4829164263807],[-69.3175526709999,-20.4824595623807],[-69.3167100699999,-20.4821659903808]]],[[[-69.3094501649999,-20.4806817663808],[-69.3113194139999,-20.4818078763808],[-69.3119803999999,-20.4824395493808],[-69.3120096669999,-20.4833131703807],[-69.3131639169999,-20.4831557753808],[-69.3143993539999,-20.4831884223808],[-69.3163029039999,-20.4836124113808],[-69.3166548989999,-20.4821511633808],[-69.3131146079999,-20.4812049003808],[-69.3128501269999,-20.4817324473808],[-69.3128661049999,-20.4816386163808],[-69.3124430759999,-20.4814761413808],[-69.3128784399999,-20.4816139293808],[-69.3130864699999,-20.4811975783808],[-69.3108855629999,-20.4806217383808],[-69.3094501649999,-20.4806817663808]]]]}},{"type":"Feature","properties":{"id":"1405011001014","commune":"Pica","code":"01405","gse":"C3","quintil":"Q2","nse_score":678.1,"educ":12.5,"educ_score":633.3,"hacin":1.478,"hacin_class":"Hacinamiento Leve","hacin_score":749.3,"auto_score":166.7,"n_per":34,"n_hog":7,"source_year":2024},"geometry":{"type":"MultiPolygon","coordinates":[[[[-69.318575199,-20.4852099643807],[-69.3193634369999,-20.4852754953807],[-69.3194157909999,-20.4850206403807],[-69.3185822859999,-20.4847622543807],[-69.318575199,-20.4852099643807]]],[[[-69.3179255379999,-20.4844821043807],[-69.3185415769999,-20.4846870393807],[-69.318608202,-20.4843301203807],[-69.3180238069999,-20.4841473783807],[-69.3179255379999,-20.4844821043807]]]]}},{"type":"Feature","properties":{"id":"1405013019001","commune":"Pica","code":"01405","gse":"D","quintil":"Q2","nse_score":634.4,"educ":10.8,"educ_score":520.0,"hacin":1.714,"hacin_class":"Hacinamiento Medio","hacin_score":699.1,"auto_score":500.0,"n_per":24,"n_hog":7,"source_year":2024},"geometry":{"type":"Polygon","coordinates":[[[-69.3622314859999,-20.5089771823801],[-69.360347025,-20.5086378403801],[-69.360300348,-20.5099114923801],[-69.3622314859999,-20.5089771823801]]]}},{"type":"Feature","properties":{"id":"1405013019003","commune":"Pica","code":"01405","gse":"C3","quintil":"Q2","nse_score":684.6,"educ":10.9,"educ_score":526.7,"hacin":1.373,"hacin_class":"Hacinamiento Leve","hacin_score":771.6,"auto_score":333.3,"n_per":103,"n_hog":35,"source_year":2024},"geometry":{"type":"Polygon","coordinates":[[[-69.3580562839999,-20.5090909523801],[-69.3568140929999,-20.5100328053801],[-69.3575308369999,-20.51087197138],[-69.3584936609999,-20.5100942133801],[-69.3581746419999,-20.5093894943801],[-69.3579118759999,-20.5095385053801],[-69.3581025899999,-20.5099001343801],[-69.3575406379999,-20.5103380083801],[-69.3576129109999,-20.5105204223801],[-69.3572335649999,-20.5100771583801],[-69.357074726,-20.5101910593801],[-69.3581641369999,-20.5092824453801],[-69.3580562839999,-20.5090909523801]]]}},{"type":"Feature","properties":{"id":"1405013019005","commune":"Pica","code":"01405","gse":"C3","quintil":"Q3","nse_score":699.9,"educ":12.9,"educ_score":660.0,"hacin":1.5,"hacin_class":"Hacinamiento Medio","hacin_score":744.7,"auto_score":312.5,"n_per":21,"n_hog":8,"source_year":2024},"geometry":{"type":"Polygon","coordinates":[[[-69.3575051209999,-20.5102979423801],[-69.3580669219999,-20.5098854563801],[-69.3578815969999,-20.5095618713801],[-69.3572906719999,-20.5100248103801],[-69.3575051209999,-20.5102979423801]]]}},{"type":"Feature","properties":{"id":"1405013019008","commune":"Pica","code":"01405","gse":"C3","quintil":"Q2","nse_score":670.7,"educ":11.3,"educ_score":553.3,"hacin":1.52,"hacin_class":"Hacinamiento Medio","hacin_score":740.4,"auto_score":363.6,"n_per":38,"n_hog":12,"source_year":2024},"geometry":{"type":"Polygon","coordinates":[[[-69.3585244049999,-20.5101750603801],[-69.3576052359999,-20.51087489438],[-69.3580836379999,-20.51116687938],[-69.3577314449999,-20.5110674373801],[-69.3575854149999,-20.5108955763801],[-69.3568543059999,-20.51239097138],[-69.3594772189999,-20.51281874338],[-69.3590024949999,-20.51189353338],[-69.3585244049999,-20.5101750603801]]]}},{"type":"Feature","properties":{"id":"1405013019010","commune":"Pica","code":"01405","gse":"C3","quintil":"Q2","nse_score":681.1,"educ":10.8,"educ_score":520.0,"hacin":1.348,"hacin_class":"Hacinamiento Leve","hacin_score":777.1,"auto_score":100.0,"n_per":31,"n_hog":10,"source_year":2024},"geometry":{"type":"Polygon","coordinates":[[[-69.3594906339999,-20.5107984313801],[-69.3594603179999,-20.51053967938],[-69.3591151249999,-20.5107199073801],[-69.358760979,-20.5106938453801],[-69.3590906239999,-20.5115857273801],[-69.3594198189999,-20.51197029138],[-69.3600400679999,-20.51223218338],[-69.3617579789999,-20.51244165338],[-69.3619254369999,-20.51140923438],[-69.3615360919999,-20.51129510538],[-69.3615003219999,-20.5110536413801],[-69.3600386589999,-20.5109135973801],[-69.3615130389999,-20.51101845638],[-69.3615675419999,-20.51126888038],[-69.3622659549999,-20.5114387733801],[-69.3624400419999,-20.5104784383801],[-69.3594906339999,-20.5107984313801]]]}},{"type":"Feature","properties":{"id":"1405013019011","commune":"Pica","code":"01405","gse":"C2","quintil":"Q3","nse_score":718.4,"educ":12.4,"educ_score":626.7,"hacin":1.786,"hacin_class":"Hacinamiento Medio","hacin_score":683.9,"auto_score":250.0,"n_per":25,"n_hog":10,"source_year":2024},"geometry":{"type":"Polygon","coordinates":[[[-69.3595933549999,-20.51288080938],[-69.3617418579999,-20.51319039138],[-69.3618574289999,-20.51252383338],[-69.3597823719999,-20.51223182138],[-69.3592934019999,-20.51193877738],[-69.3589135699999,-20.5113807173801],[-69.3591835329999,-20.51219386738],[-69.3595933549999,-20.51288080938]]]}},{"type":"Feature","properties":{"id":"1405013019014","commune":"Pica","code":"01405","gse":"D","quintil":"Q2","nse_score":633.4,"educ":12.0,"educ_score":600.0,"hacin":2.231,"hacin_class":"Hacinamiento Medio","hacin_score":589.2,"auto_score":0.0,"n_per":29,"n_hog":9,"source_year":2024},"geometry":{"type":"Polygon","coordinates":[[[-69.3569833799999,-20.51503639938],[-69.3581116979999,-20.5151961193799],[-69.3584319109999,-20.51520168738],[-69.3584438809999,-20.5150533373799],[-69.3596968799999,-20.51519272538],[-69.3595437149999,-20.51290825038],[-69.3568275909999,-20.51242302938],[-69.3566653089999,-20.51261863438],[-69.3570697279999,-20.51350570738],[-69.3569833799999,-20.51503639938]]]}},{"type":"Feature","properties":{"id":"1405013019016","commune":"Pica","code":"01405","gse":"D","quintil":"Q2","nse_score":638.0,"educ":11.3,"educ_score":553.3,"hacin":1.381,"hacin_class":"Hacinamiento Leve","hacin_score":770.0,"auto_score":142.9,"n_per":29,"n_hog":8,"source_year":2024},"geometry":{"type":"Polygon","coordinates":[[[-69.3625576779999,-20.51341226238],[-69.3635052659999,-20.51347816238],[-69.3641924539999,-20.51372417438],[-69.3642745019999,-20.51325958638],[-69.363898661,-20.51314561638],[-69.3639878819999,-20.51279932638],[-69.3629644639999,-20.51265411538],[-69.36265255,-20.51275897138],[-69.3625576779999,-20.51341226238]]]}},{"type":"Feature","properties":{"id":"1405013019027","commune":"Pica","code":"01405","gse":"D","quintil":"Q1","nse_score":596.1,"educ":11.1,"educ_score":540.0,"hacin":1.308,"hacin_class":"Hacinamiento Leve","hacin_score":785.6,"auto_score":166.7,"n_per":34,"n_hog":12,"source_year":2024},"geometry":{"type":"Polygon","coordinates":[[[-69.3602448329999,-20.5152257583799],[-69.360513539,-20.51497705738],[-69.360571294,-20.51405316038],[-69.3596651949999,-20.51397606638],[-69.3597727469999,-20.51510393038],[-69.3602448329999,-20.5152257583799]]]}},{"type":"Feature","properties":{"id":"1405013019030","commune":"Pica","code":"01405","gse":"D","quintil":"Q2","nse_score":645.5,"educ":10.1,"educ_score":473.3,"hacin":1.3,"hacin_class":"Hacinamiento Leve","hacin_score":787.2,"auto_score":0.0,"n_per":13,"n_hog":5,"source_year":2024},"geometry":{"type":"Polygon","coordinates":[[[-69.3605436919999,-20.51490310338],[-69.3610262469999,-20.51492404238],[-69.3611067829999,-20.51411288238],[-69.3606131729999,-20.51405791938],[-69.3605436919999,-20.51490310338]]]}},{"type":"Feature","properties":{"id":"1405013019031","commune":"Pica","code":"01405","gse":"C3","quintil":"Q2","nse_score":681.8,"educ":11.3,"educ_score":553.3,"hacin":1.143,"hacin_class":"Hacinamiento Leve","hacin_score":820.7,"auto_score":214.3,"n_per":40,"n_hog":14,"source_year":2024},"geometry":{"type":"Polygon","coordinates":[[[-69.3631352319999,-20.5145818593799],[-69.3625036549999,-20.51440781838],[-69.3622922359999,-20.51472318738],[-69.3623501789999,-20.5145434483799],[-69.362117468,-20.51447349138],[-69.3618369299999,-20.5154071923799],[-69.361669306,-20.51564574638],[-69.3618583449999,-20.51508525138],[-69.3606098409999,-20.5149696093799],[-69.3601824169999,-20.5154189323799],[-69.3608040059999,-20.51557498938],[-69.3607296679999,-20.5159962763799],[-69.3612527219999,-20.5163568013799],[-69.3611808699999,-20.5169540953799],[-69.3607770009999,-20.5179941693799],[-69.3607724829999,-20.5187035523799],[-69.3615212669999,-20.5190440493799],[-69.3617316099999,-20.5186462953799],[-69.3616079029999,-20.5176775353799],[-69.3621174509999,-20.5168151723799],[-69.3622936149999,-20.5161491783799],[-69.3626769299999,-20.5156257113799],[-69.3632344679999,-20.5153151603799],[-69.3638733459999,-20.5146573953799],[-69.3638623259999,-20.5144759863799],[-69.364178094,-20.51410467938],[-69.3637284429999,-20.51421175138],[-69.3631352319999,-20.5145818593799]]]}},{"type":"Feature","properties":{"id":"1405013019032","commune":"Pica","code":"01405","gse":"D","quintil":"Q2","nse_score":647.8,"educ":11.5,"educ_score":566.7,"hacin":1.222,"hacin_class":"Hacinamiento Leve","hacin_score":803.8,"auto_score":50.0,"n_per":22,"n_hog":9,"source_year":2024},"geometry":{"type":"Polygon","coordinates":[[[-69.361086209,-20.51493903338],[-69.3618997479999,-20.5150246943799],[-69.362054413,-20.51444772238],[-69.3611535489999,-20.51433350838],[-69.361086209,-20.51493903338]]]}},{"type":"Feature","properties":{"id":"1405013019023","commune":"Pica","code":"01405","gse":"E","quintil":"Q1","nse_score":515.5,"educ":9.7,"educ_score":446.7,"hacin":1.067,"hacin_class":"Hacinamiento Leve","hacin_score":836.9,"auto_score":142.9,"n_per":16,"n_hog":7,"source_year":2024},"geometry":{"type":"MultiPolygon","coordinates":[[[[-69.3623765919999,-20.51451774938],[-69.3624778059999,-20.51408602838],[-69.3622285889999,-20.51403226838],[-69.362132459,-20.51443494438],[-69.3623765919999,-20.51451774938]]],[[[-69.362556062,-20.51345377338],[-69.3625029409999,-20.51436427438],[-69.3631324179999,-20.51454520938],[-69.3646006469999,-20.51382705838],[-69.3634957589999,-20.51350400438],[-69.3628732919999,-20.51346188738],[-69.3627111409999,-20.51371720838],[-69.3627382069999,-20.51348009138],[-69.362556062,-20.51345377338]]],[[[-69.3623608879999,-20.51401228138],[-69.3625046059999,-20.51344025838],[-69.3621267489999,-20.51334698338],[-69.3619468609999,-20.51391139138],[-69.3623608879999,-20.51401228138]]]]}},{"type":"Feature","properties":{"id":"1405013019002","commune":"Pica","code":"01405","gse":"D","quintil":"Q1","nse_score":523.5,"educ":12.3,"educ_score":620.0,"hacin":2.25,"hacin_class":"Hacinamiento Medio","hacin_score":585.1,"auto_score":500.0,"n_per":18,"n_hog":4,"source_year":2024},"geometry":{"type":"MultiPolygon","coordinates":[[[[-69.3624923849999,-20.5104632553801],[-69.3623152419999,-20.51145414738],[-69.3628508179999,-20.51161529338],[-69.3628923519999,-20.51194241138],[-69.363205719,-20.5116686043801],[-69.3636555319999,-20.5109367103801],[-69.3638256139999,-20.5102639453801],[-69.3624923849999,-20.5104632553801]]],[[[-69.361322088,-20.5094742673801],[-69.3614398949999,-20.5105005943801],[-69.362453119,-20.51044146138],[-69.3628363259999,-20.5087739783801],[-69.361322088,-20.5094742673801]]]]}},{"type":"Feature","properties":{"id":"1405013019018","commune":"Pica","code":"01405","gse":"D","quintil":"Q2","nse_score":645.2,"educ":11.5,"educ_score":566.7,"hacin":1.263,"hacin_class":"Hacinamiento Leve","hacin_score":795.1,"auto_score":100.0,"n_per":24,"n_hog":10,"source_year":2024},"geometry":{"type":"MultiPolygon","coordinates":[[[[-69.3596820899999,-20.51391876838],[-69.3602674379999,-20.51396373938],[-69.3602945629999,-20.51381097838],[-69.3598670629999,-20.51367784738],[-69.3596806619999,-20.51333699038],[-69.3596820899999,-20.51391876838]]],[[[-69.3598962419999,-20.51364869938],[-69.3611364159999,-20.51389330838],[-69.3611687769999,-20.51359920738],[-69.3597487149999,-20.51330034638],[-69.3598962419999,-20.51364869938]]],[[[-69.3612229599999,-20.51354024738],[-69.3615923219999,-20.51360301338],[-69.36170562,-20.51325255538],[-69.3612715699999,-20.51319279438],[-69.3612229599999,-20.51354024738]]],[[[-69.3597040949999,-20.51322778938],[-69.3611490279999,-20.51351188038],[-69.3612024759999,-20.51317792638],[-69.3596242689999,-20.51295294438],[-69.3597040949999,-20.51322778938]]]]}},{"type":"Feature","properties":{"id":"1405013019012","commune":"Pica","code":"01405","gse":"D","quintil":"Q1","nse_score":609.2,"educ":10.9,"educ_score":526.7,"hacin":1.889,"hacin_class":"Hacinamiento Medio","hacin_score":661.9,"auto_score":100.0,"n_per":17,"n_hog":5,"source_year":2024},"geometry":{"type":"MultiPolygon","coordinates":[[[[-69.3628810249999,-20.51199318438],[-69.3627345779999,-20.51256073338],[-69.3629676279999,-20.51258914838],[-69.36307389,-20.51231741038],[-69.3629974689999,-20.51259278738],[-69.3636350459999,-20.51267053138],[-69.3636993079999,-20.51230103238],[-69.3635470229999,-20.51228939738],[-69.3636268109999,-20.51190150338],[-69.3631956209999,-20.5117454523801],[-69.3628810249999,-20.51199318438]]],[[[-69.3626655469999,-20.51255231638],[-69.3628694369999,-20.5117028763801],[-69.3619721449999,-20.51142033338],[-69.3618055479999,-20.51244745338],[-69.3626655469999,-20.51255231638]]]]}},{"type":"Feature","properties":{"id":"1405013019017","commune":"Pica","code":"01405","gse":"D","quintil":"Q1","nse_score":565.1,"educ":11.0,"educ_score":533.3,"hacin":1.056,"hacin_class":"Hacinamiento Leve","hacin_score":839.2,"auto_score":50.0,"n_per":19,"n_hog":12,"source_year":2024},"geometry":{"type":"MultiPolygon","coordinates":[[[[-69.3616851199999,-20.51359730238],[-69.3619992089999,-20.51364869938],[-69.3620810619999,-20.51335459738],[-69.3617877729999,-20.51326112038],[-69.3616851199999,-20.51359730238]]],[[[-69.3619107959999,-20.51271424538],[-69.361793255,-20.51322108638],[-69.3621396369999,-20.51330911238],[-69.3621490879999,-20.51320273138],[-69.3621693009999,-20.51331588538],[-69.3625219169999,-20.51339595138],[-69.3626178099999,-20.51274279038],[-69.3619107959999,-20.51271424538]]]]}}]}