{"type":"FeatureCollection","features":[{"type":"Feature","properties":{"id":"6308011001001","commune":"Placilla","code":"06308","gse":"C2","quintil":"Q3","nse_score":715.3,"educ":12.6,"educ_score":640.0,"hacin":0.938,"hacin_class":"Sin Hacinamiento","hacin_score":864.4,"auto_score":300.0,"n_per":15,"n_hog":5,"source_year":2024},"geometry":{"type":"Polygon","coordinates":[[[-71.1175861949999,-34.6315163831173],[-71.1183709609999,-34.6316723201173],[-71.1184357419999,-34.6319925171173],[-71.1204973889999,-34.6321758561173],[-71.1212321549999,-34.6323548701172],[-71.1216304189999,-34.6314200181172],[-71.1198853949999,-34.6310801771173],[-71.1180146639999,-34.6304201081173],[-71.1175861949999,-34.6315163831173]]]}},{"type":"Feature","properties":{"id":"6308011001002","commune":"Placilla","code":"06308","gse":"D","quintil":"Q1","nse_score":630.1,"educ":9.8,"educ_score":453.3,"hacin":1.06,"hacin_class":"Hacinamiento Leve","hacin_score":838.4,"auto_score":175.7,"n_per":89,"n_hog":37,"source_year":2024},"geometry":{"type":"Polygon","coordinates":[[[-71.1171585859999,-34.6314058311173],[-71.1168466549999,-34.6325682891173],[-71.118399629,-34.6331433191173],[-71.1189230299999,-34.6335765591173],[-71.1192658229999,-34.6336239331173],[-71.1196584449999,-34.6339264231172],[-71.1193470189999,-34.6351175701172],[-71.1159070759999,-34.6339044391172],[-71.1157461829999,-34.6345649801173],[-71.1198982739999,-34.6360122201172],[-71.1204753729999,-34.6329046631172],[-71.1206929859999,-34.6322745961173],[-71.1177459799999,-34.6319905231173],[-71.1183194569999,-34.6319753861173],[-71.118374995,-34.6317297041173],[-71.1171585859999,-34.6314058311173]]]}},{"type":"Feature","properties":{"id":"6308011001004","commune":"Placilla","code":"06308","gse":"D","quintil":"Q2","nse_score":657.4,"educ":11.1,"educ_score":540.0,"hacin":0.957,"hacin_class":"Sin Hacinamiento","hacin_score":860.1,"auto_score":104.2,"n_per":45,"n_hog":18,"source_year":2024},"geometry":{"type":"Polygon","coordinates":[[[-71.1096135079999,-34.6327772851172],[-71.1085899349999,-34.6324569331173],[-71.1084912809999,-34.6330089711172],[-71.1095285289999,-34.6331461991173],[-71.1092956539999,-34.6337357431172],[-71.1092664439999,-34.6335707321173],[-71.1083900484999,-34.6334596991172],[-71.1083254189999,-34.6339718361173],[-71.110533545,-34.6338881121173],[-71.1111167549999,-34.6329987071173],[-71.1086668699999,-34.6320738231173],[-71.1085815579999,-34.6323949771173],[-71.1096135079999,-34.6327772851172]]]}},{"type":"Feature","properties":{"id":"6308011001005","commune":"Placilla","code":"06308","gse":"C3","quintil":"Q3","nse_score":682.6,"educ":12.0,"educ_score":600.0,"hacin":1.316,"hacin_class":"Hacinamiento Leve","hacin_score":783.9,"auto_score":129.6,"n_per":75,"n_hog":30,"source_year":2024},"geometry":{"type":"Polygon","coordinates":[[[-71.1235937039999,-34.6373681611172],[-71.1240563289999,-34.6363856631172],[-71.1235706299999,-34.6362133531172],[-71.1220841889999,-34.6360901891172],[-71.121905609,-34.6363826141172],[-71.120637084,-34.6359344181172],[-71.1211649889999,-34.6353422081172],[-71.1215173339999,-34.6333991691172],[-71.1219784929999,-34.6335706481172],[-71.1223297589999,-34.6327369911173],[-71.1207485409999,-34.6323332131173],[-71.1204153989999,-34.6335386131173],[-71.1210684009999,-34.6337490381173],[-71.1204092289999,-34.6335753171173],[-71.1200141919999,-34.6360507711172],[-71.1230418819999,-34.6371693591172],[-71.1233966919999,-34.6364100861172],[-71.1230819629999,-34.6371838001172],[-71.1235937039999,-34.6373681611172]]]}},{"type":"Feature","properties":{"id":"6308011001007","commune":"Placilla","code":"06308","gse":"C2","quintil":"Q4","nse_score":729.2,"educ":12.0,"educ_score":600.0,"hacin":1.156,"hacin_class":"Hacinamiento Leve","hacin_score":818.0,"auto_score":125.0,"n_per":52,"n_hog":16,"source_year":2024},"geometry":{"type":"Polygon","coordinates":[[[-71.1153657609999,-34.6364225641172],[-71.1155406259999,-34.6353636461172],[-71.1156399509999,-34.6353999291172],[-71.1154357959999,-34.6364285491172],[-71.1156811449999,-34.6363640411172],[-71.1163912249999,-34.6365253061172],[-71.1169472649999,-34.6350803801172],[-71.1112313959999,-34.6329953551173],[-71.1105660659999,-34.6339360481173],[-71.1138366229999,-34.6360740431172],[-71.1153657609999,-34.6364225641172]]]}},{"type":"Feature","properties":{"id":"6308011001008","commune":"Placilla","code":"06308","gse":"C3","quintil":"Q3","nse_score":694.4,"educ":11.2,"educ_score":546.7,"hacin":1.107,"hacin_class":"Hacinamiento Leve","hacin_score":828.3,"auto_score":272.7,"n_per":31,"n_hog":11,"source_year":2024},"geometry":{"type":"Polygon","coordinates":[[[-71.1030177099999,-34.6330487271173],[-71.1063975559999,-34.6343574581173],[-71.1080715669999,-34.6347547401173],[-71.1082350949999,-34.6340623631172],[-71.1056598389999,-34.6340095541172],[-71.1030177099999,-34.6330487271173]]]}},{"type":"Feature","properties":{"id":"6308011001010","commune":"Placilla","code":"06308","gse":"C3","quintil":"Q3","nse_score":699.3,"educ":11.2,"educ_score":546.7,"hacin":0.778,"hacin_class":"Sin Hacinamiento","hacin_score":898.3,"auto_score":111.1,"n_per":21,"n_hog":7,"source_year":2024},"geometry":{"type":"Polygon","coordinates":[[[-71.1038710629999,-34.6336804371173],[-71.1038342839999,-34.6337440471172],[-71.1038101269999,-34.6336211971173],[-71.1029512119999,-34.6332705631173],[-71.1028972999999,-34.6331741911173],[-71.1023987699999,-34.6334972791172],[-71.1021380429999,-34.6338827491173],[-71.1058336219999,-34.6352112021172],[-71.1062538399999,-34.6354453881172],[-71.1062363949999,-34.6356313791173],[-71.1070134039999,-34.6360627201172],[-71.1071753109999,-34.6358347071172],[-71.108703165,-34.6365168081172],[-71.1092585689999,-34.6355593501172],[-71.1080510429999,-34.6351715701173],[-71.1080661899999,-34.6347776761172],[-71.1063771059999,-34.6343826961172],[-71.1029339539999,-34.6331674371173],[-71.1037503549999,-34.6335513371172],[-71.1038710629999,-34.6336804371173]]]}},{"type":"Feature","properties":{"id":"6308011001011","commune":"Placilla","code":"06308","gse":"D","quintil":"Q2","nse_score":658.3,"educ":10.8,"educ_score":520.0,"hacin":1.186,"hacin_class":"Hacinamiento Leve","hacin_score":811.4,"auto_score":120.7,"n_per":70,"n_hog":28,"source_year":2024},"geometry":{"type":"Polygon","coordinates":[[[-71.1082856059999,-34.6340801101173],[-71.1081041829999,-34.6347612361172],[-71.1097438179999,-34.6351213081172],[-71.1098432399999,-34.6350477811173],[-71.1099100719999,-34.6350475631172],[-71.109765965,-34.6351264581172],[-71.1135228869999,-34.6359781461172],[-71.1104557339999,-34.6339784241173],[-71.1101875209999,-34.6339456221173],[-71.1097858189999,-34.6347436501173],[-71.1094626269999,-34.6346535351172],[-71.1098035039999,-34.6346973591172],[-71.1101412449999,-34.6339461061172],[-71.1082856059999,-34.6340801101173]]]}},{"type":"Feature","properties":{"id":"6308011001012","commune":"Placilla","code":"06308","gse":"C3","quintil":"Q2","nse_score":675.4,"educ":9.6,"educ_score":440.0,"hacin":1.078,"hacin_class":"Hacinamiento Leve","hacin_score":834.5,"auto_score":169.8,"n_per":152,"n_hog":54,"source_year":2024},"geometry":{"type":"Polygon","coordinates":[[[-71.108073197,-34.6351391691173],[-71.1112295319999,-34.6361994981172],[-71.1113545439999,-34.6359410321172],[-71.1134734699999,-34.6364248961172],[-71.1123017879999,-34.6383204411172],[-71.1127679749999,-34.6384343771172],[-71.1135121449999,-34.6369420111172],[-71.1135288439999,-34.6370821991172],[-71.113732679,-34.6371492211172],[-71.1134751719999,-34.6371225011172],[-71.1133945049999,-34.6374124671172],[-71.1138674769999,-34.6375347831172],[-71.1139825569999,-34.6373290251172],[-71.1139575919999,-34.6375560171172],[-71.1142209789999,-34.6376380451172],[-71.1143960009999,-34.6374439231172],[-71.1143367109999,-34.6376764671172],[-71.1146752269999,-34.6378921811172],[-71.1150011859999,-34.6379134221172],[-71.1152597829999,-34.6370565271172],[-71.1136933069999,-34.6360679011172],[-71.1080982249999,-34.6347842111173],[-71.108073197,-34.6351391691173]]]}},{"type":"Feature","properties":{"id":"6308011001013","commune":"Placilla","code":"06308","gse":"D","quintil":"Q1","nse_score":631.4,"educ":10.8,"educ_score":520.0,"hacin":1.383,"hacin_class":"Hacinamiento Leve","hacin_score":769.6,"auto_score":325.0,"n_per":112,"n_hog":42,"source_year":2024},"geometry":{"type":"Polygon","coordinates":[[[-71.1169720169999,-34.6351649561172],[-71.1164947729999,-34.6365428571172],[-71.1170734839999,-34.6366793081172],[-71.1173572419999,-34.6360782811172],[-71.1171534689999,-34.6367118421172],[-71.1178034859999,-34.6368393541172],[-71.1181331189999,-34.6362683491172],[-71.1188475209999,-34.6364619031172],[-71.1181458879999,-34.6363093211172],[-71.1179377859999,-34.6368913031172],[-71.1195146279999,-34.6372160261172],[-71.1198816949999,-34.6360877191172],[-71.1171147879999,-34.6351013491172],[-71.1169720169999,-34.6351649561172]]]}},{"type":"Feature","properties":{"id":"6308011001015","commune":"Placilla","code":"06308","gse":"D","quintil":"Q1","nse_score":628.6,"educ":11.3,"educ_score":553.3,"hacin":1.429,"hacin_class":"Hacinamiento Leve","hacin_score":759.7,"auto_score":125.0,"n_per":263,"n_hog":93,"source_year":2024},"geometry":{"type":"Polygon","coordinates":[[[-71.1236273979999,-34.6385364851172],[-71.1205819929999,-34.6377606091172],[-71.1196403579999,-34.6390224931172],[-71.1223424879999,-34.6403430561172],[-71.1256709299999,-34.6405968631172],[-71.1260787019999,-34.6396388751172],[-71.1257270039999,-34.6406009321172],[-71.1287009239999,-34.6408363601172],[-71.1285367629999,-34.6404966751172],[-71.128165281,-34.6401646121171],[-71.1273184569999,-34.6396669691172],[-71.1258006909999,-34.6392983941172],[-71.1259564709999,-34.6388706721172],[-71.1257486139999,-34.6388231851172],[-71.1259785069999,-34.6382824451172],[-71.1199680949999,-34.6361629271172],[-71.1195361729999,-34.6374200311172],[-71.122725967,-34.6382012231172],[-71.1236273979999,-34.6385364851172]]]}},{"type":"Feature","properties":{"id":"6308011001017","commune":"Placilla","code":"06308","gse":"C2","quintil":"Q4","nse_score":749.5,"educ":11.7,"educ_score":580.0,"hacin":0.809,"hacin_class":"Sin Hacinamiento","hacin_score":891.6,"auto_score":187.5,"n_per":17,"n_hog":8,"source_year":2024},"geometry":{"type":"Polygon","coordinates":[[[-71.1163095299999,-34.6375093461172],[-71.1173369139999,-34.6380462431172],[-71.1179009229999,-34.6369518551172],[-71.1166430489999,-34.6366796511172],[-71.1163095299999,-34.6375093461172]]]}},{"type":"Feature","properties":{"id":"6308011001018","commune":"Placilla","code":"06308","gse":"D","quintil":"Q2","nse_score":648.6,"educ":12.4,"educ_score":626.7,"hacin":1.312,"hacin_class":"Hacinamiento Leve","hacin_score":784.6,"auto_score":187.5,"n_per":21,"n_hog":7,"source_year":2024},"geometry":{"type":"Polygon","coordinates":[[[-71.119410549,-34.6372735681172],[-71.1180257329999,-34.6369910411172],[-71.1173908339999,-34.6380913471172],[-71.118564896,-34.6386177311172],[-71.119410549,-34.6372735681172]]]}},{"type":"Feature","properties":{"id":"6308011001019","commune":"Placilla","code":"06308","gse":"C2","quintil":"Q4","nse_score":773.2,"educ":13.2,"educ_score":680.0,"hacin":1.136,"hacin_class":"Hacinamiento Leve","hacin_score":822.1,"auto_score":45.5,"n_per":25,"n_hog":11,"source_year":2024},"geometry":{"type":"Polygon","coordinates":[[[-71.11610694,-34.6383569401172],[-71.1177099689999,-34.6390646891172],[-71.1179298519999,-34.6384618921172],[-71.1153232219999,-34.6371182931172],[-71.1150612769999,-34.6379949841172],[-71.11610694,-34.6383569401172]]]}},{"type":"Feature","properties":{"id":"6308011001020","commune":"Placilla","code":"06308","gse":"D","quintil":"Q1","nse_score":624.8,"educ":9.5,"educ_score":433.3,"hacin":1.125,"hacin_class":"Hacinamiento Leve","hacin_score":824.5,"auto_score":41.7,"n_per":54,"n_hog":20,"source_year":2024},"geometry":{"type":"Polygon","coordinates":[[[-71.1131814229999,-34.6377215381172],[-71.1144399909999,-34.6380751521172],[-71.1145317689999,-34.6379092181172],[-71.1143109589999,-34.6377189541172],[-71.1133184099999,-34.6374457321172],[-71.1131814229999,-34.6377215381172]]]}},{"type":"Feature","properties":{"id":"6308011001021","commune":"Placilla","code":"06308","gse":"E","quintil":"Q1","nse_score":494.1,"educ":8.8,"educ_score":386.7,"hacin":0.857,"hacin_class":"Sin Hacinamiento","hacin_score":881.5,"auto_score":0.0,"n_per":6,"n_hog":4,"source_year":2024},"geometry":{"type":"Polygon","coordinates":[[[-71.1204595709999,-34.6377321471172],[-71.1194447279999,-34.6374822651172],[-71.1186639639999,-34.6386723391172],[-71.1195055929999,-34.6389810221172],[-71.1196167989999,-34.6389084311172],[-71.1204595709999,-34.6377321471172]]]}},{"type":"Feature","properties":{"id":"6308011001022","commune":"Placilla","code":"06308","gse":"C3","quintil":"Q2","nse_score":670.3,"educ":10.7,"educ_score":513.3,"hacin":1.371,"hacin_class":"Hacinamiento Leve","hacin_score":772.1,"auto_score":100.0,"n_per":85,"n_hog":28,"source_year":2024},"geometry":{"type":"Polygon","coordinates":[[[-71.1131050609999,-34.6380897981172],[-71.1147729059999,-34.6385624031172],[-71.1149475849999,-34.6380448091172],[-71.1145786049999,-34.6379310731172],[-71.1144632359999,-34.6381130011172],[-71.1131286309999,-34.6377352031172],[-71.1131050609999,-34.6380897981172]]]}},{"type":"Feature","properties":{"id":"6308011001023","commune":"Placilla","code":"06308","gse":"C3","quintil":"Q2","nse_score":666.6,"educ":10.1,"educ_score":473.3,"hacin":1.167,"hacin_class":"Hacinamiento Leve","hacin_score":815.6,"auto_score":54.3,"n_per":126,"n_hog":45,"source_year":2024},"geometry":{"type":"Polygon","coordinates":[[[-71.1157482899999,-34.6390420921172],[-71.1163629529999,-34.6392175151172],[-71.1166113219999,-34.6387234031172],[-71.116171199,-34.6384455281172],[-71.1149998509999,-34.6380543061172],[-71.1149574999999,-34.6382700351172],[-71.1159400109999,-34.6387060911172],[-71.1157482899999,-34.6390420921172]]]}},{"type":"Feature","properties":{"id":"6308011001024","commune":"Placilla","code":"06308","gse":"C3","quintil":"Q2","nse_score":677.1,"educ":10.1,"educ_score":473.3,"hacin":1.174,"hacin_class":"Hacinamiento Leve","hacin_score":814.1,"auto_score":102.6,"n_per":108,"n_hog":39,"source_year":2024},"geometry":{"type":"Polygon","coordinates":[[[-71.1130409949999,-34.6381319941172],[-71.1128473329999,-34.6384711191172],[-71.1146556929999,-34.6390092941172],[-71.114765669,-34.6386149481172],[-71.1130409949999,-34.6381319941172]]]}},{"type":"Feature","properties":{"id":"6308011001025","commune":"Placilla","code":"06308","gse":"C3","quintil":"Q2","nse_score":662.0,"educ":10.1,"educ_score":473.3,"hacin":1.281,"hacin_class":"Hacinamiento Leve","hacin_score":791.2,"auto_score":132.4,"n_per":82,"n_hog":33,"source_year":2024},"geometry":{"type":"Polygon","coordinates":[[[-71.114880034,-34.6385959641172],[-71.1157080369999,-34.6390037861172],[-71.1158599689999,-34.6387093001172],[-71.1149362709999,-34.6383130561172],[-71.114880034,-34.6385959641172]]]}},{"type":"Feature","properties":{"id":"6308011001026","commune":"Placilla","code":"06308","gse":"D","quintil":"Q1","nse_score":627.0,"educ":9.2,"educ_score":413.3,"hacin":1.316,"hacin_class":"Hacinamiento Leve","hacin_score":783.9,"auto_score":176.5,"n_per":200,"n_hog":67,"source_year":2024},"geometry":{"type":"Polygon","coordinates":[[[-71.1144429739999,-34.6392450491172],[-71.1142397809999,-34.6400329821172],[-71.1140217459999,-34.6399711641172],[-71.1139428139999,-34.6401305681172],[-71.1130390809999,-34.6398487541172],[-71.1129016349999,-34.6403305081172],[-71.1139896719999,-34.6408394211172],[-71.1135854479999,-34.6419705651172],[-71.1108134909999,-34.6411997371172],[-71.1104472689999,-34.6418429711172],[-71.1121754319999,-34.6424191001171],[-71.1115210669999,-34.6444221641171],[-71.1118586149999,-34.6445133611171],[-71.1126182589999,-34.6450546691171],[-71.112759433,-34.6450126791171],[-71.1132542619999,-34.6435394291171],[-71.1126471819999,-34.6433677261172],[-71.1132657149999,-34.6435046381172],[-71.1136011279999,-34.6424317401172],[-71.1115177569999,-34.6417492651171],[-71.1136174589999,-34.6423789141172],[-71.114628277,-34.6390991941172],[-71.1123017879999,-34.6383204411172],[-71.1121858959999,-34.6385353391172],[-71.1144429739999,-34.6392450491172]]]}},{"type":"Feature","properties":{"id":"6308011001027","commune":"Placilla","code":"06308","gse":"C2","quintil":"Q4","nse_score":763.8,"educ":12.3,"educ_score":620.0,"hacin":1.017,"hacin_class":"Hacinamiento Leve","hacin_score":847.5,"auto_score":153.8,"n_per":61,"n_hog":27,"source_year":2024},"geometry":{"type":"Polygon","coordinates":[[[-71.1180599099999,-34.6392301841172],[-71.1177506909999,-34.6391116951172],[-71.1175936399999,-34.6393642211172],[-71.1184819419999,-34.6398329691172],[-71.1184085879999,-34.6402189101172],[-71.1208563109999,-34.6409115991172],[-71.1210065309999,-34.6397849331172],[-71.1196269769999,-34.6390868641172],[-71.118036834,-34.6384902411172],[-71.1177688569999,-34.6390783851172],[-71.1180599099999,-34.6392301841172]]]}},{"type":"Feature","properties":{"id":"6308011001028","commune":"Placilla","code":"06308","gse":"D","quintil":"Q2","nse_score":659.9,"educ":10.0,"educ_score":466.7,"hacin":1.337,"hacin_class":"Hacinamiento Leve","hacin_score":779.3,"auto_score":77.5,"n_per":218,"n_hog":72,"source_year":2024},"geometry":{"type":"Polygon","coordinates":[[[-71.1147520499999,-34.6390228331172],[-71.1152881689999,-34.6392789371172],[-71.1147000509999,-34.6390669151172],[-71.1151207649999,-34.6393740051172],[-71.1149847739999,-34.6399741101172],[-71.1144642209999,-34.6399191601172],[-71.1136050869999,-34.6426421611171],[-71.1148576569999,-34.6431362251171],[-71.115012954,-34.6426678161171],[-71.1155650629999,-34.6428397741171],[-71.1157857169999,-34.6421038481171],[-71.1147431399999,-34.6417824991171],[-71.1150241959999,-34.6409144581172],[-71.1144074179999,-34.6406685291172],[-71.1145782699999,-34.6404357791171],[-71.114982617,-34.6405375401172],[-71.1151328629999,-34.6397257951172],[-71.1167136179999,-34.6404178031172],[-71.1168871409999,-34.6401590721172],[-71.1182513869999,-34.6407714791172],[-71.1184339599999,-34.6402244451172],[-71.1182359949999,-34.6404972391172],[-71.1171137459999,-34.6399547041172],[-71.1176650239999,-34.6391106171172],[-71.1169598999999,-34.6388571851172],[-71.1164547309999,-34.6396492231172],[-71.1165463199999,-34.6392987321172],[-71.1159296399999,-34.6392005751172],[-71.1152748039999,-34.6388536141172],[-71.1150678369999,-34.6391577741172],[-71.1152174039999,-34.6388275511172],[-71.114899938,-34.6386579321172],[-71.1147520499999,-34.6390228331172]]]}},{"type":"Feature","properties":{"id":"6308011001030","commune":"Placilla","code":"06308","gse":"E","quintil":"Q1","nse_score":566.7,"educ":7.2,"educ_score":280.0,"hacin":1.167,"hacin_class":"Hacinamiento Leve","hacin_score":815.6,"auto_score":0.0,"n_per":21,"n_hog":10,"source_year":2024},"geometry":{"type":"Polygon","coordinates":[[[-71.1149240349999,-34.6399497191172],[-71.1150579529999,-34.6393892431172],[-71.1146703419999,-34.6391992571172],[-71.1144791339999,-34.6398665251172],[-71.1149240349999,-34.6399497191172]]]}},{"type":"Feature","properties":{"id":"6308011001031","commune":"Placilla","code":"06308","gse":"C3","quintil":"Q3","nse_score":712.1,"educ":11.1,"educ_score":540.0,"hacin":1.279,"hacin_class":"Hacinamiento Leve","hacin_score":791.6,"auto_score":69.0,"n_per":87,"n_hog":28,"source_year":2024},"geometry":{"type":"Polygon","coordinates":[[[-71.1175780269999,-34.6394592941172],[-71.1173788019999,-34.6397079491172],[-71.1183711619999,-34.6401495741172],[-71.1183995549999,-34.6398495931172],[-71.1175780269999,-34.6394592941172]]]}},{"type":"Feature","properties":{"id":"6308011001032","commune":"Placilla","code":"06308","gse":"D","quintil":"Q2","nse_score":653.0,"educ":9.8,"educ_score":453.3,"hacin":1.46,"hacin_class":"Hacinamiento Leve","hacin_score":753.1,"auto_score":200.0,"n_per":111,"n_hog":33,"source_year":2024},"geometry":{"type":"Polygon","coordinates":[[[-71.1182219899999,-34.6404499031172],[-71.1183382949999,-34.6401904281172],[-71.1173559919999,-34.6397276111172],[-71.1171916169999,-34.6399301251172],[-71.1182219899999,-34.6404499031172]]]}},{"type":"Feature","properties":{"id":"6308011001033","commune":"Placilla","code":"06308","gse":"C2","quintil":"Q4","nse_score":735.5,"educ":10.4,"educ_score":493.3,"hacin":0.682,"hacin_class":"Sin Hacinamiento","hacin_score":918.8,"auto_score":62.5,"n_per":15,"n_hog":8,"source_year":2024},"geometry":{"type":"Polygon","coordinates":[[[-71.1208989089999,-34.6410140041172],[-71.123196763,-34.6423329941172],[-71.1238023659999,-34.6412026151172],[-71.1272082409999,-34.6414575471172],[-71.1273972219999,-34.6407718031172],[-71.1223110139999,-34.6403849831172],[-71.1211312969999,-34.6398675891172],[-71.1208989089999,-34.6410140041172]]]}},{"type":"Feature","properties":{"id":"6308011001034","commune":"Placilla","code":"06308","gse":"C3","quintil":"Q3","nse_score":694.7,"educ":10.5,"educ_score":500.0,"hacin":1.238,"hacin_class":"Hacinamiento Leve","hacin_score":800.4,"auto_score":90.9,"n_per":26,"n_hog":11,"source_year":2024},"geometry":{"type":"Polygon","coordinates":[[[-71.1128157029999,-34.6449959431171],[-71.1129884209999,-34.6449445711171],[-71.1135926029999,-34.6452942421171],[-71.1138106139999,-34.6446992541171],[-71.1133710159999,-34.6445206311171],[-71.1136027589999,-34.6440986861172],[-71.1144700629999,-34.6443052901171],[-71.1148441979999,-34.6431768211171],[-71.1135788819999,-34.6426857891171],[-71.1128157029999,-34.6449959431171]]]}},{"type":"Feature","properties":{"id":"6308011001014","commune":"Placilla","code":"06308","gse":"C2","quintil":"Q4","nse_score":768.6,"educ":12.5,"educ_score":633.3,"hacin":1.105,"hacin_class":"Hacinamiento Leve","hacin_score":828.7,"auto_score":0.0,"n_per":21,"n_hog":9,"source_year":2024},"geometry":{"type":"MultiPolygon","coordinates":[[[[-71.1162897309999,-34.6374668861172],[-71.1166242289999,-34.6366384751172],[-71.1156625979999,-34.6364339921172],[-71.1154460099999,-34.6370713591172],[-71.1162897309999,-34.6374668861172]]],[[[-71.1152718779999,-34.6369828861172],[-71.1154775019999,-34.6364755751172],[-71.1140072919999,-34.6361511021172],[-71.1152718779999,-34.6369828861172]]]]}},{"type":"Feature","properties":{"id":"6308011001006","commune":"Placilla","code":"06308","gse":"C2","quintil":"Q4","nse_score":734.1,"educ":11.4,"educ_score":560.0,"hacin":1.281,"hacin_class":"Hacinamiento Leve","hacin_score":791.2,"auto_score":181.8,"n_per":41,"n_hog":12,"source_year":2024},"geometry":{"type":"MultiPolygon","coordinates":[[[[-71.1084698049999,-34.6330507151173],[-71.1083988549999,-34.6334119471173],[-71.1092655009999,-34.6335335071172],[-71.1094649679999,-34.6331662211173],[-71.1084698049999,-34.6330507151173]]],[[[-71.1030734409999,-34.6329615631172],[-71.1056780929999,-34.6339619271172],[-71.107213752,-34.6340128301173],[-71.108239394,-34.6339699041173],[-71.1083709089999,-34.6332638661172],[-71.1059099419999,-34.6332779361173],[-71.1034935799999,-34.6323886141172],[-71.1030734409999,-34.6329615631172]]]]}},{"type":"Feature","properties":{"id":"6308033023002","commune":"Placilla","code":"06308","gse":"D","quintil":"Q2","nse_score":655.8,"educ":10.3,"educ_score":486.7,"hacin":1.419,"hacin_class":"Hacinamiento Leve","hacin_score":761.8,"auto_score":220.9,"n_per":132,"n_hog":44,"source_year":2024},"geometry":{"type":"Polygon","coordinates":[[[-71.0611355349999,-34.6314405771173],[-71.0613777559999,-34.6315623461173],[-71.0619344119999,-34.6307878791173],[-71.0585328449999,-34.6291257111173],[-71.0601847469999,-34.6264523801173],[-71.0591906289999,-34.6260199441173],[-71.0574777179999,-34.6289329831173],[-71.0583625769999,-34.6293330311173],[-71.0579912569999,-34.6298817391173],[-71.0610595019999,-34.6314029191173],[-71.061369785,-34.6310188111173],[-71.0611355349999,-34.6314405771173]]]}},{"type":"Feature","properties":{"id":"6308033023003","commune":"Placilla","code":"06308","gse":"E","quintil":"Q1","nse_score":558.6,"educ":9.2,"educ_score":413.3,"hacin":1.43,"hacin_class":"Hacinamiento Leve","hacin_score":759.5,"auto_score":127.3,"n_per":123,"n_hog":46,"source_year":2024},"geometry":{"type":"Polygon","coordinates":[[[-71.0649909709999,-34.6287817051173],[-71.0632120999999,-34.6314343571173],[-71.061971577,-34.6308067631173],[-71.0614148029999,-34.6315813941173],[-71.0639104769999,-34.6328083061173],[-71.0647427219999,-34.6314448451173],[-71.0639274469999,-34.6310825911173],[-71.0647623999999,-34.6314126561173],[-71.0654403409999,-34.6302904181173],[-71.0646910739999,-34.6299304261173],[-71.0654621879999,-34.6302592101173],[-71.0659187489999,-34.6295753501173],[-71.0639534329999,-34.6328207901173],[-71.0650279549999,-34.6332743701173],[-71.0670672909999,-34.6300688881173],[-71.0661956429999,-34.6296420381173],[-71.0670926419999,-34.6300277491173],[-71.0672240599999,-34.6298144841173],[-71.0649909709999,-34.6287817051173]]]}},{"type":"Feature","properties":{"id":"6308033023005","commune":"Placilla","code":"06308","gse":"D","quintil":"Q2","nse_score":650.4,"educ":10.3,"educ_score":486.7,"hacin":1.247,"hacin_class":"Hacinamiento Leve","hacin_score":798.5,"auto_score":54.1,"n_per":101,"n_hog":36,"source_year":2024},"geometry":{"type":"Polygon","coordinates":[[[-71.0612060049999,-34.6322419181173],[-71.0614477829999,-34.6316560461173],[-71.0598084829999,-34.6308467401173],[-71.0594351659999,-34.6313217481173],[-71.0597710169999,-34.6308282511173],[-71.0579595379999,-34.6299345731173],[-71.0572419209999,-34.6309015911173],[-71.0565989489999,-34.6306409691173],[-71.0562688839999,-34.6311977811173],[-71.0574784579999,-34.6317318491173],[-71.0581985719999,-34.6308413961173],[-71.0612060049999,-34.6322419181173]]]}},{"type":"Feature","properties":{"id":"6308033023006","commune":"Placilla","code":"06308","gse":"D","quintil":"Q2","nse_score":660.4,"educ":9.2,"educ_score":413.3,"hacin":1.1,"hacin_class":"Hacinamiento Leve","hacin_score":829.8,"auto_score":76.9,"n_per":33,"n_hog":12,"source_year":2024},"geometry":{"type":"Polygon","coordinates":[[[-71.0612638759999,-34.6322692091173],[-71.0638510349999,-34.6334300031173],[-71.0641487179999,-34.6330028741173],[-71.0615052019999,-34.6316844321173],[-71.0612638759999,-34.6322692091173]]]}},{"type":"Feature","properties":{"id":"6308033023001","commune":"Placilla","code":"06308","gse":"C2","quintil":"Q4","nse_score":732.3,"educ":13.2,"educ_score":680.0,"hacin":1.288,"hacin_class":"Hacinamiento Leve","hacin_score":789.8,"auto_score":283.3,"n_per":85,"n_hog":30,"source_year":2024},"geometry":{"type":"MultiPolygon","coordinates":[[[[-71.057929741,-34.6298497371173],[-71.0583148149999,-34.6293514411173],[-71.0574580369999,-34.6289651751173],[-71.0571581119999,-34.6294557571173],[-71.057929741,-34.6298497371173]]],[[[-71.0570189069999,-34.6276075031173],[-71.0561725919999,-34.6289878341173],[-71.0570884399999,-34.6294400971173],[-71.0584919049999,-34.6270779411173],[-71.0570400599999,-34.6263424261173],[-71.0567349769999,-34.6268381961173],[-71.057263282,-34.6271254211173],[-71.0566949359999,-34.6268602091173],[-71.0570027969999,-34.6263235481174],[-71.055473677,-34.6255488521174],[-71.0550390329999,-34.6262113361173],[-71.0542861719999,-34.6258608441173],[-71.0550237489999,-34.6261693241173],[-71.0554364659999,-34.6255299991173],[-71.0546535309999,-34.6251119371173],[-71.0585111309999,-34.6270454421173],[-71.0598947999999,-34.6246824551173],[-71.0589839479999,-34.6242450841174],[-71.0577624169999,-34.6260177941173],[-71.0547071039999,-34.6244768101173],[-71.0536364079999,-34.6258915921174],[-71.0570189069999,-34.6276075031173]]]]}},{"type":"Feature","properties":{"id":"6308033041001","commune":"Placilla","code":"06308","gse":"E","quintil":"Q1","nse_score":545.7,"educ":8.2,"educ_score":346.7,"hacin":1.393,"hacin_class":"Hacinamiento Leve","hacin_score":767.5,"auto_score":93.0,"n_per":117,"n_hog":42,"source_year":2024},"geometry":{"type":"Polygon","coordinates":[[[-71.0398708519999,-34.6197175351174],[-71.0389176879999,-34.6203870981174],[-71.0379274829999,-34.6197786551174],[-71.0374681419999,-34.6201107561174],[-71.0366836469999,-34.6203624101174],[-71.0356890749999,-34.6212858541174],[-71.0360959589999,-34.6216756301174],[-71.0360267069999,-34.6220306351174],[-71.0368778119999,-34.6231505851174],[-71.0382201169999,-34.6217742131174],[-71.0369951519999,-34.6208216551174],[-71.0363892389999,-34.6213214761174],[-71.0369606369999,-34.6207993921174],[-71.0367449079999,-34.6206602381174],[-71.0361692979999,-34.6210939291174],[-71.0367296739999,-34.6206219351174],[-71.0382627949999,-34.6217330251174],[-71.0384824109999,-34.6215212941174],[-71.0373956249999,-34.6207212751174],[-71.0373499769999,-34.6205284691174],[-71.0369136459999,-34.6205932601174],[-71.0375875589999,-34.6204139981174],[-71.0379872179999,-34.6201598601174],[-71.0388704449999,-34.6208774381174],[-71.0387976719999,-34.6209937281174],[-71.0390217149999,-34.6211653041174],[-71.0400025129999,-34.6205693901174],[-71.0411610889999,-34.6201351021174],[-71.0398708519999,-34.6197175351174]]]}},{"type":"Feature","properties":{"id":"6308033041009","commune":"Placilla","code":"06308","gse":"E","quintil":"Q1","nse_score":603.9,"educ":9.9,"educ_score":460.0,"hacin":1.434,"hacin_class":"Hacinamiento Leve","hacin_score":758.7,"auto_score":96.2,"n_per":76,"n_hog":25,"source_year":2024},"geometry":{"type":"Polygon","coordinates":[[[-71.0342560949999,-34.6245041881174],[-71.0320318789999,-34.6268056161173],[-71.0329429219999,-34.6272499081173],[-71.0358892449999,-34.6241943091174],[-71.0351972219999,-34.6237323981174],[-71.0351926739999,-34.6232849331173],[-71.0341126739999,-34.6244215691173],[-71.0342560949999,-34.6245041881174]]]}},{"type":"Feature","properties":{"id":"6308033041011","commune":"Placilla","code":"06308","gse":"D","quintil":"Q2","nse_score":660.1,"educ":10.5,"educ_score":500.0,"hacin":1.299,"hacin_class":"Hacinamiento Leve","hacin_score":787.5,"auto_score":154.8,"n_per":113,"n_hog":40,"source_year":2024},"geometry":{"type":"Polygon","coordinates":[[[-71.0361105649999,-34.6240777731174],[-71.0314778719999,-34.6288032531173],[-71.0319174829999,-34.6291250941173],[-71.0347825209999,-34.6262305871174],[-71.0372697309999,-34.6280269461173],[-71.0359681269999,-34.6293812151173],[-71.0366832389999,-34.6298628231173],[-71.0380314459999,-34.6285497641173],[-71.0374843979999,-34.6281851551173],[-71.0380554199999,-34.6285194271173],[-71.0394966579999,-34.6257682551174],[-71.0381204579999,-34.6250704751173],[-71.0370929309999,-34.6268992751173],[-71.0380651159999,-34.6250400041173],[-71.0361105649999,-34.6240777731174]]]}},{"type":"Feature","properties":{"id":"6308033041012","commune":"Placilla","code":"06308","gse":"D","quintil":"Q2","nse_score":650.3,"educ":10.1,"educ_score":473.3,"hacin":1.379,"hacin_class":"Hacinamiento Leve","hacin_score":770.4,"auto_score":136.4,"n_per":240,"n_hog":80,"source_year":2024},"geometry":{"type":"Polygon","coordinates":[[[-71.0364275609999,-34.6303442521173],[-71.0370758599999,-34.6308299671173],[-71.0387656859999,-34.6290659251173],[-71.0414786039999,-34.6310752971173],[-71.0447397729999,-34.6272079481173],[-71.0417315629999,-34.6256971431174],[-71.0416172939999,-34.6260153241173],[-71.0426261839999,-34.6266101081174],[-71.0415704929999,-34.6260535121173],[-71.0415008919999,-34.6259644411174],[-71.0416759679999,-34.6256686281173],[-71.0414666779999,-34.6255615511173],[-71.0399834069999,-34.6284380161173],[-71.0417902289999,-34.6298015231173],[-71.0419332009999,-34.6296954461173],[-71.0418191869999,-34.6298301531173],[-71.0420144659999,-34.6300068901173],[-71.0399573869999,-34.6284913901173],[-71.0394694119999,-34.6293723951173],[-71.0396996369999,-34.6288997091173],[-71.0388592899999,-34.6285161721173],[-71.0397146449999,-34.6288447811173],[-71.0414101779999,-34.6255319821173],[-71.0399914179999,-34.6248546101174],[-71.0393818509999,-34.6261286171173],[-71.0397770879999,-34.6262688111173],[-71.0393650269999,-34.6261618851173],[-71.0392218059999,-34.6264450791173],[-71.0395177319999,-34.6265415151173],[-71.0396689719999,-34.6267318651174],[-71.0392049769999,-34.6264783551174],[-71.0385055019999,-34.6278162011173],[-71.0389709669999,-34.6281706921173],[-71.0384870789999,-34.6278511951173],[-71.0381004529999,-34.6285665331174],[-71.0378467499999,-34.6287950811173],[-71.0383242429999,-34.6291275001173],[-71.0378171469999,-34.6288216141173],[-71.0364275609999,-34.6303442521173]]]}},{"type":"Feature","properties":{"id":"6308033041013","commune":"Placilla","code":"06308","gse":"C3","quintil":"Q3","nse_score":690.4,"educ":11.0,"educ_score":533.3,"hacin":1.286,"hacin_class":"Hacinamiento Leve","hacin_score":790.3,"auto_score":200.0,"n_per":36,"n_hog":10,"source_year":2024},"geometry":{"type":"Polygon","coordinates":[[[-71.0320062119999,-34.6268348581173],[-71.0305612089999,-34.6283196881173],[-71.0313987779999,-34.6287687721173],[-71.0329151529999,-34.6272780881174],[-71.0320062119999,-34.6268348581173]]]}},{"type":"Feature","properties":{"id":"6308033041014","commune":"Placilla","code":"06308","gse":"C3","quintil":"Q3","nse_score":686.8,"educ":12.4,"educ_score":626.7,"hacin":1.562,"hacin_class":"Hacinamiento Medio","hacin_score":731.4,"auto_score":416.7,"n_per":25,"n_hog":6,"source_year":2024},"geometry":{"type":"Polygon","coordinates":[[[-71.0305335029999,-34.6283478861173],[-71.0292392869999,-34.6296501121173],[-71.0291805389999,-34.6297168031173],[-71.0300177429999,-34.6301546761173],[-71.031095778,-34.6290621961173],[-71.0305777599999,-34.6286547831173],[-71.0311240979999,-34.6290347711173],[-71.0313700569999,-34.6287965861173],[-71.0305335029999,-34.6283478861173]]]}},{"type":"Feature","properties":{"id":"6308033041006","commune":"Placilla","code":"06308","gse":"D","quintil":"Q1","nse_score":618.6,"educ":9.6,"educ_score":440.0,"hacin":1.2,"hacin_class":"Hacinamiento Leve","hacin_score":808.5,"auto_score":142.9,"n_per":12,"n_hog":6,"source_year":2024},"geometry":{"type":"MultiPolygon","coordinates":[[[[-71.044816566,-34.6271375511173],[-71.0450710679999,-34.6268273761173],[-71.0390263809999,-34.6237948121173],[-71.0388219629999,-34.6241780731174],[-71.044816566,-34.6271375511173]]],[[[-71.0361516359999,-34.6240349651174],[-71.0395217569999,-34.6257177901174],[-71.0399339389999,-34.6248274471173],[-71.0369026449999,-34.6232564871174],[-71.0361516359999,-34.6240349651174]]],[[[-71.0355702769999,-34.6228109611174],[-71.0351895539999,-34.6232316561173],[-71.0352129199999,-34.6236760361174],[-71.0359174259999,-34.6241647321174],[-71.0365818959999,-34.6234735441174],[-71.0357766339999,-34.6230168531174],[-71.0355702769999,-34.6228109611174]]],[[[-71.0356086379999,-34.6227685731174],[-71.0366226939999,-34.6234312171174],[-71.036854365,-34.6231908641174],[-71.0361082949999,-34.6222164551174],[-71.0356086379999,-34.6227685731174]]]]}},{"type":"Feature","properties":{"id":"6308033041003","commune":"Placilla","code":"06308","gse":"D","quintil":"Q2","nse_score":640.2,"educ":10.5,"educ_score":500.0,"hacin":1.293,"hacin_class":"Hacinamiento Leve","hacin_score":788.7,"auto_score":160.7,"n_per":75,"n_hog":27,"source_year":2024},"geometry":{"type":"MultiPolygon","coordinates":[[[[-71.0392793379999,-34.6228907741174],[-71.0384325369999,-34.6225830001174],[-71.0379279499999,-34.6221675181174],[-71.0369544019999,-34.6231982451174],[-71.0387845659999,-34.6241588141174],[-71.039897515,-34.6218331771174],[-71.0390419079999,-34.6212291131174],[-71.0379563859999,-34.6221400361174],[-71.0384559459999,-34.6225523711174],[-71.0392793379999,-34.6228907741174]]],[[[-71.0390797179999,-34.6212086871174],[-71.0399581779999,-34.6217587861174],[-71.0410516399999,-34.6210956301174],[-71.04048911,-34.6209441221174],[-71.040059632,-34.6206269491174],[-71.0390797179999,-34.6212086871174]]]]}},{"type":"Feature","properties":{"id":"6308033045001","commune":"Placilla","code":"06308","gse":"C3","quintil":"Q2","nse_score":678.5,"educ":9.7,"educ_score":446.7,"hacin":1.192,"hacin_class":"Hacinamiento Leve","hacin_score":810.1,"auto_score":202.7,"n_per":93,"n_hog":36,"source_year":2024},"geometry":{"type":"Polygon","coordinates":[[[-71.0278465789999,-34.6030048631176],[-71.0290325029999,-34.6062607021176],[-71.0290177729999,-34.6067062541176],[-71.0320881749999,-34.6059550801176],[-71.0317835009999,-34.6046357051176],[-71.0315577499999,-34.6046738071176],[-71.0316598079999,-34.6053102251176],[-71.0300098429999,-34.6056776311176],[-71.0288319089999,-34.6027865551176],[-71.0278465789999,-34.6030048631176]]]}},{"type":"Feature","properties":{"id":"6308033045003","commune":"Placilla","code":"06308","gse":"C3","quintil":"Q2","nse_score":667.4,"educ":10.3,"educ_score":486.7,"hacin":1.25,"hacin_class":"Hacinamiento Leve","hacin_score":797.9,"auto_score":361.1,"n_per":55,"n_hog":18,"source_year":2024},"geometry":{"type":"Polygon","coordinates":[[[-71.0363563349999,-34.6047724001176],[-71.0337922299999,-34.6047190191176],[-71.0318282639999,-34.6046370011176],[-71.0321316129999,-34.6059520961176],[-71.0357024689999,-34.6058807931175],[-71.035491755,-34.6050135691176],[-71.0357474439999,-34.6058818981176],[-71.0366540179999,-34.6058979591176],[-71.0363563349999,-34.6047724001176]]]}},{"type":"Feature","properties":{"id":"6308033045004","commune":"Placilla","code":"06308","gse":"C3","quintil":"Q3","nse_score":688.4,"educ":10.4,"educ_score":493.3,"hacin":1.307,"hacin_class":"Hacinamiento Leve","hacin_score":785.8,"auto_score":276.9,"n_per":196,"n_hog":63,"source_year":2024},"geometry":{"type":"Polygon","coordinates":[[[-71.0342598469999,-34.6059245501176],[-71.0315528799999,-34.6060694621176],[-71.0291352089999,-34.6066998551175],[-71.0289950669999,-34.6068190301176],[-71.0289782069999,-34.6074842161176],[-71.0318059259999,-34.6074370661175],[-71.0313342959999,-34.6068452661176],[-71.0318590169999,-34.6074359801176],[-71.0323722109999,-34.6074254841175],[-71.0323799539999,-34.6072667991176],[-71.0324936229999,-34.6072005161175],[-71.033134635,-34.6069977881176],[-71.0336132229999,-34.6069474441176],[-71.0338061369999,-34.6069850121176],[-71.0337813979999,-34.6073658571175],[-71.0336853339999,-34.6072633341175],[-71.0337375639999,-34.6070173481176],[-71.0336140459999,-34.6070018541175],[-71.0325205869999,-34.6072498931176],[-71.0324076369999,-34.6074784721176],[-71.0289626469999,-34.6075367481175],[-71.0289038279999,-34.6079485181175],[-71.0300655469999,-34.6082576081175],[-71.0342093619999,-34.6087014471175],[-71.034903417,-34.6060844391176],[-71.0343283049999,-34.6060858111176],[-71.0343239979999,-34.6065956191176],[-71.0345629119999,-34.6066337451176],[-71.0332718239999,-34.6066729141176],[-71.0342585679999,-34.6065975211175],[-71.0342628859999,-34.6060865331176],[-71.0331440489999,-34.6060652261176],[-71.0342624799999,-34.6060324281176],[-71.0342598469999,-34.6059245501176]]]}},{"type":"Feature","properties":{"id":"6308033045007","commune":"Placilla","code":"06308","gse":"C2","quintil":"Q4","nse_score":750.3,"educ":11.7,"educ_score":580.0,"hacin":1.267,"hacin_class":"Hacinamiento Leve","hacin_score":794.3,"auto_score":250.0,"n_per":76,"n_hog":20,"source_year":2024},"geometry":{"type":"Polygon","coordinates":[[[-71.0235391599999,-34.6072505021176],[-71.0234218939999,-34.6081989871175],[-71.0228555819999,-34.6082591231175],[-71.0229622549999,-34.6091878981176],[-71.0241522929999,-34.6087140331176],[-71.0236258639999,-34.6086231671176],[-71.0238241519999,-34.6075941871176],[-71.0238562909999,-34.6077651021175],[-71.0253773669999,-34.6080575611176],[-71.025474217,-34.6076190321176],[-71.0235391599999,-34.6072505021176]]]}},{"type":"Feature","properties":{"id":"6308033045009","commune":"Placilla","code":"06308","gse":"E","quintil":"Q1","nse_score":543.1,"educ":7.8,"educ_score":320.0,"hacin":1.108,"hacin_class":"Hacinamiento Leve","hacin_score":828.1,"auto_score":27.8,"n_per":41,"n_hog":17,"source_year":2024},"geometry":{"type":"Polygon","coordinates":[[[-71.0253801459999,-34.6084322321175],[-71.0271953449999,-34.6081003101175],[-71.0268391459999,-34.6080011361176],[-71.0272923159999,-34.6080819261176],[-71.0275989079999,-34.6079783161176],[-71.0255379499999,-34.6076315391176],[-71.0253801459999,-34.6084322321175]]]}},{"type":"Feature","properties":{"id":"6308033045010","commune":"Placilla","code":"06308","gse":"D","quintil":"Q2","nse_score":642.8,"educ":8.9,"educ_score":393.3,"hacin":1.571,"hacin_class":"Hacinamiento Medio","hacin_score":729.5,"auto_score":266.7,"n_per":55,"n_hog":15,"source_year":2024},"geometry":{"type":"Polygon","coordinates":[[[-71.0237787899999,-34.6081582591175],[-71.0253140379999,-34.6084325141176],[-71.025368694,-34.6081114221175],[-71.0238457449999,-34.6078186031176],[-71.0237787899999,-34.6081582591175]]]}},{"type":"Feature","properties":{"id":"6308033045012","commune":"Placilla","code":"06308","gse":"C3","quintil":"Q3","nse_score":691.7,"educ":10.8,"educ_score":520.0,"hacin":1.652,"hacin_class":"Hacinamiento Medio","hacin_score":712.3,"auto_score":250.0,"n_per":38,"n_hog":10,"source_year":2024},"geometry":{"type":"Polygon","coordinates":[[[-71.0236952819999,-34.6085957021175],[-71.0242598279999,-34.6086741291176],[-71.0252029909999,-34.6084680111176],[-71.0237682539999,-34.6082117111176],[-71.0236952819999,-34.6085957021175]]]}},{"type":"Feature","properties":{"id":"6308033045002","commune":"Placilla","code":"06308","gse":"C3","quintil":"Q2","nse_score":662.5,"educ":10.2,"educ_score":480.0,"hacin":1.215,"hacin_class":"Hacinamiento Leve","hacin_score":805.3,"auto_score":200.0,"n_per":130,"n_hog":46,"source_year":2024},"geometry":{"type":"MultiPolygon","coordinates":[[[[-71.0277953499999,-34.6066517351176],[-71.0279790309999,-34.6078462301176],[-71.0283907779999,-34.6077188511176],[-71.028277924,-34.6065873961176],[-71.0281075859999,-34.6065253791176],[-71.0277953499999,-34.6066517351176]]],[[[-71.0269628329999,-34.6039117581176],[-71.0278682789999,-34.6062373811175],[-71.0275677589999,-34.6062673441176],[-71.0275697419999,-34.6064556401176],[-71.0250411899999,-34.6065694501176],[-71.0250367349999,-34.6074775961176],[-71.0259205969999,-34.6076510411176],[-71.0260039489999,-34.6071983731176],[-71.0259068539999,-34.6071369881175],[-71.0260501659999,-34.6071851881176],[-71.0259631699999,-34.6076593961175],[-71.0269974319999,-34.6078607471176],[-71.027210039,-34.6065219061176],[-71.0270618659999,-34.6078720711175],[-71.0279368969999,-34.6078577571175],[-71.0277567059999,-34.6066221681176],[-71.0282063659999,-34.6064896801175],[-71.0283208409999,-34.6065798231176],[-71.0284335029999,-34.6077090391175],[-71.0287421859999,-34.6076208281176],[-71.0289123649999,-34.6075005191176],[-71.0289960569999,-34.6064935271176],[-71.0285210189999,-34.6050437461176],[-71.028189531,-34.6050809871176],[-71.0275598469999,-34.6050440851176],[-71.0285082529999,-34.6050087051176],[-71.0280450269999,-34.6037371251176],[-71.0269628329999,-34.6039117581176]]]]}},{"type":"Feature","properties":{"id":"6308043023001","commune":"Placilla","code":"06308","gse":"D","quintil":"Q1","nse_score":624.2,"educ":9.0,"educ_score":400.0,"hacin":1.165,"hacin_class":"Hacinamiento Leve","hacin_score":816.0,"auto_score":69.4,"n_per":106,"n_hog":34,"source_year":2024},"geometry":{"type":"Polygon","coordinates":[[[-71.0687388569999,-34.6327510491173],[-71.0687529659999,-34.6323077841173],[-71.0691067129999,-34.6320948401173],[-71.0700982929999,-34.6320809911173],[-71.0702873769999,-34.6309725281173],[-71.0668253139999,-34.6305856891173],[-71.066372526,-34.6313091851173],[-71.0670712969999,-34.6315313451173],[-71.0675528429999,-34.6308057091173],[-71.0671324139999,-34.6315510801173],[-71.068161228,-34.6319165491172],[-71.0689230799999,-34.6315227061173],[-71.0692176809999,-34.6315223901173],[-71.0693201749999,-34.6311715701173],[-71.0700938409999,-34.6312716851173],[-71.0693309909999,-34.6312095901173],[-71.0692407189999,-34.6315584221173],[-71.0689350599999,-34.6315587501173],[-71.0681751209999,-34.6319540391173],[-71.0681952009999,-34.6325884551173],[-71.0687388569999,-34.6327510491173]]]}},{"type":"Feature","properties":{"id":"6308043023002","commune":"Placilla","code":"06308","gse":"D","quintil":"Q1","nse_score":606.3,"educ":9.6,"educ_score":440.0,"hacin":1.333,"hacin_class":"Hacinamiento Leve","hacin_score":780.1,"auto_score":166.7,"n_per":76,"n_hog":26,"source_year":2024},"geometry":{"type":"Polygon","coordinates":[[[-71.0663420079999,-34.6313563961173],[-71.0657977249999,-34.6322672381173],[-71.0677620879999,-34.6332001001173],[-71.068500964,-34.6333600821173],[-71.0686969789999,-34.6330896751173],[-71.0682935429999,-34.6341772661172],[-71.0692474449999,-34.6343339441172],[-71.0696130959999,-34.6329560731173],[-71.0681557639999,-34.6326223151173],[-71.0681321249999,-34.6319463081173],[-71.0674852989999,-34.6317223561173],[-71.0673419229999,-34.6321872951173],[-71.0674238569999,-34.6317026361173],[-71.0669239029999,-34.6315415281173],[-71.0666691469999,-34.6320829461173],[-71.0668630139999,-34.6315217271173],[-71.0663420079999,-34.6313563961173]]]}},{"type":"Feature","properties":{"id":"6308043023003","commune":"Placilla","code":"06308","gse":"E","quintil":"Q1","nse_score":560.6,"educ":9.2,"educ_score":413.3,"hacin":0.944,"hacin_class":"Sin Hacinamiento","hacin_score":862.9,"auto_score":45.5,"n_per":17,"n_hog":8,"source_year":2024},"geometry":{"type":"Polygon","coordinates":[[[-71.0667851099999,-34.6331952431173],[-71.0675539939999,-34.6336228871173],[-71.0675820579999,-34.6338740411173],[-71.0675226799999,-34.6336489291173],[-71.0665663109999,-34.6331768081172],[-71.0664100389999,-34.6336134571173],[-71.0682458709999,-34.6341680881173],[-71.0684945819999,-34.6334002231173],[-71.0677423179999,-34.6332364541172],[-71.0657719069999,-34.6323117961173],[-71.0655035089999,-34.6327732301173],[-71.0667851099999,-34.6331952431173]]]}}]}