{"type":"FeatureCollection","features":[{"type":"Feature","properties":{"id":"16205011001003","commune":"Portezuelo","code":"16205","gse":"D","quintil":"Q2","nse_score":655.9,"educ":11.3,"educ_score":553.3,"hacin":1.565,"hacin_class":"Hacinamiento Medio","hacin_score":730.8,"auto_score":115.4,"n_per":36,"n_hog":13,"source_year":2024},"geometry":{"type":"Polygon","coordinates":[[[-72.4322445799999,-36.5236159970972],[-72.4312167239999,-36.5248083450972],[-72.4313834289999,-36.5247785000973],[-72.431200068,-36.5248368120972],[-72.4310119329999,-36.5252121000972],[-72.4304925129999,-36.5273683430972],[-72.4323143749999,-36.5273990250972],[-72.4321723139999,-36.5260614590972],[-72.4315414159999,-36.5260224170972],[-72.431661232,-36.5253252200973],[-72.4328711789999,-36.5253332720972],[-72.4339855999999,-36.5250830380972],[-72.4334723679999,-36.5239326900972],[-72.4322445799999,-36.5236159970972]]]}},{"type":"Feature","properties":{"id":"16205011001005","commune":"Portezuelo","code":"16205","gse":"E","quintil":"Q1","nse_score":575.6,"educ":8.8,"educ_score":386.7,"hacin":1.435,"hacin_class":"Hacinamiento Leve","hacin_score":758.6,"auto_score":100.0,"n_per":33,"n_hog":15,"source_year":2024},"geometry":{"type":"Polygon","coordinates":[[[-72.4244327019999,-36.5250528880972],[-72.4243922749999,-36.5252147310972],[-72.4247836049999,-36.5254798300972],[-72.4254900649999,-36.5257360870972],[-72.425746177,-36.5253081500972],[-72.4282454369999,-36.5257765000972],[-72.428495945,-36.5248247480972],[-72.4260218549999,-36.5242670240972],[-72.4256775359999,-36.5252936820972],[-72.4244327019999,-36.5250528880972]]]}},{"type":"Feature","properties":{"id":"16205011001007","commune":"Portezuelo","code":"16205","gse":"C2","quintil":"Q3","nse_score":710.1,"educ":11.4,"educ_score":560.0,"hacin":1.04,"hacin_class":"Hacinamiento Leve","hacin_score":842.6,"auto_score":208.3,"n_per":26,"n_hog":12,"source_year":2024},"geometry":{"type":"Polygon","coordinates":[[[-72.4308915669999,-36.5253479980972],[-72.4297879049999,-36.5250865320972],[-72.4294971879999,-36.5260538190972],[-72.4306622749999,-36.5262955520972],[-72.4308915669999,-36.5253479980972]]]}},{"type":"Feature","properties":{"id":"16205011001008","commune":"Portezuelo","code":"16205","gse":"E","quintil":"Q1","nse_score":526.6,"educ":9.4,"educ_score":426.7,"hacin":1.103,"hacin_class":"Hacinamiento Leve","hacin_score":829.1,"auto_score":107.1,"n_per":32,"n_hog":15,"source_year":2024},"geometry":{"type":"Polygon","coordinates":[[[-72.4244274079999,-36.5287299310972],[-72.424921906,-36.5286230150972],[-72.424925029,-36.5280770710972],[-72.4254915799999,-36.5257797250972],[-72.424382325,-36.5252545620972],[-72.4242956589999,-36.5256015100972],[-72.4247185109999,-36.5261472140972],[-72.4243690049999,-36.5280668550972],[-72.4244274079999,-36.5287299310972]]]}},{"type":"Feature","properties":{"id":"16205011001009","commune":"Portezuelo","code":"16205","gse":"ABC1","quintil":"Q5","nse_score":815.5,"educ":15.0,"educ_score":800.0,"hacin":1.154,"hacin_class":"Hacinamiento Leve","hacin_score":818.3,"auto_score":125.0,"n_per":15,"n_hog":4,"source_year":2024},"geometry":{"type":"Polygon","coordinates":[[[-72.4266773869999,-36.5265520360972],[-72.4269501969999,-36.5255639780972],[-72.4256932049999,-36.5253547100972],[-72.4254044529999,-36.5263162640972],[-72.4266773869999,-36.5265520360972]]]}},{"type":"Feature","properties":{"id":"16205011001010","commune":"Portezuelo","code":"16205","gse":"E","quintil":"Q1","nse_score":593.2,"educ":9.9,"educ_score":460.0,"hacin":1.304,"hacin_class":"Hacinamiento Leve","hacin_score":786.3,"auto_score":100.0,"n_per":30,"n_hog":15,"source_year":2024},"geometry":{"type":"Polygon","coordinates":[[[-72.4279881089999,-36.5268249390972],[-72.4282457679999,-36.5258409100972],[-72.4270137429999,-36.5255842400972],[-72.4267189249999,-36.5265844180972],[-72.4279881089999,-36.5268249390972]]]}},{"type":"Feature","properties":{"id":"16205011001012","commune":"Portezuelo","code":"16205","gse":"D","quintil":"Q2","nse_score":643.8,"educ":10.9,"educ_score":526.7,"hacin":1.0,"hacin_class":"Hacinamiento Leve","hacin_score":851.1,"auto_score":83.3,"n_per":38,"n_hog":19,"source_year":2024},"geometry":{"type":"Polygon","coordinates":[[[-72.4306390899999,-36.5263991470972],[-72.4294787899999,-36.5261253250972],[-72.4291918089999,-36.5270920890972],[-72.4304097909999,-36.5273467000972],[-72.4306390899999,-36.5263991470972]]]}},{"type":"Feature","properties":{"id":"16205011001013","commune":"Portezuelo","code":"16205","gse":"C3","quintil":"Q3","nse_score":681.3,"educ":12.1,"educ_score":606.7,"hacin":1.13,"hacin_class":"Hacinamiento Leve","hacin_score":823.3,"auto_score":41.7,"n_per":26,"n_hog":12,"source_year":2024},"geometry":{"type":"Polygon","coordinates":[[[-72.4266355899999,-36.5266179790972],[-72.4253974719999,-36.5263819890972],[-72.4251156029999,-36.5274977240972],[-72.4263271609999,-36.5276946610972],[-72.4266355899999,-36.5266179790972]]]}},{"type":"Feature","properties":{"id":"16205011001016","commune":"Portezuelo","code":"16205","gse":"C2","quintil":"Q4","nse_score":748.1,"educ":14.1,"educ_score":740.0,"hacin":1.182,"hacin_class":"Hacinamiento Leve","hacin_score":812.4,"auto_score":83.3,"n_per":26,"n_hog":12,"source_year":2024},"geometry":{"type":"Polygon","coordinates":[[[-72.4303886769999,-36.5273901590972],[-72.4291771149999,-36.5271489680972],[-72.4289362169999,-36.5281164080972],[-72.4302124269999,-36.5282906970972],[-72.4303886769999,-36.5273901590972]]]}},{"type":"Feature","properties":{"id":"16205011001017","commune":"Portezuelo","code":"16205","gse":"C3","quintil":"Q2","nse_score":671.7,"educ":11.1,"educ_score":540.0,"hacin":1.288,"hacin_class":"Hacinamiento Leve","hacin_score":789.9,"auto_score":125.0,"n_per":94,"n_hog":34,"source_year":2024},"geometry":{"type":"Polygon","coordinates":[[[-72.4313494749999,-36.5273563950972],[-72.4304819549999,-36.5274033460972],[-72.4302878549999,-36.5283130960972],[-72.4311059289999,-36.5284160540972],[-72.4313106519999,-36.5275553670972],[-72.4311572029999,-36.5284193450972],[-72.4330104999999,-36.5288413750972],[-72.433323389,-36.5275922010972],[-72.4313494749999,-36.5273563950972]]]}},{"type":"Feature","properties":{"id":"16205011001018","commune":"Portezuelo","code":"16205","gse":"C3","quintil":"Q2","nse_score":667.1,"educ":11.4,"educ_score":560.0,"hacin":0.968,"hacin_class":"Sin Hacinamiento","hacin_score":857.9,"auto_score":250.0,"n_per":30,"n_hog":14,"source_year":2024},"geometry":{"type":"Polygon","coordinates":[[[-72.4263073739999,-36.5277446620972],[-72.4251109309999,-36.5275619970972],[-72.4249759489999,-36.5285750340972],[-72.426028443,-36.5287466370972],[-72.4263073739999,-36.5277446620972]]]}},{"type":"Feature","properties":{"id":"16205011001019","commune":"Portezuelo","code":"16205","gse":"C3","quintil":"Q3","nse_score":703.6,"educ":11.9,"educ_score":593.3,"hacin":1.454,"hacin_class":"Hacinamiento Leve","hacin_score":754.4,"auto_score":150.0,"n_per":32,"n_hog":14,"source_year":2024},"geometry":{"type":"Polygon","coordinates":[[[-72.4272523949999,-36.5289502630972],[-72.4275859969999,-36.5279751410972],[-72.4263656799999,-36.5277697860972],[-72.4260870989999,-36.5287613840972],[-72.4272523949999,-36.5289502630972]]]}},{"type":"Feature","properties":{"id":"16205011001021","commune":"Portezuelo","code":"16205","gse":"C2","quintil":"Q4","nse_score":769.9,"educ":12.9,"educ_score":660.0,"hacin":1.188,"hacin_class":"Hacinamiento Leve","hacin_score":811.2,"auto_score":125.0,"n_per":19,"n_hog":8,"source_year":2024},"geometry":{"type":"Polygon","coordinates":[[[-72.4286586389999,-36.5291491740972],[-72.4288768489999,-36.5281783390972],[-72.4277098339999,-36.5279690950972],[-72.4273403749999,-36.5289395680972],[-72.4286586389999,-36.5291491740972]]]}},{"type":"Feature","properties":{"id":"16205011001022","commune":"Portezuelo","code":"16205","gse":"C3","quintil":"Q3","nse_score":688.1,"educ":11.7,"educ_score":580.0,"hacin":1.281,"hacin_class":"Hacinamiento Leve","hacin_score":791.2,"auto_score":62.5,"n_per":41,"n_hog":18,"source_year":2024},"geometry":{"type":"Polygon","coordinates":[[[-72.4301761039999,-36.5283364150972],[-72.4289614809999,-36.5281871880972],[-72.4287325079999,-36.5291568220972],[-72.4299727019999,-36.5293317900972],[-72.4301761039999,-36.5283364150972]]]}},{"type":"Feature","properties":{"id":"16205011001023","commune":"Portezuelo","code":"16205","gse":"C3","quintil":"Q3","nse_score":695.3,"educ":10.7,"educ_score":513.3,"hacin":1.24,"hacin_class":"Hacinamiento Leve","hacin_score":800.0,"auto_score":150.0,"n_per":31,"n_hog":10,"source_year":2024},"geometry":{"type":"Polygon","coordinates":[[[-72.4302565159999,-36.5283730240972],[-72.4300226639999,-36.5293454620972],[-72.4312767779999,-36.5295352480972],[-72.4314851009999,-36.5285522630972],[-72.4302565159999,-36.5283730240972]]]}},{"type":"Feature","properties":{"id":"16205011001024","commune":"Portezuelo","code":"16205","gse":"C2","quintil":"Q4","nse_score":724.3,"educ":12.4,"educ_score":626.7,"hacin":1.026,"hacin_class":"Hacinamiento Leve","hacin_score":845.5,"auto_score":166.7,"n_per":39,"n_hog":15,"source_year":2024},"geometry":{"type":"Polygon","coordinates":[[[-72.4328004799999,-36.5297221090972],[-72.4329858739999,-36.5288890920972],[-72.4315270229999,-36.5285747860972],[-72.4313266769999,-36.5295508540972],[-72.4328004799999,-36.5297221090972]]]}},{"type":"Feature","properties":{"id":"16205011001025","commune":"Portezuelo","code":"16205","gse":"E","quintil":"Q1","nse_score":600.0,"educ":9.9,"educ_score":460.0,"hacin":1.115,"hacin_class":"Hacinamiento Leve","hacin_score":826.5,"auto_score":120.0,"n_per":58,"n_hog":25,"source_year":2024},"geometry":{"type":"Polygon","coordinates":[[[-72.4249180929999,-36.5286705400972],[-72.4249632259999,-36.5312245370972],[-72.4257986889999,-36.5311402020972],[-72.4257842329999,-36.5306543170972],[-72.4249644009999,-36.5306615650972],[-72.4257892649999,-36.5306195390972],[-72.4257848149999,-36.5298108400972],[-72.4269687849999,-36.5299992520972],[-72.4272675519999,-36.5290025780972],[-72.4249180929999,-36.5286705400972]]]}},{"type":"Feature","properties":{"id":"16205011001026","commune":"Portezuelo","code":"16205","gse":"C3","quintil":"Q3","nse_score":703.2,"educ":10.9,"educ_score":526.7,"hacin":0.658,"hacin_class":"Sin Hacinamiento","hacin_score":923.7,"auto_score":153.8,"n_per":27,"n_hog":13,"source_year":2024},"geometry":{"type":"Polygon","coordinates":[[[-72.4337073319999,-36.5298914580972],[-72.4328174729999,-36.5297985010972],[-72.4327132149999,-36.5302052160972],[-72.4329344889999,-36.5302418030972],[-72.4327084109999,-36.5302227280972],[-72.4325255219999,-36.5310662970972],[-72.4352630909999,-36.5310903720972],[-72.4352480039999,-36.5297462890972],[-72.4357850989999,-36.5291417550972],[-72.4330373749999,-36.5288946600972],[-72.4328289149999,-36.5297549340972],[-72.4337073319999,-36.5298914580972]]]}},{"type":"Feature","properties":{"id":"16205011001027","commune":"Portezuelo","code":"16205","gse":"C2","quintil":"Q3","nse_score":708.1,"educ":12.1,"educ_score":606.7,"hacin":1.444,"hacin_class":"Hacinamiento Leve","hacin_score":756.5,"auto_score":192.3,"n_per":39,"n_hog":13,"source_year":2024},"geometry":{"type":"Polygon","coordinates":[[[-72.4284289679999,-36.5302296860972],[-72.4286586939999,-36.5291949320972],[-72.4273160699999,-36.5290167020972],[-72.4270260519999,-36.5300100110972],[-72.4284289679999,-36.5302296860972]]]}},{"type":"Feature","properties":{"id":"16205011001028","commune":"Portezuelo","code":"16205","gse":"D","quintil":"Q1","nse_score":634.2,"educ":10.9,"educ_score":526.7,"hacin":1.324,"hacin_class":"Hacinamiento Leve","hacin_score":782.1,"auto_score":111.1,"n_per":49,"n_hog":18,"source_year":2024},"geometry":{"type":"Polygon","coordinates":[[[-72.4297227399999,-36.5304136340972],[-72.4299557769999,-36.5293735770972],[-72.4287026039999,-36.5292122740972],[-72.4285004799999,-36.5302385790972],[-72.4297227399999,-36.5304136340972]]]}},{"type":"Feature","properties":{"id":"16205011001029","commune":"Portezuelo","code":"16205","gse":"E","quintil":"Q1","nse_score":555.8,"educ":8.1,"educ_score":340.0,"hacin":1.316,"hacin_class":"Hacinamiento Leve","hacin_score":783.9,"auto_score":0.0,"n_per":25,"n_hog":12,"source_year":2024},"geometry":{"type":"Polygon","coordinates":[[[-72.4310802219999,-36.5305248790972],[-72.4312613639999,-36.5295812270972],[-72.4300089839999,-36.5293851840972],[-72.4298036269999,-36.5304249900972],[-72.4310802219999,-36.5305248790972]]]}},{"type":"Feature","properties":{"id":"16205011001030","commune":"Portezuelo","code":"16205","gse":"C3","quintil":"Q3","nse_score":686.8,"educ":11.6,"educ_score":573.3,"hacin":1.357,"hacin_class":"Hacinamiento Leve","hacin_score":775.1,"auto_score":125.0,"n_per":38,"n_hog":16,"source_year":2024},"geometry":{"type":"Polygon","coordinates":[[[-72.4327273759999,-36.5297784650972],[-72.4313165639999,-36.5295855260972],[-72.4311096769999,-36.5305874220972],[-72.4325100889999,-36.5307775960972],[-72.4327273759999,-36.5297784650972]]]}},{"type":"Feature","properties":{"id":"16205011001031","commune":"Portezuelo","code":"16205","gse":"D","quintil":"Q2","nse_score":647.0,"educ":12.0,"educ_score":600.0,"hacin":1.235,"hacin_class":"Hacinamiento Leve","hacin_score":801.0,"auto_score":222.2,"n_per":21,"n_hog":8,"source_year":2024},"geometry":{"type":"Polygon","coordinates":[[[-72.4269508479999,-36.5300531350972],[-72.4258163229999,-36.5298723340972],[-72.4258325759999,-36.5306174660972],[-72.4268011709999,-36.5305649610972],[-72.4269508479999,-36.5300531350972]]]}},{"type":"Feature","properties":{"id":"16205011001032","commune":"Portezuelo","code":"16205","gse":"C3","quintil":"Q3","nse_score":694.9,"educ":11.5,"educ_score":566.7,"hacin":1.226,"hacin_class":"Hacinamiento Leve","hacin_score":803.0,"auto_score":181.8,"n_per":38,"n_hog":11,"source_year":2024},"geometry":{"type":"Polygon","coordinates":[[[-72.4282293729999,-36.5310297090972],[-72.4284246829999,-36.5302708320972],[-72.4270136979999,-36.5300720000972],[-72.4268796069999,-36.5305014040972],[-72.4269713879999,-36.5310359950972],[-72.4282293729999,-36.5310297090972]]]}},{"type":"Feature","properties":{"id":"16205011001033","commune":"Portezuelo","code":"16205","gse":"D","quintil":"Q2","nse_score":639.5,"educ":10.9,"educ_score":526.7,"hacin":1.154,"hacin_class":"Hacinamiento Leve","hacin_score":818.3,"auto_score":41.7,"n_per":30,"n_hog":11,"source_year":2024},"geometry":{"type":"Polygon","coordinates":[[[-72.4309101239999,-36.5310570700972],[-72.4310558309999,-36.5306225380972],[-72.4285129339999,-36.5302757220972],[-72.4283288979999,-36.5309846860972],[-72.4309101239999,-36.5310570700972]]]}},{"type":"Feature","properties":{"id":"16205011001036","commune":"Portezuelo","code":"16205","gse":"E","quintil":"Q1","nse_score":607.0,"educ":10.4,"educ_score":493.3,"hacin":1.714,"hacin_class":"Hacinamiento Medio","hacin_score":699.1,"auto_score":200.0,"n_per":12,"n_hog":5,"source_year":2024},"geometry":{"type":"Polygon","coordinates":[[[-72.43239374,-36.5310741130972],[-72.4324927209999,-36.5308105360972],[-72.4311106649999,-36.5306311840972],[-72.431004948,-36.5310310510972],[-72.43239374,-36.5310741130972]]]}},{"type":"Feature","properties":{"id":"16205011001039","commune":"Portezuelo","code":"16205","gse":"D","quintil":"Q1","nse_score":610.1,"educ":9.4,"educ_score":426.7,"hacin":1.433,"hacin_class":"Hacinamiento Leve","hacin_score":758.9,"auto_score":117.6,"n_per":43,"n_hog":18,"source_year":2024},"geometry":{"type":"Polygon","coordinates":[[[-72.4287008929999,-36.5317552150971],[-72.4305889209999,-36.5318262200971],[-72.4307200619999,-36.5313569980972],[-72.4303112039999,-36.5310987390972],[-72.4287244189999,-36.5310881270972],[-72.429038063,-36.5314486670972],[-72.4287008929999,-36.5317552150971]]]}},{"type":"Feature","properties":{"id":"16205011001040","commune":"Portezuelo","code":"16205","gse":"D","quintil":"Q1","nse_score":624.8,"educ":9.9,"educ_score":460.0,"hacin":1.324,"hacin_class":"Hacinamiento Leve","hacin_score":782.1,"auto_score":163.3,"n_per":147,"n_hog":48,"source_year":2024},"geometry":{"type":"Polygon","coordinates":[[[-72.432430511,-36.5311161650972],[-72.4303560559999,-36.5310988370972],[-72.4307637609999,-36.5313488220972],[-72.4305498109999,-36.5320357680972],[-72.435368965,-36.5322911890972],[-72.4352134789999,-36.5318984010971],[-72.4352041129999,-36.5313557510971],[-72.4350569279999,-36.5311609280972],[-72.4340221989999,-36.5311930900972],[-72.4340055829999,-36.5319237720972],[-72.4345274099999,-36.5320042810972],[-72.4315322509999,-36.5318903430972],[-72.4313867499999,-36.5318065640972],[-72.4313786639999,-36.5315636280972],[-72.4309446439999,-36.5315960320971],[-72.4309745389999,-36.5314985810972],[-72.4313827009999,-36.5315279980972],[-72.4314670249999,-36.5313974290971],[-72.4323878599999,-36.5313786480972],[-72.432430511,-36.5311161650972]]]}},{"type":"Feature","properties":{"id":"16205011001042","commune":"Portezuelo","code":"16205","gse":"E","quintil":"Q1","nse_score":574.2,"educ":7.7,"educ_score":313.3,"hacin":1.276,"hacin_class":"Hacinamiento Leve","hacin_score":792.4,"auto_score":138.9,"n_per":37,"n_hog":18,"source_year":2024},"geometry":{"type":"Polygon","coordinates":[[[-72.4339413829999,-36.5312066120972],[-72.4334618759999,-36.5311549230972],[-72.4334867389999,-36.5319219950972],[-72.4339584939999,-36.5318750200971],[-72.4339413829999,-36.5312066120972]]]}},{"type":"Feature","properties":{"id":"16205011001043","commune":"Portezuelo","code":"16205","gse":"E","quintil":"Q1","nse_score":561.6,"educ":8.7,"educ_score":380.0,"hacin":1.543,"hacin_class":"Hacinamiento Medio","hacin_score":735.6,"auto_score":166.7,"n_per":54,"n_hog":17,"source_year":2024},"geometry":{"type":"Polygon","coordinates":[[[-72.432959777,-36.5319126590972],[-72.4329551499999,-36.5311428220972],[-72.4324830229999,-36.5311509160972],[-72.4324871319999,-36.5318962740972],[-72.432959777,-36.5319126590972]]]}},{"type":"Feature","properties":{"id":"16205011001045","commune":"Portezuelo","code":"16205","gse":"E","quintil":"Q1","nse_score":600.5,"educ":9.7,"educ_score":446.7,"hacin":1.368,"hacin_class":"Hacinamiento Leve","hacin_score":772.7,"auto_score":150.0,"n_per":26,"n_hog":10,"source_year":2024},"geometry":{"type":"Polygon","coordinates":[[[-72.424832234,-36.5312838370972],[-72.423990134,-36.5313696210972],[-72.4239795589999,-36.5320489670971],[-72.4248726199999,-36.5319978080971],[-72.424832234,-36.5312838370972]]]}},{"type":"Feature","properties":{"id":"16205011001046","commune":"Portezuelo","code":"16205","gse":"D","quintil":"Q2","nse_score":656.0,"educ":10.3,"educ_score":486.7,"hacin":1.354,"hacin_class":"Hacinamiento Leve","hacin_score":775.7,"auto_score":238.1,"n_per":65,"n_hog":21,"source_year":2024},"geometry":{"type":"Polygon","coordinates":[[[-72.4285404329999,-36.5317666150972],[-72.4281462329999,-36.5313603640972],[-72.4272549379999,-36.5319320640971],[-72.4276667579999,-36.5324864310972],[-72.4285404329999,-36.5317666150972]]]}},{"type":"Feature","properties":{"id":"16205011001047","commune":"Portezuelo","code":"16205","gse":"E","quintil":"Q1","nse_score":607.8,"educ":9.5,"educ_score":433.3,"hacin":1.5,"hacin_class":"Hacinamiento Medio","hacin_score":744.7,"auto_score":277.8,"n_per":24,"n_hog":8,"source_year":2024},"geometry":{"type":"Polygon","coordinates":[[[-72.4239295859999,-36.5313907570972],[-72.4233067009999,-36.5314477500972],[-72.4233172769999,-36.5321048250971],[-72.4239453689999,-36.5320820370972],[-72.4239295859999,-36.5313907570972]]]}},{"type":"Feature","properties":{"id":"16205011001048","commune":"Portezuelo","code":"16205","gse":"D","quintil":"Q1","nse_score":617.5,"educ":10.5,"educ_score":500.0,"hacin":1.436,"hacin_class":"Hacinamiento Leve","hacin_score":758.3,"auto_score":200.0,"n_per":56,"n_hog":20,"source_year":2024},"geometry":{"type":"Polygon","coordinates":[[[-72.4324421109999,-36.5314519270972],[-72.4314839489999,-36.5314514490971],[-72.4314328299999,-36.5317478900972],[-72.4324309269999,-36.5318815120972],[-72.4324421109999,-36.5314519270972]]]}},{"type":"Feature","properties":{"id":"16205011001049","commune":"Portezuelo","code":"16205","gse":"E","quintil":"Q1","nse_score":591.7,"educ":8.9,"educ_score":393.3,"hacin":1.328,"hacin_class":"Hacinamiento Leve","hacin_score":781.4,"auto_score":250.0,"n_per":77,"n_hog":29,"source_year":2024},"geometry":{"type":"Polygon","coordinates":[[[-72.4225781629999,-36.5315017020972],[-72.4226738359999,-36.5336703590971],[-72.4258701059999,-36.5333600880971],[-72.4260422059999,-36.5330226090972],[-72.4270979799999,-36.5321275350972],[-72.4263775559999,-36.5322994690972],[-72.4249157709999,-36.5332333100972],[-72.4233300859999,-36.5332673670972],[-72.4232498839999,-36.5314881770971],[-72.4225781629999,-36.5315017020972]]]}},{"type":"Feature","properties":{"id":"16205011001050","commune":"Portezuelo","code":"16205","gse":"D","quintil":"Q2","nse_score":657.0,"educ":10.5,"educ_score":500.0,"hacin":1.288,"hacin_class":"Hacinamiento Leve","hacin_score":789.9,"auto_score":171.4,"n_per":206,"n_hog":70,"source_year":2024},"geometry":{"type":"Polygon","coordinates":[[[-72.4286064889999,-36.5318016050972],[-72.4276967409999,-36.5325271370971],[-72.4281938979999,-36.5329134340972],[-72.4289567949999,-36.5323309480971],[-72.4303221209999,-36.5323592140971],[-72.4301849209999,-36.5324079350972],[-72.4299458979999,-36.5331560800971],[-72.4301458309999,-36.5332507100972],[-72.4283702189999,-36.5330682830971],[-72.4276414729999,-36.5325965400972],[-72.4269163009999,-36.5331532120972],[-72.4301581229999,-36.5334578240971],[-72.4305786709999,-36.5321743520972],[-72.4304483259999,-36.5321662060972],[-72.4305408979999,-36.5318905970971],[-72.4286064889999,-36.5318016050972]]]}},{"type":"Feature","properties":{"id":"16205011001051","commune":"Portezuelo","code":"16205","gse":"E","quintil":"Q1","nse_score":530.1,"educ":6.6,"educ_score":240.0,"hacin":1.25,"hacin_class":"Hacinamiento Leve","hacin_score":797.9,"auto_score":26.3,"n_per":35,"n_hog":20,"source_year":2024},"geometry":{"type":"Polygon","coordinates":[[[-72.4248742479999,-36.5326703160972],[-72.4248582699999,-36.5320483530972],[-72.4239953859999,-36.5321024370972],[-72.4239953129999,-36.5327410990972],[-72.4248742479999,-36.5326703160972]]]}},{"type":"Feature","properties":{"id":"16205011001052","commune":"Portezuelo","code":"16205","gse":"D","quintil":"Q2","nse_score":657.8,"educ":10.2,"educ_score":480.0,"hacin":1.227,"hacin_class":"Hacinamiento Leve","hacin_score":802.7,"auto_score":62.5,"n_per":27,"n_hog":8,"source_year":2024},"geometry":{"type":"Polygon","coordinates":[[[-72.4265536709999,-36.5329834470971],[-72.4270832449999,-36.5330017000972],[-72.4276058829999,-36.5325493240972],[-72.427270184,-36.5320562610971],[-72.4264053019999,-36.5327864860972],[-72.4265536709999,-36.5329834470971]]]}},{"type":"Feature","properties":{"id":"16205011001053","commune":"Portezuelo","code":"16205","gse":"E","quintil":"Q1","nse_score":597.9,"educ":8.2,"educ_score":346.7,"hacin":1.462,"hacin_class":"Hacinamiento Leve","hacin_score":752.9,"auto_score":0.0,"n_per":19,"n_hog":6,"source_year":2024},"geometry":{"type":"Polygon","coordinates":[[[-72.4239200909999,-36.5321224010971],[-72.42331501,-36.5321519360972],[-72.4233198259999,-36.5328128650971],[-72.4239506179999,-36.5328043400972],[-72.4239200909999,-36.5321224010971]]]}},{"type":"Feature","properties":{"id":"16205011001054","commune":"Portezuelo","code":"16205","gse":"D","quintil":"Q2","nse_score":658.0,"educ":10.3,"educ_score":486.7,"hacin":1.267,"hacin_class":"Hacinamiento Leve","hacin_score":794.3,"auto_score":250.0,"n_per":38,"n_hog":12,"source_year":2024},"geometry":{"type":"Polygon","coordinates":[[[-72.4282455349999,-36.5329425600971],[-72.4288950499999,-36.5330574830971],[-72.4291329889999,-36.5323588660971],[-72.4289267039999,-36.5323828080972],[-72.4282455349999,-36.5329425600971]]]}},{"type":"Feature","properties":{"id":"16205011001055","commune":"Portezuelo","code":"16205","gse":"C3","quintil":"Q2","nse_score":660.2,"educ":10.8,"educ_score":520.0,"hacin":1.31,"hacin_class":"Hacinamiento Leve","hacin_score":785.0,"auto_score":250.0,"n_per":38,"n_hog":12,"source_year":2024},"geometry":{"type":"Polygon","coordinates":[[[-72.4289493189999,-36.5330544870972],[-72.4293979749999,-36.5331236510971],[-72.4296657669999,-36.5323767980971],[-72.4291888649999,-36.5323597200971],[-72.4289493189999,-36.5330544870972]]]}},{"type":"Feature","properties":{"id":"16205011001056","commune":"Portezuelo","code":"16205","gse":"E","quintil":"Q1","nse_score":603.6,"educ":9.9,"educ_score":460.0,"hacin":1.56,"hacin_class":"Hacinamiento Medio","hacin_score":731.9,"auto_score":269.2,"n_per":39,"n_hog":12,"source_year":2024},"geometry":{"type":"Polygon","coordinates":[[[-72.4294869029999,-36.5331374220971],[-72.4298969349999,-36.5331649930972],[-72.4301414889999,-36.5323953150971],[-72.4297075759999,-36.5323895860972],[-72.4294869029999,-36.5331374220971]]]}},{"type":"Feature","properties":{"id":"16205011001057","commune":"Portezuelo","code":"16205","gse":"E","quintil":"Q1","nse_score":607.1,"educ":9.6,"educ_score":440.0,"hacin":1.379,"hacin_class":"Hacinamiento Leve","hacin_score":770.4,"auto_score":250.0,"n_per":40,"n_hog":13,"source_year":2024},"geometry":{"type":"Polygon","coordinates":[[[-72.4248470869999,-36.5327674600972],[-72.4240170249999,-36.5327870240972],[-72.4240030049999,-36.5332094670972],[-72.4249104279999,-36.5331927110971],[-72.4248470869999,-36.5327674600972]]]}},{"type":"Feature","properties":{"id":"16205011001058","commune":"Portezuelo","code":"16205","gse":"E","quintil":"Q1","nse_score":578.4,"educ":7.8,"educ_score":320.0,"hacin":1.3,"hacin_class":"Hacinamiento Leve","hacin_score":787.2,"auto_score":71.4,"n_per":13,"n_hog":7,"source_year":2024},"geometry":{"type":"Polygon","coordinates":[[[-72.4239468739999,-36.5328588070972],[-72.423338499,-36.5328601450971],[-72.423332479,-36.5332111670972],[-72.4239518589999,-36.5332177370971],[-72.4239468739999,-36.5328588070972]]]}},{"type":"Feature","properties":{"id":"16205011001035","commune":"Portezuelo","code":"16205","gse":"C3","quintil":"Q2","nse_score":671.3,"educ":12.6,"educ_score":640.0,"hacin":1.0,"hacin_class":"Hacinamiento Leve","hacin_score":851.1,"auto_score":100.0,"n_per":11,"n_hog":4,"source_year":2024},"geometry":{"type":"MultiPolygon","coordinates":[[[[-72.4252092919999,-36.5321207830971],[-72.4249092599999,-36.5319984650972],[-72.4249765069999,-36.5331746770971],[-72.4263486339999,-36.5322791400972],[-72.4271413409999,-36.5320693590972],[-72.4269317339999,-36.5311045970972],[-72.4249358899999,-36.5312849120971],[-72.4248997649999,-36.5319278020972],[-72.4251371689999,-36.5319753250972],[-72.4252092919999,-36.5321207830971]]],[[[-72.4258630379999,-36.5311265630972],[-72.4265133289999,-36.5310208670972],[-72.4267910849999,-36.5306038670972],[-72.4258433999999,-36.5306507940972],[-72.4258630379999,-36.5311265630972]]]]}},{"type":"Feature","properties":{"id":"16205011001001","commune":"Portezuelo","code":"16205","gse":"E","quintil":"Q1","nse_score":467.0,"educ":6.3,"educ_score":220.0,"hacin":2.0,"hacin_class":"Hacinamiento Medio","hacin_score":638.3,"auto_score":62.5,"n_per":28,"n_hog":8,"source_year":2024},"geometry":{"type":"MultiPolygon","coordinates":[[[[-72.4308688259999,-36.5229828720972],[-72.429848149,-36.5242609090973],[-72.4285697799999,-36.5239597360972],[-72.4285648169999,-36.5247843520972],[-72.4309292799999,-36.5252689160972],[-72.4311773469999,-36.5247847130972],[-72.4321666229999,-36.5236469900972],[-72.4322706049999,-36.5230492850973],[-72.4308688259999,-36.5229828720972]]],[[[-72.4324492019999,-36.5223565220973],[-72.4322233969999,-36.5235744720973],[-72.4331341349999,-36.5224990080973],[-72.4324492019999,-36.5223565220973]]]]}},{"type":"Feature","properties":{"id":"16205011001004","commune":"Portezuelo","code":"16205","gse":"E","quintil":"Q1","nse_score":540.2,"educ":8.6,"educ_score":373.3,"hacin":1.357,"hacin_class":"Hacinamiento Leve","hacin_score":775.1,"auto_score":166.7,"n_per":38,"n_hog":12,"source_year":2024},"geometry":{"type":"MultiPolygon","coordinates":[[[[-72.4293816469999,-36.5260380500972],[-72.4297167569999,-36.5250779770972],[-72.4285453729999,-36.5248401460972],[-72.4283140269999,-36.5257940930972],[-72.4293816469999,-36.5260380500972]]],[[[-72.4285087529999,-36.5247730780972],[-72.4285401319999,-36.5241160670973],[-72.4271263159999,-36.5238822980972],[-72.4269414449999,-36.5244448500973],[-72.4285087529999,-36.5247730780972]]]]}},{"type":"Feature","properties":{"id":"16205011001037","commune":"Portezuelo","code":"16205","gse":"D","quintil":"Q2","nse_score":650.8,"educ":10.5,"educ_score":500.0,"hacin":1.294,"hacin_class":"Hacinamiento Leve","hacin_score":788.5,"auto_score":214.3,"n_per":22,"n_hog":7,"source_year":2024},"geometry":{"type":"MultiPolygon","coordinates":[[[[-72.4285675289999,-36.5317269720972],[-72.4289803719999,-36.5314402710972],[-72.4286908959999,-36.5311081580972],[-72.4282873159999,-36.5310856140972],[-72.4282499829999,-36.5313500030972],[-72.4285675289999,-36.5317269720972]]],[[[-72.4272152069999,-36.5318562030972],[-72.4281655139999,-36.5313096420972],[-72.4282455439999,-36.5310829500972],[-72.4269928129999,-36.5311098920972],[-72.4270349559999,-36.5316227560972],[-72.4272152069999,-36.5318562030972]]]]}},{"type":"Feature","properties":{"id":"16205011001011","commune":"Portezuelo","code":"16205","gse":"C2","quintil":"Q4","nse_score":757.6,"educ":13.0,"educ_score":666.7,"hacin":0.833,"hacin_class":"Sin Hacinamiento","hacin_score":886.5,"auto_score":62.5,"n_per":15,"n_hog":8,"source_year":2024},"geometry":{"type":"MultiPolygon","coordinates":[[[[-72.4264092339999,-36.5277252280972],[-72.4276630859999,-36.5279218280972],[-72.4279660249999,-36.5268937290972],[-72.4267196389999,-36.5266352930972],[-72.4264092339999,-36.5277252280972]]],[[[-72.4290828959999,-36.5270762170972],[-72.4294088849999,-36.5261125490972],[-72.4283050989999,-36.5258615650972],[-72.428036958,-36.5268540870972],[-72.4290828959999,-36.5270762170972]]]]}}]}