{"type":"FeatureCollection","features":[{"type":"Feature","properties":{"id":"10302011001002","commune":"Puerto Octay","code":"10302","gse":"D","quintil":"Q2","nse_score":658.6,"educ":11.0,"educ_score":533.3,"hacin":1.435,"hacin_class":"Hacinamiento Leve","hacin_score":758.6,"auto_score":88.2,"n_per":33,"n_hog":15,"source_year":2024},"geometry":{"type":"Polygon","coordinates":[[[-72.8856386939999,-40.9675934870658],[-72.8854148439999,-40.9677904230658],[-72.886632571,-40.9680760150658],[-72.8868629069999,-40.9682928250658],[-72.8866371629999,-40.9684278160658],[-72.8855796799999,-40.9684042430658],[-72.8850285689999,-40.9685816210658],[-72.8844646889999,-40.9691058450658],[-72.8846328629999,-40.9698755390658],[-72.8861366649999,-40.9696857180658],[-72.8876172599999,-40.9696983010658],[-72.8872949689999,-40.9686705550658],[-72.887986022,-40.9682772530658],[-72.8883703969999,-40.9677321380658],[-72.8856386939999,-40.9675934870658]]]}},{"type":"Feature","properties":{"id":"10302011001004","commune":"Puerto Octay","code":"10302","gse":"D","quintil":"Q1","nse_score":637.3,"educ":9.0,"educ_score":400.0,"hacin":1.068,"hacin_class":"Hacinamiento Leve","hacin_score":836.6,"auto_score":26.3,"n_per":110,"n_hog":38,"source_year":2024},"geometry":{"type":"Polygon","coordinates":[[[-72.8875327349999,-40.9692047460658],[-72.8876898479999,-40.9697253280658],[-72.8881717809999,-40.9700504070658],[-72.8884765739999,-40.9700802250658],[-72.8887338859999,-40.9694843170658],[-72.8886762729999,-40.9696548500658],[-72.892801587,-40.9696369350658],[-72.89392233,-40.9694001800658],[-72.8952329929999,-40.9695265480658],[-72.8969158639999,-40.9693620630658],[-72.8937336499999,-40.9693657340658],[-72.8934365549999,-40.9693251510658],[-72.8934537029999,-40.9692043400658],[-72.8875327349999,-40.9692047460658]]]}},{"type":"Feature","properties":{"id":"10302011001005","commune":"Puerto Octay","code":"10302","gse":"D","quintil":"Q1","nse_score":636.0,"educ":9.1,"educ_score":406.7,"hacin":1.009,"hacin_class":"Hacinamiento Leve","hacin_score":849.1,"auto_score":69.8,"n_per":107,"n_hog":39,"source_year":2024},"geometry":{"type":"Polygon","coordinates":[[[-72.8969081409999,-40.9693705450658],[-72.8952318869999,-40.9695571300658],[-72.8939265419999,-40.9694310510658],[-72.8934804699999,-40.9695076950658],[-72.8933773919999,-40.9696271490658],[-72.8930268919999,-40.9698097040658],[-72.8934408279999,-40.9695214640658],[-72.8927766169999,-40.9696818270658],[-72.8911896569999,-40.9696852530658],[-72.8911889359999,-40.9699989540658],[-72.8918587459999,-40.9700305920658],[-72.8911873089999,-40.9700333010658],[-72.8911723799999,-40.9703176360658],[-72.891653775,-40.9703573150658],[-72.8911685759999,-40.9703589140658],[-72.8911436749999,-40.9708894590658],[-72.8906906079999,-40.9710778690658],[-72.8894673019999,-40.9720008310658],[-72.8899124549999,-40.9723590010658],[-72.8900819989999,-40.9729532870658],[-72.8904135809999,-40.9730313670658],[-72.8904384779999,-40.9732118500658],[-72.8907247359999,-40.9733657560658],[-72.890690102,-40.9737314900658],[-72.8909425799999,-40.9733843250658],[-72.8913231589999,-40.9719753360658],[-72.892020021,-40.9711750170658],[-72.8937988939999,-40.9703115090658],[-72.8953715829999,-40.9699641300658],[-72.8967873169999,-40.9695032420658],[-72.8969081409999,-40.9693705450658]]]}},{"type":"Feature","properties":{"id":"10302011001006","commune":"Puerto Octay","code":"10302","gse":"D","quintil":"Q2","nse_score":660.1,"educ":9.8,"educ_score":453.3,"hacin":1.155,"hacin_class":"Hacinamiento Leve","hacin_score":818.2,"auto_score":59.5,"n_per":127,"n_hog":42,"source_year":2024},"geometry":{"type":"Polygon","coordinates":[[[-72.8902076539999,-40.9697014760658],[-72.8886762729999,-40.9696548500658],[-72.888586572,-40.9697634990658],[-72.8885273039999,-40.9701172490658],[-72.8890957209999,-40.9711433400658],[-72.8889181399999,-40.9719338250658],[-72.8877652979999,-40.9728342730658],[-72.8882862959999,-40.9729706310658],[-72.8890233449999,-40.9724845840657],[-72.8889495899999,-40.9723100950658],[-72.8897348159999,-40.9717066420658],[-72.8902130289999,-40.9709724520658],[-72.8902048739999,-40.9703704200658],[-72.8895579189999,-40.9703208940658],[-72.8901992679999,-40.9703090800658],[-72.8901928079999,-40.9700339420658],[-72.8898390509999,-40.9699900300658],[-72.8901975229999,-40.9699824790658],[-72.8902076539999,-40.9697014760658]]]}},{"type":"Feature","properties":{"id":"10302011001007","commune":"Puerto Octay","code":"10302","gse":"E","quintil":"Q1","nse_score":598.0,"educ":8.7,"educ_score":380.0,"hacin":1.37,"hacin_class":"Hacinamiento Leve","hacin_score":772.3,"auto_score":321.4,"n_per":37,"n_hog":13,"source_year":2024},"geometry":{"type":"Polygon","coordinates":[[[-72.8911326459999,-40.9697031440658],[-72.890726346,-40.9696929740658],[-72.8907264159999,-40.9702656460658],[-72.8911216649999,-40.9702596680658],[-72.8911326459999,-40.9697031440658]]]}},{"type":"Feature","properties":{"id":"10302011001008","commune":"Puerto Octay","code":"10302","gse":"D","quintil":"Q2","nse_score":657.2,"educ":9.4,"educ_score":426.7,"hacin":1.064,"hacin_class":"Hacinamiento Leve","hacin_score":837.5,"auto_score":88.2,"n_per":50,"n_hog":16,"source_year":2024},"geometry":{"type":"Polygon","coordinates":[[[-72.8906508869999,-40.9696983330658],[-72.8902518259999,-40.9696960640658],[-72.8902515249999,-40.9702648020658],[-72.8906439539999,-40.9702588950658],[-72.8906508869999,-40.9696983330658]]]}},{"type":"Feature","properties":{"id":"10302011001009","commune":"Puerto Octay","code":"10302","gse":"C2","quintil":"Q4","nse_score":736.7,"educ":12.6,"educ_score":640.0,"hacin":1.125,"hacin_class":"Hacinamiento Leve","hacin_score":824.5,"auto_score":74.1,"n_per":54,"n_hog":24,"source_year":2024},"geometry":{"type":"Polygon","coordinates":[[[-72.885946783,-40.9697804030658],[-72.8861281729999,-40.9712473610658],[-72.8860175089999,-40.9717087690658],[-72.8852493459999,-40.9719225700658],[-72.8855281809999,-40.9730486320658],[-72.8861565239999,-40.9729305560658],[-72.8869857009999,-40.9724700870658],[-72.8877071009999,-40.9727827930658],[-72.8887988979999,-40.9720252340658],[-72.8890407319999,-40.9711456030658],[-72.8885147469999,-40.9701655340658],[-72.8882464999999,-40.9700955190658],[-72.8882087219999,-40.9702621130658],[-72.8873336779999,-40.9702634600658],[-72.8881593479999,-40.9701999180658],[-72.8877785049999,-40.9697775530658],[-72.885946783,-40.9697804030658]]]}},{"type":"Feature","properties":{"id":"10302011001010","commune":"Puerto Octay","code":"10302","gse":"C2","quintil":"Q4","nse_score":753.7,"educ":12.6,"educ_score":640.0,"hacin":1.333,"hacin_class":"Hacinamiento Leve","hacin_score":780.1,"auto_score":90.9,"n_per":60,"n_hog":22,"source_year":2024},"geometry":{"type":"Polygon","coordinates":[[[-72.8852958939999,-40.9718294420658],[-72.8859195759999,-40.9717294770658],[-72.8860262769999,-40.9713626560658],[-72.8858488059999,-40.9697761180658],[-72.88466202,-40.9699781250658],[-72.8852958939999,-40.9718294420658]]]}},{"type":"Feature","properties":{"id":"10302011001012","commune":"Puerto Octay","code":"10302","gse":"D","quintil":"Q1","nse_score":642.1,"educ":9.3,"educ_score":420.0,"hacin":1.612,"hacin_class":"Hacinamiento Medio","hacin_score":720.8,"auto_score":78.9,"n_per":79,"n_hog":22,"source_year":2024},"geometry":{"type":"Polygon","coordinates":[[[-72.8902434349999,-40.9703142680658],[-72.8902512639999,-40.9709655470658],[-72.8897931039999,-40.9716491920658],[-72.8906424479999,-40.9710281810658],[-72.8906429359999,-40.9703140720658],[-72.8902434349999,-40.9703142680658]]]}},{"type":"Feature","properties":{"id":"10302011001013","commune":"Puerto Octay","code":"10302","gse":"D","quintil":"Q1","nse_score":622.4,"educ":9.2,"educ_score":413.3,"hacin":1.122,"hacin_class":"Hacinamiento Leve","hacin_score":825.0,"auto_score":23.8,"n_per":55,"n_hog":20,"source_year":2024},"geometry":{"type":"Polygon","coordinates":[[[-72.8910689639999,-40.9708869600658],[-72.8911197279999,-40.9703151870658],[-72.8907287889999,-40.9703048230658],[-72.8907181069999,-40.9710143350658],[-72.8910689639999,-40.9708869600658]]]}},{"type":"Feature","properties":{"id":"10302011001014","commune":"Puerto Octay","code":"10302","gse":"C2","quintil":"Q4","nse_score":744.3,"educ":11.1,"educ_score":540.0,"hacin":1.2,"hacin_class":"Hacinamiento Leve","hacin_score":808.5,"auto_score":142.9,"n_per":18,"n_hog":7,"source_year":2024},"geometry":{"type":"Polygon","coordinates":[[[-72.884373551,-40.9719436300658],[-72.8851100329999,-40.9718360200658],[-72.8847496259999,-40.9706745600658],[-72.8840581139999,-40.9708045770658],[-72.8843082519999,-40.9712620930658],[-72.884373551,-40.9719436300658]]]}},{"type":"Feature","properties":{"id":"10302011001019","commune":"Puerto Octay","code":"10302","gse":"ABC1","quintil":"Q5","nse_score":858.5,"educ":15.0,"educ_score":800.0,"hacin":0.636,"hacin_class":"Sin Hacinamiento","hacin_score":928.4,"auto_score":200.0,"n_per":7,"n_hog":5,"source_year":2024},"geometry":{"type":"Polygon","coordinates":[[[-72.8846881309999,-40.9731609000658],[-72.8854089399999,-40.9730553290658],[-72.8851208299999,-40.9719227630658],[-72.8843984009999,-40.9720392460658],[-72.8846881309999,-40.9731609000658]]]}},{"type":"Feature","properties":{"id":"10302011001020","commune":"Puerto Octay","code":"10302","gse":"E","quintil":"Q1","nse_score":586.1,"educ":9.0,"educ_score":400.0,"hacin":1.253,"hacin_class":"Hacinamiento Leve","hacin_score":797.2,"auto_score":0.0,"n_per":94,"n_hog":43,"source_year":2024},"geometry":{"type":"Polygon","coordinates":[[[-72.890690102,-40.9737314900658],[-72.8907247359999,-40.9733657560658],[-72.8904384779999,-40.9732118500658],[-72.8904135809999,-40.9730313670658],[-72.8900819989999,-40.9729532870658],[-72.8899124549999,-40.9723590010658],[-72.8894673019999,-40.9720008310658],[-72.8890056919999,-40.9723496690658],[-72.8894547919999,-40.9727404660658],[-72.8893062409999,-40.9728882600658],[-72.8897545029999,-40.9732193580658],[-72.889489652,-40.9734755480658],[-72.8896954089999,-40.9732130060658],[-72.8892582569999,-40.9729059930658],[-72.88887546,-40.9731735890658],[-72.8893005619999,-40.9732432850658],[-72.8891711979999,-40.9733464540658],[-72.8888471079999,-40.9732513190658],[-72.8894031169999,-40.9736395180658],[-72.8891558959999,-40.9735909170658],[-72.8887502229999,-40.9732126680658],[-72.8879219719999,-40.9729654100657],[-72.8894021539999,-40.9738539470658],[-72.8897779289999,-40.9739110660658],[-72.8902525379999,-40.9736394570658],[-72.8898526719999,-40.9739238010658],[-72.8902805729999,-40.9739844230658],[-72.890690102,-40.9737314900658]]]}},{"type":"Feature","properties":{"id":"10302011001022","commune":"Puerto Octay","code":"10302","gse":"C2","quintil":"Q3","nse_score":720.1,"educ":11.1,"educ_score":540.0,"hacin":1.158,"hacin_class":"Hacinamiento Leve","hacin_score":817.5,"auto_score":176.5,"n_per":44,"n_hog":18,"source_year":2024},"geometry":{"type":"Polygon","coordinates":[[[-72.8893553779999,-40.9727550100658],[-72.8890683509999,-40.9725266170658],[-72.8883675799999,-40.9730187490658],[-72.8888140239999,-40.9731332320658],[-72.8893553779999,-40.9727550100658]]]}},{"type":"Feature","properties":{"id":"10302011001027","commune":"Puerto Octay","code":"10302","gse":"ABC1","quintil":"Q5","nse_score":842.1,"educ":15.7,"educ_score":846.7,"hacin":1.5,"hacin_class":"Hacinamiento Medio","hacin_score":744.7,"auto_score":300.0,"n_per":15,"n_hog":5,"source_year":2024},"geometry":{"type":"Polygon","coordinates":[[[-72.8842518899999,-40.9747649810658],[-72.8850059879999,-40.9747983230658],[-72.8845933089999,-40.9732820690658],[-72.8839030469999,-40.9733991990658],[-72.8842518899999,-40.9747649810658]]]}},{"type":"Feature","properties":{"id":"10302011001028","commune":"Puerto Octay","code":"10302","gse":"C3","quintil":"Q2","nse_score":670.6,"educ":10.3,"educ_score":486.7,"hacin":1.383,"hacin_class":"Hacinamiento Leve","hacin_score":769.6,"auto_score":75.0,"n_per":65,"n_hog":22,"source_year":2024},"geometry":{"type":"Polygon","coordinates":[[[-72.8819484889999,-40.9733250590658],[-72.8800133189999,-40.9747086750658],[-72.8800815679999,-40.9751302050657],[-72.8806126629999,-40.9750612830658],[-72.8803360639999,-40.9748324300658],[-72.8809634589999,-40.9751113200658],[-72.8827135249999,-40.9738716570658],[-72.8829487259999,-40.9734592120658],[-72.8819484889999,-40.9733250590658]]]}},{"type":"Feature","properties":{"id":"10302011001029","commune":"Puerto Octay","code":"10302","gse":"E","quintil":"Q1","nse_score":604.1,"educ":9.3,"educ_score":420.0,"hacin":1.192,"hacin_class":"Hacinamiento Leve","hacin_score":810.1,"auto_score":103.4,"n_per":62,"n_hog":27,"source_year":2024},"geometry":{"type":"Polygon","coordinates":[[[-72.8777037449999,-40.9771511730657],[-72.8788088769999,-40.9771676650658],[-72.8786111319999,-40.9764721520658],[-72.8786688069999,-40.9759021600658],[-72.8782058189999,-40.9758895130657],[-72.8786860399999,-40.9758752050658],[-72.8790885199999,-40.9752803130658],[-72.8788573749999,-40.9753180210658],[-72.8791569919999,-40.9752340450658],[-72.8818483989999,-40.9733332130658],[-72.8798238779999,-40.9740380780658],[-72.8785329319999,-40.9748719360658],[-72.8777155799999,-40.9761339590658],[-72.8775646509999,-40.9765847550657],[-72.8777037449999,-40.9771511730657]]]}},{"type":"Feature","properties":{"id":"10302011001032","commune":"Puerto Octay","code":"10302","gse":"D","quintil":"Q1","nse_score":635.0,"educ":10.3,"educ_score":486.7,"hacin":1.235,"hacin_class":"Hacinamiento Leve","hacin_score":801.0,"auto_score":153.8,"n_per":63,"n_hog":23,"source_year":2024},"geometry":{"type":"Polygon","coordinates":[[[-72.8830718629999,-40.9751560670658],[-72.882788763,-40.9740802020658],[-72.8823685479999,-40.9741291350658],[-72.8809472769999,-40.9752328780658],[-72.8809805079999,-40.9753886930658],[-72.8820890569999,-40.9752740250657],[-72.8820644059999,-40.9751398270658],[-72.8821290809999,-40.9752700810658],[-72.8830718629999,-40.9751560670658]]]}},{"type":"Feature","properties":{"id":"10302011001034","commune":"Puerto Octay","code":"10302","gse":"D","quintil":"Q1","nse_score":638.2,"educ":10.6,"educ_score":506.7,"hacin":1.475,"hacin_class":"Hacinamiento Leve","hacin_score":750.0,"auto_score":157.9,"n_per":59,"n_hog":19,"source_year":2024},"geometry":{"type":"Polygon","coordinates":[[[-72.878934839,-40.9771744970658],[-72.8793645219999,-40.9771544970658],[-72.8794553609999,-40.9769819570658],[-72.8794061679999,-40.9764576830658],[-72.8793482949999,-40.9768329290658],[-72.8792904189999,-40.9758481810658],[-72.8800913929999,-40.9757875340658],[-72.8799042819999,-40.9748062470658],[-72.8791075619999,-40.9753277100658],[-72.8786901959999,-40.9759718810658],[-72.8786704409999,-40.9764692390657],[-72.878934839,-40.9771744970658]]]}},{"type":"Feature","properties":{"id":"10302011001035","commune":"Puerto Octay","code":"10302","gse":"D","quintil":"Q2","nse_score":658.0,"educ":11.6,"educ_score":573.3,"hacin":1.417,"hacin_class":"Hacinamiento Leve","hacin_score":762.4,"auto_score":125.0,"n_per":17,"n_hog":7,"source_year":2024},"geometry":{"type":"Polygon","coordinates":[[[-72.8861342299999,-40.9748278900658],[-72.8842857889999,-40.9749006020658],[-72.8849634099999,-40.9775384440658],[-72.8855026439999,-40.9788938240658],[-72.8857232619999,-40.9789123940658],[-72.8862679109999,-40.9785407430658],[-72.8870354509999,-40.9785029170658],[-72.8882313059999,-40.9802111690657],[-72.8889581079999,-40.9800934890658],[-72.8882776219999,-40.9795631200658],[-72.8883137619999,-40.9775871040658],[-72.8881996689999,-40.9771038760658],[-72.8876705059999,-40.9766622360657],[-72.8863966979999,-40.9749359750658],[-72.8861342299999,-40.9748278900658]]]}},{"type":"Feature","properties":{"id":"10302011001036","commune":"Puerto Octay","code":"10302","gse":"C3","quintil":"Q3","nse_score":697.5,"educ":10.8,"educ_score":520.0,"hacin":1.067,"hacin_class":"Hacinamiento Leve","hacin_score":836.9,"auto_score":192.3,"n_per":32,"n_hog":13,"source_year":2024},"geometry":{"type":"Polygon","coordinates":[[[-72.8802038569999,-40.9754716600658],[-72.8808714769999,-40.9753997790658],[-72.880902724,-40.9751549230658],[-72.8801348529999,-40.9751903490658],[-72.8802038569999,-40.9754716600658]]]}},{"type":"Feature","properties":{"id":"10302011001038","commune":"Puerto Octay","code":"10302","gse":"D","quintil":"Q1","nse_score":635.0,"educ":9.2,"educ_score":413.3,"hacin":1.102,"hacin_class":"Hacinamiento Leve","hacin_score":829.4,"auto_score":41.7,"n_per":65,"n_hog":24,"source_year":2024},"geometry":{"type":"Polygon","coordinates":[[[-72.8824956869999,-40.9756620180657],[-72.8824159339999,-40.9752904870658],[-72.8819883459999,-40.9753332630657],[-72.8820244089999,-40.9755937540658],[-72.8819196339999,-40.9753393090658],[-72.8814697649999,-40.9753869870658],[-72.8815131079999,-40.9756400980658],[-72.8814156909999,-40.9753929280658],[-72.8809706589999,-40.9754474730657],[-72.8810425699999,-40.9758103050657],[-72.8824956869999,-40.9756620180657]]]}},{"type":"Feature","properties":{"id":"10302011001039","commune":"Puerto Octay","code":"10302","gse":"C1","quintil":"Q5","nse_score":796.8,"educ":14.8,"educ_score":786.7,"hacin":1.364,"hacin_class":"Hacinamiento Leve","hacin_score":773.7,"auto_score":166.7,"n_per":15,"n_hog":6,"source_year":2024},"geometry":{"type":"Polygon","coordinates":[[[-72.8828054129999,-40.9758611550658],[-72.8826780269999,-40.9763054430658],[-72.8822083409999,-40.9766986500658],[-72.8823386009999,-40.9775675610658],[-72.8828500739999,-40.9778283000658],[-72.8823473509999,-40.9776175740658],[-72.8822725069999,-40.9778584230657],[-72.8817591669999,-40.9782547950658],[-72.8805164239999,-40.9783668380658],[-72.8806986799999,-40.9798896470657],[-72.8806423569999,-40.9803641760658],[-72.8808777989999,-40.9803685050658],[-72.8810473479999,-40.9800914670658],[-72.8813043299999,-40.9801776760657],[-72.8817443209999,-40.9800191350658],[-72.8819663479999,-40.9801028690658],[-72.8823036359999,-40.9798691950657],[-72.8823865819999,-40.9796555670658],[-72.881743131,-40.9794523920657],[-72.8816709439999,-40.9790656210658],[-72.8814243119999,-40.9790336200657],[-72.8815481689999,-40.9788628600657],[-72.8816408499999,-40.9789112560658],[-72.8817716559999,-40.9789008430658],[-72.8815148419999,-40.9787340710658],[-72.8820180289999,-40.9786389490658],[-72.8826978689999,-40.9789883620657],[-72.8826744109999,-40.9787398190658],[-72.8823627359999,-40.9785885200658],[-72.8824654939999,-40.9785107560658],[-72.8823193969999,-40.9783194690657],[-72.8826362829999,-40.9781568320658],[-72.8827763349999,-40.9781594050657],[-72.8830831009999,-40.9785019610658],[-72.8833648839999,-40.9784924890658],[-72.8833766059999,-40.9783526260658],[-72.8838611529999,-40.9784246980657],[-72.8836021449999,-40.9782130280657],[-72.8835576689999,-40.9780172000658],[-72.8839346459999,-40.9774107090657],[-72.8828799619999,-40.9771102640657],[-72.8827772659999,-40.9768840690658],[-72.882528798,-40.9767586520658],[-72.8825313219999,-40.9765664340658],[-72.8830493679999,-40.9763461500657],[-72.8830048139999,-40.9761195160658],[-72.8831519199999,-40.9759477670657],[-72.8835462179999,-40.9759702050658],[-72.8834147079999,-40.9767456300657],[-72.8838239259999,-40.9767174390657],[-72.8842835539999,-40.9770774480658],[-72.8846587229999,-40.9776611280658],[-72.8844906529999,-40.9780059500658],[-72.8849610469999,-40.9782562890658],[-72.8851795109999,-40.9786027120658],[-72.8851704299999,-40.9788112890658],[-72.8855026439999,-40.9788938240658],[-72.8849056619999,-40.9775489480658],[-72.8843026819999,-40.9753111070658],[-72.8832923549999,-40.9754495770658],[-72.8828054129999,-40.9758611550658]]]}},{"type":"Feature","properties":{"id":"10302011001040","commune":"Puerto Octay","code":"10302","gse":"D","quintil":"Q2","nse_score":654.6,"educ":9.8,"educ_score":453.3,"hacin":1.167,"hacin_class":"Hacinamiento Leve","hacin_score":815.6,"auto_score":357.1,"n_per":21,"n_hog":7,"source_year":2024},"geometry":{"type":"Polygon","coordinates":[[[-72.8802036959999,-40.9755169270658],[-72.880187137,-40.9757993490658],[-72.8809292379999,-40.9757608460658],[-72.8808775719999,-40.9754471060658],[-72.8802036959999,-40.9755169270658]]]}},{"type":"Feature","properties":{"id":"10302011001042","commune":"Puerto Octay","code":"10302","gse":"C3","quintil":"Q3","nse_score":696.9,"educ":10.6,"educ_score":506.7,"hacin":0.939,"hacin_class":"Sin Hacinamiento","hacin_score":864.1,"auto_score":150.0,"n_per":46,"n_hog":21,"source_year":2024},"geometry":{"type":"Polygon","coordinates":[[[-72.882603646,-40.9757316490658],[-72.8810352419999,-40.9758987260657],[-72.8812167069999,-40.9769788300658],[-72.8816190619999,-40.9769622680658],[-72.8816526799999,-40.9766666780658],[-72.8816890169999,-40.9769591260658],[-72.88213909,-40.9769510490657],[-72.8821456939999,-40.9766396950658],[-72.882615111,-40.9762488900658],[-72.882603646,-40.9757316490658]]]}},{"type":"Feature","properties":{"id":"10302011001043","commune":"Puerto Octay","code":"10302","gse":"E","quintil":"Q1","nse_score":601.1,"educ":11.0,"educ_score":533.3,"hacin":1.667,"hacin_class":"Hacinamiento Medio","hacin_score":709.2,"auto_score":125.0,"n_per":30,"n_hog":9,"source_year":2024},"geometry":{"type":"Polygon","coordinates":[[[-72.8802320149999,-40.9758634720658],[-72.8803469839999,-40.9770207230658],[-72.8810971819999,-40.9769891820658],[-72.8809409869999,-40.9758563270657],[-72.8802320149999,-40.9758634720658]]]}},{"type":"Feature","properties":{"id":"10302011001044","commune":"Puerto Octay","code":"10302","gse":"D","quintil":"Q2","nse_score":653.8,"educ":10.8,"educ_score":520.0,"hacin":1.49,"hacin_class":"Hacinamiento Leve","hacin_score":746.9,"auto_score":195.7,"n_per":73,"n_hog":23,"source_year":2024},"geometry":{"type":"Polygon","coordinates":[[[-72.8795100069999,-40.9758859240658],[-72.8795263059999,-40.9770743930658],[-72.8802328219999,-40.9770348120658],[-72.8801044819999,-40.9758834490657],[-72.8795100069999,-40.9758859240658]]]}},{"type":"Feature","properties":{"id":"10302011001046","commune":"Puerto Octay","code":"10302","gse":"D","quintil":"Q2","nse_score":663.2,"educ":11.3,"educ_score":553.3,"hacin":1.394,"hacin_class":"Hacinamiento Leve","hacin_score":767.2,"auto_score":117.6,"n_per":46,"n_hog":15,"source_year":2024},"geometry":{"type":"Polygon","coordinates":[[[-72.8813842889999,-40.9782201650657],[-72.8822248559999,-40.9777919470658],[-72.8821551049999,-40.9770235320658],[-72.8812145669999,-40.9770625360658],[-72.8813842889999,-40.9782201650657]]]}},{"type":"Feature","properties":{"id":"10302011001047","commune":"Puerto Octay","code":"10302","gse":"E","quintil":"Q1","nse_score":587.7,"educ":8.4,"educ_score":360.0,"hacin":1.04,"hacin_class":"Hacinamiento Leve","hacin_score":842.6,"auto_score":90.9,"n_per":26,"n_hog":10,"source_year":2024},"geometry":{"type":"Polygon","coordinates":[[[-72.878936871,-40.9772014420658],[-72.8788224999999,-40.9780583820657],[-72.8780518009999,-40.9785551520658],[-72.8795423179999,-40.9783853010658],[-72.8795313959999,-40.9771214250658],[-72.8794704769999,-40.9770292700658],[-72.8793819499999,-40.9771799870658],[-72.878936871,-40.9772014420658]]]}},{"type":"Feature","properties":{"id":"10302011001048","commune":"Puerto Octay","code":"10302","gse":"D","quintil":"Q2","nse_score":651.3,"educ":10.7,"educ_score":513.3,"hacin":1.25,"hacin_class":"Hacinamiento Leve","hacin_score":797.9,"auto_score":66.7,"n_per":30,"n_hog":13,"source_year":2024},"geometry":{"type":"Polygon","coordinates":[[[-72.8805589469999,-40.9782950820657],[-72.8812986339999,-40.9782336130657],[-72.8810998449999,-40.9770557760657],[-72.8803503329999,-40.9771090620658],[-72.8805589469999,-40.9782950820657]]]}},{"type":"Feature","properties":{"id":"10302011001049","commune":"Puerto Octay","code":"10302","gse":"D","quintil":"Q2","nse_score":661.3,"educ":10.3,"educ_score":486.7,"hacin":0.915,"hacin_class":"Sin Hacinamiento","hacin_score":869.2,"auto_score":0.0,"n_per":43,"n_hog":18,"source_year":2024},"geometry":{"type":"Polygon","coordinates":[[[-72.8797224909999,-40.9783527120658],[-72.8804223599999,-40.9782908820658],[-72.8802507449999,-40.9771079920658],[-72.8799067519999,-40.9771303460658],[-72.8799325979999,-40.9773827000658],[-72.8798513539999,-40.9771352160658],[-72.8795726089999,-40.9771578140658],[-72.8797224909999,-40.9783527120658]]]}},{"type":"Feature","properties":{"id":"10302011001050","commune":"Puerto Octay","code":"10302","gse":"E","quintil":"Q1","nse_score":581.4,"educ":8.5,"educ_score":366.7,"hacin":1.469,"hacin_class":"Hacinamiento Leve","hacin_score":751.2,"auto_score":125.0,"n_per":72,"n_hog":29,"source_year":2024},"geometry":{"type":"Polygon","coordinates":[[[-72.8777137189999,-40.9772007970658],[-72.8775736289999,-40.9778134630658],[-72.8766863099999,-40.9783036940657],[-72.8766157749999,-40.9789322970657],[-72.8769199019999,-40.9793938420657],[-72.8772681249999,-40.9794533590657],[-72.8783142019999,-40.9790607330657],[-72.8791386159999,-40.9791001030658],[-72.8796413839999,-40.9789216820658],[-72.8796276769999,-40.9784239490657],[-72.8779856589999,-40.9785656830658],[-72.8787680249999,-40.9780396780658],[-72.8788112139999,-40.9777521860657],[-72.8783292279999,-40.9778278200658],[-72.8782823239999,-40.9779639940658],[-72.8780618749999,-40.9780175800657],[-72.8783164179999,-40.9778079750658],[-72.8788155079999,-40.9777221530658],[-72.8788184679999,-40.9772197000657],[-72.8777137189999,-40.9772007970658]]]}},{"type":"Feature","properties":{"id":"10302011001052","commune":"Puerto Octay","code":"10302","gse":"C3","quintil":"Q2","nse_score":680.7,"educ":11.2,"educ_score":546.7,"hacin":1.454,"hacin_class":"Hacinamiento Leve","hacin_score":754.4,"auto_score":357.1,"n_per":32,"n_hog":13,"source_year":2024},"geometry":{"type":"Polygon","coordinates":[[[-72.8799089919999,-40.9792055090657],[-72.8797235789999,-40.9787990380657],[-72.8794331319999,-40.9790975280658],[-72.8783522199999,-40.9790901110658],[-72.8772681249999,-40.9794533590657],[-72.8774645789999,-40.9794368360657],[-72.8774282569999,-40.9795899780657],[-72.8776006019999,-40.9797158350657],[-72.8780921289999,-40.9795326230658],[-72.8781036569999,-40.9793991660658],[-72.8783355909999,-40.9793997750657],[-72.8783236719999,-40.9796961910658],[-72.8785745429999,-40.9799351890657],[-72.8789571309999,-40.9799092730657],[-72.8787036009999,-40.9796024760657],[-72.8788974749999,-40.9795089970657],[-72.879109663,-40.9798241880658],[-72.8792220009999,-40.9795607480657],[-72.8795075289999,-40.9795476910657],[-72.8795126949999,-40.9798389290657],[-72.879653372,-40.9798598280657],[-72.879747086,-40.9797251370658],[-72.8798514069999,-40.9798250200658],[-72.8798122769999,-40.9800660030657],[-72.8804865029999,-40.9802889810658],[-72.8806509699999,-40.9798889260658],[-72.880440458,-40.9783721090658],[-72.8797037499999,-40.9784206280657],[-72.8799089919999,-40.9792055090657]]]}},{"type":"Feature","properties":{"id":"10302011001015","commune":"Puerto Octay","code":"10302","gse":"C3","quintil":"Q2","nse_score":684.8,"educ":12.7,"educ_score":646.7,"hacin":1.316,"hacin_class":"Hacinamiento Leve","hacin_score":783.9,"auto_score":227.3,"n_per":25,"n_hog":8,"source_year":2024},"geometry":{"type":"MultiPolygon","coordinates":[[[[-72.8840317649999,-40.9720134430658],[-72.8842314249999,-40.9716801410658],[-72.8842249429999,-40.9713084570658],[-72.8840752949999,-40.9710757000658],[-72.8836718489999,-40.9711979320658],[-72.8837184649999,-40.9714752660658],[-72.8834821329999,-40.9719796990658],[-72.8840317649999,-40.9720134430658]]],[[[-72.88016798,-40.9715248470658],[-72.8797470289999,-40.9715042980658],[-72.8796536159999,-40.9715558460658],[-72.8797612819999,-40.9716640300658],[-72.8792300249999,-40.9719582150658],[-72.8792034389999,-40.9721847810658],[-72.8794651869999,-40.9724605990658],[-72.8791081169999,-40.9727470020658],[-72.87957775,-40.9730193220658],[-72.8796159349999,-40.9731848220658],[-72.8795356919999,-40.9733518050658],[-72.8791266019999,-40.9735273860658],[-72.8794027969999,-40.9735031720658],[-72.8792168889999,-40.9735748250658],[-72.8791761559999,-40.9737150690658],[-72.879237154,-40.9736209760658],[-72.8792793249999,-40.9736620360658],[-72.879069409,-40.9738797340658],[-72.8788561559999,-40.9744509540658],[-72.8781859309999,-40.9745601890658],[-72.8782197729999,-40.9748611110658],[-72.8780784059999,-40.9751258470658],[-72.8776695639999,-40.9755193270657],[-72.8775581899999,-40.9759787100658],[-72.8773218579999,-40.9760402760658],[-72.877269828,-40.9763066560658],[-72.8773895109999,-40.9764168950658],[-72.8772120329999,-40.9766773020657],[-72.8772341089999,-40.9771190010658],[-72.8773085019999,-40.9772100960658],[-72.8774051309999,-40.9770598950658],[-72.8774808329999,-40.9772608780657],[-72.8770171369999,-40.9780945880657],[-72.8775974349999,-40.9776987600658],[-72.87766203,-40.9772423390658],[-72.8774875779999,-40.9767582790658],[-72.8775690829999,-40.9763514990657],[-72.8785902379999,-40.9747541440657],[-72.8797919359999,-40.9740001570658],[-72.8814922109999,-40.9733290940658],[-72.8821642419999,-40.9732454720657],[-72.8830805159999,-40.9733326010658],[-72.8839647099999,-40.9720995300658],[-72.8832411529999,-40.9719585090658],[-72.8817327219999,-40.9709247750658],[-72.88016798,-40.9715248470658]]]]}},{"type":"Feature","properties":{"id":"10302011001023","commune":"Puerto Octay","code":"10302","gse":"C3","quintil":"Q3","nse_score":708.3,"educ":11.9,"educ_score":593.3,"hacin":1.44,"hacin_class":"Hacinamiento Leve","hacin_score":757.4,"auto_score":31.2,"n_per":36,"n_hog":14,"source_year":2024},"geometry":{"type":"Polygon","coordinates":[[[-72.885530275,-40.9733433990658],[-72.8854095119999,-40.9731560650658],[-72.8847211719999,-40.9732759770658],[-72.885113251,-40.9748079030658],[-72.8861427749999,-40.9747559490658],[-72.8864348229999,-40.9748661330658],[-72.8877398039999,-40.9766274030658],[-72.8882360779999,-40.9770214770658],[-72.8879056829999,-40.9752971320657],[-72.8876195639999,-40.9748317920657],[-72.8891189009999,-40.9747337010658],[-72.8904205509999,-40.9741933680658],[-72.8906592289999,-40.9740318050658],[-72.8908203159999,-40.9737009130658],[-72.8902872569999,-40.9740200690658],[-72.8893841009999,-40.9738872350658],[-72.8870370369999,-40.9725310100658],[-72.8861954859999,-40.9729862060658],[-72.8855515829999,-40.9731258760658],[-72.885530275,-40.9733433990658]]]}},{"type":"Feature","properties":{"id":"10302011001003","commune":"Puerto Octay","code":"10302","gse":"C3","quintil":"Q3","nse_score":690.0,"educ":11.8,"educ_score":586.7,"hacin":1.0,"hacin_class":"Hacinamiento Leve","hacin_score":851.1,"auto_score":142.9,"n_per":13,"n_hog":6,"source_year":2024},"geometry":{"type":"MultiPolygon","coordinates":[[[[-72.8840562619999,-40.9707296850658],[-72.8847314239999,-40.9705960680658],[-72.8845713029999,-40.9700572160658],[-72.8837461249999,-40.9702313970658],[-72.8840562619999,-40.9707296850658]]],[[[-72.8853507939999,-40.9678452420658],[-72.8841028049999,-40.9687955140658],[-72.8837460229999,-40.9693381790658],[-72.8835778769999,-40.9697840800658],[-72.8836965379999,-40.9701565680658],[-72.8845296139999,-40.9699737110658],[-72.8843573389999,-40.9691393600658],[-72.8850196309999,-40.9685229850658],[-72.8855727619999,-40.9683559340658],[-72.8866231449999,-40.9683804050658],[-72.8868044349999,-40.9682431520658],[-72.8853507939999,-40.9678452420658]]]]}},{"type":"Feature","properties":{"id":"10302011001030","commune":"Puerto Octay","code":"10302","gse":"C2","quintil":"Q4","nse_score":747.5,"educ":11.9,"educ_score":593.3,"hacin":0.923,"hacin_class":"Sin Hacinamiento","hacin_score":867.4,"auto_score":83.3,"n_per":12,"n_hog":6,"source_year":2024},"geometry":{"type":"MultiPolygon","coordinates":[[[[-72.8832364479999,-40.9753833700657],[-72.8842683779999,-40.9752326070658],[-72.8839556679999,-40.9741121030658],[-72.8829499559999,-40.9742509710658],[-72.8832364479999,-40.9753833700657]]],[[[-72.8829503069999,-40.9741621010658],[-72.8839269349999,-40.9740237890658],[-72.8838007509999,-40.9734085370658],[-72.8830695259999,-40.9735445270658],[-72.8828387449999,-40.9738662380657],[-72.8829503069999,-40.9741621010658]]]]}},{"type":"Feature","properties":{"id":"10302013096001","commune":"Puerto Octay","code":"10302","gse":"C3","quintil":"Q3","nse_score":688.6,"educ":11.4,"educ_score":560.0,"hacin":1.465,"hacin_class":"Hacinamiento Leve","hacin_score":752.2,"auto_score":97.2,"n_per":104,"n_hog":34,"source_year":2024},"geometry":{"type":"Polygon","coordinates":[[[-72.8887667779999,-40.9536515230659],[-72.8887879029999,-40.9538329760659],[-72.8911271099999,-40.9536826820659],[-72.8909532259999,-40.9537694240658],[-72.8910084889999,-40.9544099250659],[-72.8912116429999,-40.9544869290658],[-72.891018158,-40.9545315910659],[-72.8910481819999,-40.9549075060659],[-72.8912722749999,-40.9549001680659],[-72.8911384789999,-40.9534993770659],[-72.8887667779999,-40.9536515230659]]]}},{"type":"Feature","properties":{"id":"10302013096002","commune":"Puerto Octay","code":"10302","gse":"D","quintil":"Q1","nse_score":640.3,"educ":11.9,"educ_score":593.3,"hacin":1.412,"hacin_class":"Hacinamiento Leve","hacin_score":763.5,"auto_score":21.7,"n_per":72,"n_hog":22,"source_year":2024},"geometry":{"type":"Polygon","coordinates":[[[-72.8865371189999,-40.9537716950659],[-72.8865479629999,-40.9539400140659],[-72.8887170629999,-40.9538298170659],[-72.8887017559999,-40.9536550270659],[-72.8865371189999,-40.9537716950659]]]}},{"type":"Feature","properties":{"id":"10302013096003","commune":"Puerto Octay","code":"10302","gse":"C2","quintil":"Q4","nse_score":728.8,"educ":12.1,"educ_score":606.7,"hacin":1.488,"hacin_class":"Hacinamiento Leve","hacin_score":747.3,"auto_score":214.3,"n_per":61,"n_hog":21,"source_year":2024},"geometry":{"type":"Polygon","coordinates":[[[-72.8897294269999,-40.9541342170659],[-72.8908497919999,-40.9540563250659],[-72.8908768129999,-40.9538007530659],[-72.8897075219999,-40.9538294410658],[-72.8897294269999,-40.9541342170659]]]}},{"type":"Feature","properties":{"id":"10302013096005","commune":"Puerto Octay","code":"10302","gse":"D","quintil":"Q1","nse_score":637.2,"educ":9.1,"educ_score":406.7,"hacin":1.222,"hacin_class":"Hacinamiento Leve","hacin_score":803.8,"auto_score":27.8,"n_per":44,"n_hog":18,"source_year":2024},"geometry":{"type":"Polygon","coordinates":[[[-72.8896398449999,-40.9544899750659],[-72.8895678509999,-40.9538420190659],[-72.8891817999999,-40.9538683390659],[-72.8892377829999,-40.9545353310658],[-72.8896398449999,-40.9544899750659]]]}},{"type":"Feature","properties":{"id":"10302013096006","commune":"Puerto Octay","code":"10302","gse":"E","quintil":"Q1","nse_score":532.5,"educ":8.7,"educ_score":380.0,"hacin":1.296,"hacin_class":"Hacinamiento Leve","hacin_score":788.2,"auto_score":60.0,"n_per":57,"n_hog":19,"source_year":2024},"geometry":{"type":"Polygon","coordinates":[[[-72.8887951129999,-40.9545632210659],[-72.8891654249999,-40.9545364470659],[-72.8890929909999,-40.9538714230659],[-72.8887324559999,-40.9539279990658],[-72.8887951129999,-40.9545632210659]]]}},{"type":"Feature","properties":{"id":"10302013096008","commune":"Puerto Octay","code":"10302","gse":"D","quintil":"Q1","nse_score":643.8,"educ":10.7,"educ_score":513.3,"hacin":1.595,"hacin_class":"Hacinamiento Medio","hacin_score":724.6,"auto_score":131.6,"n_per":59,"n_hog":18,"source_year":2024},"geometry":{"type":"Polygon","coordinates":[[[-72.8883362239999,-40.9545906480659],[-72.8887193079999,-40.9545478920659],[-72.8886504789999,-40.9538944860659],[-72.8882777069999,-40.9539381590659],[-72.8883362239999,-40.9545906480659]]]}},{"type":"Feature","properties":{"id":"10302013096009","commune":"Puerto Octay","code":"10302","gse":"C3","quintil":"Q2","nse_score":675.3,"educ":10.5,"educ_score":500.0,"hacin":1.402,"hacin_class":"Hacinamiento Leve","hacin_score":765.5,"auto_score":76.1,"n_per":136,"n_hog":46,"source_year":2024},"geometry":{"type":"Polygon","coordinates":[[[-72.8878520259999,-40.9542342070659],[-72.8879113309999,-40.9546162230659],[-72.8882639959999,-40.9545953140659],[-72.8882182529999,-40.9539223440659],[-72.8869763009999,-40.9539979710658],[-72.8870276359999,-40.9546543350658],[-72.8873740309999,-40.9546478840659],[-72.8874134229999,-40.9542514880659],[-72.8878520259999,-40.9542342070659]]]}},{"type":"Feature","properties":{"id":"10302013096010","commune":"Puerto Octay","code":"10302","gse":"D","quintil":"Q2","nse_score":662.2,"educ":9.4,"educ_score":426.7,"hacin":1.34,"hacin_class":"Hacinamiento Leve","hacin_score":778.7,"auto_score":184.2,"n_per":67,"n_hog":19,"source_year":2024},"geometry":{"type":"Polygon","coordinates":[[[-72.8869119269999,-40.9539870560659],[-72.8865277279999,-40.9540195750659],[-72.8866028559999,-40.9546622470659],[-72.8869642219999,-40.9546300370659],[-72.8869119269999,-40.9539870560659]]]}},{"type":"Feature","properties":{"id":"10302013096011","commune":"Puerto Octay","code":"10302","gse":"D","quintil":"Q1","nse_score":620.3,"educ":8.7,"educ_score":380.0,"hacin":1.4,"hacin_class":"Hacinamiento Leve","hacin_score":766.0,"auto_score":115.4,"n_per":35,"n_hog":13,"source_year":2024},"geometry":{"type":"Polygon","coordinates":[[[-72.8856946539999,-40.9543203960659],[-72.8864416099999,-40.9542733680658],[-72.8864492819999,-40.9540026750658],[-72.8856786939999,-40.9540191560659],[-72.8856946539999,-40.9543203960659]]]}},{"type":"Feature","properties":{"id":"10302013096012","commune":"Puerto Octay","code":"10302","gse":"D","quintil":"Q1","nse_score":647.3,"educ":10.2,"educ_score":480.0,"hacin":1.476,"hacin_class":"Hacinamiento Leve","hacin_score":749.7,"auto_score":369.6,"n_per":62,"n_hog":21,"source_year":2024},"geometry":{"type":"Polygon","coordinates":[[[-72.8897055509999,-40.9544994400659],[-72.8909048919999,-40.9544418280658],[-72.8909067019999,-40.9541528860658],[-72.8897336339999,-40.9541855640659],[-72.8897055509999,-40.9544994400659]]]}},{"type":"Feature","properties":{"id":"10302013096015","commune":"Puerto Octay","code":"10302","gse":"D","quintil":"Q1","nse_score":646.2,"educ":9.8,"educ_score":453.3,"hacin":1.327,"hacin_class":"Hacinamiento Leve","hacin_score":781.4,"auto_score":152.2,"n_per":73,"n_hog":21,"source_year":2024},"geometry":{"type":"Polygon","coordinates":[[[-72.8897565659999,-40.9549105850659],[-72.8909232419999,-40.9548500750659],[-72.8909536619999,-40.9545242200659],[-72.8897301099999,-40.9545701630658],[-72.8897565659999,-40.9549105850659]]]}},{"type":"Feature","properties":{"id":"10302013096017","commune":"Puerto Octay","code":"10302","gse":"D","quintil":"Q1","nse_score":620.6,"educ":8.6,"educ_score":373.3,"hacin":1.273,"hacin_class":"Hacinamiento Leve","hacin_score":793.0,"auto_score":125.0,"n_per":28,"n_hog":11,"source_year":2024},"geometry":{"type":"Polygon","coordinates":[[[-72.8896439069999,-40.9546016180658],[-72.8888421109999,-40.9546407620659],[-72.8888405899999,-40.9549376020658],[-72.889658359,-40.9549214110658],[-72.8896439069999,-40.9546016180658]]]}},{"type":"Feature","properties":{"id":"10302013096018","commune":"Puerto Octay","code":"10302","gse":"D","quintil":"Q1","nse_score":642.4,"educ":10.5,"educ_score":500.0,"hacin":1.526,"hacin_class":"Hacinamiento Medio","hacin_score":739.2,"auto_score":191.2,"n_per":119,"n_hog":33,"source_year":2024},"geometry":{"type":"Polygon","coordinates":[[[-72.8878519879999,-40.9550274140658],[-72.8877560689999,-40.9547054180659],[-72.8870332969999,-40.9547340140659],[-72.8870479209999,-40.9549556850659],[-72.8869599299999,-40.9547418320659],[-72.8866332699999,-40.9547452860659],[-72.8865780559999,-40.9549822700659],[-72.8865595379999,-40.9547473220659],[-72.8861249899999,-40.9547593240659],[-72.8860933409999,-40.9549700410659],[-72.8860669359999,-40.9547612570658],[-72.8857076209999,-40.9547708510658],[-72.885681884,-40.9549743990658],[-72.8856699709999,-40.9547718900659],[-72.8847604229999,-40.9547970110659],[-72.8844589259999,-40.9550184280659],[-72.8851357189999,-40.9555721460659],[-72.886733552,-40.9555098990659],[-72.8874793179999,-40.9554349210659],[-72.8874569399999,-40.9550540570659],[-72.8887926289999,-40.9550015520659],[-72.8887674439999,-40.9546414750659],[-72.8878247949999,-40.9546983320659],[-72.8878519879999,-40.9550274140658]]]}},{"type":"Feature","properties":{"id":"10302013096004","commune":"Puerto Octay","code":"10302","gse":"E","quintil":"Q1","nse_score":565.1,"educ":9.2,"educ_score":413.3,"hacin":1.174,"hacin_class":"Hacinamiento Leve","hacin_score":814.1,"auto_score":55.6,"n_per":27,"n_hog":9,"source_year":2024},"geometry":{"type":"MultiPolygon","coordinates":[[[[-72.8842373339999,-40.9547352280659],[-72.8855971339999,-40.9546908830659],[-72.885558193,-40.9539055730659],[-72.8831328879999,-40.9540067390659],[-72.8842373339999,-40.9547352280659]]],[[[-72.8857126679999,-40.9539788420658],[-72.8864072219999,-40.9539524870658],[-72.8864315019999,-40.9537773870659],[-72.8856701679999,-40.9538184210659],[-72.8857126679999,-40.9539788420658]]]]}},{"type":"Feature","properties":{"id":"10302033232003","commune":"Puerto Octay","code":"10302","gse":"D","quintil":"Q1","nse_score":624.8,"educ":10.3,"educ_score":486.7,"hacin":1.394,"hacin_class":"Hacinamiento Leve","hacin_score":767.2,"auto_score":277.8,"n_per":46,"n_hog":18,"source_year":2024},"geometry":{"type":"Polygon","coordinates":[[[-72.6330743659999,-41.0780242080653],[-72.6333765119999,-41.0770949610653],[-72.6328667609999,-41.0770134010653],[-72.6325877769999,-41.0779653460653],[-72.6330743659999,-41.0780242080653]]]}},{"type":"Feature","properties":{"id":"10302033232004","commune":"Puerto Octay","code":"10302","gse":"D","quintil":"Q1","nse_score":638.7,"educ":10.0,"educ_score":466.7,"hacin":1.5,"hacin_class":"Hacinamiento Medio","hacin_score":744.7,"auto_score":142.9,"n_per":48,"n_hog":14,"source_year":2024},"geometry":{"type":"Polygon","coordinates":[[[-72.6334335099999,-41.0771087720653],[-72.6331518979999,-41.0780262970653],[-72.6337292899999,-41.0780961390653],[-72.6339787619999,-41.0771894720653],[-72.6334335099999,-41.0771087720653]]]}},{"type":"Feature","properties":{"id":"10302033232005","commune":"Puerto Octay","code":"10302","gse":"E","quintil":"Q1","nse_score":594.3,"educ":8.3,"educ_score":353.3,"hacin":1.429,"hacin_class":"Hacinamiento Leve","hacin_score":759.9,"auto_score":125.0,"n_per":20,"n_hog":8,"source_year":2024},"geometry":{"type":"Polygon","coordinates":[[[-72.6337883879999,-41.0781021620653],[-72.6340783069999,-41.0778683080653],[-72.6343362659999,-41.0772387680653],[-72.6340381569999,-41.0772000820653],[-72.6339531219999,-41.0773301350653],[-72.6337883879999,-41.0781021620653]]]}},{"type":"Feature","properties":{"id":"10302033232006","commune":"Puerto Octay","code":"10302","gse":"E","quintil":"Q1","nse_score":517.5,"educ":7.8,"educ_score":320.0,"hacin":1.583,"hacin_class":"Hacinamiento Medio","hacin_score":727.0,"auto_score":0.0,"n_per":19,"n_hog":7,"source_year":2024},"geometry":{"type":"Polygon","coordinates":[[[-72.6350563069999,-41.0776046890653],[-72.6353490739999,-41.0772969160653],[-72.6343958999999,-41.0772452170653],[-72.634317156,-41.0774353410653],[-72.6350563069999,-41.0776046890653]]]}},{"type":"Feature","properties":{"id":"10302033232007","commune":"Puerto Octay","code":"10302","gse":"E","quintil":"Q1","nse_score":583.4,"educ":8.8,"educ_score":386.7,"hacin":1.46,"hacin_class":"Hacinamiento Leve","hacin_score":753.1,"auto_score":194.4,"n_per":111,"n_hog":36,"source_year":2024},"geometry":{"type":"Polygon","coordinates":[[[-72.6348017019999,-41.0779867980653],[-72.6341185569999,-41.0779025380653],[-72.6337803789999,-41.0781768510653],[-72.6337346079999,-41.0786037130653],[-72.6343725949999,-41.0786558630653],[-72.6342352229999,-41.0787458260653],[-72.6337316419999,-41.0786313720653],[-72.6336727439999,-41.0791628610653],[-72.6330320819999,-41.0794048390653],[-72.6327933259999,-41.0798155870653],[-72.6339632589999,-41.0799881420653],[-72.6362124069999,-41.0773603230653],[-72.6354154359999,-41.0773010110653],[-72.6348017019999,-41.0779867980653]]]}},{"type":"Feature","properties":{"id":"10302033232008","commune":"Puerto Octay","code":"10302","gse":"D","quintil":"Q1","nse_score":624.4,"educ":9.9,"educ_score":460.0,"hacin":1.414,"hacin_class":"Hacinamiento Leve","hacin_score":763.0,"auto_score":96.2,"n_per":82,"n_hog":26,"source_year":2024},"geometry":{"type":"Polygon","coordinates":[[[-72.6401086899999,-41.0776516960653],[-72.6377796719999,-41.0773500600653],[-72.6377661149999,-41.0774649500653],[-72.6381551619999,-41.0775411930653],[-72.6378076089999,-41.0775055540653],[-72.6376982589999,-41.0777664660653],[-72.6388519789999,-41.0779424140653],[-72.6376792209999,-41.0777913960653],[-72.6372614589999,-41.0783557780653],[-72.6387580789999,-41.0791482690653],[-72.6399898409999,-41.0777784740653],[-72.6382824919999,-41.0775357680653],[-72.6400194029999,-41.0777455980653],[-72.6401086899999,-41.0776516960653]]]}},{"type":"Feature","properties":{"id":"10302033232009","commune":"Puerto Octay","code":"10302","gse":"E","quintil":"Q1","nse_score":607.4,"educ":9.6,"educ_score":440.0,"hacin":1.375,"hacin_class":"Hacinamiento Leve","hacin_score":771.3,"auto_score":152.2,"n_per":66,"n_hog":23,"source_year":2024},"geometry":{"type":"Polygon","coordinates":[[[-72.6365014819999,-41.0790293320653],[-72.6371538779999,-41.0783320510653],[-72.6377061189999,-41.0774951470653],[-72.6363051579999,-41.0773682080653],[-72.6353687729999,-41.0784445780653],[-72.6365014819999,-41.0790293320653]]]}},{"type":"Feature","properties":{"id":"10302033232010","commune":"Puerto Octay","code":"10302","gse":"E","quintil":"Q1","nse_score":612.0,"educ":9.3,"educ_score":420.0,"hacin":1.333,"hacin_class":"Hacinamiento Leve","hacin_score":780.1,"auto_score":150.0,"n_per":32,"n_hog":10,"source_year":2024},"geometry":{"type":"Polygon","coordinates":[[[-72.6347828179999,-41.0779425450653],[-72.6350674759999,-41.0776457250653],[-72.6343029219999,-41.0774697090653],[-72.6341433399999,-41.0778608060653],[-72.6347828179999,-41.0779425450653]]]}},{"type":"Feature","properties":{"id":"10302033232011","commune":"Puerto Octay","code":"10302","gse":"E","quintil":"Q1","nse_score":590.3,"educ":9.7,"educ_score":446.7,"hacin":1.5,"hacin_class":"Hacinamiento Medio","hacin_score":744.7,"auto_score":117.6,"n_per":42,"n_hog":17,"source_year":2024},"geometry":{"type":"Polygon","coordinates":[[[-72.6422218879999,-41.0779290720653],[-72.6401940239999,-41.0776640420653],[-72.6396043989999,-41.0783046530653],[-72.6411901199999,-41.0790795000653],[-72.6422218879999,-41.0779290720653]]]}},{"type":"Feature","properties":{"id":"10302033232013","commune":"Puerto Octay","code":"10302","gse":"C2","quintil":"Q4","nse_score":751.3,"educ":14.3,"educ_score":753.3,"hacin":1.083,"hacin_class":"Hacinamiento Leve","hacin_score":833.3,"auto_score":125.0,"n_per":13,"n_hog":6,"source_year":2024},"geometry":{"type":"Polygon","coordinates":[[[-72.6433462819999,-41.0815883710653],[-72.6435511949999,-41.0816946080653],[-72.6440224439999,-41.0810233590653],[-72.6441491009999,-41.0803965000653],[-72.6449844939999,-41.0793717430653],[-72.6428977409999,-41.0781065600653],[-72.6423574399999,-41.0779566160653],[-72.6421275409999,-41.0782342040653],[-72.6440008429999,-41.0794275600653],[-72.6432773729999,-41.0801918730653],[-72.6438459469999,-41.0804687510653],[-72.6439510599999,-41.0806482390653],[-72.6438938979999,-41.0811449270653],[-72.643598703,-41.0812135830653],[-72.6433462819999,-41.0815883710653]]]}},{"type":"Feature","properties":{"id":"10302033232016","commune":"Puerto Octay","code":"10302","gse":"E","quintil":"Q1","nse_score":582.4,"educ":9.7,"educ_score":446.7,"hacin":1.182,"hacin_class":"Hacinamiento Leve","hacin_score":812.4,"auto_score":200.0,"n_per":13,"n_hog":5,"source_year":2024},"geometry":{"type":"Polygon","coordinates":[[[-72.6423137799999,-41.0797236510653],[-72.6431711289999,-41.0789490390653],[-72.6420944579999,-41.0782718850653],[-72.6413140289999,-41.0791376120653],[-72.6423137799999,-41.0797236510653]]]}},{"type":"Feature","properties":{"id":"10302033232017","commune":"Puerto Octay","code":"10302","gse":"D","quintil":"Q1","nse_score":644.7,"educ":10.7,"educ_score":513.3,"hacin":1.25,"hacin_class":"Hacinamiento Leve","hacin_score":797.9,"auto_score":176.5,"n_per":40,"n_hog":18,"source_year":2024},"geometry":{"type":"Polygon","coordinates":[[[-72.6402244099999,-41.0799262560653],[-72.6410840469999,-41.0791336120653],[-72.639558571,-41.0783594430653],[-72.6388316349999,-41.0791814310653],[-72.6402244099999,-41.0799262560653]]]}},{"type":"Feature","properties":{"id":"10302033232019","commune":"Puerto Octay","code":"10302","gse":"E","quintil":"Q1","nse_score":610.5,"educ":9.3,"educ_score":420.0,"hacin":1.279,"hacin_class":"Hacinamiento Leve","hacin_score":791.7,"auto_score":100.0,"n_per":55,"n_hog":20,"source_year":2024},"geometry":{"type":"Polygon","coordinates":[[[-72.6352674039999,-41.0785665980653],[-72.6348013069999,-41.0791745070653],[-72.6365073999999,-41.0800522690653],[-72.637091746,-41.0794652520653],[-72.6352674039999,-41.0785665980653]]]}},{"type":"Feature","properties":{"id":"10302033232020","commune":"Puerto Octay","code":"10302","gse":"D","quintil":"Q1","nse_score":632.0,"educ":9.7,"educ_score":446.7,"hacin":1.458,"hacin_class":"Hacinamiento Leve","hacin_score":753.5,"auto_score":136.4,"n_per":35,"n_hog":11,"source_year":2024},"geometry":{"type":"Polygon","coordinates":[[[-72.6377974929999,-41.0787738070653],[-72.6372470329999,-41.0794241140653],[-72.6381063219999,-41.0798573270653],[-72.6387015479999,-41.0792139290653],[-72.6377974929999,-41.0787738070653]]]}},{"type":"Feature","properties":{"id":"10302033232022","commune":"Puerto Octay","code":"10302","gse":"E","quintil":"Q1","nse_score":576.9,"educ":8.8,"educ_score":386.7,"hacin":1.45,"hacin_class":"Hacinamiento Leve","hacin_score":755.3,"auto_score":21.7,"n_per":58,"n_hog":22,"source_year":2024},"geometry":{"type":"Polygon","coordinates":[[[-72.6364802359999,-41.0801106710653],[-72.6347602099999,-41.0792172640653],[-72.6340487299999,-41.0800050120653],[-72.6359296429999,-41.0807527670653],[-72.6364802359999,-41.0801106710653]]]}},{"type":"Feature","properties":{"id":"10302033232023","commune":"Puerto Octay","code":"10302","gse":"D","quintil":"Q1","nse_score":643.1,"educ":10.5,"educ_score":500.0,"hacin":1.333,"hacin_class":"Hacinamiento Leve","hacin_score":780.1,"auto_score":181.8,"n_per":28,"n_hog":11,"source_year":2024},"geometry":{"type":"Polygon","coordinates":[[[-72.6287273309999,-41.0804805770653],[-72.6286745099999,-41.0808756340653],[-72.6288463579999,-41.0809655250653],[-72.6293948339999,-41.0807182930653],[-72.6294086359999,-41.0812494940653],[-72.6308927739999,-41.0817991740653],[-72.6316395039999,-41.0817434010653],[-72.6323222159999,-41.0820339780653],[-72.6326009019999,-41.0816385610653],[-72.6315493349999,-41.0813797140653],[-72.6326211989999,-41.0816111300653],[-72.6327470139999,-41.0814410940653],[-72.6313923399999,-41.0810958530653],[-72.632767225,-41.0814137790653],[-72.633017805,-41.0810751070653],[-72.6319481979999,-41.0808024700653],[-72.6330380489999,-41.0810477470653],[-72.6331482319999,-41.0808988360653],[-72.6323560989999,-41.0807083430653],[-72.6328354159999,-41.0798833180653],[-72.6316268539999,-41.0797917390653],[-72.6296002229999,-41.0792210540653],[-72.6285898189999,-41.0804404850653],[-72.6287273309999,-41.0804805770653]]]}},{"type":"Feature","properties":{"id":"10302033232024","commune":"Puerto Octay","code":"10302","gse":"E","quintil":"Q1","nse_score":531.7,"educ":7.3,"educ_score":286.7,"hacin":1.6,"hacin_class":"Hacinamiento Medio","hacin_score":723.4,"auto_score":0.0,"n_per":8,"n_hog":4,"source_year":2024},"geometry":{"type":"Polygon","coordinates":[[[-72.6403989109999,-41.0800108560653],[-72.6415917979999,-41.0806567950653],[-72.6422788419999,-41.0797654050653],[-72.6411966739999,-41.0792411100653],[-72.6403989109999,-41.0800108560653]]]}},{"type":"Feature","properties":{"id":"10302033232025","commune":"Puerto Octay","code":"10302","gse":"D","quintil":"Q1","nse_score":637.0,"educ":10.0,"educ_score":466.7,"hacin":1.018,"hacin_class":"Hacinamiento Leve","hacin_score":847.3,"auto_score":38.5,"n_per":57,"n_hog":25,"source_year":2024},"geometry":{"type":"Polygon","coordinates":[[[-72.6386666419999,-41.0802323780653],[-72.6371785699999,-41.0794823640653],[-72.6363905069999,-41.0803315920653],[-72.6368686949999,-41.0805879660653],[-72.6363695549999,-41.0803552030653],[-72.6359781969999,-41.0808099270653],[-72.6375958649999,-41.0818696410653],[-72.6401848069999,-41.0799830150653],[-72.6387783479999,-41.0792461310653],[-72.6381843289999,-41.0798865350653],[-72.6386666419999,-41.0802323780653]]]}},{"type":"Feature","properties":{"id":"10302033232028","commune":"Puerto Octay","code":"10302","gse":"E","quintil":"Q1","nse_score":610.0,"educ":10.0,"educ_score":466.7,"hacin":1.614,"hacin_class":"Hacinamiento Medio","hacin_score":720.5,"auto_score":142.9,"n_per":71,"n_hog":28,"source_year":2024},"geometry":{"type":"Polygon","coordinates":[[[-72.6323883009999,-41.0820619960653],[-72.6344322939999,-41.0828668520653],[-72.6350292879999,-41.0828829190653],[-72.6354416089999,-41.0833567360653],[-72.6375301519999,-41.0819078440653],[-72.6353452549999,-41.0805515760653],[-72.6338811499999,-41.0800372160653],[-72.6333252609999,-41.0807885010653],[-72.6337997919999,-41.0808565210653],[-72.6339324409999,-41.0806922260653],[-72.6338372609999,-41.0808618910653],[-72.6340007339999,-41.0809127980653],[-72.6333068819999,-41.0808133400653],[-72.6323883009999,-41.0820619960653]]]}},{"type":"Feature","properties":{"id":"10302033232029","commune":"Puerto Octay","code":"10302","gse":"C3","quintil":"Q2","nse_score":682.5,"educ":11.9,"educ_score":593.3,"hacin":1.28,"hacin_class":"Hacinamiento Leve","hacin_score":791.5,"auto_score":153.8,"n_per":32,"n_hog":13,"source_year":2024},"geometry":{"type":"Polygon","coordinates":[[[-72.6403406879999,-41.0800629700653],[-72.6376930999999,-41.0819328690653],[-72.6399982859999,-41.0834223280653],[-72.6403583199999,-41.0839420300653],[-72.6417844629999,-41.0844489140653],[-72.6423780829999,-41.0830989550653],[-72.6432439959999,-41.0815920780653],[-72.6403406879999,-41.0800629700653]]]}},{"type":"Feature","properties":{"id":"10302033232034","commune":"Puerto Octay","code":"10302","gse":"D","quintil":"Q1","nse_score":636.6,"educ":11.7,"educ_score":580.0,"hacin":0.75,"hacin_class":"Sin Hacinamiento","hacin_score":904.3,"auto_score":0.0,"n_per":6,"n_hog":5,"source_year":2024},"geometry":{"type":"MultiPolygon","coordinates":[[[[-72.6406309799999,-41.0868612250653],[-72.641047108,-41.0860064690653],[-72.640534795,-41.0858269840653],[-72.6400524819999,-41.0866558150652],[-72.6406309799999,-41.0868612250653]]],[[[-72.6410586039999,-41.0859682750652],[-72.6412783259999,-41.0854762620653],[-72.6395576899999,-41.0849237190653],[-72.6392825179999,-41.0853406960653],[-72.6410586039999,-41.0859682750652]]],[[[-72.6412867069999,-41.0854359480653],[-72.6415033169999,-41.0849935080652],[-72.6398758619999,-41.0844354400653],[-72.6395809999999,-41.0848896240653],[-72.6412867069999,-41.0854359480653]]],[[[-72.6415180399999,-41.0849552170653],[-72.6417627959999,-41.0844849530653],[-72.6402086239999,-41.0839127640653],[-72.6398979129999,-41.0844013840653],[-72.6415180399999,-41.0849552170653]]]]}},{"type":"Feature","properties":{"id":"10302033232032","commune":"Puerto Octay","code":"10302","gse":"C3","quintil":"Q3","nse_score":703.9,"educ":13.5,"educ_score":700.0,"hacin":1.1,"hacin_class":"Hacinamiento Leve","hacin_score":829.8,"auto_score":0.0,"n_per":11,"n_hog":7,"source_year":2024},"geometry":{"type":"MultiPolygon","coordinates":[[[[-72.6389500949999,-41.0872433830652],[-72.6395736099999,-41.0874852860653],[-72.6399886819999,-41.0866775250652],[-72.6393950309999,-41.0864604020653],[-72.6389500949999,-41.0872433830652]]],[[[-72.6390344669999,-41.0857355270653],[-72.6384626869999,-41.0870039620653],[-72.638886006,-41.0872174250653],[-72.6396410139999,-41.0859677960652],[-72.6390344669999,-41.0857355270653]]],[[[-72.6357701049999,-41.0832745810653],[-72.6379617829999,-41.0851408980653],[-72.6390321529999,-41.0856046360653],[-72.6398056589999,-41.0844103090653],[-72.6373954589999,-41.0835229610653],[-72.639826706,-41.0843780320653],[-72.640169522,-41.0838390380653],[-72.6399378549999,-41.0834657220653],[-72.6376318119999,-41.0819759400653],[-72.6357701049999,-41.0832745810653]]]]}},{"type":"Feature","properties":{"id":"10302033232001","commune":"Puerto Octay","code":"10302","gse":"E","quintil":"Q1","nse_score":526.4,"educ":9.5,"educ_score":433.3,"hacin":1.818,"hacin_class":"Hacinamiento Medio","hacin_score":677.0,"auto_score":125.0,"n_per":20,"n_hog":7,"source_year":2024},"geometry":{"type":"MultiPolygon","coordinates":[[[[-72.6321234589999,-41.0779269100653],[-72.6305927949999,-41.0780231210653],[-72.629645105,-41.0791668850653],[-72.631647331,-41.0797306090653],[-72.6326211999999,-41.0797987650653],[-72.6322049349999,-41.0791282040653],[-72.6321234589999,-41.0779269100653]]],[[[-72.6314346739999,-41.0770070630653],[-72.6306151489999,-41.0779961420653],[-72.6321224939999,-41.0778998990653],[-72.6321442629999,-41.0770544210653],[-72.6314346739999,-41.0770070630653]]],[[[-72.6314751279999,-41.0769582380653],[-72.6321877839999,-41.0770390740653],[-72.6321696069999,-41.0779161000653],[-72.6322669659999,-41.0779571950653],[-72.6325264319999,-41.0779593450653],[-72.6327365869999,-41.0770371840653],[-72.6328593809999,-41.0769770660653],[-72.63443,-41.0772125510653],[-72.6377661149999,-41.0774649500653],[-72.6377796719999,-41.0773500600653],[-72.6346187999999,-41.0771299850653],[-72.632012975,-41.0763091110653],[-72.6314751279999,-41.0769582380653]]]]}},{"type":"Feature","properties":{"id":"10302033232027","commune":"Puerto Octay","code":"10302","gse":"E","quintil":"Q1","nse_score":552.8,"educ":10.0,"educ_score":466.7,"hacin":1.222,"hacin_class":"Hacinamiento Leve","hacin_score":803.8,"auto_score":62.5,"n_per":11,"n_hog":5,"source_year":2024},"geometry":{"type":"MultiPolygon","coordinates":[[[[-72.632403586,-41.0806954590653],[-72.6331684489999,-41.0808715130653],[-72.6335200699999,-41.0803962960653],[-72.6326555789999,-41.0802655680653],[-72.632403586,-41.0806954590653]]],[[[-72.6326723769999,-41.0802369100653],[-72.6335408299999,-41.0803682380653],[-72.6337977419999,-41.0800210150653],[-72.6328771989999,-41.0798874900653],[-72.6326723769999,-41.0802369100653]]]]}}]}