{"type":"FeatureCollection","features":[{"type":"Feature","properties":{"id":"6309013058001","commune":"Pumanque","code":"06309","gse":"E","quintil":"Q1","nse_score":509.4,"educ":7.3,"educ_score":286.7,"hacin":1.167,"hacin_class":"Hacinamiento Leve","hacin_score":815.6,"auto_score":125.0,"n_per":7,"n_hog":4,"source_year":2024},"geometry":{"type":"Polygon","coordinates":[[[-71.6511513849999,-34.5963231941177],[-71.6502740729999,-34.5948315571177],[-71.6502407589999,-34.5938191451177],[-71.6489509549999,-34.5936130821177],[-71.6489698479999,-34.5941745321177],[-71.6500272689999,-34.5939701211177],[-71.6489708569999,-34.5942109581177],[-71.6489871299999,-34.5947985611177],[-71.6490806059999,-34.5952223511177],[-71.650121882,-34.5969888341177],[-71.6511513849999,-34.5963231941177]]]}},{"type":"Feature","properties":{"id":"6309013058002","commune":"Pumanque","code":"06309","gse":"E","quintil":"Q1","nse_score":577.0,"educ":10.2,"educ_score":480.0,"hacin":1.132,"hacin_class":"Hacinamiento Leve","hacin_score":823.1,"auto_score":166.7,"n_per":43,"n_hog":15,"source_year":2024},"geometry":{"type":"Polygon","coordinates":[[[-71.6489243859999,-34.5945008881177],[-71.6475123109999,-34.5949971061177],[-71.6491710289999,-34.5980086941177],[-71.6494807469999,-34.5979321791177],[-71.6507536039999,-34.5991140281176],[-71.6509506309999,-34.5991668151177],[-71.6502123189999,-34.5972611641177],[-71.6490297409999,-34.5952385981177],[-71.6489243859999,-34.5945008881177]]]}},{"type":"Feature","properties":{"id":"6309013058003","commune":"Pumanque","code":"06309","gse":"C2","quintil":"Q4","nse_score":726.9,"educ":12.5,"educ_score":633.3,"hacin":0.714,"hacin_class":"Sin Hacinamiento","hacin_score":911.9,"auto_score":166.7,"n_per":15,"n_hog":9,"source_year":2024},"geometry":{"type":"Polygon","coordinates":[[[-71.6516169369999,-34.5972402631177],[-71.6511734899999,-34.5963598721177],[-71.6501414269999,-34.5970212651177],[-71.6505321719999,-34.5978898101176],[-71.6514735299999,-34.5973218991177],[-71.6510557569999,-34.5965725841177],[-71.6515097269999,-34.5973008731177],[-71.6516169369999,-34.5972402631177]]]}},{"type":"Feature","properties":{"id":"6309013058004","commune":"Pumanque","code":"06309","gse":"D","quintil":"Q2","nse_score":660.3,"educ":11.5,"educ_score":566.7,"hacin":1.043,"hacin_class":"Hacinamiento Leve","hacin_score":841.9,"auto_score":137.9,"n_per":146,"n_hog":57,"source_year":2024},"geometry":{"type":"Polygon","coordinates":[[[-71.6546931519999,-34.5966802511177],[-71.6526029639999,-34.5974890241176],[-71.6523117859999,-34.5969020051177],[-71.6505456509999,-34.5979262971177],[-71.6509114159999,-34.5989536951176],[-71.6513295249999,-34.5988468841177],[-71.65141388,-34.5989932411177],[-71.6513138099999,-34.5988868511176],[-71.6509244929999,-34.5989880811177],[-71.6509716919999,-34.5991089101176],[-71.6526977299999,-34.5996775621177],[-71.6522082409999,-34.5982289151177],[-71.6512469219999,-34.5985509491177],[-71.6524169389999,-34.5981241651177],[-71.652238441,-34.5982178741177],[-71.6524277949999,-34.5987553011176],[-71.6530381649999,-34.5986129701176],[-71.6527369859999,-34.5975896641177],[-71.6515581639999,-34.5979117181177],[-71.651394304,-34.5978421661177],[-71.6512144319999,-34.5976156501177],[-71.6515558589999,-34.5978845071177],[-71.6523578469999,-34.5976443731177],[-71.6525725089999,-34.5975490811177],[-71.6523947819999,-34.5971099211176],[-71.6525875979999,-34.5975245161177],[-71.6527324929999,-34.5975443521177],[-71.6528323709999,-34.5977397581177],[-71.6535856169999,-34.5974859471177],[-71.652840754,-34.5977664801177],[-71.6545130389999,-34.6027856471176],[-71.6545882839999,-34.6028582231176],[-71.6559794019999,-34.6025090021176],[-71.6561446429999,-34.6044424311176],[-71.6563657989999,-34.6051049931176],[-71.6574340699999,-34.6049250401176],[-71.657258871,-34.6024754291176],[-71.6552691309999,-34.5991041921176],[-71.6547656159999,-34.5986869631177],[-71.6541299219999,-34.5977452571177],[-71.6540765079999,-34.5974264021177],[-71.6544973849999,-34.5970566571177],[-71.6546931519999,-34.5966802511177]]]}},{"type":"Feature","properties":{"id":"6309013058005","commune":"Pumanque","code":"06309","gse":"E","quintil":"Q1","nse_score":602.8,"educ":10.7,"educ_score":513.3,"hacin":1.042,"hacin_class":"Hacinamiento Leve","hacin_score":842.1,"auto_score":258.6,"n_per":74,"n_hog":24,"source_year":2024},"geometry":{"type":"Polygon","coordinates":[[[-71.6491873969999,-34.5980476071177],[-71.6500770009999,-34.6006207041176],[-71.649814138,-34.6006092731176],[-71.6486618669999,-34.6010621191177],[-71.6489424049999,-34.6015686211176],[-71.6500810299999,-34.6011453921176],[-71.6512150539999,-34.6028084721176],[-71.6519963399999,-34.6025423001176],[-71.6509725079999,-34.5991982221176],[-71.6507229689999,-34.5991396941176],[-71.6494545129999,-34.5979612391177],[-71.6491873969999,-34.5980476071177]]]}},{"type":"Feature","properties":{"id":"6309013058006","commune":"Pumanque","code":"06309","gse":"D","quintil":"Q2","nse_score":638.4,"educ":11.5,"educ_score":566.7,"hacin":1.056,"hacin_class":"Hacinamiento Leve","hacin_score":839.2,"auto_score":100.0,"n_per":19,"n_hog":10,"source_year":2024},"geometry":{"type":"Polygon","coordinates":[[[-71.6533731819999,-34.5998680281177],[-71.6530491269999,-34.5986478651176],[-71.652439651,-34.5987899881177],[-71.6527478609999,-34.5996916971177],[-71.6533731819999,-34.5998680281177]]]}},{"type":"Feature","properties":{"id":"6309013058007","commune":"Pumanque","code":"06309","gse":"D","quintil":"Q1","nse_score":615.2,"educ":9.4,"educ_score":426.7,"hacin":0.722,"hacin_class":"Sin Hacinamiento","hacin_score":910.2,"auto_score":142.9,"n_per":13,"n_hog":7,"source_year":2024},"geometry":{"type":"Polygon","coordinates":[[[-71.6510256739999,-34.5992244921177],[-71.6513572539999,-34.6002920001177],[-71.6528146029999,-34.6000277941176],[-71.6527157369999,-34.5997302451176],[-71.6510256739999,-34.5992244921177]]]}},{"type":"Feature","properties":{"id":"6309013058009","commune":"Pumanque","code":"06309","gse":"E","quintil":"Q1","nse_score":575.3,"educ":9.0,"educ_score":400.0,"hacin":1.0,"hacin_class":"Hacinamiento Leve","hacin_score":851.1,"auto_score":150.0,"n_per":20,"n_hog":10,"source_year":2024},"geometry":{"type":"Polygon","coordinates":[[[-71.6528685149999,-34.6000546781176],[-71.6532141089999,-34.6011238431176],[-71.6538366119999,-34.6010013801177],[-71.6534563149999,-34.5999416541177],[-71.6528685149999,-34.6000546781176]]]}},{"type":"Feature","properties":{"id":"6309013058010","commune":"Pumanque","code":"06309","gse":"D","quintil":"Q1","nse_score":608.9,"educ":10.3,"educ_score":486.7,"hacin":1.174,"hacin_class":"Hacinamiento Leve","hacin_score":814.1,"auto_score":250.0,"n_per":27,"n_hog":10,"source_year":2024},"geometry":{"type":"Polygon","coordinates":[[[-71.6521166109999,-34.6001912351177],[-71.6524667729999,-34.6012708631177],[-71.6531717089999,-34.6011321841176],[-71.6528259609999,-34.6000626361177],[-71.6521166109999,-34.6001912351177]]]}},{"type":"Feature","properties":{"id":"6309013058011","commune":"Pumanque","code":"06309","gse":"E","quintil":"Q1","nse_score":540.2,"educ":8.6,"educ_score":373.3,"hacin":0.87,"hacin_class":"Sin Hacinamiento","hacin_score":878.8,"auto_score":90.9,"n_per":20,"n_hog":11,"source_year":2024},"geometry":{"type":"Polygon","coordinates":[[[-71.6513681049999,-34.6003269341177],[-71.6517047949999,-34.6014207681177],[-71.6524243469999,-34.6012792091176],[-71.6520739849999,-34.6001989631177],[-71.6513681049999,-34.6003269341177]]]}},{"type":"Feature","properties":{"id":"6309013058013","commune":"Pumanque","code":"06309","gse":"D","quintil":"Q1","nse_score":633.6,"educ":10.1,"educ_score":473.3,"hacin":1.068,"hacin_class":"Hacinamiento Leve","hacin_score":836.6,"auto_score":233.3,"n_per":47,"n_hog":14,"source_year":2024},"geometry":{"type":"Polygon","coordinates":[[[-71.6517152899999,-34.6014557511176],[-71.6519528429999,-34.6022475961176],[-71.6534124719999,-34.6019618951176],[-71.6531819509999,-34.6011672211177],[-71.6517152899999,-34.6014557511176]]]}},{"type":"Feature","properties":{"id":"6309013058014","commune":"Pumanque","code":"06309","gse":"D","quintil":"Q1","nse_score":629.0,"educ":10.5,"educ_score":500.0,"hacin":1.189,"hacin_class":"Hacinamiento Leve","hacin_score":810.8,"auto_score":285.7,"n_per":44,"n_hog":14,"source_year":2024},"geometry":{"type":"Polygon","coordinates":[[[-71.6493698709999,-34.6014445941176],[-71.6504416179999,-34.6031291561176],[-71.6511759859999,-34.6028245261176],[-71.6501583099999,-34.6012425231176],[-71.6499678919999,-34.6011754431176],[-71.6493698709999,-34.6014445941176]]]}},{"type":"Feature","properties":{"id":"6309013058015","commune":"Pumanque","code":"06309","gse":"C2","quintil":"Q4","nse_score":741.3,"educ":13.3,"educ_score":686.7,"hacin":0.824,"hacin_class":"Sin Hacinamiento","hacin_score":888.6,"auto_score":363.6,"n_per":28,"n_hog":11,"source_year":2024},"geometry":{"type":"Polygon","coordinates":[[[-71.648960987,-34.6016021711176],[-71.6499160649999,-34.6033265281176],[-71.6504023589999,-34.6031448591176],[-71.6493311009999,-34.6014612441176],[-71.648960987,-34.6016021711176]]]}},{"type":"Feature","properties":{"id":"6309013058017","commune":"Pumanque","code":"06309","gse":"D","quintil":"Q2","nse_score":643.6,"educ":9.9,"educ_score":460.0,"hacin":0.933,"hacin_class":"Sin Hacinamiento","hacin_score":865.2,"auto_score":166.7,"n_per":28,"n_hog":11,"source_year":2024},"geometry":{"type":"Polygon","coordinates":[[[-71.6519633379999,-34.6022825791176],[-71.6521765319999,-34.6029932241176],[-71.6536174729999,-34.6027870321176],[-71.6534212489999,-34.6019972191176],[-71.6519633379999,-34.6022825791176]]]}},{"type":"Feature","properties":{"id":"6309013058018","commune":"Pumanque","code":"06309","gse":"E","quintil":"Q1","nse_score":594.9,"educ":11.0,"educ_score":533.3,"hacin":1.05,"hacin_class":"Hacinamiento Leve","hacin_score":840.4,"auto_score":117.6,"n_per":42,"n_hog":15,"source_year":2024},"geometry":{"type":"Polygon","coordinates":[[[-71.6546188909999,-34.6028877441176],[-71.6552628289999,-34.6045575261176],[-71.6561009239999,-34.6044307141176],[-71.6559513039999,-34.6025420321176],[-71.6546188909999,-34.6028877441176]]]}},{"type":"Feature","properties":{"id":"6309013058019","commune":"Pumanque","code":"06309","gse":"E","quintil":"Q1","nse_score":573.6,"educ":9.7,"educ_score":446.7,"hacin":0.95,"hacin_class":"Sin Hacinamiento","hacin_score":861.7,"auto_score":136.4,"n_per":19,"n_hog":8,"source_year":2024},"geometry":{"type":"Polygon","coordinates":[[[-71.6512360129999,-34.6028402021176],[-71.6520012669999,-34.6039987111176],[-71.6523725559999,-34.6037963561176],[-71.6520068569999,-34.6025773571176],[-71.6512360129999,-34.6028402021176]]]}},{"type":"Feature","properties":{"id":"6309013058020","commune":"Pumanque","code":"06309","gse":"E","quintil":"Q1","nse_score":566.0,"educ":10.9,"educ_score":526.7,"hacin":0.857,"hacin_class":"Sin Hacinamiento","hacin_score":881.5,"auto_score":136.4,"n_per":24,"n_hog":8,"source_year":2024},"geometry":{"type":"Polygon","coordinates":[[[-71.6544549509999,-34.6051165711176],[-71.6552271279999,-34.6050229211176],[-71.6544281719999,-34.6027024401176],[-71.6536691579999,-34.6028159341176],[-71.6538932109999,-34.6037596071176],[-71.6544549509999,-34.6051165711176]]]}},{"type":"Feature","properties":{"id":"6309013058021","commune":"Pumanque","code":"06309","gse":"E","quintil":"Q1","nse_score":597.2,"educ":13.3,"educ_score":686.7,"hacin":0.731,"hacin_class":"Sin Hacinamiento","hacin_score":908.3,"auto_score":250.0,"n_per":19,"n_hog":8,"source_year":2024},"geometry":{"type":"Polygon","coordinates":[[[-71.6521870709999,-34.6030283551176],[-71.65241685,-34.6037942861176],[-71.653848078,-34.6037456961176],[-71.6536262489999,-34.6028223501176],[-71.6521870709999,-34.6030283551176]]]}},{"type":"Feature","properties":{"id":"6309013058022","commune":"Pumanque","code":"06309","gse":"D","quintil":"Q1","nse_score":626.0,"educ":11.6,"educ_score":573.3,"hacin":1.182,"hacin_class":"Hacinamiento Leve","hacin_score":812.4,"auto_score":176.5,"n_per":39,"n_hog":15,"source_year":2024},"geometry":{"type":"Polygon","coordinates":[[[-71.648962777,-34.6039332241176],[-71.6502056599999,-34.6050604601176],[-71.6512947349999,-34.6044809051176],[-71.6504246619999,-34.6036559121176],[-71.651327997,-34.6044576011176],[-71.6519672219999,-34.6040223691176],[-71.6511968829999,-34.6028561611176],[-71.6498194309999,-34.6034123071176],[-71.648962777,-34.6039332241176]]]}},{"type":"Feature","properties":{"id":"6309013058024","commune":"Pumanque","code":"06309","gse":"D","quintil":"Q1","nse_score":608.1,"educ":9.8,"educ_score":453.3,"hacin":1.0,"hacin_class":"Hacinamiento Leve","hacin_score":851.1,"auto_score":71.4,"n_per":16,"n_hog":6,"source_year":2024},"geometry":{"type":"Polygon","coordinates":[[[-71.6500086379999,-34.6060189701176],[-71.6502330739999,-34.6061051091176],[-71.6501175069999,-34.6058419811176],[-71.6503425229999,-34.6054449561176],[-71.6507902569999,-34.6053180331176],[-71.6514655549999,-34.6056188601176],[-71.6527509059999,-34.6049193161176],[-71.653590086,-34.6051399411176],[-71.6540026239999,-34.6054059061176],[-71.654630386,-34.6060916181176],[-71.6544493819999,-34.6056964251176],[-71.6543314729999,-34.6048663641176],[-71.6538555609999,-34.6037815121176],[-71.6523257619999,-34.6038350831176],[-71.6509735769999,-34.6047600591176],[-71.6505492869999,-34.6048625281176],[-71.6499414919999,-34.6052607681176],[-71.6500086379999,-34.6060189701176]]]}},{"type":"Feature","properties":{"id":"6309013058028","commune":"Pumanque","code":"06309","gse":"E","quintil":"Q1","nse_score":574.1,"educ":7.6,"educ_score":306.7,"hacin":0.538,"hacin_class":"Sin Hacinamiento","hacin_score":949.3,"auto_score":166.7,"n_per":7,"n_hog":6,"source_year":2024},"geometry":{"type":"Polygon","coordinates":[[[-71.6546869699999,-34.6061526301176],[-71.6548647649999,-34.6063471881175],[-71.6554609139999,-34.6063526921176],[-71.6555737119999,-34.6058188361175],[-71.6554129699999,-34.6052802231176],[-71.6549728769999,-34.6051339561175],[-71.6544111579999,-34.6052449201176],[-71.6546869699999,-34.6061526301176]]]}},{"type":"Feature","properties":{"id":"6309013058025","commune":"Pumanque","code":"06309","gse":"E","quintil":"Q1","nse_score":584.9,"educ":9.7,"educ_score":446.7,"hacin":1.143,"hacin_class":"Hacinamiento Leve","hacin_score":820.7,"auto_score":200.0,"n_per":16,"n_hog":5,"source_year":2024},"geometry":{"type":"MultiPolygon","coordinates":[[[[-71.6559998659999,-34.6052153851176],[-71.6554955549999,-34.6052169441176],[-71.6556282159999,-34.6058182001176],[-71.6555166659999,-34.6063532071175],[-71.6570313569999,-34.6064397181176],[-71.6578815859999,-34.6062634321176],[-71.6578521259999,-34.6048884831176],[-71.6559998659999,-34.6052153851176]]],[[[-71.6552876799999,-34.6046297841176],[-71.6554820419999,-34.6051712211176],[-71.6563236999999,-34.6051143651176],[-71.6561087529999,-34.6044661721176],[-71.6552876799999,-34.6046297841176]]]]}},{"type":"Feature","properties":{"id":"6309013058012","commune":"Pumanque","code":"06309","gse":"C3","quintil":"Q3","nse_score":686.7,"educ":12.7,"educ_score":646.7,"hacin":1.167,"hacin_class":"Hacinamiento Leve","hacin_score":815.6,"auto_score":83.3,"n_per":14,"n_hog":5,"source_year":2024},"geometry":{"type":"MultiPolygon","coordinates":[[[[-71.6534639099999,-34.6019898101176],[-71.6536603839999,-34.6027806161176],[-71.6544163289999,-34.6026675801176],[-71.6541420679999,-34.6018869491176],[-71.6534639099999,-34.6019898101176]]],[[[-71.6534438999999,-34.6019092691176],[-71.6541296029999,-34.6018521941176],[-71.653847933,-34.6010362051176],[-71.6532243529999,-34.6011588801177],[-71.6534438999999,-34.6019092691176]]]]}},{"type":"Feature","properties":{"id":"6309033040001","commune":"Pumanque","code":"06309","gse":"D","quintil":"Q1","nse_score":611.7,"educ":9.2,"educ_score":413.3,"hacin":1.139,"hacin_class":"Hacinamiento Leve","hacin_score":821.4,"auto_score":305.6,"n_per":49,"n_hog":19,"source_year":2024},"geometry":{"type":"Polygon","coordinates":[[[-71.7425050089999,-34.653647153117],[-71.7424803869999,-34.653291104117],[-71.7409469589999,-34.653265934117],[-71.7407849339999,-34.653796025117],[-71.7417939389999,-34.653903126117],[-71.7418707239999,-34.654001191117],[-71.7415065329999,-34.655129008117],[-71.7404028819999,-34.655058581117],[-71.7400485709999,-34.656288400117],[-71.7400213469999,-34.656845120117],[-71.7411629099999,-34.656834872117],[-71.7415724689999,-34.656913092117],[-71.7400232119999,-34.656875726117],[-71.7401163329999,-34.657677546117],[-71.7420288259999,-34.657655527117],[-71.7401187039999,-34.657708120117],[-71.7401567809999,-34.658185124117],[-71.7406813949999,-34.658190577117],[-71.7401592519999,-34.658215894117],[-71.7401847939999,-34.658533875117],[-71.7403788149999,-34.658622133117],[-71.7406995289999,-34.658723091117],[-71.7419926859999,-34.658549766117],[-71.7425547399999,-34.658086402117],[-71.7432226719999,-34.657773894117],[-71.7435437739999,-34.657442150117],[-71.7435906229999,-34.656707596117],[-71.7419180299999,-34.656579000117],[-71.7421307949999,-34.656120582117],[-71.7417128399999,-34.656010161117],[-71.7425050089999,-34.653647153117]]]}},{"type":"Feature","properties":{"id":"6309033040003","commune":"Pumanque","code":"06309","gse":"D","quintil":"Q1","nse_score":626.9,"educ":11.3,"educ_score":553.3,"hacin":1.107,"hacin_class":"Hacinamiento Leve","hacin_score":828.3,"auto_score":250.0,"n_per":31,"n_hog":12,"source_year":2024},"geometry":{"type":"Polygon","coordinates":[[[-71.7417695659999,-34.654004555117],[-71.7408760609999,-34.653913993117],[-71.7405844529999,-34.655014939117],[-71.7414512959999,-34.655085719117],[-71.7417695659999,-34.654004555117]]]}},{"type":"Feature","properties":{"id":"6309033040004","commune":"Pumanque","code":"06309","gse":"D","quintil":"Q1","nse_score":608.5,"educ":10.2,"educ_score":480.0,"hacin":1.196,"hacin_class":"Hacinamiento Leve","hacin_score":809.4,"auto_score":263.2,"n_per":55,"n_hog":18,"source_year":2024},"geometry":{"type":"Polygon","coordinates":[[[-71.7387407239999,-34.657091174117],[-71.7397842939999,-34.656960477117],[-71.7401883799999,-34.655634757117],[-71.7377412459999,-34.655934976117],[-71.7373935429999,-34.657297489117],[-71.7359321279999,-34.657444796117],[-71.7363004439999,-34.6595162761169],[-71.7373060969999,-34.659453978117],[-71.7371284669999,-34.6592242381169],[-71.7372751959999,-34.659080915117],[-71.7371664329999,-34.659223407117],[-71.7373286389999,-34.659428853117],[-71.737881065,-34.659467993117],[-71.7377463119999,-34.658592122117],[-71.7379236609999,-34.659482507117],[-71.7393767919999,-34.6599476781169],[-71.7393958729999,-34.659054927117],[-71.7391281839999,-34.6590006671169],[-71.7394018219999,-34.6589984151169],[-71.7394173519999,-34.659958432117],[-71.7398990429999,-34.6601067851169],[-71.7399254129999,-34.658918126117],[-71.7401510799999,-34.658664111117],[-71.7399670789999,-34.656636415117],[-71.7395400109999,-34.657870405117],[-71.7397759419999,-34.656995912117],[-71.7385561039999,-34.657143504117],[-71.7377723979999,-34.656957671117],[-71.7377385279999,-34.656781131117],[-71.7380204269999,-34.656092292117],[-71.7384051479999,-34.656074106117],[-71.7389318029999,-34.656275967117],[-71.7387407239999,-34.657091174117]]]}},{"type":"Feature","properties":{"id":"6309033040005","commune":"Pumanque","code":"06309","gse":"D","quintil":"Q1","nse_score":605.7,"educ":10.0,"educ_score":466.7,"hacin":1.121,"hacin_class":"Hacinamiento Leve","hacin_score":825.3,"auto_score":285.7,"n_per":37,"n_hog":14,"source_year":2024},"geometry":{"type":"Polygon","coordinates":[[[-71.7384757359999,-34.656121492117],[-71.7381419979999,-34.656083916117],[-71.7379661859999,-34.656188038117],[-71.7378207029999,-34.656634924117],[-71.7379606729999,-34.656678287117],[-71.7378102309999,-34.656658771117],[-71.7377987119999,-34.656940225117],[-71.7382596409999,-34.657034045117],[-71.7384757359999,-34.656121492117]]]}},{"type":"Feature","properties":{"id":"6309033040006","commune":"Pumanque","code":"06309","gse":"D","quintil":"Q1","nse_score":612.4,"educ":10.0,"educ_score":466.7,"hacin":1.333,"hacin_class":"Hacinamiento Leve","hacin_score":780.1,"auto_score":166.7,"n_per":36,"n_hog":11,"source_year":2024},"geometry":{"type":"Polygon","coordinates":[[[-71.738877553,-34.656262089117],[-71.7385296509999,-34.656137739117],[-71.7382936239999,-34.657043156117],[-71.7387040269999,-34.657094750117],[-71.738877553,-34.656262089117]]]}},{"type":"Feature","properties":{"id":"6309033040007","commune":"Pumanque","code":"06309","gse":"D","quintil":"Q1","nse_score":623.6,"educ":10.6,"educ_score":506.7,"hacin":1.226,"hacin_class":"Hacinamiento Leve","hacin_score":803.0,"auto_score":300.0,"n_per":38,"n_hog":10,"source_year":2024},"geometry":{"type":"Polygon","coordinates":[[[-71.7409732919999,-34.658707918117],[-71.7401847939999,-34.658533875117],[-71.7402467019999,-34.659344162117],[-71.7420084269999,-34.659874117117],[-71.7420720569999,-34.6595453981169],[-71.7422285899999,-34.6593158821169],[-71.7420440509999,-34.659885412117],[-71.7431040449999,-34.6602008151169],[-71.743361004,-34.657649165117],[-71.7419926859999,-34.658549766117],[-71.7409732919999,-34.658707918117]]]}},{"type":"Feature","properties":{"id":"6309033040009","commune":"Pumanque","code":"06309","gse":"D","quintil":"Q1","nse_score":625.3,"educ":10.5,"educ_score":500.0,"hacin":1.049,"hacin_class":"Hacinamiento Leve","hacin_score":840.6,"auto_score":192.3,"n_per":64,"n_hog":24,"source_year":2024},"geometry":{"type":"Polygon","coordinates":[[[-71.7403197479999,-34.6602350931169],[-71.7437104349999,-34.6612809121169],[-71.7440537969999,-34.6605390731169],[-71.7402496789999,-34.659383235117],[-71.7403197479999,-34.6602350931169]]]}},{"type":"Feature","properties":{"id":"6309033040010","commune":"Pumanque","code":"06309","gse":"E","quintil":"Q1","nse_score":589.4,"educ":9.9,"educ_score":460.0,"hacin":1.033,"hacin_class":"Hacinamiento Leve","hacin_score":844.1,"auto_score":195.7,"n_per":63,"n_hog":23,"source_year":2024},"geometry":{"type":"Polygon","coordinates":[[[-71.7372246509999,-34.6602384521169],[-71.7459858889999,-34.6629731531169],[-71.746339884,-34.6621395601169],[-71.7375263959999,-34.659406419117],[-71.7373199449999,-34.659537401117],[-71.7372246509999,-34.6602384521169]]]}},{"type":"Feature","properties":{"id":"6309033040012","commune":"Pumanque","code":"06309","gse":"E","quintil":"Q1","nse_score":566.8,"educ":9.1,"educ_score":406.7,"hacin":1.41,"hacin_class":"Hacinamiento Leve","hacin_score":763.9,"auto_score":104.2,"n_per":86,"n_hog":23,"source_year":2024},"geometry":{"type":"Polygon","coordinates":[[[-71.7467540369999,-34.6622319791169],[-71.7472003239999,-34.6623755571169],[-71.7474888279999,-34.6616413601169],[-71.7474765409999,-34.6609579621169],[-71.7432538569999,-34.6595941651169],[-71.7431394889999,-34.6602113461169],[-71.7469779869999,-34.6614118041169],[-71.7467540369999,-34.6622319791169]]]}},{"type":"Feature","properties":{"id":"6309033040013","commune":"Pumanque","code":"06309","gse":"E","quintil":"Q1","nse_score":583.3,"educ":8.8,"educ_score":386.7,"hacin":1.157,"hacin_class":"Hacinamiento Leve","hacin_score":817.7,"auto_score":166.7,"n_per":59,"n_hog":18,"source_year":2024},"geometry":{"type":"Polygon","coordinates":[[[-71.7437513869999,-34.6612933381169],[-71.7466708539999,-34.6622056641169],[-71.7469448019999,-34.6614664221169],[-71.7440943919999,-34.6605522701169],[-71.7437513869999,-34.6612933381169]]]}}]}