{"type":"FeatureCollection","features":[{"type":"Feature","properties":{"id":"4304011001001","commune":"Punitaqui","code":"04304","gse":"D","quintil":"Q2","nse_score":649.5,"educ":11.3,"educ_score":553.3,"hacin":1.131,"hacin_class":"Hacinamiento Leve","hacin_score":823.2,"auto_score":93.8,"n_per":121,"n_hog":46,"source_year":2024},"geometry":{"type":"Polygon","coordinates":[[[-71.2655399049999,-30.8239593641692],[-71.2652119019999,-30.8267139731691],[-71.2665037619999,-30.8236120431692],[-71.2669867849999,-30.8227505431692],[-71.2670165619999,-30.8222689661692],[-71.266558545,-30.8195741121692],[-71.2666437609999,-30.8191525451693],[-71.26638614,-30.8191035311693],[-71.2660990709999,-30.8193348101692],[-71.2654722069999,-30.8194945461692],[-71.2646949059999,-30.8191956541693],[-71.2631162079999,-30.8182394031693],[-71.2622000679999,-30.8179447921693],[-71.259852023,-30.8183597271692],[-71.2604206309999,-30.8183574501693],[-71.2598505249999,-30.8184665311693],[-71.2600970109999,-30.8203280631692],[-71.2603635919999,-30.8202877831693],[-71.2618913039999,-30.8206290401692],[-71.2621673279999,-30.8197717881693],[-71.2621522019999,-30.8191714651693],[-71.2622459749999,-30.8194403191693],[-71.2621830889999,-30.8198253801692],[-71.2619374429999,-30.8206343431692],[-71.2624103779999,-30.8207268911692],[-71.2601012809999,-30.8203597121692],[-71.2602413799999,-30.8220171381692],[-71.2615832449999,-30.8224893711692],[-71.2626460679999,-30.8214185901692],[-71.2625967069999,-30.8213429791692],[-71.2628864119999,-30.8212416181692],[-71.2627459089999,-30.8211279471692],[-71.2627274479999,-30.8210404671692],[-71.2629073029999,-30.8212228431692],[-71.2634065359999,-30.8206802221693],[-71.2636380539999,-30.8206166961692],[-71.2641672609999,-30.8197085311693],[-71.2639346109999,-30.8201781641692],[-71.2641138479999,-30.8202642491692],[-71.2639847139999,-30.8202155251692],[-71.2636372449999,-30.8206521151692],[-71.2633497469999,-30.8207775141692],[-71.2616384679999,-30.8225351401692],[-71.2655399049999,-30.8239593641692]]]}},{"type":"Feature","properties":{"id":"4304011001002","commune":"Punitaqui","code":"04304","gse":"E","quintil":"Q1","nse_score":564.8,"educ":11.7,"educ_score":580.0,"hacin":1.8,"hacin_class":"Hacinamiento Medio","hacin_score":680.9,"auto_score":0.0,"n_per":18,"n_hog":5,"source_year":2024},"geometry":{"type":"Polygon","coordinates":[[[-71.2747510389999,-30.8193151921692],[-71.2736254769999,-30.8193911151692],[-71.2733988659999,-30.8196920631692],[-71.2722941179999,-30.8202042621693],[-71.2717239579999,-30.8209182291692],[-71.2710092579999,-30.8209905541692],[-71.2702179819999,-30.8208339161692],[-71.2705777879999,-30.8212072781692],[-71.2703910549999,-30.8216416171692],[-71.2706572299999,-30.8219175041692],[-71.2745637029999,-30.8198355201692],[-71.2747973859999,-30.8194294591693],[-71.2747510389999,-30.8193151921692]]]}},{"type":"Feature","properties":{"id":"4304011001003","commune":"Punitaqui","code":"04304","gse":"D","quintil":"Q1","nse_score":629.5,"educ":10.6,"educ_score":506.7,"hacin":1.322,"hacin_class":"Hacinamiento Leve","hacin_score":782.5,"auto_score":92.1,"n_per":119,"n_hog":36,"source_year":2024},"geometry":{"type":"Polygon","coordinates":[[[-71.2724101459999,-30.8285729521691],[-71.2732293359999,-30.8233331881692],[-71.2765374289999,-30.8217620711692],[-71.2756989759999,-30.8209775241692],[-71.2754969139999,-30.8204761281692],[-71.2750636879999,-30.8200172281692],[-71.2748352579999,-30.8195487401693],[-71.2746751539999,-30.8198317351692],[-71.2749450179999,-30.8204472151692],[-71.274632461,-30.8198746341692],[-71.2736806349999,-30.8203039141693],[-71.2747070719999,-30.8217797131692],[-71.2736432319999,-30.8203212891692],[-71.2731270399999,-30.8206539571692],[-71.2732387189999,-30.8207080091692],[-71.2731855959999,-30.8209841481692],[-71.2727347779999,-30.8217302441692],[-71.2725258069999,-30.8224023421692],[-71.2723134739999,-30.8224443051692],[-71.2721719069999,-30.8228811001692],[-71.2730744239999,-30.8231429221692],[-71.2721560849999,-30.8229309451692],[-71.2719954699999,-30.8234418371692],[-71.2723525949999,-30.8235214791692],[-71.2724025639999,-30.8236535391692],[-71.2721955509999,-30.8244566071692],[-71.2723490259999,-30.8235928621692],[-71.2719871549999,-30.8234778881692],[-71.2715388199999,-30.8257843461691],[-71.2713183389999,-30.8257774561692],[-71.2711329809999,-30.8266146481691],[-71.2713979569999,-30.8267261811691],[-71.2694997369999,-30.8264997191692],[-71.2694412039999,-30.8268104431691],[-71.2698550249999,-30.8268924091691],[-71.2708532999999,-30.8275294031691],[-71.271516189,-30.8281447311691],[-71.2724101459999,-30.8285729521691]]]}},{"type":"Feature","properties":{"id":"4304011001004","commune":"Punitaqui","code":"04304","gse":"D","quintil":"Q1","nse_score":599.3,"educ":9.5,"educ_score":433.3,"hacin":1.46,"hacin_class":"Hacinamiento Leve","hacin_score":753.3,"auto_score":26.3,"n_per":54,"n_hog":19,"source_year":2024},"geometry":{"type":"Polygon","coordinates":[[[-71.2720020389999,-30.8218120751692],[-71.2727789809999,-30.8214659011692],[-71.2731509909999,-30.8209665511692],[-71.2731797149999,-30.8207079161692],[-71.2717839549999,-30.8214030641692],[-71.2720020389999,-30.8218120751692]]]}},{"type":"Feature","properties":{"id":"4304011001005","commune":"Punitaqui","code":"04304","gse":"E","quintil":"Q1","nse_score":541.6,"educ":8.9,"educ_score":393.3,"hacin":1.105,"hacin_class":"Hacinamiento Leve","hacin_score":828.7,"auto_score":35.7,"n_per":21,"n_hog":11,"source_year":2024},"geometry":{"type":"Polygon","coordinates":[[[-71.2672574899999,-30.8228432091692],[-71.2661138809999,-30.8257617241692],[-71.2663773709999,-30.8260120461692],[-71.2668354009999,-30.8245635141691],[-71.2670230159999,-30.8242640681692],[-71.2664524829999,-30.8259447921691],[-71.2667347689999,-30.8258807461691],[-71.2671778339999,-30.8253938681692],[-71.2673536169999,-30.8253821191691],[-71.2667503869999,-30.8259261571691],[-71.2664165229999,-30.8260625531691],[-71.2669658589999,-30.8269067181691],[-71.2676958449999,-30.8272410921691],[-71.2679648119999,-30.8270416541691],[-71.2691137549999,-30.8272608581691],[-71.2694324829999,-30.8265008981691],[-71.2699973699999,-30.8235279311692],[-71.2700483119999,-30.8226943321692],[-71.2704256609999,-30.8214197361692],[-71.2686678789999,-30.8213427601692],[-71.2672459489999,-30.8208763271692],[-71.2672574899999,-30.8228432091692]]]}},{"type":"Feature","properties":{"id":"4304011001006","commune":"Punitaqui","code":"04304","gse":"E","quintil":"Q1","nse_score":574.6,"educ":9.6,"educ_score":440.0,"hacin":1.286,"hacin_class":"Hacinamiento Leve","hacin_score":790.3,"auto_score":38.5,"n_per":27,"n_hog":9,"source_year":2024},"geometry":{"type":"Polygon","coordinates":[[[-71.271314205,-30.8221505431692],[-71.2719358339999,-30.8218599461692],[-71.2717048169999,-30.8214568511692],[-71.2706784779999,-30.8219818381692],[-71.271314205,-30.8221505431692]]]}},{"type":"Feature","properties":{"id":"4304011001007","commune":"Punitaqui","code":"04304","gse":"D","quintil":"Q1","nse_score":604.7,"educ":10.9,"educ_score":526.7,"hacin":1.438,"hacin_class":"Hacinamiento Leve","hacin_score":758.0,"auto_score":166.7,"n_per":23,"n_hog":5,"source_year":2024},"geometry":{"type":"Polygon","coordinates":[[[-71.2719442969999,-30.8222888961692],[-71.272483614,-30.8223700681692],[-71.2727552279999,-30.8215361371692],[-71.2720741159999,-30.8218787621692],[-71.2719442969999,-30.8222888961692]]]}},{"type":"Feature","properties":{"id":"4304011001011","commune":"Punitaqui","code":"04304","gse":"D","quintil":"Q2","nse_score":646.9,"educ":11.0,"educ_score":533.3,"hacin":1.243,"hacin_class":"Hacinamiento Leve","hacin_score":799.3,"auto_score":218.8,"n_per":46,"n_hog":16,"source_year":2024},"geometry":{"type":"Polygon","coordinates":[[[-71.2618787439999,-30.8241830851692],[-71.2623436639999,-30.8228763341692],[-71.26022839,-30.8221018041692],[-71.260140712,-30.8235421651692],[-71.2618787439999,-30.8241830851692]]]}},{"type":"Feature","properties":{"id":"4304011001013","commune":"Punitaqui","code":"04304","gse":"D","quintil":"Q1","nse_score":623.6,"educ":9.7,"educ_score":446.7,"hacin":1.448,"hacin_class":"Hacinamiento Leve","hacin_score":755.7,"auto_score":0.0,"n_per":42,"n_hog":12,"source_year":2024},"geometry":{"type":"Polygon","coordinates":[[[-71.2720770699999,-30.8228749851692],[-71.2722517979999,-30.8224208701692],[-71.2714744029999,-30.8222638601692],[-71.2713549559999,-30.8226964701692],[-71.2720770699999,-30.8228749851692]]]}},{"type":"Feature","properties":{"id":"4304011001014","commune":"Punitaqui","code":"04304","gse":"E","quintil":"Q1","nse_score":585.3,"educ":7.6,"educ_score":306.7,"hacin":1.278,"hacin_class":"Hacinamiento Leve","hacin_score":792.0,"auto_score":0.0,"n_per":23,"n_hog":9,"source_year":2024},"geometry":{"type":"Polygon","coordinates":[[[-71.2718856309999,-30.8233860391692],[-71.2720843449999,-30.8229400011692],[-71.2713100089999,-30.8227737301692],[-71.2711898759999,-30.8232120171692],[-71.2718856309999,-30.8233860391692]]]}},{"type":"Feature","properties":{"id":"4304011001015","commune":"Punitaqui","code":"04304","gse":"C3","quintil":"Q3","nse_score":702.5,"educ":10.8,"educ_score":520.0,"hacin":1.082,"hacin_class":"Hacinamiento Leve","hacin_score":833.6,"auto_score":92.6,"n_per":79,"n_hog":27,"source_year":2024},"geometry":{"type":"Polygon","coordinates":[[[-71.2620614459999,-30.8241280261692],[-71.2637581519999,-30.8246152801692],[-71.2636043949999,-30.8246363781692],[-71.263826031,-30.8248505941692],[-71.2635103,-30.8246125321692],[-71.2620638729999,-30.8242460871692],[-71.2620275309999,-30.8241512771692],[-71.2617114079999,-30.8250858081692],[-71.2620631839999,-30.8251816281692],[-71.262238856,-30.8246956451692],[-71.2621262459999,-30.8252116821692],[-71.2625291389999,-30.8253179371692],[-71.2626727199999,-30.8249330621692],[-71.2625904599999,-30.8253437731691],[-71.2629930219999,-30.8254358701691],[-71.2631306389999,-30.8250765901692],[-71.2631272529999,-30.8252819951692],[-71.2652329379999,-30.8258840771692],[-71.2654552559999,-30.8239572351692],[-71.2624449669999,-30.8229189971692],[-71.2620614459999,-30.8241280261692]]]}},{"type":"Feature","properties":{"id":"4304011001018","commune":"Punitaqui","code":"04304","gse":"D","quintil":"Q1","nse_score":626.1,"educ":11.0,"educ_score":533.3,"hacin":1.323,"hacin_class":"Hacinamiento Leve","hacin_score":782.2,"auto_score":171.9,"n_per":90,"n_hog":29,"source_year":2024},"geometry":{"type":"Polygon","coordinates":[[[-71.2619087539999,-30.8242731961692],[-71.2610315989999,-30.8239401911692],[-71.2609278909999,-30.8241005841692],[-71.2604224069999,-30.8239223511692],[-71.2609011749999,-30.8240456651692],[-71.2609580829999,-30.8239144821692],[-71.2601220419999,-30.8236557851692],[-71.2600503329999,-30.8263378501692],[-71.2602497789999,-30.8271458361691],[-71.2606255159999,-30.8276896611691],[-71.2619087539999,-30.8242731961692]]]}},{"type":"Feature","properties":{"id":"4304011001019","commune":"Punitaqui","code":"04304","gse":"D","quintil":"Q1","nse_score":600.3,"educ":10.5,"educ_score":500.0,"hacin":1.435,"hacin_class":"Hacinamiento Leve","hacin_score":758.6,"auto_score":45.5,"n_per":33,"n_hog":8,"source_year":2024},"geometry":{"type":"Polygon","coordinates":[[[-71.2705916049999,-30.8256889411692],[-71.2707778969999,-30.8250285721692],[-71.2702720269999,-30.8249397271692],[-71.2701136489999,-30.8256010211692],[-71.2705916049999,-30.8256889411692]]]}},{"type":"Feature","properties":{"id":"4304011001020","commune":"Punitaqui","code":"04304","gse":"D","quintil":"Q1","nse_score":626.5,"educ":9.9,"educ_score":460.0,"hacin":1.293,"hacin_class":"Hacinamiento Leve","hacin_score":788.8,"auto_score":205.9,"n_per":53,"n_hog":17,"source_year":2024},"geometry":{"type":"Polygon","coordinates":[[[-71.2710008689999,-30.8266141331692],[-71.2712806909999,-30.8256051631691],[-71.2711206629999,-30.8250811561692],[-71.2708666909999,-30.8250275471692],[-71.2705249019999,-30.8265063541692],[-71.2710008689999,-30.8266141331692]]]}},{"type":"Feature","properties":{"id":"4304011001021","commune":"Punitaqui","code":"04304","gse":"C3","quintil":"Q3","nse_score":707.7,"educ":11.1,"educ_score":540.0,"hacin":1.174,"hacin_class":"Hacinamiento Leve","hacin_score":814.1,"auto_score":100.0,"n_per":135,"n_hog":42,"source_year":2024},"geometry":{"type":"Polygon","coordinates":[[[-71.2636426449999,-30.8289711971691],[-71.265077001,-30.8268126331691],[-71.2652329379999,-30.8258840771692],[-71.2634792219999,-30.8254005331691],[-71.263419499,-30.8256380101691],[-71.2628514109999,-30.8254850791691],[-71.2625306019999,-30.8264296061691],[-71.2626379719999,-30.8258301061692],[-71.2620305149999,-30.8256428081692],[-71.2618929309999,-30.8257750671692],[-71.2620587879999,-30.8252784471692],[-71.2616869289999,-30.8251659841692],[-71.2614480499999,-30.8258258431692],[-71.262272891,-30.8259017031692],[-71.2623359099999,-30.8259963661691],[-71.2623049249999,-30.8265336791692],[-71.2622427019999,-30.8259272481691],[-71.2614338289999,-30.8258798181691],[-71.2607168879999,-30.8278123101691],[-71.2636426449999,-30.8289711971691]]]}},{"type":"Feature","properties":{"id":"4304011001022","commune":"Punitaqui","code":"04304","gse":"D","quintil":"Q2","nse_score":644.5,"educ":9.3,"educ_score":420.0,"hacin":0.864,"hacin_class":"Sin Hacinamiento","hacin_score":880.1,"auto_score":125.0,"n_per":19,"n_hog":8,"source_year":2024},"geometry":{"type":"Polygon","coordinates":[[[-71.2620748589999,-30.8256137991692],[-71.2626280839999,-30.8257627451692],[-71.2627455679999,-30.8254894951692],[-71.2621494699999,-30.8252966891691],[-71.2620748589999,-30.8256137991692]]]}},{"type":"Feature","properties":{"id":"4304011001025","commune":"Punitaqui","code":"04304","gse":"D","quintil":"Q2","nse_score":655.3,"educ":10.5,"educ_score":500.0,"hacin":1.0,"hacin_class":"Hacinamiento Leve","hacin_score":851.1,"auto_score":214.3,"n_per":15,"n_hog":6,"source_year":2024},"geometry":{"type":"Polygon","coordinates":[[[-71.2698264859999,-30.8264293801691],[-71.2700194729999,-30.8256784371692],[-71.2697486549999,-30.8256090991692],[-71.2695617119999,-30.8263968531692],[-71.2698264859999,-30.8264293801691]]]}},{"type":"Feature","properties":{"id":"4304011001026","commune":"Punitaqui","code":"04304","gse":"D","quintil":"Q1","nse_score":619.0,"educ":9.3,"educ_score":420.0,"hacin":0.64,"hacin_class":"Sin Hacinamiento","hacin_score":927.7,"auto_score":136.4,"n_per":16,"n_hog":9,"source_year":2024},"geometry":{"type":"Polygon","coordinates":[[[-71.2704109159999,-30.8265177341691],[-71.2706130209999,-30.8257622061691],[-71.2701071469999,-30.8256733601691],[-71.2699246459999,-30.8264253581691],[-71.2704109159999,-30.8265177341691]]]}},{"type":"Feature","properties":{"id":"4304011001029","commune":"Punitaqui","code":"04304","gse":"C3","quintil":"Q3","nse_score":708.3,"educ":12.1,"educ_score":606.7,"hacin":1.105,"hacin_class":"Hacinamiento Leve","hacin_score":828.8,"auto_score":179.2,"n_per":137,"n_hog":51,"source_year":2024},"geometry":{"type":"Polygon","coordinates":[[[-71.2590318919999,-30.8278161451691],[-71.2594168759999,-30.8272661151691],[-71.2588787029999,-30.8270724671691],[-71.2577598169999,-30.8308748241691],[-71.2581510649999,-30.830967818169],[-71.2577549599999,-30.8308919231691],[-71.2572975539999,-30.832633086169],[-71.2576366079999,-30.832693901169],[-71.2577169069999,-30.8323959951691],[-71.2576919889999,-30.832703178169],[-71.2583522709999,-30.832767823169],[-71.2598157559999,-30.8300971361691],[-71.2606438339999,-30.8277982321692],[-71.2594726949999,-30.8272923641691],[-71.2590318919999,-30.8278161451691]]]}},{"type":"Feature","properties":{"id":"4304011001031","commune":"Punitaqui","code":"04304","gse":"C3","quintil":"Q2","nse_score":666.8,"educ":11.9,"educ_score":593.3,"hacin":0.733,"hacin_class":"Sin Hacinamiento","hacin_score":907.8,"auto_score":71.4,"n_per":11,"n_hog":6,"source_year":2024},"geometry":{"type":"Polygon","coordinates":[[[-71.267726519,-30.8273020741691],[-71.2660837629999,-30.8301125331691],[-71.266456666,-30.8303382581691],[-71.2671733489999,-30.831204320169],[-71.2691924389999,-30.8277302291691],[-71.2685605999999,-30.8273348661691],[-71.267726519,-30.8273020741691]]]}},{"type":"Feature","properties":{"id":"4304011001032","commune":"Punitaqui","code":"04304","gse":"D","quintil":"Q1","nse_score":592.2,"educ":9.7,"educ_score":446.7,"hacin":0.8,"hacin_class":"Sin Hacinamiento","hacin_score":893.6,"auto_score":0.0,"n_per":20,"n_hog":10,"source_year":2024},"geometry":{"type":"Polygon","coordinates":[[[-71.2603084819999,-30.8290801571691],[-71.262912636,-30.8295875921691],[-71.2630244359999,-30.8291983651691],[-71.2629299279999,-30.8287206821691],[-71.2606931939999,-30.8279414251691],[-71.2603084819999,-30.8290801571691]]]}},{"type":"Feature","properties":{"id":"4304011001036","commune":"Punitaqui","code":"04304","gse":"D","quintil":"Q2","nse_score":660.7,"educ":12.8,"educ_score":653.3,"hacin":1.429,"hacin_class":"Hacinamiento Leve","hacin_score":759.9,"auto_score":142.9,"n_per":20,"n_hog":9,"source_year":2024},"geometry":{"type":"Polygon","coordinates":[[[-71.2664567539999,-30.8293863261691],[-71.2655798259999,-30.8290462151691],[-71.2654763989999,-30.8292318731691],[-71.2663537039999,-30.8295646551691],[-71.2664567539999,-30.8293863261691]]]}},{"type":"Feature","properties":{"id":"4304011001041","commune":"Punitaqui","code":"04304","gse":"E","quintil":"Q1","nse_score":576.0,"educ":8.3,"educ_score":353.3,"hacin":1.062,"hacin_class":"Hacinamiento Leve","hacin_score":837.8,"auto_score":83.3,"n_per":17,"n_hog":5,"source_year":2024},"geometry":{"type":"Polygon","coordinates":[[[-71.2642039389999,-30.8295009821691],[-71.2637823309999,-30.8304202961691],[-71.2647210789999,-30.8307657311691],[-71.2651843619999,-30.8297844131691],[-71.2645340809999,-30.8294767561691],[-71.2644109699999,-30.8295890371691],[-71.2642039389999,-30.8295009821691]]]}},{"type":"Feature","properties":{"id":"4304011001042","commune":"Punitaqui","code":"04304","gse":"D","quintil":"Q1","nse_score":628.3,"educ":10.9,"educ_score":526.7,"hacin":1.435,"hacin_class":"Hacinamiento Leve","hacin_score":758.6,"auto_score":150.0,"n_per":33,"n_hog":9,"source_year":2024},"geometry":{"type":"Polygon","coordinates":[[[-71.2654562179999,-30.8310143741691],[-71.265979065,-30.8301484431691],[-71.2652370449999,-30.8298056131691],[-71.2647799389999,-30.8307982011691],[-71.2654562179999,-30.8310143741691]]]}},{"type":"Feature","properties":{"id":"4304011001043","commune":"Punitaqui","code":"04304","gse":"E","quintil":"Q1","nse_score":516.6,"educ":7.7,"educ_score":313.3,"hacin":0.75,"hacin_class":"Sin Hacinamiento","hacin_score":904.3,"auto_score":0.0,"n_per":9,"n_hog":4,"source_year":2024},"geometry":{"type":"Polygon","coordinates":[[[-71.265595904,-30.8310146681691],[-71.2676163889999,-30.8315857961691],[-71.2669960469999,-30.8311425921691],[-71.2663926649999,-30.8303521181691],[-71.2660312329999,-30.8301955851691],[-71.265595904,-30.8310146681691]]]}},{"type":"Feature","properties":{"id":"4304011001044","commune":"Punitaqui","code":"04304","gse":"C3","quintil":"Q3","nse_score":692.4,"educ":11.7,"educ_score":580.0,"hacin":0.92,"hacin_class":"Sin Hacinamiento","hacin_score":868.1,"auto_score":230.8,"n_per":23,"n_hog":11,"source_year":2024},"geometry":{"type":"Polygon","coordinates":[[[-71.2640021979999,-30.8320380221691],[-71.26349382,-30.832674634169],[-71.2646897509999,-30.8308492561691],[-71.2637571679999,-30.8304791121691],[-71.2627834669999,-30.832579658169],[-71.2642950839999,-30.833139273169],[-71.2642653649999,-30.832763903169],[-71.2645356289999,-30.832318875169],[-71.2640021979999,-30.8320380221691]]]}},{"type":"Feature","properties":{"id":"4304011001045","commune":"Punitaqui","code":"04304","gse":"D","quintil":"Q1","nse_score":598.1,"educ":9.5,"educ_score":433.3,"hacin":0.909,"hacin_class":"Sin Hacinamiento","hacin_score":870.4,"auto_score":45.5,"n_per":20,"n_hog":9,"source_year":2024},"geometry":{"type":"Polygon","coordinates":[[[-71.2645578309999,-30.832272651169],[-71.2652313849999,-30.8314813061691],[-71.2654215709999,-30.8310545441691],[-71.2647578049999,-30.8308820531691],[-71.2640557399999,-30.8319649471691],[-71.2645578309999,-30.832272651169]]]}},{"type":"Feature","properties":{"id":"4304011001046","commune":"Punitaqui","code":"04304","gse":"E","quintil":"Q1","nse_score":505.9,"educ":8.8,"educ_score":386.7,"hacin":1.559,"hacin_class":"Hacinamiento Medio","hacin_score":732.2,"auto_score":157.9,"n_per":53,"n_hog":16,"source_year":2024},"geometry":{"type":"Polygon","coordinates":[[[-71.2662715459999,-30.831659147169],[-71.2652629849999,-30.8314991631691],[-71.2651035669999,-30.831698799169],[-71.2656200299999,-30.831852977169],[-71.2660191119999,-30.8321798551691],[-71.2653970269999,-30.8323847551691],[-71.2646687289999,-30.832958653169],[-71.2645373859999,-30.833212867169],[-71.2674988084999,-30.834146329169],[-71.2688558499999,-30.832354358169],[-71.2679608939999,-30.8317963711691],[-71.2661007109999,-30.8311828611691],[-71.2655369979999,-30.8310780151691],[-71.2653334339999,-30.831424289169],[-71.2662715459999,-30.831659147169]]]}},{"type":"Feature","properties":{"id":"4304011001047","commune":"Punitaqui","code":"04304","gse":"E","quintil":"Q1","nse_score":487.2,"educ":10.4,"educ_score":493.3,"hacin":2.286,"hacin_class":"Hacinamiento Medio","hacin_score":577.5,"auto_score":0.0,"n_per":16,"n_hog":5,"source_year":2024},"geometry":{"type":"Polygon","coordinates":[[[-71.2650420279999,-30.8317338641691],[-71.2643081979999,-30.8327709431691],[-71.2643277279999,-30.833150533169],[-71.2645199919999,-30.833205030169],[-71.2646392179999,-30.832959877169],[-71.2653818639999,-30.832368027169],[-71.2659957469999,-30.8321632701691],[-71.2655708839999,-30.8318566691691],[-71.2650420279999,-30.8317338641691]]]}},{"type":"Feature","properties":{"id":"4304011001048","commune":"Punitaqui","code":"04304","gse":"C3","quintil":"Q3","nse_score":700.6,"educ":12.2,"educ_score":613.3,"hacin":1.471,"hacin_class":"Hacinamiento Leve","hacin_score":750.9,"auto_score":150.0,"n_per":25,"n_hog":10,"source_year":2024},"geometry":{"type":"Polygon","coordinates":[[[-71.2530281749999,-30.832729817169],[-71.2529539799999,-30.8333602271691],[-71.2535200839999,-30.833461899169],[-71.2537453349999,-30.8326723551691],[-71.253194634,-30.8324921731691],[-71.2530281749999,-30.832729817169]]]}},{"type":"Feature","properties":{"id":"4304011001049","commune":"Punitaqui","code":"04304","gse":"C3","quintil":"Q3","nse_score":718.8,"educ":11.5,"educ_score":566.7,"hacin":1.0,"hacin_class":"Hacinamiento Leve","hacin_score":851.1,"auto_score":105.3,"n_per":49,"n_hog":19,"source_year":2024},"geometry":{"type":"Polygon","coordinates":[[[-71.2535950079999,-30.833494671169],[-71.2539921789999,-30.833565647169],[-71.2542158769999,-30.832780025169],[-71.2537962659999,-30.832696694169],[-71.2535950079999,-30.833494671169]]]}},{"type":"Feature","properties":{"id":"4304011001051","commune":"Punitaqui","code":"04304","gse":"D","quintil":"Q2","nse_score":659.3,"educ":10.9,"educ_score":526.7,"hacin":1.353,"hacin_class":"Hacinamiento Leve","hacin_score":776.0,"auto_score":67.1,"n_per":276,"n_hog":89,"source_year":2024},"geometry":{"type":"Polygon","coordinates":[[[-71.2522505949999,-30.833564002169],[-71.2509807969999,-30.834201247169],[-71.2509303749999,-30.834791205169],[-71.254957412,-30.835990435169],[-71.2544950779999,-30.836725077169],[-71.2534833279999,-30.836431787169],[-71.2528492689999,-30.837376332169],[-71.2538511089999,-30.837673010169],[-71.2521145439999,-30.8406914181689],[-71.2516767909999,-30.8405939731689],[-71.2513976549999,-30.8416677811689],[-71.2521450579999,-30.8418230101689],[-71.2525205109999,-30.8407908721689],[-71.2522054329999,-30.8417507131689],[-71.2532722099999,-30.8419767931689],[-71.2535737759999,-30.8411161751689],[-71.2548668949999,-30.838944974169],[-71.2543935529999,-30.8387125121689],[-71.2549024279999,-30.8388698381689],[-71.2557212059999,-30.837553667169],[-71.2550318479999,-30.837267518169],[-71.2549147869999,-30.837438464169],[-71.2546713749999,-30.837379005169],[-71.2549129759999,-30.837385856169],[-71.2549748419999,-30.837247847169],[-71.2545803269999,-30.837280525169],[-71.2539992629999,-30.837038455169],[-71.2545893689999,-30.837233571169],[-71.2549277939999,-30.837167180169],[-71.2557741499999,-30.837472901169],[-71.2567589689999,-30.835920961169],[-71.2561742069999,-30.835688987169],[-71.2572281299999,-30.833458557169],[-71.2558271359999,-30.833130347169],[-71.2556746019999,-30.8334148221691],[-71.2557447489999,-30.833116204169],[-71.2549161379999,-30.8329606081691],[-71.2543398039999,-30.834443553169],[-71.2549055809999,-30.834636213169],[-71.2539490149999,-30.834404419169],[-71.253719756,-30.835057726169],[-71.2541275769999,-30.835268008169],[-71.2537618349999,-30.835137715169],[-71.2537027959999,-30.835069350169],[-71.2536950119999,-30.834946986169],[-71.2539356099999,-30.834344083169],[-71.2542850389999,-30.834417599169],[-71.254843192,-30.8329202781691],[-71.2542568259999,-30.832794181169],[-71.2538363929999,-30.834163197169],[-71.2535971599999,-30.834121721169],[-71.2533727559999,-30.834815348169],[-71.2535444099999,-30.834113092169],[-71.2531784959999,-30.834048829169],[-71.2529679899999,-30.834732256169],[-71.2531046229999,-30.834025950169],[-71.2527514639999,-30.833964208169],[-71.2525218709999,-30.834533256169],[-71.2526904769999,-30.833952877169],[-71.2525088009999,-30.833877725169],[-71.2522465899999,-30.834446348169],[-71.2524798769999,-30.833883435169],[-71.2523421269999,-30.8338777531691],[-71.2520110279999,-30.834282065169],[-71.2514920639999,-30.834552358169],[-71.2519825529999,-30.834255415169],[-71.252323595,-30.833843920169],[-71.2527390749999,-30.833855379169],[-71.2530200439999,-30.832739903169],[-71.2522505949999,-30.833564002169]]]}},{"type":"Feature","properties":{"id":"4304011001052","commune":"Punitaqui","code":"04304","gse":"C3","quintil":"Q2","nse_score":664.7,"educ":10.2,"educ_score":480.0,"hacin":1.25,"hacin_class":"Hacinamiento Leve","hacin_score":797.9,"auto_score":0.0,"n_per":20,"n_hog":6,"source_year":2024},"geometry":{"type":"Polygon","coordinates":[[[-71.2528159339999,-30.833913875169],[-71.2531432469999,-30.833944999169],[-71.2532686529999,-30.833482560169],[-71.2529291309999,-30.833420492169],[-71.2528159339999,-30.833913875169]]]}},{"type":"Feature","properties":{"id":"4304011001056","commune":"Punitaqui","code":"04304","gse":"C3","quintil":"Q2","nse_score":679.9,"educ":11.9,"educ_score":593.3,"hacin":1.044,"hacin_class":"Hacinamiento Leve","hacin_score":841.8,"auto_score":100.0,"n_per":24,"n_hog":10,"source_year":2024},"geometry":{"type":"Polygon","coordinates":[[[-71.2567532509999,-30.835821309169],[-71.2575146169999,-30.834483916169],[-71.25768145,-30.834126964169],[-71.2576122839999,-30.834046740169],[-71.2571395799999,-30.833889929169],[-71.257056787,-30.833963597169],[-71.2562646659999,-30.835631561169],[-71.2567532509999,-30.835821309169]]]}},{"type":"Feature","properties":{"id":"4304011001057","commune":"Punitaqui","code":"04304","gse":"C2","quintil":"Q4","nse_score":791.3,"educ":13.5,"educ_score":700.0,"hacin":1.136,"hacin_class":"Hacinamiento Leve","hacin_score":822.1,"auto_score":205.9,"n_per":50,"n_hog":17,"source_year":2024},"geometry":{"type":"Polygon","coordinates":[[[-71.2600905809999,-30.834593464169],[-71.2603312659999,-30.834201337169],[-71.2594082419999,-30.833965637169],[-71.2592834409999,-30.834361412169],[-71.2600905809999,-30.834593464169]]]}},{"type":"Feature","properties":{"id":"4304011001058","commune":"Punitaqui","code":"04304","gse":"C3","quintil":"Q3","nse_score":717.2,"educ":12.1,"educ_score":606.7,"hacin":1.235,"hacin_class":"Hacinamiento Leve","hacin_score":801.1,"auto_score":118.4,"n_per":121,"n_hog":40,"source_year":2024},"geometry":{"type":"Polygon","coordinates":[[[-71.2584621999999,-30.834941888169],[-71.2583594139999,-30.835303392169],[-71.2587748539999,-30.835404185169],[-71.2589697319999,-30.834857463169],[-71.2583291609999,-30.834671272169],[-71.2589966729999,-30.834773056169],[-71.2591471569999,-30.8344074601691],[-71.2577928429999,-30.834053366169],[-71.2573218339999,-30.834989424169],[-71.2582949599999,-30.835287502169],[-71.2584621999999,-30.834941888169]]]}},{"type":"Feature","properties":{"id":"4304011001059","commune":"Punitaqui","code":"04304","gse":"C2","quintil":"Q4","nse_score":763.0,"educ":12.0,"educ_score":600.0,"hacin":1.222,"hacin_class":"Hacinamiento Leve","hacin_score":803.8,"auto_score":181.8,"n_per":33,"n_hog":11,"source_year":2024},"geometry":{"type":"Polygon","coordinates":[[[-71.2597142109999,-30.834990227169],[-71.2600532909999,-30.834651396169],[-71.2592213359999,-30.834431686169],[-71.2590920059999,-30.834802585169],[-71.2597142109999,-30.834990227169]]]}},{"type":"Feature","properties":{"id":"4304011001060","commune":"Punitaqui","code":"04304","gse":"C3","quintil":"Q3","nse_score":702.5,"educ":12.0,"educ_score":600.0,"hacin":1.409,"hacin_class":"Hacinamiento Leve","hacin_score":764.0,"auto_score":222.2,"n_per":31,"n_hog":10,"source_year":2024},"geometry":{"type":"Polygon","coordinates":[[[-71.2596502759999,-30.835042894169],[-71.2590597039999,-30.834882549169],[-71.2588592419999,-30.835429369169],[-71.2591731819999,-30.835518037169],[-71.2596502759999,-30.835042894169]]]}},{"type":"Feature","properties":{"id":"4304011001061","commune":"Punitaqui","code":"04304","gse":"E","quintil":"Q1","nse_score":589.4,"educ":11.1,"educ_score":540.0,"hacin":1.5,"hacin_class":"Hacinamiento Medio","hacin_score":744.7,"auto_score":0.0,"n_per":117,"n_hog":41,"source_year":2024},"geometry":{"type":"Polygon","coordinates":[[[-71.253139787,-30.8441572761688],[-71.2533706739999,-30.8434692911689],[-71.2539011239999,-30.8435048231689],[-71.2542879709999,-30.8422843491689],[-71.2551096749999,-30.8424253651689],[-71.25517056,-30.8421904201689],[-71.2538559929999,-30.8419370821689],[-71.2540674819999,-30.8413352771689],[-71.2553612849999,-30.8391591901689],[-71.2559964409999,-30.8393533691689],[-71.256228426,-30.8388981761689],[-71.2570432349999,-30.839123518169],[-71.2574345989999,-30.838108362169],[-71.2580426619999,-30.837066275169],[-71.2591152689999,-30.835858714169],[-71.2590539569999,-30.835569923169],[-71.2572708509999,-30.835072956169],[-71.2557578129999,-30.837606747169],[-71.2570108609999,-30.838062159169],[-71.2557419039999,-30.837628267169],[-71.2553895319999,-30.8381356431689],[-71.2535795339999,-30.8413054001689],[-71.2526409209999,-30.8441268371688],[-71.253139787,-30.8441572761688]]]}},{"type":"Feature","properties":{"id":"4304011001062","commune":"Punitaqui","code":"04304","gse":"E","quintil":"Q1","nse_score":524.6,"educ":9.1,"educ_score":406.7,"hacin":1.245,"hacin_class":"Hacinamiento Leve","hacin_score":799.0,"auto_score":92.6,"n_per":61,"n_hog":25,"source_year":2024},"geometry":{"type":"Polygon","coordinates":[[[-71.2524035129999,-30.8420852511689],[-71.2522306049999,-30.8421376441689],[-71.2520537799999,-30.8427589671689],[-71.2523644749999,-30.8428137621689],[-71.2510895369999,-30.8467942701688],[-71.2502452379999,-30.8470836441688],[-71.2487436219999,-30.8472308901688],[-71.2487575329999,-30.8474054521688],[-71.2516738399999,-30.8475094591688],[-71.2517724319999,-30.8464170991688],[-71.2525482789999,-30.8441613571689],[-71.2520420339999,-30.8440312291689],[-71.2525670729999,-30.8441227941688],[-71.2532514759999,-30.8420514361689],[-71.2524588909999,-30.8418881911689],[-71.2524035129999,-30.8420852511689]]]}},{"type":"Feature","properties":{"id":"4304011001063","commune":"Punitaqui","code":"04304","gse":"E","quintil":"Q1","nse_score":510.0,"educ":7.9,"educ_score":326.7,"hacin":1.25,"hacin_class":"Hacinamiento Leve","hacin_score":797.9,"auto_score":0.0,"n_per":10,"n_hog":5,"source_year":2024},"geometry":{"type":"Polygon","coordinates":[[[-71.2517851959999,-30.8468488041688],[-71.2522738859999,-30.8468133351688],[-71.2531283669999,-30.8441906521689],[-71.2526240309999,-30.8441769321688],[-71.2517851959999,-30.8468488041688]]]}},{"type":"Feature","properties":{"id":"4304011001064","commune":"Punitaqui","code":"04304","gse":"D","quintil":"Q2","nse_score":634.5,"educ":10.5,"educ_score":500.0,"hacin":1.5,"hacin_class":"Hacinamiento Medio","hacin_score":744.7,"auto_score":0.0,"n_per":27,"n_hog":9,"source_year":2024},"geometry":{"type":"Polygon","coordinates":[[[-71.2517851959999,-30.8468488041688],[-71.2517947869999,-30.8478083651688],[-71.2520361869999,-30.8485858921688],[-71.251945497,-30.8500412721688],[-71.2523101369999,-30.8500542021688],[-71.2523842649999,-30.8486591221688],[-71.252226575,-30.8478102551688],[-71.2522738859999,-30.8468133351688],[-71.2517851959999,-30.8468488041688]]]}},{"type":"Feature","properties":{"id":"4304011001065","commune":"Punitaqui","code":"04304","gse":"D","quintil":"Q1","nse_score":592.1,"educ":9.5,"educ_score":433.3,"hacin":1.415,"hacin_class":"Hacinamiento Leve","hacin_score":762.7,"auto_score":150.0,"n_per":75,"n_hog":26,"source_year":2024},"geometry":{"type":"Polygon","coordinates":[[[-71.2493177959999,-30.8484739281688],[-71.2496571269999,-30.8484552851688],[-71.2495920499999,-30.8474254421688],[-71.2491451719999,-30.8474801411688],[-71.2493177959999,-30.8484739281688]]]}},{"type":"Feature","properties":{"id":"4304011001066","commune":"Punitaqui","code":"04304","gse":"D","quintil":"Q1","nse_score":604.7,"educ":9.0,"educ_score":400.0,"hacin":1.167,"hacin_class":"Hacinamiento Leve","hacin_score":815.6,"auto_score":107.1,"n_per":35,"n_hog":13,"source_year":2024},"geometry":{"type":"Polygon","coordinates":[[[-71.2497315209999,-30.8484780671688],[-71.2501226619999,-30.8484287831688],[-71.2501153789999,-30.8474843221688],[-71.2497054559999,-30.8474319681688],[-71.2497315209999,-30.8484780671688]]]}},{"type":"Feature","properties":{"id":"4304011001067","commune":"Punitaqui","code":"04304","gse":"C3","quintil":"Q2","nse_score":682.5,"educ":10.1,"educ_score":473.3,"hacin":1.237,"hacin_class":"Hacinamiento Leve","hacin_score":800.7,"auto_score":58.8,"n_per":47,"n_hog":17,"source_year":2024},"geometry":{"type":"Polygon","coordinates":[[[-71.2502170629999,-30.8483945701688],[-71.2505755409999,-30.8482821241688],[-71.2506015559999,-30.8474985291688],[-71.2501957079999,-30.8474800941688],[-71.2502170629999,-30.8483945701688]]]}},{"type":"Feature","properties":{"id":"4304011001068","commune":"Punitaqui","code":"04304","gse":"C2","quintil":"Q4","nse_score":744.7,"educ":12.0,"educ_score":600.0,"hacin":1.167,"hacin_class":"Hacinamiento Leve","hacin_score":815.6,"auto_score":50.0,"n_per":28,"n_hog":10,"source_year":2024},"geometry":{"type":"Polygon","coordinates":[[[-71.2489919059999,-30.8474818081688],[-71.2488487259999,-30.8475149601688],[-71.2488418839999,-30.8478828811688],[-71.2489670079999,-30.8484234261688],[-71.2491688649999,-30.8484530601688],[-71.2491560109999,-30.8479023921688],[-71.2489919059999,-30.8474818081688]]]}},{"type":"Feature","properties":{"id":"4304011001069","commune":"Punitaqui","code":"04304","gse":"C3","quintil":"Q3","nse_score":690.0,"educ":10.1,"educ_score":473.3,"hacin":0.917,"hacin_class":"Sin Hacinamiento","hacin_score":868.8,"auto_score":0.0,"n_per":11,"n_hog":5,"source_year":2024},"geometry":{"type":"Polygon","coordinates":[[[-71.2506457269999,-30.8482960401688],[-71.250230729,-30.8485185131688],[-71.2509539789999,-30.8486044351688],[-71.2509761079999,-30.8484138401688],[-71.2509868159999,-30.8486080041688],[-71.2514137199999,-30.8486442511688],[-71.2513928939999,-30.8481870131688],[-71.2517289229999,-30.8479712271688],[-71.2516679279999,-30.8475992961688],[-71.2507079369999,-30.8475160631688],[-71.2506457269999,-30.8482960401688]]]}},{"type":"Feature","properties":{"id":"4304011001071","commune":"Punitaqui","code":"04304","gse":"D","quintil":"Q2","nse_score":642.5,"educ":9.1,"educ_score":406.7,"hacin":1.087,"hacin_class":"Hacinamiento Leve","hacin_score":832.6,"auto_score":50.0,"n_per":25,"n_hog":10,"source_year":2024},"geometry":{"type":"Polygon","coordinates":[[[-71.2514416789999,-30.8486465971688],[-71.2519316189999,-30.8486064761688],[-71.2517342799999,-30.8479921041688],[-71.2514137539999,-30.8481955021688],[-71.2514416789999,-30.8486465971688]]]}},{"type":"Feature","properties":{"id":"4304011001072","commune":"Punitaqui","code":"04304","gse":"C3","quintil":"Q3","nse_score":692.5,"educ":10.4,"educ_score":493.3,"hacin":1.27,"hacin_class":"Hacinamiento Leve","hacin_score":793.6,"auto_score":178.6,"n_per":47,"n_hog":14,"source_year":2024},"geometry":{"type":"Polygon","coordinates":[[[-71.2519304939999,-30.8489770951688],[-71.2518648239999,-30.8487333231688],[-71.248971691,-30.8484877851688],[-71.2489542709999,-30.8487597241688],[-71.2519304939999,-30.8489770951688]]]}},{"type":"Feature","properties":{"id":"4304011001054","commune":"Punitaqui","code":"04304","gse":"D","quintil":"Q2","nse_score":634.1,"educ":11.3,"educ_score":553.3,"hacin":1.667,"hacin_class":"Hacinamiento Medio","hacin_score":709.2,"auto_score":142.9,"n_per":20,"n_hog":6,"source_year":2024},"geometry":{"type":"MultiPolygon","coordinates":[[[[-71.2537831719999,-30.834114567169],[-71.2539701709999,-30.833620529169],[-71.2535547809999,-30.8335374641691],[-71.2534080049999,-30.834038107169],[-71.2537831719999,-30.834114567169]]],[[[-71.2532183249999,-30.833997508169],[-71.2533749969999,-30.834030185169],[-71.2535121649999,-30.833528942169],[-71.2533201029999,-30.833507156169],[-71.2532183249999,-30.833997508169]]]]}},{"type":"Feature","properties":{"id":"4304011001037","commune":"Punitaqui","code":"04304","gse":"C3","quintil":"Q3","nse_score":696.2,"educ":10.5,"educ_score":500.0,"hacin":0.882,"hacin_class":"Sin Hacinamiento","hacin_score":876.1,"auto_score":166.7,"n_per":15,"n_hog":7,"source_year":2024},"geometry":{"type":"MultiPolygon","coordinates":[[[[-71.2659943629999,-30.8301010871691],[-71.2663241819999,-30.8296162111691],[-71.2654498749999,-30.8292930141691],[-71.2652714939999,-30.8297526131691],[-71.2659943629999,-30.8301010871691]]],[[[-71.2651827379999,-30.8297228381691],[-71.2653786649999,-30.8293056061691],[-71.2648290689999,-30.8291102381691],[-71.2646677229999,-30.8292071541691],[-71.2645918009999,-30.8294562791691],[-71.2651827379999,-30.8297228381691]]]]}},{"type":"Feature","properties":{"id":"4304011001028","commune":"Punitaqui","code":"04304","gse":"E","quintil":"Q1","nse_score":588.8,"educ":10.9,"educ_score":526.7,"hacin":1.091,"hacin_class":"Hacinamiento Leve","hacin_score":831.7,"auto_score":285.7,"n_per":12,"n_hog":5,"source_year":2024},"geometry":{"type":"MultiPolygon","coordinates":[[[[-71.2653644189999,-30.8292386211691],[-71.2658020169999,-30.8283536261691],[-71.2653848069999,-30.8280621161691],[-71.2648542179999,-30.8290582671691],[-71.2653644189999,-30.8292386211691]]],[[[-71.2668223609999,-30.8287563701691],[-71.2676812899999,-30.8272674441691],[-71.2669618069999,-30.8269783191691],[-71.2663862449999,-30.8261488591691],[-71.2654198099999,-30.8280291361691],[-71.2668223609999,-30.8287563701691]]]]}},{"type":"Feature","properties":{"id":"4304011001016","commune":"Punitaqui","code":"04304","gse":"E","quintil":"Q1","nse_score":539.8,"educ":10.9,"educ_score":526.7,"hacin":0.929,"hacin_class":"Sin Hacinamiento","hacin_score":866.3,"auto_score":38.5,"n_per":13,"n_hog":6,"source_year":2024},"geometry":{"type":"MultiPolygon","coordinates":[[[[-71.2702648359999,-30.8248782501692],[-71.2707914769999,-30.8249521551692],[-71.2710749439999,-30.8233328471692],[-71.2707061269999,-30.8233209501692],[-71.2705722829999,-30.8234369481692],[-71.2702648359999,-30.8248782501692]]],[[[-71.2713286739999,-30.8257277031691],[-71.2714959889999,-30.8257379471691],[-71.2719313419999,-30.8234427061692],[-71.2711803089999,-30.8232715371692],[-71.2708664309999,-30.8249642661692],[-71.2711716649999,-30.8250606121692],[-71.2713286739999,-30.8257277031691]]]]}},{"type":"Feature","properties":{"id":"4304011001038","commune":"Punitaqui","code":"04304","gse":"C3","quintil":"Q3","nse_score":700.9,"educ":11.8,"educ_score":586.7,"hacin":1.246,"hacin_class":"Hacinamiento Leve","hacin_score":798.8,"auto_score":102.0,"n_per":142,"n_hog":48,"source_year":2024},"geometry":{"type":"MultiPolygon","coordinates":[[[[-71.2578843779999,-30.833524384169],[-71.258290358,-30.832850287169],[-71.2574010379999,-30.832717097169],[-71.2572122379999,-30.833344921169],[-71.2578843779999,-30.833524384169]]],[[[-71.2602893819999,-30.8291417691691],[-71.2585695329999,-30.8325062801691],[-71.2587139619999,-30.8325903101691],[-71.2589572809999,-30.8325015091691],[-71.2592180339999,-30.832509620169],[-71.2603162799999,-30.8327227721691],[-71.2590589319999,-30.8325229441691],[-71.2587573439999,-30.832628517169],[-71.2585365119999,-30.832560468169],[-71.2578228399999,-30.833975711169],[-71.2586023129999,-30.834183039169],[-71.2587963269999,-30.833708069169],[-71.2586765639999,-30.834200154169],[-71.2591654929999,-30.834334657169],[-71.2594315059999,-30.833892636169],[-71.260453089,-30.834164902169],[-71.2606309649999,-30.833981943169],[-71.2600742779999,-30.834807376169],[-71.2591360299999,-30.835593345169],[-71.2592009009999,-30.835794098169],[-71.2617664159999,-30.833161243169],[-71.2623576769999,-30.832332495169],[-71.2630701829999,-30.8309189201691],[-71.2633418349999,-30.8297353481691],[-71.2630726219999,-30.8292381841691],[-71.2628924989999,-30.8296752081691],[-71.2619892119999,-30.8295118941691],[-71.2618017019999,-30.8300202941691],[-71.2615049099999,-30.8305098501691],[-71.2619105459999,-30.8294922841691],[-71.2602893819999,-30.8291417691691]]]]}},{"type":"Feature","properties":{"id":"4304011002001","commune":"Punitaqui","code":"04304","gse":"D","quintil":"Q1","nse_score":614.8,"educ":9.4,"educ_score":426.7,"hacin":1.846,"hacin_class":"Hacinamiento Medio","hacin_score":671.0,"auto_score":0.0,"n_per":24,"n_hog":7,"source_year":2024},"geometry":{"type":"Polygon","coordinates":[[[-71.2557384289999,-30.8205307861692],[-71.2598493179999,-30.8195357631692],[-71.2597832419999,-30.8183873701693],[-71.2589971559999,-30.8188131191692],[-71.2578625689999,-30.8187868421693],[-71.2566231889999,-30.8192785341692],[-71.255898526,-30.8199232701693],[-71.2551984209999,-30.8207823761692],[-71.2557384289999,-30.8205307861692]]]}},{"type":"Feature","properties":{"id":"4304011002003","commune":"Punitaqui","code":"04304","gse":"D","quintil":"Q1","nse_score":608.1,"educ":9.1,"educ_score":406.7,"hacin":1.379,"hacin_class":"Hacinamiento Leve","hacin_score":770.4,"auto_score":214.3,"n_per":40,"n_hog":13,"source_year":2024},"geometry":{"type":"Polygon","coordinates":[[[-71.2591810059999,-30.8231184471692],[-71.2592613409999,-30.8226128521692],[-71.2589563159999,-30.8225231561692],[-71.2589180599999,-30.8230426531692],[-71.2591810059999,-30.8231184471692]]]}},{"type":"Feature","properties":{"id":"4304011002004","commune":"Punitaqui","code":"04304","gse":"C3","quintil":"Q2","nse_score":677.6,"educ":11.1,"educ_score":540.0,"hacin":1.25,"hacin_class":"Hacinamiento Leve","hacin_score":797.9,"auto_score":222.2,"n_per":25,"n_hog":9,"source_year":2024},"geometry":{"type":"Polygon","coordinates":[[[-71.2595875109999,-30.8231598621692],[-71.259607576,-30.8226797171692],[-71.2593266839999,-30.8226074541692],[-71.2592751769999,-30.8231061891692],[-71.2595875109999,-30.8231598621692]]]}},{"type":"Feature","properties":{"id":"4304011002005","commune":"Punitaqui","code":"04304","gse":"E","quintil":"Q1","nse_score":506.0,"educ":4.9,"educ_score":126.7,"hacin":1.0,"hacin_class":"Hacinamiento Leve","hacin_score":851.1,"auto_score":83.3,"n_per":9,"n_hog":5,"source_year":2024},"geometry":{"type":"Polygon","coordinates":[[[-71.2596680949999,-30.8232131621692],[-71.2599669989999,-30.8232646061692],[-71.259985448,-30.8227497161692],[-71.2596721609999,-30.8227028311692],[-71.2596680949999,-30.8232131621692]]]}},{"type":"Feature","properties":{"id":"4304011002010","commune":"Punitaqui","code":"04304","gse":"D","quintil":"Q1","nse_score":628.7,"educ":9.7,"educ_score":446.7,"hacin":1.083,"hacin_class":"Hacinamiento Leve","hacin_score":833.3,"auto_score":125.0,"n_per":13,"n_hog":4,"source_year":2024},"geometry":{"type":"Polygon","coordinates":[[[-71.2547295499999,-30.8245201851692],[-71.255067386,-30.8251430841692],[-71.2554445039999,-30.8253404461692],[-71.2574894679999,-30.8253529611692],[-71.2576543609999,-30.8252467061691],[-71.257444286,-30.8246145071691],[-71.2570732979999,-30.8242584331692],[-71.2560710509999,-30.8237136761692],[-71.2555370959999,-30.8236861571692],[-71.2561264119999,-30.8243967241692],[-71.2560603339999,-30.8245182511692],[-71.2558762219999,-30.8245044631692],[-71.2558378059999,-30.8241949911692],[-71.2555211189999,-30.8238450471692],[-71.2553620549999,-30.8234286301692],[-71.2549570139999,-30.8236509421692],[-71.2547295499999,-30.8245201851692]]]}},{"type":"Feature","properties":{"id":"4304011002013","commune":"Punitaqui","code":"04304","gse":"E","quintil":"Q1","nse_score":456.7,"educ":7.6,"educ_score":306.7,"hacin":1.333,"hacin_class":"Hacinamiento Leve","hacin_score":780.1,"auto_score":250.0,"n_per":12,"n_hog":4,"source_year":2024},"geometry":{"type":"Polygon","coordinates":[[[-71.254257477,-30.8255699201692],[-71.2549881749999,-30.8255452411691],[-71.2545544719999,-30.8248928551691],[-71.2542005619999,-30.8253373231692],[-71.254257477,-30.8255699201692]]]}},{"type":"Feature","properties":{"id":"4304011002019","commune":"Punitaqui","code":"04304","gse":"E","quintil":"Q1","nse_score":488.3,"educ":10.3,"educ_score":486.7,"hacin":1.444,"hacin_class":"Hacinamiento Leve","hacin_score":756.5,"auto_score":41.7,"n_per":13,"n_hog":4,"source_year":2024},"geometry":{"type":"Polygon","coordinates":[[[-71.256013934,-30.8257441071692],[-71.2560180749999,-30.8259044071691],[-71.2571977349999,-30.8258554081692],[-71.2572270829999,-30.8256921841692],[-71.256013934,-30.8257441071692]]]}},{"type":"Feature","properties":{"id":"4304011002025","commune":"Punitaqui","code":"04304","gse":"E","quintil":"Q1","nse_score":518.7,"educ":9.8,"educ_score":453.3,"hacin":1.454,"hacin_class":"Hacinamiento Leve","hacin_score":754.4,"auto_score":55.6,"n_per":16,"n_hog":5,"source_year":2024},"geometry":{"type":"Polygon","coordinates":[[[-71.2571441239999,-30.8261261111692],[-71.2559842839999,-30.8261828641691],[-71.2559752299999,-30.8263168581691],[-71.2571064629999,-30.8264669271692],[-71.2571441239999,-30.8261261111692]]]}},{"type":"Feature","properties":{"id":"4304011002026","commune":"Punitaqui","code":"04304","gse":"D","quintil":"Q1","nse_score":621.0,"educ":10.2,"educ_score":480.0,"hacin":1.228,"hacin_class":"Hacinamiento Leve","hacin_score":802.6,"auto_score":58.8,"n_per":178,"n_hog":63,"source_year":2024},"geometry":{"type":"Polygon","coordinates":[[[-71.2521189589999,-30.8281026271691],[-71.2548048419999,-30.8284687621691],[-71.2546837169999,-30.8278802421691],[-71.2541846299999,-30.8279602621691],[-71.254193487,-30.8282369831691],[-71.2541507329999,-30.8279610791691],[-71.2528734879999,-30.8277994721691],[-71.2530790859999,-30.8277699431692],[-71.2530812919999,-30.8274049451691],[-71.2531390569999,-30.8277885801691],[-71.2535120419999,-30.8278171051691],[-71.2533768699999,-30.8271198471691],[-71.2530718499999,-30.8272116711691],[-71.2537517489999,-30.8268615181691],[-71.2560144509999,-30.8265127101691],[-71.2562110809999,-30.8265147831691],[-71.2562431559999,-30.8266787211692],[-71.2569379159999,-30.8266470701691],[-71.2569729349999,-30.8264976531691],[-71.2534432919999,-30.8262172021691],[-71.2530612659999,-30.8264419401691],[-71.251596435,-30.8268186301691],[-71.2507141289999,-30.8276931021691],[-71.251010634,-30.8277053661691],[-71.2516964189999,-30.8282948611691],[-71.2521189589999,-30.8281026271691]]]}},{"type":"Feature","properties":{"id":"4304011002027","commune":"Punitaqui","code":"04304","gse":"D","quintil":"Q1","nse_score":600.2,"educ":10.3,"educ_score":486.7,"hacin":1.342,"hacin_class":"Hacinamiento Leve","hacin_score":778.3,"auto_score":80.0,"n_per":51,"n_hog":19,"source_year":2024},"geometry":{"type":"Polygon","coordinates":[[[-71.2568744279999,-30.8275353471691],[-71.2571815609999,-30.8275444621691],[-71.2573741049999,-30.8265704851691],[-71.2570586339999,-30.8265156451691],[-71.2568744279999,-30.8275353471691]]]}},{"type":"Feature","properties":{"id":"4304011002028","commune":"Punitaqui","code":"04304","gse":"C3","quintil":"Q2","nse_score":666.9,"educ":11.9,"educ_score":593.3,"hacin":1.283,"hacin_class":"Hacinamiento Leve","hacin_score":790.8,"auto_score":19.2,"n_per":68,"n_hog":20,"source_year":2024},"geometry":{"type":"Polygon","coordinates":[[[-71.2559963459999,-30.8275846081691],[-71.2563432389999,-30.8275144371691],[-71.2561161429999,-30.8265396591691],[-71.255814213,-30.8266114501691],[-71.2559963459999,-30.8275846081691]]]}},{"type":"Feature","properties":{"id":"4304011002029","commune":"Punitaqui","code":"04304","gse":"D","quintil":"Q2","nse_score":662.6,"educ":11.3,"educ_score":553.3,"hacin":1.356,"hacin_class":"Hacinamiento Leve","hacin_score":775.4,"auto_score":65.2,"n_per":61,"n_hog":20,"source_year":2024},"geometry":{"type":"Polygon","coordinates":[[[-71.2575388049999,-30.8276276081691],[-71.257776712,-30.8267012501691],[-71.2574741919999,-30.8265936961691],[-71.2572582399999,-30.8275615091692],[-71.2575388049999,-30.8276276081691]]]}},{"type":"Feature","properties":{"id":"4304011002030","commune":"Punitaqui","code":"04304","gse":"D","quintil":"Q2","nse_score":655.9,"educ":10.1,"educ_score":473.3,"hacin":1.071,"hacin_class":"Hacinamiento Leve","hacin_score":835.9,"auto_score":157.9,"n_per":45,"n_hog":17,"source_year":2024},"geometry":{"type":"Polygon","coordinates":[[[-71.2554125439999,-30.8266696541691],[-71.2556182109999,-30.8276574081691],[-71.2559383509999,-30.8276035321691],[-71.2557545179999,-30.8266186081691],[-71.2554125439999,-30.8266696541691]]]}},{"type":"Feature","properties":{"id":"4304011002031","commune":"Punitaqui","code":"04304","gse":"D","quintil":"Q2","nse_score":658.6,"educ":11.5,"educ_score":566.7,"hacin":1.296,"hacin_class":"Hacinamiento Leve","hacin_score":788.2,"auto_score":68.2,"n_per":57,"n_hog":20,"source_year":2024},"geometry":{"type":"Polygon","coordinates":[[[-71.2555448989999,-30.8276639521692],[-71.2553623379999,-30.8266861801692],[-71.2550236479999,-30.8267209331691],[-71.2551960839999,-30.8277121501691],[-71.2555448989999,-30.8276639521692]]]}},{"type":"Feature","properties":{"id":"4304011002032","commune":"Punitaqui","code":"04304","gse":"C3","quintil":"Q2","nse_score":668.4,"educ":9.4,"educ_score":426.7,"hacin":1.25,"hacin_class":"Hacinamiento Leve","hacin_score":797.9,"auto_score":83.3,"n_per":30,"n_hog":12,"source_year":2024},"geometry":{"type":"Polygon","coordinates":[[[-71.2564366669999,-30.8275137771691],[-71.2567645009999,-30.8275111151691],[-71.2569183729999,-30.8267079831691],[-71.2565836249999,-30.8267029901691],[-71.2564366669999,-30.8275137771691]]]}},{"type":"Feature","properties":{"id":"4304011002033","commune":"Punitaqui","code":"04304","gse":"C3","quintil":"Q2","nse_score":665.6,"educ":11.0,"educ_score":533.3,"hacin":1.178,"hacin_class":"Hacinamiento Leve","hacin_score":813.2,"auto_score":125.0,"n_per":53,"n_hog":21,"source_year":2024},"geometry":{"type":"Polygon","coordinates":[[[-71.2576847119999,-30.8276537861691],[-71.2580062629999,-30.8276652961692],[-71.2581645609999,-30.8267787031691],[-71.257849372,-30.8267029111691],[-71.2576847119999,-30.8276537861691]]]}},{"type":"Feature","properties":{"id":"4304011002034","commune":"Punitaqui","code":"04304","gse":"D","quintil":"Q2","nse_score":648.9,"educ":10.6,"educ_score":506.7,"hacin":1.143,"hacin_class":"Hacinamiento Leve","hacin_score":820.7,"auto_score":60.0,"n_per":56,"n_hog":21,"source_year":2024},"geometry":{"type":"Polygon","coordinates":[[[-71.2551063829999,-30.8277383991691],[-71.2549207049999,-30.8267738181691],[-71.2545790149999,-30.8268083131692],[-71.2547571739999,-30.8277834121691],[-71.2551063829999,-30.8277383991691]]]}},{"type":"Feature","properties":{"id":"4304011002036","commune":"Punitaqui","code":"04304","gse":"D","quintil":"Q1","nse_score":610.9,"educ":10.3,"educ_score":486.7,"hacin":1.111,"hacin_class":"Hacinamiento Leve","hacin_score":827.4,"auto_score":100.0,"n_per":50,"n_hog":18,"source_year":2024},"geometry":{"type":"Polygon","coordinates":[[[-71.2539092609999,-30.8269213751691],[-71.2540604329999,-30.8278999011692],[-71.254638354,-30.8278277721691],[-71.2544682809999,-30.8268299461691],[-71.2539092609999,-30.8269213751691]]]}},{"type":"Feature","properties":{"id":"4304011002037","commune":"Punitaqui","code":"04304","gse":"C3","quintil":"Q2","nse_score":681.8,"educ":10.0,"educ_score":466.7,"hacin":1.089,"hacin_class":"Hacinamiento Leve","hacin_score":832.1,"auto_score":90.9,"n_per":61,"n_hog":22,"source_year":2024},"geometry":{"type":"Polygon","coordinates":[[[-71.2580824529999,-30.8277052281691],[-71.2585123579999,-30.8277604891691],[-71.2587491279999,-30.8269994251691],[-71.2582386409999,-30.8268413331692],[-71.2580824529999,-30.8277052281691]]]}},{"type":"Feature","properties":{"id":"4304011002038","commune":"Punitaqui","code":"04304","gse":"E","quintil":"Q1","nse_score":581.3,"educ":9.3,"educ_score":420.0,"hacin":1.21,"hacin_class":"Hacinamiento Leve","hacin_score":806.3,"auto_score":23.8,"n_per":46,"n_hog":17,"source_year":2024},"geometry":{"type":"Polygon","coordinates":[[[-71.2534761319999,-30.8270771821691],[-71.2535966189999,-30.8278490221691],[-71.2539254679999,-30.8279111601691],[-71.2538095199999,-30.8269778431691],[-71.2534761319999,-30.8270771821691]]]}},{"type":"Feature","properties":{"id":"4304011002039","commune":"Punitaqui","code":"04304","gse":"E","quintil":"Q1","nse_score":546.1,"educ":9.4,"educ_score":426.7,"hacin":1.625,"hacin_class":"Hacinamiento Medio","hacin_score":718.1,"auto_score":100.0,"n_per":13,"n_hog":6,"source_year":2024},"geometry":{"type":"Polygon","coordinates":[[[-71.2490635389999,-30.8275579901691],[-71.2465674449999,-30.8280463651691],[-71.2467530499999,-30.8283901681691],[-71.2488810709999,-30.8278259841691],[-71.2502126759999,-30.8279274741691],[-71.2505037579999,-30.8278133701691],[-71.2503730009999,-30.8276820791691],[-71.2490635389999,-30.8275579901691]]]}},{"type":"Feature","properties":{"id":"4304011002041","commune":"Punitaqui","code":"04304","gse":"C3","quintil":"Q2","nse_score":668.2,"educ":10.6,"educ_score":506.7,"hacin":1.193,"hacin_class":"Hacinamiento Leve","hacin_score":810.1,"auto_score":78.2,"n_per":390,"n_hog":142,"source_year":2024},"geometry":{"type":"Polygon","coordinates":[[[-71.2568323119999,-30.8276116501691],[-71.2565506129999,-30.8284684031691],[-71.2566294629999,-30.8280387191691],[-71.256341173,-30.8280000741691],[-71.2561576499999,-30.8284117321691],[-71.2562351719999,-30.8280097491691],[-71.2559061589999,-30.8279475321691],[-71.2557405359999,-30.8283549711691],[-71.2558066839999,-30.8279550701691],[-71.2555204019999,-30.8278928601691],[-71.2553931379999,-30.8283038471691],[-71.2553026769999,-30.8282910571691],[-71.2554010449999,-30.8278873341691],[-71.2551149789999,-30.8278308881691],[-71.2549144319999,-30.8284807671691],[-71.2581272759999,-30.8290357511691],[-71.2584724939999,-30.8278952481691],[-71.2580312799999,-30.8278020431691],[-71.2578255379999,-30.8286406111691],[-71.2579634269999,-30.8277965211691],[-71.2576358749999,-30.8277327611691],[-71.2573962509999,-30.8285869851691],[-71.2575562189999,-30.8277485771692],[-71.2572280039999,-30.8276779551691],[-71.2569835129999,-30.8285187281691],[-71.2571464749999,-30.8276908821691],[-71.2568323119999,-30.8276116501691]]]}},{"type":"Feature","properties":{"id":"4304011002044","commune":"Punitaqui","code":"04304","gse":"C3","quintil":"Q2","nse_score":673.4,"educ":11.4,"educ_score":560.0,"hacin":1.286,"hacin_class":"Hacinamiento Leve","hacin_score":790.3,"auto_score":130.1,"n_per":216,"n_hog":74,"source_year":2024},"geometry":{"type":"Polygon","coordinates":[[[-71.2518957729999,-30.8290430921691],[-71.2520747309999,-30.8281522471691],[-71.2515845439999,-30.8283003861691],[-71.2509605349999,-30.8277367831691],[-71.2507000419999,-30.8277222361691],[-71.2505591029999,-30.8282160181691],[-71.2506710059999,-30.8287918731691],[-71.2509159029999,-30.8293002721691],[-71.251558224,-30.8301019901691],[-71.2529508499999,-30.8303351571691],[-71.2530276489999,-30.8307041491691],[-71.2553995289999,-30.8311618801691],[-71.2553865099999,-30.8304492941691],[-71.2514934989999,-30.8296766301691],[-71.2577333089999,-30.8307523841691],[-71.2578283509999,-30.8301856731691],[-71.2518957729999,-30.8290430921691]]]}},{"type":"Feature","properties":{"id":"4304011002045","commune":"Punitaqui","code":"04304","gse":"E","quintil":"Q1","nse_score":559.9,"educ":8.8,"educ_score":386.7,"hacin":1.5,"hacin_class":"Hacinamiento Medio","hacin_score":744.7,"auto_score":181.8,"n_per":30,"n_hog":11,"source_year":2024},"geometry":{"type":"Polygon","coordinates":[[[-71.2496807599999,-30.8284368031691],[-71.2504764879999,-30.8298936741691],[-71.2510416469999,-30.8295544671691],[-71.2505848469999,-30.8286774211691],[-71.2505736719999,-30.8278470281691],[-71.2496807599999,-30.8284368031691]]]}},{"type":"Feature","properties":{"id":"4304011002049","commune":"Punitaqui","code":"04304","gse":"C3","quintil":"Q3","nse_score":712.1,"educ":11.3,"educ_score":553.3,"hacin":1.227,"hacin_class":"Hacinamiento Leve","hacin_score":802.7,"auto_score":187.5,"n_per":27,"n_hog":8,"source_year":2024},"geometry":{"type":"Polygon","coordinates":[[[-71.25241417,-30.8281665921691],[-71.2521173359999,-30.8281573261691],[-71.251970776,-30.8290966711691],[-71.2522177549999,-30.8291018521691],[-71.25241417,-30.8281665921691]]]}},{"type":"Feature","properties":{"id":"4304011002050","commune":"Punitaqui","code":"04304","gse":"C3","quintil":"Q3","nse_score":709.4,"educ":12.0,"educ_score":600.0,"hacin":1.25,"hacin_class":"Hacinamiento Leve","hacin_score":797.9,"auto_score":125.0,"n_per":65,"n_hog":20,"source_year":2024},"geometry":{"type":"Polygon","coordinates":[[[-71.2523272529999,-30.8291219861691],[-71.2526340739999,-30.8291371841691],[-71.2528317049999,-30.8282365981691],[-71.2524917619999,-30.8281908221691],[-71.2523272529999,-30.8291219861691]]]}},{"type":"Feature","properties":{"id":"4304011002051","commune":"Punitaqui","code":"04304","gse":"C3","quintil":"Q2","nse_score":671.5,"educ":11.0,"educ_score":533.3,"hacin":1.111,"hacin_class":"Hacinamiento Leve","hacin_score":827.4,"auto_score":100.0,"n_per":50,"n_hog":20,"source_year":2024},"geometry":{"type":"Polygon","coordinates":[[[-71.2530054569999,-30.8292114451691],[-71.2532605299999,-30.8283397031691],[-71.2529234479999,-30.8282575241691],[-71.252690932,-30.8291475241691],[-71.2530054569999,-30.8292114451691]]]}},{"type":"Feature","properties":{"id":"4304011002052","commune":"Punitaqui","code":"04304","gse":"C3","quintil":"Q2","nse_score":667.6,"educ":10.4,"educ_score":493.3,"hacin":1.438,"hacin_class":"Hacinamiento Leve","hacin_score":758.0,"auto_score":142.9,"n_per":23,"n_hog":7,"source_year":2024},"geometry":{"type":"Polygon","coordinates":[[[-71.2500605099999,-30.8298907771691],[-71.2518913369999,-30.8321603861691],[-71.2520602779999,-30.832598207169],[-71.2520498089999,-30.832972734169],[-71.2516219819999,-30.833795552169],[-71.2519523959999,-30.833663895169],[-71.2522600869999,-30.833241480169],[-71.2523665389999,-30.832810527169],[-71.2522477939999,-30.832223464169],[-71.2503085849999,-30.8297519661691],[-71.2497027289999,-30.8285431661691],[-71.2489713619999,-30.8282938741691],[-71.2495426199999,-30.8287804021691],[-71.2500605099999,-30.8298907771691]]]}},{"type":"Feature","properties":{"id":"4304011002053","commune":"Punitaqui","code":"04304","gse":"C3","quintil":"Q2","nse_score":678.9,"educ":11.0,"educ_score":533.3,"hacin":1.408,"hacin_class":"Hacinamiento Leve","hacin_score":764.2,"auto_score":136.4,"n_per":69,"n_hog":21,"source_year":2024},"geometry":{"type":"Polygon","coordinates":[[[-71.2534107459999,-30.8292794491691],[-71.2536701349999,-30.8284061121691],[-71.2533338,-30.8283216841691],[-71.2530947579999,-30.8292056431691],[-71.2534107459999,-30.8292794491691]]]}},{"type":"Feature","properties":{"id":"4304011002054","commune":"Punitaqui","code":"04304","gse":"C3","quintil":"Q3","nse_score":695.6,"educ":11.9,"educ_score":593.3,"hacin":1.28,"hacin_class":"Hacinamiento Leve","hacin_score":791.5,"auto_score":250.0,"n_per":64,"n_hog":23,"source_year":2024},"geometry":{"type":"Polygon","coordinates":[[[-71.253819415,-30.8293516421691],[-71.2540787999999,-30.8284783041691],[-71.2537424659999,-30.8283938781691],[-71.2535034269999,-30.8292778361691],[-71.253819415,-30.8293516421691]]]}},{"type":"Feature","properties":{"id":"4304011002057","commune":"Punitaqui","code":"04304","gse":"C3","quintil":"Q3","nse_score":711.7,"educ":12.1,"educ_score":606.7,"hacin":1.213,"hacin_class":"Hacinamiento Leve","hacin_score":805.8,"auto_score":68.2,"n_per":57,"n_hog":20,"source_year":2024},"geometry":{"type":"Polygon","coordinates":[[[-71.2553608429999,-30.8296526481691],[-71.2556654189999,-30.8286772631691],[-71.2553290809999,-30.8285928401691],[-71.2551146409999,-30.8293701611691],[-71.2551645269999,-30.8296086251691],[-71.2553608429999,-30.8296526481691]]]}},{"type":"Feature","properties":{"id":"4304011002058","commune":"Punitaqui","code":"04304","gse":"C3","quintil":"Q3","nse_score":708.3,"educ":11.6,"educ_score":573.3,"hacin":1.5,"hacin_class":"Hacinamiento Medio","hacin_score":744.7,"auto_score":277.8,"n_per":93,"n_hog":27,"source_year":2024},"geometry":{"type":"Polygon","coordinates":[[[-71.2557711509999,-30.8297421541691],[-71.2560739539999,-30.8287437871691],[-71.2557376159999,-30.8286593651691],[-71.2554737109999,-30.8296545761691],[-71.2557711509999,-30.8297421541691]]]}},{"type":"Feature","properties":{"id":"4304011002059","commune":"Punitaqui","code":"04304","gse":"C3","quintil":"Q2","nse_score":685.1,"educ":10.6,"educ_score":506.7,"hacin":1.294,"hacin_class":"Hacinamiento Leve","hacin_score":788.5,"auto_score":83.3,"n_per":66,"n_hog":24,"source_year":2024},"geometry":{"type":"Polygon","coordinates":[[[-71.2559308649999,-30.8297648631691],[-71.2562481069999,-30.8297869501691],[-71.2564795659999,-30.8287905341691],[-71.2561235759999,-30.8287429231691],[-71.2559308649999,-30.8297648631691]]]}},{"type":"Feature","properties":{"id":"4304011002060","commune":"Punitaqui","code":"04304","gse":"C3","quintil":"Q3","nse_score":708.7,"educ":11.2,"educ_score":546.7,"hacin":1.277,"hacin_class":"Hacinamiento Leve","hacin_score":792.2,"auto_score":95.2,"n_per":60,"n_hog":21,"source_year":2024},"geometry":{"type":"Polygon","coordinates":[[[-71.2565951239999,-30.8298892411691],[-71.2568979189999,-30.8288908721691],[-71.2565615799999,-30.8288064531691],[-71.2562976829999,-30.8298016651691],[-71.2565951239999,-30.8298892411691]]]}},{"type":"Feature","properties":{"id":"4304011002061","commune":"Punitaqui","code":"04304","gse":"C2","quintil":"Q3","nse_score":725.0,"educ":11.5,"educ_score":566.7,"hacin":1.109,"hacin_class":"Hacinamiento Leve","hacin_score":827.9,"auto_score":68.2,"n_per":61,"n_hog":22,"source_year":2024},"geometry":{"type":"Polygon","coordinates":[[[-71.2570104579999,-30.8299655561691],[-71.2573132489999,-30.8289671871691],[-71.2569769099999,-30.8288827681691],[-71.2567130169999,-30.8298779811691],[-71.2570104579999,-30.8299655561691]]]}},{"type":"Feature","properties":{"id":"4304011002062","commune":"Punitaqui","code":"04304","gse":"C3","quintil":"Q2","nse_score":686.2,"educ":11.1,"educ_score":540.0,"hacin":1.224,"hacin_class":"Hacinamiento Leve","hacin_score":803.4,"auto_score":0.0,"n_per":71,"n_hog":24,"source_year":2024},"geometry":{"type":"Polygon","coordinates":[[[-71.2574177569999,-30.8300490911691],[-71.2577205439999,-30.8290507211691],[-71.2573842039999,-30.8289663041691],[-71.257120315,-30.8299615161691],[-71.2574177569999,-30.8300490911691]]]}},{"type":"Feature","properties":{"id":"4304011002063","commune":"Punitaqui","code":"04304","gse":"C3","quintil":"Q3","nse_score":691.2,"educ":12.0,"educ_score":600.0,"hacin":1.349,"hacin_class":"Hacinamiento Leve","hacin_score":776.8,"auto_score":68.2,"n_per":58,"n_hog":22,"source_year":2024},"geometry":{"type":"Polygon","coordinates":[[[-71.2575791129999,-30.8300717691691],[-71.2578963559999,-30.8300938531691],[-71.2581277979999,-30.8290974341691],[-71.2577718059999,-30.8290498271691],[-71.2575791129999,-30.8300717691691]]]}},{"type":"Feature","properties":{"id":"4304011002064","commune":"Punitaqui","code":"04304","gse":"D","quintil":"Q2","nse_score":644.0,"educ":9.7,"educ_score":446.7,"hacin":1.0,"hacin_class":"Hacinamiento Leve","hacin_score":851.1,"auto_score":0.0,"n_per":29,"n_hog":10,"source_year":2024},"geometry":{"type":"Polygon","coordinates":[[[-71.2516822919999,-30.8307992661691],[-71.2519745509999,-30.8306333241691],[-71.2510592529999,-30.8295768211691],[-71.250496112,-30.8299148181691],[-71.2513156809999,-30.8309968571691],[-71.2516583659999,-30.8308155481691],[-71.2514045739999,-30.8304386001691],[-71.2516822919999,-30.8307992661691]]]}},{"type":"Feature","properties":{"id":"4304011002065","commune":"Punitaqui","code":"04304","gse":"C3","quintil":"Q3","nse_score":688.7,"educ":10.8,"educ_score":520.0,"hacin":1.125,"hacin_class":"Hacinamiento Leve","hacin_score":824.5,"auto_score":83.3,"n_per":18,"n_hog":7,"source_year":2024},"geometry":{"type":"Polygon","coordinates":[[[-71.2529630299999,-30.8306550121691],[-71.2529100429999,-30.8303594091691],[-71.2516332369999,-30.8301789121691],[-71.2521114569999,-30.8307064331691],[-71.2529630299999,-30.8306550121691]]]}},{"type":"Feature","properties":{"id":"4304011002066","commune":"Punitaqui","code":"04304","gse":"D","quintil":"Q1","nse_score":629.6,"educ":10.7,"educ_score":513.3,"hacin":1.094,"hacin_class":"Hacinamiento Leve","hacin_score":831.1,"auto_score":83.3,"n_per":70,"n_hog":26,"source_year":2024},"geometry":{"type":"Polygon","coordinates":[[[-71.2574314749999,-30.8315287521691],[-71.2576472289999,-30.830860806169],[-71.2555142189999,-30.8305269421691],[-71.255519477,-30.8311726251691],[-71.2574314749999,-30.8315287521691]]]}},{"type":"Feature","properties":{"id":"4304011002067","commune":"Punitaqui","code":"04304","gse":"D","quintil":"Q2","nse_score":650.4,"educ":11.2,"educ_score":546.7,"hacin":1.462,"hacin_class":"Hacinamiento Leve","hacin_score":752.9,"auto_score":264.7,"n_per":57,"n_hog":18,"source_year":2024},"geometry":{"type":"Polygon","coordinates":[[[-71.2519959529999,-30.8306577591691],[-71.2513317279999,-30.8310200821691],[-71.2521700279999,-30.8320118601691],[-71.2523872319999,-30.832598626169],[-71.2523534679999,-30.8330939891691],[-71.2520327269999,-30.833639725169],[-71.2527696529999,-30.832986732169],[-71.253109676,-30.832543571169],[-71.2531524049999,-30.8322652581691],[-71.2529376629999,-30.8317489041691],[-71.2519959529999,-30.8306577591691]]]}},{"type":"Feature","properties":{"id":"4304011002068","commune":"Punitaqui","code":"04304","gse":"C3","quintil":"Q2","nse_score":668.7,"educ":11.3,"educ_score":553.3,"hacin":1.125,"hacin_class":"Hacinamiento Leve","hacin_score":824.5,"auto_score":250.0,"n_per":9,"n_hog":5,"source_year":2024},"geometry":{"type":"Polygon","coordinates":[[[-71.2529774899999,-30.8307888421691],[-71.2521816049999,-30.8307789181691],[-71.2530974819999,-30.8317100991691],[-71.2529774899999,-30.8307888421691]]]}},{"type":"Feature","properties":{"id":"4304011002069","commune":"Punitaqui","code":"04304","gse":"C3","quintil":"Q2","nse_score":688.4,"educ":12.0,"educ_score":600.0,"hacin":1.556,"hacin_class":"Hacinamiento Medio","hacin_score":732.9,"auto_score":571.4,"n_per":28,"n_hog":7,"source_year":2024},"geometry":{"type":"Polygon","coordinates":[[[-71.2530308459999,-30.8307546331691],[-71.2530799699999,-30.831127904169],[-71.2553077319999,-30.8315711291691],[-71.2553278869999,-30.8311904781691],[-71.2530308459999,-30.8307546331691]]]}},{"type":"Feature","properties":{"id":"4304011002070","commune":"Punitaqui","code":"04304","gse":"C3","quintil":"Q2","nse_score":669.8,"educ":12.0,"educ_score":600.0,"hacin":1.4,"hacin_class":"Hacinamiento Leve","hacin_score":766.0,"auto_score":38.5,"n_per":42,"n_hog":13,"source_year":2024},"geometry":{"type":"Polygon","coordinates":[[[-71.2531508009999,-30.8317405021691],[-71.255077518,-30.8321684581691],[-71.255297589,-30.831614072169],[-71.2531015969999,-30.8311815811691],[-71.2531508009999,-30.8317405021691]]]}},{"type":"Feature","properties":{"id":"4304011002071","commune":"Punitaqui","code":"04304","gse":"C3","quintil":"Q2","nse_score":680.8,"educ":12.0,"educ_score":600.0,"hacin":1.385,"hacin_class":"Hacinamiento Leve","hacin_score":769.2,"auto_score":150.0,"n_per":36,"n_hog":10,"source_year":2024},"geometry":{"type":"Polygon","coordinates":[[[-71.2573742529999,-30.831951556169],[-71.2574558159999,-30.8315870991691],[-71.2554479589999,-30.8312722951691],[-71.2553904389999,-30.8315669341691],[-71.2573742529999,-30.831951556169]]]}},{"type":"Feature","properties":{"id":"4304011002072","commune":"Punitaqui","code":"04304","gse":"D","quintil":"Q1","nse_score":628.0,"educ":10.4,"educ_score":493.3,"hacin":1.468,"hacin_class":"Hacinamiento Leve","hacin_score":751.5,"auto_score":26.3,"n_per":69,"n_hog":23,"source_year":2024},"geometry":{"type":"Polygon","coordinates":[[[-71.2571270839999,-30.8326167221691],[-71.257373405,-30.832005489169],[-71.2553758839999,-30.8316203091691],[-71.2552317519999,-30.832202238169],[-71.2571270839999,-30.8326167221691]]]}},{"type":"Feature","properties":{"id":"4304011002074","commune":"Punitaqui","code":"04304","gse":"D","quintil":"Q2","nse_score":640.1,"educ":9.9,"educ_score":460.0,"hacin":1.1,"hacin_class":"Hacinamiento Leve","hacin_score":829.8,"auto_score":142.9,"n_per":33,"n_hog":14,"source_year":2024},"geometry":{"type":"Polygon","coordinates":[[[-71.2546190769999,-30.832774025169],[-71.2548066859999,-30.832168595169],[-71.2534646479999,-30.8319019741691],[-71.2533062979999,-30.8324995231691],[-71.2546190769999,-30.832774025169]]]}},{"type":"Feature","properties":{"id":"4304011002076","commune":"Punitaqui","code":"04304","gse":"C3","quintil":"Q3","nse_score":694.6,"educ":11.3,"educ_score":553.3,"hacin":1.045,"hacin_class":"Hacinamiento Leve","hacin_score":841.5,"auto_score":104.2,"n_per":70,"n_hog":28,"source_year":2024},"geometry":{"type":"Polygon","coordinates":[[[-71.2549777009999,-30.832882531169],[-71.2571413669999,-30.833331995169],[-71.2573091229999,-30.832716576169],[-71.2551523139999,-30.8322790331691],[-71.2549777009999,-30.832882531169]]]}},{"type":"Feature","properties":{"id":"4304011002014","commune":"Punitaqui","code":"04304","gse":"C3","quintil":"Q2","nse_score":669.9,"educ":11.0,"educ_score":533.3,"hacin":0.667,"hacin_class":"Sin Hacinamiento","hacin_score":922.0,"auto_score":0.0,"n_per":4,"n_hog":4,"source_year":2024},"geometry":{"type":"MultiPolygon","coordinates":[[[[-71.2576725529999,-30.8253228631692],[-71.2564097739999,-30.8253562011691],[-71.2559555039999,-30.8254046631691],[-71.2558227069999,-30.8255548671691],[-71.2559563039999,-30.8255830251692],[-71.2559551189999,-30.8256677211691],[-71.2558958719999,-30.8256829831691],[-71.256043529,-30.8256939671692],[-71.2576765789999,-30.8255649581691],[-71.2576725529999,-30.8253228631692]]],[[[-71.2551679169999,-30.8252765231692],[-71.2550098559999,-30.8255005051691],[-71.2559296939999,-30.8256490151692],[-71.2557947569999,-30.8255692661692],[-71.2559241949999,-30.8254068331691],[-71.2551679169999,-30.8252765231692]]]]}},{"type":"Feature","properties":{"id":"4304011002020","commune":"Punitaqui","code":"04304","gse":"E","quintil":"Q1","nse_score":512.7,"educ":9.5,"educ_score":433.3,"hacin":1.25,"hacin_class":"Hacinamiento Leve","hacin_score":797.9,"auto_score":0.0,"n_per":10,"n_hog":4,"source_year":2024},"geometry":{"type":"MultiPolygon","coordinates":[[[[-71.2549682069999,-30.8259416111692],[-71.2549883259999,-30.8262736901691],[-71.2559390429999,-30.8263132401691],[-71.2559609989999,-30.8259646651692],[-71.2549682069999,-30.8259416111692]]],[[[-71.2572062539999,-30.8258994571691],[-71.2560009829999,-30.8259384131692],[-71.2559863069999,-30.8261529391692],[-71.2571506589999,-30.8261036431692],[-71.2572062539999,-30.8258994571691]]]]}},{"type":"Feature","properties":{"id":"4304011002016","commune":"Punitaqui","code":"04304","gse":"E","quintil":"Q1","nse_score":521.7,"educ":9.4,"educ_score":426.7,"hacin":1.263,"hacin_class":"Hacinamiento Leve","hacin_score":795.1,"auto_score":0.0,"n_per":24,"n_hog":8,"source_year":2024},"geometry":{"type":"MultiPolygon","coordinates":[[[[-71.2549205319999,-30.8259507621691],[-71.254304337,-30.8260166821691],[-71.2542702239999,-30.8262162571691],[-71.2549595819999,-30.8262728861691],[-71.2549205319999,-30.8259507621691]]],[[[-71.2539661799999,-30.8258510301692],[-71.2537319079999,-30.8257211171692],[-71.2536173119999,-30.8259394351692],[-71.2538423469999,-30.8261592661691],[-71.2542370959999,-30.8262252351691],[-71.2543888069999,-30.8256682621692],[-71.2540208819999,-30.8255132241692],[-71.2537995349999,-30.8256738461691],[-71.2539661799999,-30.8258510301692]]]]}},{"type":"Feature","properties":{"id":"4304011002002","commune":"Punitaqui","code":"04304","gse":"D","quintil":"Q1","nse_score":625.9,"educ":10.2,"educ_score":480.0,"hacin":1.215,"hacin_class":"Hacinamiento Leve","hacin_score":805.4,"auto_score":100.0,"n_per":164,"n_hog":63,"source_year":2024},"geometry":{"type":"MultiPolygon","coordinates":[[[[-71.2527937999999,-30.8246479681692],[-71.2520773969999,-30.8247867721691],[-71.2535209569999,-30.8260750411692],[-71.2536933799999,-30.8255429981692],[-71.2537218669999,-30.8242339571692],[-71.2534226269999,-30.8234621341692],[-71.2534420099999,-30.8233448541692],[-71.2538407429999,-30.8228190821692],[-71.2532418549999,-30.8232766191692],[-71.253020735,-30.8236144841692],[-71.2529444969999,-30.8243512541692],[-71.2527937999999,-30.8246479681692]]],[[[-71.2546666889999,-30.8218511161692],[-71.253482189,-30.8233572161692],[-71.2537574239999,-30.8242106791692],[-71.2537192219999,-30.8256657561691],[-71.2540503289999,-30.8254390701692],[-71.2540939939999,-30.8252712011692],[-71.2539991039999,-30.8241084111692],[-71.2541313099999,-30.8251827491692],[-71.2541037969999,-30.8254098151692],[-71.2543458469999,-30.8250940441692],[-71.2542634269999,-30.8244549071692],[-71.2542997039999,-30.8240843561692],[-71.2544110529999,-30.8238198941692],[-71.254287615,-30.8244544861692],[-71.2543689199999,-30.8250705981692],[-71.2548401889999,-30.8241989121692],[-71.2549374979999,-30.8235882621692],[-71.2552862649999,-30.8230897601692],[-71.2552210309999,-30.8230080091692],[-71.25453934,-30.8234538391692],[-71.2545801549999,-30.8233280931692],[-71.2553921639999,-30.8228792221692],[-71.2553484389999,-30.8232265751692],[-71.2555151609999,-30.8235902391692],[-71.2561777859999,-30.8237167741692],[-71.2570952849999,-30.8242162721692],[-71.2574862549999,-30.8245847441692],[-71.2577278439999,-30.8255817661691],[-71.2572680829999,-30.8256605901691],[-71.2571766249999,-30.8261253851692],[-71.2577099189999,-30.8261836061691],[-71.2581474549999,-30.8260671491691],[-71.2584038489999,-30.8258679331691],[-71.2584379559999,-30.8255293991692],[-71.2584195079999,-30.8258752971691],[-71.2583639759999,-30.8259602731692],[-71.2581566129999,-30.8260803541692],[-71.2577147439999,-30.8262007051692],[-71.2571721529999,-30.8261407601691],[-71.2571369379999,-30.8264741431691],[-71.2580034409999,-30.8266555541692],[-71.2584876359999,-30.8263444031692],[-71.2580483929999,-30.8266830941691],[-71.2603574519999,-30.8275650901691],[-71.2599855869999,-30.8261922291692],[-71.2600604049999,-30.8233696391692],[-71.2588408749999,-30.8230432681692],[-71.2589235699999,-30.8224538871692],[-71.2601060669999,-30.8226566871692],[-71.260128145,-30.8220516861692],[-71.2598514689999,-30.8219389721692],[-71.2598098049999,-30.8218853531692],[-71.2601430549999,-30.8219876971692],[-71.2598936219999,-30.8196057991692],[-71.2575651059999,-30.8200925051692],[-71.2554712979999,-30.8206876111692],[-71.2551528659999,-30.8208765551692],[-71.2546666889999,-30.8218511161692]]]]}},{"type":"Feature","properties":{"id":"4304011002046","commune":"Punitaqui","code":"04304","gse":"E","quintil":"Q1","nse_score":501.4,"educ":10.8,"educ_score":520.0,"hacin":1.188,"hacin_class":"Hacinamiento Leve","hacin_score":811.2,"auto_score":0.0,"n_per":19,"n_hog":6,"source_year":2024},"geometry":{"type":"MultiPolygon","coordinates":[[[[-71.2483949829999,-30.8279927821692],[-71.2492964959999,-30.8283060371691],[-71.2495228309999,-30.8283781971691],[-71.2489281219999,-30.8279788221691],[-71.2483949829999,-30.8279927821692]]],[[[-71.2487648239999,-30.8278989881691],[-71.2491291559999,-30.8280406511691],[-71.2496599629999,-30.8284598241691],[-71.2503067289999,-30.8279533101691],[-71.2487648239999,-30.8278989881691]]]]}},{"type":"Feature","properties":{"id":"4304013073007","commune":"Punitaqui","code":"04304","gse":"D","quintil":"Q1","nse_score":604.7,"educ":9.7,"educ_score":446.7,"hacin":1.458,"hacin_class":"Hacinamiento Leve","hacin_score":753.5,"auto_score":50.0,"n_per":35,"n_hog":9,"source_year":2024},"geometry":{"type":"Polygon","coordinates":[[[-71.2528139619999,-30.7896510401698],[-71.2536377759999,-30.7905451471697],[-71.2539253109999,-30.7903418681697],[-71.2531648499999,-30.7895144761697],[-71.2528139619999,-30.7896510401698]]]}},{"type":"Feature","properties":{"id":"4304013073008","commune":"Punitaqui","code":"04304","gse":"D","quintil":"Q1","nse_score":620.8,"educ":8.9,"educ_score":393.3,"hacin":1.167,"hacin_class":"Hacinamiento Leve","hacin_score":815.6,"auto_score":156.2,"n_per":42,"n_hog":17,"source_year":2024},"geometry":{"type":"Polygon","coordinates":[[[-71.2517577809999,-30.7897328481697],[-71.2531295279999,-30.7908439901697],[-71.2535898849999,-30.7905800911697],[-71.2527432349999,-30.7896611981697],[-71.2519347949999,-30.7895240161697],[-71.2517577809999,-30.7897328481697]]]}},{"type":"Feature","properties":{"id":"4304013073009","commune":"Punitaqui","code":"04304","gse":"D","quintil":"Q1","nse_score":610.6,"educ":9.3,"educ_score":420.0,"hacin":0.938,"hacin_class":"Sin Hacinamiento","hacin_score":864.4,"auto_score":166.7,"n_per":15,"n_hog":6,"source_year":2024},"geometry":{"type":"Polygon","coordinates":[[[-71.2536767979999,-30.7905874971697],[-71.2544893259999,-30.7914693361697],[-71.2548979949999,-30.7914001371697],[-71.2539642749999,-30.7903842601697],[-71.2536767979999,-30.7905874971697]]]}},{"type":"Feature","properties":{"id":"4304013073010","commune":"Punitaqui","code":"04304","gse":"D","quintil":"Q1","nse_score":617.9,"educ":9.1,"educ_score":406.7,"hacin":1.35,"hacin_class":"Hacinamiento Leve","hacin_score":776.6,"auto_score":277.8,"n_per":27,"n_hog":9,"source_year":2024},"geometry":{"type":"Polygon","coordinates":[[[-71.2531801709999,-30.7908866041697],[-71.2539978339999,-30.7916057811697],[-71.2544203589999,-30.7914814071697],[-71.2536289449999,-30.7906224831697],[-71.2531801709999,-30.7908866041697]]]}},{"type":"Feature","properties":{"id":"4304013073011","commune":"Punitaqui","code":"04304","gse":"D","quintil":"Q1","nse_score":607.9,"educ":10.2,"educ_score":480.0,"hacin":1.357,"hacin_class":"Hacinamiento Leve","hacin_score":775.1,"auto_score":83.3,"n_per":19,"n_hog":5,"source_year":2024},"geometry":{"type":"Polygon","coordinates":[[[-71.2528407359999,-30.7913216181697],[-71.2536297739999,-30.7921858901697],[-71.2538847519999,-30.7920623461697],[-71.2535049319999,-30.7914045251697],[-71.2530476179999,-30.7911141881697],[-71.2528407359999,-30.7913216181697]]]}},{"type":"Feature","properties":{"id":"4304013073012","commune":"Punitaqui","code":"04304","gse":"C2","quintil":"Q4","nse_score":767.5,"educ":12.8,"educ_score":653.3,"hacin":1.143,"hacin_class":"Hacinamiento Leve","hacin_score":820.7,"auto_score":300.0,"n_per":16,"n_hog":5,"source_year":2024},"geometry":{"type":"Polygon","coordinates":[[[-71.2528426479999,-30.7913923901697],[-71.2525928449999,-30.7916002781697],[-71.2533527759999,-30.7923144581697],[-71.2535929879999,-30.7922032821697],[-71.2528426479999,-30.7913923901697]]]}},{"type":"Feature","properties":{"id":"4304013073019","commune":"Punitaqui","code":"04304","gse":"E","quintil":"Q1","nse_score":485.6,"educ":7.1,"educ_score":273.3,"hacin":1.454,"hacin_class":"Hacinamiento Leve","hacin_score":754.4,"auto_score":0.0,"n_per":16,"n_hog":4,"source_year":2024},"geometry":{"type":"Polygon","coordinates":[[[-71.2527077139999,-30.7939565571697],[-71.252795106,-30.7939183211696],[-71.2541003979999,-30.7935576791697],[-71.2538979789999,-30.7933366761697],[-71.2526548829999,-30.7934626771696],[-71.252566408,-30.7935097021697],[-71.2527077139999,-30.7939565571697]]]}},{"type":"Feature","properties":{"id":"4304013073020","commune":"Punitaqui","code":"04304","gse":"D","quintil":"Q2","nse_score":638.4,"educ":9.0,"educ_score":400.0,"hacin":1.421,"hacin_class":"Hacinamiento Leve","hacin_score":761.5,"auto_score":62.5,"n_per":27,"n_hog":9,"source_year":2024},"geometry":{"type":"Polygon","coordinates":[[[-71.2575783999999,-30.7976105871696],[-71.2576018359999,-30.7968962911696],[-71.2568309329999,-30.7968314291696],[-71.2564777369999,-30.7948062571696],[-71.2562122299999,-30.7947948711697],[-71.2561506059999,-30.7935440631697],[-71.2554000459999,-30.7935521811697],[-71.2554342559999,-30.7947209551697],[-71.2559569739999,-30.7975700331696],[-71.2575783999999,-30.7976105871696]]]}},{"type":"Feature","properties":{"id":"4304013073021","commune":"Punitaqui","code":"04304","gse":"D","quintil":"Q1","nse_score":609.2,"educ":7.1,"educ_score":273.3,"hacin":0.75,"hacin_class":"Sin Hacinamiento","hacin_score":904.3,"auto_score":71.4,"n_per":15,"n_hog":7,"source_year":2024},"geometry":{"type":"Polygon","coordinates":[[[-71.2513027939999,-30.7943388571697],[-71.2523207069999,-30.7944964761696],[-71.2544739029999,-30.7947546371696],[-71.2544350849999,-30.7938202101696],[-71.2543819909999,-30.7936182741696],[-71.2542307259999,-30.7935771121696],[-71.2521017599999,-30.7942527851697],[-71.2513027939999,-30.7943388571697]]]}},{"type":"Feature","properties":{"id":"4304013073022","commune":"Punitaqui","code":"04304","gse":"D","quintil":"Q2","nse_score":663.0,"educ":9.8,"educ_score":453.3,"hacin":0.871,"hacin_class":"Sin Hacinamiento","hacin_score":878.5,"auto_score":45.5,"n_per":27,"n_hog":11,"source_year":2024},"geometry":{"type":"Polygon","coordinates":[[[-71.2544536869999,-30.7936405331696],[-71.2545369359999,-30.7948773631697],[-71.2553830439999,-30.7948186231697],[-71.2553164029999,-30.7937939021697],[-71.2544536869999,-30.7936405331696]]]}},{"type":"Feature","properties":{"id":"4304013073023","commune":"Punitaqui","code":"04304","gse":"D","quintil":"Q1","nse_score":614.3,"educ":10.5,"educ_score":500.0,"hacin":1.37,"hacin_class":"Hacinamiento Leve","hacin_score":772.3,"auto_score":21.7,"n_per":74,"n_hog":24,"source_year":2024},"geometry":{"type":"Polygon","coordinates":[[[-71.2545625699999,-30.7957459001696],[-71.2543728809999,-30.7971010181696],[-71.2541505649999,-30.7975178721696],[-71.2537038499999,-30.7978003881696],[-71.2536769819999,-30.7982342851696],[-71.252523902,-30.7989418461696],[-71.2529318859999,-30.7989318681696],[-71.2544087449999,-30.7993806031695],[-71.2542896349999,-30.7992609511696],[-71.2540868869999,-30.7977143251696],[-71.2545958969999,-30.7976462041696],[-71.2544801669999,-30.7966150891696],[-71.2556689149999,-30.7964906981696],[-71.2555149609999,-30.7956235851696],[-71.2546374129999,-30.7957488591696],[-71.25550863,-30.7955879261696],[-71.2553886079999,-30.7948544211697],[-71.2545380079999,-30.7949134441696],[-71.2545625699999,-30.7957459001696]]]}},{"type":"Feature","properties":{"id":"4304013073024","commune":"Punitaqui","code":"04304","gse":"D","quintil":"Q1","nse_score":606.7,"educ":9.5,"educ_score":433.3,"hacin":1.133,"hacin_class":"Hacinamiento Leve","hacin_score":822.9,"auto_score":81.1,"n_per":94,"n_hog":37,"source_year":2024},"geometry":{"type":"Polygon","coordinates":[[[-71.2554378629999,-30.7994930071696],[-71.2562101579999,-30.7995169981696],[-71.2556785449999,-30.7965441931696],[-71.2550305139999,-30.7966132341696],[-71.2554378629999,-30.7994930071696]]]}},{"type":"Feature","properties":{"id":"4304013073025","commune":"Punitaqui","code":"04304","gse":"C3","quintil":"Q3","nse_score":693.9,"educ":11.0,"educ_score":533.3,"hacin":1.074,"hacin_class":"Hacinamiento Leve","hacin_score":835.3,"auto_score":150.0,"n_per":29,"n_hog":10,"source_year":2024},"geometry":{"type":"Polygon","coordinates":[[[-71.2545353239999,-30.7966594751696],[-71.2546582609999,-30.7976407571696],[-71.2550971359999,-30.7976055001696],[-71.2549682439999,-30.7966194291696],[-71.2545353239999,-30.7966594751696]]]}},{"type":"Feature","properties":{"id":"4304013073026","commune":"Punitaqui","code":"04304","gse":"E","quintil":"Q1","nse_score":578.9,"educ":10.7,"educ_score":513.3,"hacin":1.385,"hacin_class":"Hacinamiento Leve","hacin_score":769.2,"auto_score":71.4,"n_per":18,"n_hog":5,"source_year":2024},"geometry":{"type":"Polygon","coordinates":[[[-71.2525598759999,-30.7979935751696],[-71.2517022999999,-30.7981562281696],[-71.2524227979999,-30.7989421561696],[-71.2536743639999,-30.7981719571696],[-71.2536711509999,-30.7977500631696],[-71.2540192959999,-30.7976092051696],[-71.2529443609999,-30.7974110811696],[-71.2528628229999,-30.7977066901696],[-71.2526739009999,-30.7976670161696],[-71.2525598759999,-30.7979935751696]]]}},{"type":"Feature","properties":{"id":"4304013073028","commune":"Punitaqui","code":"04304","gse":"E","quintil":"Q1","nse_score":580.6,"educ":9.6,"educ_score":440.0,"hacin":1.652,"hacin_class":"Hacinamiento Medio","hacin_score":712.3,"auto_score":181.8,"n_per":38,"n_hog":10,"source_year":2024},"geometry":{"type":"Polygon","coordinates":[[[-71.2546648309999,-30.7976945711696],[-71.2547866849999,-30.7987187471696],[-71.2552383839999,-30.7986860911696],[-71.2551041659999,-30.7976592791696],[-71.2546648309999,-30.7976945711696]]]}},{"type":"Feature","properties":{"id":"4304013073029","commune":"Punitaqui","code":"04304","gse":"D","quintil":"Q1","nse_score":629.3,"educ":9.1,"educ_score":406.7,"hacin":1.25,"hacin_class":"Hacinamiento Leve","hacin_score":797.9,"auto_score":45.5,"n_per":35,"n_hog":13,"source_year":2024},"geometry":{"type":"Polygon","coordinates":[[[-71.2541524809999,-30.7977424361696],[-71.2542838929999,-30.7987605221696],[-71.2547242539999,-30.7987236231696],[-71.2546024679999,-30.7977000151696],[-71.2541524809999,-30.7977424361696]]]}},{"type":"Feature","properties":{"id":"4304013073030","commune":"Punitaqui","code":"04304","gse":"D","quintil":"Q2","nse_score":655.4,"educ":10.3,"educ_score":486.7,"hacin":1.308,"hacin_class":"Hacinamiento Leve","hacin_score":785.6,"auto_score":83.3,"n_per":34,"n_hog":12,"source_year":2024},"geometry":{"type":"Polygon","coordinates":[[[-71.2543505659999,-30.7992471291696],[-71.2553076199999,-30.7992157741696],[-71.2552454149999,-30.7987398821696],[-71.2542908359999,-30.7988143041696],[-71.2543505659999,-30.7992471291696]]]}},{"type":"Feature","properties":{"id":"4304013073014","commune":"Punitaqui","code":"04304","gse":"D","quintil":"Q1","nse_score":628.2,"educ":9.0,"educ_score":400.0,"hacin":1.111,"hacin_class":"Hacinamiento Leve","hacin_score":827.4,"auto_score":100.0,"n_per":10,"n_hog":5,"source_year":2024},"geometry":{"type":"MultiPolygon","coordinates":[[[[-71.2561342299999,-30.7926682451697],[-71.2553903129999,-30.7926811851697],[-71.2554016129999,-30.7935201141696],[-71.2561510459999,-30.7935114221696],[-71.2561342299999,-30.7926682451697]]],[[[-71.2554916809999,-30.7926472351697],[-71.2564368799999,-30.7925905201697],[-71.2565026419999,-30.7920887551697],[-71.2561776419999,-30.7920936961697],[-71.2554916809999,-30.7926472351697]]]]}},{"type":"Feature","properties":{"id":"4304013073001","commune":"Punitaqui","code":"04304","gse":"D","quintil":"Q1","nse_score":617.2,"educ":10.4,"educ_score":493.3,"hacin":1.346,"hacin_class":"Hacinamiento Leve","hacin_score":777.4,"auto_score":0.0,"n_per":35,"n_hog":12,"source_year":2024},"geometry":{"type":"MultiPolygon","coordinates":[[[[-71.2536779029999,-30.7915883181697],[-71.2538466399999,-30.7915931861697],[-71.2513571499999,-30.7894995051697],[-71.2504891339999,-30.7895085751697],[-71.2524149929999,-30.7906356061697],[-71.2528131829999,-30.7907464111697],[-71.2536779029999,-30.7915883181697]]],[[[-71.2504927929999,-30.7887296651697],[-71.2499939909999,-30.7895676691697],[-71.2509749569999,-30.7894317801697],[-71.2504927929999,-30.7887296651697]]]]}},{"type":"Feature","properties":{"id":"4304013073002","commune":"Punitaqui","code":"04304","gse":"D","quintil":"Q2","nse_score":660.0,"educ":11.3,"educ_score":553.3,"hacin":1.189,"hacin_class":"Hacinamiento Leve","hacin_score":810.9,"auto_score":68.2,"n_per":63,"n_hog":20,"source_year":2024},"geometry":{"type":"MultiPolygon","coordinates":[[[[-71.2532168909999,-30.7894840441697],[-71.2549686279999,-30.7913899321697],[-71.2552793009999,-30.7913450651697],[-71.2548547619999,-30.7906219431697],[-71.2539710489999,-30.7896952631697],[-71.2534548749999,-30.7893509701697],[-71.2532168909999,-30.7894840441697]]],[[[-71.2552032509999,-30.7911462471697],[-71.2552373879999,-30.7902870361697],[-71.2539731399999,-30.7890691411697],[-71.2534668259999,-30.7893120531697],[-71.2540021399999,-30.7896711161697],[-71.2548881689999,-30.7906001421697],[-71.2552032509999,-30.7911462471697]]]]}},{"type":"Feature","properties":{"id":"4304013073013","commune":"Punitaqui","code":"04304","gse":"C3","quintil":"Q3","nse_score":698.8,"educ":11.8,"educ_score":586.7,"hacin":1.385,"hacin_class":"Hacinamiento Leve","hacin_score":769.2,"auto_score":250.0,"n_per":18,"n_hog":6,"source_year":2024},"geometry":{"type":"MultiPolygon","coordinates":[[[[-71.2544332519999,-30.7935869871697],[-71.2553167019999,-30.7937578261696],[-71.2553077429999,-30.7925982391696],[-71.2544515469999,-30.7926786371697],[-71.2545741589999,-30.7933943881697],[-71.2544332519999,-30.7935869871697]]],[[[-71.25528184,-30.7913995601697],[-71.2537439719999,-30.7916827491697],[-71.2542804829999,-30.7926294761697],[-71.2553078759999,-30.7925618521697],[-71.25528184,-30.7913995601697]]]]}},{"type":"Feature","properties":{"id":"4304013073027","commune":"Punitaqui","code":"04304","gse":"D","quintil":"Q1","nse_score":612.8,"educ":10.4,"educ_score":493.3,"hacin":1.625,"hacin_class":"Hacinamiento Medio","hacin_score":718.1,"auto_score":375.0,"n_per":26,"n_hog":9,"source_year":2024},"geometry":{"type":"MultiPolygon","coordinates":[[[[-71.2563414099999,-30.8000463311695],[-71.2569813989999,-30.8000539881696],[-71.2576952919999,-30.7996594851696],[-71.25631053,-30.7996118841696],[-71.2563414099999,-30.8000463311695]]],[[[-71.2563078169999,-30.7995620341696],[-71.2577156979999,-30.7996246361695],[-71.2577123379999,-30.7994851601696],[-71.2572751839999,-30.7993204261696],[-71.2569859569999,-30.7976465141696],[-71.2559667959999,-30.7976147181696],[-71.2563078169999,-30.7995620341696]]]]}}]}