{"type":"FeatureCollection","features":[{"type":"Feature","properties":{"id":"10206013033001","commune":"Puqueldón","code":"10206","gse":"C3","quintil":"Q2","nse_score":677.8,"educ":11.4,"educ_score":560.0,"hacin":1.151,"hacin_class":"Hacinamiento Leve","hacin_score":819.0,"auto_score":132.7,"n_per":107,"n_hog":46,"source_year":2024},"geometry":{"type":"Polygon","coordinates":[[[-73.6726151199999,-42.5957113020599],[-73.6718795109999,-42.5969216840599],[-73.6723573109999,-42.5972667330598],[-73.6725601759999,-42.5967762080599],[-73.6732592059999,-42.5962111380599],[-73.6725904029999,-42.5967915700599],[-73.6723875849999,-42.5972873490599],[-73.6731284649999,-42.5974665020599],[-73.6731443589999,-42.5989751160599],[-73.6734865059999,-42.5992649660599],[-73.6739255819999,-42.5993770560599],[-73.6759592669999,-42.5994264570599],[-73.6759304579999,-42.5985767450599],[-73.6748814219999,-42.5985407820599],[-73.6747952139999,-42.5990183950598],[-73.674834271,-42.5985199920599],[-73.6745985259999,-42.5983907220599],[-73.6744399689999,-42.5981326320599],[-73.6744611829999,-42.5979320780599],[-73.6746609739999,-42.5983617320599],[-73.6748971919999,-42.5984868610599],[-73.6759959019999,-42.5985322300599],[-73.6760145579999,-42.5989487010599],[-73.6774286479999,-42.5989044060599],[-73.6775141779999,-42.5994572680599],[-73.6784002159999,-42.5993486100599],[-73.6785802809999,-42.5984382490599],[-73.6782748989999,-42.5982908080599],[-73.6781918539999,-42.5981162050599],[-73.6782764379999,-42.5977124570599],[-73.6783137279999,-42.5982671900599],[-73.678629209,-42.5984295040599],[-73.6784492169999,-42.5993771990599],[-73.6785670919999,-42.5994490680599],[-73.6790375949999,-42.5990406890599],[-73.6791789629999,-42.5990338500599],[-73.6785813319999,-42.5994798290599],[-73.6787650669999,-42.5998938070599],[-73.6786745429999,-42.6003257770599],[-73.6794527449999,-42.6005871520599],[-73.6795196369999,-42.6003126490599],[-73.6792852839999,-42.5994754720599],[-73.6792605969999,-42.5989556300599],[-73.6793328549999,-42.5989574840599],[-73.6793575279999,-42.5994670550599],[-73.6794522539999,-42.5998426180598],[-73.6795931409999,-42.6003134430599],[-73.6791928889999,-42.6012300380599],[-73.6785716649999,-42.6017987680599],[-73.6781862829999,-42.6023321130599],[-73.6781533379999,-42.6024728010598],[-73.6782588859999,-42.6024792970599],[-73.678354554,-42.6021151360599],[-73.678931314,-42.6015219630599],[-73.6792125979999,-42.6014894660599],[-73.6794426379999,-42.6012872050599],[-73.6796608759999,-42.6007274000599],[-73.6796601069999,-42.6003056510599],[-73.6794390179999,-42.5997789050599],[-73.6793384369999,-42.5990438690599],[-73.6796301369999,-42.5989757500599],[-73.6792846159999,-42.5984839380599],[-73.6791169879999,-42.5970741110599],[-73.6732533939999,-42.5972634970599],[-73.6733771069999,-42.5968081930599],[-73.6742589199999,-42.5964273840599],[-73.6726151199999,-42.5957113020599]]]}},{"type":"Feature","properties":{"id":"10206013033002","commune":"Puqueldón","code":"10206","gse":"C3","quintil":"Q2","nse_score":685.4,"educ":11.3,"educ_score":553.3,"hacin":1.4,"hacin_class":"Hacinamiento Leve","hacin_score":766.0,"auto_score":42.9,"n_per":98,"n_hog":35,"source_year":2024},"geometry":{"type":"Polygon","coordinates":[[[-73.6701501589999,-42.5969104650599],[-73.6694834479999,-42.5978335890599],[-73.6679866859999,-42.5990847910599],[-73.6673242099999,-42.6002510530599],[-73.6694705449999,-42.6008588390599],[-73.6702051809999,-42.6002874580599],[-73.6701035589999,-42.6001781770599],[-73.6700825109999,-42.6000394310598],[-73.6702262719999,-42.6002783290599],[-73.6705639059999,-42.6001781770599],[-73.6713020029999,-42.6003620320599],[-73.6715687939999,-42.6002437950599],[-73.6714817349999,-42.5999435610599],[-73.6711209039999,-42.5998627700599],[-73.6712054979999,-42.5995582740599],[-73.6711467259999,-42.5998563570599],[-73.6714809599999,-42.5999247160598],[-73.6715709639999,-42.5993975910599],[-73.671256045,-42.5993336140599],[-73.6712817299999,-42.5991869620598],[-73.6712816369999,-42.5993276930599],[-73.6715744109999,-42.5993796820599],[-73.6716108379999,-42.5988315690598],[-73.671278588,-42.5988106090599],[-73.6712521769999,-42.5989269460599],[-73.6712544869999,-42.5987998680599],[-73.6716114499999,-42.5988135340599],[-73.6716170669999,-42.5986486990599],[-73.6711005379999,-42.5978090840599],[-73.6704770709999,-42.5975946320599],[-73.6711383889999,-42.5977838330599],[-73.6716645859999,-42.5986397330598],[-73.6715515519999,-42.6000992500598],[-73.672269303,-42.5997924580599],[-73.6715684359999,-42.6001346620599],[-73.6716117669999,-42.6002255440599],[-73.6737771619999,-42.5993963110599],[-73.6732427829999,-42.5992033190598],[-73.6730739239999,-42.5989912280599],[-73.673064656,-42.5974967590599],[-73.6722636549999,-42.5972645300599],[-73.6719401049999,-42.5975754400599],[-73.6716893289999,-42.5974556450598],[-73.6719418469999,-42.5975552220598],[-73.6720387669999,-42.5974354360599],[-73.6718006999999,-42.5973139730599],[-73.6720512809999,-42.5974199710599],[-73.6722499769999,-42.5972492740599],[-73.6721462539999,-42.5971335800599],[-73.6708034719999,-42.5966288810599],[-73.6701501589999,-42.5969104650599]]]}},{"type":"Feature","properties":{"id":"10206013033005","commune":"Puqueldón","code":"10206","gse":"C3","quintil":"Q3","nse_score":695.3,"educ":10.6,"educ_score":506.7,"hacin":1.042,"hacin_class":"Hacinamiento Leve","hacin_score":842.1,"auto_score":185.7,"n_per":99,"n_hog":35,"source_year":2024},"geometry":{"type":"Polygon","coordinates":[[[-73.674066105,-42.6009247020599],[-73.6710859499999,-42.6038469670598],[-73.6712483919999,-42.6039558180598],[-73.6710702339999,-42.6038607490598],[-73.6709820549999,-42.6039380750598],[-73.6711900739999,-42.6039819970599],[-73.6737373519999,-42.6035388280599],[-73.6734726159999,-42.6029906680599],[-73.6737602539999,-42.6035328110598],[-73.6754291679999,-42.6028278290598],[-73.6758324979999,-42.6028172110599],[-73.6758543399999,-42.6025900870599],[-73.67594485,-42.6024824480599],[-73.6758569829999,-42.6028167010599],[-73.6764926949999,-42.6026987730598],[-73.6767209539999,-42.6022428730599],[-73.6765240949999,-42.6026881490599],[-73.6775801819999,-42.6024676380599],[-73.6788499599999,-42.6005021650599],[-73.6786019059999,-42.6003381330599],[-73.6786920039999,-42.5999002930599],[-73.6785033749999,-42.5994776240599],[-73.6781897309999,-42.5993569740599],[-73.6771423309999,-42.5996037530599],[-73.6773050659999,-42.5999116220599],[-73.6771724309999,-42.5999865230599],[-73.6772800899999,-42.5999100300599],[-73.6771191149999,-42.5996093440599],[-73.6766547649999,-42.5997213270599],[-73.6767471349999,-42.5999989240599],[-73.6766316469999,-42.5997268950599],[-73.6760760189999,-42.5998633700599],[-73.676194774,-42.6003027400599],[-73.6760414029999,-42.5999861490599],[-73.6752888189999,-42.6002295230599],[-73.6749785839999,-42.6003888080599],[-73.6751782109999,-42.6006833480599],[-73.6749584889999,-42.6003991250599],[-73.6745888299999,-42.6006126900599],[-73.6747783069999,-42.6009747270599],[-73.6749069299999,-42.6009717230598],[-73.6747607599999,-42.6009904000599],[-73.674568915,-42.6006245760598],[-73.674066105,-42.6009247020599]]]}},{"type":"Feature","properties":{"id":"10206013033006","commune":"Puqueldón","code":"10206","gse":"D","quintil":"Q2","nse_score":664.8,"educ":10.9,"educ_score":526.7,"hacin":1.292,"hacin_class":"Hacinamiento Leve","hacin_score":789.0,"auto_score":43.5,"n_per":62,"n_hog":21,"source_year":2024},"geometry":{"type":"Polygon","coordinates":[[[-73.6739061889999,-42.5994306690599],[-73.6714173579999,-42.6003704140599],[-73.6715803289999,-42.6004964790599],[-73.6723179189999,-42.6004034060599],[-73.6716202279999,-42.6005312530599],[-73.6718672749999,-42.6009182370598],[-73.6718434469999,-42.6011299160599],[-73.6720320989999,-42.6013147640599],[-73.6729585659999,-42.6013806520599],[-73.6733230289999,-42.6015402530599],[-73.6738491119999,-42.6010597340599],[-73.6734771399999,-42.6007491000599],[-73.6738634749999,-42.6010445560598],[-73.6742671749999,-42.6007352480598],[-73.6739604989999,-42.6003571460599],[-73.6742863209999,-42.6007238190599],[-73.6752531969999,-42.6001821520599],[-73.6759350399999,-42.5999840900599],[-73.6760049389999,-42.5998435390599],[-73.675961819,-42.5994805540599],[-73.6746584249999,-42.5994488950599],[-73.6746755949999,-42.6000294290599],[-73.6746096199999,-42.5994477090599],[-73.6739061889999,-42.5994306690599]]]}},{"type":"Feature","properties":{"id":"10206013033009","commune":"Puqueldón","code":"10206","gse":"C2","quintil":"Q3","nse_score":723.6,"educ":11.9,"educ_score":593.3,"hacin":1.279,"hacin_class":"Hacinamiento Leve","hacin_score":791.7,"auto_score":243.6,"n_per":110,"n_hog":39,"source_year":2024},"geometry":{"type":"Polygon","coordinates":[[[-73.6696968869999,-42.6013465290599],[-73.6697623169999,-42.6009441610598],[-73.6694822029999,-42.6009172440599],[-73.6692516999999,-42.6017420130598],[-73.6685102289999,-42.6021074060599],[-73.6684023789999,-42.6024071110599],[-73.6685925299999,-42.6027413480599],[-73.6684638159999,-42.6032012890598],[-73.6695718129999,-42.6036127560599],[-73.6692247029999,-42.6040274800599],[-73.6686028969999,-42.6044255030599],[-73.6669573559999,-42.6052033530598],[-73.6660347289999,-42.6060713370599],[-73.6682238829999,-42.6072069370598],[-73.6690093259999,-42.6059859720598],[-73.6688158129999,-42.6058855920599],[-73.6679459299999,-42.6068266010599],[-73.6678689859999,-42.6067360300598],[-73.6682049979999,-42.6064540410599],[-73.6675886389999,-42.6061304940599],[-73.6672844389999,-42.6065032880599],[-73.6671956329999,-42.6064290950599],[-73.6683970559999,-42.6052383140599],[-73.6704583979999,-42.6035394520599],[-73.6707875139999,-42.6036010860598],[-73.6718310219999,-42.6026412650599],[-73.6721318479999,-42.6026955210599],[-73.6732706179999,-42.6015781810598],[-73.6725875429999,-42.6014155450599],[-73.6716204569999,-42.6015872020599],[-73.6715199109999,-42.6013966230598],[-73.6717950939999,-42.6009281600599],[-73.6713552159999,-42.6004006280599],[-73.6706137419999,-42.6007719700599],[-73.6697873599999,-42.6009426630599],[-73.6696968869999,-42.6013465290599]]]}},{"type":"Feature","properties":{"id":"10206013033010","commune":"Puqueldón","code":"10206","gse":"C2","quintil":"Q3","nse_score":720.5,"educ":12.7,"educ_score":646.7,"hacin":1.421,"hacin_class":"Hacinamiento Leve","hacin_score":761.5,"auto_score":166.7,"n_per":27,"n_hog":9,"source_year":2024},"geometry":{"type":"Polygon","coordinates":[[[-73.6781371149999,-42.6016866720598],[-73.678453611,-42.6018408690599],[-73.6791293069999,-42.6012027540599],[-73.6794324469999,-42.6006390670599],[-73.6789199249999,-42.6005195910599],[-73.6781371149999,-42.6016866720598]]]}},{"type":"Feature","properties":{"id":"10206013033013","commune":"Puqueldón","code":"10206","gse":"D","quintil":"Q2","nse_score":660.1,"educ":10.7,"educ_score":513.3,"hacin":1.4,"hacin_class":"Hacinamiento Leve","hacin_score":766.0,"auto_score":0.0,"n_per":7,"n_hog":4,"source_year":2024},"geometry":{"type":"Polygon","coordinates":[[[-73.6780806329999,-42.6017249100598],[-73.6776597549999,-42.6024589020599],[-73.6780801929999,-42.6024683000599],[-73.6784166339999,-42.6018875540598],[-73.6780806329999,-42.6017249100598]]]}},{"type":"Feature","properties":{"id":"10206013033014","commune":"Puqueldón","code":"10206","gse":"C3","quintil":"Q3","nse_score":709.3,"educ":12.6,"educ_score":640.0,"hacin":1.46,"hacin_class":"Hacinamiento Leve","hacin_score":753.3,"auto_score":295.5,"n_per":54,"n_hog":20,"source_year":2024},"geometry":{"type":"Polygon","coordinates":[[[-73.6768237589999,-42.6027892230599],[-73.6770291449999,-42.6031976250599],[-73.6768177089999,-42.6029506510599],[-73.6767744209999,-42.6027904410599],[-73.6768986909999,-42.6026208110599],[-73.6760139529999,-42.6028674600598],[-73.6759787329999,-42.6034323350598],[-73.6765853879999,-42.6034342620599],[-73.6759872899999,-42.6034915250598],[-73.6760241919999,-42.6037467970598],[-73.6760995599999,-42.6041099810599],[-73.6768300139999,-42.6047487710599],[-73.6760696219999,-42.6041384600599],[-73.6747241209999,-42.6036103080598],[-73.6743485719999,-42.6037156620599],[-73.6742647179999,-42.6034209460598],[-73.6738541889999,-42.6035603580599],[-73.6738924089999,-42.6036796130599],[-73.6747222729999,-42.6043756870599],[-73.673953132,-42.6038411780598],[-73.6738316399999,-42.6035680150599],[-73.6711952069999,-42.6040362980598],[-73.6709341359999,-42.6039841330598],[-73.6700465019999,-42.6050313570598],[-73.6708158049999,-42.6051825400598],[-73.6714656479999,-42.6050069650598],[-73.6708155379999,-42.6052006060598],[-73.6700305279999,-42.6050455620598],[-73.6693627599999,-42.6056738410599],[-73.6702477629999,-42.6056841170599],[-73.6710834489999,-42.6058605650599],[-73.6745748239999,-42.6052679600598],[-73.6760312239999,-42.6047151690598],[-73.6780345449999,-42.6056443000599],[-73.6771700499999,-42.6032087180599],[-73.6771885929999,-42.6029420680599],[-73.6774595539999,-42.6032454190599],[-73.6780425939999,-42.6031282470598],[-73.6782451109999,-42.6025326490599],[-73.6770026159999,-42.6025856470599],[-73.6768237589999,-42.6027892230599]]]}},{"type":"Feature","properties":{"id":"10206013033015","commune":"Puqueldón","code":"10206","gse":"D","quintil":"Q1","nse_score":627.4,"educ":10.3,"educ_score":486.7,"hacin":1.355,"hacin_class":"Hacinamiento Leve","hacin_score":775.6,"auto_score":177.4,"n_per":84,"n_hog":31,"source_year":2024},"geometry":{"type":"Polygon","coordinates":[[[-73.6707449529999,-42.6036410420599],[-73.6704900299999,-42.6035673550599],[-73.6681965229999,-42.6055203380599],[-73.6690354279999,-42.6059555020598],[-73.6698445069999,-42.6051264570598],[-73.6692684949999,-42.6051683010598],[-73.6696290099999,-42.6050452460598],[-73.6698778029999,-42.6050968470598],[-73.6721027209999,-42.6027244980599],[-73.6718603569999,-42.6026711600599],[-73.6707449529999,-42.6036410420599]]]}},{"type":"Feature","properties":{"id":"10206013033016","commune":"Puqueldón","code":"10206","gse":"C2","quintil":"Q4","nse_score":726.6,"educ":13.3,"educ_score":686.7,"hacin":1.21,"hacin_class":"Hacinamiento Leve","hacin_score":806.3,"auto_score":350.0,"n_per":23,"n_hog":11,"source_year":2024},"geometry":{"type":"Polygon","coordinates":[[[-73.675324439,-42.6032166870599],[-73.6753090709999,-42.6029500590599],[-73.6743134319999,-42.6034044030599],[-73.6743137829999,-42.6036080160599],[-73.6747339429999,-42.6035734190599],[-73.6760491039999,-42.6041044720599],[-73.6759305409999,-42.6034228880599],[-73.6756741459999,-42.6034420950599],[-73.6756068579999,-42.6036144560599],[-73.6756445879999,-42.6034193890599],[-73.6759322419999,-42.6033956090599],[-73.6759651089999,-42.6028684810598],[-73.6753338589999,-42.6029380830598],[-73.675324439,-42.6032166870599]]]}},{"type":"Feature","properties":{"id":"10206013033017","commune":"Puqueldón","code":"10206","gse":"D","quintil":"Q2","nse_score":656.7,"educ":11.3,"educ_score":553.3,"hacin":1.312,"hacin_class":"Hacinamiento Leve","hacin_score":784.6,"auto_score":62.5,"n_per":21,"n_hog":8,"source_year":2024},"geometry":{"type":"Polygon","coordinates":[[[-73.6676175799999,-42.6061015010599],[-73.6682333789999,-42.6064247540598],[-73.6687759089999,-42.6058648930598],[-73.6681683569999,-42.6055497380598],[-73.6676175799999,-42.6061015010599]]]}},{"type":"Feature","properties":{"id":"10206013033008","commune":"Puqueldón","code":"10206","gse":"C2","quintil":"Q4","nse_score":739.2,"educ":11.3,"educ_score":553.3,"hacin":1.0,"hacin_class":"Hacinamiento Leve","hacin_score":851.1,"auto_score":250.0,"n_per":22,"n_hog":8,"source_year":2024},"geometry":{"type":"MultiPolygon","coordinates":[[[[-73.668195453,-42.6006399080599],[-73.6676629859999,-42.6012603820599],[-73.6680468409999,-42.6014906160598],[-73.6675697379999,-42.6019484540599],[-73.6683560609999,-42.6023986570599],[-73.6684775989999,-42.6020798830599],[-73.6691135289999,-42.6018436590599],[-73.6693758639999,-42.6013724860599],[-73.6684912419999,-42.6012870560599],[-73.6682387289999,-42.6016575740599],[-73.6684531899999,-42.6012829310599],[-73.6682315719999,-42.6012319140598],[-73.6693802499999,-42.6013457130599],[-73.6694346299999,-42.6009065110599],[-73.668195453,-42.6006399080599]]],[[[-73.6698663259999,-42.6005247870599],[-73.6696059039999,-42.6008147330599],[-73.6699743639999,-42.6006136070599],[-73.6701942429999,-42.6005606100599],[-73.669533096,-42.6008706590599],[-73.6703036959999,-42.6008186110599],[-73.6712552819999,-42.6003854580599],[-73.6705633279999,-42.6002144350599],[-73.6698663259999,-42.6005247870599]]]]}}]}