{"type":"FeatureCollection","features":[{"type":"Feature","properties":{"id":"9208011001002","commune":"Purén","code":"09208","gse":"E","quintil":"Q1","nse_score":602.0,"educ":9.6,"educ_score":440.0,"hacin":1.257,"hacin_class":"Hacinamiento Leve","hacin_score":796.4,"auto_score":9.3,"n_per":132,"n_hog":54,"source_year":2024,"crime_score":0.1723,"crime_nivel":"Medio","crime_color":"#ff9800"},"geometry":{"type":"Polygon","coordinates":[[[-73.0653964929999,-38.0243324080842],[-73.067126964,-38.0266117990842],[-73.0682036199999,-38.0261753140841],[-73.0675351129999,-38.0250698650841],[-73.0682914059999,-38.0261294460841],[-73.0693268619999,-38.0256952480841],[-73.0687191799999,-38.0248586290841],[-73.0687792539999,-38.0245448400841],[-73.0642524739999,-38.0228488260841],[-73.0636441089999,-38.0226427120842],[-73.0635137039999,-38.0227064390842],[-73.0638398679999,-38.0234025520841],[-73.0653964929999,-38.0243324080842]]]}},{"type":"Feature","properties":{"id":"9208011001003","commune":"Purén","code":"09208","gse":"D","quintil":"Q1","nse_score":642.4,"educ":9.6,"educ_score":440.0,"hacin":1.275,"hacin_class":"Hacinamiento Leve","hacin_score":792.6,"auto_score":119.0,"n_per":51,"n_hog":21,"source_year":2024,"crime_score":0.1622,"crime_nivel":"Medio","crime_color":"#ff9800"},"geometry":{"type":"Polygon","coordinates":[[[-73.0713811839999,-38.0259146300841],[-73.0716646179999,-38.0261765450841],[-73.0717019409999,-38.0263382060841],[-73.0719677319999,-38.0261849440842],[-73.0707230119999,-38.0253033680841],[-73.068892505,-38.0245877040842],[-73.0688010099999,-38.0246924470842],[-73.0687815059999,-38.0248495600842],[-73.0696214779999,-38.0260029670842],[-73.0705336869999,-38.0256175580842],[-73.0704530419999,-38.0254799810841],[-73.0699752579999,-38.0253983720841],[-73.0696951649999,-38.0254874120842],[-73.0699717569999,-38.0253803540841],[-73.0704484199999,-38.0254590370842],[-73.0715883769999,-38.0265339300841],[-73.0716268699999,-38.0262364450841],[-73.0713811839999,-38.0259146300841]]]}},{"type":"Feature","properties":{"id":"9208011001004","commune":"Purén","code":"09208","gse":"C3","quintil":"Q2","nse_score":669.2,"educ":10.4,"educ_score":493.3,"hacin":0.914,"hacin_class":"Sin Hacinamiento","hacin_score":869.3,"auto_score":138.9,"n_per":32,"n_hog":16,"source_year":2024,"crime_score":0.1584,"crime_nivel":"Medio","crime_color":"#ff9800"},"geometry":{"type":"Polygon","coordinates":[[[-73.0698656509999,-38.0263271600841],[-73.0708532869999,-38.0259090140841],[-73.0708607219999,-38.0258601130842],[-73.0705601069999,-38.0256723330841],[-73.0697026159999,-38.0260627850842],[-73.0698656509999,-38.0263271600841]]]}},{"type":"Feature","properties":{"id":"9208011001005","commune":"Purén","code":"09208","gse":"C3","quintil":"Q2","nse_score":671.5,"educ":10.2,"educ_score":480.0,"hacin":1.143,"hacin_class":"Hacinamiento Leve","hacin_score":820.7,"auto_score":0.0,"n_per":88,"n_hog":34,"source_year":2024,"crime_score":0.1626,"crime_nivel":"Medio","crime_color":"#ff9800"},"geometry":{"type":"Polygon","coordinates":[[[-73.0698257619999,-38.0270993400841],[-73.0695031599999,-38.0268419960841],[-73.0689602969999,-38.0270809320841],[-73.0696350799999,-38.0279500100841],[-73.0706253819999,-38.0275006400841],[-73.0707415699999,-38.0272395820841],[-73.0705968699999,-38.0270328300841],[-73.0701284869999,-38.0267998500841],[-73.0696206869999,-38.0261112240841],[-73.0692710909999,-38.0262487660841],[-73.0695638739999,-38.0260447760841],[-73.0693809649999,-38.0257780920841],[-73.0683351469999,-38.0261947280841],[-73.0689273819999,-38.0270335570841],[-73.0695058139999,-38.0267831850841],[-73.0698257619999,-38.0270993400841]]]}},{"type":"Feature","properties":{"id":"9208011001006","commune":"Purén","code":"09208","gse":"C2","quintil":"Q3","nse_score":720.2,"educ":12.7,"educ_score":646.7,"hacin":1.314,"hacin_class":"Hacinamiento Leve","hacin_score":784.2,"auto_score":289.5,"n_per":46,"n_hog":16,"source_year":2024,"crime_score":0.1551,"crime_nivel":"Medio","crime_color":"#ff9800"},"geometry":{"type":"Polygon","coordinates":[[[-73.0701374969999,-38.0267126350842],[-73.0711953929999,-38.0262523840841],[-73.0712046009999,-38.0262140560841],[-73.0709141899999,-38.0259455200841],[-73.0699360339999,-38.0263887830842],[-73.0701374969999,-38.0267126350842]]]}},{"type":"Feature","properties":{"id":"9208011001007","commune":"Purén","code":"09208","gse":"C3","quintil":"Q3","nse_score":692.7,"educ":12.8,"educ_score":653.3,"hacin":1.375,"hacin_class":"Hacinamiento Leve","hacin_score":771.3,"auto_score":0.0,"n_per":11,"n_hog":5,"source_year":2024,"crime_score":0.1548,"crime_nivel":"Medio","crime_color":"#ff9800"},"geometry":{"type":"Polygon","coordinates":[[[-73.0677711209999,-38.0275168830841],[-73.0688577149999,-38.0270407240842],[-73.0682633199999,-38.0262272110841],[-73.0671571539999,-38.0266724930841],[-73.0677711209999,-38.0275168830841]]]}},{"type":"Feature","properties":{"id":"9208011001008","commune":"Purén","code":"09208","gse":"E","quintil":"Q1","nse_score":602.4,"educ":8.8,"educ_score":386.7,"hacin":1.333,"hacin_class":"Hacinamiento Leve","hacin_score":780.1,"auto_score":130.1,"n_per":176,"n_hog":73,"source_year":2024,"crime_score":0.1758,"crime_nivel":"Medio","crime_color":"#ff9800"},"geometry":{"type":"Polygon","coordinates":[[[-73.0729846869999,-38.0282278580841],[-73.0739278219999,-38.0296551020841],[-73.074704902,-38.0293080900841],[-73.0740063829999,-38.0287913640841],[-73.0722208689999,-38.0268719950842],[-73.0742204479999,-38.0289307670841],[-73.0747512559999,-38.0292520760841],[-73.0748576149999,-38.0291930800841],[-73.075249202,-38.0293230420841],[-73.0748514699999,-38.0292232580841],[-73.0748265739999,-38.0293169310841],[-73.0788674719999,-38.0302988290841],[-73.0792152579999,-38.0305657250841],[-73.0817001339999,-38.0311162720841],[-73.0841878429999,-38.0315039830841],[-73.0888315219999,-38.0307218740841],[-73.0843690829999,-38.0297115660841],[-73.0796437969999,-38.0294832410841],[-73.0749506129999,-38.0283605780841],[-73.0734582279999,-38.0276669220841],[-73.0720130729999,-38.0262253900841],[-73.0717007659999,-38.0263953560842],[-73.0716310339999,-38.0265781840841],[-73.0718751289999,-38.0269711290841],[-73.07099403,-38.0273795870841],[-73.0707845259999,-38.0272843620841],[-73.0707247909999,-38.0274909570841],[-73.0714274499999,-38.0283465260841],[-73.0724928849999,-38.0279308770841],[-73.0714850759999,-38.0284168610841],[-73.0721039269999,-38.0292686090841],[-73.0733005579999,-38.0288444190841],[-73.0729846869999,-38.0282278580841]]]}},{"type":"Feature","properties":{"id":"9208011001009","commune":"Purén","code":"09208","gse":"C3","quintil":"Q3","nse_score":688.9,"educ":10.4,"educ_score":493.3,"hacin":0.98,"hacin_class":"Sin Hacinamiento","hacin_score":855.3,"auto_score":175.0,"n_per":49,"n_hog":20,"source_year":2024,"crime_score":0.158,"crime_nivel":"Medio","crime_color":"#ff9800"},"geometry":{"type":"Polygon","coordinates":[[[-73.0706855469999,-38.0269617010841],[-73.0715043729999,-38.0265861980841],[-73.0715191699999,-38.0265476010841],[-73.0712424709999,-38.0262947900842],[-73.070215904,-38.0267767330841],[-73.0706855469999,-38.0269617010841]]]}},{"type":"Feature","properties":{"id":"9208011001010","commune":"Purén","code":"09208","gse":"D","quintil":"Q2","nse_score":652.4,"educ":9.9,"educ_score":460.0,"hacin":1.372,"hacin_class":"Hacinamiento Leve","hacin_score":771.9,"auto_score":421.1,"n_per":59,"n_hog":22,"source_year":2024,"crime_score":0.162,"crime_nivel":"Medio","crime_color":"#ff9800"},"geometry":{"type":"Polygon","coordinates":[[[-73.0707438559999,-38.0270753940842],[-73.0709929699999,-38.0273114420841],[-73.0718502669999,-38.0268982680842],[-73.0715709439999,-38.0266237870841],[-73.0707438559999,-38.0270753940842]]]}},{"type":"Feature","properties":{"id":"9208011001011","commune":"Purén","code":"09208","gse":"C3","quintil":"Q2","nse_score":682.7,"educ":11.6,"educ_score":573.3,"hacin":1.243,"hacin_class":"Hacinamiento Leve","hacin_score":799.3,"auto_score":22.7,"n_per":46,"n_hog":22,"source_year":2024,"crime_score":0.1583,"crime_nivel":"Medio","crime_color":"#ff9800"},"geometry":{"type":"Polygon","coordinates":[[[-73.0678426739999,-38.0275556370841],[-73.0684532429999,-38.0284692670841],[-73.0695160209999,-38.0279849620841],[-73.0688984889999,-38.0271322310841],[-73.0678426739999,-38.0275556370841]]]}},{"type":"Feature","properties":{"id":"9208011001012","commune":"Purén","code":"09208","gse":"D","quintil":"Q2","nse_score":654.5,"educ":10.7,"educ_score":513.3,"hacin":1.27,"hacin_class":"Hacinamiento Leve","hacin_score":793.6,"auto_score":27.8,"n_per":47,"n_hog":18,"source_year":2024,"crime_score":0.1609,"crime_nivel":"Medio","crime_color":"#ff9800"},"geometry":{"type":"Polygon","coordinates":[[[-73.0702709639999,-38.0288680610841],[-73.0713444109999,-38.0283981520841],[-73.0707059079999,-38.0275448170841],[-73.0696689459999,-38.0280313600841],[-73.0702709639999,-38.0288680610841]]]}},{"type":"Feature","properties":{"id":"9208011001013","commune":"Purén","code":"09208","gse":"D","quintil":"Q2","nse_score":662.6,"educ":11.3,"educ_score":553.3,"hacin":1.286,"hacin_class":"Hacinamiento Leve","hacin_score":790.3,"auto_score":62.5,"n_per":54,"n_hog":23,"source_year":2024,"crime_score":0.1607,"crime_nivel":"Medio","crime_color":"#ff9800"},"geometry":{"type":"Polygon","coordinates":[[[-73.0701486669999,-38.0289525640841],[-73.0695814139999,-38.0280761520841],[-73.0685085879999,-38.0285438920841],[-73.0691251939999,-38.0293974200841],[-73.0701486669999,-38.0289525640841]]]}},{"type":"Feature","properties":{"id":"9208011001014","commune":"Purén","code":"09208","gse":"C3","quintil":"Q2","nse_score":670.8,"educ":10.2,"educ_score":480.0,"hacin":1.304,"hacin_class":"Hacinamiento Leve","hacin_score":786.3,"auto_score":47.6,"n_per":60,"n_hog":21,"source_year":2024,"crime_score":0.1604,"crime_nivel":"Medio","crime_color":"#ff9800"},"geometry":{"type":"Polygon","coordinates":[[[-73.0719819969999,-38.0293217600841],[-73.0714015729999,-38.0284687500841],[-73.0703397959999,-38.0289584960841],[-73.0709322579999,-38.0297865660841],[-73.0719819969999,-38.0293217600841]]]}},{"type":"Feature","properties":{"id":"9208011001015","commune":"Purén","code":"09208","gse":"C3","quintil":"Q2","nse_score":674.9,"educ":10.6,"educ_score":506.7,"hacin":1.345,"hacin_class":"Hacinamiento Leve","hacin_score":777.7,"auto_score":250.0,"n_per":39,"n_hog":18,"source_year":2024,"crime_score":0.1585,"crime_nivel":"Medio","crime_color":"#ff9800"},"geometry":{"type":"Polygon","coordinates":[[[-73.0727514189999,-38.0301757030841],[-73.0738653279999,-38.0297052630841],[-73.0732575099999,-38.0288706480841],[-73.0721597779999,-38.0293501790841],[-73.0727514189999,-38.0301757030841]]]}},{"type":"Feature","properties":{"id":"9208011001016","commune":"Purén","code":"09208","gse":"D","quintil":"Q2","nse_score":655.9,"educ":9.6,"educ_score":440.0,"hacin":1.346,"hacin_class":"Hacinamiento Leve","hacin_score":777.4,"auto_score":200.0,"n_per":35,"n_hog":15,"source_year":2024,"crime_score":0.1598,"crime_nivel":"Medio","crime_color":"#ff9800"},"geometry":{"type":"Polygon","coordinates":[[[-73.0692383549999,-38.0294310000841],[-73.0697838769999,-38.0303108420841],[-73.0708464739999,-38.0298385070841],[-73.070240882,-38.0289941800841],[-73.0692383549999,-38.0294310000841]]]}},{"type":"Feature","properties":{"id":"9208011001017","commune":"Purén","code":"09208","gse":"C2","quintil":"Q4","nse_score":721.7,"educ":12.1,"educ_score":606.7,"hacin":1.3,"hacin_class":"Hacinamiento Leve","hacin_score":787.2,"auto_score":142.9,"n_per":39,"n_hog":14,"source_year":2024,"crime_score":0.1544,"crime_nivel":"Medio","crime_color":"#ff9800"},"geometry":{"type":"Polygon","coordinates":[[[-73.074741232,-38.0293564460841],[-73.0739639679999,-38.0297278770841],[-73.074576497,-38.0305876180841],[-73.0760734579999,-38.0299550950841],[-73.0765011429999,-38.0300312740841],[-73.0764367599999,-38.0297748320841],[-73.074741232,-38.0293564460841]]]}},{"type":"Feature","properties":{"id":"9208011001018","commune":"Purén","code":"09208","gse":"C3","quintil":"Q3","nse_score":699.3,"educ":11.5,"educ_score":566.7,"hacin":1.12,"hacin_class":"Hacinamiento Leve","hacin_score":825.5,"auto_score":125.0,"n_per":28,"n_hog":12,"source_year":2024,"crime_score":0.1555,"crime_nivel":"Medio","crime_color":"#ff9800"},"geometry":{"type":"Polygon","coordinates":[[[-73.0726647629999,-38.0302479070841],[-73.0720658759999,-38.0293989230841],[-73.0710109669999,-38.0298870760841],[-73.0716135439999,-38.0307209860841],[-73.0726647629999,-38.0302479070841]]]}},{"type":"Feature","properties":{"id":"9208011001019","commune":"Purén","code":"09208","gse":"C3","quintil":"Q3","nse_score":698.4,"educ":12.2,"educ_score":613.3,"hacin":1.296,"hacin_class":"Hacinamiento Leve","hacin_score":788.0,"auto_score":208.3,"n_per":35,"n_hog":12,"source_year":2024,"crime_score":0.1561,"crime_nivel":"Medio","crime_color":"#ff9800"},"geometry":{"type":"Polygon","coordinates":[[[-73.0745089439999,-38.0306221070841],[-73.0739132049999,-38.0297564230841],[-73.0728243519999,-38.0302619690841],[-73.0734324759999,-38.0311155160841],[-73.0745089439999,-38.0306221070841]]]}},{"type":"Feature","properties":{"id":"9208011001020","commune":"Purén","code":"09208","gse":"E","quintil":"Q1","nse_score":555.1,"educ":7.7,"educ_score":313.3,"hacin":1.4,"hacin_class":"Hacinamiento Leve","hacin_score":766.0,"auto_score":0.0,"n_per":7,"n_hog":4,"source_year":2024,"crime_score":0.1662,"crime_nivel":"Medio","crime_color":"#ff9800"},"geometry":{"type":"Polygon","coordinates":[[[-73.0791543549999,-38.0305700570841],[-73.0788482159999,-38.0303318750841],[-73.0765122279999,-38.0298144210841],[-73.0765494019999,-38.0300440510841],[-73.0783603149999,-38.0305332910841],[-73.0791543549999,-38.0305700570841]]]}},{"type":"Feature","properties":{"id":"9208011001021","commune":"Purén","code":"09208","gse":"C3","quintil":"Q3","nse_score":687.6,"educ":10.1,"educ_score":473.3,"hacin":0.897,"hacin_class":"Sin Hacinamiento","hacin_score":873.1,"auto_score":45.5,"n_per":26,"n_hog":11,"source_year":2024,"crime_score":0.1564,"crime_nivel":"Medio","crime_color":"#ff9800"},"geometry":{"type":"Polygon","coordinates":[[[-73.0704496139999,-38.0312382540841],[-73.0715301649999,-38.0307724260841],[-73.0709003069999,-38.0299187830841],[-73.069827169,-38.0303759860841],[-73.0704496139999,-38.0312382540841]]]}},{"type":"Feature","properties":{"id":"9208011001022","commune":"Purén","code":"09208","gse":"C3","quintil":"Q2","nse_score":671.2,"educ":12.2,"educ_score":613.3,"hacin":1.298,"hacin_class":"Hacinamiento Leve","hacin_score":787.6,"auto_score":69.0,"n_per":74,"n_hog":30,"source_year":2024,"crime_score":0.1615,"crime_nivel":"Medio","crime_color":"#ff9800"},"geometry":{"type":"Polygon","coordinates":[[[-73.0753987249999,-38.0317573410841],[-73.0752130879999,-38.0316036210841],[-73.0741704329999,-38.0320803180841],[-73.0747443169999,-38.0329155440841],[-73.0776411339999,-38.0316239250841],[-73.0765083359999,-38.0301027940841],[-73.0761266239999,-38.0300131890841],[-73.0746437839999,-38.0306633370841],[-73.0753987249999,-38.0317573410841]]]}},{"type":"Feature","properties":{"id":"9208011001023","commune":"Purén","code":"09208","gse":"D","quintil":"Q2","nse_score":652.4,"educ":10.5,"educ_score":500.0,"hacin":1.282,"hacin_class":"Hacinamiento Leve","hacin_score":791.1,"auto_score":109.8,"n_per":455,"n_hog":162,"source_year":2024,"crime_score":0.1809,"crime_nivel":"Medio","crime_color":"#ff9800"},"geometry":{"type":"Polygon","coordinates":[[[-73.0802908419999,-38.0308244020841],[-73.0801758379999,-38.0310920610841],[-73.0804824579999,-38.0314127470841],[-73.0803629129999,-38.0316403200841],[-73.0804369639999,-38.0313798150841],[-73.0801420739999,-38.0310973570841],[-73.0802307039999,-38.0308110060841],[-73.0783520719999,-38.0305686890841],[-73.076612054,-38.0301317070841],[-73.0778751889999,-38.0318142030841],[-73.0784407079999,-38.0315847330841],[-73.0782451109999,-38.0312350380841],[-73.0784949659999,-38.0315605450841],[-73.0787194409999,-38.0314605130841],[-73.0785206499999,-38.0311568910841],[-73.0787807659999,-38.0314332190841],[-73.0790007069999,-38.0313352540841],[-73.0788406469999,-38.0310425530841],[-73.0790440229999,-38.0313038800841],[-73.0793179599999,-38.0311930980841],[-73.0795631149999,-38.0314688950841],[-73.0797957189999,-38.0313877160841],[-73.0795994689999,-38.0315295970841],[-73.0797254539999,-38.0316962970841],[-73.0798920049999,-38.0316751380841],[-73.0797022049999,-38.0317401640841],[-73.0793976479999,-38.0313264210841],[-73.0791489409999,-38.0314308560841],[-73.0794698449999,-38.0319340830841],[-73.0790512139999,-38.0314036660841],[-73.0788169529999,-38.0314959010841],[-73.0792215479999,-38.0320620450841],[-73.0791707819999,-38.0320863580841],[-73.0787727679999,-38.0315343790841],[-73.0785461739999,-38.0316122300841],[-73.0789061969999,-38.0322446030841],[-73.0784623749999,-38.0316580810841],[-73.0782383359999,-38.0317645400841],[-73.0785811139999,-38.0323286840841],[-73.0782019159999,-38.0318023340841],[-73.0779384869999,-38.0318988660841],[-73.0789956899999,-38.0333420770841],[-73.0824718669999,-38.0318069220841],[-73.0840195069999,-38.0315259110841],[-73.0816856989999,-38.0311692040841],[-73.0802908419999,-38.0308244020841]]]}},{"type":"Feature","properties":{"id":"9208011001024","commune":"Purén","code":"09208","gse":"C2","quintil":"Q4","nse_score":721.5,"educ":11.7,"educ_score":580.0,"hacin":0.963,"hacin_class":"Sin Hacinamiento","hacin_score":858.9,"auto_score":90.9,"n_per":52,"n_hog":23,"source_year":2024,"crime_score":0.1554,"crime_nivel":"Medio","crime_color":"#ff9800"},"geometry":{"type":"Polygon","coordinates":[[[-73.0726959049999,-38.0303072640841],[-73.0716674969999,-38.0307924320841],[-73.0722643929999,-38.0316175940841],[-73.0733528629999,-38.0311493560841],[-73.0726959049999,-38.0303072640841]]]}},{"type":"Feature","properties":{"id":"9208011001026","commune":"Purén","code":"09208","gse":"C2","quintil":"Q4","nse_score":754.3,"educ":12.8,"educ_score":653.3,"hacin":1.194,"hacin_class":"Hacinamiento Leve","hacin_score":809.9,"auto_score":175.0,"n_per":37,"n_hog":19,"source_year":2024,"crime_score":0.1514,"crime_nivel":"Medio","crime_color":"#ff9800"},"geometry":{"type":"Polygon","coordinates":[[[-73.0740813339999,-38.0320064940841],[-73.0751603919999,-38.0315406980841],[-73.0745601169999,-38.0306953990841],[-73.0734798839999,-38.0311759500841],[-73.0740813339999,-38.0320064940841]]]}},{"type":"Feature","properties":{"id":"9208011001027","commune":"Purén","code":"09208","gse":"C2","quintil":"Q4","nse_score":761.1,"educ":12.0,"educ_score":600.0,"hacin":0.804,"hacin_class":"Sin Hacinamiento","hacin_score":892.7,"auto_score":133.3,"n_per":37,"n_hog":15,"source_year":2024,"crime_score":0.1508,"crime_nivel":"Medio","crime_color":"#ff9800"},"geometry":{"type":"Polygon","coordinates":[[[-73.0710976129999,-38.0321519440841],[-73.0721760619999,-38.0316667010841],[-73.0715818869999,-38.0308377070841],[-73.0705011309999,-38.0313026320841],[-73.0710976129999,-38.0321519440841]]]}},{"type":"Feature","properties":{"id":"9208011001028","commune":"Purén","code":"09208","gse":"C2","quintil":"Q4","nse_score":741.3,"educ":12.8,"educ_score":653.3,"hacin":0.838,"hacin_class":"Sin Hacinamiento","hacin_score":885.6,"auto_score":214.3,"n_per":31,"n_hog":14,"source_year":2024,"crime_score":0.1521,"crime_nivel":"Medio","crime_color":"#ff9800"},"geometry":{"type":"Polygon","coordinates":[[[-73.0729666289999,-38.0325277480841],[-73.0739912719999,-38.0320608000841],[-73.0733945959999,-38.0312176270841],[-73.0723211459999,-38.0316822370841],[-73.0729666289999,-38.0325277480841]]]}},{"type":"Feature","properties":{"id":"9208011001030","commune":"Purén","code":"09208","gse":"C3","quintil":"Q3","nse_score":703.2,"educ":12.0,"educ_score":600.0,"hacin":1.304,"hacin_class":"Hacinamiento Leve","hacin_score":786.3,"auto_score":227.3,"n_per":30,"n_hog":11,"source_year":2024,"crime_score":0.1553,"crime_nivel":"Medio","crime_color":"#ff9800"},"geometry":{"type":"Polygon","coordinates":[[[-73.0766141996666,-38.0346259730841],[-73.0766538179999,-38.0350318250841],[-73.0769211849999,-38.0353705310841],[-73.0769561539999,-38.0356319890841],[-73.0772215659999,-38.035771105084],[-73.0805731559999,-38.0340957440841],[-73.0831933489999,-38.0329706880841],[-73.0838437349999,-38.0328626010841],[-73.0832166069999,-38.0316902940841],[-73.0828183379999,-38.0317631000841],[-73.0797408279999,-38.0330576630841],[-73.0766141996666,-38.0346259730841]]]}},{"type":"Feature","properties":{"id":"9208011001031","commune":"Purén","code":"09208","gse":"C1","quintil":"Q5","nse_score":804.9,"educ":14.2,"educ_score":746.7,"hacin":0.914,"hacin_class":"Sin Hacinamiento","hacin_score":869.3,"auto_score":136.4,"n_per":32,"n_hog":11,"source_year":2024,"crime_score":0.1467,"crime_nivel":"Medio","crime_color":"#ff9800"},"geometry":{"type":"Polygon","coordinates":[[[-73.0756578159999,-38.0326041720841],[-73.0759780649999,-38.0331668950841],[-73.0759106419999,-38.0335048990841],[-73.0760696939999,-38.0337742920841],[-73.0763478299999,-38.0338759440841],[-73.0763355559999,-38.0342198970841],[-73.0766034959999,-38.034565791084],[-73.0789590049999,-38.0333614570841],[-73.0777065679999,-38.0317052890841],[-73.0756578159999,-38.0326041720841]]]}},{"type":"Feature","properties":{"id":"9208011001032","commune":"Purén","code":"09208","gse":"C2","quintil":"Q4","nse_score":772.9,"educ":13.2,"educ_score":680.0,"hacin":0.6,"hacin_class":"Sin Hacinamiento","hacin_score":936.2,"auto_score":150.0,"n_per":15,"n_hog":9,"source_year":2024,"crime_score":0.1482,"crime_nivel":"Medio","crime_color":"#ff9800"},"geometry":{"type":"MultiPolygon","coordinates":[[[[-73.0735655219999,-38.0334517040841],[-73.0746488429999,-38.0329720150841],[-73.0740578689999,-38.0321367780841],[-73.0729886299999,-38.0326011930841],[-73.0735655219999,-38.0334517040841]]],[[[-73.0717422009999,-38.0330485430841],[-73.0728374739999,-38.0325781680841],[-73.0722270429999,-38.0317428740841],[-73.0711530889999,-38.0322304440841],[-73.0717422009999,-38.0330485430841]]]]}},{"type":"Feature","properties":{"id":"9208021001003","commune":"Purén","code":"09208","gse":"E","quintil":"Q1","nse_score":611.0,"educ":10.1,"educ_score":473.3,"hacin":1.312,"hacin_class":"Hacinamiento Leve","hacin_score":784.6,"auto_score":201.0,"n_per":273,"n_hog":100,"source_year":2024,"crime_score":0.1828,"crime_nivel":"Medio","crime_color":"#ff9800"},"geometry":{"type":"Polygon","coordinates":[[[-73.0635710159999,-38.0281596540841],[-73.0633029039999,-38.0277523380841],[-73.0634202139999,-38.0278127450841],[-73.0645075439999,-38.0273166570841],[-73.0644845479999,-38.0271731860841],[-73.0648230939999,-38.0276348490841],[-73.0658514809999,-38.0271571960842],[-73.0647653119999,-38.0256099090842],[-73.062729982,-38.0266366990841],[-73.0630247649999,-38.0271087240842],[-73.0618851899999,-38.0276068640841],[-73.0619888869999,-38.0277639140841],[-73.0608298859999,-38.0287024420841],[-73.062676011,-38.0312989890841],[-73.0609677179999,-38.0326345830841],[-73.0611022769999,-38.0327580180841],[-73.0620383899999,-38.0330634320841],[-73.0629839529999,-38.0322267650841],[-73.063793126,-38.0317140870841],[-73.0665869129999,-38.0305050330841],[-73.0659782189999,-38.0296590110841],[-73.0650008369999,-38.0300568270841],[-73.0659079089999,-38.0295686400841],[-73.0652789909999,-38.0286908310841],[-73.0642272809999,-38.0291730280841],[-73.0641011199999,-38.0290231590841],[-73.0627700829999,-38.0295774300841],[-73.0627456069999,-38.0297929450841],[-73.0624454599999,-38.0289606420841],[-73.0625202859999,-38.0289270010841],[-73.0625384089999,-38.0291068790841],[-73.063840308,-38.0285709770841],[-73.0636025919999,-38.0282076370841],[-73.0627057969999,-38.0285497030841],[-73.0635710159999,-38.0281596540841]]]}},{"type":"Feature","properties":{"id":"9208021001004","commune":"Purén","code":"09208","gse":"C3","quintil":"Q3","nse_score":699.0,"educ":11.5,"educ_score":566.7,"hacin":1.405,"hacin_class":"Hacinamiento Leve","hacin_score":764.9,"auto_score":166.7,"n_per":59,"n_hog":20,"source_year":2024,"crime_score":0.1579,"crime_nivel":"Medio","crime_color":"#ff9800"},"geometry":{"type":"Polygon","coordinates":[[[-73.0665943399999,-38.0280342620841],[-73.0676973339999,-38.0275501840841],[-73.0670917159999,-38.0267089050842],[-73.0659928349999,-38.0271928650841],[-73.0665943399999,-38.0280342620841]]]}},{"type":"Feature","properties":{"id":"9208021001005","commune":"Purén","code":"09208","gse":"D","quintil":"Q2","nse_score":648.4,"educ":10.0,"educ_score":466.7,"hacin":0.9,"hacin_class":"Sin Hacinamiento","hacin_score":872.3,"auto_score":29.4,"n_per":36,"n_hog":16,"source_year":2024,"crime_score":0.1605,"crime_nivel":"Medio","crime_color":"#ff9800"},"geometry":{"type":"Polygon","coordinates":[[[-73.0657752699999,-38.0273986340841],[-73.0649652199999,-38.0278198280842],[-73.0654824239999,-38.0285146280841],[-73.0665145729999,-38.0280566510841],[-73.0658990479999,-38.0272242140841],[-73.0648625119999,-38.0276831850841],[-73.0649303859999,-38.0277733010842],[-73.0657752699999,-38.0273986340841]]]}},{"type":"Feature","properties":{"id":"9208021001006","commune":"Purén","code":"09208","gse":"C2","quintil":"Q4","nse_score":747.5,"educ":12.5,"educ_score":633.3,"hacin":1.24,"hacin_class":"Hacinamiento Leve","hacin_score":800.0,"auto_score":291.7,"n_per":62,"n_hog":23,"source_year":2024,"crime_score":0.1539,"crime_nivel":"Medio","crime_color":"#ff9800"},"geometry":{"type":"Polygon","coordinates":[[[-73.063591357,-38.0280732450841],[-73.0645247779999,-38.0276512680841],[-73.0646923219999,-38.0275775330841],[-73.0645401119999,-38.0273641830841],[-73.0643930969999,-38.0274253510841],[-73.0634518349999,-38.0278608770841],[-73.063591357,-38.0280732450841]]]}},{"type":"Feature","properties":{"id":"9208021001007","commune":"Purén","code":"09208","gse":"C2","quintil":"Q4","nse_score":726.7,"educ":11.5,"educ_score":566.7,"hacin":1.083,"hacin_class":"Hacinamiento Leve","hacin_score":833.3,"auto_score":55.6,"n_per":52,"n_hog":19,"source_year":2024,"crime_score":0.1549,"crime_nivel":"Medio","crime_color":"#ff9800"},"geometry":{"type":"Polygon","coordinates":[[[-73.067296956,-38.0289953710841],[-73.0683759539999,-38.0285187320841],[-73.0677496479999,-38.0276230470842],[-73.0666599959999,-38.0281022990841],[-73.067296956,-38.0289953710841]]]}},{"type":"Feature","properties":{"id":"9208021001008","commune":"Purén","code":"09208","gse":"C3","quintil":"Q2","nse_score":683.4,"educ":11.3,"educ_score":553.3,"hacin":0.895,"hacin_class":"Sin Hacinamiento","hacin_score":873.5,"auto_score":333.3,"n_per":17,"n_hog":8,"source_year":2024,"crime_score":0.156,"crime_nivel":"Medio","crime_color":"#ff9800"},"geometry":{"type":"Polygon","coordinates":[[[-73.0647288589999,-38.0276233150841],[-73.0636236569999,-38.0281224090841],[-73.0637409119999,-38.0283007730841],[-73.0648707529999,-38.0277997460841],[-73.0647288589999,-38.0276233150841]]]}},{"type":"Feature","properties":{"id":"9208021001009","commune":"Purén","code":"09208","gse":"D","quintil":"Q1","nse_score":635.3,"educ":10.3,"educ_score":486.7,"hacin":1.231,"hacin_class":"Hacinamiento Leve","hacin_score":802.0,"auto_score":142.9,"n_per":32,"n_hog":13,"source_year":2024,"crime_score":0.1613,"crime_nivel":"Medio","crime_color":"#ff9800"},"geometry":{"type":"Polygon","coordinates":[[[-73.0642476339999,-38.0290403520841],[-73.0654225709999,-38.0285407640841],[-73.0649055929999,-38.0278462690841],[-73.0637724789999,-38.0283487470841],[-73.0642476339999,-38.0290403520841]]]}},{"type":"Feature","properties":{"id":"9208021001010","commune":"Purén","code":"09208","gse":"C3","quintil":"Q3","nse_score":687.0,"educ":10.2,"educ_score":480.0,"hacin":0.877,"hacin_class":"Sin Hacinamiento","hacin_score":877.2,"auto_score":22.7,"n_per":50,"n_hog":22,"source_year":2024,"crime_score":0.1583,"crime_nivel":"Medio","crime_color":"#ff9800"},"geometry":{"type":"Polygon","coordinates":[[[-73.0661049689999,-38.0294790630841],[-73.0671875799999,-38.0290302500841],[-73.0665701929999,-38.0281337140841],[-73.0654701859999,-38.0285902550841],[-73.0661049689999,-38.0294790630841]]]}},{"type":"Feature","properties":{"id":"9208021001011","commune":"Purén","code":"09208","gse":"E","quintil":"Q1","nse_score":610.5,"educ":10.5,"educ_score":500.0,"hacin":1.114,"hacin_class":"Hacinamiento Leve","hacin_score":826.7,"auto_score":0.0,"n_per":39,"n_hog":14,"source_year":2024,"crime_score":0.164,"crime_nivel":"Medio","crime_color":"#ff9800"},"geometry":{"type":"Polygon","coordinates":[[[-73.0684560539999,-38.0286051180841],[-73.067365391,-38.0290574150841],[-73.0679323609999,-38.0298961650841],[-73.0690553679999,-38.0294360140841],[-73.0684560539999,-38.0286051180841]]]}},{"type":"Feature","properties":{"id":"9208021001012","commune":"Purén","code":"09208","gse":"D","quintil":"Q2","nse_score":659.5,"educ":9.7,"educ_score":446.7,"hacin":1.444,"hacin_class":"Hacinamiento Leve","hacin_score":756.5,"auto_score":192.3,"n_per":39,"n_hog":14,"source_year":2024,"crime_score":0.1598,"crime_nivel":"Medio","crime_color":"#ff9800"},"geometry":{"type":"Polygon","coordinates":[[[-73.0634130219999,-38.0292272910841],[-73.0640667519999,-38.0289524830841],[-73.0638743089999,-38.0286416570841],[-73.0631984449999,-38.0289023330841],[-73.0634130219999,-38.0292272910841]]]}},{"type":"Feature","properties":{"id":"9208021001014","commune":"Purén","code":"09208","gse":"D","quintil":"Q1","nse_score":636.3,"educ":9.2,"educ_score":413.3,"hacin":1.407,"hacin_class":"Hacinamiento Leve","hacin_score":764.4,"auto_score":166.7,"n_per":38,"n_hog":12,"source_year":2024,"crime_score":0.1617,"crime_nivel":"Medio","crime_color":"#ff9800"},"geometry":{"type":"Polygon","coordinates":[[[-73.0627265319999,-38.0295050700841],[-73.0633431249999,-38.0292493890841],[-73.0631376999999,-38.0289272140841],[-73.0625571229999,-38.0291633510841],[-73.0627265319999,-38.0295050700841]]]}},{"type":"Feature","properties":{"id":"9208021001015","commune":"Purén","code":"09208","gse":"C3","quintil":"Q3","nse_score":688.9,"educ":12.1,"educ_score":606.7,"hacin":1.263,"hacin_class":"Hacinamiento Leve","hacin_score":795.1,"auto_score":0.0,"n_per":24,"n_hog":13,"source_year":2024,"crime_score":0.1561,"crime_nivel":"Medio","crime_color":"#ff9800"},"geometry":{"type":"Polygon","coordinates":[[[-73.0667578599999,-38.0304163770841],[-73.0678646199999,-38.0299464180841],[-73.0672489499999,-38.0291010090841],[-73.066166226,-38.0295714480841],[-73.0667578599999,-38.0304163770841]]]}},{"type":"Feature","properties":{"id":"9208021001016","commune":"Purén","code":"09208","gse":"C3","quintil":"Q2","nse_score":676.2,"educ":11.7,"educ_score":580.0,"hacin":1.304,"hacin_class":"Hacinamiento Leve","hacin_score":786.3,"auto_score":166.7,"n_per":30,"n_hog":12,"source_year":2024,"crime_score":0.1576,"crime_nivel":"Medio","crime_color":"#ff9800"},"geometry":{"type":"Polygon","coordinates":[[[-73.0680138869999,-38.0300106910841],[-73.0685913819999,-38.0308093290841],[-73.0696926069999,-38.0303199770841],[-73.0690947979999,-38.0295137110841],[-73.0680138869999,-38.0300106910841]]]}},{"type":"Feature","properties":{"id":"9208021001017","commune":"Purén","code":"09208","gse":"C2","quintil":"Q4","nse_score":755.7,"educ":11.4,"educ_score":560.0,"hacin":0.673,"hacin_class":"Sin Hacinamiento","hacin_score":920.5,"auto_score":416.7,"n_per":33,"n_hog":18,"source_year":2024,"crime_score":0.151,"crime_nivel":"Medio","crime_color":"#ff9800"},"geometry":{"type":"Polygon","coordinates":[[[-73.0674201139999,-38.0313318530841],[-73.0685192509999,-38.0308532020841],[-73.0679199349999,-38.0300265390841],[-73.066831594,-38.0304892320841],[-73.0674201139999,-38.0313318530841]]]}},{"type":"Feature","properties":{"id":"9208021001018","commune":"Purén","code":"09208","gse":"C3","quintil":"Q3","nse_score":688.4,"educ":11.4,"educ_score":560.0,"hacin":1.0,"hacin_class":"Hacinamiento Leve","hacin_score":851.1,"auto_score":45.5,"n_per":20,"n_hog":10,"source_year":2024,"crime_score":0.1558,"crime_nivel":"Medio","crime_color":"#ff9800"},"geometry":{"type":"Polygon","coordinates":[[[-73.0703737889999,-38.0312709830841],[-73.0697518409999,-38.0304158420841],[-73.0686706579999,-38.0309185010841],[-73.0692610209999,-38.0317396050841],[-73.0703737889999,-38.0312709830841]]]}},{"type":"Feature","properties":{"id":"9208021001020","commune":"Purén","code":"09208","gse":"D","quintil":"Q1","nse_score":641.3,"educ":10.2,"educ_score":480.0,"hacin":1.287,"hacin_class":"Hacinamiento Leve","hacin_score":790.0,"auto_score":30.6,"n_per":121,"n_hog":47,"source_year":2024,"crime_score":0.1679,"crime_nivel":"Medio","crime_color":"#ff9800"},"geometry":{"type":"Polygon","coordinates":[[[-73.0661666259999,-38.0319618700841],[-73.0651151459999,-38.0323863640841],[-73.0655033369999,-38.0328342370841],[-73.0650719249999,-38.0324045670841],[-73.0645346139999,-38.0325902770841],[-73.0672279879999,-38.0314283290841],[-73.0666435909999,-38.0305809420841],[-73.0655675789999,-38.0310162800841],[-73.065812063,-38.0314029640841],[-73.0655268209999,-38.0310326240841],[-73.0650138169999,-38.0312327400841],[-73.065178983,-38.0315303330841],[-73.0649735669999,-38.0312496710841],[-73.0638318949999,-38.0317586190841],[-73.0630464769999,-38.0322558950841],[-73.0632703659999,-38.0324900620841],[-73.0630128329999,-38.0322804350841],[-73.0621037559999,-38.0330820440841],[-73.0633483509999,-38.0335877640841],[-73.063981409,-38.0340424640841],[-73.0651425649999,-38.035868951084],[-73.0673150399999,-38.038570431084],[-73.0680868149999,-38.039921508084],[-73.068036962,-38.040512541084],[-73.067698602,-38.041507680084],[-73.0695670129999,-38.040088373084],[-73.0681984829999,-38.038328198084],[-73.066995861,-38.037546714084],[-73.0664256179999,-38.036739615084],[-73.0666790769999,-38.036589812084],[-73.066496964,-38.036191586084],[-73.0660307159999,-38.0361321390841],[-73.0657608199999,-38.035948320084],[-73.0665193439999,-38.0361357080841],[-73.0682241809999,-38.0352980490841],[-73.0679810789999,-38.0345494850841],[-73.0668324619999,-38.0328998630841],[-73.0663501649999,-38.0327138840841],[-73.0660106049999,-38.0330665260841],[-73.0662438779999,-38.0327059350841],[-73.0665344759999,-38.0326916570841],[-73.0667561999999,-38.0328053740841],[-73.0661666259999,-38.0319618700841]]]}},{"type":"Feature","properties":{"id":"9208021001021","commune":"Purén","code":"09208","gse":"C3","quintil":"Q3","nse_score":697.7,"educ":11.5,"educ_score":566.7,"hacin":1.103,"hacin_class":"Hacinamiento Leve","hacin_score":829.2,"auto_score":333.3,"n_per":43,"n_hog":16,"source_year":2024,"crime_score":0.1568,"crime_nivel":"Medio","crime_color":"#ff9800"},"geometry":{"type":"Polygon","coordinates":[[[-73.0691850989999,-38.0317672850841],[-73.0685741729999,-38.0309352990841],[-73.0674820229999,-38.0314255110841],[-73.0681221839999,-38.0322545590841],[-73.0691850989999,-38.0317672850841]]]}},{"type":"Feature","properties":{"id":"9208021001022","commune":"Purén","code":"09208","gse":"C1","quintil":"Q5","nse_score":779.7,"educ":13.6,"educ_score":706.7,"hacin":1.0,"hacin_class":"Hacinamiento Leve","hacin_score":851.1,"auto_score":0.0,"n_per":32,"n_hog":12,"source_year":2024,"crime_score":0.1488,"crime_nivel":"Medio","crime_color":"#ff9800"},"geometry":{"type":"Polygon","coordinates":[[[-73.0699892449999,-38.0326566020841],[-73.0710068469999,-38.0321895650841],[-73.0704216429999,-38.0313446720841],[-73.0693291119999,-38.0318366070841],[-73.0699892449999,-38.0326566020841]]]}},{"type":"Feature","properties":{"id":"9208021001024","commune":"Purén","code":"09208","gse":"E","quintil":"Q1","nse_score":584.5,"educ":8.8,"educ_score":386.7,"hacin":1.4,"hacin_class":"Hacinamiento Leve","hacin_score":766.0,"auto_score":0.0,"n_per":28,"n_hog":11,"source_year":2024,"crime_score":0.1654,"crime_nivel":"Medio","crime_color":"#ff9800"},"geometry":{"type":"Polygon","coordinates":[[[-73.0668622789999,-38.0328486070841],[-73.0679410609999,-38.0323227730841],[-73.0673118109999,-38.0314818280841],[-73.0662226109999,-38.0319306470841],[-73.0668622789999,-38.0328486070841]]]}},{"type":"Feature","properties":{"id":"9208021001025","commune":"Purén","code":"09208","gse":"D","quintil":"Q2","nse_score":662.4,"educ":11.4,"educ_score":560.0,"hacin":1.265,"hacin_class":"Hacinamiento Leve","hacin_score":794.7,"auto_score":66.7,"n_per":43,"n_hog":15,"source_year":2024,"crime_score":0.1599,"crime_nivel":"Medio","crime_color":"#ff9800"},"geometry":{"type":"Polygon","coordinates":[[[-73.0691783979999,-38.0318836050841],[-73.0681774239999,-38.0323463040841],[-73.068783332,-38.0331786600841],[-73.0698540149999,-38.0326909680841],[-73.0691783979999,-38.0318836050841]]]}},{"type":"Feature","properties":{"id":"9208021001026","commune":"Purén","code":"09208","gse":"C2","quintil":"Q3","nse_score":719.6,"educ":12.6,"educ_score":640.0,"hacin":0.871,"hacin_class":"Sin Hacinamiento","hacin_score":878.5,"auto_score":166.7,"n_per":27,"n_hog":14,"source_year":2024,"crime_score":0.1537,"crime_nivel":"Medio","crime_color":"#ff9800"},"geometry":{"type":"Polygon","coordinates":[[[-73.0700264899999,-38.0327091200841],[-73.0705878539999,-38.0335812890841],[-73.0716735069999,-38.0330916630841],[-73.0710674779999,-38.0322583270841],[-73.0700264899999,-38.0327091200841]]]}},{"type":"Feature","properties":{"id":"9208021001028","commune":"Purén","code":"09208","gse":"C2","quintil":"Q4","nse_score":750.7,"educ":12.6,"educ_score":640.0,"hacin":1.323,"hacin_class":"Hacinamiento Leve","hacin_score":782.4,"auto_score":100.0,"n_per":41,"n_hog":15,"source_year":2024,"crime_score":0.152,"crime_nivel":"Medio","crime_color":"#ff9800"},"geometry":{"type":"Polygon","coordinates":[[[-73.0675262949999,-38.0337640470841],[-73.0686066139999,-38.0332873200841],[-73.0679912159999,-38.0324129030841],[-73.0669233049999,-38.0329118880841],[-73.0675262949999,-38.0337640470841]]]}},{"type":"Feature","properties":{"id":"9208021001029","commune":"Purén","code":"09208","gse":"C2","quintil":"Q4","nse_score":736.8,"educ":12.6,"educ_score":640.0,"hacin":1.425,"hacin_class":"Hacinamiento Leve","hacin_score":760.6,"auto_score":131.6,"n_per":57,"n_hog":19,"source_year":2024,"crime_score":0.1544,"crime_nivel":"Medio","crime_color":"#ff9800"},"geometry":{"type":"Polygon","coordinates":[[[-73.0748301369999,-38.0329928280841],[-73.0754075339999,-38.0338467620841],[-73.0759151919999,-38.033726298084],[-73.0754820879999,-38.0339583750841],[-73.0760597559999,-38.0347589630841],[-73.0766032839999,-38.0345659000841],[-73.0763355559999,-38.0342198970841],[-73.0763478299999,-38.0338759440841],[-73.0760696939999,-38.0337742920841],[-73.0759106419999,-38.0335048990841],[-73.0759780649999,-38.0331668950841],[-73.0756578159999,-38.0326041720841],[-73.0748301369999,-38.0329928280841]]]}},{"type":"Feature","properties":{"id":"9208021001031","commune":"Purén","code":"09208","gse":"C2","quintil":"Q4","nse_score":754.6,"educ":12.5,"educ_score":633.3,"hacin":1.278,"hacin_class":"Hacinamiento Leve","hacin_score":792.0,"auto_score":136.4,"n_per":23,"n_hog":11,"source_year":2024,"crime_score":0.1503,"crime_nivel":"Medio","crime_color":"#ff9800"},"geometry":{"type":"Polygon","coordinates":[[[-73.0694603589999,-38.0340887810841],[-73.0705110479999,-38.0336078740841],[-73.0699227259999,-38.0327860880841],[-73.0688488449999,-38.0332523700841],[-73.0694603589999,-38.0340887810841]]]}},{"type":"Feature","properties":{"id":"9208021001032","commune":"Purén","code":"09208","gse":"C3","quintil":"Q2","nse_score":680.3,"educ":11.9,"educ_score":593.3,"hacin":1.133,"hacin_class":"Hacinamiento Leve","hacin_score":822.7,"auto_score":96.2,"n_per":51,"n_hog":23,"source_year":2024,"crime_score":0.1589,"crime_nivel":"Medio","crime_color":"#ff9800"},"geometry":{"type":"Polygon","coordinates":[[[-73.0736757029999,-38.0334949630841],[-73.074252252,-38.0343634880841],[-73.0753162429999,-38.0338957320841],[-73.07470201,-38.0330475020841],[-73.0736757029999,-38.0334949630841]]]}},{"type":"Feature","properties":{"id":"9208021001033","commune":"Purén","code":"09208","gse":"C2","quintil":"Q4","nse_score":721.6,"educ":13.3,"educ_score":686.7,"hacin":0.958,"hacin_class":"Sin Hacinamiento","hacin_score":859.9,"auto_score":0.0,"n_per":23,"n_hog":9,"source_year":2024,"crime_score":0.1532,"crime_nivel":"Medio","crime_color":"#ff9800"},"geometry":{"type":"Polygon","coordinates":[[[-73.0723394679999,-38.0339950070841],[-73.0717387279999,-38.0331723050841],[-73.0706568719999,-38.0336561370841],[-73.0712544339999,-38.0345041140841],[-73.0723394679999,-38.0339950070841]]]}},{"type":"Feature","properties":{"id":"9208021001035","commune":"Purén","code":"09208","gse":"C3","quintil":"Q2","nse_score":683.2,"educ":10.8,"educ_score":520.0,"hacin":1.277,"hacin_class":"Hacinamiento Leve","hacin_score":792.2,"auto_score":104.2,"n_per":60,"n_hog":24,"source_year":2024,"crime_score":0.1594,"crime_nivel":"Medio","crime_color":"#ff9800"},"geometry":{"type":"Polygon","coordinates":[[[-73.0682859639999,-38.0353042090841],[-73.0685638609999,-38.0352441380841],[-73.0688310429999,-38.0355872500841],[-73.068543669,-38.0352832960841],[-73.0682972219999,-38.0353395970841],[-73.0685990059999,-38.0357151910841],[-73.0691276699999,-38.035476960084],[-73.0688742539999,-38.035043844084],[-73.0691874039999,-38.0354497350841],[-73.0700197879999,-38.035056533084],[-73.0694110229999,-38.0342060230841],[-73.0689862959999,-38.0343742310841],[-73.0692522939999,-38.034154572084],[-73.0686555929999,-38.0333398520841],[-73.0675589399999,-38.0338351830841],[-73.0680890959999,-38.0346129300841],[-73.0682859639999,-38.0353042090841]]]}},{"type":"Feature","properties":{"id":"9208021001036","commune":"Purén","code":"09208","gse":"C1","quintil":"Q5","nse_score":783.9,"educ":13.4,"educ_score":693.3,"hacin":0.767,"hacin_class":"Sin Hacinamiento","hacin_score":900.7,"auto_score":90.9,"n_per":23,"n_hog":11,"source_year":2024,"crime_score":0.1478,"crime_nivel":"Medio","crime_color":"#ff9800"},"geometry":{"type":"Polygon","coordinates":[[[-73.073511085,-38.0335725580841],[-73.0724984669999,-38.0340492510841],[-73.0730822709999,-38.0348796920841],[-73.0741628629999,-38.034409425084],[-73.073511085,-38.0335725580841]]]}},{"type":"Feature","properties":{"id":"9208021001037","commune":"Purén","code":"09208","gse":"C2","quintil":"Q4","nse_score":747.3,"educ":15.2,"educ_score":813.3,"hacin":1.0,"hacin_class":"Hacinamiento Leve","hacin_score":851.1,"auto_score":166.7,"n_per":14,"n_hog":7,"source_year":2024,"crime_score":0.1503,"crime_nivel":"Medio","crime_color":"#ff9800"},"geometry":{"type":"Polygon","coordinates":[[[-73.0700970049999,-38.0350186910841],[-73.0711748549999,-38.0345277700841],[-73.0705787509999,-38.0337024350841],[-73.0695056339999,-38.0341696380841],[-73.0700970049999,-38.0350186910841]]]}},{"type":"Feature","properties":{"id":"9208021001038","commune":"Purén","code":"09208","gse":"C3","quintil":"Q3","nse_score":687.5,"educ":11.2,"educ_score":546.7,"hacin":1.18,"hacin_class":"Hacinamiento Leve","hacin_score":812.8,"auto_score":104.2,"n_per":59,"n_hog":22,"source_year":2024,"crime_score":0.1589,"crime_nivel":"Medio","crime_color":"#ff9800"},"geometry":{"type":"Polygon","coordinates":[[[-73.0749082279999,-38.0352886430841],[-73.0759769229999,-38.034819967084],[-73.075375543,-38.0339763660841],[-73.0743125519999,-38.0344363890841],[-73.0749082279999,-38.0352886430841]]]}},{"type":"Feature","properties":{"id":"9208021001039","commune":"Purén","code":"09208","gse":"C2","quintil":"Q4","nse_score":745.9,"educ":12.5,"educ_score":633.3,"hacin":1.147,"hacin_class":"Hacinamiento Leve","hacin_score":819.8,"auto_score":66.7,"n_per":39,"n_hog":14,"source_year":2024,"crime_score":0.1523,"crime_nivel":"Medio","crime_color":"#ff9800"},"geometry":{"type":"Polygon","coordinates":[[[-73.0719474209999,-38.0354187180841],[-73.0729943059999,-38.0349277230841],[-73.0723903059999,-38.0340940670841],[-73.0713179829999,-38.0345746360841],[-73.0719474209999,-38.0354187180841]]]}},{"type":"Feature","properties":{"id":"9208021001040","commune":"Purén","code":"09208","gse":"C3","quintil":"Q3","nse_score":703.7,"educ":12.0,"educ_score":600.0,"hacin":1.261,"hacin_class":"Hacinamiento Leve","hacin_score":795.6,"auto_score":41.7,"n_per":29,"n_hog":12,"source_year":2024,"crime_score":0.1552,"crime_nivel":"Medio","crime_color":"#ff9800"},"geometry":{"type":"Polygon","coordinates":[[[-73.0737454479999,-38.0357992030841],[-73.0748115589999,-38.035329684084],[-73.0742144559999,-38.0344928160841],[-73.073169516,-38.0349504210841],[-73.0737454479999,-38.0357992030841]]]}},{"type":"Feature","properties":{"id":"9208021001041","commune":"Purén","code":"09208","gse":"C3","quintil":"Q3","nse_score":691.5,"educ":10.8,"educ_score":520.0,"hacin":1.111,"hacin_class":"Hacinamiento Leve","hacin_score":827.4,"auto_score":58.8,"n_per":40,"n_hog":16,"source_year":2024,"crime_score":0.1571,"crime_nivel":"Medio","crime_color":"#ff9800"},"geometry":{"type":"Polygon","coordinates":[[[-73.0707455169999,-38.035909502084],[-73.0718252199999,-38.0354438380841],[-73.0712229569999,-38.0346225510841],[-73.07016712,-38.0350995050841],[-73.0707455169999,-38.035909502084]]]}},{"type":"Feature","properties":{"id":"9208021001042","commune":"Purén","code":"09208","gse":"C2","quintil":"Q4","nse_score":729.0,"educ":13.9,"educ_score":726.7,"hacin":1.161,"hacin_class":"Hacinamiento Leve","hacin_score":816.7,"auto_score":100.0,"n_per":36,"n_hog":14,"source_year":2024,"crime_score":0.1535,"crime_nivel":"Medio","crime_color":"#ff9800"},"geometry":{"type":"Polygon","coordinates":[[[-73.0725598319999,-38.036315325084],[-73.0736523969999,-38.035845620084],[-73.0730568309999,-38.0350069690841],[-73.071969899,-38.0354837900841],[-73.0725598319999,-38.036315325084]]]}},{"type":"Feature","properties":{"id":"9208021001043","commune":"Purén","code":"09208","gse":"D","quintil":"Q2","nse_score":654.7,"educ":9.8,"educ_score":453.3,"hacin":1.248,"hacin_class":"Hacinamiento Leve","hacin_score":798.4,"auto_score":118.6,"n_per":136,"n_hog":59,"source_year":2024,"crime_score":0.1678,"crime_nivel":"Medio","crime_color":"#ff9800"},"geometry":{"type":"Polygon","coordinates":[[[-73.0684958679999,-38.0368145510841],[-73.0684070369999,-38.0367015520841],[-73.066960821,-38.037378104084],[-73.0671204829999,-38.037594138084],[-73.0682471739999,-38.038289035084],[-73.069603405,-38.040033932084],[-73.0705316369999,-38.038791392084],[-73.0711430419999,-38.0370373640841],[-73.0698999709999,-38.0377331390841],[-73.0696519339999,-38.037706251084],[-73.0696272139999,-38.037555473084],[-73.0713608429999,-38.036858153084],[-73.0707486719999,-38.0360321050841],[-73.0697035449999,-38.0364320900841],[-73.0706886259999,-38.0359539790841],[-73.0700727939999,-38.035129039084],[-73.0686739369999,-38.0357511110841],[-73.0690476549999,-38.036348322084],[-73.0692961169999,-38.0362990470841],[-73.0684725629999,-38.0366719300841],[-73.0684958679999,-38.0368145510841]]]}},{"type":"Feature","properties":{"id":"9208021001044","commune":"Purén","code":"09208","gse":"D","quintil":"Q1","nse_score":627.4,"educ":9.2,"educ_score":413.3,"hacin":1.417,"hacin_class":"Hacinamiento Leve","hacin_score":762.4,"auto_score":166.7,"n_per":17,"n_hog":6,"source_year":2024,"crime_score":0.1608,"crime_nivel":"Medio","crime_color":"#ff9800"},"geometry":{"type":"Polygon","coordinates":[[[-73.0682849139999,-38.0358439410841],[-73.0685447039999,-38.035739441084],[-73.068258511,-38.0353574120841],[-73.0680243039999,-38.035483169084],[-73.0682849139999,-38.0358439410841]]]}},{"type":"Feature","properties":{"id":"9208021001045","commune":"Purén","code":"09208","gse":"D","quintil":"Q2","nse_score":646.0,"educ":10.5,"educ_score":500.0,"hacin":1.538,"hacin_class":"Hacinamiento Medio","hacin_score":736.5,"auto_score":125.0,"n_per":20,"n_hog":8,"source_year":2024,"crime_score":0.1595,"crime_nivel":"Medio","crime_color":"#ff9800"},"geometry":{"type":"Polygon","coordinates":[[[-73.0679825799999,-38.0359891050841],[-73.0682375889999,-38.035862809084],[-73.0679877869999,-38.0355002720841],[-73.0676967079999,-38.035598356084],[-73.0679825799999,-38.0359891050841]]]}},{"type":"Feature","properties":{"id":"9208021001046","commune":"Purén","code":"09208","gse":"C2","quintil":"Q4","nse_score":772.1,"educ":13.2,"educ_score":680.0,"hacin":1.044,"hacin_class":"Hacinamiento Leve","hacin_score":841.6,"auto_score":23.8,"n_per":47,"n_hog":21,"source_year":2024,"crime_score":0.1506,"crime_nivel":"Medio","crime_color":"#ff9800"},"geometry":{"type":"Polygon","coordinates":[[[-73.0714006599999,-38.036826101084],[-73.0724893929999,-38.0363510270841],[-73.0718709229999,-38.0355301980841],[-73.0708286989999,-38.0360090930841],[-73.0714006599999,-38.036826101084]]]}},{"type":"Feature","properties":{"id":"9208021001047","commune":"Purén","code":"09208","gse":"C3","quintil":"Q3","nse_score":687.4,"educ":11.5,"educ_score":566.7,"hacin":1.308,"hacin_class":"Hacinamiento Leve","hacin_score":785.6,"auto_score":0.0,"n_per":17,"n_hog":7,"source_year":2024,"crime_score":0.1557,"crime_nivel":"Medio","crime_color":"#ff9800"},"geometry":{"type":"Polygon","coordinates":[[[-73.0676673589999,-38.036126036084],[-73.0679267449999,-38.0360153120841],[-73.0676649459999,-38.0356124220841],[-73.0673916819999,-38.0357602570841],[-73.0676673589999,-38.036126036084]]]}},{"type":"Feature","properties":{"id":"9208021001048","commune":"Purén","code":"09208","gse":"C3","quintil":"Q3","nse_score":692.5,"educ":10.5,"educ_score":500.0,"hacin":1.312,"hacin_class":"Hacinamiento Leve","hacin_score":784.6,"auto_score":214.3,"n_per":21,"n_hog":7,"source_year":2024,"crime_score":0.1555,"crime_nivel":"Medio","crime_color":"#ff9800"},"geometry":{"type":"Polygon","coordinates":[[[-73.0673579479999,-38.035776754084],[-73.0670795779999,-38.035907583084],[-73.0673306339999,-38.036248734084],[-73.0676226209999,-38.036154858084],[-73.0673579479999,-38.035776754084]]]}},{"type":"Feature","properties":{"id":"9208021001049","commune":"Purén","code":"09208","gse":"D","quintil":"Q2","nse_score":654.7,"educ":11.1,"educ_score":540.0,"hacin":1.0,"hacin_class":"Hacinamiento Leve","hacin_score":851.1,"auto_score":187.5,"n_per":45,"n_hog":18,"source_year":2024,"crime_score":0.1607,"crime_nivel":"Medio","crime_color":"#ff9800"},"geometry":{"type":"Polygon","coordinates":[[[-73.0686416319999,-38.0363652680841],[-73.0682924239999,-38.0359353520841],[-73.0680318779999,-38.036033892084],[-73.0684369269999,-38.0366305100841],[-73.0690138719999,-38.0363693090841],[-73.0686196759999,-38.0358044750841],[-73.0683230269999,-38.0359241400841],[-73.0686416319999,-38.0363652680841]]]}},{"type":"Feature","properties":{"id":"9208021001052","commune":"Purén","code":"09208","gse":"D","quintil":"Q1","nse_score":636.5,"educ":10.0,"educ_score":466.7,"hacin":1.146,"hacin_class":"Hacinamiento Leve","hacin_score":820.0,"auto_score":57.7,"n_per":55,"n_hog":24,"source_year":2024,"crime_score":0.1631,"crime_nivel":"Medio","crime_color":"#ff9800"},"geometry":{"type":"Polygon","coordinates":[[[-73.0680376079999,-38.036652632084],[-73.0676793419999,-38.0362206740841],[-73.067417626,-38.0363116230841],[-73.0678146549999,-38.0369069210841],[-73.0683861839999,-38.0366513330841],[-73.0679869249999,-38.0360795630841],[-73.0677109749999,-38.0361962320841],[-73.0680376079999,-38.036652632084]]]}},{"type":"Feature","properties":{"id":"9208021001053","commune":"Purén","code":"09208","gse":"D","quintil":"Q2","nse_score":650.4,"educ":9.5,"educ_score":433.3,"hacin":1.036,"hacin_class":"Hacinamiento Leve","hacin_score":843.5,"auto_score":100.0,"n_per":58,"n_hog":24,"source_year":2024,"crime_score":0.1621,"crime_nivel":"Medio","crime_color":"#ff9800"},"geometry":{"type":"Polygon","coordinates":[[[-73.0673592069999,-38.036933823084],[-73.0670303759999,-38.036496841084],[-73.0667660939999,-38.036607302084],[-73.0671805309999,-38.037197823084],[-73.0677608149999,-38.036931205084],[-73.0673655639999,-38.0363633050841],[-73.0670954889999,-38.0364644790841],[-73.0673592069999,-38.036933823084]]]}},{"type":"Feature","properties":{"id":"9208021001054","commune":"Purén","code":"09208","gse":"C3","quintil":"Q2","nse_score":667.0,"educ":10.2,"educ_score":480.0,"hacin":1.364,"hacin_class":"Hacinamiento Leve","hacin_score":773.7,"auto_score":0.0,"n_per":15,"n_hog":7,"source_year":2024,"crime_score":0.1573,"crime_nivel":"Medio","crime_color":"#ff9800"},"geometry":{"type":"Polygon","coordinates":[[[-73.0669209699999,-38.0373000490841],[-73.0671259359999,-38.037211589084],[-73.0667279189999,-38.0366465050841],[-73.0665026269999,-38.0367374780841],[-73.0669209699999,-38.0373000490841]]]}},{"type":"Feature","properties":{"id":"9208021001050","commune":"Purén","code":"09208","gse":"D","quintil":"Q2","nse_score":657.8,"educ":10.2,"educ_score":480.0,"hacin":1.263,"hacin_class":"Hacinamiento Leve","hacin_score":795.1,"auto_score":90.9,"n_per":24,"n_hog":10,"source_year":2024,"crime_score":0.1588,"crime_nivel":"Medio","crime_color":"#ff9800"},"geometry":{"type":"MultiPolygon","coordinates":[[[[-73.0667177019999,-38.036541082084],[-73.0669968789999,-38.0364144650841],[-73.0667496809999,-38.0360486750841],[-73.0665517879999,-38.0362038420841],[-73.0667177019999,-38.036541082084]]],[[[-73.0667762529999,-38.0360371900841],[-73.0670417509999,-38.036410878084],[-73.0673016,-38.0362999830841],[-73.0670522949999,-38.0359195680841],[-73.0667762529999,-38.0360371900841]]]]}},{"type":"Feature","properties":{"id":"9208021001001","commune":"Purén","code":"09208","gse":"C3","quintil":"Q3","nse_score":691.0,"educ":11.1,"educ_score":540.0,"hacin":1.261,"hacin_class":"Hacinamiento Leve","hacin_score":795.6,"auto_score":68.2,"n_per":58,"n_hog":22,"source_year":2024,"crime_score":0.1585,"crime_nivel":"Medio","crime_color":"#ff9800"},"geometry":{"type":"MultiPolygon","coordinates":[[[[-73.0659268029999,-38.0271175230841],[-73.0670368049999,-38.0266308630841],[-73.0656726029999,-38.0248058270842],[-73.0648507569999,-38.0256074890841],[-73.0659268029999,-38.0271175230841]]],[[[-73.0648105099999,-38.0255004890842],[-73.065634138,-38.0246959730841],[-73.0653481299999,-38.0243736970841],[-73.0639541479999,-38.0235922360842],[-73.0648105099999,-38.0255004890842]]]]}},{"type":"Feature","properties":{"id":"9208021002001","commune":"Purén","code":"09208","gse":"C3","quintil":"Q3","nse_score":708.8,"educ":11.0,"educ_score":533.3,"hacin":1.296,"hacin_class":"Hacinamiento Leve","hacin_score":788.1,"auto_score":173.9,"n_per":451,"n_hog":161,"source_year":2024,"crime_score":0.1754,"crime_nivel":"Medio","crime_color":"#ff9800"},"geometry":{"type":"Polygon","coordinates":[[[-73.0761389419999,-38.0348460490841],[-73.0779286059999,-38.0373803790841],[-73.0778385349999,-38.037408734084],[-73.0773613719999,-38.0367814040841],[-73.0763552709999,-38.0372273570841],[-73.0768826569999,-38.038062938084],[-73.0763880719999,-38.038285682084],[-73.0778322149999,-38.040204032084],[-73.0790361109999,-38.039665267084],[-73.0786005889999,-38.038907767084],[-73.0791199989999,-38.039620834084],[-73.0794534179999,-38.039471759084],[-73.0789964569999,-38.038747524084],[-73.0795837349999,-38.0395341760841],[-73.0799794309999,-38.039362390084],[-73.0796283469999,-38.0395886140841],[-73.0798206669999,-38.0398422800841],[-73.0802131419999,-38.039717401084],[-73.0798588749999,-38.039888863084],[-73.0800326409999,-38.040146280084],[-73.0806040499999,-38.0399451960841],[-73.0800782109999,-38.040220739084],[-73.0802581479999,-38.040458837084],[-73.080747228,-38.040290590084],[-73.0803074849999,-38.040516821084],[-73.0806493959999,-38.040976591084],[-73.0805856369999,-38.041190189084],[-73.0810010639999,-38.041328870084],[-73.0805407989999,-38.041234262084],[-73.0804102519999,-38.041520861084],[-73.0810194839999,-38.041764071084],[-73.0803898049999,-38.041566396084],[-73.0802508169999,-38.041844567084],[-73.0808887489999,-38.042064096084],[-73.081280896,-38.042036388084],[-73.081024737,-38.040326225084],[-73.0807019379999,-38.039745472084],[-73.079690061,-38.038914203084],[-73.0795583329999,-38.038042250084],[-73.0794455499999,-38.037788532084],[-73.0790810899999,-38.037519143084],[-73.0789669329999,-38.0369637320841],[-73.0784482859999,-38.0367659040841],[-73.078219251,-38.0364439590841],[-73.0777660129999,-38.0363388610841],[-73.0774308139999,-38.035872254084],[-73.0769835749999,-38.0356817310841],[-73.0766424739999,-38.0350316390841],[-73.0766044539999,-38.0346304120841],[-73.0761389419999,-38.0348460490841]]]}},{"type":"Feature","properties":{"id":"9208021002002","commune":"Purén","code":"09208","gse":"C2","quintil":"Q3","nse_score":720.0,"educ":10.9,"educ_score":526.7,"hacin":0.78,"hacin_class":"Sin Hacinamiento","hacin_score":897.8,"auto_score":0.0,"n_per":32,"n_hog":15,"source_year":2024,"crime_score":0.154,"crime_nivel":"Medio","crime_color":"#ff9800"},"geometry":{"type":"Polygon","coordinates":[[[-73.0755585159999,-38.0361922530841],[-73.0766360899999,-38.035724257084],[-73.0760411339999,-38.0349002300841],[-73.0749793419999,-38.0353793830841],[-73.0755585159999,-38.0361922530841]]]}},{"type":"Feature","properties":{"id":"9208021002003","commune":"Purén","code":"09208","gse":"E","quintil":"Q1","nse_score":593.0,"educ":9.4,"educ_score":426.7,"hacin":1.321,"hacin_class":"Hacinamiento Leve","hacin_score":782.7,"auto_score":0.0,"n_per":37,"n_hog":15,"source_year":2024,"crime_score":0.1654,"crime_nivel":"Medio","crime_color":"#ff9800"},"geometry":{"type":"Polygon","coordinates":[[[-73.0744145499999,-38.036723674084],[-73.0754707609999,-38.036232270084],[-73.0748744789999,-38.035411369084],[-73.0738137189999,-38.035880976084],[-73.0744145499999,-38.036723674084]]]}},{"type":"Feature","properties":{"id":"9208021002004","commune":"Purén","code":"09208","gse":"C2","quintil":"Q3","nse_score":718.0,"educ":11.3,"educ_score":553.3,"hacin":1.083,"hacin_class":"Hacinamiento Leve","hacin_score":833.3,"auto_score":66.7,"n_per":39,"n_hog":15,"source_year":2024,"crime_score":0.1547,"crime_nivel":"Medio","crime_color":"#ff9800"},"geometry":{"type":"Polygon","coordinates":[[[-73.0759362899999,-38.0366991240841],[-73.0769895909999,-38.0362401890841],[-73.0767015629999,-38.0358042710841],[-73.0756259089999,-38.036268514084],[-73.0759362899999,-38.0366991240841]]]}},{"type":"Feature","properties":{"id":"9208021002005","commune":"Purén","code":"09208","gse":"D","quintil":"Q2","nse_score":658.0,"educ":10.2,"educ_score":480.0,"hacin":1.056,"hacin_class":"Hacinamiento Leve","hacin_score":839.2,"auto_score":71.4,"n_per":38,"n_hog":13,"source_year":2024,"crime_score":0.1598,"crime_nivel":"Medio","crime_color":"#ff9800"},"geometry":{"type":"Polygon","coordinates":[[[-73.0736679569999,-38.0359301330841],[-73.0726305509999,-38.0364123680841],[-73.0732384419999,-38.0372374350841],[-73.0743116189999,-38.0367601070841],[-73.0736679569999,-38.0359301330841]]]}},{"type":"Feature","properties":{"id":"9208021002006","commune":"Purén","code":"09208","gse":"E","quintil":"Q1","nse_score":543.7,"educ":8.1,"educ_score":340.0,"hacin":1.931,"hacin_class":"Hacinamiento Medio","hacin_score":653.0,"auto_score":176.5,"n_per":56,"n_hog":15,"source_year":2024,"crime_score":0.1713,"crime_nivel":"Medio","crime_color":"#ff9800"},"geometry":{"type":"Polygon","coordinates":[[[-73.0762612169999,-38.037187915084],[-73.0773155739999,-38.0367397360841],[-73.0770391169999,-38.0363069650841],[-73.0760041359999,-38.036745022084],[-73.0762612169999,-38.037187915084]]]}},{"type":"Feature","properties":{"id":"9208021002007","commune":"Purén","code":"09208","gse":"C2","quintil":"Q4","nse_score":737.7,"educ":12.8,"educ_score":653.3,"hacin":1.229,"hacin_class":"Hacinamiento Leve","hacin_score":802.3,"auto_score":214.3,"n_per":59,"n_hog":28,"source_year":2024,"crime_score":0.1545,"crime_nivel":"Medio","crime_color":"#ff9800"},"geometry":{"type":"Polygon","coordinates":[[[-73.0762582849999,-38.038249164084],[-73.0767831159999,-38.038046491084],[-73.0755432999999,-38.0363208700841],[-73.0744838749999,-38.036782665084],[-73.0750863389999,-38.0376462030841],[-73.0762582849999,-38.038249164084]]]}},{"type":"Feature","properties":{"id":"9208021002008","commune":"Purén","code":"09208","gse":"C3","quintil":"Q2","nse_score":680.6,"educ":10.6,"educ_score":506.7,"hacin":1.351,"hacin_class":"Hacinamiento Leve","hacin_score":776.3,"auto_score":100.0,"n_per":50,"n_hog":20,"source_year":2024,"crime_score":0.1588,"crime_nivel":"Medio","crime_color":"#ff9800"},"geometry":{"type":"Polygon","coordinates":[[[-73.07208578,-38.0377515690841],[-73.0731423639999,-38.0372819090841],[-73.0725545409999,-38.0364519440841],[-73.0714975209999,-38.036912489084],[-73.07208578,-38.0377515690841]]]}},{"type":"Feature","properties":{"id":"9208021002009","commune":"Purén","code":"09208","gse":"ABC1","quintil":"Q5","nse_score":863.2,"educ":15.1,"educ_score":806.7,"hacin":1.111,"hacin_class":"Hacinamiento Leve","hacin_score":827.4,"auto_score":230.8,"n_per":30,"n_hog":13,"source_year":2024,"crime_score":0.1415,"crime_nivel":"Medio","crime_color":"#ff9800"},"geometry":{"type":"Polygon","coordinates":[[[-73.0736136269999,-38.037777433084],[-73.0747017879999,-38.037310711084],[-73.0744101209999,-38.0368622900841],[-73.0732981709999,-38.0373060920841],[-73.0736136269999,-38.037777433084]]]}},{"type":"Feature","properties":{"id":"9208021002013","commune":"Purén","code":"09208","gse":"D","quintil":"Q2","nse_score":661.6,"educ":10.0,"educ_score":466.7,"hacin":1.016,"hacin_class":"Hacinamiento Leve","hacin_score":847.6,"auto_score":127.6,"n_per":310,"n_hog":133,"source_year":2024,"crime_score":0.18,"crime_nivel":"Medio","crime_color":"#ff9800"},"geometry":{"type":"Polygon","coordinates":[[[-73.0729866639999,-38.042917193084],[-73.0725251959999,-38.041352602084],[-73.0726934549999,-38.040966777084],[-73.0724529269999,-38.040785208084],[-73.0742409789999,-38.041775555084],[-73.0737631579999,-38.040629363084],[-73.0742726969999,-38.041771771084],[-73.0744781079999,-38.041747557084],[-73.0754048539999,-38.041291535084],[-73.0749810099999,-38.040676331084],[-73.0753644029999,-38.040485218084],[-73.0752882329999,-38.040360971084],[-73.0754405449999,-38.040451906084],[-73.0773099819999,-38.0396069540841],[-73.0763379829999,-38.038322925084],[-73.0761668219999,-38.0382914630841],[-73.0754839799999,-38.0388635030841],[-73.0760729039999,-38.0382838880841],[-73.0752084139999,-38.037836004084],[-73.0740546789999,-38.038343059084],[-73.0747947979999,-38.039427618084],[-73.0743995399999,-38.039023640084],[-73.0739568479999,-38.0392332050841],[-73.0742911039999,-38.039775541084],[-73.0738995219999,-38.039242359084],[-73.0733561839999,-38.039483524084],[-73.0735790449999,-38.0398406130841],[-73.0739402069999,-38.039715900084],[-73.0736172649999,-38.0398687090841],[-73.073652121,-38.040052232084],[-73.0735288459999,-38.039882144084],[-73.0730104449999,-38.0400994600841],[-73.0722432609999,-38.039068482084],[-73.0717030819999,-38.0393097940841],[-73.0724201129999,-38.040340318084],[-73.0724803209999,-38.040605087084],[-73.0721983049999,-38.041321903084],[-73.0715498159999,-38.041429780084],[-73.0715998459999,-38.041677068084],[-73.0721846399999,-38.041615652084],[-73.0716084879999,-38.041725512084],[-73.0716666349999,-38.042049983084],[-73.0721972619999,-38.042033726084],[-73.0716774619999,-38.042110718084],[-73.0717378319999,-38.042493801084],[-73.0720165959999,-38.042493900084],[-73.0714031809999,-38.042679896084],[-73.0714196999999,-38.043053349084],[-73.0729866639999,-38.042917193084]]]}},{"type":"Feature","properties":{"id":"9208021002014","commune":"Purén","code":"09208","gse":"E","quintil":"Q1","nse_score":577.4,"educ":6.8,"educ_score":253.3,"hacin":1.066,"hacin_class":"Hacinamiento Leve","hacin_score":837.1,"auto_score":53.6,"n_per":65,"n_hog":27,"source_year":2024,"crime_score":0.1691,"crime_nivel":"Medio","crime_color":"#ff9800"},"geometry":{"type":"Polygon","coordinates":[[[-73.0722543119999,-38.038976409084],[-73.0727229769999,-38.038750695084],[-73.0720102999999,-38.037875141084],[-73.0716043509999,-38.038071243084],[-73.0722543119999,-38.038976409084]]]}},{"type":"Feature","properties":{"id":"9208021002015","commune":"Purén","code":"09208","gse":"D","quintil":"Q1","nse_score":621.2,"educ":8.5,"educ_score":366.7,"hacin":1.441,"hacin_class":"Hacinamiento Leve","hacin_score":757.2,"auto_score":78.9,"n_per":49,"n_hog":19,"source_year":2024,"crime_score":0.1639,"crime_nivel":"Medio","crime_color":"#ff9800"},"geometry":{"type":"Polygon","coordinates":[[[-73.0716412949999,-38.0392501150841],[-73.0721920439999,-38.038999262084],[-73.0715129849999,-38.0380994810841],[-73.0709972609999,-38.038347848084],[-73.0716412949999,-38.0392501150841]]]}},{"type":"Feature","properties":{"id":"9208021002017","commune":"Purén","code":"09208","gse":"D","quintil":"Q1","nse_score":635.8,"educ":8.7,"educ_score":380.0,"hacin":0.971,"hacin_class":"Sin Hacinamiento","hacin_score":857.1,"auto_score":66.7,"n_per":34,"n_hog":14,"source_year":2024,"crime_score":0.1615,"crime_nivel":"Medio","crime_color":"#ff9800"},"geometry":{"type":"Polygon","coordinates":[[[-73.0739181099999,-38.039184589084],[-73.0743768059999,-38.038960638084],[-73.0738783369999,-38.038320125084],[-73.0734510409999,-38.038526745084],[-73.0739181099999,-38.039184589084]]]}},{"type":"Feature","properties":{"id":"9208021002019","commune":"Purén","code":"09208","gse":"D","quintil":"Q2","nse_score":658.4,"educ":9.6,"educ_score":440.0,"hacin":0.848,"hacin_class":"Sin Hacinamiento","hacin_score":883.5,"auto_score":130.4,"n_per":50,"n_hog":22,"source_year":2024,"crime_score":0.1608,"crime_nivel":"Medio","crime_color":"#ff9800"},"geometry":{"type":"Polygon","coordinates":[[[-73.0728485409999,-38.038828079084],[-73.0730647069999,-38.039127384084],[-73.0734276679999,-38.039009367084],[-73.0730960249999,-38.039171513084],[-73.0733009609999,-38.039460271084],[-73.0738757479999,-38.039198475084],[-73.0734086779999,-38.038541411084],[-73.0728485409999,-38.038828079084]]]}},{"type":"Feature","properties":{"id":"9208021002020","commune":"Purén","code":"09208","gse":"E","quintil":"Q1","nse_score":591.4,"educ":8.4,"educ_score":360.0,"hacin":1.297,"hacin_class":"Hacinamiento Leve","hacin_score":787.8,"auto_score":55.6,"n_per":48,"n_hog":17,"source_year":2024,"crime_score":0.1664,"crime_nivel":"Medio","crime_color":"#ff9800"},"geometry":{"type":"Polygon","coordinates":[[[-73.0727856489999,-38.039696267084],[-73.0732340829999,-38.0394773780841],[-73.0727273959999,-38.038828976084],[-73.0722992139999,-38.039037100084],[-73.0727856489999,-38.039696267084]]]}},{"type":"Feature","properties":{"id":"9208021002021","commune":"Purén","code":"09208","gse":"E","quintil":"Q1","nse_score":494.3,"educ":5.9,"educ_score":193.3,"hacin":1.6,"hacin_class":"Hacinamiento Medio","hacin_score":723.4,"auto_score":83.3,"n_per":32,"n_hog":12,"source_year":2024,"crime_score":0.1735,"crime_nivel":"Medio","crime_color":"#ff9800"},"geometry":{"type":"Polygon","coordinates":[[[-73.06996591,-38.039724610084],[-73.0709154419999,-38.0393016560841],[-73.070598162,-38.0388636960841],[-73.0704552089999,-38.039094460084],[-73.06996591,-38.039724610084]]]}},{"type":"Feature","properties":{"id":"9208021002022","commune":"Purén","code":"09208","gse":"E","quintil":"Q1","nse_score":542.0,"educ":6.3,"educ_score":220.0,"hacin":1.333,"hacin_class":"Hacinamiento Leve","hacin_score":780.1,"auto_score":0.0,"n_per":12,"n_hog":5,"source_year":2024,"crime_score":0.1677,"crime_nivel":"Medio","crime_color":"#ff9800"},"geometry":{"type":"Polygon","coordinates":[[[-73.0711114009999,-38.039486715084],[-73.0715583689999,-38.039301292084],[-73.0714526899999,-38.039116532084],[-73.0710110069999,-38.039313396084],[-73.0711114009999,-38.039486715084]]]}},{"type":"Feature","properties":{"id":"9208021002023","commune":"Purén","code":"09208","gse":"E","quintil":"Q1","nse_score":595.2,"educ":7.8,"educ_score":320.0,"hacin":1.241,"hacin_class":"Hacinamiento Leve","hacin_score":799.7,"auto_score":45.5,"n_per":36,"n_hog":11,"source_year":2024,"crime_score":0.1651,"crime_nivel":"Medio","crime_color":"#ff9800"},"geometry":{"type":"Polygon","coordinates":[[[-73.0696922749999,-38.040131444084],[-73.0710392809999,-38.039542935084],[-73.0710763279999,-38.039498935084],[-73.0709666679999,-38.0393411520841],[-73.0699162959999,-38.039789167084],[-73.0696922749999,-38.040131444084]]]}},{"type":"Feature","properties":{"id":"9208021002024","commune":"Purén","code":"09208","gse":"E","quintil":"Q1","nse_score":582.8,"educ":8.5,"educ_score":366.7,"hacin":1.246,"hacin_class":"Hacinamiento Leve","hacin_score":798.7,"auto_score":0.0,"n_per":76,"n_hog":29,"source_year":2024,"crime_score":0.1695,"crime_nivel":"Medio","crime_color":"#ff9800"},"geometry":{"type":"Polygon","coordinates":[[[-73.0711809519999,-38.0395484520841],[-73.0717824889999,-38.040501140084],[-73.0720074239999,-38.040516256084],[-73.0717911679999,-38.040536616084],[-73.0719348219999,-38.041284612084],[-73.072137343,-38.041277121084],[-73.0723916089999,-38.040471329084],[-73.0715902789999,-38.0393531810841],[-73.0711809519999,-38.0395484520841]]]}},{"type":"Feature","properties":{"id":"9208021002025","commune":"Purén","code":"09208","gse":"D","quintil":"Q1","nse_score":615.9,"educ":8.4,"educ_score":360.0,"hacin":1.188,"hacin_class":"Hacinamiento Leve","hacin_score":811.2,"auto_score":71.4,"n_per":19,"n_hog":7,"source_year":2024,"crime_score":0.162,"crime_nivel":"Medio","crime_color":"#ff9800"},"geometry":{"type":"Polygon","coordinates":[[[-73.0730507229999,-38.040050260084],[-73.0734917339999,-38.039837380084],[-73.0732713709999,-38.039524129084],[-73.0728106049999,-38.039730070084],[-73.0730507229999,-38.040050260084]]]}},{"type":"Feature","properties":{"id":"9208021002026","commune":"Purén","code":"09208","gse":"C3","quintil":"Q3","nse_score":700.9,"educ":11.4,"educ_score":560.0,"hacin":1.239,"hacin_class":"Hacinamiento Leve","hacin_score":800.2,"auto_score":184.2,"n_per":57,"n_hog":19,"source_year":2024,"crime_score":0.1576,"crime_nivel":"Medio","crime_color":"#ff9800"},"geometry":{"type":"Polygon","coordinates":[[[-73.0795267639999,-38.039577763084],[-73.0791709249999,-38.039682070084],[-73.0796487409999,-38.040317086084],[-73.0799419829999,-38.040153360084],[-73.0795267639999,-38.039577763084]]]}},{"type":"Feature","properties":{"id":"9208021002027","commune":"Purén","code":"09208","gse":"D","quintil":"Q1","nse_score":638.2,"educ":8.9,"educ_score":393.3,"hacin":1.342,"hacin_class":"Hacinamiento Leve","hacin_score":778.3,"auto_score":78.9,"n_per":51,"n_hog":19,"source_year":2024,"crime_score":0.1626,"crime_nivel":"Medio","crime_color":"#ff9800"},"geometry":{"type":"Polygon","coordinates":[[[-73.0711940129999,-38.0405263740841],[-73.0717126919999,-38.040496128084],[-73.0711001369999,-38.039577276084],[-73.0706975319999,-38.0397617940841],[-73.0711940129999,-38.0405263740841]]]}},{"type":"Feature","properties":{"id":"9208021002028","commune":"Purén","code":"09208","gse":"D","quintil":"Q1","nse_score":638.4,"educ":10.0,"educ_score":466.7,"hacin":1.447,"hacin_class":"Hacinamiento Leve","hacin_score":755.9,"auto_score":125.0,"n_per":55,"n_hog":16,"source_year":2024,"crime_score":0.1629,"crime_nivel":"Medio","crime_color":"#ff9800"},"geometry":{"type":"Polygon","coordinates":[[[-73.0769349939999,-38.039840983084],[-73.0773431059999,-38.040413670084],[-73.0777576139999,-38.040213806084],[-73.0773446669999,-38.039655342084],[-73.0769349939999,-38.039840983084]]]}},{"type":"Feature","properties":{"id":"9208021002029","commune":"Purén","code":"09208","gse":"D","quintil":"Q1","nse_score":626.8,"educ":10.0,"educ_score":466.7,"hacin":1.5,"hacin_class":"Hacinamiento Medio","hacin_score":744.7,"auto_score":55.6,"n_per":45,"n_hog":17,"source_year":2024,"crime_score":0.1631,"crime_nivel":"Medio","crime_color":"#ff9800"},"geometry":{"type":"Polygon","coordinates":[[[-73.0788409749999,-38.039826093084],[-73.0793169269999,-38.040468900084],[-73.079553556,-38.040336077084],[-73.0790776259999,-38.0397073990841],[-73.0788409749999,-38.039826093084]]]}},{"type":"Feature","properties":{"id":"9208021002030","commune":"Purén","code":"09208","gse":"E","quintil":"Q1","nse_score":591.9,"educ":9.1,"educ_score":406.7,"hacin":1.2,"hacin_class":"Hacinamiento Leve","hacin_score":808.5,"auto_score":100.0,"n_per":42,"n_hog":15,"source_year":2024,"crime_score":0.1659,"crime_nivel":"Medio","crime_color":"#ff9800"},"geometry":{"type":"Polygon","coordinates":[[[-73.0707086019999,-38.0406358810841],[-73.0711344109999,-38.040575148084],[-73.0706377399999,-38.039787990084],[-73.0702350539999,-38.039978311084],[-73.0707086019999,-38.0406358810841]]]}},{"type":"Feature","properties":{"id":"9208021002031","commune":"Purén","code":"09208","gse":"D","quintil":"Q1","nse_score":630.2,"educ":9.3,"educ_score":420.0,"hacin":1.353,"hacin_class":"Hacinamiento Leve","hacin_score":776.0,"auto_score":29.4,"n_per":46,"n_hog":17,"source_year":2024,"crime_score":0.1629,"crime_nivel":"Medio","crime_color":"#ff9800"},"geometry":{"type":"Polygon","coordinates":[[[-73.0789969809999,-38.040598704084],[-73.0792523039999,-38.040489007084],[-73.0787817119999,-38.039853063084],[-73.0785367189999,-38.0399519630841],[-73.0789969809999,-38.040598704084]]]}},{"type":"Feature","properties":{"id":"9208021002032","commune":"Purén","code":"09208","gse":"D","quintil":"Q2","nse_score":659.6,"educ":11.2,"educ_score":546.7,"hacin":1.312,"hacin_class":"Hacinamiento Leve","hacin_score":784.6,"auto_score":222.2,"n_per":42,"n_hog":16,"source_year":2024,"crime_score":0.16,"crime_nivel":"Medio","crime_color":"#ff9800"},"geometry":{"type":"Polygon","coordinates":[[[-73.0765826999999,-38.040000624084],[-73.0769935519999,-38.040581744084],[-73.0773139099999,-38.040427748084],[-73.0769053409999,-38.039854421084],[-73.0765826999999,-38.040000624084]]]}},{"type":"Feature","properties":{"id":"9208021002033","commune":"Purén","code":"09208","gse":"D","quintil":"Q1","nse_score":619.6,"educ":9.7,"educ_score":446.7,"hacin":1.462,"hacin_class":"Hacinamiento Leve","hacin_score":752.9,"auto_score":50.0,"n_per":57,"n_hog":20,"source_year":2024,"crime_score":0.1647,"crime_nivel":"Medio","crime_color":"#ff9800"},"geometry":{"type":"Polygon","coordinates":[[[-73.0786657099999,-38.040711132084],[-73.0789406519999,-38.040629835084],[-73.0784733009999,-38.039986537084],[-73.0782195379999,-38.040098533084],[-73.0786657099999,-38.040711132084]]]}},{"type":"Feature","properties":{"id":"9208021002034","commune":"Purén","code":"09208","gse":"D","quintil":"Q1","nse_score":629.7,"educ":8.7,"educ_score":380.0,"hacin":1.321,"hacin_class":"Hacinamiento Leve","hacin_score":782.7,"auto_score":142.9,"n_per":37,"n_hog":14,"source_year":2024,"crime_score":0.1622,"crime_nivel":"Medio","crime_color":"#ff9800"},"geometry":{"type":"Polygon","coordinates":[[[-73.0697471849999,-38.040201284084],[-73.0702993359999,-38.040907079084],[-73.0706886549999,-38.040720933084],[-73.0701517569999,-38.040007781084],[-73.0697471849999,-38.040201284084]]]}},{"type":"Feature","properties":{"id":"9208021002035","commune":"Purén","code":"09208","gse":"D","quintil":"Q2","nse_score":662.8,"educ":11.3,"educ_score":553.3,"hacin":1.381,"hacin_class":"Hacinamiento Leve","hacin_score":770.0,"auto_score":184.2,"n_per":58,"n_hog":18,"source_year":2024,"crime_score":0.161,"crime_nivel":"Medio","crime_color":"#ff9800"},"geometry":{"type":"Polygon","coordinates":[[[-73.0761666499999,-38.040189155084],[-73.0765642199999,-38.040774475084],[-73.0769638309999,-38.040595086084],[-73.0765530469999,-38.0400140610841],[-73.0761666499999,-38.040189155084]]]}},{"type":"Feature","properties":{"id":"9208021002036","commune":"Purén","code":"09208","gse":"D","quintil":"Q1","nse_score":643.0,"educ":9.9,"educ_score":460.0,"hacin":1.355,"hacin_class":"Hacinamiento Leve","hacin_score":775.6,"auto_score":26.3,"n_per":42,"n_hog":19,"source_year":2024,"crime_score":0.1615,"crime_nivel":"Medio","crime_color":"#ff9800"},"geometry":{"type":"Polygon","coordinates":[[[-73.0783460349999,-38.040899518084],[-73.0786400529999,-38.040779178084],[-73.0781601759999,-38.040127089084],[-73.0778866939999,-38.040247098084],[-73.0783460349999,-38.040899518084]]]}},{"type":"Feature","properties":{"id":"9208021002038","commune":"Purén","code":"09208","gse":"C3","quintil":"Q3","nse_score":704.8,"educ":11.4,"educ_score":560.0,"hacin":1.215,"hacin_class":"Hacinamiento Leve","hacin_score":805.2,"auto_score":285.7,"n_per":79,"n_hog":26,"source_year":2024,"crime_score":0.1589,"crime_nivel":"Medio","crime_color":"#ff9800"},"geometry":{"type":"Polygon","coordinates":[[[-73.0797688099999,-38.040522627084],[-73.0796029209999,-38.040413573084],[-73.0793519919999,-38.040515219084],[-73.0795014179999,-38.040820546084],[-73.0792926279999,-38.040542018084],[-73.0787361329999,-38.040797842084],[-73.0790235229999,-38.041195001084],[-73.0799499579999,-38.040785595084],[-73.0801630039999,-38.041048112084],[-73.0805114689999,-38.041135647084],[-73.0805679809999,-38.040987518084],[-73.0800056619999,-38.040232531084],[-73.0796787569999,-38.040380658084],[-73.0797688099999,-38.040522627084]]]}},{"type":"Feature","properties":{"id":"9208021002039","commune":"Purén","code":"09208","gse":"E","quintil":"Q1","nse_score":593.1,"educ":8.1,"educ_score":340.0,"hacin":1.457,"hacin_class":"Hacinamiento Leve","hacin_score":753.9,"auto_score":59.5,"n_per":118,"n_hog":40,"source_year":2024,"crime_score":0.172,"crime_nivel":"Medio","crime_color":"#ff9800"},"geometry":{"type":"Polygon","coordinates":[[[-73.0696588439999,-38.044765926084],[-73.0734769769999,-38.044331859084],[-73.0729803129999,-38.042946467084],[-73.0724435809999,-38.042925860084],[-73.0713772789999,-38.043167629084],[-73.0713411699999,-38.042706815084],[-73.0710680179999,-38.042664032084],[-73.0716576179999,-38.042580438084],[-73.0716240419999,-38.042183737084],[-73.0710760499999,-38.042166904084],[-73.0716052699999,-38.042078354084],[-73.0715421349999,-38.041700814084],[-73.0708537739999,-38.041726961084],[-73.0702778079999,-38.040980505084],[-73.0700391849999,-38.041034785084],[-73.0702408209999,-38.040935019084],[-73.0696638089999,-38.040234790084],[-73.0694494649999,-38.040422888084],[-73.0693673099999,-38.041073314084],[-73.0689719209999,-38.041231625084],[-73.0692811259999,-38.042268483084],[-73.0699502009999,-38.042537586084],[-73.0701317369999,-38.043100096084],[-73.0696588439999,-38.044765926084]]]}},{"type":"Feature","properties":{"id":"9208021002040","commune":"Purén","code":"09208","gse":"C3","quintil":"Q2","nse_score":669.6,"educ":10.3,"educ_score":486.7,"hacin":1.26,"hacin_class":"Hacinamiento Leve","hacin_score":795.8,"auto_score":234.0,"n_per":131,"n_hog":44,"source_year":2024,"crime_score":0.1661,"crime_nivel":"Medio","crime_color":"#ff9800"},"geometry":{"type":"Polygon","coordinates":[[[-73.0750107969999,-38.041477539084],[-73.0750290759999,-38.041719205084],[-73.0755028269999,-38.041514721084],[-73.075889904,-38.042039688084],[-73.0775448399999,-38.041300205084],[-73.0779263139999,-38.042510516084],[-73.0792147139999,-38.043230749084],[-73.0785759589999,-38.041898841084],[-73.0785690879999,-38.041323912084],[-73.0777933969999,-38.040259861084],[-73.0759125669999,-38.041126819084],[-73.0759524969999,-38.041292395084],[-73.0758530319999,-38.041153373084],[-73.0750107969999,-38.041477539084]]]}},{"type":"Feature","properties":{"id":"9208021002041","commune":"Purén","code":"09208","gse":"D","quintil":"Q1","nse_score":632.8,"educ":10.9,"educ_score":526.7,"hacin":1.31,"hacin_class":"Hacinamiento Leve","hacin_score":785.0,"auto_score":33.3,"n_per":38,"n_hog":12,"source_year":2024,"crime_score":0.162,"crime_nivel":"Medio","crime_color":"#ff9800"},"geometry":{"type":"Polygon","coordinates":[[[-73.0754668539999,-38.040503850084],[-73.0758789069999,-38.041079773084],[-73.0762227289999,-38.040926699084],[-73.0758110669999,-38.040350184084],[-73.0754668539999,-38.040503850084]]]}},{"type":"Feature","properties":{"id":"9208021002043","commune":"Purén","code":"09208","gse":"C3","quintil":"Q2","nse_score":669.2,"educ":11.9,"educ_score":593.3,"hacin":1.735,"hacin_class":"Hacinamiento Medio","hacin_score":694.6,"auto_score":29.4,"n_per":59,"n_hog":16,"source_year":2024,"crime_score":0.1605,"crime_nivel":"Medio","crime_color":"#ff9800"},"geometry":{"type":"Polygon","coordinates":[[[-73.075061521,-38.040682548084],[-73.0754759469999,-38.041259771084],[-73.0758193709999,-38.041106326084],[-73.0754072699999,-38.040530335084],[-73.075061521,-38.040682548084]]]}},{"type":"Feature","properties":{"id":"9208021002044","commune":"Purén","code":"09208","gse":"D","quintil":"Q1","nse_score":618.8,"educ":9.8,"educ_score":453.3,"hacin":1.389,"hacin_class":"Hacinamiento Leve","hacin_score":768.3,"auto_score":69.8,"n_per":100,"n_hog":38,"source_year":2024,"crime_score":0.1682,"crime_nivel":"Medio","crime_color":"#ff9800"},"geometry":{"type":"Polygon","coordinates":[[[-73.0712634499999,-38.040919900084],[-73.0711376209999,-38.040636018084],[-73.070779952,-38.040740841084],[-73.0708133959999,-38.040902269084],[-73.0707188869999,-38.040769647084],[-73.0703293789999,-38.040955884084],[-73.0709855459999,-38.041733853084],[-73.0715279339999,-38.041638401084],[-73.071472937,-38.041406665084],[-73.0709680049999,-38.041468632084],[-73.0714603089999,-38.041350212084],[-73.0714188709999,-38.041087444084],[-73.0709799039999,-38.041087524084],[-73.0718069729999,-38.040964324084],[-73.0717260079999,-38.040553471084],[-73.0712137049999,-38.040629187084],[-73.0712634499999,-38.040919900084]]]}},{"type":"Feature","properties":{"id":"9208021002045","commune":"Purén","code":"09208","gse":"E","quintil":"Q1","nse_score":603.1,"educ":9.0,"educ_score":400.0,"hacin":1.348,"hacin_class":"Hacinamiento Leve","hacin_score":777.1,"auto_score":0.0,"n_per":31,"n_hog":10,"source_year":2024,"crime_score":0.164,"crime_nivel":"Medio","crime_color":"#ff9800"},"geometry":{"type":"Polygon","coordinates":[[[-73.0786717519999,-38.041350376084],[-73.0789640599999,-38.041221658084],[-73.0786768389999,-38.040824807084],[-73.0783892819999,-38.040960615084],[-73.0786717519999,-38.041350376084]]]}},{"type":"Feature","properties":{"id":"9208021002046","commune":"Purén","code":"09208","gse":"C2","quintil":"Q4","nse_score":759.8,"educ":12.5,"educ_score":633.3,"hacin":1.276,"hacin_class":"Hacinamiento Leve","hacin_score":792.4,"auto_score":312.5,"n_per":37,"n_hog":16,"source_year":2024,"crime_score":0.1509,"crime_nivel":"Medio","crime_color":"#ff9800"},"geometry":{"type":"Polygon","coordinates":[[[-73.0792604079999,-38.041152554084],[-73.0803199839999,-38.041486765084],[-73.0804629589999,-38.041212985084],[-73.0801345389999,-38.041083080084],[-73.0799417569999,-38.040841393084],[-73.0792604079999,-38.041152554084]]]}},{"type":"Feature","properties":{"id":"9208021002047","commune":"Purén","code":"09208","gse":"C3","quintil":"Q2","nse_score":668.6,"educ":10.2,"educ_score":480.0,"hacin":1.45,"hacin_class":"Hacinamiento Leve","hacin_score":755.3,"auto_score":125.0,"n_per":29,"n_hog":8,"source_year":2024,"crime_score":0.1582,"crime_nivel":"Medio","crime_color":"#ff9800"},"geometry":{"type":"Polygon","coordinates":[[[-73.0715225089999,-38.041358380084],[-73.0718607039999,-38.041315298084],[-73.0718135489999,-38.041018144084],[-73.0714640329999,-38.041081607084],[-73.0715225089999,-38.041358380084]]]}},{"type":"Feature","properties":{"id":"9208021002048","commune":"Purén","code":"09208","gse":"C1","quintil":"Q5","nse_score":797.4,"educ":13.7,"educ_score":713.3,"hacin":1.22,"hacin_class":"Hacinamiento Leve","hacin_score":804.2,"auto_score":83.3,"n_per":72,"n_hog":24,"source_year":2024,"crime_score":0.1502,"crime_nivel":"Medio","crime_color":"#ff9800"},"geometry":{"type":"Polygon","coordinates":[[[-73.0787469339999,-38.041389037084],[-73.0801767649999,-38.041787306084],[-73.0802733169999,-38.041518276084],[-73.0791983689999,-38.041183289084],[-73.0787469339999,-38.041389037084]]]}},{"type":"Feature","properties":{"id":"9208021002049","commune":"Purén","code":"09208","gse":"C3","quintil":"Q2","nse_score":680.4,"educ":10.7,"educ_score":513.3,"hacin":1.41,"hacin_class":"Hacinamiento Leve","hacin_score":763.8,"auto_score":202.7,"n_per":110,"n_hog":37,"source_year":2024,"crime_score":0.1635,"crime_nivel":"Medio","crime_color":"#ff9800"},"geometry":{"type":"Polygon","coordinates":[[[-73.0786220439999,-38.041870757084],[-73.0794603179999,-38.043443454084],[-73.08022625,-38.043022747084],[-73.0813645219999,-38.042657100084],[-73.0814739769999,-38.042509573084],[-73.0812890669999,-38.042090106084],[-73.0810724959999,-38.042117930084],[-73.0808840239999,-38.042563721084],[-73.0798661159999,-38.042644682084],[-73.0794159769999,-38.041661639084],[-73.0786377859999,-38.041403673084],[-73.0786220439999,-38.041870757084]]]}},{"type":"Feature","properties":{"id":"9208021002050","commune":"Purén","code":"09208","gse":"C3","quintil":"Q3","nse_score":689.3,"educ":11.3,"educ_score":553.3,"hacin":1.087,"hacin_class":"Hacinamiento Leve","hacin_score":832.6,"auto_score":181.8,"n_per":25,"n_hog":10,"source_year":2024,"crime_score":0.1561,"crime_nivel":"Medio","crime_color":"#ff9800"},"geometry":{"type":"Polygon","coordinates":[[[-73.0798938549999,-38.042566704084],[-73.0801811779999,-38.041922572084],[-73.0795324439999,-38.041696552084],[-73.0795111319999,-38.041714628084],[-73.0798938549999,-38.042566704084]]]}},{"type":"Feature","properties":{"id":"9208021002051","commune":"Purén","code":"09208","gse":"C3","quintil":"Q2","nse_score":674.3,"educ":10.2,"educ_score":480.0,"hacin":1.406,"hacin_class":"Hacinamiento Leve","hacin_score":764.6,"auto_score":117.6,"n_per":45,"n_hog":17,"source_year":2024,"crime_score":0.159,"crime_nivel":"Medio","crime_color":"#ff9800"},"geometry":{"type":"Polygon","coordinates":[[[-73.0803388339999,-38.041946139084],[-73.0801679439999,-38.042191852084],[-73.0809149999999,-38.042421464084],[-73.0810030099999,-38.042209873084],[-73.0809986639999,-38.042120144084],[-73.0803388339999,-38.041946139084]]]}},{"type":"Feature","properties":{"id":"9208021002052","commune":"Purén","code":"09208","gse":"D","quintil":"Q1","nse_score":618.3,"educ":9.5,"educ_score":433.3,"hacin":1.161,"hacin_class":"Hacinamiento Leve","hacin_score":816.7,"auto_score":93.8,"n_per":36,"n_hog":15,"source_year":2024,"crime_score":0.1631,"crime_nivel":"Medio","crime_color":"#ff9800"},"geometry":{"type":"Polygon","coordinates":[[[-73.0799778719999,-38.042617704084],[-73.0806655369999,-38.042587215084],[-73.0809051529999,-38.042456830084],[-73.0801442999999,-38.042223054084],[-73.0799778719999,-38.042617704084]]]}},{"type":"Feature","properties":{"id":"9208021002010","commune":"Purén","code":"09208","gse":"E","quintil":"Q1","nse_score":550.1,"educ":7.8,"educ_score":320.0,"hacin":1.4,"hacin_class":"Hacinamiento Leve","hacin_score":766.0,"auto_score":0.0,"n_per":28,"n_hog":11,"source_year":2024,"crime_score":0.1684,"crime_nivel":"Medio","crime_color":"#ff9800"},"geometry":{"type":"MultiPolygon","coordinates":[[[[-73.0709548459999,-38.039278139084],[-73.0714215449999,-38.039070242084],[-73.0709186639999,-38.038357037084],[-73.0707590659999,-38.038426347084],[-73.0706312129999,-38.038793140084],[-73.0709548459999,-38.039278139084]]],[[[-73.0708377729999,-38.0381235660841],[-73.0709750739999,-38.0382641260841],[-73.0720077489999,-38.0377637330841],[-73.0714066219999,-38.0369266010841],[-73.0712580789999,-38.037002402084],[-73.0708377729999,-38.0381235660841]]]]}},{"type":"Feature","properties":{"id":"9208021002011","commune":"Purén","code":"09208","gse":"C1","quintil":"Q5","nse_score":809.1,"educ":13.6,"educ_score":706.7,"hacin":0.8,"hacin_class":"Sin Hacinamiento","hacin_score":893.6,"auto_score":0.0,"n_per":28,"n_hog":11,"source_year":2024,"crime_score":0.146,"crime_nivel":"Medio","crime_color":"#ff9800"},"geometry":{"type":"MultiPolygon","coordinates":[[[[-73.0739772229999,-38.038275832084],[-73.0741140029999,-38.038261709084],[-73.0751268949999,-38.037768344084],[-73.0747315759999,-38.037359538084],[-73.0736753469999,-38.037834841084],[-73.0739772229999,-38.038275832084]]],[[[-73.0727873559999,-38.038728038084],[-73.0738482889999,-38.038244926084],[-73.0732161099999,-38.0373635020841],[-73.072153237,-38.037825309084],[-73.0727873559999,-38.038728038084]]]]}},{"type":"Feature","properties":{"id":"9208043013001","commune":"Purén","code":"09208","gse":"D","quintil":"Q1","nse_score":639.4,"educ":9.5,"educ_score":433.3,"hacin":1.115,"hacin_class":"Hacinamiento Leve","hacin_score":826.5,"auto_score":136.4,"n_per":29,"n_hog":11,"source_year":2024,"crime_score":0.1607,"crime_nivel":"Medio","crime_color":"#ff9800"},"geometry":{"type":"Polygon","coordinates":[[[-73.0137334449999,-38.0015248850843],[-73.0137542849999,-38.0009440190843],[-73.0115736999999,-38.0009326150844],[-73.0137559009999,-38.0008989900843],[-73.0138669049999,-38.0006095110843],[-73.0126338569999,-37.9998621900843],[-73.0116100059999,-37.9994107210844],[-73.0110178839999,-37.9995774090843],[-73.0112082889999,-38.0002161470843],[-73.0111070109999,-38.0005127460843],[-73.0113355639999,-38.0017615090843],[-73.0109887489999,-38.0018998270843],[-73.0104434649999,-38.0026677600843],[-73.0099137679999,-38.0026634400843],[-73.0099915879999,-38.0029773750843],[-73.0098490479999,-38.0032980240843],[-73.0093365889999,-38.0037093020843],[-73.0108833499999,-38.0043309280843],[-73.0113011459999,-38.0018978300843],[-73.0113227189999,-38.0020620330843],[-73.0137159189999,-38.0020133870843],[-73.0137315169999,-38.0015786390843],[-73.0128062389999,-38.0014979550843],[-73.0137334449999,-38.0015248850843]]]}},{"type":"Feature","properties":{"id":"9208043013002","commune":"Purén","code":"09208","gse":"E","quintil":"Q1","nse_score":556.8,"educ":7.5,"educ_score":300.0,"hacin":1.29,"hacin_class":"Hacinamiento Leve","hacin_score":789.3,"auto_score":0.0,"n_per":40,"n_hog":13,"source_year":2024,"crime_score":0.1688,"crime_nivel":"Medio","crime_color":"#ff9800"},"geometry":{"type":"Polygon","coordinates":[[[-73.0161319099999,-38.0012312130843],[-73.0143330369999,-38.0006734680843],[-73.0138856979999,-38.0006963100844],[-73.0137771949999,-38.0024704370843],[-73.0160786099999,-38.0025104110843],[-73.0161319099999,-38.0012312130843]]]}},{"type":"Feature","properties":{"id":"9208043013003","commune":"Purén","code":"09208","gse":"D","quintil":"Q1","nse_score":617.4,"educ":9.3,"educ_score":420.0,"hacin":1.254,"hacin_class":"Hacinamiento Leve","hacin_score":797.0,"auto_score":51.7,"n_per":79,"n_hog":29,"source_year":2024,"crime_score":0.1667,"crime_nivel":"Medio","crime_color":"#ff9800"},"geometry":{"type":"Polygon","coordinates":[[[-73.0201453699999,-38.0031137710843],[-73.0206288769999,-38.0040008340843],[-73.02262572,-38.0038961380843],[-73.0194848319999,-38.0018840660843],[-73.0162049829999,-38.0011873600844],[-73.0161840439999,-38.0019583050844],[-73.0197494279999,-38.0027654180843],[-73.0201453699999,-38.0031137710843]]]}},{"type":"Feature","properties":{"id":"9208043013004","commune":"Purén","code":"09208","gse":"D","quintil":"Q2","nse_score":645.8,"educ":10.6,"educ_score":506.7,"hacin":1.19,"hacin_class":"Hacinamiento Leve","hacin_score":810.5,"auto_score":200.0,"n_per":25,"n_hog":9,"source_year":2024,"crime_score":0.1599,"crime_nivel":"Medio","crime_color":"#ff9800"},"geometry":{"type":"Polygon","coordinates":[[[-73.0180178939999,-38.0024656060843],[-73.0162047449999,-38.0020206470843],[-73.0161595349999,-38.0029890880843],[-73.0177656709999,-38.0032579670843],[-73.0180178939999,-38.0024656060843]]]}},{"type":"Feature","properties":{"id":"9208043013006","commune":"Purén","code":"09208","gse":"D","quintil":"Q1","nse_score":631.4,"educ":9.3,"educ_score":420.0,"hacin":1.343,"hacin_class":"Hacinamiento Leve","hacin_score":778.1,"auto_score":266.7,"n_per":94,"n_hog":30,"source_year":2024,"crime_score":0.1666,"crime_nivel":"Medio","crime_color":"#ff9800"},"geometry":{"type":"Polygon","coordinates":[[[-73.0187238799999,-38.0035307320843],[-73.0178215889999,-38.0033437070843],[-73.01760601,-38.0040946650843],[-73.0182770179999,-38.0043616400843],[-73.0188066859999,-38.0048313460843],[-73.0193520579999,-38.0044701430843],[-73.0205118069999,-38.0040189980843],[-73.0200763659999,-38.0031481150843],[-73.0197765539999,-38.0028673390843],[-73.0180966539999,-38.0024509330843],[-73.0178706059999,-38.0032861240843],[-73.0187238799999,-38.0035307320843]]]}},{"type":"Feature","properties":{"id":"9208043013007","commune":"Purén","code":"09208","gse":"E","quintil":"Q1","nse_score":568.8,"educ":8.0,"educ_score":333.3,"hacin":1.447,"hacin_class":"Hacinamiento Leve","hacin_score":756.0,"auto_score":347.8,"n_per":68,"n_hog":23,"source_year":2024,"crime_score":0.1701,"crime_nivel":"Medio","crime_color":"#ff9800"},"geometry":{"type":"Polygon","coordinates":[[[-73.0137318659999,-38.0039986450843],[-73.0160310209999,-38.0040730040843],[-73.0160786099999,-38.0026393780843],[-73.0137764809999,-38.0025560970844],[-73.0137318659999,-38.0039986450843]]]}},{"type":"Feature","properties":{"id":"9208043013011","commune":"Purén","code":"09208","gse":"E","quintil":"Q1","nse_score":529.4,"educ":8.8,"educ_score":386.7,"hacin":1.368,"hacin_class":"Hacinamiento Leve","hacin_score":772.7,"auto_score":250.0,"n_per":26,"n_hog":9,"source_year":2024,"crime_score":0.17,"crime_nivel":"Medio","crime_color":"#ff9800"},"geometry":{"type":"Polygon","coordinates":[[[-73.0111460599999,-38.0033232410843],[-73.0109574499999,-38.0043186380843],[-73.012011534,-38.0040303140843],[-73.013629567,-38.0039916480843],[-73.0136680779999,-38.0033468620843],[-73.0111460599999,-38.0033232410843]]]}},{"type":"Feature","properties":{"id":"9208043013013","commune":"Purén","code":"09208","gse":"D","quintil":"Q2","nse_score":653.8,"educ":9.4,"educ_score":426.7,"hacin":1.173,"hacin_class":"Hacinamiento Leve","hacin_score":814.2,"auto_score":13.9,"n_per":88,"n_hog":36,"source_year":2024,"crime_score":0.1641,"crime_nivel":"Medio","crime_color":"#ff9800"},"geometry":{"type":"Polygon","coordinates":[[[-73.0225793209999,-38.0039861610843],[-73.020907512,-38.0040147150843],[-73.0210831159999,-38.0046357540843],[-73.0208475489999,-38.0040204250843],[-73.0205934229999,-38.0040703940843],[-73.0202650569999,-38.0041546270843],[-73.0205177559999,-38.0046243330843],[-73.0202236549999,-38.0041689040843],[-73.0188402359999,-38.0049155790843],[-73.0200680379999,-38.0060748520843],[-73.0212444429999,-38.0057650460843],[-73.0221995589999,-38.0056722470843],[-73.0225793209999,-38.0039861610843]]]}},{"type":"Feature","properties":{"id":"9208043013014","commune":"Purén","code":"09208","gse":"D","quintil":"Q1","nse_score":621.2,"educ":9.0,"educ_score":400.0,"hacin":1.148,"hacin_class":"Hacinamiento Leve","hacin_score":819.5,"auto_score":0.0,"n_per":31,"n_hog":13,"source_year":2024,"crime_score":0.1625,"crime_nivel":"Medio","crime_color":"#ff9800"},"geometry":{"type":"Polygon","coordinates":[[[-73.0201432409999,-38.0061168260843],[-73.0217111179999,-38.0080281540843],[-73.0221531969999,-38.0075601430843],[-73.0223316559999,-38.0073031610843],[-73.0222418339999,-38.0070322800843],[-73.0224589579999,-38.0066535690843],[-73.0234892989999,-38.0064332890843],[-73.0225588699999,-38.0058322420843],[-73.0221743489999,-38.0057323050843],[-73.0212092389999,-38.0058274830843],[-73.0201432409999,-38.0061168260843]]]}},{"type":"Feature","properties":{"id":"9208043013005","commune":"Purén","code":"09208","gse":"E","quintil":"Q1","nse_score":558.5,"educ":8.8,"educ_score":386.7,"hacin":1.546,"hacin_class":"Hacinamiento Medio","hacin_score":735.0,"auto_score":83.3,"n_per":17,"n_hog":6,"source_year":2024,"crime_score":0.1667,"crime_nivel":"Medio","crime_color":"#ff9800"},"geometry":{"type":"MultiPolygon","coordinates":[[[[-73.0111591609999,-38.0032693080843],[-73.0136700169999,-38.0032928190843],[-73.0136905489999,-38.0027205250843],[-73.0112186259999,-38.0027014590843],[-73.0111591609999,-38.0032693080843]]],[[[-73.0112722619999,-38.0026478140843],[-73.0136924879999,-38.0026664800843],[-73.013714305,-38.0020583670843],[-73.0113133949999,-38.0021076790843],[-73.0112722619999,-38.0026478140843]]]]}},{"type":"Feature","properties":{"id":"9208043013010","commune":"Purén","code":"09208","gse":"C3","quintil":"Q3","nse_score":700.6,"educ":10.7,"educ_score":513.3,"hacin":0.944,"hacin_class":"Sin Hacinamiento","hacin_score":862.9,"auto_score":0.0,"n_per":51,"n_hog":22,"source_year":2024,"crime_score":0.1571,"crime_nivel":"Medio","crime_color":"#ff9800"},"geometry":{"type":"MultiPolygon","coordinates":[[[[-73.0223261579999,-38.0056799570843],[-73.0235375809999,-38.0064135070843],[-73.0240567659999,-38.0061265180843],[-73.0243625259999,-38.0058957100843],[-73.0247056029999,-38.0052882280843],[-73.0250678489999,-38.0049331760843],[-73.0243653559999,-38.0037002450843],[-73.0237300399999,-38.0039096380843],[-73.0226545239999,-38.0040428870843],[-73.0223261579999,-38.0056799570843]]],[[[-73.0244660569999,-38.0034950760843],[-73.0251134459999,-38.0049057640843],[-73.0252726699999,-38.0048071070843],[-73.0254511299999,-38.0040563870843],[-73.0262864139999,-38.0034857620843],[-73.0258708909999,-38.0032433290843],[-73.0252945849999,-38.0031814630843],[-73.0244660569999,-38.0034950760843]]]]}}]}