{"type":"FeatureCollection","features":[{"type":"Feature","properties":{"id":"10304011001001","commune":"Puyehue","code":"10304","gse":"E","quintil":"Q1","nse_score":594.5,"educ":8.9,"educ_score":393.3,"hacin":1.0,"hacin_class":"Hacinamiento Leve","hacin_score":851.1,"auto_score":0.0,"n_per":19,"n_hog":9,"source_year":2024},"geometry":{"type":"Polygon","coordinates":[[[-72.6006870579999,-40.6797234770671],[-72.6000724709999,-40.6801109100672],[-72.5999508379999,-40.6803523090672],[-72.5987650079999,-40.6804749570672],[-72.5980982899999,-40.6807369160672],[-72.5969494289999,-40.6815420480671],[-72.5945148329999,-40.6823227900672],[-72.5948801769999,-40.6828455680672],[-72.5964391209999,-40.6822619520671],[-72.5964679849999,-40.6819698500671],[-72.5973638059999,-40.6816695430672],[-72.5975501389999,-40.6813520790672],[-72.5987412709999,-40.6806832410672],[-72.6000127869999,-40.6805544520672],[-72.6009910459999,-40.6808263320671],[-72.6015539279999,-40.6806480300671],[-72.601472929,-40.6804749620672],[-72.6015911109999,-40.6802933370672],[-72.6019740689999,-40.6802145410672],[-72.6027804779999,-40.6801859410672],[-72.6016103029999,-40.6803300070672],[-72.6015155249999,-40.6804796570671],[-72.6018412199999,-40.6811820280672],[-72.6021436079999,-40.6810813670672],[-72.6032668689999,-40.6801749630672],[-72.6027812909999,-40.6800443170672],[-72.6014965969999,-40.6800385150672],[-72.6006870579999,-40.6797234770671]]]}},{"type":"Feature","properties":{"id":"10304011001002","commune":"Puyehue","code":"10304","gse":"E","quintil":"Q1","nse_score":606.2,"educ":9.5,"educ_score":433.3,"hacin":1.536,"hacin_class":"Hacinamiento Medio","hacin_score":737.1,"auto_score":117.6,"n_per":43,"n_hog":17,"source_year":2024},"geometry":{"type":"Polygon","coordinates":[[[-72.6046706289999,-40.6836029160671],[-72.6052994689999,-40.6829980700671],[-72.6060360429999,-40.6813256740672],[-72.6056745629999,-40.6810743750671],[-72.6045103229999,-40.6808033200671],[-72.6042529939999,-40.6805378160671],[-72.6034714639999,-40.6802223560672],[-72.6021606569999,-40.6811819390672],[-72.6017242389999,-40.6816798080672],[-72.6014223109999,-40.6822470960671],[-72.6013676499999,-40.6824979810671],[-72.6013238629999,-40.6830822220671],[-72.6014412329999,-40.6835097720671],[-72.601389664,-40.6825580700671],[-72.6017479049999,-40.6817316620672],[-72.6031891569999,-40.6805485580672],[-72.60461749,-40.6812205980672],[-72.6041044059999,-40.6824529100671],[-72.6034223689999,-40.6832413310671],[-72.6046706289999,-40.6836029160671]]]}},{"type":"Feature","properties":{"id":"10304011001003","commune":"Puyehue","code":"10304","gse":"C2","quintil":"Q4","nse_score":747.2,"educ":14.7,"educ_score":780.0,"hacin":1.119,"hacin_class":"Hacinamiento Leve","hacin_score":825.7,"auto_score":104.2,"n_per":47,"n_hog":16,"source_year":2024},"geometry":{"type":"Polygon","coordinates":[[[-72.5984667839999,-40.6808360730672],[-72.5976236049999,-40.6813602140672],[-72.597404304,-40.6817883420672],[-72.5965838379999,-40.6820421030672],[-72.5965331269999,-40.6822458330672],[-72.5976015089999,-40.6822594680671],[-72.5975024839999,-40.6819891320672],[-72.5976426369999,-40.6822655700671],[-72.5981036769999,-40.6824899270672],[-72.5989273419999,-40.6821470420672],[-72.5981021349999,-40.6825328350672],[-72.5984694589999,-40.6831779610672],[-72.5995014779999,-40.6828328010672],[-72.5997695489999,-40.6826170760671],[-72.6010210069999,-40.6823227090672],[-72.6004315169999,-40.6825482680672],[-72.6005617289999,-40.6827887930671],[-72.6009606469999,-40.6826748760672],[-72.6006025969999,-40.6828590050672],[-72.6010390349999,-40.6836343780672],[-72.6012912479999,-40.6835614580671],[-72.6013699999999,-40.6821969190671],[-72.6019061999999,-40.6813078740671],[-72.6015673909999,-40.6806696390671],[-72.6009305299999,-40.6808609730672],[-72.6000072669999,-40.6805873680671],[-72.5984667839999,-40.6808360730672]]]}},{"type":"Feature","properties":{"id":"10304011001004","commune":"Puyehue","code":"10304","gse":"E","quintil":"Q1","nse_score":611.7,"educ":9.4,"educ_score":426.7,"hacin":1.419,"hacin_class":"Hacinamiento Leve","hacin_score":761.8,"auto_score":343.8,"n_per":44,"n_hog":16,"source_year":2024},"geometry":{"type":"Polygon","coordinates":[[[-72.6031429699999,-40.6806345770672],[-72.6023113999999,-40.6812227300672],[-72.6022893779999,-40.6813062790672],[-72.6030488299999,-40.6815624910672],[-72.6038276859999,-40.6809587540672],[-72.6031429699999,-40.6806345770672]]]}},{"type":"Feature","properties":{"id":"10304011001005","commune":"Puyehue","code":"10304","gse":"D","quintil":"Q2","nse_score":654.9,"educ":10.5,"educ_score":500.0,"hacin":1.333,"hacin_class":"Hacinamiento Leve","hacin_score":780.1,"auto_score":104.2,"n_per":60,"n_hog":23,"source_year":2024},"geometry":{"type":"Polygon","coordinates":[[[-72.6031675319999,-40.6815417820672],[-72.6030058939999,-40.6818049290672],[-72.6040606239999,-40.6823163920672],[-72.6045284479999,-40.6812600860672],[-72.6038799839999,-40.6809859100672],[-72.6031675319999,-40.6815417820672]]]}},{"type":"Feature","properties":{"id":"10304011001006","commune":"Puyehue","code":"10304","gse":"E","quintil":"Q1","nse_score":513.3,"educ":9.5,"educ_score":433.3,"hacin":1.482,"hacin_class":"Hacinamiento Leve","hacin_score":748.6,"auto_score":307.7,"n_per":40,"n_hog":12,"source_year":2024},"geometry":{"type":"Polygon","coordinates":[[[-72.6018089929999,-40.6817568860672],[-72.6027564909999,-40.6820749430671],[-72.6030013359999,-40.6816136460672],[-72.6022468259999,-40.6813256720672],[-72.6018089929999,-40.6817568860672]]]}},{"type":"Feature","properties":{"id":"10304011001008","commune":"Puyehue","code":"10304","gse":"E","quintil":"Q1","nse_score":574.7,"educ":9.0,"educ_score":400.0,"hacin":1.375,"hacin_class":"Hacinamiento Leve","hacin_score":771.3,"auto_score":27.8,"n_per":55,"n_hog":16,"source_year":2024},"geometry":{"type":"Polygon","coordinates":[[[-72.6014554169999,-40.6824911150672],[-72.6024271229999,-40.6826648390671],[-72.6027198829999,-40.6821408090671],[-72.6017610819999,-40.6818196190672],[-72.6014554169999,-40.6824911150672]]]}},{"type":"Feature","properties":{"id":"10304011001009","commune":"Puyehue","code":"10304","gse":"E","quintil":"Q1","nse_score":575.0,"educ":9.6,"educ_score":440.0,"hacin":1.098,"hacin_class":"Hacinamiento Leve","hacin_score":830.2,"auto_score":192.3,"n_per":56,"n_hog":23,"source_year":2024},"geometry":{"type":"Polygon","coordinates":[[[-72.6025262729999,-40.6831901860671],[-72.6033012969999,-40.6832349760671],[-72.6040411939999,-40.6823609500671],[-72.602943293,-40.6818528740672],[-72.6024831859999,-40.6827992560672],[-72.6025262729999,-40.6831901860671]]]}},{"type":"Feature","properties":{"id":"10304011001010","commune":"Puyehue","code":"10304","gse":"C3","quintil":"Q2","nse_score":676.8,"educ":11.4,"educ_score":560.0,"hacin":1.27,"hacin_class":"Hacinamiento Leve","hacin_score":793.6,"auto_score":147.1,"n_per":94,"n_hog":35,"source_year":2024},"geometry":{"type":"Polygon","coordinates":[[[-72.583524468,-40.6840619850671],[-72.5834399549999,-40.6842736150672],[-72.5850746469999,-40.6846423890671],[-72.5876664389999,-40.6844819080672],[-72.5895277859999,-40.6837611160671],[-72.5912489199999,-40.6833181220671],[-72.5940285199999,-40.6831321710672],[-72.5947449439999,-40.6828658700672],[-72.5944408389999,-40.6823136510672],[-72.5925382739999,-40.6824212370671],[-72.5902752489999,-40.6828993050671],[-72.590014531,-40.6830683160672],[-72.5887700079999,-40.6832632940671],[-72.5864762289999,-40.6840275270672],[-72.5855810749999,-40.6841367340671],[-72.583524468,-40.6840619850671]]]}},{"type":"Feature","properties":{"id":"10304011001011","commune":"Puyehue","code":"10304","gse":"D","quintil":"Q1","nse_score":624.0,"educ":11.5,"educ_score":566.7,"hacin":1.56,"hacin_class":"Hacinamiento Medio","hacin_score":731.9,"auto_score":55.6,"n_per":39,"n_hog":9,"source_year":2024},"geometry":{"type":"Polygon","coordinates":[[[-72.5976420709999,-40.6823435480672],[-72.5964519219999,-40.6823346620672],[-72.5949047149999,-40.6829622540672],[-72.5952014309999,-40.6833261780672],[-72.5976420709999,-40.6823435480672]]]}},{"type":"Feature","properties":{"id":"10304011001012","commune":"Puyehue","code":"10304","gse":"C3","quintil":"Q3","nse_score":687.9,"educ":10.7,"educ_score":513.3,"hacin":1.15,"hacin_class":"Hacinamiento Leve","hacin_score":819.1,"auto_score":105.3,"n_per":46,"n_hog":19,"source_year":2024},"geometry":{"type":"Polygon","coordinates":[[[-72.5961812179999,-40.6830869010672],[-72.5965532359999,-40.6836718880671],[-72.5971051719999,-40.6835130940671],[-72.5965687599999,-40.6836962990672],[-72.5969699109999,-40.6842904930671],[-72.598757739,-40.6840388700671],[-72.5978436759999,-40.6824484420672],[-72.5961812179999,-40.6830869010672]]]}},{"type":"Feature","properties":{"id":"10304011001013","commune":"Puyehue","code":"10304","gse":"C2","quintil":"Q4","nse_score":734.7,"educ":12.9,"educ_score":660.0,"hacin":1.282,"hacin_class":"Hacinamiento Leve","hacin_score":791.1,"auto_score":250.0,"n_per":50,"n_hog":18,"source_year":2024},"geometry":{"type":"Polygon","coordinates":[[[-72.6002167439999,-40.6830765830672],[-72.5999130309999,-40.6826328510671],[-72.5984877749999,-40.6833273940672],[-72.5989479169999,-40.6840294150671],[-72.600214891,-40.6840565380671],[-72.600962707,-40.6837091110671],[-72.6003096599999,-40.6825020550672],[-72.5999666789999,-40.6826223800672],[-72.6002167439999,-40.6830765830672]]]}},{"type":"Feature","properties":{"id":"10304011001014","commune":"Puyehue","code":"10304","gse":"D","quintil":"Q2","nse_score":651.7,"educ":8.7,"educ_score":380.0,"hacin":0.875,"hacin_class":"Sin Hacinamiento","hacin_score":877.7,"auto_score":90.9,"n_per":21,"n_hog":11,"source_year":2024},"geometry":{"type":"Polygon","coordinates":[[[-72.6015562469999,-40.6834755800672],[-72.6024261039999,-40.6832171240672],[-72.6024330669999,-40.6827113120671],[-72.6014493299999,-40.6825547170672],[-72.6014379989999,-40.6831888790672],[-72.6015562469999,-40.6834755800672]]]}},{"type":"Feature","properties":{"id":"10304011001015","commune":"Puyehue","code":"10304","gse":"D","quintil":"Q1","nse_score":628.9,"educ":9.7,"educ_score":446.7,"hacin":1.237,"hacin_class":"Hacinamiento Leve","hacin_score":800.6,"auto_score":142.9,"n_per":146,"n_hog":69,"source_year":2024},"geometry":{"type":"Polygon","coordinates":[[[-72.5913875049999,-40.6833264180671],[-72.5916131879999,-40.6837925950671],[-72.5913534559999,-40.6833342020671],[-72.5895293849999,-40.6837984660671],[-72.5878032609999,-40.6844802950672],[-72.5858847679999,-40.6846769060671],[-72.5856084029999,-40.6848385700672],[-72.5893232259999,-40.6855598170672],[-72.5894735399999,-40.6846705760671],[-72.5893512719999,-40.6855662740671],[-72.5897575339999,-40.6856354270672],[-72.5902570919999,-40.6848278450671],[-72.5901683929999,-40.6847537690672],[-72.5902355359999,-40.6843782660672],[-72.5902469759999,-40.6844848930671],[-72.5912529959999,-40.6842707990671],[-72.5902411259999,-40.6845146370672],[-72.590193515,-40.6847566940671],[-72.5903236929999,-40.6847992860671],[-72.5929088979999,-40.6842902300671],[-72.5939899139999,-40.6851112230671],[-72.5955058509999,-40.6841330220671],[-72.5950902889999,-40.6834450210672],[-72.594685738,-40.6835411640672],[-72.5950650749999,-40.6834028260672],[-72.5947938469999,-40.6829870510672],[-72.5940388809999,-40.6831787510672],[-72.5913875049999,-40.6833264180671]]]}},{"type":"Feature","properties":{"id":"10304011001016","commune":"Puyehue","code":"10304","gse":"D","quintil":"Q1","nse_score":646.6,"educ":9.8,"educ_score":453.3,"hacin":1.028,"hacin_class":"Hacinamiento Leve","hacin_score":845.2,"auto_score":88.2,"n_per":37,"n_hog":17,"source_year":2024},"geometry":{"type":"Polygon","coordinates":[[[-72.5952023389999,-40.6833977450671],[-72.5958258109999,-40.6844521550671],[-72.5968437369999,-40.6843143640671],[-72.5961010259999,-40.6830905300672],[-72.5952023389999,-40.6833977450671]]]}},{"type":"Feature","properties":{"id":"10304011001017","commune":"Puyehue","code":"10304","gse":"E","quintil":"Q1","nse_score":594.3,"educ":10.3,"educ_score":486.7,"hacin":0.893,"hacin_class":"Sin Hacinamiento","hacin_score":873.9,"auto_score":93.8,"n_per":25,"n_hog":16,"source_year":2024},"geometry":{"type":"Polygon","coordinates":[[[-72.6026157549999,-40.6833053800671],[-72.6024307909999,-40.6843259230672],[-72.6025117559999,-40.6833215170672],[-72.601484566,-40.6836355330671],[-72.6020442999999,-40.6848243570672],[-72.6037126719999,-40.6845157030671],[-72.6034980139999,-40.6833967580672],[-72.6026157549999,-40.6833053800671]]]}},{"type":"Feature","properties":{"id":"10304011001020","commune":"Puyehue","code":"10304","gse":"D","quintil":"Q2","nse_score":659.6,"educ":10.4,"educ_score":493.3,"hacin":1.239,"hacin_class":"Hacinamiento Leve","hacin_score":800.2,"auto_score":0.0,"n_per":57,"n_hog":18,"source_year":2024},"geometry":{"type":"Polygon","coordinates":[[[-72.6003687419999,-40.6846107100672],[-72.6016767079999,-40.6844197570671],[-72.6017177489999,-40.6844035010672],[-72.6014677329999,-40.6838541960671],[-72.6012624989999,-40.6836856700671],[-72.6000877949999,-40.6841533090672],[-72.6003687419999,-40.6846107100672]]]}},{"type":"Feature","properties":{"id":"10304011001022","commune":"Puyehue","code":"10304","gse":"C3","quintil":"Q2","nse_score":684.1,"educ":11.3,"educ_score":553.3,"hacin":0.882,"hacin_class":"Sin Hacinamiento","hacin_score":876.1,"auto_score":0.0,"n_per":15,"n_hog":7,"source_year":2024},"geometry":{"type":"Polygon","coordinates":[[[-72.5992711769999,-40.6847258220672],[-72.6002368999999,-40.6846162200672],[-72.5999810939999,-40.6841487330671],[-72.5989457049999,-40.6841283710671],[-72.5992711769999,-40.6847258220672]]]}},{"type":"Feature","properties":{"id":"10304011001023","commune":"Puyehue","code":"10304","gse":"C3","quintil":"Q3","nse_score":691.1,"educ":11.8,"educ_score":586.7,"hacin":1.125,"hacin_class":"Hacinamiento Leve","hacin_score":824.5,"auto_score":90.9,"n_per":27,"n_hog":11,"source_year":2024},"geometry":{"type":"Polygon","coordinates":[[[-72.5981369589999,-40.6849394580671],[-72.5991540499999,-40.6847809770671],[-72.5988190739999,-40.6841397370671],[-72.5977721709999,-40.6842792630671],[-72.5981369589999,-40.6849394580671]]]}},{"type":"Feature","properties":{"id":"10304011001024","commune":"Puyehue","code":"10304","gse":"C3","quintil":"Q3","nse_score":698.4,"educ":11.8,"educ_score":586.7,"hacin":1.316,"hacin_class":"Hacinamiento Leve","hacin_score":783.9,"auto_score":214.3,"n_per":25,"n_hog":7,"source_year":2024},"geometry":{"type":"Polygon","coordinates":[[[-72.5941065509999,-40.6851789570672],[-72.5952715089999,-40.6857420020671],[-72.5957395049999,-40.6844881900672],[-72.5955165409999,-40.6842241670672],[-72.5941065509999,-40.6851789570672]]]}},{"type":"Feature","properties":{"id":"10304011001025","commune":"Puyehue","code":"10304","gse":"D","quintil":"Q2","nse_score":650.6,"educ":12.0,"educ_score":600.0,"hacin":1.471,"hacin_class":"Hacinamiento Leve","hacin_score":750.8,"auto_score":48.8,"n_per":103,"n_hog":32,"source_year":2024},"geometry":{"type":"Polygon","coordinates":[[[-72.6081083109999,-40.6854776080671],[-72.6075978249999,-40.6865453010671],[-72.6077749919999,-40.6860582330671],[-72.6080723729999,-40.6855157390671],[-72.6074742739999,-40.6851915840671],[-72.6060015969999,-40.6860891860671],[-72.6037784629999,-40.6868588830672],[-72.6034684409999,-40.6873974400671],[-72.6035052509999,-40.6877020810671],[-72.6038944339999,-40.6883905780671],[-72.6043802649999,-40.6880324250671],[-72.6039097649999,-40.6884176990671],[-72.6046192539999,-40.6896717380671],[-72.6048918879999,-40.6897210910672],[-72.6049877309999,-40.6898701790671],[-72.6067536179999,-40.6887261180671],[-72.6064578499999,-40.6881699410671],[-72.6059026629999,-40.6883413770671],[-72.6064445189999,-40.6881448740671],[-72.6061087459999,-40.6875134690671],[-72.6067624069999,-40.6886467190671],[-72.6069865569999,-40.6882421260671],[-72.6068015569999,-40.6877972980672],[-72.607022389,-40.6882420100671],[-72.6067997709999,-40.6886774510671],[-72.6072974609999,-40.6879993900671],[-72.6071602449999,-40.6877515590671],[-72.6071399419999,-40.6875979410671],[-72.607326166,-40.6879822500671],[-72.6082233669999,-40.6877299460671],[-72.6079782559999,-40.6872326020671],[-72.6083290809999,-40.6870395030671],[-72.6080238569999,-40.6872471380671],[-72.6081294509999,-40.6874604980671],[-72.6085672799999,-40.6871878760671],[-72.6081451809999,-40.6874853510672],[-72.6082690669999,-40.6877491010671],[-72.6096518379999,-40.6893190660671],[-72.6082366769999,-40.6877834610671],[-72.6073605719999,-40.6880302140671],[-72.6085095799999,-40.6896809530671],[-72.6079480289999,-40.6901562800671],[-72.608458917,-40.6896837640671],[-72.6073221439999,-40.6880533830671],[-72.6067233909999,-40.6888469370671],[-72.6062198429999,-40.6891683370671],[-72.607056956,-40.6905478130671],[-72.6061817259999,-40.6891922130671],[-72.6050070509999,-40.6899279980671],[-72.6060130469999,-40.6918484350671],[-72.6070503569999,-40.6911773210671],[-72.6060335089999,-40.6918870670671],[-72.6067609239999,-40.6932512560671],[-72.6119337479999,-40.6898761630671],[-72.6079421019999,-40.6862582570672],[-72.6088311169999,-40.6842396100672],[-72.6075860919999,-40.6850981160672],[-72.6081083109999,-40.6854776080671]]]}},{"type":"Feature","properties":{"id":"10304011001026","commune":"Puyehue","code":"10304","gse":"D","quintil":"Q1","nse_score":643.5,"educ":9.6,"educ_score":440.0,"hacin":0.971,"hacin_class":"Sin Hacinamiento","hacin_score":857.2,"auto_score":51.7,"n_per":67,"n_hog":27,"source_year":2024},"geometry":{"type":"Polygon","coordinates":[[[-72.5977730409999,-40.6857644060671],[-72.5984330649999,-40.6856520920671],[-72.5976978879999,-40.6843108110671],[-72.597039617,-40.6843746750672],[-72.5970106019999,-40.6846504170671],[-72.5974245309999,-40.6848287230672],[-72.5977730409999,-40.6857644060671]]]}},{"type":"Feature","properties":{"id":"10304011001028","commune":"Puyehue","code":"10304","gse":"C3","quintil":"Q2","nse_score":675.3,"educ":10.2,"educ_score":480.0,"hacin":1.085,"hacin_class":"Hacinamiento Leve","hacin_score":833.1,"auto_score":149.1,"n_per":141,"n_hog":57,"source_year":2024},"geometry":{"type":"Polygon","coordinates":[[[-72.5932992719999,-40.6846541090671],[-72.5927889559999,-40.6843423760672],[-72.5916640979999,-40.6845645670671],[-72.5916751819999,-40.6851661780671],[-72.592391646,-40.6853231470672],[-72.5925873229999,-40.6850324340671],[-72.59233832,-40.6858689020671],[-72.5925941489999,-40.6859340530671],[-72.5928728299999,-40.6862218460672],[-72.5933969359999,-40.6863182260671],[-72.5934803689999,-40.6855594790672],[-72.5938508939999,-40.6850886970671],[-72.5933288439999,-40.6846774060671],[-72.5931240799999,-40.6848202600671],[-72.5929198489999,-40.6853249420672],[-72.5930967539999,-40.6847908820672],[-72.5932992719999,-40.6846541090671]]]}},{"type":"Feature","properties":{"id":"10304011001029","commune":"Puyehue","code":"10304","gse":"E","quintil":"Q1","nse_score":609.5,"educ":10.6,"educ_score":506.7,"hacin":1.537,"hacin_class":"Hacinamiento Medio","hacin_score":736.9,"auto_score":71.4,"n_per":63,"n_hog":23,"source_year":2024},"geometry":{"type":"Polygon","coordinates":[[[-72.5969332189999,-40.6844112450671],[-72.5958357949999,-40.6845556470672],[-72.595385372,-40.6857866160671],[-72.5962940589999,-40.6859808630671],[-72.5967312219999,-40.6851585050671],[-72.5969332189999,-40.6844112450671]]]}},{"type":"Feature","properties":{"id":"10304011001030","commune":"Puyehue","code":"10304","gse":"D","quintil":"Q1","nse_score":646.2,"educ":10.6,"educ_score":506.7,"hacin":1.042,"hacin_class":"Hacinamiento Leve","hacin_score":842.2,"auto_score":272.7,"n_per":25,"n_hog":10,"source_year":2024},"geometry":{"type":"Polygon","coordinates":[[[-72.6008169859999,-40.6874597210671],[-72.603002854,-40.6869335340671],[-72.6017474919999,-40.6844537070671],[-72.6016432609999,-40.6844604230672],[-72.6018835309999,-40.6849682470671],[-72.6013443209999,-40.6851361300671],[-72.6017575829999,-40.6856480410671],[-72.6017474519999,-40.6859488920671],[-72.6001308039999,-40.6863223140671],[-72.6008169859999,-40.6874597210671]]]}},{"type":"Feature","properties":{"id":"10304011001031","commune":"Puyehue","code":"10304","gse":"C3","quintil":"Q2","nse_score":675.3,"educ":11.0,"educ_score":533.3,"hacin":1.137,"hacin_class":"Hacinamiento Leve","hacin_score":821.9,"auto_score":288.5,"n_per":58,"n_hog":24,"source_year":2024},"geometry":{"type":"Polygon","coordinates":[[[-72.6004039699999,-40.6846974400671],[-72.6007966809999,-40.6853506150671],[-72.5997447419999,-40.6855675210671],[-72.6001050869999,-40.6862717530671],[-72.6017136419999,-40.6859058490671],[-72.6017442519999,-40.6857457530671],[-72.6015590169999,-40.6854770100671],[-72.6011492949999,-40.6856752890672],[-72.6015307929999,-40.6854481180671],[-72.6012996179999,-40.6851491580671],[-72.6009948599999,-40.6851994220671],[-72.6018382819999,-40.6849479170671],[-72.6015961699999,-40.6844676250672],[-72.6004039699999,-40.6846974400671]]]}},{"type":"Feature","properties":{"id":"10304011001034","commune":"Puyehue","code":"10304","gse":"E","quintil":"Q1","nse_score":604.5,"educ":10.7,"educ_score":513.3,"hacin":1.357,"hacin_class":"Hacinamiento Leve","hacin_score":775.1,"auto_score":27.8,"n_per":38,"n_hog":15,"source_year":2024},"geometry":{"type":"Polygon","coordinates":[[[-72.5993818109999,-40.6848005650671],[-72.5996936049999,-40.6854814300671],[-72.6006598769999,-40.6853176040671],[-72.6002837809999,-40.6846890490671],[-72.5993818109999,-40.6848005650671]]]}},{"type":"Feature","properties":{"id":"10304011001035","commune":"Puyehue","code":"10304","gse":"C2","quintil":"Q3","nse_score":723.9,"educ":11.1,"educ_score":540.0,"hacin":1.174,"hacin_class":"Hacinamiento Leve","hacin_score":814.1,"auto_score":45.5,"n_per":27,"n_hog":11,"source_year":2024},"geometry":{"type":"Polygon","coordinates":[[[-72.5969827089999,-40.6847177110672],[-72.5968704199999,-40.6851471770671],[-72.5974914999999,-40.6850919190671],[-72.5973949359999,-40.6848547720671],[-72.5969827089999,-40.6847177110672]]]}},{"type":"Feature","properties":{"id":"10304011001036","commune":"Puyehue","code":"10304","gse":"D","quintil":"Q1","nse_score":628.9,"educ":10.0,"educ_score":466.7,"hacin":1.362,"hacin_class":"Hacinamiento Leve","hacin_score":774.1,"auto_score":75.0,"n_per":64,"n_hog":20,"source_year":2024},"geometry":{"type":"Polygon","coordinates":[[[-72.5992082189999,-40.6848409850671],[-72.5981810329999,-40.6850387600671],[-72.5985146959999,-40.6856638920671],[-72.5995607549999,-40.6854969080672],[-72.5992082189999,-40.6848409850671]]]}},{"type":"Feature","properties":{"id":"10304011001037","commune":"Puyehue","code":"10304","gse":"C3","quintil":"Q3","nse_score":686.1,"educ":11.8,"educ_score":586.7,"hacin":1.235,"hacin_class":"Hacinamiento Leve","hacin_score":801.0,"auto_score":166.7,"n_per":42,"n_hog":16,"source_year":2024},"geometry":{"type":"Polygon","coordinates":[[[-72.5900106479999,-40.6854379300671],[-72.5914071239999,-40.6856999340672],[-72.5915750769999,-40.6852441570671],[-72.5902417329999,-40.6849925680671],[-72.5900106479999,-40.6854379300671]]]}},{"type":"Feature","properties":{"id":"10304011001038","commune":"Puyehue","code":"10304","gse":"D","quintil":"Q2","nse_score":666.4,"educ":10.1,"educ_score":473.3,"hacin":1.182,"hacin_class":"Hacinamiento Leve","hacin_score":812.4,"auto_score":33.3,"n_per":39,"n_hog":13,"source_year":2024},"geometry":{"type":"Polygon","coordinates":[[[-72.5968798199999,-40.6851882650672],[-72.5967592199999,-40.6854427080671],[-72.5976304359999,-40.6853905510672],[-72.5975159109999,-40.6851215160671],[-72.5968798199999,-40.6851882650672]]]}},{"type":"Feature","properties":{"id":"10304011001039","commune":"Puyehue","code":"10304","gse":"C3","quintil":"Q3","nse_score":705.6,"educ":11.5,"educ_score":566.7,"hacin":1.106,"hacin_class":"Hacinamiento Leve","hacin_score":828.4,"auto_score":130.4,"n_per":52,"n_hog":23,"source_year":2024},"geometry":{"type":"Polygon","coordinates":[[[-72.5948632059999,-40.6865883140671],[-72.5952210279999,-40.6858107000671],[-72.5940368209999,-40.6852210020671],[-72.5936116159999,-40.6854690070671],[-72.5935628859999,-40.6863233110672],[-72.5948632059999,-40.6865883140671]]]}},{"type":"Feature","properties":{"id":"10304011001040","commune":"Puyehue","code":"10304","gse":"D","quintil":"Q1","nse_score":630.1,"educ":11.3,"educ_score":553.3,"hacin":1.368,"hacin_class":"Hacinamiento Leve","hacin_score":772.7,"auto_score":115.4,"n_per":26,"n_hog":11,"source_year":2024},"geometry":{"type":"Polygon","coordinates":[[[-72.5915465619999,-40.6857242070672],[-72.5922240419999,-40.6858472920671],[-72.5923948719999,-40.6853894370671],[-72.5917041429999,-40.6852447140672],[-72.5915465619999,-40.6857242070672]]]}},{"type":"Feature","properties":{"id":"10304011001041","commune":"Puyehue","code":"10304","gse":"E","quintil":"Q1","nse_score":575.2,"educ":8.4,"educ_score":360.0,"hacin":1.552,"hacin_class":"Hacinamiento Medio","hacin_score":733.7,"auto_score":111.1,"n_per":45,"n_hog":18,"source_year":2024},"geometry":{"type":"Polygon","coordinates":[[[-72.5967064799999,-40.6854925150672],[-72.59643725,-40.6859838460671],[-72.5977123219999,-40.6857704140671],[-72.5975972229999,-40.6854286440672],[-72.5967064799999,-40.6854925150672]]]}},{"type":"Feature","properties":{"id":"10304011001043","commune":"Puyehue","code":"10304","gse":"D","quintil":"Q2","nse_score":652.1,"educ":9.6,"educ_score":440.0,"hacin":1.036,"hacin_class":"Hacinamiento Leve","hacin_score":843.3,"auto_score":115.4,"n_per":57,"n_hog":25,"source_year":2024},"geometry":{"type":"Polygon","coordinates":[[[-72.5993406989999,-40.6856018310671],[-72.599407202,-40.6857742560671],[-72.5993145509999,-40.6856070590672],[-72.5985645709999,-40.6857570220672],[-72.5989020119999,-40.6864207870671],[-72.5999934499999,-40.6862538990672],[-72.5996506619999,-40.6855966660671],[-72.5993406989999,-40.6856018310671]]]}},{"type":"Feature","properties":{"id":"10304011001044","commune":"Puyehue","code":"10304","gse":"E","quintil":"Q1","nse_score":559.8,"educ":7.6,"educ_score":306.7,"hacin":1.0,"hacin_class":"Hacinamiento Leve","hacin_score":851.1,"auto_score":90.9,"n_per":21,"n_hog":8,"source_year":2024},"geometry":{"type":"Polygon","coordinates":[[[-72.5982742369999,-40.6864864190671],[-72.5988220019999,-40.6864745520671],[-72.5984474729999,-40.6857708880671],[-72.5979011039999,-40.6858772580672],[-72.5982742369999,-40.6864864190671]]]}},{"type":"Feature","properties":{"id":"10304011001046","commune":"Puyehue","code":"10304","gse":"D","quintil":"Q2","nse_score":651.7,"educ":9.9,"educ_score":460.0,"hacin":1.088,"hacin_class":"Hacinamiento Leve","hacin_score":832.4,"auto_score":114.8,"n_per":149,"n_hog":59,"source_year":2024},"geometry":{"type":"Polygon","coordinates":[[[-72.5953215349999,-40.6858796820671],[-72.5950506309999,-40.6866571010671],[-72.5955210989999,-40.6867531580671],[-72.5956681259999,-40.6863092960671],[-72.5955459829999,-40.6867578260672],[-72.5959141929999,-40.6868269100671],[-72.5960431349999,-40.6863912310671],[-72.5959354969999,-40.6868309080671],[-72.5993771809999,-40.6874476910671],[-72.6006403549999,-40.6874594730671],[-72.6003657679999,-40.6869226290671],[-72.5953215349999,-40.6858796820671]]]}},{"type":"Feature","properties":{"id":"10304011001051","commune":"Puyehue","code":"10304","gse":"D","quintil":"Q1","nse_score":637.6,"educ":10.2,"educ_score":480.0,"hacin":1.231,"hacin_class":"Hacinamiento Leve","hacin_score":802.0,"auto_score":112.5,"n_per":96,"n_hog":36,"source_year":2024},"geometry":{"type":"Polygon","coordinates":[[[-72.6024947479999,-40.6872211400672],[-72.6024801679999,-40.6875002160671],[-72.6036169119999,-40.6897907040671],[-72.6038817819999,-40.6898787840671],[-72.6043414749999,-40.6897539360671],[-72.6032243839999,-40.6876824660672],[-72.603376609,-40.6878403870671],[-72.6033329369999,-40.6876106340671],[-72.6024947479999,-40.6872211400672]]]}},{"type":"Feature","properties":{"id":"10304011001055","commune":"Puyehue","code":"10304","gse":"D","quintil":"Q2","nse_score":652.2,"educ":11.3,"educ_score":553.3,"hacin":1.382,"hacin_class":"Hacinamiento Leve","hacin_score":769.7,"auto_score":29.4,"n_per":47,"n_hog":16,"source_year":2024},"geometry":{"type":"Polygon","coordinates":[[[-72.6048039219999,-40.6901481250671],[-72.6045119999999,-40.6897475350671],[-72.6037444069999,-40.6900563870671],[-72.6041692149999,-40.6909185910671],[-72.6050768329999,-40.6907010120671],[-72.6048404479999,-40.6902246020671],[-72.6046114469999,-40.6904788840671],[-72.6045903529999,-40.6903369730671],[-72.6048039219999,-40.6901481250671]]]}},{"type":"Feature","properties":{"id":"10304011001057","commune":"Puyehue","code":"10304","gse":"D","quintil":"Q1","nse_score":625.7,"educ":10.1,"educ_score":473.3,"hacin":1.379,"hacin_class":"Hacinamiento Leve","hacin_score":770.3,"auto_score":168.9,"n_per":607,"n_hog":206,"source_year":2024},"geometry":{"type":"Polygon","coordinates":[[[-72.6119337479999,-40.6898761630671],[-72.6067609239999,-40.6932512560671],[-72.6069103629999,-40.6934081680671],[-72.6069244439999,-40.6932089840671],[-72.6070113729999,-40.6933759790671],[-72.6077566009999,-40.6931385020671],[-72.6076406619999,-40.6927783020671],[-72.6078001519999,-40.6931246240671],[-72.6081812919999,-40.6930031680671],[-72.6080237549999,-40.6925546320671],[-72.6082320879999,-40.6929869800671],[-72.6086229079999,-40.6928615870671],[-72.6084449189999,-40.6923690340671],[-72.6091563779999,-40.6919145570671],[-72.6094635109999,-40.6922154130671],[-72.6092085769999,-40.6923851960671],[-72.609411082,-40.6925973530671],[-72.6100333289999,-40.6921835950671],[-72.6095663589999,-40.6916809340671],[-72.6100872929999,-40.6921721560671],[-72.6102438469999,-40.6921275770671],[-72.6104211709999,-40.6921587330671],[-72.6106215419999,-40.6923441090671],[-72.6102469289999,-40.6921545820671],[-72.6099291709999,-40.6923569490671],[-72.6101454249999,-40.6925822460671],[-72.6099013319999,-40.6923737060671],[-72.6096113379999,-40.6925482660671],[-72.609817388,-40.6926900280671],[-72.6097427639999,-40.6927299340671],[-72.6100066049999,-40.6931692570671],[-72.6095737309999,-40.6925709040671],[-72.6082789569999,-40.6930599550671],[-72.6088905009999,-40.6942014790671],[-72.6103743689999,-40.6933199830671],[-72.6111756259999,-40.6940971930671],[-72.6095900359999,-40.6950761080671],[-72.6088721159999,-40.6943182910671],[-72.6085031339999,-40.6945049470671],[-72.6093442139999,-40.6954239950671],[-72.6085005469999,-40.6945794010671],[-72.6081373209999,-40.6947338480671],[-72.6089825539999,-40.6956611880671],[-72.6081299619999,-40.6948129600671],[-72.6078363269999,-40.6949206000671],[-72.6085872809999,-40.6958253110671],[-72.6079057329999,-40.6952522890671],[-72.6083081099999,-40.6960157440671],[-72.6089124959999,-40.6967307520671],[-72.6134652379999,-40.6936528000671],[-72.6127216559999,-40.6927605020671],[-72.6117064749999,-40.6918687000671],[-72.6109853829999,-40.6923457390671],[-72.6111618529999,-40.6925835270671],[-72.6109336239999,-40.6923737500671],[-72.611675896,-40.6918412420671],[-72.6109043429999,-40.6911484170671],[-72.6113446279999,-40.6914729470671],[-72.6121565099999,-40.6909301340671],[-72.6121255699999,-40.6905264280671],[-72.6121958879999,-40.6909503070671],[-72.6113749799999,-40.6915005590671],[-72.6129536539999,-40.6929002950671],[-72.6135901589999,-40.6924749670671],[-72.6132867779999,-40.6920793810671],[-72.6136496459999,-40.6924422490671],[-72.6138573549999,-40.6923176930671],[-72.6139676949999,-40.6923471230671],[-72.6145941649999,-40.6929351630671],[-72.6138898579999,-40.6923652110671],[-72.6129863709999,-40.6929508590671],[-72.6135931339999,-40.6936855180671],[-72.6142028709999,-40.6941703330671],[-72.6144973289999,-40.6943696130671],[-72.6149568909999,-40.6940787000671],[-72.6144268669999,-40.6935472220671],[-72.6149928569999,-40.6940553310671],[-72.6154163959999,-40.6937182350671],[-72.6148274789999,-40.6931233700671],[-72.6155026509999,-40.6937241840671],[-72.6145508669999,-40.6944172020671],[-72.6154734329999,-40.6950841030671],[-72.616772109,-40.6940931220671],[-72.6146686819999,-40.6923776850671],[-72.6119337479999,-40.6898761630671]]]}},{"type":"Feature","properties":{"id":"10304011001059","commune":"Puyehue","code":"10304","gse":"E","quintil":"Q1","nse_score":599.8,"educ":9.4,"educ_score":426.7,"hacin":1.486,"hacin_class":"Hacinamiento Leve","hacin_score":747.7,"auto_score":95.2,"n_per":52,"n_hog":20,"source_year":2024},"geometry":{"type":"Polygon","coordinates":[[[-72.605263325,-40.6909778090671],[-72.6050915629999,-40.6907360860671],[-72.6041643809999,-40.6909897640671],[-72.6043173619999,-40.6912175780671],[-72.605263325,-40.6909778090671]]]}},{"type":"Feature","properties":{"id":"10304011001060","commune":"Puyehue","code":"10304","gse":"E","quintil":"Q1","nse_score":601.3,"educ":9.1,"educ_score":406.7,"hacin":1.562,"hacin_class":"Hacinamiento Medio","hacin_score":731.4,"auto_score":19.2,"n_per":75,"n_hog":26,"source_year":2024},"geometry":{"type":"Polygon","coordinates":[[[-72.6052929729999,-40.6910427450671],[-72.6043018089999,-40.6912819470671],[-72.6044179599999,-40.6915212830671],[-72.6048161759999,-40.6914743980671],[-72.6044475689999,-40.6915882710671],[-72.6045376509999,-40.6917902170671],[-72.6049188209999,-40.6917131550671],[-72.6045820489999,-40.6918259060671],[-72.6046022149999,-40.6919105920671],[-72.6055695949999,-40.6916725660671],[-72.6052929729999,-40.6910427450671]]]}},{"type":"Feature","properties":{"id":"10304011001061","commune":"Puyehue","code":"10304","gse":"C3","quintil":"Q2","nse_score":671.8,"educ":10.2,"educ_score":480.0,"hacin":1.312,"hacin_class":"Hacinamiento Leve","hacin_score":784.6,"auto_score":0.0,"n_per":42,"n_hog":18,"source_year":2024},"geometry":{"type":"Polygon","coordinates":[[[-72.6057971509999,-40.6920145340671],[-72.6055792019999,-40.6917231780671],[-72.6046533559999,-40.6920029630671],[-72.6048431069999,-40.6923163350671],[-72.6057971509999,-40.6920145340671]]]}},{"type":"Feature","properties":{"id":"10304011001063","commune":"Puyehue","code":"10304","gse":"D","quintil":"Q1","nse_score":625.4,"educ":9.7,"educ_score":446.7,"hacin":1.396,"hacin_class":"Hacinamiento Leve","hacin_score":766.8,"auto_score":104.2,"n_per":67,"n_hog":22,"source_year":2024},"geometry":{"type":"Polygon","coordinates":[[[-72.6059732769999,-40.6923258820671],[-72.6057699939999,-40.6920713370671],[-72.6048295799999,-40.6923751590671],[-72.6050018219999,-40.6926673060671],[-72.6059732769999,-40.6923258820671]]]}},{"type":"Feature","properties":{"id":"10304011001066","commune":"Puyehue","code":"10304","gse":"D","quintil":"Q1","nse_score":632.4,"educ":9.6,"educ_score":440.0,"hacin":1.167,"hacin_class":"Hacinamiento Leve","hacin_score":815.6,"auto_score":58.8,"n_per":42,"n_hog":16,"source_year":2024},"geometry":{"type":"Polygon","coordinates":[[[-72.6059749739999,-40.6932350920671],[-72.6064224479999,-40.6931122590671],[-72.6059499369999,-40.6924036250671],[-72.6055876349999,-40.6925716840671],[-72.6059749739999,-40.6932350920671]]]}},{"type":"Feature","properties":{"id":"10304011001067","commune":"Puyehue","code":"10304","gse":"D","quintil":"Q2","nse_score":655.7,"educ":10.9,"educ_score":526.7,"hacin":1.318,"hacin_class":"Hacinamiento Leve","hacin_score":783.4,"auto_score":0.0,"n_per":29,"n_hog":10,"source_year":2024},"geometry":{"type":"Polygon","coordinates":[[[-72.6054898749999,-40.6925592260671],[-72.6049948929999,-40.6927332200671],[-72.6053435959999,-40.6934549340671],[-72.605922587,-40.6932948480671],[-72.6054898749999,-40.6925592260671]]]}},{"type":"Feature","properties":{"id":"10304011001068","commune":"Puyehue","code":"10304","gse":"E","quintil":"Q1","nse_score":590.8,"educ":9.4,"educ_score":426.7,"hacin":1.19,"hacin_class":"Hacinamiento Leve","hacin_score":810.5,"auto_score":76.9,"n_per":25,"n_hog":10,"source_year":2024},"geometry":{"type":"Polygon","coordinates":[[[-72.6074734499999,-40.6932945150671],[-72.6076287509999,-40.6935765910671],[-72.6083326669999,-40.6933380470671],[-72.6081525179999,-40.6931041880671],[-72.6074734499999,-40.6932945150671]]]}},{"type":"Feature","properties":{"id":"10304011001069","commune":"Puyehue","code":"10304","gse":"D","quintil":"Q2","nse_score":656.4,"educ":11.1,"educ_score":540.0,"hacin":1.52,"hacin_class":"Hacinamiento Medio","hacin_score":740.4,"auto_score":183.3,"n_per":187,"n_hog":60,"source_year":2024},"geometry":{"type":"Polygon","coordinates":[[[-72.6051222379999,-40.6931262220671],[-72.6025715819999,-40.6938932070671],[-72.6021361779999,-40.6948616590671],[-72.6024229219999,-40.6947841120671],[-72.6027601979999,-40.6939919780671],[-72.6047579949999,-40.6934237000671],[-72.6050811439999,-40.6940401070671],[-72.6054669219999,-40.6939502810671],[-72.6051222379999,-40.6931262220671]]]}},{"type":"Feature","properties":{"id":"10304011001070","commune":"Puyehue","code":"10304","gse":"E","quintil":"Q1","nse_score":617.0,"educ":9.7,"educ_score":446.7,"hacin":1.196,"hacin_class":"Hacinamiento Leve","hacin_score":809.4,"auto_score":272.7,"n_per":55,"n_hog":21,"source_year":2024},"geometry":{"type":"Polygon","coordinates":[[[-72.6066268729999,-40.6934499360671],[-72.6064154569999,-40.6931799110671],[-72.6053799029999,-40.6935252230671],[-72.6055887479999,-40.6938053130671],[-72.6066268729999,-40.6934499360671]]]}},{"type":"Feature","properties":{"id":"10304011001071","commune":"Puyehue","code":"10304","gse":"C2","quintil":"Q4","nse_score":730.8,"educ":11.4,"educ_score":560.0,"hacin":1.029,"hacin_class":"Hacinamiento Leve","hacin_score":845.0,"auto_score":200.0,"n_per":36,"n_hog":15,"source_year":2024},"geometry":{"type":"Polygon","coordinates":[[[-72.6074085199999,-40.6941777610671],[-72.6077479999999,-40.6939716280671],[-72.6073709909999,-40.6933248770671],[-72.6070441279999,-40.6934581430671],[-72.6074085199999,-40.6941777610671]]]}},{"type":"Feature","properties":{"id":"10304011001073","commune":"Puyehue","code":"10304","gse":"E","quintil":"Q1","nse_score":567.3,"educ":8.7,"educ_score":380.0,"hacin":1.129,"hacin_class":"Hacinamiento Leve","hacin_score":823.6,"auto_score":90.9,"n_per":35,"n_hog":18,"source_year":2024},"geometry":{"type":"Polygon","coordinates":[[[-72.6100676309999,-40.6936333310671],[-72.6107206869999,-40.6942842120671],[-72.6110793809999,-40.6941296630671],[-72.6104048639999,-40.6934091150671],[-72.6100676309999,-40.6936333310671]]]}},{"type":"Feature","properties":{"id":"10304011001075","commune":"Puyehue","code":"10304","gse":"E","quintil":"Q1","nse_score":611.2,"educ":10.9,"educ_score":526.7,"hacin":1.364,"hacin_class":"Hacinamiento Leve","hacin_score":773.7,"auto_score":184.2,"n_per":45,"n_hog":15,"source_year":2024},"geometry":{"type":"Polygon","coordinates":[[[-72.6049694429999,-40.6940991090671],[-72.6047497829999,-40.6935188610671],[-72.6044071139999,-40.6935898100671],[-72.6046469359999,-40.6941632430671],[-72.6049694429999,-40.6940991090671]]]}},{"type":"Feature","properties":{"id":"10304011001076","commune":"Puyehue","code":"10304","gse":"E","quintil":"Q1","nse_score":549.2,"educ":7.0,"educ_score":266.7,"hacin":1.2,"hacin_class":"Hacinamiento Leve","hacin_score":808.5,"auto_score":166.7,"n_per":12,"n_hog":6,"source_year":2024},"geometry":{"type":"Polygon","coordinates":[[[-72.6055668629999,-40.6939167620671],[-72.6059377139999,-40.6946580550671],[-72.6064969029999,-40.6945410160671],[-72.6063462859999,-40.6940911260671],[-72.6066009109999,-40.6945066670671],[-72.6071095329999,-40.6943346860671],[-72.6066163079999,-40.6935280610671],[-72.6055668629999,-40.6939167620671]]]}},{"type":"Feature","properties":{"id":"10304011001077","commune":"Puyehue","code":"10304","gse":"E","quintil":"Q1","nse_score":543.7,"educ":8.1,"educ_score":340.0,"hacin":1.224,"hacin_class":"Hacinamiento Leve","hacin_score":803.3,"auto_score":33.3,"n_per":60,"n_hog":25,"source_year":2024},"geometry":{"type":"Polygon","coordinates":[[[-72.6044548659999,-40.6938735840671],[-72.6043107639999,-40.6936098070671],[-72.6031910289999,-40.6939911430671],[-72.6033421409999,-40.6942352060671],[-72.6044548659999,-40.6938735840671]]]}},{"type":"Feature","properties":{"id":"10304011001078","commune":"Puyehue","code":"10304","gse":"D","quintil":"Q1","nse_score":640.4,"educ":10.2,"educ_score":480.0,"hacin":1.36,"hacin_class":"Hacinamiento Leve","hacin_score":774.5,"auto_score":200.0,"n_per":68,"n_hog":23,"source_year":2024},"geometry":{"type":"Polygon","coordinates":[[[-72.6084585229999,-40.6936479390671],[-72.6074740039999,-40.6942231450671],[-72.6075811149999,-40.6945215540671],[-72.6086166579999,-40.6939503780671],[-72.6084585229999,-40.6936479390671]]]}},{"type":"Feature","properties":{"id":"10304011001079","commune":"Puyehue","code":"10304","gse":"E","quintil":"Q1","nse_score":587.5,"educ":10.0,"educ_score":466.7,"hacin":1.415,"hacin_class":"Hacinamiento Leve","hacin_score":762.8,"auto_score":140.0,"n_per":58,"n_hog":22,"source_year":2024},"geometry":{"type":"Polygon","coordinates":[[[-72.6096668259999,-40.6938729530671],[-72.6103155329999,-40.6945341910671],[-72.6106951109999,-40.6943663930671],[-72.6100213029999,-40.6936572910671],[-72.6096668259999,-40.6938729530671]]]}},{"type":"Feature","properties":{"id":"10304011001080","commune":"Puyehue","code":"10304","gse":"C3","quintil":"Q3","nse_score":701.2,"educ":11.6,"educ_score":573.3,"hacin":1.286,"hacin_class":"Hacinamiento Leve","hacin_score":790.3,"auto_score":347.8,"n_per":63,"n_hog":22,"source_year":2024},"geometry":{"type":"Polygon","coordinates":[[[-72.6106888469999,-40.6981416580671],[-72.6109309619999,-40.6980931010671],[-72.615345869,-40.6950781700671],[-72.6135247239999,-40.6937033640671],[-72.6089691869999,-40.6967880100671],[-72.6106888469999,-40.6981416580671]]]}},{"type":"Feature","properties":{"id":"10304011001081","commune":"Puyehue","code":"10304","gse":"E","quintil":"Q1","nse_score":602.4,"educ":10.0,"educ_score":466.7,"hacin":1.5,"hacin_class":"Hacinamiento Medio","hacin_score":744.7,"auto_score":192.3,"n_per":33,"n_hog":11,"source_year":2024},"geometry":{"type":"Polygon","coordinates":[[[-72.6092827989999,-40.6941027910671],[-72.6099352679999,-40.6947409010671],[-72.6103004369999,-40.6946003310671],[-72.6096382839999,-40.6938902470671],[-72.6092827989999,-40.6941027910671]]]}},{"type":"Feature","properties":{"id":"10304011001082","commune":"Puyehue","code":"10304","gse":"D","quintil":"Q1","nse_score":636.2,"educ":10.9,"educ_score":526.7,"hacin":1.467,"hacin_class":"Hacinamiento Leve","hacin_score":751.8,"auto_score":35.7,"n_per":66,"n_hog":23,"source_year":2024},"geometry":{"type":"Polygon","coordinates":[[[-72.6045705269999,-40.6942064160671],[-72.6044579739999,-40.6939574410671],[-72.6033519989999,-40.6943102910671],[-72.6034846739999,-40.6944985060671],[-72.6045705269999,-40.6942064160671]]]}},{"type":"Feature","properties":{"id":"10304011001083","commune":"Puyehue","code":"10304","gse":"C3","quintil":"Q3","nse_score":710.1,"educ":11.5,"educ_score":566.7,"hacin":1.5,"hacin_class":"Hacinamiento Medio","hacin_score":744.7,"auto_score":0.0,"n_per":15,"n_hog":5,"source_year":2024},"geometry":{"type":"Polygon","coordinates":[[[-72.6025488269999,-40.6947502450671],[-72.6033491449999,-40.6945292780671],[-72.6031154009999,-40.6939804870671],[-72.6027957929999,-40.6940737640671],[-72.6025488269999,-40.6947502450671]]]}},{"type":"Feature","properties":{"id":"10304011001084","commune":"Puyehue","code":"10304","gse":"D","quintil":"Q2","nse_score":648.6,"educ":10.0,"educ_score":466.7,"hacin":1.07,"hacin_class":"Hacinamiento Leve","hacin_score":836.1,"auto_score":222.2,"n_per":61,"n_hog":25,"source_year":2024},"geometry":{"type":"Polygon","coordinates":[[[-72.6087711599999,-40.6942834560671],[-72.6086350119999,-40.6939851310671],[-72.6076300509999,-40.6945761510671],[-72.6077358379999,-40.6948185750671],[-72.6087711599999,-40.6942834560671]]]}},{"type":"Feature","properties":{"id":"10304011001085","commune":"Puyehue","code":"10304","gse":"C3","quintil":"Q3","nse_score":709.0,"educ":11.6,"educ_score":573.3,"hacin":1.514,"hacin_class":"Hacinamiento Medio","hacin_score":741.8,"auto_score":166.7,"n_per":56,"n_hog":20,"source_year":2024},"geometry":{"type":"Polygon","coordinates":[[[-72.6055403559999,-40.6949000940671],[-72.6059099369999,-40.6947843820671],[-72.6055034299999,-40.6940197400671],[-72.6051333939999,-40.6941489060671],[-72.6055403559999,-40.6949000940671]]]}},{"type":"Feature","properties":{"id":"10304011001086","commune":"Puyehue","code":"10304","gse":"E","quintil":"Q1","nse_score":566.9,"educ":8.4,"educ_score":360.0,"hacin":1.769,"hacin_class":"Hacinamiento Medio","hacin_score":687.4,"auto_score":333.3,"n_per":23,"n_hog":6,"source_year":2024},"geometry":{"type":"Polygon","coordinates":[[[-72.6089522849999,-40.6942539830671],[-72.6095821739999,-40.6949740140671],[-72.6099213449999,-40.6948250630671],[-72.6092446029999,-40.6941160600671],[-72.6089522849999,-40.6942539830671]]]}},{"type":"Feature","properties":{"id":"10304011001087","commune":"Puyehue","code":"10304","gse":"C3","quintil":"Q3","nse_score":708.2,"educ":11.7,"educ_score":580.0,"hacin":1.196,"hacin_class":"Hacinamiento Leve","hacin_score":809.4,"auto_score":270.8,"n_per":55,"n_hog":24,"source_year":2024},"geometry":{"type":"Polygon","coordinates":[[[-72.6039991479999,-40.6947149550671],[-72.6051335199999,-40.6944163230671],[-72.6051508099999,-40.6943848150671],[-72.6050050259999,-40.6941546440671],[-72.6039056319999,-40.6944511810671],[-72.6039991479999,-40.6947149550671]]]}},{"type":"Feature","properties":{"id":"10304011001088","commune":"Puyehue","code":"10304","gse":"E","quintil":"Q1","nse_score":601.2,"educ":9.0,"educ_score":400.0,"hacin":1.483,"hacin_class":"Hacinamiento Leve","hacin_score":748.3,"auto_score":41.7,"n_per":43,"n_hog":12,"source_year":2024},"geometry":{"type":"Polygon","coordinates":[[[-72.6071572549999,-40.6944052110671],[-72.6065959539999,-40.6945813150671],[-72.6070921029999,-40.6955233790671],[-72.6076197369999,-40.6953309300671],[-72.6071572549999,-40.6944052110671]]]}},{"type":"Feature","properties":{"id":"10304011001090","commune":"Puyehue","code":"10304","gse":"D","quintil":"Q1","nse_score":636.6,"educ":10.4,"educ_score":493.3,"hacin":1.439,"hacin_class":"Hacinamiento Leve","hacin_score":757.7,"auto_score":100.0,"n_per":59,"n_hog":23,"source_year":2024},"geometry":{"type":"Polygon","coordinates":[[[-72.6034267189999,-40.6945805710671],[-72.6037526209999,-40.6953354330671],[-72.6041309549999,-40.6952569110671],[-72.6037942609999,-40.6945073810671],[-72.6034267189999,-40.6945805710671]]]}},{"type":"Feature","properties":{"id":"10304011001091","commune":"Puyehue","code":"10304","gse":"D","quintil":"Q2","nse_score":655.6,"educ":9.4,"educ_score":426.7,"hacin":1.059,"hacin_class":"Hacinamiento Leve","hacin_score":838.5,"auto_score":100.0,"n_per":72,"n_hog":29,"source_year":2024},"geometry":{"type":"Polygon","coordinates":[[[-72.607009693,-40.6955286230671],[-72.6065503089999,-40.6945803680671],[-72.6060203529999,-40.6947101830671],[-72.6064493769999,-40.6956769320671],[-72.607009693,-40.6955286230671]]]}},{"type":"Feature","properties":{"id":"10304011001093","commune":"Puyehue","code":"10304","gse":"D","quintil":"Q2","nse_score":651.1,"educ":10.2,"educ_score":480.0,"hacin":1.436,"hacin_class":"Hacinamiento Leve","hacin_score":758.3,"auto_score":144.7,"n_per":336,"n_hog":114,"source_year":2024},"geometry":{"type":"Polygon","coordinates":[[[-72.6029653799999,-40.6947582000671],[-72.6034071239999,-40.6957415770671],[-72.6043889229999,-40.6954855890671],[-72.6048019659999,-40.6963277530671],[-72.6052914099999,-40.6962044730671],[-72.6054735239999,-40.6965987400671],[-72.6066397129999,-40.6962838200671],[-72.6065642739999,-40.6961882380671],[-72.6054559149999,-40.6964790270671],[-72.6057078239999,-40.6963521340671],[-72.6056157709999,-40.6961355280671],[-72.6057865899999,-40.6963339510671],[-72.6061240449999,-40.6962418620671],[-72.6060411359999,-40.6960122350671],[-72.6062076199999,-40.6962105660671],[-72.606510264,-40.6961210570671],[-72.6062503789999,-40.6955013080671],[-72.6060579219999,-40.6955435570671],[-72.6061738669999,-40.6958201110671],[-72.6050476939999,-40.6961237380671],[-72.6048999779999,-40.6955228290671],[-72.6045495159999,-40.6956146440671],[-72.606075615,-40.6951706840671],[-72.6059525629999,-40.6948643000671],[-72.6037811739999,-40.6954210940671],[-72.6033350249999,-40.6946453900671],[-72.6029653799999,-40.6947582000671]]]}},{"type":"Feature","properties":{"id":"10304011001094","commune":"Puyehue","code":"10304","gse":"C3","quintil":"Q2","nse_score":675.7,"educ":10.8,"educ_score":520.0,"hacin":1.454,"hacin_class":"Hacinamiento Leve","hacin_score":754.4,"auto_score":103.4,"n_per":80,"n_hog":28,"source_year":2024},"geometry":{"type":"Polygon","coordinates":[[[-72.6042444549999,-40.6952314510671],[-72.6053637539999,-40.6949440120671],[-72.6053860349999,-40.6948908780671],[-72.6052343109999,-40.6946565730671],[-72.6041359519999,-40.6949497230671],[-72.6042444549999,-40.6952314510671]]]}},{"type":"Feature","properties":{"id":"10304011001095","commune":"Puyehue","code":"10304","gse":"C3","quintil":"Q2","nse_score":674.5,"educ":10.7,"educ_score":513.3,"hacin":1.395,"hacin_class":"Hacinamiento Leve","hacin_score":766.9,"auto_score":108.7,"n_per":60,"n_hog":23,"source_year":2024},"geometry":{"type":"Polygon","coordinates":[[[-72.6031394519999,-40.6955615280671],[-72.6028746509999,-40.6947902040671],[-72.6025294609999,-40.6948282900671],[-72.6028316359999,-40.6955955720671],[-72.6031394519999,-40.6955615280671]]]}},{"type":"Feature","properties":{"id":"10304011001096","commune":"Puyehue","code":"10304","gse":"C2","quintil":"Q4","nse_score":736.1,"educ":12.0,"educ_score":600.0,"hacin":1.667,"hacin_class":"Hacinamiento Medio","hacin_score":709.2,"auto_score":500.0,"n_per":20,"n_hog":7,"source_year":2024},"geometry":{"type":"Polygon","coordinates":[[[-72.6020345389999,-40.6957874450671],[-72.602801499,-40.6956538710671],[-72.6024445569999,-40.6948553330671],[-72.6020345389999,-40.6957874450671]]]}},{"type":"Feature","properties":{"id":"10304011001097","commune":"Puyehue","code":"10304","gse":"C3","quintil":"Q3","nse_score":692.7,"educ":12.0,"educ_score":600.0,"hacin":1.686,"hacin_class":"Hacinamiento Medio","hacin_score":705.2,"auto_score":279.4,"n_per":118,"n_hog":38,"source_year":2024},"geometry":{"type":"Polygon","coordinates":[[[-72.6021008029999,-40.6949403450671],[-72.6015192829999,-40.6962337740671],[-72.6033175439999,-40.6957649330671],[-72.6031834909999,-40.6956210510671],[-72.6018785549999,-40.6959754580671],[-72.6023151939999,-40.6949793620671],[-72.6021008029999,-40.6949403450671]]]}},{"type":"Feature","properties":{"id":"10304011001098","commune":"Puyehue","code":"10304","gse":"D","quintil":"Q1","nse_score":634.5,"educ":9.0,"educ_score":400.0,"hacin":1.222,"hacin_class":"Hacinamiento Leve","hacin_score":803.8,"auto_score":27.8,"n_per":44,"n_hog":16,"source_year":2024},"geometry":{"type":"Polygon","coordinates":[[[-72.6049892419999,-40.6954999330671],[-72.6050927919999,-40.6957483370671],[-72.6062171579999,-40.6954218070671],[-72.6060847699999,-40.6952073410671],[-72.6049892419999,-40.6954999330671]]]}},{"type":"Feature","properties":{"id":"10304011001100","commune":"Puyehue","code":"10304","gse":"E","quintil":"Q1","nse_score":562.2,"educ":8.6,"educ_score":373.3,"hacin":1.411,"hacin_class":"Hacinamiento Leve","hacin_score":763.6,"auto_score":175.7,"n_per":103,"n_hog":32,"source_year":2024},"geometry":{"type":"Polygon","coordinates":[[[-72.6070975819999,-40.6955617370671],[-72.607951898,-40.6973456490671],[-72.6085088239999,-40.6972285520671],[-72.6076546179999,-40.6954411710671],[-72.6070975819999,-40.6955617370671]]]}},{"type":"Feature","properties":{"id":"10304011001101","commune":"Puyehue","code":"10304","gse":"D","quintil":"Q1","nse_score":623.1,"educ":9.5,"educ_score":433.3,"hacin":1.0,"hacin_class":"Hacinamiento Leve","hacin_score":851.1,"auto_score":111.1,"n_per":32,"n_hog":15,"source_year":2024},"geometry":{"type":"Polygon","coordinates":[[[-72.6059912619999,-40.6955597680671],[-72.6049656929999,-40.6958267830671],[-72.6049572159999,-40.6958431240671],[-72.6051024879999,-40.6960833850671],[-72.6061183649999,-40.6958116630671],[-72.6059912619999,-40.6955597680671]]]}},{"type":"Feature","properties":{"id":"10304011001102","commune":"Puyehue","code":"10304","gse":"E","quintil":"Q1","nse_score":594.3,"educ":8.8,"educ_score":386.7,"hacin":1.288,"hacin_class":"Hacinamiento Leve","hacin_score":789.9,"auto_score":52.6,"n_per":94,"n_hog":38,"source_year":2024},"geometry":{"type":"Polygon","coordinates":[[[-72.6070122049999,-40.6955860420671],[-72.6064784049999,-40.6957592390671],[-72.6072976999999,-40.6974363870671],[-72.6074088319999,-40.6975221330671],[-72.6079138879999,-40.6973865820671],[-72.6070122049999,-40.6955860420671]]]}},{"type":"Feature","properties":{"id":"10304011001099","commune":"Puyehue","code":"10304","gse":"E","quintil":"Q1","nse_score":568.8,"educ":10.0,"educ_score":466.7,"hacin":1.364,"hacin_class":"Hacinamiento Leve","hacin_score":773.7,"auto_score":200.0,"n_per":15,"n_hog":6,"source_year":2024},"geometry":{"type":"MultiPolygon","coordinates":[[[[-72.6108457169999,-40.6984764580671],[-72.6141071339999,-40.6977060240671],[-72.6144969249999,-40.6972242590671],[-72.6148607199999,-40.6971544400671],[-72.6149790589999,-40.6970022050671],[-72.6150653049999,-40.6963675350671],[-72.6146567469999,-40.6961627790671],[-72.6145698059999,-40.6958713290671],[-72.6140641439999,-40.6960139490671],[-72.6106528469999,-40.6983414490671],[-72.6108457169999,-40.6984764580671]]],[[[-72.609563712,-40.698732809067],[-72.6107990719999,-40.6985110480671],[-72.608880241,-40.6970725690671],[-72.6082438259999,-40.6963046210671],[-72.6077187209999,-40.6954167250671],[-72.6091866159999,-40.6983695340671],[-72.609563712,-40.698732809067]]]]}},{"type":"Feature","properties":{"id":"10304011001019","commune":"Puyehue","code":"10304","gse":"C3","quintil":"Q3","nse_score":701.5,"educ":11.2,"educ_score":546.7,"hacin":1.091,"hacin_class":"Hacinamiento Leve","hacin_score":831.7,"auto_score":0.0,"n_per":12,"n_hog":7,"source_year":2024},"geometry":{"type":"MultiPolygon","coordinates":[[[[-72.6030665149999,-40.6869021180671],[-72.6042381379999,-40.6866011460671],[-72.6046476939999,-40.6862303760671],[-72.6044347999999,-40.6846047880671],[-72.6031003619999,-40.6846599870671],[-72.6021444099999,-40.6849523640671],[-72.6030665149999,-40.6869021180671]]],[[[-72.6069094369999,-40.6841114290671],[-72.6054032759999,-40.6839560550672],[-72.6056663559999,-40.6846075260671],[-72.6052983619999,-40.6839235960672],[-72.6044536069999,-40.6836678440672],[-72.6047615069999,-40.6864027510671],[-72.6063686799999,-40.6858018170671],[-72.609702018,-40.6834849400671],[-72.6081773159999,-40.6840085930671],[-72.6069094369999,-40.6841114290671]]]]}},{"type":"Feature","properties":{"id":"10304013223001","commune":"Puyehue","code":"10304","gse":"C3","quintil":"Q2","nse_score":669.8,"educ":11.1,"educ_score":540.0,"hacin":1.258,"hacin_class":"Hacinamiento Leve","hacin_score":796.1,"auto_score":262.5,"n_per":112,"n_hog":40,"source_year":2024},"geometry":{"type":"Polygon","coordinates":[[[-72.6618739349999,-40.6474881610674],[-72.6583955769999,-40.6478404500673],[-72.6586096349999,-40.6486991350673],[-72.6619040969999,-40.6483723930673],[-72.6604755119999,-40.6485736580673],[-72.6605842579999,-40.6490059460673],[-72.6617288369999,-40.6489151830673],[-72.6605932169999,-40.6490415600673],[-72.6610919569999,-40.6510240780673],[-72.6624734089999,-40.6505187800673],[-72.6611048659999,-40.6510753930673],[-72.6614001759999,-40.6521625090673],[-72.6620797429999,-40.6520051520673],[-72.6629323989999,-40.6515350390673],[-72.6618739349999,-40.6474881610674]]]}},{"type":"Feature","properties":{"id":"10304013223003","commune":"Puyehue","code":"10304","gse":"C3","quintil":"Q2","nse_score":674.5,"educ":10.5,"educ_score":500.0,"hacin":1.245,"hacin_class":"Hacinamiento Leve","hacin_score":799.0,"auto_score":130.4,"n_per":117,"n_hog":46,"source_year":2024},"geometry":{"type":"Polygon","coordinates":[[[-72.6591599149999,-40.6508103640673],[-72.6596288489999,-40.6525763370673],[-72.6613320189999,-40.6521782910673],[-72.6604051019999,-40.6485808900673],[-72.6586234689999,-40.6487522120673],[-72.6589908869999,-40.6501618700673],[-72.6598940679999,-40.6500976130673],[-72.6590001439999,-40.6501973860673],[-72.6591501049999,-40.6507727270673],[-72.6600928359999,-40.6507124780673],[-72.6591599149999,-40.6508103640673]]]}},{"type":"Feature","properties":{"id":"10304013223004","commune":"Puyehue","code":"10304","gse":"E","quintil":"Q1","nse_score":610.3,"educ":9.7,"educ_score":446.7,"hacin":0.849,"hacin_class":"Sin Hacinamiento","hacin_score":883.2,"auto_score":83.3,"n_per":45,"n_hog":18,"source_year":2024},"geometry":{"type":"Polygon","coordinates":[[[-72.6570099859999,-40.6490973250673],[-72.6572621349999,-40.6498984630673],[-72.6587753319999,-40.6496123360673],[-72.6585547039999,-40.6487658590673],[-72.6570099859999,-40.6490973250673]]]}},{"type":"Feature","properties":{"id":"10304013223005","commune":"Puyehue","code":"10304","gse":"E","quintil":"Q1","nse_score":526.0,"educ":5.5,"educ_score":166.7,"hacin":1.25,"hacin_class":"Hacinamiento Leve","hacin_score":797.9,"auto_score":0.0,"n_per":10,"n_hog":5,"source_year":2024},"geometry":{"type":"Polygon","coordinates":[[[-72.6587781699999,-40.6513326240673],[-72.6592156089999,-40.6513015290673],[-72.6587891609999,-40.6496653930673],[-72.6583123499999,-40.6497555550673],[-72.6587781699999,-40.6513326240673]]]}},{"type":"Feature","properties":{"id":"10304013223006","commune":"Puyehue","code":"10304","gse":"C3","quintil":"Q2","nse_score":670.3,"educ":12.0,"educ_score":600.0,"hacin":1.098,"hacin_class":"Hacinamiento Leve","hacin_score":830.3,"auto_score":187.5,"n_per":45,"n_hog":16,"source_year":2024},"geometry":{"type":"Polygon","coordinates":[[[-72.6572821839999,-40.6499503440673],[-72.6577204499999,-40.6511643080673],[-72.6582230339999,-40.6511322610673],[-72.658582238,-40.6509537000673],[-72.6582434429999,-40.6497685840673],[-72.6572821839999,-40.6499503440673]]]}},{"type":"Feature","properties":{"id":"10304013223008","commune":"Puyehue","code":"10304","gse":"D","quintil":"Q1","nse_score":631.7,"educ":9.3,"educ_score":420.0,"hacin":1.6,"hacin_class":"Hacinamiento Medio","hacin_score":723.4,"auto_score":133.3,"n_per":40,"n_hog":15,"source_year":2024},"geometry":{"type":"Polygon","coordinates":[[[-72.6577376139999,-40.6512169010673],[-72.6583221589999,-40.6530080810673],[-72.6595618539999,-40.6525954830673],[-72.6592294409999,-40.6513545950673],[-72.6587967059999,-40.6514117470673],[-72.6580918529999,-40.6511716580673],[-72.6577376139999,-40.6512169010673]]]}},{"type":"Feature","properties":{"id":"10304013223011","commune":"Puyehue","code":"10304","gse":"D","quintil":"Q2","nse_score":665.0,"educ":11.3,"educ_score":553.3,"hacin":1.182,"hacin_class":"Hacinamiento Leve","hacin_score":812.4,"auto_score":200.0,"n_per":13,"n_hog":4,"source_year":2024},"geometry":{"type":"Polygon","coordinates":[[[-72.6516701019999,-40.6567047850673],[-72.6529783749999,-40.6552150880673],[-72.6535121889999,-40.6549125600673],[-72.6531247879999,-40.6535064720673],[-72.6520488229999,-40.6540822180673],[-72.6507301099999,-40.6553736770673],[-72.6516701019999,-40.6567047850673]]]}},{"type":"Feature","properties":{"id":"10304013223012","commune":"Puyehue","code":"10304","gse":"D","quintil":"Q1","nse_score":633.3,"educ":11.0,"educ_score":533.3,"hacin":1.315,"hacin_class":"Hacinamiento Leve","hacin_score":784.0,"auto_score":184.8,"n_per":121,"n_hog":44,"source_year":2024},"geometry":{"type":"Polygon","coordinates":[[[-72.6521814639999,-40.6574289150672],[-72.6548495489999,-40.6559676620673],[-72.6544560119999,-40.6553601000673],[-72.6541437069999,-40.6552322040673],[-72.6541228869999,-40.6551637950673],[-72.6544679089999,-40.6553273830673],[-72.6548802329999,-40.6559508570673],[-72.6573305239999,-40.6546088860673],[-72.6571078019999,-40.6545098000673],[-72.6564775909999,-40.6536694320673],[-72.6557196859999,-40.6539546750673],[-72.6548301889999,-40.6543096450673],[-72.6550483979999,-40.6545863790673],[-72.6548011499999,-40.6543218810673],[-72.6543685979999,-40.6545307740673],[-72.6547628629999,-40.6548778630673],[-72.6543301059999,-40.6545496860673],[-72.6533260289999,-40.6550765480673],[-72.6536072379999,-40.6555441120673],[-72.653281778,-40.6550999030673],[-72.6530318069999,-40.6552509730673],[-72.6517073499999,-40.6567575310673],[-72.6521814639999,-40.6574289150672]]]}},{"type":"Feature","properties":{"id":"10304013223009","commune":"Puyehue","code":"10304","gse":"C3","quintil":"Q3","nse_score":697.7,"educ":11.4,"educ_score":560.0,"hacin":1.182,"hacin_class":"Hacinamiento Leve","hacin_score":812.4,"auto_score":300.0,"n_per":26,"n_hog":10,"source_year":2024},"geometry":{"type":"MultiPolygon","coordinates":[[[[-72.6565155659999,-40.6536570270673],[-72.6571361179999,-40.6544874330673],[-72.6573764679999,-40.6545837240673],[-72.6577818549999,-40.6543601310673],[-72.6575218279999,-40.6539779900673],[-72.6578214589999,-40.6543382610673],[-72.6597591749999,-40.6532308770673],[-72.6595779869999,-40.6526493780673],[-72.6565155659999,-40.6536570270673]]],[[[-72.6596445629999,-40.6526290600673],[-72.6598313119999,-40.6532283840673],[-72.6619031549999,-40.6521025140673],[-72.6596445629999,-40.6526290600673]]]]}}]}