{"type":"FeatureCollection","features":[{"type":"Feature","properties":{"id":"10207011001001","commune":"Queilén","code":"10207","gse":"C3","quintil":"Q2","nse_score":679.6,"educ":11.8,"educ_score":586.7,"hacin":1.126,"hacin_class":"Hacinamiento Leve","hacin_score":824.3,"auto_score":226.7,"n_per":242,"n_hog":86,"source_year":2024,"crime_score":0.1358,"crime_nivel":"Muy Bajo","crime_color":"#4caf50"},"geometry":{"type":"Polygon","coordinates":[[[-73.4726945869999,-42.8794602140592],[-73.4692971789999,-42.8792689240591],[-73.4694351249999,-42.8765257440592],[-73.467161013,-42.8764821570592],[-73.4671034579999,-42.8776561450592],[-73.4676230349999,-42.8776696040592],[-73.4676840959999,-42.8770791420592],[-73.4673044639999,-42.8770631760591],[-73.4671810969999,-42.8776376400592],[-73.4672353789999,-42.8770152440592],[-73.4676887329999,-42.8770343100592],[-73.4677367279999,-42.8765702140591],[-73.4677859469999,-42.8766870050592],[-73.4691951059999,-42.8767415000591],[-73.4690909909999,-42.8781486380591],[-73.4676110209999,-42.8780882190592],[-73.4676048339999,-42.8778456130591],[-73.4670661729999,-42.8778177340592],[-73.4671165869999,-42.8800633550592],[-73.4677565439999,-42.8800206770592],[-73.4671232309999,-42.8801081770592],[-73.4673378729999,-42.8811547500592],[-73.4685242259999,-42.8808415410592],[-73.4706497669999,-42.8805436560592],[-73.4709857749999,-42.8803540570591],[-73.4712929899999,-42.8803481190592],[-73.4706685109999,-42.8805868880591],[-73.4688401469999,-42.8808797140591],[-73.4688308579999,-42.8811992170592],[-73.4686980109999,-42.8808642300591],[-73.46734269,-42.8812012410592],[-73.4674055739999,-42.8818656850591],[-73.4684955139999,-42.8815786370592],[-73.4674122239999,-42.8819123740592],[-73.4677432689999,-42.8829643590591],[-73.4692483849999,-42.8823394360592],[-73.4695868189999,-42.8825848950591],[-73.4693178639999,-42.8834343960591],[-73.4695244519999,-42.8826630860591],[-73.4692377049999,-42.8823798740591],[-73.4677598169999,-42.8830091350592],[-73.4679640659999,-42.8835735520591],[-73.4688872489999,-42.8835521350592],[-73.4679709459999,-42.8836190890591],[-73.4680415119999,-42.8841144990592],[-73.4691723209999,-42.8841988300592],[-73.4680478089999,-42.8841601510592],[-73.4682623379999,-42.8851328540592],[-73.4692264159999,-42.8851201160591],[-73.4682677979999,-42.8851596810592],[-73.468393407,-42.8856679510592],[-73.4704621219999,-42.8853072190591],[-73.4714725979999,-42.8844231830592],[-73.4718217309999,-42.8831622280592],[-73.4722566619999,-42.8824602810592],[-73.4707754149999,-42.8822694670592],[-73.4711557699999,-42.8811938060592],[-73.4715139929999,-42.8811992950591],[-73.4714123229999,-42.8809315170592],[-73.4724556979999,-42.8807000450591],[-73.4725377339999,-42.8795093270592],[-73.4726945869999,-42.8794602140592]]]}},{"type":"Feature","properties":{"id":"10207011001007","commune":"Queilén","code":"10207","gse":"C3","quintil":"Q3","nse_score":711.0,"educ":11.6,"educ_score":573.3,"hacin":1.035,"hacin_class":"Hacinamiento Leve","hacin_score":843.6,"auto_score":261.9,"n_per":59,"n_hog":21,"source_year":2024,"crime_score":0.1226,"crime_nivel":"Muy Bajo","crime_color":"#4caf50"},"geometry":{"type":"Polygon","coordinates":[[[-73.4669470309999,-42.8788940510591],[-73.4656895719999,-42.8789916710592],[-73.4652881909999,-42.8793062870592],[-73.4652297939999,-42.8796042530591],[-73.4651812229999,-42.8794013100592],[-73.4654749789999,-42.8790986040591],[-73.4639234079999,-42.8791561790592],[-73.4634219499999,-42.8803445820592],[-73.4635862529999,-42.8817691250592],[-73.4630915629999,-42.8826013400592],[-73.4630320769999,-42.8830177450592],[-73.4631272549999,-42.8833508700592],[-73.4634960719999,-42.8837791730591],[-73.4642099099999,-42.8843264490592],[-73.4652211809999,-42.8847309570591],[-73.4663276299999,-42.8855042820592],[-73.4670882569999,-42.8857974340591],[-73.4679111579999,-42.8863650150592],[-73.4681796749999,-42.8862189920592],[-73.4682923379999,-42.8856807440592],[-73.4682447929999,-42.8855016800592],[-73.4675517249999,-42.8852714640591],[-73.4682338909999,-42.8854487320591],[-73.4678848989999,-42.8836026870592],[-73.4675888019999,-42.8827833720592],[-73.4655733959999,-42.8830103230592],[-73.4675726669999,-42.8827398490592],[-73.4673146549999,-42.8818467520592],[-73.4663009409999,-42.8821104790592],[-73.4665448329999,-42.8819398160592],[-73.4673117899999,-42.8818009750591],[-73.4673031389999,-42.8816855210592],[-73.4652798359999,-42.8818664040592],[-73.4672994149999,-42.8816405710592],[-73.4670240119999,-42.8800274660592],[-73.4651741029999,-42.8803713850592],[-73.4651666839999,-42.8802686870592],[-73.4670194269999,-42.8799822380591],[-73.4669470309999,-42.8788940510591]]]}},{"type":"Feature","properties":{"id":"10207011001008","commune":"Queilén","code":"10207","gse":"D","quintil":"Q2","nse_score":654.5,"educ":10.1,"educ_score":473.3,"hacin":1.099,"hacin_class":"Hacinamiento Leve","hacin_score":830.1,"auto_score":66.2,"n_per":490,"n_hog":199,"source_year":2024,"crime_score":0.1412,"crime_nivel":"Muy Bajo","crime_color":"#4caf50"},"geometry":{"type":"Polygon","coordinates":[[[-73.4786866169999,-42.8838865750592],[-73.4779929279999,-42.8838720520592],[-73.4786754259999,-42.8838264620592],[-73.4786298589999,-42.8835579290592],[-73.4771877749999,-42.8835504510592],[-73.4786262379999,-42.8835363010592],[-73.4785006469999,-42.8830371640591],[-73.4785066509999,-42.8821066450592],[-73.4779693949999,-42.8820782450592],[-73.4779582449999,-42.8822037430592],[-73.4737188549999,-42.8818665940591],[-73.4738802019999,-42.8809074320592],[-73.4739076999999,-42.8795284930592],[-73.4736911889999,-42.8795163070592],[-73.4735312289999,-42.8817246060591],[-73.4725787079999,-42.8815905520591],[-73.4723817119999,-42.8823995320592],[-73.4737035879999,-42.8822327490591],[-73.4733212129999,-42.8823468880591],[-73.4732085329999,-42.8844404560591],[-73.4737327859999,-42.8840160340592],[-73.4743784369999,-42.8844077380591],[-73.4745781109999,-42.8842436710591],[-73.4735838269999,-42.8836307210591],[-73.474617614,-42.8842092900592],[-73.4747369599999,-42.8841660450591],[-73.4737634109999,-42.8850536960591],[-73.4738444849999,-42.8855567190592],[-73.4737172869999,-42.8858898800591],[-73.4743640699999,-42.8868753450592],[-73.474755737,-42.8868076020591],[-73.4750005889999,-42.8870238630592],[-73.4757091419999,-42.8864825870591],[-73.4766574939999,-42.8863818420591],[-73.4769529279999,-42.8862424500591],[-73.4771284079999,-42.8862573170592],[-73.4766699479999,-42.8864168240591],[-73.4757327269999,-42.8865142580591],[-73.4750520009999,-42.8870508640591],[-73.4749406939999,-42.8870487220591],[-73.4747379849999,-42.8868457780592],[-73.4743299609999,-42.8869178070591],[-73.4746205069999,-42.8879010870591],[-73.4742748489999,-42.8869129150591],[-73.4737479379999,-42.8866060670591],[-73.4726215149999,-42.8878482540591],[-73.4726968259999,-42.8891833230591],[-73.4730811229999,-42.8892903180591],[-73.4733778009999,-42.8886936610591],[-73.4731269219999,-42.8893030960591],[-73.4772201499999,-42.8903232240591],[-73.4781030879999,-42.8875009010591],[-73.4781648539999,-42.8859591220591],[-73.4783956989999,-42.8851486230592],[-73.477722163,-42.8851515060592],[-73.478403753,-42.8851270800592],[-73.4785338359999,-42.8848514290591],[-73.4777902839999,-42.8848006540592],[-73.4785407779999,-42.8848304740592],[-73.4786634219999,-42.8843226490592],[-73.478120025,-42.8842860690591],[-73.4786962229999,-42.8843057420591],[-73.4786866169999,-42.8838865750592]]]}},{"type":"Feature","properties":{"id":"10207011001009","commune":"Queilén","code":"10207","gse":"D","quintil":"Q1","nse_score":631.8,"educ":10.8,"educ_score":520.0,"hacin":1.636,"hacin_class":"Hacinamiento Medio","hacin_score":715.7,"auto_score":68.2,"n_per":72,"n_hog":20,"source_year":2024,"crime_score":0.1288,"crime_nivel":"Muy Bajo","crime_color":"#4caf50"},"geometry":{"type":"Polygon","coordinates":[[[-73.4726394299999,-42.8798165020591],[-73.4735944919999,-42.8798821080592],[-73.4736182489999,-42.8796108860592],[-73.4726437829999,-42.8795454090592],[-73.4726394299999,-42.8798165020591]]]}},{"type":"Feature","properties":{"id":"10207011001010","commune":"Queilén","code":"10207","gse":"D","quintil":"Q1","nse_score":624.2,"educ":10.6,"educ_score":506.7,"hacin":1.529,"hacin_class":"Hacinamiento Medio","hacin_score":738.4,"auto_score":45.5,"n_per":52,"n_hog":20,"source_year":2024,"crime_score":0.1281,"crime_nivel":"Muy Bajo","crime_color":"#4caf50"},"geometry":{"type":"Polygon","coordinates":[[[-73.4725879449999,-42.8801503430591],[-73.4735868769999,-42.8802249410592],[-73.4736082029999,-42.8799448700591],[-73.4726297809999,-42.8798610520592],[-73.4725879449999,-42.8801503430591]]]}},{"type":"Feature","properties":{"id":"10207011001011","commune":"Queilén","code":"10207","gse":"C3","quintil":"Q2","nse_score":675.8,"educ":10.7,"educ_score":513.3,"hacin":1.375,"hacin_class":"Hacinamiento Leve","hacin_score":771.3,"auto_score":217.4,"n_per":66,"n_hog":23,"source_year":2024,"crime_score":0.1254,"crime_nivel":"Muy Bajo","crime_color":"#4caf50"},"geometry":{"type":"Polygon","coordinates":[[[-73.4725885959999,-42.8805045120592],[-73.4735402659999,-42.8805636490592],[-73.4735980209999,-42.8802834560591],[-73.4725867479999,-42.8801955030591],[-73.4725885959999,-42.8805045120592]]]}},{"type":"Feature","properties":{"id":"10207011001012","commune":"Queilén","code":"10207","gse":"E","quintil":"Q1","nse_score":616.9,"educ":8.2,"educ_score":346.7,"hacin":1.136,"hacin_class":"Hacinamiento Leve","hacin_score":822.1,"auto_score":78.9,"n_per":50,"n_hog":19,"source_year":2024,"crime_score":0.1284,"crime_nivel":"Muy Bajo","crime_color":"#4caf50"},"geometry":{"type":"Polygon","coordinates":[[[-73.4725562419999,-42.8805771980591],[-73.4725867149999,-42.8808623720592],[-73.4735877849999,-42.8809246290591],[-73.4735968879999,-42.8805894520591],[-73.4725562419999,-42.8805771980591]]]}},{"type":"Feature","properties":{"id":"10207011001013","commune":"Queilén","code":"10207","gse":"E","quintil":"Q1","nse_score":596.6,"educ":10.5,"educ_score":500.0,"hacin":1.05,"hacin_class":"Hacinamiento Leve","hacin_score":840.4,"auto_score":55.6,"n_per":21,"n_hog":9,"source_year":2024,"crime_score":0.128,"crime_nivel":"Muy Bajo","crime_color":"#4caf50"},"geometry":{"type":"Polygon","coordinates":[[[-73.4725274979999,-42.8811454350592],[-73.4724936629999,-42.8807593340592],[-73.4720524659999,-42.8808673790592],[-73.4720834859999,-42.8811541340591],[-73.4725274979999,-42.8811454350592]]]}},{"type":"Feature","properties":{"id":"10207011001014","commune":"Queilén","code":"10207","gse":"E","quintil":"Q1","nse_score":609.0,"educ":10.8,"educ_score":520.0,"hacin":1.349,"hacin_class":"Hacinamiento Leve","hacin_score":776.8,"auto_score":0.0,"n_per":85,"n_hog":25,"source_year":2024,"crime_score":0.1312,"crime_nivel":"Muy Bajo","crime_color":"#4caf50"},"geometry":{"type":"Polygon","coordinates":[[[-73.471609757,-42.8813445080591],[-73.4712348179999,-42.8812341540591],[-73.4711434549999,-42.8815339180592],[-73.4720028809999,-42.8816412950592],[-73.4719911059999,-42.8808665100591],[-73.4715927969999,-42.8809540190592],[-73.471609757,-42.8813445080591]]]}},{"type":"Feature","properties":{"id":"10207011001015","commune":"Queilén","code":"10207","gse":"D","quintil":"Q2","nse_score":657.4,"educ":10.1,"educ_score":473.3,"hacin":1.378,"hacin_class":"Hacinamiento Leve","hacin_score":770.7,"auto_score":52.6,"n_per":62,"n_hog":19,"source_year":2024,"crime_score":0.1264,"crime_nivel":"Muy Bajo","crime_color":"#4caf50"},"geometry":{"type":"Polygon","coordinates":[[[-73.4735846179999,-42.8809907860591],[-73.4726044399999,-42.8809001680592],[-73.4725906999999,-42.8811888960591],[-73.4735156709999,-42.8813028630591],[-73.4735846179999,-42.8809907860591]]]}},{"type":"Feature","properties":{"id":"10207011001017","commune":"Queilén","code":"10207","gse":"D","quintil":"Q1","nse_score":642.6,"educ":9.8,"educ_score":453.3,"hacin":1.242,"hacin_class":"Hacinamiento Leve","hacin_score":799.5,"auto_score":71.4,"n_per":41,"n_hog":14,"source_year":2024,"crime_score":0.1261,"crime_nivel":"Muy Bajo","crime_color":"#4caf50"},"geometry":{"type":"Polygon","coordinates":[[[-73.4734689549999,-42.8816352050592],[-73.4735081329999,-42.8813372630591],[-73.4726004329999,-42.8812575940591],[-73.4726036729999,-42.8815513000592],[-73.4734689549999,-42.8816352050592]]]}},{"type":"Feature","properties":{"id":"10207011001018","commune":"Queilén","code":"10207","gse":"C3","quintil":"Q3","nse_score":709.1,"educ":11.0,"educ_score":533.3,"hacin":1.345,"hacin_class":"Hacinamiento Leve","hacin_score":777.6,"auto_score":0.0,"n_per":74,"n_hog":24,"source_year":2024,"crime_score":0.1236,"crime_nivel":"Muy Bajo","crime_color":"#4caf50"},"geometry":{"type":"Polygon","coordinates":[[[-73.4724626089999,-42.8817599940592],[-73.471149765,-42.8815988840591],[-73.4710512209999,-42.8818728150592],[-73.472408647,-42.8820711240591],[-73.4724626089999,-42.8817599940592]]]}},{"type":"Feature","properties":{"id":"10207011001019","commune":"Queilén","code":"10207","gse":"C3","quintil":"Q2","nse_score":675.5,"educ":10.4,"educ_score":493.3,"hacin":1.14,"hacin_class":"Hacinamiento Leve","hacin_score":821.2,"auto_score":22.7,"n_per":65,"n_hog":22,"source_year":2024,"crime_score":0.1253,"crime_nivel":"Muy Bajo","crime_color":"#4caf50"},"geometry":{"type":"Polygon","coordinates":[[[-73.4722843259999,-42.8824114190591],[-73.4723747889999,-42.8820964190591],[-73.4710565659999,-42.8819310830591],[-73.4709509699999,-42.8822363650591],[-73.4722843259999,-42.8824114190591]]]}},{"type":"Feature","properties":{"id":"10207011001021","commune":"Queilén","code":"10207","gse":"C3","quintil":"Q3","nse_score":700.6,"educ":11.4,"educ_score":560.0,"hacin":1.159,"hacin_class":"Hacinamiento Leve","hacin_score":817.3,"auto_score":142.9,"n_per":95,"n_hog":35,"source_year":2024,"crime_score":0.1254,"crime_nivel":"Muy Bajo","crime_color":"#4caf50"},"geometry":{"type":"Polygon","coordinates":[[[-73.4725298379999,-42.8842077410592],[-73.4726529169999,-42.8836922540591],[-73.4726357709999,-42.8838519330592],[-73.4731405059999,-42.8838903590592],[-73.4731817309999,-42.8835824800591],[-73.4727193599999,-42.8835308460591],[-73.4731823779999,-42.8835370150592],[-73.4732618379999,-42.8823260580591],[-73.4723638549999,-42.8824573590592],[-73.4719204169999,-42.8831450610591],[-73.4716514439999,-42.8842324980592],[-73.4713600999999,-42.8846195760591],[-73.472188662,-42.8851418180592],[-73.4723202269999,-42.8854343940592],[-73.4729290689999,-42.8847334120591],[-73.4725083549999,-42.8845056350591],[-73.4725244839999,-42.8842524600591],[-73.47232127,-42.8842377450592],[-73.4725298379999,-42.8842077410592]]]}},{"type":"Feature","properties":{"id":"10207011001022","commune":"Queilén","code":"10207","gse":"C2","quintil":"Q3","nse_score":719.2,"educ":11.3,"educ_score":553.3,"hacin":1.188,"hacin_class":"Hacinamiento Leve","hacin_score":811.2,"auto_score":363.6,"n_per":38,"n_hog":11,"source_year":2024,"crime_score":0.1207,"crime_nivel":"Muy Bajo","crime_color":"#4caf50"},"geometry":{"type":"Polygon","coordinates":[[[-73.4731128429999,-42.8842380960591],[-73.4731370989999,-42.8839321050591],[-73.4726324199999,-42.8839141050591],[-73.4725868719999,-42.8842102230591],[-73.4731128429999,-42.8842380960591]]]}},{"type":"Feature","properties":{"id":"10207011001023","commune":"Queilén","code":"10207","gse":"D","quintil":"Q2","nse_score":663.6,"educ":10.9,"educ_score":526.7,"hacin":1.149,"hacin_class":"Hacinamiento Leve","hacin_score":819.4,"auto_score":107.1,"n_per":54,"n_hog":14,"source_year":2024,"crime_score":0.1255,"crime_nivel":"Muy Bajo","crime_color":"#4caf50"},"geometry":{"type":"Polygon","coordinates":[[[-73.4732715689999,-42.8845254020592],[-73.4734571769999,-42.8847318450591],[-73.4739984649999,-42.8842473770592],[-73.4737104729999,-42.8840699500591],[-73.4732715689999,-42.8845254020592]]]}},{"type":"Feature","properties":{"id":"10207011001024","commune":"Queilén","code":"10207","gse":"C3","quintil":"Q3","nse_score":705.7,"educ":11.3,"educ_score":553.3,"hacin":1.067,"hacin_class":"Hacinamiento Leve","hacin_score":836.9,"auto_score":83.3,"n_per":16,"n_hog":6,"source_year":2024,"crime_score":0.1203,"crime_nivel":"Muy Bajo","crime_color":"#4caf50"},"geometry":{"type":"Polygon","coordinates":[[[-73.4731623959999,-42.8844759350592],[-73.4731111699999,-42.8842909160592],[-73.4725922349999,-42.8842583760591],[-73.4725678809999,-42.8844823130591],[-73.4729604009999,-42.8846994570591],[-73.4731623959999,-42.8844759350592]]]}},{"type":"Feature","properties":{"id":"10207011001025","commune":"Queilén","code":"10207","gse":"D","quintil":"Q1","nse_score":641.9,"educ":9.3,"educ_score":420.0,"hacin":1.17,"hacin_class":"Hacinamiento Leve","hacin_score":814.8,"auto_score":176.5,"n_per":55,"n_hog":17,"source_year":2024,"crime_score":0.127,"crime_nivel":"Muy Bajo","crime_color":"#4caf50"},"geometry":{"type":"Polygon","coordinates":[[[-73.4734888549999,-42.8847739690591],[-73.47371211,-42.8850244100591],[-73.4743448229999,-42.8844557480591],[-73.4740509149999,-42.8842782200592],[-73.4734888549999,-42.8847739690591]]]}},{"type":"Feature","properties":{"id":"10207011001027","commune":"Queilén","code":"10207","gse":"D","quintil":"Q1","nse_score":638.7,"educ":9.7,"educ_score":446.7,"hacin":0.974,"hacin_class":"Sin Hacinamiento","hacin_score":856.5,"auto_score":30.9,"n_per":227,"n_hog":92,"source_year":2024,"crime_score":0.1379,"crime_nivel":"Muy Bajo","crime_color":"#4caf50"},"geometry":{"type":"Polygon","coordinates":[[[-73.4736631509999,-42.8859505900592],[-73.4730064659999,-42.8865352090591],[-73.4726601879999,-42.8866311750591],[-73.4736403519999,-42.8859003420592],[-73.4737334689999,-42.8856036980592],[-73.4736547329999,-42.8850791290592],[-73.4731784459999,-42.8845722890592],[-73.47185085,-42.8860237210592],[-73.4712829559999,-42.8863960290591],[-73.471595223,-42.8865165380592],[-73.4714364789999,-42.8867937330591],[-73.470817328,-42.8867375630591],[-73.4714053549999,-42.8867284250592],[-73.4714800119999,-42.8865084040591],[-73.4712199239999,-42.8864130720591],[-73.4701008569999,-42.8863794130591],[-73.4696205759999,-42.8865564500591],[-73.4702895869999,-42.8871202670591],[-73.4707447789999,-42.8881233600592],[-73.4709256199999,-42.8881837900591],[-73.4711392519999,-42.8879346180591],[-73.4715593539999,-42.8881000800592],[-73.4719820199999,-42.8884626590591],[-73.4721670769999,-42.8883415610591],[-73.4719976439999,-42.8879710950592],[-73.4722405789999,-42.8883506220592],[-73.4717564129999,-42.8887154900591],[-73.4721230199999,-42.8890180380592],[-73.4725730339999,-42.8891659450591],[-73.4725392299999,-42.8878144570591],[-73.4733257769999,-42.8868767590592],[-73.4739339059999,-42.8863650680591],[-73.4736631509999,-42.8859505900592]]]}},{"type":"Feature","properties":{"id":"10207011001028","commune":"Queilén","code":"10207","gse":"C3","quintil":"Q2","nse_score":668.8,"educ":10.9,"educ_score":526.7,"hacin":1.452,"hacin_class":"Hacinamiento Leve","hacin_score":755.0,"auto_score":26.3,"n_per":45,"n_hog":19,"source_year":2024,"crime_score":0.1246,"crime_nivel":"Muy Bajo","crime_color":"#4caf50"},"geometry":{"type":"Polygon","coordinates":[[[-73.4704979479999,-42.8853643820591],[-73.4711728739999,-42.8858715630592],[-73.4704107769999,-42.8853943150591],[-73.4694692829999,-42.8855889280591],[-73.4699471769999,-42.8863349560591],[-73.4713362339999,-42.8863284440592],[-73.4722616999999,-42.8855014160591],[-73.4721412659999,-42.8851712120591],[-73.4713352439999,-42.8846643080591],[-73.4704979479999,-42.8853643820591]]]}},{"type":"Feature","properties":{"id":"10207011001029","commune":"Queilén","code":"10207","gse":"D","quintil":"Q2","nse_score":658.8,"educ":10.7,"educ_score":513.3,"hacin":1.029,"hacin_class":"Hacinamiento Leve","hacin_score":845.0,"auto_score":0.0,"n_per":36,"n_hog":15,"source_year":2024,"crime_score":0.1247,"crime_nivel":"Muy Bajo","crime_color":"#4caf50"},"geometry":{"type":"Polygon","coordinates":[[[-73.4698702019999,-42.8863540590591],[-73.4693355449999,-42.8856104380592],[-73.4684251079999,-42.8857374000591],[-73.4687602459999,-42.8860815180591],[-73.469519568,-42.8864887370591],[-73.4698702019999,-42.8863540590591]]]}},{"type":"Feature","properties":{"id":"10207011001030","commune":"Queilén","code":"10207","gse":"E","quintil":"Q1","nse_score":540.6,"educ":9.7,"educ_score":446.7,"hacin":0.897,"hacin_class":"Sin Hacinamiento","hacin_score":872.9,"auto_score":52.6,"n_per":35,"n_hog":17,"source_year":2024,"crime_score":0.1327,"crime_nivel":"Muy Bajo","crime_color":"#4caf50"},"geometry":{"type":"Polygon","coordinates":[[[-73.4681450669999,-42.8862869960592],[-73.4679111579999,-42.8863650150592],[-73.4690999079999,-42.8873386210591],[-73.4694353349999,-42.8884356370591],[-73.4701056339999,-42.8886833310591],[-73.4706364039999,-42.8881480280591],[-73.4702098479999,-42.8871417660592],[-73.4696397479999,-42.8866669060592],[-73.4686597929999,-42.8861040750591],[-73.4683418879999,-42.8857791620592],[-73.4681450669999,-42.8862869960592]]]}},{"type":"Feature","properties":{"id":"10207011001032","commune":"Queilén","code":"10207","gse":"E","quintil":"Q1","nse_score":571.4,"educ":9.8,"educ_score":453.3,"hacin":1.1,"hacin_class":"Hacinamiento Leve","hacin_score":829.8,"auto_score":88.2,"n_per":33,"n_hog":14,"source_year":2024,"crime_score":0.1304,"crime_nivel":"Muy Bajo","crime_color":"#4caf50"},"geometry":{"type":"Polygon","coordinates":[[[-73.4717014409999,-42.8886718250591],[-73.4719376199999,-42.8884894180592],[-73.4715367989999,-42.8881292450592],[-73.4711601069999,-42.8879906690591],[-73.4709890709999,-42.8882072770591],[-73.4717014409999,-42.8886718250591]]]}},{"type":"Feature","properties":{"id":"10207011001033","commune":"Queilén","code":"10207","gse":"C3","quintil":"Q3","nse_score":705.4,"educ":12.2,"educ_score":613.3,"hacin":0.924,"hacin_class":"Sin Hacinamiento","hacin_score":867.1,"auto_score":166.7,"n_per":49,"n_hog":20,"source_year":2024,"crime_score":0.1223,"crime_nivel":"Muy Bajo","crime_color":"#4caf50"},"geometry":{"type":"Polygon","coordinates":[[[-73.4707179939999,-42.8881789610591],[-73.4701920059999,-42.8887022990591],[-73.4725780759999,-42.8896337840591],[-73.4727721869999,-42.8892964590591],[-73.4720736629999,-42.8890698650592],[-73.4707179939999,-42.8881789610591]]]}},{"type":"Feature","properties":{"id":"10207011001036","commune":"Queilén","code":"10207","gse":"E","quintil":"Q1","nse_score":615.0,"educ":8.6,"educ_score":373.3,"hacin":0.898,"hacin_class":"Sin Hacinamiento","hacin_score":872.8,"auto_score":0.0,"n_per":44,"n_hog":23,"source_year":2024,"crime_score":0.1282,"crime_nivel":"Muy Bajo","crime_color":"#4caf50"},"geometry":{"type":"Polygon","coordinates":[[[-73.4714408359999,-42.8901172180591],[-73.4718445859999,-42.8895015060591],[-73.4700033389999,-42.8887937780591],[-73.4699201459999,-42.8889461710591],[-73.4700844489999,-42.8897360470591],[-73.4714408359999,-42.8901172180591]]]}},{"type":"Feature","properties":{"id":"10207011001037","commune":"Queilén","code":"10207","gse":"C2","quintil":"Q4","nse_score":761.6,"educ":13.2,"educ_score":680.0,"hacin":1.2,"hacin_class":"Hacinamiento Leve","hacin_score":808.5,"auto_score":0.0,"n_per":36,"n_hog":17,"source_year":2024,"crime_score":0.1178,"crime_nivel":"Muy Bajo","crime_color":"#4caf50"},"geometry":{"type":"Polygon","coordinates":[[[-73.4724120289999,-42.8903728800591],[-73.4745337689999,-42.8909318910591],[-73.4750241799999,-42.8898926640591],[-73.4729330569999,-42.8893363380592],[-73.4724120289999,-42.8903728800591]]]}},{"type":"Feature","properties":{"id":"10207011001039","commune":"Queilén","code":"10207","gse":"C3","quintil":"Q2","nse_score":670.8,"educ":10.9,"educ_score":526.7,"hacin":1.093,"hacin_class":"Hacinamiento Leve","hacin_score":831.3,"auto_score":192.3,"n_per":153,"n_hog":59,"source_year":2024,"crime_score":0.131,"crime_nivel":"Muy Bajo","crime_color":"#4caf50"},"geometry":{"type":"Polygon","coordinates":[[[-73.4776177639999,-42.8976725270591],[-73.4768645019999,-42.8959521400591],[-73.4765146729999,-42.8945002560592],[-73.4755111079999,-42.8945275590591],[-73.4765110109999,-42.8944248050591],[-73.4765084809999,-42.8939612190591],[-73.4752600839999,-42.8939473370591],[-73.4752659999999,-42.8938610230591],[-73.4765104699999,-42.8938803260591],[-73.4765623079999,-42.8931552010591],[-73.4758532249999,-42.8931024590591],[-73.4765677009999,-42.8930940200591],[-73.4767842529999,-42.8916319910591],[-73.4763263989999,-42.8915125100591],[-73.4761622269999,-42.8918721390591],[-73.4762799489999,-42.8915003880591],[-73.4755026009999,-42.8912975250591],[-73.4752661739999,-42.8917956020591],[-73.4754563209999,-42.8912854480592],[-73.4746473599999,-42.8910743020591],[-73.4742335799999,-42.8918504320592],[-73.4744957859999,-42.8910325280591],[-73.4725042459999,-42.8904965070592],[-73.4721865209999,-42.8909249580591],[-73.4724583429999,-42.8904831850591],[-73.4714662959999,-42.8901879020591],[-73.4718996109999,-42.8908188640591],[-73.4713931839999,-42.8901740720591],[-73.4702068069999,-42.8898293290591],[-73.4704840749999,-42.8906847550591],[-73.4709320409999,-42.8914388720591],[-73.4718387099999,-42.8925136120592],[-73.4721445279999,-42.8932515300591],[-73.4721945349999,-42.8949009450591],[-73.4724667969999,-42.8956860650591],[-73.4736995039999,-42.8966841330591],[-73.4766486349999,-42.8980039500591],[-73.4776177639999,-42.8976725270591]]]}},{"type":"Feature","properties":{"id":"10207011001040","commune":"Queilén","code":"10207","gse":"D","quintil":"Q1","nse_score":645.4,"educ":12.6,"educ_score":640.0,"hacin":0.889,"hacin_class":"Sin Hacinamiento","hacin_score":874.7,"auto_score":13.5,"n_per":48,"n_hog":23,"source_year":2024,"crime_score":0.1264,"crime_nivel":"Muy Bajo","crime_color":"#4caf50"},"geometry":{"type":"Polygon","coordinates":[[[-73.4759574089999,-42.8906684790591],[-73.4756644909999,-42.8912406270591],[-73.4770252949999,-42.8915456520591],[-73.4772733569999,-42.8904356310591],[-73.4751807659999,-42.8899371590591],[-73.474664076,-42.8909656470591],[-73.4756184989999,-42.8912281090591],[-73.4759140759999,-42.8906973490591],[-73.4758082559999,-42.8906396890591],[-73.4759574089999,-42.8906684790591]]]}}]}