{"type":"FeatureCollection","features":[{"type":"Feature","properties":{"id":"10209011001001","commune":"Quemchi","code":"10209","gse":"C3","quintil":"Q3","nse_score":687.3,"educ":11.4,"educ_score":560.0,"hacin":1.214,"hacin_class":"Hacinamiento Leve","hacin_score":805.5,"auto_score":248.4,"n_per":397,"n_hog":149,"source_year":2024},"geometry":{"type":"Polygon","coordinates":[[[-73.4757194349999,-42.1339444810613],[-73.4753946049999,-42.1353760080612],[-73.4756779289999,-42.1354222080613],[-73.4760046649999,-42.1349402370613],[-73.4768674189999,-42.1342998360612],[-73.4760302489999,-42.1338842960613],[-73.472799145,-42.1333347800612],[-73.4714682489999,-42.1350406980613],[-73.4709452979999,-42.1352440560612],[-73.4703575849999,-42.1356919290613],[-73.4702808469999,-42.1359450500612],[-73.4706398289999,-42.1361952170613],[-73.4704542039999,-42.1365695780612],[-73.4718142979999,-42.1372975570613],[-73.4720259359999,-42.1377999020612],[-73.4719996289999,-42.1384042410612],[-73.4721925729999,-42.1387047730612],[-73.4722282829999,-42.1391784840613],[-73.4719958659999,-42.1400298400613],[-73.4715603539999,-42.1409319120612],[-73.4729007509999,-42.1409435040612],[-73.4729429819999,-42.1405635150612],[-73.4729490539999,-42.1409374940612],[-73.4737296549999,-42.1409268560612],[-73.4737304209999,-42.1406279280613],[-73.4732113649999,-42.1405692560612],[-73.4737280579999,-42.1405739210612],[-73.4736355669999,-42.1401113100612],[-73.473984604,-42.1385947100612],[-73.4737088299999,-42.1401109740612],[-73.4738022539999,-42.1409270550612],[-73.4742719159999,-42.1409283370612],[-73.4742684269999,-42.1401463380613],[-73.474645258,-42.1376749300613],[-73.4753493959999,-42.1361971110613],[-73.4732233069999,-42.1358711650612],[-73.4724324299999,-42.1359244920613],[-73.4726437829999,-42.1353735240612],[-73.4744699039999,-42.1356196970612],[-73.4745640089999,-42.1352874660613],[-73.4737287689999,-42.1351364360612],[-73.4745733829999,-42.1352521380612],[-73.4746527169999,-42.1349531330613],[-73.4740571539999,-42.1348722630612],[-73.4746620909999,-42.1349178020613],[-73.4747426769999,-42.1346140700612],[-73.4742487609999,-42.1345484960612],[-73.4747520519999,-42.1345787380613],[-73.4748286669999,-42.1342899750613],[-73.4745231599999,-42.1342494140613],[-73.4748380409999,-42.1342546400613],[-73.4749300399999,-42.1339078870613],[-73.4747308449999,-42.1338448400612],[-73.4749394149999,-42.1338725520613],[-73.474969299,-42.1337638120612],[-73.4750108839999,-42.1338820480612],[-73.4757194349999,-42.1339444810613]]]}},{"type":"Feature","properties":{"id":"10209011001002","commune":"Quemchi","code":"10209","gse":"D","quintil":"Q2","nse_score":655.2,"educ":10.5,"educ_score":500.0,"hacin":1.316,"hacin_class":"Hacinamiento Leve","hacin_score":783.9,"auto_score":100.0,"n_per":25,"n_hog":10,"source_year":2024},"geometry":{"type":"Polygon","coordinates":[[[-73.4749130149999,-42.1342509270612],[-73.475604029,-42.1343573410613],[-73.4756992029999,-42.1340154110613],[-73.4750015099999,-42.1339173820612],[-73.4749130149999,-42.1342509270612]]]}},{"type":"Feature","properties":{"id":"10209011001003","commune":"Quemchi","code":"10209","gse":"D","quintil":"Q2","nse_score":665.9,"educ":11.7,"educ_score":580.0,"hacin":1.0,"hacin_class":"Hacinamiento Leve","hacin_score":851.1,"auto_score":142.9,"n_per":33,"n_hog":14,"source_year":2024},"geometry":{"type":"Polygon","coordinates":[[[-73.4754802709999,-42.1346900290613],[-73.4755942119999,-42.1343926030612],[-73.4749036419999,-42.1342862580612],[-73.4748233309999,-42.1345889540612],[-73.4754802709999,-42.1346900290613]]]}},{"type":"Feature","properties":{"id":"10209011001004","commune":"Quemchi","code":"10209","gse":"C2","quintil":"Q4","nse_score":748.5,"educ":13.9,"educ_score":726.7,"hacin":1.132,"hacin_class":"Hacinamiento Leve","hacin_score":822.9,"auto_score":219.2,"n_per":154,"n_hog":65,"source_year":2024},"geometry":{"type":"Polygon","coordinates":[[[-73.4754670809999,-42.1399868070612],[-73.4754181829999,-42.1396409320613],[-73.4755555539999,-42.1396138840612],[-73.4756284839999,-42.1393047000612],[-73.4752799359999,-42.1393503220612],[-73.4752659559999,-42.1391379890613],[-73.4753189459999,-42.1392808450612],[-73.4756322419999,-42.1392685780612],[-73.475659978,-42.1386229620612],[-73.4752138229999,-42.1387143370613],[-73.4745875799999,-42.1387254670612],[-73.4743570139999,-42.1408855810612],[-73.4749216749999,-42.1414503920613],[-73.4758834429999,-42.1410344990612],[-73.475821117,-42.1398791710613],[-73.4768085279999,-42.1393117150613],[-73.4768912439999,-42.1388510920612],[-73.4772672099999,-42.1389400190613],[-73.4782201559999,-42.1376127760612],[-73.4784246149999,-42.1367686160612],[-73.4788708309999,-42.1364700600613],[-73.4781606569999,-42.1357045530612],[-73.4784139189999,-42.1351788460612],[-73.4772789439999,-42.1348688460613],[-73.4774758129999,-42.1347296210613],[-73.4768489489999,-42.1344023580613],[-73.4758544729999,-42.1352578360612],[-73.4762288189999,-42.1350549430612],[-73.4766219389999,-42.1350209230613],[-73.4778761429999,-42.1353613380612],[-73.4779128679999,-42.1354660080612],[-73.4775711759999,-42.1355930690612],[-73.477876266,-42.1354254090612],[-73.4766150359999,-42.1350565820613],[-73.4761317369999,-42.1351264120612],[-73.4759041469999,-42.1353044210612],[-73.4765594329999,-42.1354896040612],[-73.4763835529999,-42.1361414710612],[-73.4765118259999,-42.1354982050612],[-73.4758182439999,-42.1353159500613],[-73.4752389229999,-42.1365931380613],[-73.4763403009999,-42.1367273230613],[-73.4772724849999,-42.1363506180612],[-73.4780782739999,-42.1363064740612],[-73.4781008549999,-42.1369321450613],[-73.4780496109999,-42.1363521280612],[-73.4771189939999,-42.1364459350612],[-73.476350797,-42.1367807930613],[-73.4752265429999,-42.1366464190612],[-73.474740316,-42.1376894660612],[-73.4745921959999,-42.1386941620612],[-73.4756673859999,-42.1385861550612],[-73.4762474679999,-42.1381547710613],[-73.4766817579999,-42.1372496280613],[-73.4763082949999,-42.1381208340613],[-73.4775669159999,-42.1375157830612],[-73.4760946379999,-42.1382787940612],[-73.4757022139999,-42.1386040220612],[-73.475639913,-42.1395300600612],[-73.4755865149999,-42.1396358630613],[-73.4754621389999,-42.1396568080612],[-73.4754670809999,-42.1399868070612]]]}},{"type":"Feature","properties":{"id":"10209011001005","commune":"Quemchi","code":"10209","gse":"C2","quintil":"Q3","nse_score":718.6,"educ":11.7,"educ_score":580.0,"hacin":1.222,"hacin_class":"Hacinamiento Leve","hacin_score":803.8,"auto_score":363.6,"n_per":22,"n_hog":11,"source_year":2024},"geometry":{"type":"Polygon","coordinates":[[[-73.4747333419999,-42.1349281250612],[-73.4754158899999,-42.1350332360612],[-73.475500328,-42.1347298880612],[-73.4748139579999,-42.1346242810613],[-73.4747333419999,-42.1349281250612]]]}},{"type":"Feature","properties":{"id":"10209011001006","commune":"Quemchi","code":"10209","gse":"C3","quintil":"Q3","nse_score":689.2,"educ":10.9,"educ_score":526.7,"hacin":0.971,"hacin_class":"Sin Hacinamiento","hacin_score":857.1,"auto_score":142.9,"n_per":34,"n_hog":13,"source_year":2024},"geometry":{"type":"Polygon","coordinates":[[[-73.4746445149999,-42.1352629110612],[-73.4753212389999,-42.1353732650612],[-73.4754060729999,-42.1350684980613],[-73.4747239679999,-42.1349634540612],[-73.4746445149999,-42.1352629110612]]]}},{"type":"Feature","properties":{"id":"10209011001007","commune":"Quemchi","code":"10209","gse":"D","quintil":"Q1","nse_score":644.2,"educ":10.9,"educ_score":526.7,"hacin":1.424,"hacin_class":"Hacinamiento Leve","hacin_score":760.8,"auto_score":52.6,"n_per":47,"n_hog":18,"source_year":2024},"geometry":{"type":"Polygon","coordinates":[[[-73.4745418949999,-42.1356307320612],[-73.4755288839999,-42.1357844660613],[-73.4756616419999,-42.1354748620613],[-73.4746351389999,-42.1352982480612],[-73.4745418949999,-42.1356307320612]]]}},{"type":"Feature","properties":{"id":"10209011001008","commune":"Quemchi","code":"10209","gse":"C3","quintil":"Q3","nse_score":696.4,"educ":11.2,"educ_score":546.7,"hacin":0.972,"hacin_class":"Sin Hacinamiento","hacin_score":857.1,"auto_score":147.1,"n_per":69,"n_hog":32,"source_year":2024},"geometry":{"type":"Polygon","coordinates":[[[-73.4725603249999,-42.1357186600613],[-73.474359165,-42.1359889300612],[-73.4744439129999,-42.1356709700612],[-73.4727044519999,-42.1354227570613],[-73.4725603249999,-42.1357186600613]]]}},{"type":"Feature","properties":{"id":"10209011001009","commune":"Quemchi","code":"10209","gse":"C3","quintil":"Q3","nse_score":697.3,"educ":11.1,"educ_score":540.0,"hacin":1.17,"hacin_class":"Hacinamiento Leve","hacin_score":814.8,"auto_score":184.2,"n_per":55,"n_hog":19,"source_year":2024},"geometry":{"type":"Polygon","coordinates":[[[-73.4744302419999,-42.1359999130612],[-73.4753737249999,-42.1361457010612],[-73.4755067009999,-42.1358361980612],[-73.4745159529999,-42.1356818780613],[-73.4744302419999,-42.1359999130612]]]}},{"type":"Feature","properties":{"id":"10209011001011","commune":"Quemchi","code":"10209","gse":"D","quintil":"Q1","nse_score":644.4,"educ":10.5,"educ_score":500.0,"hacin":1.17,"hacin_class":"Hacinamiento Leve","hacin_score":814.8,"auto_score":109.0,"n_per":213,"n_hog":76,"source_year":2024},"geometry":{"type":"Polygon","coordinates":[[[-73.4795991029999,-42.1435398760612],[-73.4794445389999,-42.1436449860612],[-73.4800818829999,-42.1437029520612],[-73.4808807639999,-42.1429758960612],[-73.4798855619999,-42.1424310960612],[-73.4809397219999,-42.1429340640612],[-73.4818074339999,-42.1424054130612],[-73.481199279,-42.1420665500612],[-73.4806579199999,-42.1416710190612],[-73.4818465099999,-42.1423826510612],[-73.4821993659999,-42.1422038070612],[-73.4825393609999,-42.1421973220612],[-73.4822373539999,-42.1419210040612],[-73.4820988009999,-42.1419534780612],[-73.4822449289999,-42.1418708560612],[-73.4826004939999,-42.1421961750612],[-73.4834112569999,-42.1421104010612],[-73.4849564759999,-42.1409040090612],[-73.4861730939999,-42.1407184900612],[-73.4859208379999,-42.1401624140612],[-73.4838850669999,-42.1389478500613],[-73.4829275839999,-42.1396729600612],[-73.4824609629999,-42.1405975880612],[-73.4809584219999,-42.1413290650612],[-73.4792790239999,-42.1418328050612],[-73.4790998539999,-42.1420997330612],[-73.4785939329999,-42.1423111040612],[-73.4774072089999,-42.1433534250612],[-73.4773783319999,-42.1435461100612],[-73.4779840839999,-42.1444329190612],[-73.4780233179999,-42.1447235750612],[-73.4784662869999,-42.1448890280612],[-73.4799064769999,-42.1441125660612],[-73.4802502289999,-42.1436437050612],[-73.4800534889999,-42.1437331120612],[-73.4794127439999,-42.1436587880612],[-73.4794691569999,-42.1435201220612],[-73.4795991029999,-42.1435398760612]]]}},{"type":"Feature","properties":{"id":"10209011001012","commune":"Quemchi","code":"10209","gse":"C2","quintil":"Q3","nse_score":723.2,"educ":12.6,"educ_score":640.0,"hacin":1.038,"hacin_class":"Hacinamiento Leve","hacin_score":842.9,"auto_score":214.3,"n_per":27,"n_hog":12,"source_year":2024},"geometry":{"type":"Polygon","coordinates":[[[-73.4788957179999,-42.1389582380612],[-73.4780249569999,-42.1393942340612],[-73.4779257349999,-42.1398557880612],[-73.4774015419999,-42.1402720350612],[-73.4774795309999,-42.1410232910612],[-73.4781645099999,-42.1409483170612],[-73.4778939819999,-42.1404536490612],[-73.4782066939999,-42.1409406160613],[-73.4784050399999,-42.1409111420612],[-73.4782082579999,-42.1405545420613],[-73.4784472169999,-42.1409039500612],[-73.4785478579999,-42.1408685840612],[-73.4790360509999,-42.1398038910612],[-73.4793604139999,-42.1393238440612],[-73.4796590169999,-42.1391128950612],[-73.4788957179999,-42.1389582380612]]]}},{"type":"Feature","properties":{"id":"10209011001013","commune":"Quemchi","code":"10209","gse":"C2","quintil":"Q4","nse_score":759.3,"educ":13.0,"educ_score":666.7,"hacin":1.111,"hacin_class":"Hacinamiento Leve","hacin_score":827.4,"auto_score":111.1,"n_per":20,"n_hog":9,"source_year":2024},"geometry":{"type":"Polygon","coordinates":[[[-73.4779682199999,-42.1413193720612],[-73.4776127729999,-42.1411096880612],[-73.4776145589999,-42.1415541020612],[-73.4781034489999,-42.1418499510612],[-73.4782621599999,-42.1422291760612],[-73.4785216899999,-42.1423785410612],[-73.4790732649999,-42.1420805570612],[-73.4792534969999,-42.1418132040613],[-73.4790891199999,-42.1416867560612],[-73.4793745859999,-42.1411104050612],[-73.4792750599999,-42.1409475420612],[-73.4795779159999,-42.1405902710612],[-73.4795932919999,-42.1400715340612],[-73.480092323,-42.1392063180612],[-73.4797082619999,-42.1391228720612],[-73.4794005179999,-42.1393439410612],[-73.4789257879999,-42.1400714780612],[-73.4785844659999,-42.1408924240612],[-73.4776941359999,-42.1410893120612],[-73.4779682199999,-42.1413193720612]]]}},{"type":"Feature","properties":{"id":"10209011001014","commune":"Quemchi","code":"10209","gse":"C2","quintil":"Q4","nse_score":736.4,"educ":13.1,"educ_score":673.3,"hacin":0.935,"hacin_class":"Sin Hacinamiento","hacin_score":864.8,"auto_score":153.8,"n_per":87,"n_hog":37,"source_year":2024},"geometry":{"type":"Polygon","coordinates":[[[-73.4715603539999,-42.1409319120612],[-73.4710977779999,-42.1416303770612],[-73.4708356199999,-42.1427941460612],[-73.4710616699999,-42.1432570280612],[-73.4718605669999,-42.1442459810612],[-73.4732901349999,-42.1441244170612],[-73.4727818929999,-42.1434378780612],[-73.4727728299999,-42.1431819360613],[-73.4731046909999,-42.1426217520612],[-73.4741857159999,-42.1417850960612],[-73.4742713379999,-42.1409823530612],[-73.4729341019999,-42.1409924660612],[-73.4725588409999,-42.1411140360612],[-73.4724843699999,-42.1413225340612],[-73.4725008349999,-42.1410807900612],[-73.4728133839999,-42.1409629190612],[-73.4715603539999,-42.1409319120612]]]}},{"type":"Feature","properties":{"id":"10209011001015","commune":"Quemchi","code":"10209","gse":"E","quintil":"Q1","nse_score":542.6,"educ":10.7,"educ_score":513.3,"hacin":1.457,"hacin_class":"Hacinamiento Leve","hacin_score":753.8,"auto_score":97.2,"n_per":102,"n_hog":35,"source_year":2024},"geometry":{"type":"Polygon","coordinates":[[[-73.4754563889999,-42.1433638260612],[-73.4759947199999,-42.1422592300612],[-73.4753545709999,-42.1419193390612],[-73.4743441789999,-42.1409581910612],[-73.4742489609999,-42.1418120960612],[-73.4731646399999,-42.1426527400613],[-73.4728151809999,-42.1433270250613],[-73.4729210669999,-42.1435116990612],[-73.4734687099999,-42.1435059780612],[-73.4729762809999,-42.1435649670612],[-73.4733615739999,-42.1441144680612],[-73.4749552019999,-42.1439462820612],[-73.474880632,-42.1434305730612],[-73.4747672999999,-42.1433702090612],[-73.4750393119999,-42.1432938520612],[-73.4750418849999,-42.1425017630612],[-73.4751346299999,-42.1426392670612],[-73.4751093899999,-42.1432748570612],[-73.4754563889999,-42.1433638260612]]]}},{"type":"Feature","properties":{"id":"10209011001016","commune":"Quemchi","code":"10209","gse":"C3","quintil":"Q3","nse_score":713.1,"educ":11.8,"educ_score":586.7,"hacin":0.965,"hacin_class":"Sin Hacinamiento","hacin_score":858.5,"auto_score":250.0,"n_per":55,"n_hog":24,"source_year":2024},"geometry":{"type":"Polygon","coordinates":[[[-73.4762847389999,-42.1417631190613],[-73.4756345749999,-42.1433287010612],[-73.4764757449999,-42.1431746800612],[-73.4770249019999,-42.1428011480612],[-73.4773435649999,-42.1421193660612],[-73.4770820869999,-42.1417726270613],[-73.4773834239999,-42.1421500520612],[-73.4779237029999,-42.1421926440612],[-73.4782177959999,-42.1426520980612],[-73.4784927329999,-42.1423952790612],[-73.4781210769999,-42.1421433540612],[-73.4780710449999,-42.1418644560612],[-73.4775818749999,-42.1415681120613],[-73.4775737739999,-42.1411165840612],[-73.4770214179999,-42.1412558010612],[-73.4762847389999,-42.1417631190613]]]}},{"type":"Feature","properties":{"id":"10209011001017","commune":"Quemchi","code":"10209","gse":"C3","quintil":"Q3","nse_score":706.9,"educ":11.9,"educ_score":593.3,"hacin":1.144,"hacin_class":"Hacinamiento Leve","hacin_score":820.3,"auto_score":271.6,"n_per":206,"n_hog":81,"source_year":2024},"geometry":{"type":"Polygon","coordinates":[[[-73.4887300469999,-42.1455334860612],[-73.4890353469999,-42.1447034870612],[-73.4895973369999,-42.1443279970612],[-73.4900832519999,-42.1443343940612],[-73.4901504259999,-42.1434904190612],[-73.4884882899999,-42.1438128360612],[-73.4884101259999,-42.1439951630612],[-73.4876757189999,-42.1440775490612],[-73.4875701019999,-42.1445075110612],[-73.4862457509999,-42.1442258960613],[-73.4859296789999,-42.1440000570612],[-73.4849676139999,-42.1438620550612],[-73.4850807289999,-42.1435247310612],[-73.4853377139999,-42.1434651150612],[-73.485096757,-42.1431448530612],[-73.4853144509999,-42.1428736850612],[-73.4847623399999,-42.1425915770612],[-73.4853163369999,-42.1418820090612],[-73.4845612029999,-42.1413863150612],[-73.4833742829999,-42.1421759860612],[-73.4833701449999,-42.1430364440612],[-73.482616935,-42.1430123050612],[-73.4826041269999,-42.1437470340612],[-73.4834958319999,-42.1438155270612],[-73.4835520549999,-42.1435349840612],[-73.4842149879999,-42.1436271900612],[-73.4835709069999,-42.1435725950613],[-73.4835218089999,-42.1438523700612],[-73.4825637669999,-42.1437767600612],[-73.4825812109999,-42.1422505820612],[-73.4821284569999,-42.1422870090612],[-73.4805495999999,-42.1433127270613],[-73.4804623209999,-42.1434446110612],[-73.4809369979999,-42.1437494010612],[-73.4809249039999,-42.1438740120612],[-73.4794854929999,-42.1453799500612],[-73.4815204869999,-42.1458759470612],[-73.4817284059999,-42.1458578530612],[-73.481733716,-42.1454556440612],[-73.4818010739999,-42.1458515290612],[-73.4874692049999,-42.1449823640612],[-73.4883249239999,-42.1451000520612],[-73.4887300469999,-42.1455334860612]]]}},{"type":"Feature","properties":{"id":"10209011001018","commune":"Quemchi","code":"10209","gse":"D","quintil":"Q2","nse_score":647.9,"educ":10.7,"educ_score":513.3,"hacin":1.2,"hacin_class":"Hacinamiento Leve","hacin_score":808.5,"auto_score":55.6,"n_per":18,"n_hog":7,"source_year":2024},"geometry":{"type":"Polygon","coordinates":[[[-73.4769522819999,-42.1429250400613],[-73.4765514619999,-42.1431489690612],[-73.47710989,-42.1430549810612],[-73.4773692109999,-42.1432626090612],[-73.4779984539999,-42.1427353260612],[-73.478072171,-42.1425394920612],[-73.4778702469999,-42.1422312630612],[-73.4774339559999,-42.1421902220612],[-73.4769522819999,-42.1429250400613]]]}},{"type":"Feature","properties":{"id":"10209011001019","commune":"Quemchi","code":"10209","gse":"E","quintil":"Q1","nse_score":556.7,"educ":11.2,"educ_score":546.7,"hacin":1.467,"hacin_class":"Hacinamiento Leve","hacin_score":751.8,"auto_score":437.5,"n_per":22,"n_hog":7,"source_year":2024},"geometry":{"type":"Polygon","coordinates":[[[-73.4826175629999,-42.1429762810613],[-73.4833207499999,-42.1429985800612],[-73.4833258239999,-42.1421875690612],[-73.4826295989999,-42.1422496740612],[-73.4826175629999,-42.1429762810613]]]}},{"type":"Feature","properties":{"id":"10209011001021","commune":"Quemchi","code":"10209","gse":"C3","quintil":"Q2","nse_score":675.0,"educ":11.1,"educ_score":540.0,"hacin":1.085,"hacin_class":"Hacinamiento Leve","hacin_score":833.0,"auto_score":90.9,"n_per":51,"n_hog":20,"source_year":2024},"geometry":{"type":"Polygon","coordinates":[[[-73.4762796299999,-42.1438427390612],[-73.4766672929999,-42.1444195910612],[-73.4773680559999,-42.1444135710612],[-73.477945529,-42.1446864810612],[-73.4779146549999,-42.1444508390612],[-73.4773343789999,-42.1436644770612],[-73.4773421039999,-42.1433211500613],[-73.4770980229999,-42.1431088560612],[-73.475583937,-42.1433981180612],[-73.4757196529999,-42.1438684650612],[-73.4762796299999,-42.1438427390612]]]}},{"type":"Feature","properties":{"id":"10209011001023","commune":"Quemchi","code":"10209","gse":"C3","quintil":"Q2","nse_score":684.3,"educ":10.3,"educ_score":486.7,"hacin":1.065,"hacin_class":"Hacinamiento Leve","hacin_score":837.3,"auto_score":153.8,"n_per":66,"n_hog":26,"source_year":2024},"geometry":{"type":"Polygon","coordinates":[[[-73.4785345599999,-42.1449131060612],[-73.4794283809999,-42.1453439540612],[-73.4808726279999,-42.1437763170612],[-73.4804293869999,-42.1434943750612],[-73.4799577949999,-42.1441508880612],[-73.4785345599999,-42.1449131060612]]]}},{"type":"Feature","properties":{"id":"10209011001025","commune":"Quemchi","code":"10209","gse":"E","quintil":"Q1","nse_score":534.8,"educ":11.2,"educ_score":546.7,"hacin":1.353,"hacin_class":"Hacinamiento Leve","hacin_score":776.0,"auto_score":83.3,"n_per":23,"n_hog":11,"source_year":2024},"geometry":{"type":"Polygon","coordinates":[[[-73.4736460739999,-42.1446557380612],[-73.4748457999999,-42.1445782780612],[-73.4747462559999,-42.1440195320612],[-73.4735751739999,-42.1441465610612],[-73.4736460739999,-42.1446557380612]]]}},{"type":"Feature","properties":{"id":"10209011001031","commune":"Quemchi","code":"10209","gse":"E","quintil":"Q1","nse_score":572.2,"educ":10.5,"educ_score":500.0,"hacin":1.175,"hacin_class":"Hacinamiento Leve","hacin_score":813.9,"auto_score":280.0,"n_per":74,"n_hog":25,"source_year":2024},"geometry":{"type":"Polygon","coordinates":[[[-73.4776463279999,-42.1447172340612],[-73.4780724749999,-42.1452525310612],[-73.4779780939999,-42.1456262320612],[-73.4789741229999,-42.1459763870612],[-73.4795090629999,-42.1460222080612],[-73.4804501339999,-42.1467124380612],[-73.4816678849999,-42.1462793050612],[-73.4820628209999,-42.1463038960612],[-73.4823066839999,-42.1464899870612],[-73.4823119959999,-42.1458654540612],[-73.4813860819999,-42.1459410690612],[-73.4804246589999,-42.1457606620612],[-73.4776463279999,-42.1447172340612]]]}},{"type":"Feature","properties":{"id":"10209011001032","commune":"Quemchi","code":"10209","gse":"E","quintil":"Q1","nse_score":613.4,"educ":9.3,"educ_score":420.0,"hacin":1.341,"hacin_class":"Hacinamiento Leve","hacin_score":778.4,"auto_score":131.0,"n_per":110,"n_hog":44,"source_year":2024},"geometry":{"type":"Polygon","coordinates":[[[-73.4875169279999,-42.1450556140612],[-73.4823836879999,-42.1458546800612],[-73.4823428459999,-42.1464933810612],[-73.4828689079999,-42.1463987480613],[-73.4836272319999,-42.1459262640612],[-73.4842681079999,-42.1459452230612],[-73.4850416769999,-42.1457194310612],[-73.487564458,-42.1460254450612],[-73.4879549319999,-42.1463751950612],[-73.4886537909999,-42.1455895080612],[-73.4884444699999,-42.1452376270612],[-73.4880309819999,-42.1451004340612],[-73.4880806629999,-42.1454199140612],[-73.4878998929999,-42.1450890040612],[-73.4875169279999,-42.1450556140612]]]}},{"type":"Feature","properties":{"id":"10209011001034","commune":"Quemchi","code":"10209","gse":"E","quintil":"Q1","nse_score":563.0,"educ":10.7,"educ_score":513.3,"hacin":1.169,"hacin_class":"Hacinamiento Leve","hacin_score":815.2,"auto_score":236.8,"n_per":97,"n_hog":35,"source_year":2024},"geometry":{"type":"Polygon","coordinates":[[[-73.4881897039999,-42.1460152200612],[-73.4881921449999,-42.1462102570612],[-73.4879549319999,-42.1463751950612],[-73.4883055849999,-42.1465701720612],[-73.4886675209999,-42.1464648030612],[-73.4889196599999,-42.1465310610612],[-73.4885852819999,-42.1466630180612],[-73.4881669139999,-42.1470665910612],[-73.4883932359999,-42.1476255100612],[-73.4887607249999,-42.1478794750612],[-73.4892755509999,-42.1478652780612],[-73.4894383709999,-42.1481241900612],[-73.4899473939999,-42.1482259660612],[-73.4904273479999,-42.1486880660612],[-73.4910393709999,-42.1486946480612],[-73.4912808029999,-42.1475573830612],[-73.491601064,-42.1470130010612],[-73.4908311929999,-42.1469245720612],[-73.4905251399999,-42.1478436580612],[-73.4905238869999,-42.1474949680612],[-73.4907815349999,-42.1469250270612],[-73.4901671139999,-42.1470473690612],[-73.4898678689999,-42.1472412960612],[-73.4897538609999,-42.1471850250612],[-73.4906447429999,-42.1468817630612],[-73.4916169129999,-42.1469602720612],[-73.4917271809999,-42.1462542630612],[-73.4914024759999,-42.1461006900612],[-73.4893528349999,-42.1463244010612],[-73.4893984859999,-42.1466392650612],[-73.4886712159999,-42.1472252790612],[-73.4886774329999,-42.1474940820612],[-73.4886009099999,-42.1472081600612],[-73.4888903299999,-42.1469733120612],[-73.4886161009999,-42.1468874090612],[-73.4889514969999,-42.1469264810612],[-73.4891896169999,-42.1467695110612],[-73.4893294999999,-42.1466191970612],[-73.489283585,-42.1463071470612],[-73.4888437659999,-42.1459877830612],[-73.4881897039999,-42.1460152200612]]]}},{"type":"Feature","properties":{"id":"10209011001035","commune":"Quemchi","code":"10209","gse":"C3","quintil":"Q3","nse_score":690.9,"educ":11.7,"educ_score":580.0,"hacin":0.988,"hacin_class":"Sin Hacinamiento","hacin_score":853.6,"auto_score":242.9,"n_per":82,"n_hog":33,"source_year":2024},"geometry":{"type":"Polygon","coordinates":[[[-73.4911308509999,-42.1487197290612],[-73.4910197359999,-42.1492630040612],[-73.4911837229999,-42.1503071830612],[-73.4916016829999,-42.1513428250612],[-73.4919015599999,-42.1516193680612],[-73.493384536,-42.1521591650612],[-73.4942105919999,-42.1523626430612],[-73.4963163339999,-42.1521744570612],[-73.4962769829999,-42.1518320270612],[-73.4958923189999,-42.1516915880612],[-73.4962715039999,-42.1517843510612],[-73.4962992089999,-42.1515899920612],[-73.4963643039999,-42.1521691830612],[-73.4970057129999,-42.1520954070612],[-73.4985088019999,-42.1516238350612],[-73.4980606369999,-42.1516224930612],[-73.4981741059999,-42.1515411640612],[-73.4980610089999,-42.1514220400612],[-73.4985767679999,-42.1515301460612],[-73.4988916109999,-42.1511205450612],[-73.4978195999999,-42.1511511270612],[-73.4975748009999,-42.1510610730612],[-73.4989585689999,-42.1510962250612],[-73.498555887,-42.1516114380612],[-73.4994472729999,-42.1514062390612],[-73.4992046849999,-42.1506231220612],[-73.4969754069999,-42.1510145820612],[-73.4952672039999,-42.1507624420612],[-73.4934256199999,-42.1506608260612],[-73.4935492259999,-42.1502367040612],[-73.4926869189999,-42.1502205150612],[-73.4924776739999,-42.1497975430612],[-73.4927644769999,-42.1496886180612],[-73.4926878109999,-42.1493295280612],[-73.4929178059999,-42.1487985950612],[-73.4921985689999,-42.1486205240612],[-73.4911308509999,-42.1487197290612]]]}},{"type":"Feature","properties":{"id":"10209011001020","commune":"Quemchi","code":"10209","gse":"E","quintil":"Q1","nse_score":599.6,"educ":12.3,"educ_score":620.0,"hacin":1.059,"hacin_class":"Hacinamiento Leve","hacin_score":838.5,"auto_score":71.4,"n_per":18,"n_hog":7,"source_year":2024},"geometry":{"type":"MultiPolygon","coordinates":[[[[-73.4721216339999,-42.1447937850612],[-73.4722682309999,-42.1446786120612],[-73.4718088099999,-42.1443230070612],[-73.4714614579999,-42.1445033900612],[-73.4721216339999,-42.1447937850612]]],[[[-73.4714134609999,-42.1444583980612],[-73.4717720719999,-42.1442762170612],[-73.4708001679999,-42.1429986940612],[-73.4707380049999,-42.1427918160612],[-73.4709140589999,-42.1422971090612],[-73.4706203049999,-42.1428772070612],[-73.4710714849999,-42.1441087150612],[-73.4714134609999,-42.1444583980612]]]]}},{"type":"Feature","properties":{"id":"10209011001022","commune":"Quemchi","code":"10209","gse":"D","quintil":"Q2","nse_score":663.1,"educ":12.5,"educ_score":633.3,"hacin":1.429,"hacin_class":"Hacinamiento Leve","hacin_score":759.9,"auto_score":113.6,"n_per":40,"n_hog":20,"source_year":2024},"geometry":{"type":"MultiPolygon","coordinates":[[[[-73.4749175989999,-42.1445690800612],[-73.4762009499999,-42.1444459930612],[-73.4765926919999,-42.1444237600612],[-73.4762357369999,-42.1438861450612],[-73.4755873329999,-42.1439339130612],[-73.474818308,-42.1440130100612],[-73.4749175989999,-42.1445690800612]]],[[[-73.4749974909999,-42.1433943730612],[-73.4750265619999,-42.1439361530612],[-73.4756474579999,-42.1438747360612],[-73.4755155099999,-42.1434179870612],[-73.4749974909999,-42.1433943730612]]]]}},{"type":"Feature","properties":{"id":"10209011001036","commune":"Quemchi","code":"10209","gse":"D","quintil":"Q2","nse_score":649.8,"educ":10.1,"educ_score":473.3,"hacin":1.389,"hacin_class":"Hacinamiento Leve","hacin_score":768.3,"auto_score":0.0,"n_per":25,"n_hog":10,"source_year":2024},"geometry":{"type":"MultiPolygon","coordinates":[[[[-73.4879322419999,-42.1508530680612],[-73.4867625789999,-42.1515305090612],[-73.4862792919999,-42.1525115360612],[-73.4858974189999,-42.1527168810612],[-73.4860905799999,-42.1528372450612],[-73.486021993,-42.1531841750612],[-73.4861355039999,-42.1534830160612],[-73.4866152189999,-42.1536015510612],[-73.4866047099999,-42.1538044700612],[-73.4872319599999,-42.1543661120612],[-73.4876559279999,-42.1544037560612],[-73.4879374309999,-42.1542114350612],[-73.4889714779999,-42.1541465380612],[-73.4895912619999,-42.1536535750612],[-73.4903025969999,-42.1534119720612],[-73.4906136129999,-42.1534582910612],[-73.4910919209999,-42.1530317640612],[-73.4915643049999,-42.1530869510612],[-73.4926588129999,-42.1519712840612],[-73.4916946069999,-42.1515797490612],[-73.4911873109999,-42.1507483850612],[-73.4901528609999,-42.1508341470612],[-73.4888285029999,-42.1498966220612],[-73.4879322419999,-42.1508530680612]]],[[[-73.4904273479999,-42.1486880660612],[-73.4901452239999,-42.1487839850612],[-73.4898470229999,-42.1489595870612],[-73.4888611089999,-42.1498483610612],[-73.4901853169999,-42.1507847600612],[-73.4911706119999,-42.1506958170612],[-73.4909705159999,-42.1495658870612],[-73.4900143839999,-42.1499898900612],[-73.4898948899999,-42.1498809030612],[-73.4900137129999,-42.1499289270612],[-73.4909606139999,-42.1495073680612],[-73.490955659,-42.1489467770612],[-73.4903190459999,-42.1488021050612],[-73.4899429819999,-42.1489378800612],[-73.4903067419999,-42.1487480660612],[-73.4909734889999,-42.1488942300612],[-73.4910393709999,-42.1486946480612],[-73.4904273479999,-42.1486880660612]]]]}},{"type":"Feature","properties":{"id":"10209011001026","commune":"Quemchi","code":"10209","gse":"D","quintil":"Q2","nse_score":663.2,"educ":11.0,"educ_score":533.3,"hacin":1.315,"hacin_class":"Hacinamiento Leve","hacin_score":784.0,"auto_score":264.7,"n_per":96,"n_hog":32,"source_year":2024},"geometry":{"type":"MultiPolygon","coordinates":[[[[-73.4886537909999,-42.1455895080612],[-73.4882414909999,-42.1459632360612],[-73.4888152199999,-42.1459371600612],[-73.4886537909999,-42.1455895080612]]],[[[-73.4910397629999,-42.1444675580612],[-73.4895973369999,-42.1443279970612],[-73.4890353469999,-42.1447034870612],[-73.4888876729999,-42.1452549350612],[-73.4887430679999,-42.1453795200612],[-73.4887909139999,-42.1456640650612],[-73.4890013439999,-42.1453916680612],[-73.488919086,-42.1456333100612],[-73.4892022059999,-42.1456560480612],[-73.4897204979999,-42.1450001280612],[-73.4901358369999,-42.1448854660612],[-73.4903777739999,-42.1449046220612],[-73.4896881869999,-42.1450633290612],[-73.4892375059999,-42.1456822360612],[-73.4888067319999,-42.1456981380612],[-73.4889252249999,-42.1459190440612],[-73.4902526259999,-42.1454102330612],[-73.4896401669999,-42.1457878750612],[-73.4889415569999,-42.1459716780612],[-73.4890388069999,-42.1461113050612],[-73.4896024829999,-42.1462867470612],[-73.4913977519999,-42.1460286210612],[-73.4917691279999,-42.1462033850612],[-73.4921903699999,-42.1462008390612],[-73.4923283729999,-42.1456974090612],[-73.4920225499999,-42.1456757930612],[-73.4923317719999,-42.1456610310612],[-73.4923684699999,-42.1456014910612],[-73.4930681389999,-42.1453336700612],[-73.4923969639999,-42.1456315840612],[-73.4922402589999,-42.1462012120612],[-73.4931271019999,-42.1462535560612],[-73.4933081809999,-42.1460300960612],[-73.4931030689999,-42.1449988990612],[-73.4925039279999,-42.1452397860612],[-73.4922943199999,-42.1440297830612],[-73.4919167299999,-42.1442706420612],[-73.4910397629999,-42.1444675580612]]]]}},{"type":"Feature","properties":{"id":"10209011001027","commune":"Quemchi","code":"10209","gse":"D","quintil":"Q2","nse_score":662.7,"educ":11.2,"educ_score":546.7,"hacin":1.333,"hacin_class":"Hacinamiento Leve","hacin_score":780.1,"auto_score":150.0,"n_per":24,"n_hog":9,"source_year":2024},"geometry":{"type":"MultiPolygon","coordinates":[[[[-73.4724378009999,-42.1447005060612],[-73.4728279189999,-42.1447460220612],[-73.4728149699999,-42.1442199180612],[-73.4719005779999,-42.1442953210612],[-73.4724378009999,-42.1447005060612]]],[[[-73.4730559689999,-42.1441995580612],[-73.4730045309999,-42.1446739300612],[-73.4730075449999,-42.1442035990612],[-73.4728880599999,-42.1442137670612],[-73.4729004589999,-42.1447452050612],[-73.4735806819999,-42.1447013880612],[-73.473503407,-42.1441552130612],[-73.4730559689999,-42.1441995580612]]]]}},{"type":"Feature","properties":{"id":"10209031001001","commune":"Quemchi","code":"10209","gse":"D","quintil":"Q2","nse_score":649.2,"educ":10.7,"educ_score":513.3,"hacin":1.25,"hacin_class":"Hacinamiento Leve","hacin_score":797.9,"auto_score":295.5,"n_per":105,"n_hog":40,"source_year":2024},"geometry":{"type":"Polygon","coordinates":[[[-73.4989049889999,-42.1521313890612],[-73.4992612409999,-42.1520169780612],[-73.4991565019999,-42.1515297460612],[-73.4970266149999,-42.1521565030612],[-73.4948056169999,-42.1523869890612],[-73.4947893289999,-42.1526757750612],[-73.4947517629999,-42.1523994270612],[-73.4939746899999,-42.1524105140612],[-73.4927101739999,-42.1520029230612],[-73.4916376739999,-42.1531037480612],[-73.4934149459999,-42.1534693130612],[-73.4954743149999,-42.1529522400612],[-73.4959667319999,-42.1530787430612],[-73.4969926199999,-42.1527629570612],[-73.4989255589999,-42.1527637120612],[-73.4999058679999,-42.1528866400612],[-73.4994636339999,-42.1514590590612],[-73.4992032159999,-42.1515190190612],[-73.499309261,-42.1520391200612],[-73.4989049889999,-42.1521313890612]]]}},{"type":"Feature","properties":{"id":"10209031001002","commune":"Quemchi","code":"10209","gse":"D","quintil":"Q1","nse_score":642.0,"educ":10.5,"educ_score":500.0,"hacin":1.208,"hacin_class":"Hacinamiento Leve","hacin_score":806.7,"auto_score":178.6,"n_per":29,"n_hog":13,"source_year":2024},"geometry":{"type":"Polygon","coordinates":[[[-73.4904883019999,-42.1534910580612],[-73.4903073539999,-42.1534255430612],[-73.4896146479999,-42.1536748420612],[-73.4889864819999,-42.1541711720612],[-73.487944163,-42.1542380740612],[-73.4876644199999,-42.1544306810612],[-73.4872112149999,-42.1543908270612],[-73.4866157499999,-42.1538481120612],[-73.4864533789999,-42.1540650660612],[-73.4861213329999,-42.1540775150612],[-73.4860858709999,-42.1549326090612],[-73.4868280589999,-42.1554124840612],[-73.4873366689999,-42.1554947550612],[-73.4885971429999,-42.1551853270611],[-73.4892639459999,-42.1542283570612],[-73.4910189259999,-42.1535321230612],[-73.4915535819999,-42.1530980630612],[-73.4911015759999,-42.1530451130612],[-73.4904883019999,-42.1534910580612]]]}},{"type":"Feature","properties":{"id":"10209031001003","commune":"Quemchi","code":"10209","gse":"C3","quintil":"Q3","nse_score":694.2,"educ":10.6,"educ_score":506.7,"hacin":0.982,"hacin_class":"Sin Hacinamiento","hacin_score":855.0,"auto_score":200.0,"n_per":53,"n_hog":20,"source_year":2024},"geometry":{"type":"Polygon","coordinates":[[[-73.4904864439999,-42.1569951130612],[-73.4907003229999,-42.1565309620612],[-73.4901453929999,-42.1563558540612],[-73.4907353289999,-42.1555156150612],[-73.4902425639999,-42.1554179140612],[-73.4903692769999,-42.1546982770612],[-73.4925640679999,-42.1540734010612],[-73.4922565109999,-42.1536638150612],[-73.4924314899999,-42.1533671820612],[-73.4920415679999,-42.1531730610612],[-73.4916145349999,-42.1531275110612],[-73.4910566639999,-42.1535784220612],[-73.4893162249999,-42.1542663330612],[-73.48794663,-42.1564753910612],[-73.4880045229999,-42.1566998870612],[-73.4889357709999,-42.1564531240612],[-73.4904864439999,-42.1569951130612]]]}},{"type":"Feature","properties":{"id":"10209031001004","commune":"Quemchi","code":"10209","gse":"D","quintil":"Q1","nse_score":626.5,"educ":11.4,"educ_score":560.0,"hacin":1.4,"hacin_class":"Hacinamiento Leve","hacin_score":766.0,"auto_score":363.6,"n_per":21,"n_hog":8,"source_year":2024},"geometry":{"type":"Polygon","coordinates":[[[-73.4875882679999,-42.1554943290612],[-73.4868280589999,-42.1554124840612],[-73.4867500129999,-42.1555388640612],[-73.4869336419999,-42.1557432550612],[-73.4869210259999,-42.1559562780612],[-73.4866158859999,-42.1567376860612],[-73.4862414429999,-42.1572629130612],[-73.486485377,-42.1574681010612],[-73.4875258019999,-42.1571564300612],[-73.4878475309999,-42.1574387990612],[-73.4880199149999,-42.1572189870612],[-73.4888403579999,-42.1571064450612],[-73.4872799509999,-42.1566326110612],[-73.4879276929999,-42.1567032060612],[-73.4878688209999,-42.1565065350612],[-73.4880139209999,-42.1561048450612],[-73.4885971429999,-42.1551853270611],[-73.4879050409999,-42.1552925850612],[-73.4875882679999,-42.1554943290612]]]}}]}