{"type":"FeatureCollection","features":[{"type":"Feature","properties":{"id":"8309011001001","commune":"Quilleco","code":"08309","gse":"D","quintil":"Q2","nse_score":673.2,"educ":11.0,"educ_score":533.3,"hacin":1.193,"hacin_class":"Hacinamiento Leve","hacin_score":809.9,"auto_score":59.3,"n_per":179,"n_hog":58,"source_year":2024},"geometry":{"type":"Polygon","coordinates":[[[-71.9777924129999,-37.4638114900888],[-71.9772495559999,-37.4638918990887],[-71.9777953919999,-37.4661282940887],[-71.9777449879999,-37.4665104950887],[-71.9781919469999,-37.4678515670887],[-71.9824757479999,-37.4682645720887],[-71.9825364939999,-37.4679634910887],[-71.9825866229999,-37.4682696730887],[-71.983844658,-37.4683587130887],[-71.9836467989999,-37.4664777260887],[-71.9825918409999,-37.4664736690887],[-71.9825288649999,-37.4671486460887],[-71.98253281,-37.4664743540887],[-71.9812975109999,-37.4665143100887],[-71.9812998529999,-37.4664074320887],[-71.9836439489999,-37.4664060020887],[-71.9835507039999,-37.4661054100887],[-71.9827842839999,-37.4661685550888],[-71.9818435429999,-37.4661572960887],[-71.9818165659999,-37.4658655350887],[-71.9813757719999,-37.4658854220887],[-71.9818553059999,-37.4658452930887],[-71.981898628,-37.4660508350887],[-71.9820799499999,-37.4661355640887],[-71.983604436,-37.4660912920887],[-71.9835571379999,-37.4650878360887],[-71.978098627,-37.4651410290887],[-71.9777924129999,-37.4638114900888]]]}},{"type":"Feature","properties":{"id":"8309011001002","commune":"Quilleco","code":"08309","gse":"D","quintil":"Q1","nse_score":644.8,"educ":9.5,"educ_score":433.3,"hacin":2.0,"hacin_class":"Hacinamiento Medio","hacin_score":638.3,"auto_score":100.0,"n_per":18,"n_hog":6,"source_year":2024},"geometry":{"type":"Polygon","coordinates":[[[-71.9835976409999,-37.4650874170887],[-71.9839344159999,-37.4683606480887],[-71.9845485519999,-37.4683350710887],[-71.9853180279999,-37.4680238210887],[-71.9850012189999,-37.4675032430887],[-71.9848113409999,-37.4660927640887],[-71.9845301939999,-37.4654413360887],[-71.9845675439999,-37.4650779620887],[-71.9835976409999,-37.4650874170887]]]}},{"type":"Feature","properties":{"id":"8309011001003","commune":"Quilleco","code":"08309","gse":"D","quintil":"Q1","nse_score":661.2,"educ":11.2,"educ_score":546.7,"hacin":1.386,"hacin_class":"Hacinamiento Leve","hacin_score":769.0,"auto_score":161.8,"n_per":194,"n_hog":68,"source_year":2024},"geometry":{"type":"Polygon","coordinates":[[[-71.9725310199999,-37.4659438880887],[-71.9727650129999,-37.4681967840887],[-71.9737456409999,-37.4682612280887],[-71.9736614729999,-37.4676077830887],[-71.9728601689999,-37.4676442070887],[-71.9736568569999,-37.4675719510887],[-71.9735626579999,-37.4668406250887],[-71.9727817349999,-37.4668970560887],[-71.9735580379999,-37.4668047560887],[-71.9735593749999,-37.4664664580888],[-71.9737911499999,-37.4682618230887],[-71.9754007619999,-37.4682872190887],[-71.9753186459999,-37.4670331010887],[-71.9754462009999,-37.4682881610887],[-71.9759668649999,-37.4682989540887],[-71.9759155739999,-37.4669160810888],[-71.976012195,-37.4682998940887],[-71.9763803259999,-37.4683075240887],[-71.9763458279999,-37.4669271010887],[-71.9764256229999,-37.4683084630887],[-71.9766417439999,-37.4683124400887],[-71.9766615349999,-37.4675538380887],[-71.9766869529999,-37.4683123960887],[-71.9780959359999,-37.4682527480887],[-71.9781043589999,-37.4678317390887],[-71.9776654169999,-37.4664542950887],[-71.9777353449999,-37.4661547430887],[-71.9774948529999,-37.4662448060887],[-71.9764806459999,-37.4662796280887],[-71.9763795979999,-37.4659942210887],[-71.9765028069999,-37.4662433610887],[-71.9774860909999,-37.4662091420888],[-71.9777309919999,-37.4661165170887],[-71.977615984,-37.4656501270887],[-71.9759171689999,-37.4656404030887],[-71.9760182089999,-37.4660932100887],[-71.9725310199999,-37.4659438880887]]]}},{"type":"Feature","properties":{"id":"8309011001004","commune":"Quilleco","code":"08309","gse":"D","quintil":"Q2","nse_score":669.2,"educ":11.6,"educ_score":573.3,"hacin":1.39,"hacin_class":"Hacinamiento Leve","hacin_score":768.0,"auto_score":166.7,"n_per":57,"n_hog":19,"source_year":2024},"geometry":{"type":"Polygon","coordinates":[[[-71.9782144239999,-37.4689800300887],[-71.9794797799999,-37.4691082780887],[-71.9795262929999,-37.4680469030887],[-71.9782090379999,-37.4679246430887],[-71.9782144239999,-37.4689800300887]]]}},{"type":"Feature","properties":{"id":"8309011001005","commune":"Quilleco","code":"08309","gse":"C3","quintil":"Q2","nse_score":699.1,"educ":12.1,"educ_score":606.7,"hacin":1.351,"hacin_class":"Hacinamiento Leve","hacin_score":776.3,"auto_score":176.5,"n_per":50,"n_hog":17,"source_year":2024},"geometry":{"type":"Polygon","coordinates":[[[-71.9810733959999,-37.4682009370887],[-71.9796233129999,-37.4680783810887],[-71.9795827449999,-37.4691144500887],[-71.9810342249999,-37.4692547790887],[-71.9810733959999,-37.4682009370887]]]}},{"type":"Feature","properties":{"id":"8309011001007","commune":"Quilleco","code":"08309","gse":"C3","quintil":"Q2","nse_score":701.8,"educ":11.6,"educ_score":573.3,"hacin":1.178,"hacin_class":"Hacinamiento Leve","hacin_score":813.2,"auto_score":71.4,"n_per":53,"n_hog":21,"source_year":2024},"geometry":{"type":"Polygon","coordinates":[[[-71.9811823469999,-37.4682116630887],[-71.9811396349999,-37.4692646660887],[-71.9824795829999,-37.4693984650887],[-71.9824934359999,-37.4683363830887],[-71.9811823469999,-37.4682116630887]]]}},{"type":"Feature","properties":{"id":"8309011001008","commune":"Quilleco","code":"08309","gse":"E","quintil":"Q1","nse_score":624.1,"educ":10.2,"educ_score":480.0,"hacin":1.439,"hacin_class":"Hacinamiento Leve","hacin_score":757.7,"auto_score":119.0,"n_per":59,"n_hog":24,"source_year":2024},"geometry":{"type":"Polygon","coordinates":[[[-71.9826321499999,-37.4683355370887],[-71.9825961109999,-37.4694149280887],[-71.9838802719999,-37.4695200080887],[-71.9838340249999,-37.4684310410887],[-71.9826321499999,-37.4683355370887]]]}},{"type":"Feature","properties":{"id":"8309011001009","commune":"Quilleco","code":"08309","gse":"E","quintil":"Q1","nse_score":582.0,"educ":8.7,"educ_score":380.0,"hacin":1.267,"hacin_class":"Hacinamiento Leve","hacin_score":794.3,"auto_score":62.5,"n_per":57,"n_hog":22,"source_year":2024},"geometry":{"type":"Polygon","coordinates":[[[-71.9763840359999,-37.4683952530887],[-71.9758094119999,-37.4696308470887],[-71.9770758319999,-37.4699919750887],[-71.9780430109999,-37.4700855490887],[-71.9780765449999,-37.4683975100887],[-71.9763840359999,-37.4683952530887]]]}},{"type":"Feature","properties":{"id":"8309011001010","commune":"Quilleco","code":"08309","gse":"E","quintil":"Q1","nse_score":631.4,"educ":9.5,"educ_score":433.3,"hacin":1.306,"hacin_class":"Hacinamiento Leve","hacin_score":786.1,"auto_score":83.3,"n_per":47,"n_hog":18,"source_year":2024},"geometry":{"type":"Polygon","coordinates":[[[-71.9782113589999,-37.4701269760887],[-71.9795005719999,-37.4702713120887],[-71.9795730869999,-37.4691872090887],[-71.9781645239999,-37.4690368570887],[-71.9782113589999,-37.4701269760887]]]}},{"type":"Feature","properties":{"id":"8309011001011","commune":"Quilleco","code":"08309","gse":"D","quintil":"Q2","nse_score":678.2,"educ":10.7,"educ_score":513.3,"hacin":1.312,"hacin_class":"Hacinamiento Leve","hacin_score":784.6,"auto_score":187.5,"n_per":21,"n_hog":9,"source_year":2024},"geometry":{"type":"Polygon","coordinates":[[[-71.9796487739999,-37.4691883550887],[-71.9796049749999,-37.4702953700887],[-71.9809693509999,-37.4704424730887],[-71.9810315839999,-37.4693393940887],[-71.9796487739999,-37.4691883550887]]]}},{"type":"Feature","properties":{"id":"8309011001012","commune":"Quilleco","code":"08309","gse":"D","quintil":"Q2","nse_score":687.5,"educ":11.5,"educ_score":566.7,"hacin":1.25,"hacin_class":"Hacinamiento Leve","hacin_score":797.9,"auto_score":214.3,"n_per":35,"n_hog":13,"source_year":2024},"geometry":{"type":"Polygon","coordinates":[[[-71.9824862169999,-37.4694963180887],[-71.9811145509999,-37.4693489930887],[-71.9810794829999,-37.4704487440887],[-71.9824476119999,-37.4706076930887],[-71.9824862169999,-37.4694963180887]]]}},{"type":"Feature","properties":{"id":"8309011001013","commune":"Quilleco","code":"08309","gse":"D","quintil":"Q1","nse_score":660.6,"educ":10.4,"educ_score":493.3,"hacin":1.283,"hacin_class":"Hacinamiento Leve","hacin_score":790.8,"auto_score":195.7,"n_per":68,"n_hog":23,"source_year":2024},"geometry":{"type":"Polygon","coordinates":[[[-71.9838704449999,-37.4696157580887],[-71.9825624449999,-37.4695129730887],[-71.9825362829999,-37.4706137820887],[-71.9838591879999,-37.4707674490887],[-71.9838704449999,-37.4696157580887]]]}},{"type":"Feature","properties":{"id":"8309011001014","commune":"Quilleco","code":"08309","gse":"D","quintil":"Q1","nse_score":637.0,"educ":10.1,"educ_score":473.3,"hacin":1.119,"hacin_class":"Hacinamiento Leve","hacin_score":825.7,"auto_score":95.2,"n_per":47,"n_hog":20,"source_year":2024},"geometry":{"type":"Polygon","coordinates":[[[-71.9852960999999,-37.4697476680887],[-71.983961587,-37.4696435690887],[-71.9839444429999,-37.4707684980887],[-71.9853107709999,-37.4709116660887],[-71.9852960999999,-37.4697476680887]]]}},{"type":"Feature","properties":{"id":"8309011001015","commune":"Quilleco","code":"08309","gse":"D","quintil":"Q1","nse_score":666.0,"educ":11.5,"educ_score":566.7,"hacin":1.359,"hacin_class":"Hacinamiento Leve","hacin_score":774.6,"auto_score":172.4,"n_per":87,"n_hog":29,"source_year":2024},"geometry":{"type":"Polygon","coordinates":[[[-71.9749547099999,-37.4714686510887],[-71.9760329539999,-37.4717397360887],[-71.9768993149999,-37.4713750400887],[-71.9769214579999,-37.4710916850887],[-71.9762347199999,-37.4711450680887],[-71.9752180809999,-37.4709943590887],[-71.9762430179999,-37.4711007750887],[-71.9769292789999,-37.4710353810887],[-71.9770511409999,-37.4700515490887],[-71.9757861399999,-37.4696808870887],[-71.9749547099999,-37.4714686510887]]]}},{"type":"Feature","properties":{"id":"8309011001016","commune":"Quilleco","code":"08309","gse":"E","quintil":"Q1","nse_score":627.7,"educ":10.9,"educ_score":526.7,"hacin":1.6,"hacin_class":"Hacinamiento Medio","hacin_score":723.4,"auto_score":142.9,"n_per":24,"n_hog":7,"source_year":2024},"geometry":{"type":"Polygon","coordinates":[[[-71.9866831959999,-37.4710094420887],[-71.9863645729999,-37.4707097300887],[-71.9862189689999,-37.4697900780887],[-71.9853840439999,-37.4697577710887],[-71.9853877589999,-37.4709244730887],[-71.9866831959999,-37.4710094420887]]]}},{"type":"Feature","properties":{"id":"8309011001017","commune":"Quilleco","code":"08309","gse":"D","quintil":"Q1","nse_score":666.2,"educ":10.6,"educ_score":506.7,"hacin":1.141,"hacin_class":"Hacinamiento Leve","hacin_score":821.1,"auto_score":69.0,"n_per":81,"n_hog":31,"source_year":2024},"geometry":{"type":"Polygon","coordinates":[[[-71.9749468469999,-37.4714855590887],[-71.9746620599999,-37.4720978960887],[-71.9746458259999,-37.4728620060887],[-71.9758413469999,-37.4730084030887],[-71.9786377869999,-37.4722497450887],[-71.978675946,-37.4736183250887],[-71.9797741599999,-37.4737971110887],[-71.9794368639999,-37.4751352110887],[-71.9795798799999,-37.4747708100886],[-71.9795334569999,-37.4751402020886],[-71.9799413709999,-37.4751544940886],[-71.9799956599999,-37.4746584680886],[-71.9808713479999,-37.4746739050886],[-71.9809172309999,-37.4728573750887],[-71.9793965539999,-37.4726248100887],[-71.9794307599999,-37.4714863560887],[-71.9780680099999,-37.4712988670887],[-71.9780091189999,-37.4701566770887],[-71.9771202809999,-37.4700584930887],[-71.9769668179999,-37.4713800860887],[-71.9761354259999,-37.4717321090887],[-71.9758193649999,-37.4717229740887],[-71.9755609989999,-37.4723100540887],[-71.9757970369999,-37.4717192960887],[-71.9749468469999,-37.4714855590887]]]}},{"type":"Feature","properties":{"id":"8309011001018","commune":"Quilleco","code":"08309","gse":"E","quintil":"Q1","nse_score":619.9,"educ":8.5,"educ_score":366.7,"hacin":1.095,"hacin_class":"Hacinamiento Leve","hacin_score":830.8,"auto_score":80.0,"n_per":69,"n_hog":28,"source_year":2024},"geometry":{"type":"Polygon","coordinates":[[[-71.9781613729999,-37.4712656340887],[-71.9794326889999,-37.4714051540887],[-71.9794884059999,-37.4703510600887],[-71.9781606729999,-37.4701904530887],[-71.9781613729999,-37.4712656340887]]]}},{"type":"Feature","properties":{"id":"8309011001020","commune":"Quilleco","code":"08309","gse":"E","quintil":"Q1","nse_score":622.8,"educ":10.2,"educ_score":480.0,"hacin":1.385,"hacin_class":"Hacinamiento Leve","hacin_score":769.2,"auto_score":0.0,"n_per":18,"n_hog":6,"source_year":2024},"geometry":{"type":"Polygon","coordinates":[[[-71.9824015239999,-37.4717650090887],[-71.9824228869999,-37.4706724050887],[-71.9810831809999,-37.4705231730887],[-71.9810439159999,-37.4715663840886],[-71.9824015239999,-37.4717650090887]]]}},{"type":"Feature","properties":{"id":"8309011001021","commune":"Quilleco","code":"08309","gse":"D","quintil":"Q2","nse_score":687.2,"educ":11.7,"educ_score":580.0,"hacin":1.615,"hacin_class":"Hacinamiento Medio","hacin_score":720.1,"auto_score":108.7,"n_per":63,"n_hog":23,"source_year":2024},"geometry":{"type":"Polygon","coordinates":[[[-71.9825157929999,-37.4717600490887],[-71.9838787879999,-37.4719244080887],[-71.9838676179999,-37.4708529070887],[-71.9825338269999,-37.4706943470887],[-71.9825157929999,-37.4717600490887]]]}},{"type":"Feature","properties":{"id":"8309011001022","commune":"Quilleco","code":"08309","gse":"C3","quintil":"Q3","nse_score":720.0,"educ":11.4,"educ_score":560.0,"hacin":0.966,"hacin_class":"Sin Hacinamiento","hacin_score":858.4,"auto_score":38.5,"n_per":28,"n_hog":13,"source_year":2024},"geometry":{"type":"Polygon","coordinates":[[[-71.9839616209999,-37.4719539600887],[-71.985355738,-37.4721217260887],[-71.9853133069999,-37.4709805600887],[-71.9839481849999,-37.4708443030887],[-71.9839616209999,-37.4719539600887]]]}},{"type":"Feature","properties":{"id":"8309011001023","commune":"Quilleco","code":"08309","gse":"D","quintil":"Q1","nse_score":641.4,"educ":10.4,"educ_score":493.3,"hacin":1.524,"hacin_class":"Hacinamiento Medio","hacin_score":739.6,"auto_score":166.7,"n_per":32,"n_hog":9,"source_year":2024},"geometry":{"type":"Polygon","coordinates":[[[-71.9854473579999,-37.4721719230887],[-71.9867937049999,-37.4722613550887],[-71.9864705449999,-37.4715188700887],[-71.9867240599999,-37.4712234910887],[-71.9867046519999,-37.4710382820887],[-71.9853955129999,-37.4709968800887],[-71.9854473579999,-37.4721719230887]]]}},{"type":"Feature","properties":{"id":"8309011001024","commune":"Quilleco","code":"08309","gse":"C3","quintil":"Q2","nse_score":688.8,"educ":11.5,"educ_score":566.7,"hacin":1.286,"hacin_class":"Hacinamiento Leve","hacin_score":790.3,"auto_score":208.3,"n_per":36,"n_hog":12,"source_year":2024},"geometry":{"type":"Polygon","coordinates":[[[-71.9795064469999,-37.4725872590887],[-71.9809139229999,-37.4727489820887],[-71.980956079,-37.4716695420887],[-71.9795139319999,-37.4714853090887],[-71.9795064469999,-37.4725872590887]]]}},{"type":"Feature","properties":{"id":"8309011001025","commune":"Quilleco","code":"08309","gse":"D","quintil":"Q1","nse_score":648.4,"educ":10.5,"educ_score":500.0,"hacin":1.421,"hacin_class":"Hacinamiento Leve","hacin_score":761.5,"auto_score":100.0,"n_per":54,"n_hog":22,"source_year":2024},"geometry":{"type":"Polygon","coordinates":[[[-71.9810086609999,-37.4727606020887],[-71.9824081739999,-37.4729321720887],[-71.982420208,-37.4718516880887],[-71.9810444729999,-37.4716689950887],[-71.9810086609999,-37.4727606020887]]]}},{"type":"Feature","properties":{"id":"8309011001026","commune":"Quilleco","code":"08309","gse":"E","quintil":"Q1","nse_score":592.4,"educ":10.1,"educ_score":473.3,"hacin":1.595,"hacin_class":"Hacinamiento Medio","hacin_score":724.6,"auto_score":119.0,"n_per":59,"n_hog":20,"source_year":2024},"geometry":{"type":"Polygon","coordinates":[[[-71.9824815409999,-37.4729513600887],[-71.9838775369999,-37.4731449220887],[-71.9838573149999,-37.4720284280887],[-71.9825120819999,-37.4718660250887],[-71.9824815409999,-37.4729513600887]]]}},{"type":"Feature","properties":{"id":"8309011001027","commune":"Quilleco","code":"08309","gse":"E","quintil":"Q1","nse_score":596.3,"educ":9.9,"educ_score":460.0,"hacin":1.5,"hacin_class":"Hacinamiento Medio","hacin_score":744.7,"auto_score":55.6,"n_per":45,"n_hog":16,"source_year":2024},"geometry":{"type":"Polygon","coordinates":[[[-71.9853259759999,-37.4733292480886],[-71.9853023129999,-37.4721821560887],[-71.9839536369999,-37.4720715850887],[-71.9840043529999,-37.4731802940886],[-71.9853259759999,-37.4733292480886]]]}},{"type":"Feature","properties":{"id":"8309011001028","commune":"Quilleco","code":"08309","gse":"C3","quintil":"Q2","nse_score":692.8,"educ":10.2,"educ_score":480.0,"hacin":1.071,"hacin_class":"Hacinamiento Leve","hacin_score":835.9,"auto_score":0.0,"n_per":30,"n_hog":10,"source_year":2024},"geometry":{"type":"Polygon","coordinates":[[[-71.9868772519999,-37.4734687320887],[-71.9870791009999,-37.4727591510887],[-71.9868084799999,-37.4722926750887],[-71.9854488469999,-37.4722376640887],[-71.9854488029999,-37.4733441710887],[-71.9868772519999,-37.4734687320887]]]}},{"type":"Feature","properties":{"id":"8309011001029","commune":"Quilleco","code":"08309","gse":"D","quintil":"Q2","nse_score":684.5,"educ":10.1,"educ_score":473.3,"hacin":0.865,"hacin_class":"Sin Hacinamiento","hacin_score":879.8,"auto_score":31.2,"n_per":32,"n_hog":16,"source_year":2024},"geometry":{"type":"Polygon","coordinates":[[[-71.9809371769999,-37.4751283900887],[-71.9823421749999,-37.4752203740887],[-71.9823815469999,-37.4730315960887],[-71.9810065959999,-37.4728728610887],[-71.9809371769999,-37.4751283900887]]]}},{"type":"Feature","properties":{"id":"8309011001030","commune":"Quilleco","code":"08309","gse":"D","quintil":"Q2","nse_score":670.7,"educ":10.4,"educ_score":493.3,"hacin":1.03,"hacin_class":"Hacinamiento Leve","hacin_score":844.6,"auto_score":100.0,"n_per":34,"n_hog":15,"source_year":2024},"geometry":{"type":"Polygon","coordinates":[[[-71.9824649509999,-37.4741799870887],[-71.9838884369999,-37.4742810850886],[-71.9838751929999,-37.4732300900887],[-71.9824848179999,-37.4730655520886],[-71.9824649509999,-37.4741799870887]]]}},{"type":"Feature","properties":{"id":"8309011001031","commune":"Quilleco","code":"08309","gse":"D","quintil":"Q2","nse_score":679.1,"educ":10.7,"educ_score":513.3,"hacin":0.958,"hacin_class":"Sin Hacinamiento","hacin_score":859.9,"auto_score":157.9,"n_per":46,"n_hog":18,"source_year":2024},"geometry":{"type":"Polygon","coordinates":[[[-71.9839742419999,-37.4743156150887],[-71.9853490829999,-37.4744070900887],[-71.9853514069999,-37.4734154050886],[-71.9839728999999,-37.4732468460887],[-71.9839742419999,-37.4743156150887]]]}},{"type":"Feature","properties":{"id":"8309011001032","commune":"Quilleco","code":"08309","gse":"C3","quintil":"Q3","nse_score":711.6,"educ":11.8,"educ_score":586.7,"hacin":1.053,"hacin_class":"Hacinamiento Leve","hacin_score":839.9,"auto_score":62.5,"n_per":20,"n_hog":8,"source_year":2024},"geometry":{"type":"Polygon","coordinates":[[[-71.9854270529999,-37.4744016310886],[-71.9867019029999,-37.4744945780887],[-71.9870101559999,-37.4740916100887],[-71.9869531249999,-37.4735170100887],[-71.9854390069999,-37.4734185960887],[-71.9854270529999,-37.4744016310886]]]}},{"type":"Feature","properties":{"id":"8309011001033","commune":"Quilleco","code":"08309","gse":"D","quintil":"Q2","nse_score":670.6,"educ":11.7,"educ_score":580.0,"hacin":1.379,"hacin_class":"Hacinamiento Leve","hacin_score":770.4,"auto_score":175.0,"n_per":131,"n_hog":40,"source_year":2024},"geometry":{"type":"Polygon","coordinates":[[[-71.9824588339999,-37.4742720760887],[-71.9824101959999,-37.4765099660886],[-71.9838934319999,-37.4764724840886],[-71.9838803509999,-37.4743822070887],[-71.9824588339999,-37.4742720760887]]]}},{"type":"Feature","properties":{"id":"8309011001034","commune":"Quilleco","code":"08309","gse":"E","quintil":"Q1","nse_score":622.0,"educ":9.0,"educ_score":400.0,"hacin":1.171,"hacin_class":"Hacinamiento Leve","hacin_score":814.6,"auto_score":88.2,"n_per":41,"n_hog":17,"source_year":2024},"geometry":{"type":"Polygon","coordinates":[[[-71.9839720179999,-37.4764591290886],[-71.9873657779999,-37.4763433550886],[-71.987353202,-37.4761037220887],[-71.9871561409999,-37.4753245260887],[-71.9867054599999,-37.4745494060887],[-71.9840229829999,-37.4743766210886],[-71.9839720179999,-37.4764591290886]]]}},{"type":"Feature","properties":{"id":"8309011001035","commune":"Quilleco","code":"08309","gse":"E","quintil":"Q1","nse_score":578.4,"educ":6.6,"educ_score":240.0,"hacin":1.065,"hacin_class":"Hacinamiento Leve","hacin_score":837.3,"auto_score":0.0,"n_per":33,"n_hog":16,"source_year":2024},"geometry":{"type":"Polygon","coordinates":[[[-71.9800269169999,-37.4746977030887],[-71.9799860689999,-37.4751599060886],[-71.9808452679999,-37.4751507410887],[-71.9808366079999,-37.4747279200887],[-71.9800269169999,-37.4746977030887]]]}},{"type":"Feature","properties":{"id":"8309011001037","commune":"Quilleco","code":"08309","gse":"D","quintil":"Q1","nse_score":639.2,"educ":10.1,"educ_score":473.3,"hacin":0.9,"hacin_class":"Sin Hacinamiento","hacin_score":872.3,"auto_score":58.8,"n_per":36,"n_hog":16,"source_year":2024},"geometry":{"type":"Polygon","coordinates":[[[-71.9799531809999,-37.4756290360886],[-71.980793016,-37.4756626780886],[-71.9808435809999,-37.4752632060887],[-71.9799803029999,-37.4751865680886],[-71.9799531809999,-37.4756290360886]]]}},{"type":"Feature","properties":{"id":"8309011001038","commune":"Quilleco","code":"08309","gse":"E","quintil":"Q1","nse_score":608.6,"educ":9.5,"educ_score":433.3,"hacin":1.0,"hacin_class":"Hacinamiento Leve","hacin_score":851.1,"auto_score":0.0,"n_per":19,"n_hog":8,"source_year":2024},"geometry":{"type":"Polygon","coordinates":[[[-71.9823437379999,-37.4753088210887],[-71.9809293129999,-37.4752849230887],[-71.9809031809999,-37.4764952150887],[-71.9823155639999,-37.4765016470887],[-71.9823437379999,-37.4753088210887]]]}},{"type":"Feature","properties":{"id":"8309011001039","commune":"Quilleco","code":"08309","gse":"E","quintil":"Q1","nse_score":591.6,"educ":9.4,"educ_score":426.7,"hacin":1.538,"hacin_class":"Hacinamiento Medio","hacin_score":736.5,"auto_score":0.0,"n_per":40,"n_hog":11,"source_year":2024},"geometry":{"type":"Polygon","coordinates":[[[-71.9798926199999,-37.4760080750886],[-71.9799156839999,-37.4756554890887],[-71.9793480189999,-37.4756348590887],[-71.9793243279999,-37.4759797570887],[-71.9798926199999,-37.4760080750886]]]}},{"type":"Feature","properties":{"id":"8309011001036","commune":"Quilleco","code":"08309","gse":"E","quintil":"Q1","nse_score":636.5,"educ":10.0,"educ_score":466.7,"hacin":1.207,"hacin_class":"Hacinamiento Leve","hacin_score":807.0,"auto_score":76.9,"n_per":35,"n_hog":11,"source_year":2024},"geometry":{"type":"MultiPolygon","coordinates":[[[[-71.9799755329999,-37.4760148280887],[-71.9807825309999,-37.4760501350886],[-71.9808469249999,-37.4757163350887],[-71.9799526459999,-37.4756479190886],[-71.9799755329999,-37.4760148280887]]],[[[-71.9793504899999,-37.4755988890887],[-71.9799180379999,-37.4756195140887],[-71.9799461669999,-37.4751894890887],[-71.9793797449999,-37.4751729790886],[-71.9793504899999,-37.4755988890887]]]]}},{"type":"Feature","properties":{"id":"8309011001041","commune":"Quilleco","code":"08309","gse":"E","quintil":"Q1","nse_score":550.3,"educ":10.1,"educ_score":473.3,"hacin":1.583,"hacin_class":"Hacinamiento Medio","hacin_score":727.0,"auto_score":142.9,"n_per":19,"n_hog":7,"source_year":2024},"geometry":{"type":"MultiPolygon","coordinates":[[[[-71.9812462969999,-37.4766028980887],[-71.9780496069999,-37.4766387030886],[-71.9782033249999,-37.4781106410886],[-71.9808371229999,-37.4780771290886],[-71.9809139199999,-37.4775802080886],[-71.9813322339999,-37.4774547380886],[-71.9812462969999,-37.4766028980887]]],[[[-71.9792697139999,-37.4760149010886],[-71.9791199359999,-37.4765845400886],[-71.9808048689999,-37.4765034730886],[-71.9807784789999,-37.4760784340886],[-71.9792697139999,-37.4760149010886]]]]}},{"type":"Feature","properties":{"id":"8309021001002","commune":"Quilleco","code":"08309","gse":"D","quintil":"Q2","nse_score":678.5,"educ":11.2,"educ_score":546.7,"hacin":1.278,"hacin_class":"Hacinamiento Leve","hacin_score":792.0,"auto_score":27.8,"n_per":46,"n_hog":19,"source_year":2024},"geometry":{"type":"Polygon","coordinates":[[[-71.9860211869999,-37.4677513110887],[-71.9845792159999,-37.4683860320887],[-71.9839403539999,-37.4684498800887],[-71.9839804779999,-37.4695436600887],[-71.9852699639999,-37.4696784430887],[-71.9852985989999,-37.4693436400887],[-71.9853925149999,-37.4693457700887],[-71.9853763369999,-37.4696777710887],[-71.9862034699999,-37.4697420550887],[-71.9863210079999,-37.4701963330887],[-71.9870406179999,-37.4698574490887],[-71.9865213819999,-37.4689781240887],[-71.9860211869999,-37.4677513110887]]]}},{"type":"Feature","properties":{"id":"8309031001001","commune":"Quilleco","code":"08309","gse":"C3","quintil":"Q2","nse_score":705.1,"educ":11.7,"educ_score":580.0,"hacin":1.349,"hacin_class":"Hacinamiento Leve","hacin_score":776.9,"auto_score":100.0,"n_per":89,"n_hog":28,"source_year":2024},"geometry":{"type":"MultiPolygon","coordinates":[[[[-72.0110682829999,-37.4028795740893],[-72.0107488549999,-37.4025207210892],[-72.0104897669999,-37.4021194010893],[-72.0086452469999,-37.4027078390893],[-72.0096057939999,-37.4049327820893],[-72.0114838169999,-37.4047082860893],[-72.0119184729999,-37.4034174580892],[-72.0125849589999,-37.4030609160893],[-72.0116396519999,-37.4018002330893],[-72.0105709009999,-37.4020990500893],[-72.0110682829999,-37.4028795740893]]],[[[-72.0117405419999,-37.3984487730893],[-72.0112667459999,-37.3984783270893],[-72.0112260179999,-37.4005777680893],[-72.0116093019999,-37.4014821880893],[-72.0124035559999,-37.4012509030893],[-72.0116312799999,-37.4015338700893],[-72.0127528639999,-37.4030108380893],[-72.0141553259999,-37.4023922950893],[-72.0141603119999,-37.4022667330893],[-72.0128355669999,-37.3997194940893],[-72.0130946749999,-37.3982792820893],[-72.0112850849999,-37.3982362910893],[-72.0112882939999,-37.3984064430893],[-72.0117405419999,-37.3984487730893]]]]}},{"type":"Feature","properties":{"id":"8309041001001","commune":"Quilleco","code":"08309","gse":"C3","quintil":"Q3","nse_score":729.0,"educ":11.5,"educ_score":566.7,"hacin":1.283,"hacin_class":"Hacinamiento Leve","hacin_score":790.9,"auto_score":375.0,"n_per":59,"n_hog":19,"source_year":2024},"geometry":{"type":"Polygon","coordinates":[[[-71.9761800399999,-37.3993202010893],[-71.9764683649999,-37.4004465240893],[-71.9755280069999,-37.4004438430893],[-71.9755901749999,-37.4008016420893],[-71.976480938,-37.4007445620893],[-71.9755975269999,-37.4008426120893],[-71.9756809449999,-37.4013572290892],[-71.9771278129999,-37.4012018850893],[-71.9766081079999,-37.3992379930893],[-71.9761800399999,-37.3993202010893]]]}},{"type":"Feature","properties":{"id":"8309041001003","commune":"Quilleco","code":"08309","gse":"E","quintil":"Q1","nse_score":587.5,"educ":9.3,"educ_score":420.0,"hacin":1.326,"hacin_class":"Hacinamiento Leve","hacin_score":781.7,"auto_score":250.0,"n_per":61,"n_hog":20,"source_year":2024},"geometry":{"type":"Polygon","coordinates":[[[-71.9824780689999,-37.3999014000893],[-71.9817476579999,-37.4007335710893],[-71.9813881679999,-37.4009316270893],[-71.980802476,-37.4008546420893],[-71.9806987369999,-37.4000412290893],[-71.9799327369999,-37.4001564340893],[-71.9797697349999,-37.4009449980893],[-71.9798205459999,-37.4013738510893],[-71.9825969449999,-37.4011118920893],[-71.9824780689999,-37.3999014000893]]]}},{"type":"Feature","properties":{"id":"8309041001004","commune":"Quilleco","code":"08309","gse":"D","quintil":"Q1","nse_score":658.3,"educ":9.0,"educ_score":400.0,"hacin":1.24,"hacin_class":"Hacinamiento Leve","hacin_score":800.0,"auto_score":208.3,"n_per":31,"n_hog":12,"source_year":2024},"geometry":{"type":"Polygon","coordinates":[[[-71.975035364,-37.4004852920893],[-71.9753192979999,-37.4018411630893],[-71.9756752209999,-37.4018149400893],[-71.9754795279999,-37.4004426020893],[-71.975035364,-37.4004852920893]]]}},{"type":"Feature","properties":{"id":"8309041001005","commune":"Quilleco","code":"08309","gse":"D","quintil":"Q1","nse_score":645.9,"educ":8.3,"educ_score":353.3,"hacin":0.75,"hacin_class":"Sin Hacinamiento","hacin_score":904.3,"auto_score":250.0,"n_per":12,"n_hog":6,"source_year":2024},"geometry":{"type":"Polygon","coordinates":[[[-71.9771029459999,-37.4007637170893],[-71.9772427609999,-37.4016604740893],[-71.9783280169999,-37.4015531630893],[-71.9782494819999,-37.4010541190893],[-71.9776882809999,-37.4010082260893],[-71.9771029459999,-37.4007637170893]]]}},{"type":"Feature","properties":{"id":"8309041001006","commune":"Quilleco","code":"08309","gse":"E","quintil":"Q1","nse_score":617.0,"educ":9.5,"educ_score":433.3,"hacin":1.182,"hacin_class":"Hacinamiento Leve","hacin_score":812.4,"auto_score":0.0,"n_per":13,"n_hog":5,"source_year":2024},"geometry":{"type":"Polygon","coordinates":[[[-71.9794255129999,-37.4008499220893],[-71.9783433439999,-37.4010846110893],[-71.9784157209999,-37.4015424300893],[-71.9797483309999,-37.4013789430893],[-71.9797159779999,-37.4009339650893],[-71.9794255129999,-37.4008499220893]]]}},{"type":"Feature","properties":{"id":"8309041001007","commune":"Quilleco","code":"08309","gse":"D","quintil":"Q1","nse_score":651.5,"educ":9.0,"educ_score":400.0,"hacin":1.129,"hacin_class":"Hacinamiento Leve","hacin_score":823.6,"auto_score":111.1,"n_per":70,"n_hog":27,"source_year":2024},"geometry":{"type":"Polygon","coordinates":[[[-71.9825552679999,-37.4011880470893],[-71.9812547249999,-37.4013623250893],[-71.9813922679999,-37.4023225640893],[-71.9826692549999,-37.4021718790893],[-71.9825552679999,-37.4011880470893]]]}},{"type":"Feature","properties":{"id":"8309041001008","commune":"Quilleco","code":"08309","gse":"E","quintil":"Q1","nse_score":631.4,"educ":9.1,"educ_score":406.7,"hacin":1.312,"hacin_class":"Hacinamiento Leve","hacin_score":784.8,"auto_score":187.5,"n_per":80,"n_hog":23,"source_year":2024},"geometry":{"type":"Polygon","coordinates":[[[-71.9771329789999,-37.4012472040893],[-71.9756895109999,-37.4014026370893],[-71.9757554789999,-37.4018033480893],[-71.9771941459999,-37.4016616990893],[-71.9771329789999,-37.4012472040893]]]}},{"type":"Feature","properties":{"id":"8309041001009","commune":"Quilleco","code":"08309","gse":"E","quintil":"Q1","nse_score":627.8,"educ":9.6,"educ_score":440.0,"hacin":1.512,"hacin_class":"Hacinamiento Medio","hacin_score":742.2,"auto_score":62.5,"n_per":65,"n_hog":22,"source_year":2024},"geometry":{"type":"Polygon","coordinates":[[[-71.9799953909999,-37.4024773800893],[-71.9812716639999,-37.4023348080893],[-71.9811801429999,-37.4013354570893],[-71.9798250109999,-37.4014674780893],[-71.9799953909999,-37.4024773800893]]]}},{"type":"Feature","properties":{"id":"8309041001010","commune":"Quilleco","code":"08309","gse":"C3","quintil":"Q2","nse_score":687.8,"educ":10.3,"educ_score":486.7,"hacin":1.318,"hacin_class":"Hacinamiento Leve","hacin_score":783.4,"auto_score":80.6,"n_per":87,"n_hog":29,"source_year":2024},"geometry":{"type":"Polygon","coordinates":[[[-71.9785070289999,-37.4025487430893],[-71.9798265569999,-37.4024837020893],[-71.9797335799999,-37.4014894090893],[-71.9784180519999,-37.4015987090893],[-71.9785070289999,-37.4025487430893]]]}},{"type":"Feature","properties":{"id":"8309041001011","commune":"Quilleco","code":"08309","gse":"D","quintil":"Q2","nse_score":686.6,"educ":9.6,"educ_score":440.0,"hacin":1.231,"hacin_class":"Hacinamiento Leve","hacin_score":802.0,"auto_score":50.0,"n_per":32,"n_hog":10,"source_year":2024},"geometry":{"type":"Polygon","coordinates":[[[-71.977025851,-37.4017373710893],[-71.9772029329999,-37.4027263610893],[-71.9783562239999,-37.4026209560893],[-71.9782877279999,-37.4016839110893],[-71.977025851,-37.4017373710893]]]}},{"type":"Feature","properties":{"id":"8309041001012","commune":"Quilleco","code":"08309","gse":"D","quintil":"Q1","nse_score":639.0,"educ":8.3,"educ_score":353.3,"hacin":1.172,"hacin_class":"Hacinamiento Leve","hacin_score":814.4,"auto_score":33.3,"n_per":34,"n_hog":15,"source_year":2024},"geometry":{"type":"Polygon","coordinates":[[[-71.9756599109999,-37.4019527620893],[-71.9758419439999,-37.4028408630893],[-71.9770420439999,-37.4026636200893],[-71.9768707779999,-37.4017537020893],[-71.9756599109999,-37.4019527620893]]]}},{"type":"Feature","properties":{"id":"8309041001013","commune":"Quilleco","code":"08309","gse":"D","quintil":"Q1","nse_score":650.1,"educ":10.5,"educ_score":500.0,"hacin":1.571,"hacin_class":"Hacinamiento Medio","hacin_score":729.5,"auto_score":312.5,"n_per":44,"n_hog":15,"source_year":2024},"geometry":{"type":"Polygon","coordinates":[[[-71.9827792379999,-37.4032363110893],[-71.9826670959999,-37.4022627830892],[-71.9813734459999,-37.4023931910893],[-71.9814753989999,-37.4033646760893],[-71.9827792379999,-37.4032363110893]]]}},{"type":"Feature","properties":{"id":"8309041001014","commune":"Quilleco","code":"08309","gse":"C3","quintil":"Q2","nse_score":692.4,"educ":10.6,"educ_score":506.7,"hacin":1.357,"hacin_class":"Hacinamiento Leve","hacin_score":775.1,"auto_score":142.9,"n_per":19,"n_hog":7,"source_year":2024},"geometry":{"type":"Polygon","coordinates":[[[-71.9801264749999,-37.4035206780893],[-71.9813766689999,-37.4033832690893],[-71.9812843419999,-37.4024000390893],[-71.9799692559999,-37.4025417860892],[-71.9801264749999,-37.4035206780893]]]}},{"type":"Feature","properties":{"id":"8309041001015","commune":"Quilleco","code":"08309","gse":"C3","quintil":"Q2","nse_score":706.5,"educ":10.8,"educ_score":520.0,"hacin":1.341,"hacin_class":"Hacinamiento Leve","hacin_score":778.4,"auto_score":375.0,"n_per":55,"n_hog":20,"source_year":2024},"geometry":{"type":"Polygon","coordinates":[[[-71.9798071829999,-37.4025498930893],[-71.9785330509999,-37.4027195990893],[-71.9786324809999,-37.4035758700893],[-71.9799428269999,-37.4035286820893],[-71.9798071829999,-37.4025498930893]]]}},{"type":"Feature","properties":{"id":"8309041001016","commune":"Quilleco","code":"08309","gse":"D","quintil":"Q1","nse_score":660.6,"educ":9.4,"educ_score":426.7,"hacin":1.273,"hacin_class":"Hacinamiento Leve","hacin_score":793.0,"auto_score":200.0,"n_per":56,"n_hog":24,"source_year":2024},"geometry":{"type":"Polygon","coordinates":[[[-71.9783553809999,-37.4026776120893],[-71.9772142289999,-37.4027777860893],[-71.9772503049999,-37.4036961580893],[-71.9785069479999,-37.4036630410893],[-71.9783553809999,-37.4026776120893]]]}},{"type":"Feature","properties":{"id":"8309041001017","commune":"Quilleco","code":"08309","gse":"C3","quintil":"Q3","nse_score":713.8,"educ":10.0,"educ_score":466.7,"hacin":1.129,"hacin_class":"Hacinamiento Leve","hacin_score":823.6,"auto_score":366.7,"n_per":35,"n_hog":15,"source_year":2024},"geometry":{"type":"Polygon","coordinates":[[[-71.9759052989999,-37.4038342190892],[-71.9770973009999,-37.4037892710893],[-71.9770667409999,-37.4028726100892],[-71.9758495549999,-37.4028981960893],[-71.9759052989999,-37.4038342190892]]]}},{"type":"Feature","properties":{"id":"8309041001018","commune":"Quilleco","code":"08309","gse":"D","quintil":"Q2","nse_score":682.6,"educ":10.3,"educ_score":486.7,"hacin":1.314,"hacin_class":"Hacinamiento Leve","hacin_score":784.2,"auto_score":210.5,"n_per":46,"n_hog":19,"source_year":2024},"geometry":{"type":"Polygon","coordinates":[[[-71.9816381079999,-37.4044926960892],[-71.9829191429999,-37.4043542910893],[-71.9827948449999,-37.4033404680893],[-71.9814873239999,-37.4034514630893],[-71.9816381079999,-37.4044926960892]]]}},{"type":"Feature","properties":{"id":"8309041001019","commune":"Quilleco","code":"08309","gse":"E","quintil":"Q1","nse_score":621.9,"educ":9.6,"educ_score":440.0,"hacin":1.462,"hacin_class":"Hacinamiento Leve","hacin_score":752.9,"auto_score":266.7,"n_per":38,"n_hog":15,"source_year":2024},"geometry":{"type":"Polygon","coordinates":[[[-71.9802606529999,-37.4046269850893],[-71.9815094419999,-37.4045021820893],[-71.9813857549999,-37.4034540260893],[-71.9800849519999,-37.4035866740893],[-71.9802606529999,-37.4046269850893]]]}},{"type":"Feature","properties":{"id":"8309041001021","commune":"Quilleco","code":"08309","gse":"E","quintil":"Q1","nse_score":631.8,"educ":9.2,"educ_score":413.3,"hacin":1.378,"hacin_class":"Hacinamiento Leve","hacin_score":770.6,"auto_score":88.2,"n_per":51,"n_hog":17,"source_year":2024},"geometry":{"type":"Polygon","coordinates":[[[-71.9772729319999,-37.4039029180892],[-71.9773859679999,-37.4048067750893],[-71.9774863939999,-37.4048666440892],[-71.9786843699999,-37.4047031080892],[-71.9785127199999,-37.4037176070892],[-71.9772729319999,-37.4039029180892]]]}},{"type":"Feature","properties":{"id":"8309041001022","commune":"Quilleco","code":"08309","gse":"D","quintil":"Q1","nse_score":647.6,"educ":7.9,"educ_score":326.7,"hacin":1.154,"hacin_class":"Hacinamiento Leve","hacin_score":818.3,"auto_score":71.4,"n_per":45,"n_hog":20,"source_year":2024},"geometry":{"type":"Polygon","coordinates":[[[-71.9759306309999,-37.4040018920892],[-71.9760553249999,-37.4049255260893],[-71.9773009279999,-37.4048174400892],[-71.9771118179999,-37.4038450670893],[-71.9759306309999,-37.4040018920892]]]}},{"type":"Feature","properties":{"id":"8309041001024","commune":"Quilleco","code":"08309","gse":"D","quintil":"Q1","nse_score":664.2,"educ":9.9,"educ_score":460.0,"hacin":1.76,"hacin_class":"Hacinamiento Medio","hacin_score":689.4,"auto_score":133.3,"n_per":44,"n_hog":17,"source_year":2024},"geometry":{"type":"Polygon","coordinates":[[[-71.9830465379999,-37.4054460240893],[-71.9829302339999,-37.4044366780893],[-71.9816042729999,-37.4045762160893],[-71.9817657989999,-37.4055730810892],[-71.9830465379999,-37.4054460240893]]]}},{"type":"Feature","properties":{"id":"8309041001025","commune":"Quilleco","code":"08309","gse":"D","quintil":"Q2","nse_score":685.2,"educ":10.4,"educ_score":493.3,"hacin":1.195,"hacin_class":"Hacinamiento Leve","hacin_score":809.5,"auto_score":75.0,"n_per":49,"n_hog":19,"source_year":2024},"geometry":{"type":"Polygon","coordinates":[[[-71.9802919229999,-37.4054950390893],[-71.9803457419999,-37.4057263220893],[-71.9816445049999,-37.4055906030893],[-71.9815124079999,-37.4045769750893],[-71.9802169509999,-37.4046970110892],[-71.9802884689999,-37.4054681520892],[-71.9806179709999,-37.4054754560892],[-71.9802919229999,-37.4054950390893]]]}},{"type":"Feature","properties":{"id":"8309041001026","commune":"Quilleco","code":"08309","gse":"D","quintil":"Q1","nse_score":656.3,"educ":8.7,"educ_score":380.0,"hacin":1.19,"hacin_class":"Hacinamiento Leve","hacin_score":810.5,"auto_score":83.3,"n_per":50,"n_hog":18,"source_year":2024},"geometry":{"type":"Polygon","coordinates":[[[-71.9788983039999,-37.4057940540893],[-71.9802153199999,-37.4057344920893],[-71.9801002069999,-37.4047198300892],[-71.9788430669999,-37.4048040420893],[-71.9788983039999,-37.4057940540893]]]}},{"type":"Feature","properties":{"id":"8309041001027","commune":"Quilleco","code":"08309","gse":"C3","quintil":"Q2","nse_score":688.4,"educ":10.8,"educ_score":520.0,"hacin":1.511,"hacin_class":"Hacinamiento Medio","hacin_score":742.4,"auto_score":134.6,"n_per":71,"n_hog":25,"source_year":2024},"geometry":{"type":"Polygon","coordinates":[[[-71.9775382299999,-37.4059196580893],[-71.9787839989999,-37.4058725910892],[-71.9787079409999,-37.4048790100893],[-71.9774853779999,-37.4049251240892],[-71.9775382299999,-37.4059196580893]]]}},{"type":"Feature","properties":{"id":"8309041001028","commune":"Quilleco","code":"08309","gse":"C3","quintil":"Q2","nse_score":688.9,"educ":10.1,"educ_score":473.3,"hacin":1.351,"hacin_class":"Hacinamiento Leve","hacin_score":776.3,"auto_score":83.3,"n_per":50,"n_hog":18,"source_year":2024},"geometry":{"type":"Polygon","coordinates":[[[-71.9760812489999,-37.4051080970892],[-71.9762840889999,-37.4060941180892],[-71.9774493569999,-37.4059260530892],[-71.9772364569999,-37.4049473400892],[-71.9760812489999,-37.4051080970892]]]}},{"type":"Feature","properties":{"id":"8309041001029","commune":"Quilleco","code":"08309","gse":"D","quintil":"Q2","nse_score":670.8,"educ":10.5,"educ_score":500.0,"hacin":1.255,"hacin_class":"Hacinamiento Leve","hacin_score":796.7,"auto_score":159.1,"n_per":59,"n_hog":21,"source_year":2024},"geometry":{"type":"Polygon","coordinates":[[[-71.9818005449999,-37.4056303380892],[-71.9819136709999,-37.4069049230893],[-71.9832343689999,-37.4067795520892],[-71.983073068,-37.4055233410892],[-71.9818005449999,-37.4056303380892]]]}},{"type":"Feature","properties":{"id":"8309041001030","commune":"Quilleco","code":"08309","gse":"D","quintil":"Q2","nse_score":667.1,"educ":10.9,"educ_score":526.7,"hacin":1.452,"hacin_class":"Hacinamiento Leve","hacin_score":754.8,"auto_score":225.0,"n_per":61,"n_hog":20,"source_year":2024},"geometry":{"type":"Polygon","coordinates":[[[-71.9813518679999,-37.4069701690892],[-71.9818269219999,-37.4068868370892],[-71.9816556149999,-37.4056709930892],[-71.9803500869999,-37.4058008430893],[-71.9805024739999,-37.4070264690893],[-71.9813067339999,-37.4069741740892],[-71.9811972559999,-37.4066653230892],[-71.9812220459999,-37.4065477600893],[-71.9813518679999,-37.4069701690892]]]}},{"type":"Feature","properties":{"id":"8309041001031","commune":"Quilleco","code":"08309","gse":"D","quintil":"Q2","nse_score":680.7,"educ":9.8,"educ_score":453.3,"hacin":1.267,"hacin_class":"Hacinamiento Leve","hacin_score":794.3,"auto_score":138.9,"n_per":57,"n_hog":18,"source_year":2024},"geometry":{"type":"Polygon","coordinates":[[[-71.9789751239999,-37.4059092010892],[-71.9791285179999,-37.4071675660892],[-71.9804200559999,-37.4070433260892],[-71.9802344839999,-37.4058152960893],[-71.9789751239999,-37.4059092010892]]]}},{"type":"Feature","properties":{"id":"8309041001032","commune":"Quilleco","code":"08309","gse":"D","quintil":"Q2","nse_score":684.4,"educ":9.9,"educ_score":460.0,"hacin":1.315,"hacin_class":"Hacinamiento Leve","hacin_score":784.1,"auto_score":87.0,"n_per":71,"n_hog":22,"source_year":2024},"geometry":{"type":"Polygon","coordinates":[[[-71.9775534119999,-37.4061017590893],[-71.977737982,-37.4072897170892],[-71.97896979,-37.4071797350892],[-71.9787839529999,-37.4059284320892],[-71.9775534119999,-37.4061017590893]]]}},{"type":"Feature","properties":{"id":"8309041001033","commune":"Quilleco","code":"08309","gse":"D","quintil":"Q1","nse_score":658.0,"educ":9.6,"educ_score":440.0,"hacin":1.267,"hacin_class":"Hacinamiento Leve","hacin_score":794.3,"auto_score":156.2,"n_per":38,"n_hog":16,"source_year":2024},"geometry":{"type":"Polygon","coordinates":[[[-71.9763536559999,-37.4073340170892],[-71.977582804,-37.4073054220892],[-71.9774680489999,-37.4061129170892],[-71.9762210309999,-37.4062103140893],[-71.9763536559999,-37.4073340170892]]]}},{"type":"Feature","properties":{"id":"8309041002001","commune":"Quilleco","code":"08309","gse":"E","quintil":"Q1","nse_score":633.6,"educ":9.9,"educ_score":460.0,"hacin":1.09,"hacin_class":"Hacinamiento Leve","hacin_score":831.9,"auto_score":205.9,"n_per":97,"n_hog":34,"source_year":2024},"geometry":{"type":"Polygon","coordinates":[[[-72.0108200169999,-37.3909101790894],[-72.0098677619999,-37.3912081660894],[-72.0099010659999,-37.3914427630894],[-72.0093312939999,-37.3919030880894],[-72.0084466439999,-37.3923438580894],[-72.0085450679999,-37.3924918150893],[-72.0072315459999,-37.3938400880893],[-72.0068583009999,-37.3940564270894],[-72.0059233819999,-37.3942003090893],[-72.0056314709999,-37.3948316540893],[-72.005954905,-37.3947368090893],[-72.0063670719999,-37.3948150270893],[-72.0074066379999,-37.3954399460893],[-72.0090625579999,-37.3933754250893],[-72.0087052069999,-37.3930744450894],[-72.0091972149999,-37.3923470340894],[-72.0104844379999,-37.3923488570894],[-72.0107308889999,-37.3914710110894],[-72.0109822279999,-37.3911258700894],[-72.0108200169999,-37.3909101790894]]]}},{"type":"Feature","properties":{"id":"8309041002002","commune":"Quilleco","code":"08309","gse":"D","quintil":"Q1","nse_score":639.8,"educ":10.5,"educ_score":500.0,"hacin":1.131,"hacin_class":"Hacinamiento Leve","hacin_score":823.2,"auto_score":0.0,"n_per":69,"n_hog":26,"source_year":2024},"geometry":{"type":"Polygon","coordinates":[[[-72.0101911889999,-37.3939992260894],[-72.0107048849999,-37.3942092200893],[-72.0114109939999,-37.3942285760893],[-72.0114965149999,-37.3919822510894],[-72.0110335689999,-37.3911618600894],[-72.0106363959999,-37.3919009130893],[-72.0101911889999,-37.3939992260894]]]}},{"type":"Feature","properties":{"id":"8309041002003","commune":"Quilleco","code":"08309","gse":"D","quintil":"Q1","nse_score":663.0,"educ":12.1,"educ_score":606.7,"hacin":1.353,"hacin_class":"Hacinamiento Leve","hacin_score":776.0,"auto_score":62.5,"n_per":23,"n_hog":7,"source_year":2024},"geometry":{"type":"Polygon","coordinates":[[[-72.0093459849999,-37.3922981440893],[-72.0087888439999,-37.3930124310894],[-72.0091058849999,-37.3933079360894],[-72.0093347159999,-37.3930208000893],[-72.0095277909999,-37.3923432790894],[-72.0093459849999,-37.3922981440893]]]}},{"type":"Feature","properties":{"id":"8309041002004","commune":"Quilleco","code":"08309","gse":"D","quintil":"Q1","nse_score":656.1,"educ":11.1,"educ_score":540.0,"hacin":1.238,"hacin_class":"Hacinamiento Leve","hacin_score":800.4,"auto_score":166.7,"n_per":104,"n_hog":31,"source_year":2024},"geometry":{"type":"Polygon","coordinates":[[[-72.0082760749999,-37.3944879660893],[-72.0093046719999,-37.3949660360893],[-72.0102341389999,-37.3937582260893],[-72.0104657569999,-37.3924087090894],[-72.0095853289999,-37.3923413370894],[-72.0093476509999,-37.3931004970893],[-72.0082760749999,-37.3944879660893]]]}},{"type":"Feature","properties":{"id":"8309041002005","commune":"Quilleco","code":"08309","gse":"D","quintil":"Q1","nse_score":656.4,"educ":9.8,"educ_score":453.3,"hacin":1.25,"hacin_class":"Hacinamiento Leve","hacin_score":797.9,"auto_score":71.4,"n_per":40,"n_hog":14,"source_year":2024},"geometry":{"type":"Polygon","coordinates":[[[-72.010125893,-37.3940481480894],[-72.0095283439999,-37.3948225470893],[-72.0103960779999,-37.3952492010894],[-72.0113542229999,-37.3952847260893],[-72.0114044999999,-37.3943133210893],[-72.0107229989999,-37.3942543620893],[-72.010125893,-37.3940481480894]]]}},{"type":"Feature","properties":{"id":"8309041002006","commune":"Quilleco","code":"08309","gse":"D","quintil":"Q1","nse_score":641.8,"educ":10.2,"educ_score":480.0,"hacin":0.902,"hacin_class":"Sin Hacinamiento","hacin_score":871.8,"auto_score":147.1,"n_per":37,"n_hog":14,"source_year":2024},"geometry":{"type":"Polygon","coordinates":[[[-72.0083901659999,-37.3960867400893],[-72.009238465,-37.3950423660893],[-72.0082389199999,-37.3945306020893],[-72.0074518689999,-37.3954993980893],[-72.0083901659999,-37.3960867400893]]]}},{"type":"Feature","properties":{"id":"8309041002007","commune":"Quilleco","code":"08309","gse":"E","quintil":"Q1","nse_score":633.2,"educ":10.5,"educ_score":500.0,"hacin":1.31,"hacin_class":"Hacinamiento Leve","hacin_score":785.0,"auto_score":174.4,"n_per":114,"n_hog":42,"source_year":2024},"geometry":{"type":"Polygon","coordinates":[[[-72.0056114219999,-37.3949094160894],[-72.004941776,-37.3961538930894],[-72.0032889269999,-37.3981689400893],[-72.0053184609999,-37.3989515160893],[-72.0057085049999,-37.3979802740893],[-72.0051641709999,-37.3977467630893],[-72.0057202959999,-37.3979464800893],[-72.0072922779999,-37.3954800750894],[-72.0064170329999,-37.3948696590893],[-72.0058419079999,-37.3947751040894],[-72.0056114219999,-37.3949094160894]]]}},{"type":"Feature","properties":{"id":"8309041002009","commune":"Quilleco","code":"08309","gse":"D","quintil":"Q2","nse_score":666.3,"educ":10.4,"educ_score":493.3,"hacin":1.0,"hacin_class":"Hacinamiento Leve","hacin_score":851.1,"auto_score":0.0,"n_per":61,"n_hog":21,"source_year":2024},"geometry":{"type":"Polygon","coordinates":[[[-72.0093061169999,-37.3951228320893],[-72.0085364939999,-37.3961423680893],[-72.009501972,-37.3966085190893],[-72.0112863149999,-37.3966528930893],[-72.0113285829999,-37.3956878270894],[-72.0103474069999,-37.3956411500894],[-72.0093061169999,-37.3951228320893]]]}},{"type":"Feature","properties":{"id":"8309041002010","commune":"Quilleco","code":"08309","gse":"D","quintil":"Q1","nse_score":644.4,"educ":10.3,"educ_score":486.7,"hacin":1.203,"hacin_class":"Hacinamiento Leve","hacin_score":807.8,"auto_score":296.3,"n_per":77,"n_hog":26,"source_year":2024},"geometry":{"type":"Polygon","coordinates":[[[-72.0083756179999,-37.3961337410893],[-72.0073210069999,-37.3955459780893],[-72.0061603269999,-37.3972604840893],[-72.0075985829999,-37.3977372380893],[-72.0083756179999,-37.3961337410893]]]}},{"type":"Feature","properties":{"id":"8309041002011","commune":"Quilleco","code":"08309","gse":"D","quintil":"Q2","nse_score":671.8,"educ":10.8,"educ_score":520.0,"hacin":1.207,"hacin_class":"Hacinamiento Leve","hacin_score":807.1,"auto_score":191.7,"n_per":181,"n_hog":60,"source_year":2024},"geometry":{"type":"Polygon","coordinates":[[[-72.007697333,-37.3998562030893],[-72.0091312499999,-37.4003466100893],[-72.0089974379999,-37.3994808820893],[-72.0090739529999,-37.3983442170893],[-72.0084936099999,-37.3982530430893],[-72.0090575119999,-37.3983149250893],[-72.0091208079999,-37.3980270000893],[-72.0095058799999,-37.3979981380893],[-72.0095809079999,-37.3967143100893],[-72.0084711019999,-37.3961633440893],[-72.008134245,-37.3966251390893],[-72.0069886919999,-37.3995431640893],[-72.0076558319999,-37.3998406030893],[-72.0080296419999,-37.3988699180893],[-72.007697333,-37.3998562030893]]]}},{"type":"Feature","properties":{"id":"8309041002012","commune":"Quilleco","code":"08309","gse":"D","quintil":"Q2","nse_score":685.1,"educ":11.4,"educ_score":560.0,"hacin":1.315,"hacin_class":"Hacinamiento Leve","hacin_score":784.0,"auto_score":92.6,"n_per":96,"n_hog":27,"source_year":2024},"geometry":{"type":"Polygon","coordinates":[[[-72.0112838849999,-37.3968344400893],[-72.0112029579999,-37.3967388830893],[-72.009634446,-37.3967076790893],[-72.0095719079999,-37.3979830100893],[-72.0101561999999,-37.3980930490893],[-72.0101286709999,-37.3989637460893],[-72.0111731779999,-37.3989750870893],[-72.0112838849999,-37.3968344400893]]]}},{"type":"Feature","properties":{"id":"8309041002013","commune":"Quilleco","code":"08309","gse":"D","quintil":"Q2","nse_score":670.1,"educ":10.5,"educ_score":500.0,"hacin":1.243,"hacin_class":"Hacinamiento Leve","hacin_score":799.4,"auto_score":318.2,"n_per":87,"n_hog":33,"source_year":2024},"geometry":{"type":"Polygon","coordinates":[[[-72.0061400699999,-37.3973116790893],[-72.0058431869999,-37.3977177910893],[-72.005391615,-37.3989506820893],[-72.0059997509999,-37.3992037840893],[-72.0061301969999,-37.3989469470893],[-72.0060467829999,-37.3992220560893],[-72.0069118029999,-37.3995422200893],[-72.0075706179999,-37.3978022900893],[-72.0061400699999,-37.3973116790893]]]}},{"type":"Feature","properties":{"id":"8309041002014","commune":"Quilleco","code":"08309","gse":"D","quintil":"Q1","nse_score":642.3,"educ":10.1,"educ_score":473.3,"hacin":1.278,"hacin_class":"Hacinamiento Leve","hacin_score":792.0,"auto_score":115.4,"n_per":46,"n_hog":11,"source_year":2024},"geometry":{"type":"Polygon","coordinates":[[[-72.0091615039999,-37.3980607910893],[-72.0091098199999,-37.3989225300893],[-72.0100415869999,-37.3989738930893],[-72.0100827509999,-37.3980950230893],[-72.0091615039999,-37.3980607910893]]]}},{"type":"Feature","properties":{"id":"8309041002015","commune":"Quilleco","code":"08309","gse":"E","quintil":"Q1","nse_score":620.6,"educ":10.7,"educ_score":513.3,"hacin":1.105,"hacin_class":"Hacinamiento Leve","hacin_score":828.7,"auto_score":222.2,"n_per":21,"n_hog":8,"source_year":2024},"geometry":{"type":"Polygon","coordinates":[[[-72.0044513389999,-37.3995453730893],[-72.0054897279999,-37.3990625510893],[-72.0039246279999,-37.3984861320893],[-72.0036065339999,-37.3993076040893],[-72.0038833409999,-37.3984707220893],[-72.0032295119999,-37.3982046040893],[-72.0029815639999,-37.3986561380893],[-72.0030831169999,-37.3995153890893],[-72.0044513389999,-37.3995453730893]]]}},{"type":"Feature","properties":{"id":"8309041002016","commune":"Quilleco","code":"08309","gse":"E","quintil":"Q1","nse_score":615.4,"educ":10.2,"educ_score":480.0,"hacin":1.5,"hacin_class":"Hacinamiento Medio","hacin_score":744.7,"auto_score":300.0,"n_per":15,"n_hog":5,"source_year":2024},"geometry":{"type":"Polygon","coordinates":[[[-72.0090539819999,-37.3990076750893],[-72.0090598469999,-37.3997989050893],[-72.0092350319999,-37.4004013410893],[-72.011373665,-37.4011527630893],[-72.0111351259999,-37.4004737020893],[-72.0111537739999,-37.3990652320893],[-72.0090539819999,-37.3990076750893]]]}},{"type":"Feature","properties":{"id":"8309041002017","commune":"Quilleco","code":"08309","gse":"D","quintil":"Q1","nse_score":660.3,"educ":11.2,"educ_score":546.7,"hacin":1.242,"hacin_class":"Hacinamiento Leve","hacin_score":799.6,"auto_score":254.2,"n_per":154,"n_hog":57,"source_year":2024},"geometry":{"type":"Polygon","coordinates":[[[-72.0045031849999,-37.3995465090893],[-72.0041188169999,-37.4005690280893],[-72.0050860929999,-37.4006576680893],[-72.0050300679999,-37.4020597190893],[-72.0052442779999,-37.4021853920893],[-72.0056959929999,-37.4035653090893],[-72.0062157319999,-37.4033974170893],[-72.0060511999999,-37.4028721070893],[-72.0062649289999,-37.4033786710892],[-72.0072415939999,-37.4030345610892],[-72.0069050819999,-37.4015675670893],[-72.0066711039999,-37.4014856670893],[-72.0055028169999,-37.4016653140893],[-72.0056366259999,-37.4009902900893],[-72.0057868909999,-37.4009087980893],[-72.0062199299999,-37.4008584610893],[-72.0058039319999,-37.4006906430893],[-72.0065942879999,-37.4008972710893],[-72.0072872939999,-37.4008215300893],[-72.0078273069999,-37.4008538690893],[-72.0066729679999,-37.4009352510893],[-72.0058901029999,-37.4009180780893],[-72.0056379979999,-37.4011236090893],[-72.005634933,-37.4015915160893],[-72.0067177569999,-37.4014468640893],[-72.0069456159999,-37.4015565990893],[-72.0073092039999,-37.4030412660893],[-72.0085490979999,-37.4026604000893],[-72.0085350429999,-37.4023284550892],[-72.0089116309999,-37.4015832190893],[-72.0098985319999,-37.4012381980893],[-72.0100631649999,-37.4006809080893],[-72.0094854469999,-37.4005277070893],[-72.0091564979999,-37.4013326970893],[-72.0094297949999,-37.4005156620893],[-72.0069026219999,-37.3996097640893],[-72.0063923739999,-37.4006140530892],[-72.0069908949999,-37.4007557780893],[-72.0063304259999,-37.4006400830893],[-72.0068621119999,-37.3995935990893],[-72.0065857199999,-37.3994831890893],[-72.0061506479999,-37.4004708470893],[-72.0065454019999,-37.3994669160893],[-72.0055974199999,-37.3991045220893],[-72.0054352929999,-37.3991967980893],[-72.0053167559999,-37.3995800090893],[-72.0053869309999,-37.3991955720893],[-72.0045031849999,-37.3995465090893]]]}},{"type":"Feature","properties":{"id":"8309041002018","commune":"Quilleco","code":"08309","gse":"C2","quintil":"Q4","nse_score":749.7,"educ":13.7,"educ_score":713.3,"hacin":1.25,"hacin_class":"Hacinamiento Leve","hacin_score":797.9,"auto_score":125.0,"n_per":10,"n_hog":4,"source_year":2024},"geometry":{"type":"Polygon","coordinates":[[[-72.0085919189999,-37.4026462410893],[-72.0115205819999,-37.4017359840892],[-72.0115697869999,-37.4015610360893],[-72.0114265819999,-37.4012502240893],[-72.0110773879999,-37.4011211190893],[-72.0105115729999,-37.4011512330893],[-72.0101336289999,-37.4014011310893],[-72.0104734149999,-37.4009907770893],[-72.0106963449999,-37.4009602880893],[-72.0101056859999,-37.4006940110893],[-72.0099379219999,-37.4012619020893],[-72.0089450429999,-37.4016112010893],[-72.0085800969999,-37.4023349450893],[-72.0085919189999,-37.4026462410893]]]}},{"type":"Feature","properties":{"id":"8309041002020","commune":"Quilleco","code":"08309","gse":"D","quintil":"Q2","nse_score":666.5,"educ":10.9,"educ_score":526.7,"hacin":1.32,"hacin_class":"Hacinamiento Leve","hacin_score":782.9,"auto_score":169.4,"n_per":169,"n_hog":60,"source_year":2024},"geometry":{"type":"Polygon","coordinates":[[[-72.0085460709999,-37.4027349680893],[-72.0067435079999,-37.4032878120892],[-72.0071771449999,-37.4044841080893],[-72.0067013579999,-37.4033012100893],[-72.0057373629999,-37.4036068230893],[-72.0060289269999,-37.4042561190893],[-72.005684674,-37.4036240190893],[-72.0012340309999,-37.4050595330892],[-71.9992299599999,-37.4054362850893],[-71.9993735829999,-37.4058473670892],[-71.9991447779999,-37.4054526630892],[-71.9981214829999,-37.4055931330893],[-71.9982872459999,-37.4063630130892],[-71.9980517059999,-37.4055985980892],[-71.9967670279999,-37.4057213720893],[-71.9968292109999,-37.4059972910892],[-71.9967183229999,-37.4057472950892],[-71.9962749929999,-37.4057645440893],[-71.9961110469999,-37.4064163420892],[-71.9962152499999,-37.4057684570893],[-71.9944981119999,-37.4059014910893],[-71.9944821659999,-37.4061556660893],[-71.9946264429999,-37.4063499330892],[-71.994592801,-37.4066063140892],[-71.9946018509999,-37.4063799620893],[-71.9944583739999,-37.4061657240892],[-71.9944570169999,-37.4059071180893],[-71.9932501039999,-37.4060010480893],[-71.9933091369999,-37.4084516400892],[-71.9960599969999,-37.4072147500892],[-71.996655416,-37.4071632730892],[-71.9975781389999,-37.4067939160892],[-71.998187072,-37.4067326130892],[-71.9996352309999,-37.4062872510892],[-72.0018674289999,-37.4061103310892],[-72.0041496299999,-37.4055623260892],[-72.0054300639999,-37.4054619090893],[-72.0074781779999,-37.4049284400893],[-72.0087930379999,-37.4050853300893],[-72.009538313,-37.4049670300893],[-72.0087653649999,-37.4047967080893],[-72.0095389869999,-37.4049072890893],[-72.0085460709999,-37.4027349680893]]]}},{"type":"Feature","properties":{"id":"8309041002021","commune":"Quilleco","code":"08309","gse":"D","quintil":"Q1","nse_score":662.5,"educ":11.4,"educ_score":560.0,"hacin":1.385,"hacin_class":"Hacinamiento Leve","hacin_score":769.2,"auto_score":153.8,"n_per":36,"n_hog":12,"source_year":2024},"geometry":{"type":"Polygon","coordinates":[[[-72.0116198509999,-37.4046777290893],[-72.0129593189999,-37.4048108750893],[-72.0131186709999,-37.4053796530893],[-72.0140560389999,-37.4051847920893],[-72.0137110679999,-37.4045369600892],[-72.0126462109999,-37.4031379090893],[-72.0119809869999,-37.4034580980893],[-72.0116198509999,-37.4046777290893]]]}},{"type":"Feature","properties":{"id":"8309041002022","commune":"Quilleco","code":"08309","gse":"E","quintil":"Q1","nse_score":635.0,"educ":10.0,"educ_score":466.7,"hacin":1.439,"hacin_class":"Hacinamiento Leve","hacin_score":757.7,"auto_score":131.6,"n_per":59,"n_hog":19,"source_year":2024},"geometry":{"type":"Polygon","coordinates":[[[-72.0119524259999,-37.4047588920893],[-72.0112106099999,-37.4048487310893],[-72.0113790439999,-37.4066488900892],[-72.0116798769999,-37.4066016390892],[-72.0120151949999,-37.4063223740893],[-72.0119524259999,-37.4047588920893]]]}},{"type":"Feature","properties":{"id":"8309041002023","commune":"Quilleco","code":"08309","gse":"D","quintil":"Q1","nse_score":655.2,"educ":10.0,"educ_score":466.7,"hacin":1.22,"hacin_class":"Hacinamiento Leve","hacin_score":804.3,"auto_score":113.6,"n_per":61,"n_hog":21,"source_year":2024},"geometry":{"type":"Polygon","coordinates":[[[-72.0129680649999,-37.4048775070892],[-72.0120103129999,-37.4047502790892],[-72.0121011459999,-37.4062786430893],[-72.0130179609999,-37.4055998160893],[-72.0129680649999,-37.4048775070892]]]}},{"type":"Feature","properties":{"id":"8309041002024","commune":"Quilleco","code":"08309","gse":"E","quintil":"Q1","nse_score":633.4,"educ":10.3,"educ_score":486.7,"hacin":1.6,"hacin_class":"Hacinamiento Medio","hacin_score":723.4,"auto_score":152.2,"n_per":64,"n_hog":22,"source_year":2024},"geometry":{"type":"Polygon","coordinates":[[[-72.0104797259999,-37.4048961200892],[-72.0105215329999,-37.4067216530892],[-72.0112243519999,-37.4066693590892],[-72.0111558019999,-37.4048480390892],[-72.0104797259999,-37.4048961200892]]]}},{"type":"Feature","properties":{"id":"8309041002025","commune":"Quilleco","code":"08309","gse":"E","quintil":"Q1","nse_score":632.9,"educ":9.1,"educ_score":406.7,"hacin":1.189,"hacin_class":"Hacinamiento Leve","hacin_score":810.9,"auto_score":115.4,"n_per":63,"n_hog":26,"source_year":2024},"geometry":{"type":"Polygon","coordinates":[[[-72.0097794269999,-37.4068279900892],[-72.0104359589999,-37.4067306990892],[-72.0103299149999,-37.4049181350893],[-72.0096161999999,-37.4050392910892],[-72.0097794269999,-37.4068279900892]]]}},{"type":"Feature","properties":{"id":"8309041002026","commune":"Quilleco","code":"08309","gse":"C3","quintil":"Q2","nse_score":693.3,"educ":11.3,"educ_score":553.3,"hacin":1.17,"hacin_class":"Hacinamiento Leve","hacin_score":814.9,"auto_score":237.5,"n_per":117,"n_hog":39,"source_year":2024},"geometry":{"type":"Polygon","coordinates":[[[-72.0107825739999,-37.4083123260892],[-72.0113383279999,-37.4080371090892],[-72.0129296469999,-37.4067654180893],[-72.0143412819999,-37.4058585720892],[-72.0141186819999,-37.4052906850893],[-72.0130969349999,-37.4054452290893],[-72.0130511019999,-37.4056553760892],[-72.0116889619999,-37.4066688490892],[-72.0105941479999,-37.4068000480892],[-72.0107825739999,-37.4083123260892]]]}},{"type":"Feature","properties":{"id":"8309041002027","commune":"Quilleco","code":"08309","gse":"D","quintil":"Q2","nse_score":676.3,"educ":11.5,"educ_score":566.7,"hacin":1.35,"hacin_class":"Hacinamiento Leve","hacin_score":776.6,"auto_score":166.7,"n_per":54,"n_hog":16,"source_year":2024},"geometry":{"type":"Polygon","coordinates":[[[-72.0143889249999,-37.4058789010892],[-72.0121488389999,-37.4074527700893],[-72.0128528109999,-37.4070052800893],[-72.0131819309999,-37.4074234140892],[-72.0137900999999,-37.4073350350892],[-72.0139107669999,-37.4075788770892],[-72.0151269289999,-37.4074893330892],[-72.0143889249999,-37.4058789010892]]]}},{"type":"Feature","properties":{"id":"8309041002028","commune":"Quilleco","code":"08309","gse":"C3","quintil":"Q3","nse_score":709.3,"educ":11.8,"educ_score":586.7,"hacin":1.286,"hacin_class":"Hacinamiento Leve","hacin_score":790.3,"auto_score":250.0,"n_per":18,"n_hog":7,"source_year":2024},"geometry":{"type":"Polygon","coordinates":[[[-72.0107187799999,-37.4083312270892],[-72.0105513359999,-37.4068216390892],[-72.0097286399999,-37.4069017300892],[-72.0098742839999,-37.4084779380892],[-72.0107187799999,-37.4083312270892]]]}},{"type":"Feature","properties":{"id":"8309041002029","commune":"Quilleco","code":"08309","gse":"C3","quintil":"Q3","nse_score":712.1,"educ":11.7,"educ_score":580.0,"hacin":1.133,"hacin_class":"Hacinamiento Leve","hacin_score":822.7,"auto_score":250.0,"n_per":17,"n_hog":6,"source_year":2024},"geometry":{"type":"Polygon","coordinates":[[[-72.0097220069999,-37.4079617330892],[-72.0096577319999,-37.4077053860892],[-72.008637845,-37.4079546280892],[-72.0087653849999,-37.4081849090892],[-72.0097220069999,-37.4079617330892]]]}},{"type":"Feature","properties":{"id":"8309041002030","commune":"Quilleco","code":"08309","gse":"C3","quintil":"Q3","nse_score":733.4,"educ":12.3,"educ_score":620.0,"hacin":1.312,"hacin_class":"Hacinamiento Leve","hacin_score":784.6,"auto_score":357.1,"n_per":42,"n_hog":14,"source_year":2024},"geometry":{"type":"Polygon","coordinates":[[[-72.0073398319999,-37.4081697870892],[-72.0076448499999,-37.4089538460892],[-72.0098449689999,-37.4085140420892],[-72.0097212059999,-37.4080301360892],[-72.0087461829999,-37.4082308970892],[-72.0086119809999,-37.4081378630892],[-72.0085963169999,-37.4079016470892],[-72.0073398319999,-37.4081697870892]]]}},{"type":"Feature","properties":{"id":"8309023054001","commune":"Quilleco","code":"08309","gse":"E","quintil":"Q1","nse_score":592.6,"educ":8.6,"educ_score":373.3,"hacin":1.636,"hacin_class":"Hacinamiento Medio","hacin_score":715.7,"auto_score":142.9,"n_per":18,"n_hog":7,"source_year":2024},"geometry":{"type":"Polygon","coordinates":[[[-71.9805160999999,-37.4536433640889],[-71.9806684159999,-37.4529491340888],[-71.9795796939999,-37.4529132920889],[-71.9790063119999,-37.4527320720888],[-71.9790353719999,-37.4534450920888],[-71.9795641949999,-37.4536122280888],[-71.9805160999999,-37.4536433640889]]]}},{"type":"Feature","properties":{"id":"8309023054002","commune":"Quilleco","code":"08309","gse":"D","quintil":"Q1","nse_score":637.5,"educ":9.4,"educ_score":426.7,"hacin":1.293,"hacin_class":"Hacinamiento Leve","hacin_score":788.7,"auto_score":116.3,"n_per":128,"n_hog":43,"source_year":2024},"geometry":{"type":"Polygon","coordinates":[[[-71.9807907639999,-37.4530984870888],[-71.9805576119999,-37.4535071950888],[-71.9806495349999,-37.4576497710888],[-71.9809768609999,-37.4578793520888],[-71.9809387199999,-37.4545547030888],[-71.9807907639999,-37.4530984870888]]]}},{"type":"Feature","properties":{"id":"8309023054003","commune":"Quilleco","code":"08309","gse":"C3","quintil":"Q3","nse_score":723.1,"educ":10.8,"educ_score":520.0,"hacin":1.435,"hacin_class":"Hacinamiento Leve","hacin_score":758.6,"auto_score":250.0,"n_per":33,"n_hog":8,"source_year":2024},"geometry":{"type":"Polygon","coordinates":[[[-71.9782541199999,-37.4540855030888],[-71.9783014659999,-37.4550882200888],[-71.9781148299999,-37.4553236300888],[-71.9794253749999,-37.4552920520888],[-71.9794127849999,-37.4544026760888],[-71.9794624479999,-37.4546954310888],[-71.9799805579999,-37.4546907680888],[-71.9799369199999,-37.4536604730889],[-71.9790369719999,-37.4534843480889],[-71.9790533249999,-37.4538855770888],[-71.9782541199999,-37.4540855030888]]]}},{"type":"Feature","properties":{"id":"8309023054004","commune":"Quilleco","code":"08309","gse":"D","quintil":"Q1","nse_score":645.6,"educ":10.0,"educ_score":466.7,"hacin":1.615,"hacin_class":"Hacinamiento Medio","hacin_score":720.1,"auto_score":178.6,"n_per":84,"n_hog":30,"source_year":2024},"geometry":{"type":"Polygon","coordinates":[[[-71.9799821949999,-37.4536619540888],[-71.980054305,-37.4552836130888],[-71.9805625739999,-37.4552749450888],[-71.9805170769999,-37.4536794500888],[-71.9799821949999,-37.4536619540888]]]}},{"type":"Feature","properties":{"id":"8309023054007","commune":"Quilleco","code":"08309","gse":"D","quintil":"Q1","nse_score":661.3,"educ":10.4,"educ_score":493.3,"hacin":1.125,"hacin_class":"Hacinamiento Leve","hacin_score":824.5,"auto_score":0.0,"n_per":18,"n_hog":6,"source_year":2024},"geometry":{"type":"Polygon","coordinates":[[[-71.9794627219999,-37.4547134410889],[-71.9794705569999,-37.4552914510888],[-71.980009117,-37.4552842960888],[-71.979981371,-37.4547087740888],[-71.9794627219999,-37.4547134410889]]]}},{"type":"Feature","properties":{"id":"8309023054008","commune":"Quilleco","code":"08309","gse":"E","quintil":"Q1","nse_score":634.1,"educ":9.2,"educ_score":413.3,"hacin":1.15,"hacin_class":"Hacinamiento Leve","hacin_score":819.1,"auto_score":76.9,"n_per":69,"n_hog":26,"source_year":2024},"geometry":{"type":"Polygon","coordinates":[[[-71.9800555579999,-37.4553196230888],[-71.9800891389999,-37.4568777490888],[-71.9806011519999,-37.4568625460888],[-71.9805635239999,-37.4553109610888],[-71.9800555579999,-37.4553196230888]]]}},{"type":"Feature","properties":{"id":"8309023054009","commune":"Quilleco","code":"08309","gse":"D","quintil":"Q1","nse_score":646.6,"educ":10.2,"educ_score":480.0,"hacin":1.516,"hacin_class":"Hacinamiento Medio","hacin_score":741.4,"auto_score":107.1,"n_per":97,"n_hog":29,"source_year":2024},"geometry":{"type":"Polygon","coordinates":[[[-71.9794710449999,-37.4553274730888],[-71.9794922959999,-37.4568954680888],[-71.9800439729999,-37.4568790900888],[-71.9800103789999,-37.4553203080888],[-71.9794710449999,-37.4553274730888]]]}},{"type":"Feature","properties":{"id":"8309023054010","commune":"Quilleco","code":"08309","gse":"C3","quintil":"Q2","nse_score":702.7,"educ":10.8,"educ_score":520.0,"hacin":1.409,"hacin_class":"Hacinamiento Leve","hacin_score":764.0,"auto_score":86.2,"n_per":93,"n_hog":31,"source_year":2024},"geometry":{"type":"Polygon","coordinates":[[[-71.9788510449999,-37.4553393030888],[-71.9789087469999,-37.4569127890888],[-71.9794471229999,-37.4568968090888],[-71.9794258639999,-37.4553280730888],[-71.9788510449999,-37.4553393030888]]]}},{"type":"Feature","properties":{"id":"8309023054011","commune":"Quilleco","code":"08309","gse":"D","quintil":"Q1","nse_score":661.8,"educ":10.1,"educ_score":473.3,"hacin":1.45,"hacin_class":"Hacinamiento Leve","hacin_score":755.2,"auto_score":106.6,"n_per":190,"n_hog":60,"source_year":2024},"geometry":{"type":"Polygon","coordinates":[[[-71.9782726449999,-37.4562261780888],[-71.9782348939999,-37.4553563250889],[-71.9780846619999,-37.4553605170888],[-71.9773519379999,-37.4563318620888],[-71.9781524569999,-37.4567416190888],[-71.9782864859999,-37.4571264910888],[-71.9783324709999,-37.4582123970888],[-71.9785054889999,-37.4583717860888],[-71.9792484619999,-37.4581166340888],[-71.9810781969999,-37.4582824740888],[-71.9809748009999,-37.4579185700888],[-71.9806069479999,-37.4576648210888],[-71.9806064809999,-37.4574137010888],[-71.9787223779999,-37.4573976130888],[-71.9806065579999,-37.4573776760888],[-71.9806020529999,-37.4568985680888],[-71.9788690629999,-37.4569425920888],[-71.9788058779999,-37.4553403890888],[-71.9782800649999,-37.4553550640888],[-71.9782726449999,-37.4562261780888]]]}},{"type":"Feature","properties":{"id":"8309023054005","commune":"Quilleco","code":"08309","gse":"C2","quintil":"Q4","nse_score":750.1,"educ":13.0,"educ_score":666.7,"hacin":1.5,"hacin_class":"Hacinamiento Medio","hacin_score":744.7,"auto_score":0.0,"n_per":15,"n_hog":5,"source_year":2024},"geometry":{"type":"MultiPolygon","coordinates":[[[[-71.9763660609999,-37.4553267800888],[-71.977758563,-37.4556993850888],[-71.9780295709999,-37.4553421330888],[-71.9766056999999,-37.4549410590888],[-71.9758942079999,-37.4541069240888],[-71.9756564829999,-37.4544211310888],[-71.9763660609999,-37.4553267800888]]],[[[-71.9759208019999,-37.4540717750888],[-71.9766396919999,-37.4549082310888],[-71.9780606909999,-37.4553040820888],[-71.9782429699999,-37.4550811930888],[-71.9781994959999,-37.4540991670888],[-71.9778737869999,-37.4541806460888],[-71.9778713739999,-37.4548591030888],[-71.9769492989999,-37.4544731640888],[-71.9760432769999,-37.4539098960888],[-71.9759208019999,-37.4540717750888]]]]}},{"type":"Feature","properties":{"id":"8309043031001","commune":"Quilleco","code":"08309","gse":"C3","quintil":"Q3","nse_score":713.2,"educ":11.2,"educ_score":546.7,"hacin":0.935,"hacin_class":"Sin Hacinamiento","hacin_score":864.9,"auto_score":100.0,"n_per":43,"n_hog":19,"source_year":2024},"geometry":{"type":"Polygon","coordinates":[[[-71.9632087119999,-37.4050456140893],[-71.9633150429999,-37.4055878500893],[-71.9637691569999,-37.4055325420893],[-71.963846697,-37.4057293890892],[-71.9647707979999,-37.4055694980892],[-71.9649303659999,-37.4064528130892],[-71.9651510749999,-37.4064628580892],[-71.9654171209999,-37.4068217540893],[-71.9655308529999,-37.4068093170892],[-71.9653430309999,-37.4057018770893],[-71.9670746939999,-37.4054921800893],[-71.9664543139999,-37.4043455820893],[-71.9635993999999,-37.4047463270892],[-71.9636451109999,-37.4049752380893],[-71.9632087119999,-37.4050456140893]]]}},{"type":"Feature","properties":{"id":"8309043031003","commune":"Quilleco","code":"08309","gse":"C2","quintil":"Q3","nse_score":744.6,"educ":11.1,"educ_score":540.0,"hacin":1.231,"hacin_class":"Hacinamiento Leve","hacin_score":802.0,"auto_score":220.0,"n_per":80,"n_hog":26,"source_year":2024},"geometry":{"type":"Polygon","coordinates":[[[-71.9662699429999,-37.4056593420892],[-71.9664545019999,-37.4067083070892],[-71.9668917659999,-37.4066604860893],[-71.9666604139999,-37.4055943660892],[-71.9662699429999,-37.4056593420892]]]}},{"type":"Feature","properties":{"id":"8309043031004","commune":"Quilleco","code":"08309","gse":"C3","quintil":"Q2","nse_score":697.0,"educ":11.0,"educ_score":533.3,"hacin":1.339,"hacin_class":"Hacinamiento Leve","hacin_score":779.0,"auto_score":196.4,"n_per":83,"n_hog":25,"source_year":2024},"geometry":{"type":"Polygon","coordinates":[[[-71.9657834849999,-37.4057186010892],[-71.9659990379999,-37.4067581170892],[-71.9664097629999,-37.4067132000892],[-71.9662220359999,-37.4056462230893],[-71.9657834849999,-37.4057186010892]]]}},{"type":"Feature","properties":{"id":"8309043031005","commune":"Quilleco","code":"08309","gse":"C3","quintil":"Q3","nse_score":720.3,"educ":11.0,"educ_score":533.3,"hacin":1.409,"hacin_class":"Hacinamiento Leve","hacin_score":764.0,"auto_score":138.9,"n_per":62,"n_hog":18,"source_year":2024},"geometry":{"type":"Polygon","coordinates":[[[-71.9654073519999,-37.4057468800892],[-71.9655979629999,-37.4068019780892],[-71.9659542809999,-37.4067630120892],[-71.96573466,-37.4057038750892],[-71.9654073519999,-37.4057468800892]]]}},{"type":"Feature","properties":{"id":"8309043031006","commune":"Quilleco","code":"08309","gse":"C3","quintil":"Q2","nse_score":695.6,"educ":11.0,"educ_score":533.3,"hacin":1.1,"hacin_class":"Hacinamiento Leve","hacin_score":829.8,"auto_score":166.7,"n_per":33,"n_hog":14,"source_year":2024},"geometry":{"type":"Polygon","coordinates":[[[-71.964940038,-37.4065063550892],[-71.9650890539999,-37.4073312400893],[-71.9667331659999,-37.4071596030893],[-71.9668445899999,-37.4073613870892],[-71.9679241199999,-37.4071716850892],[-71.967633857,-37.4066338640893],[-71.965585255,-37.4068579080893],[-71.9655874819999,-37.4069962900892],[-71.9651118599999,-37.4065088050892],[-71.964940038,-37.4065063550892]]]}}]}