{"type":"FeatureCollection","features":[{"type":"Feature","properties":{"id":"10210011001002","commune":"Quinchao","code":"10210","gse":"E","quintil":"Q1","nse_score":614.9,"educ":11.3,"educ_score":553.3,"hacin":1.632,"hacin_class":"Hacinamiento Medio","hacin_score":716.7,"auto_score":35.7,"n_per":31,"n_hog":11,"source_year":2024,"crime_score":0.0801,"crime_nivel":"Muy Bajo","crime_color":"#4caf50"},"geometry":{"type":"Polygon","coordinates":[[[-73.4995880509999,-42.4699015210602],[-73.5003613419999,-42.4689146840602],[-73.5009373779999,-42.4684818010602],[-73.5013916429999,-42.4683629150602],[-73.5016024619999,-42.4676883370602],[-73.5020795189999,-42.4672663270603],[-73.5020847839999,-42.4664836450602],[-73.5012953809999,-42.4672827010602],[-73.5005554459999,-42.4685347830602],[-73.4999290569999,-42.4689939660602],[-73.4995567129999,-42.4694500130602],[-73.4994711869999,-42.4698616070602],[-73.4995880509999,-42.4699015210602]]]}},{"type":"Feature","properties":{"id":"10210011001003","commune":"Quinchao","code":"10210","gse":"D","quintil":"Q2","nse_score":655.4,"educ":11.7,"educ_score":580.0,"hacin":1.5,"hacin_class":"Hacinamiento Medio","hacin_score":744.7,"auto_score":0.0,"n_per":15,"n_hog":5,"source_year":2024,"crime_score":0.0778,"crime_nivel":"Muy Bajo","crime_color":"#4caf50"},"geometry":{"type":"Polygon","coordinates":[[[-73.4993378709999,-42.4676005300602],[-73.4992471399999,-42.4674678800602],[-73.4977675999999,-42.4678463540602],[-73.4978298459999,-42.4679908080603],[-73.4993378709999,-42.4676005300602]]]}},{"type":"Feature","properties":{"id":"10210011001005","commune":"Quinchao","code":"10210","gse":"C1","quintil":"Q5","nse_score":808.1,"educ":14.3,"educ_score":753.3,"hacin":1.5,"hacin_class":"Hacinamiento Medio","hacin_score":744.7,"auto_score":83.3,"n_per":18,"n_hog":6,"source_year":2024,"crime_score":0.0715,"crime_nivel":"Muy Bajo","crime_color":"#4caf50"},"geometry":{"type":"Polygon","coordinates":[[[-73.496120544,-42.4683224250602],[-73.4961633349999,-42.4684192700602],[-73.4977840379999,-42.4680026630602],[-73.4977179759999,-42.4678607540603],[-73.496120544,-42.4683224250602]]]}},{"type":"Feature","properties":{"id":"10210011001006","commune":"Quinchao","code":"10210","gse":"C3","quintil":"Q2","nse_score":676.4,"educ":11.8,"educ_score":586.7,"hacin":1.279,"hacin_class":"Hacinamiento Leve","hacin_score":791.7,"auto_score":62.5,"n_per":55,"n_hog":20,"source_year":2024,"crime_score":0.0784,"crime_nivel":"Muy Bajo","crime_color":"#4caf50"},"geometry":{"type":"Polygon","coordinates":[[[-73.4962876479999,-42.4685076200602],[-73.4969079599999,-42.4697038320602],[-73.4983999599999,-42.4693758060603],[-73.4978157399999,-42.4680707500602],[-73.4962876479999,-42.4685076200602]]]}},{"type":"Feature","properties":{"id":"10210011001007","commune":"Quinchao","code":"10210","gse":"C2","quintil":"Q3","nse_score":715.0,"educ":12.5,"educ_score":633.3,"hacin":1.214,"hacin_class":"Hacinamiento Leve","hacin_score":805.5,"auto_score":0.0,"n_per":17,"n_hog":5,"source_year":2024,"crime_score":0.0754,"crime_nivel":"Muy Bajo","crime_color":"#4caf50"},"geometry":{"type":"Polygon","coordinates":[[[-73.4961168319999,-42.4684341070602],[-73.4960679629999,-42.4683270980602],[-73.4951787569999,-42.4684926630602],[-73.4952532739999,-42.4686575690603],[-73.4961168319999,-42.4684341070602]]]}},{"type":"Feature","properties":{"id":"10210011001008","commune":"Quinchao","code":"10210","gse":"D","quintil":"Q1","nse_score":627.8,"educ":9.5,"educ_score":433.3,"hacin":1.138,"hacin_class":"Hacinamiento Leve","hacin_score":821.7,"auto_score":200.0,"n_per":66,"n_hog":24,"source_year":2024,"crime_score":0.081,"crime_nivel":"Muy Bajo","crime_color":"#4caf50"},"geometry":{"type":"Polygon","coordinates":[[[-73.4993739029999,-42.4698311300602],[-73.4994557939999,-42.4692899010603],[-73.4982905829999,-42.4695165420602],[-73.4984224749999,-42.4700794300602],[-73.4989190479999,-42.4702737350602],[-73.4995564609999,-42.4708110420602],[-73.5001270919999,-42.4709746760602],[-73.5001031939999,-42.4711813490602],[-73.5002543779999,-42.4712797990602],[-73.5004449759999,-42.4711995480603],[-73.5007718839999,-42.4708464650602],[-73.5009142589999,-42.4703326110602],[-73.5002768259999,-42.4702217520602],[-73.5009221569999,-42.4702970770602],[-73.5013832129999,-42.4684004640603],[-73.5009665309999,-42.4685106560602],[-73.5003985729999,-42.4689378610602],[-73.4996867529999,-42.4699071410603],[-73.4993739029999,-42.4698311300602]]]}},{"type":"Feature","properties":{"id":"10210011001009","commune":"Quinchao","code":"10210","gse":"C2","quintil":"Q4","nse_score":775.9,"educ":14.0,"educ_score":733.3,"hacin":1.2,"hacin_class":"Hacinamiento Leve","hacin_score":808.5,"auto_score":200.0,"n_per":12,"n_hog":5,"source_year":2024,"crime_score":0.0726,"crime_nivel":"Muy Bajo","crime_color":"#4caf50"},"geometry":{"type":"Polygon","coordinates":[[[-73.4846790479999,-42.4701406270602],[-73.4856379459999,-42.4704004920602],[-73.4859180999999,-42.4706734980602],[-73.4864129019999,-42.4705965560602],[-73.4863962379999,-42.4702424270602],[-73.4864885009999,-42.4705837440602],[-73.4875206689999,-42.4705040430602],[-73.4876022329999,-42.4704007470602],[-73.4874526699999,-42.4698833530602],[-73.4875894389999,-42.4697650820602],[-73.4906294219999,-42.4690960740602],[-73.4905899849999,-42.4689789630602],[-73.4895244479999,-42.4692453470602],[-73.4865673139999,-42.4694878320602],[-73.4850059479999,-42.4698308610602],[-73.484958634,-42.4699905460603],[-73.4856860879999,-42.4700556020602],[-73.4861296579999,-42.4703158300602],[-73.4863484859999,-42.4706056290602],[-73.4861119159999,-42.4703572300602],[-73.4857156599999,-42.4702271160602],[-73.4846865769999,-42.4701088310602],[-73.4843872049999,-42.4696279040602],[-73.4840350449999,-42.4694851370602],[-73.4824741189999,-42.4692567080602],[-73.4818935299999,-42.4689902090602],[-73.4813890839999,-42.4685714230602],[-73.4806535419999,-42.4685027320602],[-73.4813058259999,-42.4686209800602],[-73.4821742339999,-42.4692477240602],[-73.483946596,-42.4697233780602],[-73.4846790479999,-42.4701406270602]]]}},{"type":"Feature","properties":{"id":"10210011001011","commune":"Quinchao","code":"10210","gse":"C3","quintil":"Q3","nse_score":705.3,"educ":13.0,"educ_score":666.7,"hacin":1.092,"hacin_class":"Hacinamiento Leve","hacin_score":831.5,"auto_score":81.1,"n_per":83,"n_hog":34,"source_year":2024,"crime_score":0.0783,"crime_nivel":"Muy Bajo","crime_color":"#4caf50"},"geometry":{"type":"Polygon","coordinates":[[[-73.4968133879999,-42.4697229150602],[-73.4961921149999,-42.4685457630602],[-73.4952579229999,-42.4687546780602],[-73.4957339069999,-42.4699453340602],[-73.4968133879999,-42.4697229150602]]]}},{"type":"Feature","properties":{"id":"10210011001012","commune":"Quinchao","code":"10210","gse":"C3","quintil":"Q2","nse_score":680.1,"educ":11.2,"educ_score":546.7,"hacin":1.185,"hacin_class":"Hacinamiento Leve","hacin_score":811.8,"auto_score":17.9,"n_per":77,"n_hog":29,"source_year":2024,"crime_score":0.0791,"crime_nivel":"Muy Bajo","crime_color":"#4caf50"},"geometry":{"type":"Polygon","coordinates":[[[-73.4806298279999,-42.4685352480603],[-73.4795602099999,-42.4700018190602],[-73.4819070659999,-42.4702256580602],[-73.4840531539999,-42.4709188550602],[-73.4839347369999,-42.4710245120602],[-73.4842582799999,-42.4712369710602],[-73.4852779109999,-42.4708128490602],[-73.4845297389999,-42.4702336110602],[-73.4853261389999,-42.4708006810603],[-73.4857761799999,-42.4705497660602],[-73.4844347239999,-42.4700426820602],[-73.4836758359999,-42.4700847680602],[-73.4843737859999,-42.4700015740602],[-73.4839271789999,-42.4697564440602],[-73.4824764689999,-42.4693894250602],[-73.4823354479999,-42.4695646310602],[-73.4824398759999,-42.4693737420602],[-73.4818963179999,-42.4690865260602],[-73.4818684229999,-42.4692883500602],[-73.4818707379999,-42.4690665520603],[-73.4814745619999,-42.4687457130602],[-73.4811956889999,-42.4690642780603],[-73.4814398429999,-42.4687096820602],[-73.4806298279999,-42.4685352480603]]]}},{"type":"Feature","properties":{"id":"10210011001013","commune":"Quinchao","code":"10210","gse":"E","quintil":"Q1","nse_score":486.2,"educ":7.3,"educ_score":286.7,"hacin":2.0,"hacin_class":"Hacinamiento Medio","hacin_score":638.3,"auto_score":0.0,"n_per":7,"n_hog":0,"source_year":2024,"crime_score":0.0846,"crime_nivel":"Muy Bajo","crime_color":"#4caf50"},"geometry":{"type":"Polygon","coordinates":[[[-73.4951576779999,-42.4687585960602],[-73.4941401319999,-42.4690392550602],[-73.4946005799999,-42.4701847540602],[-73.4956712659999,-42.4699780570602],[-73.4951576779999,-42.4687585960602]]]}},{"type":"Feature","properties":{"id":"10210011001016","commune":"Quinchao","code":"10210","gse":"C2","quintil":"Q4","nse_score":766.1,"educ":12.7,"educ_score":646.7,"hacin":0.654,"hacin_class":"Sin Hacinamiento","hacin_score":924.7,"auto_score":0.0,"n_per":17,"n_hog":9,"source_year":2024,"crime_score":0.0732,"crime_nivel":"Muy Bajo","crime_color":"#4caf50"},"geometry":{"type":"Polygon","coordinates":[[[-73.4925572579999,-42.4693572830603],[-73.4924100239999,-42.4689970500602],[-73.4908946569999,-42.4692004490602],[-73.4911838429999,-42.4697593820602],[-73.4925572579999,-42.4693572830603]]]}},{"type":"Feature","properties":{"id":"10210011001017","commune":"Quinchao","code":"10210","gse":"C3","quintil":"Q3","nse_score":692.2,"educ":13.6,"educ_score":706.7,"hacin":1.326,"hacin_class":"Hacinamiento Leve","hacin_score":781.7,"auto_score":156.2,"n_per":61,"n_hog":27,"source_year":2024,"crime_score":0.078,"crime_nivel":"Muy Bajo","crime_color":"#4caf50"},"geometry":{"type":"Polygon","coordinates":[[[-73.4931561089999,-42.4704890110602],[-73.4944897789999,-42.4702106340603],[-73.4940609779999,-42.4691065330602],[-73.4927132399999,-42.4694033560602],[-73.4931561089999,-42.4704890110602]]]}},{"type":"Feature","properties":{"id":"10210011001019","commune":"Quinchao","code":"10210","gse":"C3","quintil":"Q2","nse_score":669.6,"educ":11.8,"educ_score":586.7,"hacin":1.227,"hacin_class":"Hacinamiento Leve","hacin_score":802.7,"auto_score":88.2,"n_per":27,"n_hog":14,"source_year":2024,"crime_score":0.0777,"crime_nivel":"Muy Bajo","crime_color":"#4caf50"},"geometry":{"type":"Polygon","coordinates":[[[-73.4897942729999,-42.4701514220602],[-73.4895385069999,-42.4694276840602],[-73.4881280549999,-42.4697414330602],[-73.4883318589999,-42.4705865690602],[-73.4897942729999,-42.4701514220602]]]}},{"type":"Feature","properties":{"id":"10210011001020","commune":"Quinchao","code":"10210","gse":"C3","quintil":"Q2","nse_score":685.5,"educ":12.1,"educ_score":606.7,"hacin":1.128,"hacin_class":"Hacinamiento Leve","hacin_score":823.8,"auto_score":65.2,"n_per":44,"n_hog":19,"source_year":2024,"crime_score":0.0776,"crime_nivel":"Muy Bajo","crime_color":"#4caf50"},"geometry":{"type":"Polygon","coordinates":[[[-73.4930643719999,-42.4705147430603],[-73.4928052199999,-42.4698932990602],[-73.4923741419999,-42.4699524640603],[-73.4927898349999,-42.4698591240602],[-73.4925673669999,-42.4694317690602],[-73.4912074719999,-42.4698616400602],[-73.4916431789999,-42.4707797240603],[-73.4930643719999,-42.4705147430603]]]}},{"type":"Feature","properties":{"id":"10210011001021","commune":"Quinchao","code":"10210","gse":"C3","quintil":"Q2","nse_score":681.4,"educ":11.7,"educ_score":580.0,"hacin":0.989,"hacin_class":"Sin Hacinamiento","hacin_score":853.5,"auto_score":144.4,"n_per":86,"n_hog":40,"source_year":2024,"crime_score":0.0794,"crime_nivel":"Muy Bajo","crime_color":"#4caf50"},"geometry":{"type":"Polygon","coordinates":[[[-73.497975601,-42.4698020300602],[-73.4978661189999,-42.4696053190602],[-73.4974427879999,-42.4696953670602],[-73.4975423629999,-42.4699562700602],[-73.4973934759999,-42.4697058560603],[-73.4971115899999,-42.4697698430602],[-73.497386532,-42.4703257090602],[-73.4970741159999,-42.4697777420603],[-73.496779564,-42.4698398330602],[-73.4969498319999,-42.4703725900602],[-73.496736816,-42.4698488440602],[-73.4962696899999,-42.4699473120602],[-73.4963584089999,-42.4702813310603],[-73.4962240409999,-42.4699569340602],[-73.4945764819999,-42.4703277180603],[-73.4952490339999,-42.4716396430602],[-73.4960787229999,-42.4714171380602],[-73.4984944029999,-42.4701315370602],[-73.4982905829999,-42.4695165420602],[-73.4979117589999,-42.4695956110602],[-73.497975601,-42.4698020300602]]]}},{"type":"Feature","properties":{"id":"10210011001023","commune":"Quinchao","code":"10210","gse":"C2","quintil":"Q4","nse_score":772.8,"educ":11.9,"educ_score":593.3,"hacin":0.684,"hacin_class":"Sin Hacinamiento","hacin_score":918.3,"auto_score":100.0,"n_per":13,"n_hog":5,"source_year":2024,"crime_score":0.0728,"crime_nivel":"Muy Bajo","crime_color":"#4caf50"},"geometry":{"type":"Polygon","coordinates":[[[-73.4882124469999,-42.4706020050602],[-73.4880090799999,-42.4697360680602],[-73.4875887599999,-42.4697983730602],[-73.4877652989999,-42.4706344570602],[-73.4882124469999,-42.4706020050602]]]}},{"type":"Feature","properties":{"id":"10210011001024","commune":"Quinchao","code":"10210","gse":"C1","quintil":"Q5","nse_score":796.8,"educ":13.8,"educ_score":720.0,"hacin":0.721,"hacin_class":"Sin Hacinamiento","hacin_score":910.4,"auto_score":35.7,"n_per":31,"n_hog":14,"source_year":2024,"crime_score":0.0724,"crime_nivel":"Muy Bajo","crime_color":"#4caf50"},"geometry":{"type":"Polygon","coordinates":[[[-73.4902454649999,-42.4710628130602],[-73.4915555159999,-42.4708122720602],[-73.4911125619999,-42.4698789130602],[-73.4899278149999,-42.4702346670602],[-73.4902454649999,-42.4710628130602]]]}},{"type":"Feature","properties":{"id":"10210011001025","commune":"Quinchao","code":"10210","gse":"D","quintil":"Q1","nse_score":646.1,"educ":10.2,"educ_score":480.0,"hacin":1.271,"hacin_class":"Hacinamiento Leve","hacin_score":793.4,"auto_score":160.7,"n_per":136,"n_hog":53,"source_year":2024,"crime_score":0.0829,"crime_nivel":"Muy Bajo","crime_color":"#4caf50"},"geometry":{"type":"Polygon","coordinates":[[[-73.4984944029999,-42.4701315370602],[-73.4960787229999,-42.4714171380602],[-73.4952490339999,-42.4716396430602],[-73.4953263649999,-42.4717963820602],[-73.4965985139999,-42.4718953530602],[-73.4966947769999,-42.4714285720602],[-73.4976278859999,-42.4709053860602],[-73.4976888249999,-42.4718505590602],[-73.4983176979999,-42.4717820440602],[-73.498308387,-42.4707120180602],[-73.4984068559999,-42.4717648710602],[-73.4990795119999,-42.4716055320602],[-73.4990356599999,-42.4710241430602],[-73.4991256459999,-42.4715932780602],[-73.5002543779999,-42.4712797990602],[-73.5001031939999,-42.4711813490602],[-73.5001270919999,-42.4709746760602],[-73.4995564609999,-42.4708110420602],[-73.4989190479999,-42.4702737350602],[-73.4984944029999,-42.4701315370602]]]}},{"type":"Feature","properties":{"id":"10210011001026","commune":"Quinchao","code":"10210","gse":"C2","quintil":"Q4","nse_score":758.9,"educ":14.4,"educ_score":760.0,"hacin":1.094,"hacin_class":"Hacinamiento Leve","hacin_score":831.1,"auto_score":27.8,"n_per":35,"n_hog":17,"source_year":2024,"crime_score":0.0742,"crime_nivel":"Muy Bajo","crime_color":"#4caf50"},"geometry":{"type":"Polygon","coordinates":[[[-73.488460443,-42.4712775010602],[-73.4901528189999,-42.4710842720602],[-73.4898387729999,-42.4702658040602],[-73.4883938529999,-42.4706411480602],[-73.488460443,-42.4712775010602]]]}},{"type":"Feature","properties":{"id":"10210011001027","commune":"Quinchao","code":"10210","gse":"C3","quintil":"Q3","nse_score":707.4,"educ":11.5,"educ_score":566.7,"hacin":1.107,"hacin_class":"Hacinamiento Leve","hacin_score":828.3,"auto_score":129.0,"n_per":62,"n_hog":30,"source_year":2024,"crime_score":0.0774,"crime_nivel":"Muy Bajo","crime_color":"#4caf50"},"geometry":{"type":"Polygon","coordinates":[[[-73.4932399659999,-42.4705711420602],[-73.4937563359999,-42.4718879730602],[-73.4943696349999,-42.4718863620602],[-73.4942427729999,-42.4713013480602],[-73.4939558969999,-42.4713078350602],[-73.4945238939999,-42.4712079160602],[-73.4942754899999,-42.4712912590602],[-73.4943753489999,-42.4715525460602],[-73.4950579089999,-42.4713887330602],[-73.4944409149999,-42.4703265720602],[-73.4932399659999,-42.4705711420602]]]}},{"type":"Feature","properties":{"id":"10210011001028","commune":"Quinchao","code":"10210","gse":"C2","quintil":"Q4","nse_score":726.6,"educ":13.7,"educ_score":713.3,"hacin":1.323,"hacin_class":"Hacinamiento Leve","hacin_score":782.2,"auto_score":33.3,"n_per":45,"n_hog":14,"source_year":2024,"crime_score":0.0759,"crime_nivel":"Muy Bajo","crime_color":"#4caf50"},"geometry":{"type":"Polygon","coordinates":[[[-73.4800023609999,-42.4713079990602],[-73.4799266959999,-42.4716330770602],[-73.4786672539999,-42.4714745900602],[-73.4787541699999,-42.4729762990602],[-73.4791492479999,-42.4726455990602],[-73.48117715,-42.4717936450602],[-73.4829226359999,-42.4716927180602],[-73.4822964839999,-42.4709419750603],[-73.4818836729999,-42.4706389660602],[-73.4813848279999,-42.4704838650602],[-73.4794086369999,-42.4708677110602],[-73.479074625,-42.4710196040602],[-73.4786809119999,-42.4714397620602],[-73.4798863619999,-42.4715905600602],[-73.4799993859999,-42.4712723070602],[-73.4806061489999,-42.4714002040602],[-73.4800023609999,-42.4713079990602]]]}},{"type":"Feature","properties":{"id":"10210011001029","commune":"Quinchao","code":"10210","gse":"C2","quintil":"Q3","nse_score":720.6,"educ":12.3,"educ_score":620.0,"hacin":1.01,"hacin_class":"Hacinamiento Leve","hacin_score":848.8,"auto_score":64.1,"n_per":97,"n_hog":39,"source_year":2024,"crime_score":0.0781,"crime_nivel":"Muy Bajo","crime_color":"#4caf50"},"geometry":{"type":"Polygon","coordinates":[[[-73.4863893159999,-42.4706716620602],[-73.4872391619999,-42.4709971000602],[-73.4873005069999,-42.4711360180602],[-73.4870308959999,-42.4712115370602],[-73.4868677529999,-42.4716136840602],[-73.4861941649999,-42.4720335920602],[-73.4857092679999,-42.4726765180602],[-73.4856008539999,-42.4731894060602],[-73.4857816459999,-42.4732529150602],[-73.4858423929999,-42.4736750790602],[-73.4862169559999,-42.4735749870602],[-73.4866967329999,-42.4732360340603],[-73.4864722499999,-42.4719773270602],[-73.4867443439999,-42.4731980840602],[-73.4880479359999,-42.4723413300602],[-73.4876485069999,-42.4705855880602],[-73.4863893159999,-42.4706716620602]]]}},{"type":"Feature","properties":{"id":"10210011001030","commune":"Quinchao","code":"10210","gse":"C2","quintil":"Q3","nse_score":715.4,"educ":12.7,"educ_score":646.7,"hacin":1.24,"hacin_class":"Hacinamiento Leve","hacin_score":800.0,"auto_score":111.1,"n_per":31,"n_hog":16,"source_year":2024,"crime_score":0.0759,"crime_nivel":"Muy Bajo","crime_color":"#4caf50"},"geometry":{"type":"Polygon","coordinates":[[[-73.492232467,-42.4718733740602],[-73.4936035679999,-42.4718689190602],[-73.4930940759999,-42.4706139480602],[-73.4917172739999,-42.4708742820602],[-73.492232467,-42.4718733740602]]]}},{"type":"Feature","properties":{"id":"10210011001031","commune":"Quinchao","code":"10210","gse":"C2","quintil":"Q4","nse_score":745.7,"educ":13.2,"educ_score":680.0,"hacin":1.195,"hacin_class":"Hacinamiento Leve","hacin_score":809.6,"auto_score":179.5,"n_per":92,"n_hog":39,"source_year":2024,"crime_score":0.0768,"crime_nivel":"Muy Bajo","crime_color":"#4caf50"},"geometry":{"type":"Polygon","coordinates":[[[-73.4863096779999,-42.4710239890602],[-73.4865859739999,-42.4711007100602],[-73.4863251199999,-42.4711186860602],[-73.4863623319999,-42.4713626450602],[-73.4862119439999,-42.4706985720602],[-73.4859204989999,-42.4707456770602],[-73.4860266779999,-42.4711075400602],[-73.485610027,-42.4713737880602],[-73.4859808489999,-42.4711055760602],[-73.4858755899999,-42.4707540380602],[-73.4844295489999,-42.4712270080602],[-73.4839878139999,-42.4715260040602],[-73.4836331079999,-42.4722653710602],[-73.4840703089999,-42.4727872400602],[-73.4843383799999,-42.4726532710602],[-73.4845676299999,-42.4726143820603],[-73.4841013859999,-42.4728150750602],[-73.4846602259999,-42.4734341080602],[-73.4852605629999,-42.4736938330602],[-73.4858423929999,-42.4736750790602],[-73.4857816459999,-42.4732529150602],[-73.4856008539999,-42.4731894060602],[-73.4857092679999,-42.4726765180602],[-73.4861941649999,-42.4720335920602],[-73.4868677529999,-42.4716136840602],[-73.4870308959999,-42.4712115370602],[-73.4873005069999,-42.4711360180602],[-73.4872391619999,-42.4709971000602],[-73.4863893159999,-42.4706716620602],[-73.4862598619999,-42.4706908750602],[-73.4863096779999,-42.4710239890602]]]}},{"type":"Feature","properties":{"id":"10210011001033","commune":"Quinchao","code":"10210","gse":"C1","quintil":"Q5","nse_score":782.8,"educ":13.9,"educ_score":726.7,"hacin":0.8,"hacin_class":"Sin Hacinamiento","hacin_score":893.6,"auto_score":140.0,"n_per":48,"n_hog":24,"source_year":2024,"crime_score":0.0736,"crime_nivel":"Muy Bajo","crime_color":"#4caf50"},"geometry":{"type":"Polygon","coordinates":[[[-73.4907216989999,-42.4723441170602],[-73.4920705219999,-42.4718914170602],[-73.4915785979999,-42.4709032090602],[-73.4903067459999,-42.4711693530602],[-73.4907216989999,-42.4723441170602]]]}},{"type":"Feature","properties":{"id":"10210011001036","commune":"Quinchao","code":"10210","gse":"C2","quintil":"Q4","nse_score":767.5,"educ":13.1,"educ_score":673.3,"hacin":1.25,"hacin_class":"Hacinamiento Leve","hacin_score":797.9,"auto_score":117.6,"n_per":40,"n_hog":17,"source_year":2024,"crime_score":0.074,"crime_nivel":"Muy Bajo","crime_color":"#4caf50"},"geometry":{"type":"Polygon","coordinates":[[[-73.4906240699999,-42.4723529020602],[-73.4901937929999,-42.4711941520602],[-73.4894040269999,-42.4712850630602],[-73.4896119889999,-42.4724746160602],[-73.4901201469999,-42.4724987800602],[-73.4906240699999,-42.4723529020602]]]}},{"type":"Feature","properties":{"id":"10210011001037","commune":"Quinchao","code":"10210","gse":"D","quintil":"Q1","nse_score":624.6,"educ":9.5,"educ_score":433.3,"hacin":1.161,"hacin_class":"Hacinamiento Leve","hacin_score":816.7,"auto_score":156.2,"n_per":36,"n_hog":15,"source_year":2024,"crime_score":0.0799,"crime_nivel":"Muy Bajo","crime_color":"#4caf50"},"geometry":{"type":"Polygon","coordinates":[[[-73.4967130569999,-42.4718779670602],[-73.4974297029999,-42.4718815220602],[-73.4974203649999,-42.4714284760602],[-73.4971385239999,-42.4712128880602],[-73.4967423619999,-42.4714378370602],[-73.4967130569999,-42.4718779670602]]]}},{"type":"Feature","properties":{"id":"10210011001039","commune":"Quinchao","code":"10210","gse":"D","quintil":"Q1","nse_score":625.5,"educ":9.8,"educ_score":453.3,"hacin":1.297,"hacin_class":"Hacinamiento Leve","hacin_score":787.8,"auto_score":214.3,"n_per":192,"n_hog":74,"source_year":2024,"crime_score":0.086,"crime_nivel":"Muy Bajo","crime_color":"#4caf50"},"geometry":{"type":"Polygon","coordinates":[[[-73.4996114609999,-42.4727767730602],[-73.4995309779999,-42.4728668410602],[-73.4991080409999,-42.4729597110602],[-73.4990163599999,-42.4734345690602],[-73.4985629549999,-42.4734741430602],[-73.4983069769999,-42.4744085770602],[-73.4984892389999,-42.4734514330602],[-73.4989532519999,-42.4733834590602],[-73.4990353129999,-42.4729164810602],[-73.4995222729999,-42.4727694280602],[-73.4993681439999,-42.4716053790602],[-73.4977117079999,-42.4719436060602],[-73.497688046,-42.4728477030602],[-73.4970675109999,-42.4728351620602],[-73.4970411609999,-42.4732186790602],[-73.4971069789999,-42.4734689620602],[-73.4975129509999,-42.4739085320602],[-73.4976512509999,-42.4733214350602],[-73.4975546469999,-42.4739561970602],[-73.4978784549999,-42.4743204620602],[-73.4980997579999,-42.4733502290602],[-73.4979248559999,-42.4743964710602],[-73.4982006219999,-42.4746391990602],[-73.4987712679999,-42.4744547410602],[-73.4986053579999,-42.4746401700602],[-73.4981420329999,-42.4746982040602],[-73.4981494889999,-42.4748711890602],[-73.4992137609999,-42.4752806890602],[-73.4992423159999,-42.4750508780602],[-73.5004265979999,-42.4750519300602],[-73.5007266039999,-42.4749144290602],[-73.5009993759999,-42.4738350220602],[-73.5008916849999,-42.4722038960602],[-73.5006882289999,-42.4716185970602],[-73.5004205589999,-42.4713346670602],[-73.4994572889999,-42.4715816990602],[-73.4996114609999,-42.4727767730602]]]}},{"type":"Feature","properties":{"id":"10210011001040","commune":"Quinchao","code":"10210","gse":"C2","quintil":"Q4","nse_score":757.0,"educ":12.5,"educ_score":633.3,"hacin":1.182,"hacin_class":"Hacinamiento Leve","hacin_score":812.4,"auto_score":100.0,"n_per":13,"n_hog":5,"source_year":2024,"crime_score":0.0734,"crime_nivel":"Muy Bajo","crime_color":"#4caf50"},"geometry":{"type":"Polygon","coordinates":[[[-73.4952835849999,-42.4718647150602],[-73.4950859579999,-42.4714385980603],[-73.4943909589999,-42.4715932130602],[-73.4944150169999,-42.4718858590602],[-73.4952835849999,-42.4718647150602]]]}},{"type":"Feature","properties":{"id":"10210011001042","commune":"Quinchao","code":"10210","gse":"D","quintil":"Q2","nse_score":650.8,"educ":10.8,"educ_score":520.0,"hacin":1.305,"hacin_class":"Hacinamiento Leve","hacin_score":786.2,"auto_score":69.0,"n_per":77,"n_hog":29,"source_year":2024,"crime_score":0.0804,"crime_nivel":"Muy Bajo","crime_color":"#4caf50"},"geometry":{"type":"Polygon","coordinates":[[[-73.4788354219999,-42.4741175420602],[-73.4791174269999,-42.4765701640602],[-73.4790690899999,-42.4770097360602],[-73.4791941159999,-42.4770291150602],[-73.4796546509999,-42.4762896810602],[-73.4816736099999,-42.4741301040602],[-73.4803484169999,-42.4742076260602],[-73.4817047079999,-42.4740912310602],[-73.4823122079999,-42.4730770320602],[-73.4830176249999,-42.4727500610602],[-73.4834244509999,-42.4721905320602],[-73.4831560009999,-42.4719088040602],[-73.4828460009999,-42.4722151420602],[-73.4823371059999,-42.4723612460602],[-73.4828115079999,-42.4721874330602],[-73.4831183179999,-42.4718624170603],[-73.4830097609999,-42.4717463710602],[-73.4814880389999,-42.4717790510602],[-73.4807616139999,-42.4719733530602],[-73.4791816229999,-42.4726729610602],[-73.4787972809999,-42.4731250960602],[-73.4788319399999,-42.4740712360602],[-73.4790054469999,-42.4741756000602],[-73.4788354219999,-42.4741175420602]]]}},{"type":"Feature","properties":{"id":"10210011001043","commune":"Quinchao","code":"10210","gse":"C3","quintil":"Q3","nse_score":712.9,"educ":12.4,"educ_score":626.7,"hacin":1.15,"hacin_class":"Hacinamiento Leve","hacin_score":819.1,"auto_score":135.9,"n_per":245,"n_hog":98,"source_year":2024,"crime_score":0.084,"crime_nivel":"Muy Bajo","crime_color":"#4caf50"},"geometry":{"type":"Polygon","coordinates":[[[-73.4922059159999,-42.4719571620603],[-73.4927218149999,-42.4729576780602],[-73.4933868749999,-42.4726886900602],[-73.4932733729999,-42.4723438860602],[-73.4934282639999,-42.4726621240602],[-73.4937437019999,-42.4725081760602],[-73.4931142619999,-42.4728959530602],[-73.4927426259999,-42.4729968150602],[-73.4937080619999,-42.4741165720602],[-73.4950049839999,-42.4739164250602],[-73.4948442349999,-42.4736729550602],[-73.4950324129999,-42.4739121910602],[-73.4952310129999,-42.4738815410602],[-73.4946222879999,-42.4730777120602],[-73.4943181439999,-42.4731893910602],[-73.4938292399999,-42.4726713310602],[-73.4950859639999,-42.4729501940603],[-73.4954155929999,-42.4732815070602],[-73.4960936319999,-42.4730939170602],[-73.4963869849999,-42.4731562670602],[-73.4964209799999,-42.4733510890602],[-73.4956479959999,-42.4735715890602],[-73.4958318229999,-42.4737831600602],[-73.4969934409999,-42.4734141850603],[-73.4970097489999,-42.4719726060602],[-73.4946931669999,-42.4719550480602],[-73.4945795199999,-42.4725996100602],[-73.4946440139999,-42.4719555550602],[-73.4922059159999,-42.4719571620603]]]}},{"type":"Feature","properties":{"id":"10210011001044","commune":"Quinchao","code":"10210","gse":"D","quintil":"Q1","nse_score":632.5,"educ":9.9,"educ_score":460.0,"hacin":1.25,"hacin_class":"Hacinamiento Leve","hacin_score":797.9,"auto_score":45.5,"n_per":25,"n_hog":10,"source_year":2024,"crime_score":0.0792,"crime_nivel":"Muy Bajo","crime_color":"#4caf50"},"geometry":{"type":"Polygon","coordinates":[[[-73.4976150349999,-42.4727980180602],[-73.4976337419999,-42.4719489090602],[-73.4970829089999,-42.4719726880602],[-73.4970536909999,-42.4727770880602],[-73.4976150349999,-42.4727980180602]]]}},{"type":"Feature","properties":{"id":"10210011001045","commune":"Quinchao","code":"10210","gse":"C2","quintil":"Q4","nse_score":731.1,"educ":12.6,"educ_score":640.0,"hacin":0.69,"hacin_class":"Sin Hacinamiento","hacin_score":917.1,"auto_score":136.4,"n_per":20,"n_hog":10,"source_year":2024,"crime_score":0.0748,"crime_nivel":"Muy Bajo","crime_color":"#4caf50"},"geometry":{"type":"Polygon","coordinates":[[[-73.4918700459999,-42.4726247990602],[-73.4927389539999,-42.4732146680602],[-73.4921249659999,-42.4720037110603],[-73.4907891009999,-42.4724265390602],[-73.4918700459999,-42.4726247990602]]]}},{"type":"Feature","properties":{"id":"10210011001046","commune":"Quinchao","code":"10210","gse":"C3","quintil":"Q2","nse_score":678.9,"educ":10.7,"educ_score":513.3,"hacin":0.982,"hacin_class":"Sin Hacinamiento","hacin_score":854.9,"auto_score":292.7,"n_per":108,"n_hog":40,"source_year":2024,"crime_score":0.0804,"crime_nivel":"Muy Bajo","crime_color":"#4caf50"},"geometry":{"type":"Polygon","coordinates":[[[-73.4840223749999,-42.4747144480602],[-73.4841333269999,-42.4742626360602],[-73.4836845379999,-42.4743191500602],[-73.4841347119999,-42.4742259350602],[-73.4841332489999,-42.4739590030602],[-73.4835933959999,-42.4729081910602],[-73.4835048779999,-42.4723353840602],[-73.4830058339999,-42.4727973990602],[-73.4832797949999,-42.4731672960602],[-73.4829641579999,-42.4728160280602],[-73.4823512139999,-42.4730986430602],[-73.4821363809999,-42.4733710280602],[-73.4827368619999,-42.4734929860602],[-73.482113093,-42.4734043860602],[-73.4814970439999,-42.4744214780602],[-73.481675547,-42.4744798990602],[-73.4814667089999,-42.4744542540602],[-73.4811504219999,-42.4747788650602],[-73.4819002259999,-42.4749154560602],[-73.4811188709999,-42.4748112460602],[-73.4799869129999,-42.4760461440602],[-73.4811920569999,-42.4765400500602],[-73.4811553239999,-42.4766663050602],[-73.4835066929999,-42.4749788200602],[-73.4840052299999,-42.4747487370602],[-73.4833589399999,-42.4744521560602],[-73.4831976489999,-42.4745106270602],[-73.4832062759999,-42.4746950780603],[-73.483120831,-42.4746510430602],[-73.4831915819999,-42.4744423250602],[-73.4833678559999,-42.4744148640602],[-73.4840223749999,-42.4747144480602]]]}},{"type":"Feature","properties":{"id":"10210011001048","commune":"Quinchao","code":"10210","gse":"C3","quintil":"Q3","nse_score":713.8,"educ":12.1,"educ_score":606.7,"hacin":1.258,"hacin_class":"Hacinamiento Leve","hacin_score":796.3,"auto_score":241.9,"n_per":83,"n_hog":31,"source_year":2024,"crime_score":0.0779,"crime_nivel":"Muy Bajo","crime_color":"#4caf50"},"geometry":{"type":"Polygon","coordinates":[[[-73.4839486719999,-42.4749372780602],[-73.4840713249999,-42.4760186150602],[-73.4855644039999,-42.4761415760602],[-73.485625663,-42.4759444840602],[-73.4855018609999,-42.4758918960602],[-73.4856659969999,-42.4759211200602],[-73.4855189419999,-42.4763005470602],[-73.4859798049999,-42.4767762990602],[-73.4866747879999,-42.4763490690602],[-73.4872967769999,-42.4762555110602],[-73.4873356239999,-42.4759827970602],[-73.4867349009999,-42.4733674360602],[-73.4860790559999,-42.4737099300602],[-73.4861281259999,-42.4739300730602],[-73.4860309829999,-42.4737240720602],[-73.4857672919999,-42.4737780310602],[-73.485937696,-42.4740027290602],[-73.4860273619999,-42.4742901520602],[-73.4857158259999,-42.4737837480602],[-73.4855051399999,-42.4737681150602],[-73.4855473649999,-42.4740758530602],[-73.4854266609999,-42.4737671000602],[-73.4845807449999,-42.4734953510602],[-73.4847814459999,-42.4742129740602],[-73.4847520569999,-42.4744154910602],[-73.4844875629999,-42.4733852920602],[-73.4836991899999,-42.4724790790602],[-73.4836107239999,-42.4725037120602],[-73.4836397319999,-42.4728963760602],[-73.4841814199999,-42.4739536410602],[-73.4840770499999,-42.4747088020602],[-73.4843271039999,-42.4749654820602],[-73.4842063329999,-42.4749749650602],[-73.4840519539999,-42.4747589760602],[-73.4839486719999,-42.4749372780602]]]}},{"type":"Feature","properties":{"id":"10210011001050","commune":"Quinchao","code":"10210","gse":"C2","quintil":"Q3","nse_score":724.9,"educ":13.2,"educ_score":680.0,"hacin":1.038,"hacin_class":"Hacinamiento Leve","hacin_score":843.0,"auto_score":87.0,"n_per":55,"n_hog":22,"source_year":2024,"crime_score":0.0764,"crime_nivel":"Muy Bajo","crime_color":"#4caf50"},"geometry":{"type":"Polygon","coordinates":[[[-73.4914402279999,-42.4749574200602],[-73.4924666189999,-42.4750510230602],[-73.4939543409999,-42.4745332150602],[-73.4929397269999,-42.4734746590602],[-73.4919364639999,-42.4727368610602],[-73.4910934779999,-42.4725917360602],[-73.4912466059999,-42.4732540780602],[-73.4910400159999,-42.4725880780602],[-73.4906279659999,-42.4725784060602],[-73.4914402279999,-42.4749574200602]]]}},{"type":"Feature","properties":{"id":"10210011001053","commune":"Quinchao","code":"10210","gse":"D","quintil":"Q2","nse_score":661.4,"educ":11.9,"educ_score":593.3,"hacin":1.294,"hacin_class":"Hacinamiento Leve","hacin_score":788.5,"auto_score":145.8,"n_per":66,"n_hog":21,"source_year":2024,"crime_score":0.0795,"crime_nivel":"Muy Bajo","crime_color":"#4caf50"},"geometry":{"type":"Polygon","coordinates":[[[-73.4946051589999,-42.4729431180602],[-73.4952915559999,-42.4738721980602],[-73.4957419819999,-42.4737990930602],[-73.4950929809999,-42.4730099980602],[-73.4946051589999,-42.4729431180602]]]}},{"type":"Feature","properties":{"id":"10210011001054","commune":"Quinchao","code":"10210","gse":"C2","quintil":"Q4","nse_score":741.4,"educ":11.8,"educ_score":586.7,"hacin":0.804,"hacin_class":"Sin Hacinamiento","hacin_score":892.8,"auto_score":55.6,"n_per":41,"n_hog":18,"source_year":2024,"crime_score":0.0751,"crime_nivel":"Muy Bajo","crime_color":"#4caf50"},"geometry":{"type":"Polygon","coordinates":[[[-73.4881930019999,-42.4749791870602],[-73.488245935,-42.4748620210602],[-73.4874445169999,-42.4743671220602],[-73.4872156659999,-42.4729455990602],[-73.4867793239999,-42.4733417950602],[-73.4870752049999,-42.4746508390602],[-73.4874848269999,-42.4745879280602],[-73.4881930019999,-42.4749791870602]]]}},{"type":"Feature","properties":{"id":"10210011001056","commune":"Quinchao","code":"10210","gse":"E","quintil":"Q1","nse_score":608.0,"educ":8.7,"educ_score":380.0,"hacin":1.25,"hacin_class":"Hacinamiento Leve","hacin_score":797.9,"auto_score":125.0,"n_per":35,"n_hog":12,"source_year":2024,"crime_score":0.0806,"crime_nivel":"Muy Bajo","crime_color":"#4caf50"},"geometry":{"type":"Polygon","coordinates":[[[-73.4954414039999,-42.4733111330602],[-73.4956218379999,-42.4735386110602],[-73.4964009459999,-42.4732560910602],[-73.4960979299999,-42.4731260280603],[-73.4954414039999,-42.4733111330602]]]}},{"type":"Feature","properties":{"id":"10210011001057","commune":"Quinchao","code":"10210","gse":"D","quintil":"Q2","nse_score":658.4,"educ":10.5,"educ_score":500.0,"hacin":1.215,"hacin_class":"Hacinamiento Leve","hacin_score":805.3,"auto_score":121.8,"n_per":322,"n_hog":115,"source_year":2024,"crime_score":0.0887,"crime_nivel":"Muy Bajo","crime_color":"#4caf50"},"geometry":{"type":"Polygon","coordinates":[[[-73.4969279299999,-42.4740544040602],[-73.4963290289999,-42.4743762620602],[-73.4965058489999,-42.4745747790602],[-73.4971318319999,-42.4742862130602],[-73.4974821779999,-42.4746101020602],[-73.4972408779999,-42.4746846650602],[-73.4967620859999,-42.4744912630602],[-73.4965320829999,-42.4746051120602],[-73.4965773259999,-42.4750298450602],[-73.4964752219999,-42.4750272660602],[-73.4963817899999,-42.4745639410602],[-73.4961631909999,-42.4745647550602],[-73.4961378839999,-42.4748998980602],[-73.4961149389999,-42.4745585750602],[-73.4958207019999,-42.4745558450602],[-73.4957077699999,-42.4749058810602],[-73.4957554629999,-42.4745382520602],[-73.4963267689999,-42.4745197720602],[-73.4957795679999,-42.4738664190602],[-73.4949431299999,-42.4739995360602],[-73.4949795819999,-42.4743552730602],[-73.4948951689999,-42.4740069370602],[-73.4937526239999,-42.4741832620602],[-73.4941948049999,-42.4746908340602],[-73.4944224109999,-42.4745596750602],[-73.4942197139999,-42.4747221310602],[-73.4949716019999,-42.4758457000602],[-73.4965117319999,-42.4759864510602],[-73.4971622739999,-42.4761129790602],[-73.4974629469999,-42.4756364060602],[-73.4973332759999,-42.4760427730602],[-73.4971720329999,-42.4761504040602],[-73.4965154449999,-42.4760243430602],[-73.4964361259999,-42.4760792940602],[-73.4949480249999,-42.4758795590602],[-73.4949524609999,-42.4759215170602],[-73.4992499999999,-42.4764131770602],[-73.4992137609999,-42.4752806890602],[-73.4981494889999,-42.4748711890602],[-73.4981420329999,-42.4746982040602],[-73.4970366819999,-42.4735204490602],[-73.4966095749999,-42.4736644180602],[-73.4969279299999,-42.4740544040602]]]}},{"type":"Feature","properties":{"id":"10210011001058","commune":"Quinchao","code":"10210","gse":"E","quintil":"Q1","nse_score":616.4,"educ":10.1,"educ_score":473.3,"hacin":1.375,"hacin_class":"Hacinamiento Leve","hacin_score":771.3,"auto_score":130.4,"n_per":66,"n_hog":22,"source_year":2024,"crime_score":0.0815,"crime_nivel":"Muy Bajo","crime_color":"#4caf50"},"geometry":{"type":"Polygon","coordinates":[[[-73.4963117479999,-42.4743469160602],[-73.4968696779999,-42.4740913810602],[-73.4965584899999,-42.4736814370602],[-73.4962410549999,-42.4737597680602],[-73.4963864839999,-42.4739981400602],[-73.496193247,-42.4737715650602],[-73.4958981019999,-42.4738650620602],[-73.4963117479999,-42.4743469160602]]]}},{"type":"Feature","properties":{"id":"10210011001060","commune":"Quinchao","code":"10210","gse":"D","quintil":"Q2","nse_score":658.5,"educ":10.7,"educ_score":513.3,"hacin":1.268,"hacin_class":"Hacinamiento Leve","hacin_score":794.0,"auto_score":175.0,"n_per":52,"n_hog":20,"source_year":2024,"crime_score":0.0791,"crime_nivel":"Muy Bajo","crime_color":"#4caf50"},"geometry":{"type":"Polygon","coordinates":[[[-73.4949728939999,-42.4778892830602],[-73.4952364049999,-42.4778588400602],[-73.4951422529999,-42.4765888660602],[-73.49477472,-42.4757463510602],[-73.4939543409999,-42.4745332150602],[-73.4933430269999,-42.4747258350602],[-73.4936170899999,-42.4749143420602],[-73.4935957949999,-42.4757718460602],[-73.4939141659999,-42.4759897650602],[-73.4940702579999,-42.4768047990602],[-73.4934952019999,-42.4770377730602],[-73.4932291139999,-42.4773644940602],[-73.4934756629999,-42.4777028240602],[-73.4925577339999,-42.4788980360602],[-73.4925921669999,-42.4791057280602],[-73.4927688489999,-42.4793149820602],[-73.4931949979999,-42.4794350570602],[-73.4956840039999,-42.4793675820602],[-73.4957169349999,-42.4788865600602],[-73.4955705629999,-42.4789549180602],[-73.4955477439999,-42.4791271460602],[-73.4955238439999,-42.4789974910602],[-73.4955848359999,-42.4789058130602],[-73.4957222269999,-42.4788470960602],[-73.4933231809999,-42.4789232310602],[-73.4957054969999,-42.4787936210602],[-73.4952593739999,-42.4782727950602],[-73.4952364669999,-42.4778768560602],[-73.4949728939999,-42.4778892830602]]]}},{"type":"Feature","properties":{"id":"10210011001061","commune":"Quinchao","code":"10210","gse":"E","quintil":"Q1","nse_score":609.0,"educ":9.9,"educ_score":460.0,"hacin":1.475,"hacin_class":"Hacinamiento Leve","hacin_score":749.9,"auto_score":63.8,"n_per":149,"n_hog":46,"source_year":2024,"crime_score":0.0851,"crime_nivel":"Muy Bajo","crime_color":"#4caf50"},"geometry":{"type":"Polygon","coordinates":[[[-73.4870833239999,-42.4746863820602],[-73.4873910459999,-42.4761562580602],[-73.4873353549999,-42.4762834750602],[-73.4866967799999,-42.4763822970602],[-73.4859717829999,-42.4768279770602],[-73.4862511349999,-42.4772862150602],[-73.4885433159999,-42.4766532570602],[-73.4899902869999,-42.4770654870602],[-73.4901476599999,-42.4767743280602],[-73.4934652659999,-42.4771075640602],[-73.4940639959999,-42.4768279850602],[-73.4939141659999,-42.4759897650602],[-73.4935957949999,-42.4757718460602],[-73.4936170899999,-42.4749143420602],[-73.4933430269999,-42.4747258350602],[-73.4924666189999,-42.4750510230602],[-73.4909719739999,-42.4748311990602],[-73.4906696479999,-42.4750893200602],[-73.4892230359999,-42.4747462030602],[-73.4888141679999,-42.4748837770602],[-73.4883027639999,-42.4748255210602],[-73.4904444319999,-42.4753625680602],[-73.4906650589999,-42.4755430000602],[-73.4916726199999,-42.4756582440602],[-73.4917326429999,-42.4760661130602],[-73.4922556089999,-42.4761100070602],[-73.4920526029999,-42.4761707060602],[-73.4918736579999,-42.4768169430602],[-73.4903969369999,-42.4766588850602],[-73.4903699889999,-42.4765280080602],[-73.4900642859999,-42.4765138690602],[-73.4903772449999,-42.4764909910602],[-73.4905580629999,-42.4755447320602],[-73.4904206379999,-42.4754136930602],[-73.489792539,-42.4752950340602],[-73.4896377669999,-42.4757837080602],[-73.4897347009999,-42.4758369870602],[-73.4894888469999,-42.4759607450602],[-73.489599687,-42.4762834270602],[-73.4894768139999,-42.4765960140602],[-73.4894127009999,-42.4759504950602],[-73.4897219459999,-42.4752811100602],[-73.489045443,-42.4751274810602],[-73.4891035309999,-42.4753575250602],[-73.4889970839999,-42.4751145390602],[-73.488245935,-42.4748620210602],[-73.4881697119999,-42.4749109780602],[-73.4882588799999,-42.4750246890602],[-73.4881581039999,-42.4752490720602],[-73.4882080789999,-42.4750325100602],[-73.4874708219999,-42.4746241830602],[-73.4870833239999,-42.4746863820602]]]}},{"type":"Feature","properties":{"id":"10210011001062","commune":"Quinchao","code":"10210","gse":"E","quintil":"Q1","nse_score":563.0,"educ":8.8,"educ_score":386.7,"hacin":1.214,"hacin_class":"Hacinamiento Leve","hacin_score":805.5,"auto_score":41.7,"n_per":34,"n_hog":12,"source_year":2024,"crime_score":0.0825,"crime_nivel":"Muy Bajo","crime_color":"#4caf50"},"geometry":{"type":"Polygon","coordinates":[[[-73.4772761719999,-42.4757475300602],[-73.4771168609999,-42.4758824040602],[-73.4784662329999,-42.4767300420602],[-73.4789231909999,-42.4772567450602],[-73.4790197229999,-42.4765698390602],[-73.4784899929999,-42.4762965910602],[-73.4790141629999,-42.4765231380602],[-73.4789110119999,-42.4756851640602],[-73.478213895,-42.4754767760602],[-73.4779711019999,-42.4757751180602],[-73.477979591,-42.4759502320602],[-73.4779234659999,-42.4757649260602],[-73.4781682519999,-42.4754630100602],[-73.4778376189999,-42.4753281570602],[-73.4773885669999,-42.4757605580602],[-73.4777964779999,-42.4753086910602],[-73.4766636619999,-42.4746413440602],[-73.4762266559999,-42.4748894720602],[-73.4768715669999,-42.4752416230602],[-73.4767652969999,-42.4753530280602],[-73.4772761719999,-42.4757475300602]]]}},{"type":"Feature","properties":{"id":"10210011001064","commune":"Quinchao","code":"10210","gse":"E","quintil":"Q1","nse_score":602.0,"educ":8.7,"educ_score":380.0,"hacin":1.083,"hacin_class":"Hacinamiento Leve","hacin_score":833.3,"auto_score":134.6,"n_per":65,"n_hog":26,"source_year":2024,"crime_score":0.082,"crime_nivel":"Muy Bajo","crime_color":"#4caf50"},"geometry":{"type":"Polygon","coordinates":[[[-73.4916069159999,-42.4760236230602],[-73.4916307859999,-42.4757034060602],[-73.4906227279999,-42.4756201980602],[-73.4905882269999,-42.4759117520602],[-73.4916069159999,-42.4760236230602]]]}},{"type":"Feature","properties":{"id":"10210011001065","commune":"Quinchao","code":"10210","gse":"D","quintil":"Q2","nse_score":662.4,"educ":10.6,"educ_score":506.7,"hacin":1.408,"hacin_class":"Hacinamiento Leve","hacin_score":764.2,"auto_score":43.5,"n_per":69,"n_hog":23,"source_year":2024,"crime_score":0.0796,"crime_nivel":"Muy Bajo","crime_color":"#4caf50"},"geometry":{"type":"Polygon","coordinates":[[[-73.4915438369999,-42.4763765520602],[-73.4916129939999,-42.4760614520602],[-73.4905531949999,-42.4759726590602],[-73.4905192009999,-42.4762611330602],[-73.4915438369999,-42.4763765520602]]]}},{"type":"Feature","properties":{"id":"10210011001067","commune":"Quinchao","code":"10210","gse":"D","quintil":"Q1","nse_score":646.9,"educ":10.3,"educ_score":486.7,"hacin":1.222,"hacin_class":"Hacinamiento Leve","hacin_score":803.8,"auto_score":0.0,"n_per":22,"n_hog":9,"source_year":2024,"crime_score":0.0784,"crime_nivel":"Muy Bajo","crime_color":"#4caf50"},"geometry":{"type":"Polygon","coordinates":[[[-73.4919178889999,-42.4764417010602],[-73.491998512,-42.4761527910602],[-73.4917131289999,-42.4761130820602],[-73.4916566839999,-42.4763999970602],[-73.4919178889999,-42.4764417010602]]]}},{"type":"Feature","properties":{"id":"10210011001068","commune":"Quinchao","code":"10210","gse":"D","quintil":"Q2","nse_score":661.7,"educ":10.5,"educ_score":500.0,"hacin":1.292,"hacin_class":"Hacinamiento Leve","hacin_score":789.0,"auto_score":41.7,"n_per":62,"n_hog":24,"source_year":2024,"crime_score":0.0793,"crime_nivel":"Muy Bajo","crime_color":"#4caf50"},"geometry":{"type":"Polygon","coordinates":[[[-73.4904333669999,-42.4765800560602],[-73.491462796,-42.4767366720602],[-73.4915687929999,-42.4764370900602],[-73.4905135429999,-42.4762988490602],[-73.4904333669999,-42.4765800560602]]]}},{"type":"Feature","properties":{"id":"10210011001069","commune":"Quinchao","code":"10210","gse":"E","quintil":"Q1","nse_score":566.8,"educ":9.8,"educ_score":453.3,"hacin":1.833,"hacin_class":"Hacinamiento Medio","hacin_score":673.8,"auto_score":250.0,"n_per":22,"n_hog":5,"source_year":2024,"crime_score":0.0818,"crime_nivel":"Muy Bajo","crime_color":"#4caf50"},"geometry":{"type":"Polygon","coordinates":[[[-73.4919340469999,-42.4765560820602],[-73.4916541199999,-42.4764531610602],[-73.4915651739999,-42.4767491070602],[-73.4918798849999,-42.4767736130602],[-73.4919340469999,-42.4765560820602]]]}},{"type":"Feature","properties":{"id":"10210011001063","commune":"Quinchao","code":"10210","gse":"D","quintil":"Q2","nse_score":658.1,"educ":11.6,"educ_score":573.3,"hacin":1.154,"hacin_class":"Hacinamiento Leve","hacin_score":818.3,"auto_score":0.0,"n_per":15,"n_hog":5,"source_year":2024,"crime_score":0.0777,"crime_nivel":"Muy Bajo","crime_color":"#4caf50"},"geometry":{"type":"MultiPolygon","coordinates":[[[[-73.4793883529999,-42.4768454800602],[-73.4810221309999,-42.4778941870602],[-73.4811680739999,-42.4776227390602],[-73.4812315099999,-42.4774958680602],[-73.4810378869999,-42.4769964220602],[-73.4811473649999,-42.4765625920602],[-73.4799009819999,-42.4760957120602],[-73.4793883529999,-42.4768454800602]]],[[[-73.4835066929999,-42.4749788200602],[-73.4811553239999,-42.4766663050602],[-73.4811357129999,-42.4767353640602],[-73.4828047389999,-42.4761635490602],[-73.4840713249999,-42.4760186150602],[-73.4838583889999,-42.4750670570602],[-73.4839895609999,-42.4747800760602],[-73.4835066929999,-42.4749788200602]]]]}},{"type":"Feature","properties":{"id":"10210011001038","commune":"Quinchao","code":"10210","gse":"C2","quintil":"Q4","nse_score":729.2,"educ":12.5,"educ_score":633.3,"hacin":0.919,"hacin_class":"Sin Hacinamiento","hacin_score":868.3,"auto_score":76.9,"n_per":34,"n_hog":13,"source_year":2024,"crime_score":0.0754,"crime_nivel":"Muy Bajo","crime_color":"#4caf50"},"geometry":{"type":"MultiPolygon","coordinates":[[[[-73.4879448199999,-42.4725411590602],[-73.4879938059999,-42.4727954040602],[-73.4879040419999,-42.4725484140602],[-73.4872814729999,-42.4728983890602],[-73.4875424069999,-42.4743903490602],[-73.4883027639999,-42.4748255210602],[-73.4888141679999,-42.4748837770602],[-73.4892230359999,-42.4747462030602],[-73.4906696479999,-42.4750893200602],[-73.4909719739999,-42.4748311990602],[-73.4914402279999,-42.4749574200602],[-73.4906279659999,-42.4725784060602],[-73.4904030989999,-42.4725731280602],[-73.4904245369999,-42.4730657120602],[-73.4903556489999,-42.4725720140602],[-73.4879448199999,-42.4725411590602]]],[[[-73.4881863109999,-42.4724198500602],[-73.4895632539999,-42.4724764020602],[-73.489314626,-42.4712604870602],[-73.4879816439999,-42.4714175740602],[-73.4881863109999,-42.4724198500602]]]]}},{"type":"Feature","properties":{"id":"10210011001014","commune":"Quinchao","code":"10210","gse":"C3","quintil":"Q3","nse_score":710.1,"educ":13.9,"educ_score":726.7,"hacin":1.214,"hacin_class":"Hacinamiento Leve","hacin_score":805.5,"auto_score":0.0,"n_per":17,"n_hog":6,"source_year":2024,"crime_score":0.0756,"crime_nivel":"Muy Bajo","crime_color":"#4caf50"},"geometry":{"type":"MultiPolygon","coordinates":[[[[-73.4896566959999,-42.4693978820602],[-73.4898903289999,-42.4701380670602],[-73.4910614599999,-42.4697713890603],[-73.4907440809999,-42.4691046810602],[-73.4896566959999,-42.4693978820602]]],[[[-73.4907354759999,-42.4689838230602],[-73.4908904959999,-42.4691490830602],[-73.4924272099999,-42.4689587780602],[-73.4923540299999,-42.4687774510602],[-73.4920498399999,-42.4687722070602],[-73.4907354759999,-42.4689838230602]]]]}},{"type":"Feature","properties":{"id":"10210011001010","commune":"Quinchao","code":"10210","gse":"D","quintil":"Q2","nse_score":648.7,"educ":11.6,"educ_score":573.3,"hacin":1.278,"hacin_class":"Hacinamiento Leve","hacin_score":792.0,"auto_score":90.9,"n_per":23,"n_hog":9,"source_year":2024,"crime_score":0.0784,"crime_nivel":"Muy Bajo","crime_color":"#4caf50"},"geometry":{"type":"MultiPolygon","coordinates":[[[[-73.4936969769999,-42.4688270330602],[-73.4929126359999,-42.4689282040602],[-73.4925179439999,-42.4690177400602],[-73.4926481079999,-42.4693316550603],[-73.4939339679999,-42.4689989490603],[-73.4936969769999,-42.4688270330602]]],[[[-73.4939138079999,-42.4688838660602],[-73.4939612719999,-42.4689918840602],[-73.4951991659999,-42.4686717590603],[-73.4950799409999,-42.4685130120602],[-73.4940151529999,-42.4687330950602],[-73.4940641689999,-42.4688410470603],[-73.4939138079999,-42.4688838660602]]]]}},{"type":"Feature","properties":{"id":"10210011001035","commune":"Quinchao","code":"10210","gse":"C3","quintil":"Q2","nse_score":678.8,"educ":12.3,"educ_score":620.0,"hacin":1.385,"hacin_class":"Hacinamiento Leve","hacin_score":769.2,"auto_score":318.2,"n_per":36,"n_hog":11,"source_year":2024,"crime_score":0.0776,"crime_nivel":"Muy Bajo","crime_color":"#4caf50"},"geometry":{"type":"MultiPolygon","coordinates":[[[[-73.4760807529999,-42.4731140660602],[-73.4756820489999,-42.4740653550602],[-73.4769863849999,-42.4747749390602],[-73.4769752589999,-42.4746538780602],[-73.4767786579999,-42.4746032330602],[-73.4769716749999,-42.4746148760602],[-73.4769112199999,-42.4739570430602],[-73.4766602039999,-42.4739446250602],[-73.4769079169999,-42.4739210980602],[-73.4768910429999,-42.4735559730602],[-73.4760807529999,-42.4731140660602]]],[[[-73.4771824869999,-42.4710666590602],[-73.4772146049999,-42.4718994160602],[-73.47665681,-42.4717395880602],[-73.4760957079999,-42.4730783830602],[-73.476276245,-42.4731771980602],[-73.4764945889999,-42.4729620140603],[-73.476295751,-42.4731879750602],[-73.4769148309999,-42.4735243270602],[-73.4786404189999,-42.4728405510602],[-73.4785735169999,-42.4723343240602],[-73.4777348139999,-42.4720756060602],[-73.4785680459999,-42.4722942680602],[-73.4785187879999,-42.4717842690602],[-73.477607712,-42.4716599270603],[-73.4785014219999,-42.4717200510602],[-73.4786809229999,-42.4712495300603],[-73.4771824869999,-42.4710666590602]]]]}},{"type":"Feature","properties":{"id":"10210011001001","commune":"Quinchao","code":"10210","gse":"D","quintil":"Q2","nse_score":654.7,"educ":13.1,"educ_score":673.3,"hacin":1.312,"hacin_class":"Hacinamiento Leve","hacin_score":784.6,"auto_score":0.0,"n_per":21,"n_hog":8,"source_year":2024,"crime_score":0.0781,"crime_nivel":"Muy Bajo","crime_color":"#4caf50"},"geometry":{"type":"MultiPolygon","coordinates":[[[[-73.4978892309999,-42.4680522240603],[-73.498495294,-42.4693965710602],[-73.4995516039999,-42.4691492310603],[-73.499537857,-42.4686727100603],[-73.4994041729999,-42.4687476790602],[-73.4991704829999,-42.4687700050602],[-73.4995242729999,-42.4685890040603],[-73.4994363899999,-42.4680834740602],[-73.4992029539999,-42.4682121360602],[-73.4990415309999,-42.4682151850603],[-73.4994291679999,-42.4680442270602],[-73.4993339809999,-42.4676880160603],[-73.4978892309999,-42.4680522240603]]],[[[-73.5007809209999,-42.4666333320603],[-73.4992653199999,-42.4673004700602],[-73.4993103549999,-42.4674391550603],[-73.4996416539999,-42.4673322900602],[-73.500108156,-42.4672722640602],[-73.5000803179999,-42.4676021480602],[-73.5000042719999,-42.4673097340602],[-73.4993707399999,-42.4675220970602],[-73.4993882919999,-42.4676090730602],[-73.4996816049999,-42.4675567560603],[-73.4998165999999,-42.4676659890602],[-73.4993957019999,-42.4676447070602],[-73.4996044749999,-42.4687812860603],[-73.4996079929999,-42.4691786520602],[-73.4994015019999,-42.4697336600602],[-73.4994711869999,-42.4698616070602],[-73.4995567129999,-42.4694500130602],[-73.4999290569999,-42.4689939660602],[-73.5005554459999,-42.4685347830602],[-73.5012793789999,-42.4673042890602],[-73.5019897609999,-42.4666280300602],[-73.5026318659999,-42.4656704450602],[-73.5022826999999,-42.4654907520602],[-73.5007809209999,-42.4666333320603]]]]}},{"type":"Feature","properties":{"id":"10210011001022","commune":"Quinchao","code":"10210","gse":"C2","quintil":"Q4","nse_score":736.4,"educ":14.3,"educ_score":753.3,"hacin":1.133,"hacin_class":"Hacinamiento Leve","hacin_score":822.7,"auto_score":29.4,"n_per":34,"n_hog":15,"source_year":2024,"crime_score":0.0751,"crime_nivel":"Muy Bajo","crime_color":"#4caf50"},"geometry":{"type":"MultiPolygon","coordinates":[[[[-73.4831588529999,-42.4717271950602],[-73.4835914399999,-42.4721278480602],[-73.4838291759999,-42.4716176680602],[-73.4831588529999,-42.4717271950602]]],[[[-73.4756671329999,-42.4696420050602],[-73.4760503749999,-42.4710192400602],[-73.4760530399999,-42.4714917490602],[-73.4771888699999,-42.4718604790602],[-73.4771497159999,-42.4710271960602],[-73.4787105579999,-42.4712166520602],[-73.4793819819999,-42.4707984280603],[-73.4773993079999,-42.4702901490602],[-73.4794555509999,-42.4707780700602],[-73.4811421149999,-42.4704117100602],[-73.4815868119999,-42.4704409570602],[-73.482312868,-42.4708373760602],[-73.4831277939999,-42.4716946320602],[-73.4838219909999,-42.4715642000602],[-73.4842582799999,-42.4712369710602],[-73.4839347369999,-42.4710245120602],[-73.4840531539999,-42.4709188550602],[-73.4819070659999,-42.4702256580602],[-73.4756671329999,-42.4696420050602]]]]}}]}