{"type":"FeatureCollection","features":[{"type":"Feature","properties":{"id":"6114011001001","commune":"Quinta De Tilcoco","code":"06114","gse":"E","quintil":"Q1","nse_score":474.8,"educ":10.1,"educ_score":473.3,"hacin":1.667,"hacin_class":"Hacinamiento Medio","hacin_score":709.2,"auto_score":90.9,"n_per":25,"n_hog":11,"source_year":2024,"crime_score":0.0463,"crime_nivel":"Muy Bajo","crime_color":"#4caf50"},"geometry":{"type":"Polygon","coordinates":[[[-70.962001084,-34.3532255571205],[-70.9612946309999,-34.3522444481206],[-70.9608074799999,-34.3525849621205],[-70.9614929429999,-34.3533976321205],[-70.962001084,-34.3532255571205]]]}},{"type":"Feature","properties":{"id":"6114011001002","commune":"Quinta De Tilcoco","code":"06114","gse":"D","quintil":"Q2","nse_score":658.8,"educ":11.9,"educ_score":593.3,"hacin":1.373,"hacin_class":"Hacinamiento Leve","hacin_score":771.7,"auto_score":250.0,"n_per":81,"n_hog":30,"source_year":2024,"crime_score":0.0432,"crime_nivel":"Muy Bajo","crime_color":"#4caf50"},"geometry":{"type":"Polygon","coordinates":[[[-70.9570487029999,-34.3539803321205],[-70.9573237079999,-34.3541749461205],[-70.958476845,-34.3561955101205],[-70.9577990599999,-34.3564588171205],[-70.9595166459999,-34.3593842171205],[-70.9602171959999,-34.3600537401205],[-70.9610109799999,-34.3600725791205],[-70.9612661159999,-34.3602172611205],[-70.9633300839999,-34.3629657381205],[-70.9651443309999,-34.3657091711204],[-70.965278183,-34.3656567351204],[-70.9618836899999,-34.3608145291204],[-70.9617011859999,-34.3601308521205],[-70.9620072519999,-34.3594829811205],[-70.9660928959999,-34.3577258281205],[-70.9637657459999,-34.3553502121206],[-70.9620692549999,-34.3533002121206],[-70.9614702919999,-34.3534286511206],[-70.9608911599999,-34.3527937051206],[-70.9570487029999,-34.3539803321205]]]}},{"type":"Feature","properties":{"id":"6114011001003","commune":"Quinta De Tilcoco","code":"06114","gse":"C3","quintil":"Q2","nse_score":672.2,"educ":10.6,"educ_score":506.7,"hacin":1.437,"hacin_class":"Hacinamiento Leve","hacin_score":758.1,"auto_score":254.4,"n_per":171,"n_hog":58,"source_year":2024,"crime_score":0.0448,"crime_nivel":"Muy Bajo","crime_color":"#4caf50"},"geometry":{"type":"Polygon","coordinates":[[[-70.976381193,-34.3531678301206],[-70.9763495189999,-34.3536524341206],[-70.9763379429999,-34.3531501351206],[-70.9758561539999,-34.3532580871205],[-70.9758540809999,-34.3537579921205],[-70.9758075069999,-34.3532790701205],[-70.9753414879999,-34.3533873961206],[-70.9753800229999,-34.3548163311205],[-70.9757922289999,-34.3547262741205],[-70.9758029149999,-34.3540375161205],[-70.9757020869999,-34.3540215621206],[-70.9764980169999,-34.3538650781206],[-70.9763724189999,-34.3539331971205],[-70.9763733879999,-34.3545764131205],[-70.9768349679999,-34.3545195481205],[-70.976872984,-34.3530414111206],[-70.976381193,-34.3531678301206]]]}},{"type":"Feature","properties":{"id":"6114011001004","commune":"Quinta De Tilcoco","code":"06114","gse":"D","quintil":"Q2","nse_score":656.5,"educ":11.6,"educ_score":573.3,"hacin":1.44,"hacin_class":"Hacinamiento Leve","hacin_score":757.4,"auto_score":380.0,"n_per":72,"n_hog":29,"source_year":2024,"crime_score":0.0431,"crime_nivel":"Muy Bajo","crime_color":"#4caf50"},"geometry":{"type":"Polygon","coordinates":[[[-70.9712696669999,-34.3552902451205],[-70.9711583949999,-34.3536259791206],[-70.9698281639999,-34.3535195451205],[-70.9697171799999,-34.3556108031205],[-70.9712696669999,-34.3552902451205]]]}},{"type":"Feature","properties":{"id":"6114011001005","commune":"Quinta De Tilcoco","code":"06114","gse":"D","quintil":"Q2","nse_score":641.2,"educ":10.9,"educ_score":526.7,"hacin":1.849,"hacin_class":"Hacinamiento Medio","hacin_score":670.5,"auto_score":352.9,"n_per":61,"n_hog":22,"source_year":2024,"crime_score":0.0432,"crime_nivel":"Muy Bajo","crime_color":"#4caf50"},"geometry":{"type":"Polygon","coordinates":[[[-70.9724603479999,-34.3542977341205],[-70.972379842,-34.3537246841205],[-70.9712327219999,-34.3536430851205],[-70.9712742929999,-34.3542668941205],[-70.9724603479999,-34.3542977341205]]]}},{"type":"Feature","properties":{"id":"6114011001006","commune":"Quinta De Tilcoco","code":"06114","gse":"E","quintil":"Q1","nse_score":582.4,"educ":9.0,"educ_score":400.0,"hacin":1.516,"hacin_class":"Hacinamiento Medio","hacin_score":741.2,"auto_score":156.2,"n_per":47,"n_hog":17,"source_year":2024,"crime_score":0.0443,"crime_nivel":"Muy Bajo","crime_color":"#4caf50"},"geometry":{"type":"Polygon","coordinates":[[[-70.9731833849999,-34.3549965731205],[-70.9730499269999,-34.3538019731205],[-70.9724600769999,-34.3537387191205],[-70.9726076129999,-34.3550148721205],[-70.9731833849999,-34.3549965731205]]]}},{"type":"Feature","properties":{"id":"6114011001007","commune":"Quinta De Tilcoco","code":"06114","gse":"C2","quintil":"Q4","nse_score":738.6,"educ":12.0,"educ_score":600.0,"hacin":1.341,"hacin_class":"Hacinamiento Leve","hacin_score":778.5,"auto_score":300.0,"n_per":59,"n_hog":20,"source_year":2024,"crime_score":0.0409,"crime_nivel":"Muy Bajo","crime_color":"#4caf50"},"geometry":{"type":"Polygon","coordinates":[[[-70.9688398199999,-34.3547910261205],[-70.9696413599999,-34.3547014871206],[-70.9696657789999,-34.3537797931206],[-70.968700022,-34.3538433021205],[-70.9688398199999,-34.3547910261205]]]}},{"type":"Feature","properties":{"id":"6114011001008","commune":"Quinta De Tilcoco","code":"06114","gse":"D","quintil":"Q2","nse_score":647.4,"educ":10.5,"educ_score":500.0,"hacin":1.309,"hacin_class":"Hacinamiento Leve","hacin_score":785.4,"auto_score":220.6,"n_per":89,"n_hog":37,"source_year":2024,"crime_score":0.0436,"crime_nivel":"Muy Bajo","crime_color":"#4caf50"},"geometry":{"type":"Polygon","coordinates":[[[-70.9752964439999,-34.3539603071206],[-70.9739845849999,-34.3538449661205],[-70.9740242999999,-34.3544490581206],[-70.9739231439999,-34.3538396451205],[-70.9731086259999,-34.3537923711205],[-70.9732719589999,-34.3549813501205],[-70.9752785299999,-34.3548369031205],[-70.9752964439999,-34.3539603071206]]]}},{"type":"Feature","properties":{"id":"6114011001009","commune":"Quinta De Tilcoco","code":"06114","gse":"C3","quintil":"Q3","nse_score":694.4,"educ":11.1,"educ_score":540.0,"hacin":1.292,"hacin_class":"Hacinamiento Leve","hacin_score":789.0,"auto_score":291.7,"n_per":62,"n_hog":24,"source_year":2024,"crime_score":0.042,"crime_nivel":"Muy Bajo","crime_color":"#4caf50"},"geometry":{"type":"Polygon","coordinates":[[[-70.9674496079999,-34.3543206901206],[-70.9686536799999,-34.3542153991205],[-70.9686324349999,-34.3538695091205],[-70.9673937319999,-34.3539487581205],[-70.9674496079999,-34.3543206901206]]]}},{"type":"Feature","properties":{"id":"6114011001010","commune":"Quinta De Tilcoco","code":"06114","gse":"D","quintil":"Q2","nse_score":660.2,"educ":10.8,"educ_score":520.0,"hacin":1.571,"hacin_class":"Hacinamiento Medio","hacin_score":729.5,"auto_score":111.1,"n_per":22,"n_hog":9,"source_year":2024,"crime_score":0.042,"crime_nivel":"Muy Bajo","crime_color":"#4caf50"},"geometry":{"type":"Polygon","coordinates":[[[-70.9763034819999,-34.3546087391206],[-70.9763067649999,-34.3539336261206],[-70.9758379069999,-34.3540276641206],[-70.975856442,-34.3547107211205],[-70.9763034819999,-34.3546087391206]]]}},{"type":"Feature","properties":{"id":"6114011001011","commune":"Quinta De Tilcoco","code":"06114","gse":"C3","quintil":"Q3","nse_score":707.4,"educ":11.2,"educ_score":546.7,"hacin":1.259,"hacin_class":"Hacinamiento Leve","hacin_score":795.9,"auto_score":326.9,"n_per":68,"n_hog":26,"source_year":2024,"crime_score":0.0418,"crime_nivel":"Muy Bajo","crime_color":"#4caf50"},"geometry":{"type":"Polygon","coordinates":[[[-70.9673163169999,-34.3539669541205],[-70.9661015589999,-34.3540568051205],[-70.9661365669999,-34.3544478271205],[-70.9673400739999,-34.3543880011206],[-70.9673163169999,-34.3539669541205]]]}},{"type":"Feature","properties":{"id":"6114011001015","commune":"Quinta De Tilcoco","code":"06114","gse":"D","quintil":"Q2","nse_score":658.6,"educ":10.1,"educ_score":473.3,"hacin":1.172,"hacin_class":"Hacinamiento Leve","hacin_score":814.4,"auto_score":0.0,"n_per":34,"n_hog":16,"source_year":2024,"crime_score":0.0422,"crime_nivel":"Muy Bajo","crime_color":"#4caf50"},"geometry":{"type":"Polygon","coordinates":[[[-70.9679298749999,-34.3543142301205],[-70.9680097339999,-34.3548423021205],[-70.9687457349999,-34.3547813241205],[-70.9687010869999,-34.3546201071206],[-70.9683369859999,-34.3546197421206],[-70.9687210989999,-34.3545832681205],[-70.9686710069999,-34.3542357681206],[-70.9679298749999,-34.3543142301205]]]}},{"type":"Feature","properties":{"id":"6114011001016","commune":"Quinta De Tilcoco","code":"06114","gse":"E","quintil":"Q1","nse_score":576.5,"educ":8.1,"educ_score":340.0,"hacin":1.389,"hacin_class":"Hacinamiento Leve","hacin_score":768.3,"auto_score":200.0,"n_per":25,"n_hog":10,"source_year":2024,"crime_score":0.0439,"crime_nivel":"Muy Bajo","crime_color":"#4caf50"},"geometry":{"type":"Polygon","coordinates":[[[-70.9679486179999,-34.3548455521205],[-70.9678770959999,-34.3543027261206],[-70.9674449059999,-34.3543427661205],[-70.9675125699999,-34.3548608451205],[-70.9679486179999,-34.3548455521205]]]}},{"type":"Feature","properties":{"id":"6114011001017","commune":"Quinta De Tilcoco","code":"06114","gse":"D","quintil":"Q1","nse_score":630.5,"educ":9.0,"educ_score":400.0,"hacin":1.154,"hacin_class":"Hacinamiento Leve","hacin_score":818.3,"auto_score":250.0,"n_per":30,"n_hog":13,"source_year":2024,"crime_score":0.0428,"crime_nivel":"Muy Bajo","crime_color":"#4caf50"},"geometry":{"type":"Polygon","coordinates":[[[-70.9725497049999,-34.3550304121206],[-70.9724812899999,-34.3543285031205],[-70.9718972579999,-34.3543792111205],[-70.9720002309999,-34.3550946291205],[-70.9725497049999,-34.3550304121206]]]}},{"type":"Feature","properties":{"id":"6114011001018","commune":"Quinta De Tilcoco","code":"06114","gse":"D","quintil":"Q2","nse_score":643.2,"educ":9.8,"educ_score":453.3,"hacin":1.419,"hacin_class":"Hacinamiento Leve","hacin_score":761.8,"auto_score":244.4,"n_per":132,"n_hog":45,"source_year":2024,"crime_score":0.0446,"crime_nivel":"Muy Bajo","crime_color":"#4caf50"},"geometry":{"type":"Polygon","coordinates":[[[-70.9696854669999,-34.3557148931205],[-70.9695850889999,-34.3565981491205],[-70.9724310649999,-34.3559864231205],[-70.9748736069999,-34.3558337361205],[-70.9769552679999,-34.3554466791206],[-70.9804069189999,-34.3553987301205],[-70.9822472089999,-34.3552487921205],[-70.9818257729999,-34.3544135581205],[-70.976907562,-34.3545785151206],[-70.9751291529999,-34.3549295691205],[-70.9721909199999,-34.3551409661206],[-70.9696854669999,-34.3557148931205]]]}},{"type":"Feature","properties":{"id":"6114011001020","commune":"Quinta De Tilcoco","code":"06114","gse":"D","quintil":"Q1","nse_score":619.7,"educ":8.7,"educ_score":380.0,"hacin":1.233,"hacin_class":"Hacinamiento Leve","hacin_score":801.4,"auto_score":227.3,"n_per":37,"n_hog":12,"source_year":2024,"crime_score":0.0432,"crime_nivel":"Muy Bajo","crime_color":"#4caf50"},"geometry":{"type":"Polygon","coordinates":[[[-70.9718710059999,-34.3544559131205],[-70.9712893099999,-34.3544903501205],[-70.9713766159999,-34.3552658011205],[-70.97196177,-34.3551095851205],[-70.9718710059999,-34.3544559131205]]]}},{"type":"Feature","properties":{"id":"6114011001021","commune":"Quinta De Tilcoco","code":"06114","gse":"D","quintil":"Q1","nse_score":623.4,"educ":11.2,"educ_score":546.7,"hacin":1.256,"hacin_class":"Hacinamiento Leve","hacin_score":796.5,"auto_score":257.1,"n_per":196,"n_hog":72,"source_year":2024,"crime_score":0.0465,"crime_nivel":"Muy Bajo","crime_color":"#4caf50"},"geometry":{"type":"Polygon","coordinates":[[[-70.9636565269999,-34.3550491021205],[-70.9648380769999,-34.3563349081205],[-70.9656469279999,-34.3561106631205],[-70.9695945459999,-34.3556665151205],[-70.9696656479999,-34.3548773561205],[-70.9636565269999,-34.3550491021205]]]}},{"type":"Feature","properties":{"id":"6114011001023","commune":"Quinta De Tilcoco","code":"06114","gse":"D","quintil":"Q2","nse_score":642.9,"educ":11.1,"educ_score":540.0,"hacin":1.322,"hacin_class":"Hacinamiento Leve","hacin_score":782.6,"auto_score":313.7,"n_per":152,"n_hog":53,"source_year":2024,"crime_score":0.0451,"crime_nivel":"Muy Bajo","crime_color":"#4caf50"},"geometry":{"type":"Polygon","coordinates":[[[-70.9653077479999,-34.3656451531204],[-70.9709188909999,-34.3632896831204],[-70.9698209299999,-34.3619991751204],[-70.9693107759999,-34.3622402811204],[-70.9697700749999,-34.3619678951205],[-70.9696651679999,-34.3617640991204],[-70.9686117679999,-34.3603345441205],[-70.9680361949999,-34.3606280001205],[-70.9685811339999,-34.3602938311204],[-70.9679284729999,-34.3595875221204],[-70.9674728789999,-34.3598600221205],[-70.967887275,-34.3595413891205],[-70.9661392829999,-34.3577707961205],[-70.9621540289999,-34.3594363571205],[-70.9619027259999,-34.3596350521205],[-70.9617338409999,-34.3601324921205],[-70.9619123079999,-34.3608015371205],[-70.9653077479999,-34.3656451531204]]]}},{"type":"Feature","properties":{"id":"6114011001027","commune":"Quinta De Tilcoco","code":"06114","gse":"D","quintil":"Q2","nse_score":638.8,"educ":10.5,"educ_score":500.0,"hacin":1.314,"hacin_class":"Hacinamiento Leve","hacin_score":784.2,"auto_score":214.3,"n_per":138,"n_hog":58,"source_year":2024,"crime_score":0.0449,"crime_nivel":"Muy Bajo","crime_color":"#4caf50"},"geometry":{"type":"Polygon","coordinates":[[[-70.9708309619999,-34.3598247021204],[-70.9689175419999,-34.3606244621205],[-70.9700122159999,-34.3621446871205],[-70.9717579699999,-34.3640721421204],[-70.9727600369999,-34.3654596681204],[-70.9742066609999,-34.3655136961204],[-70.9745130679999,-34.3653702591204],[-70.9745523359999,-34.3650049111204],[-70.9760134999999,-34.3647755681204],[-70.9789052369999,-34.3645659971204],[-70.9800707109999,-34.3646034471204],[-70.9798485629999,-34.3637158461204],[-70.9758773029999,-34.3638967721204],[-70.974300765,-34.3641540031204],[-70.9734631939999,-34.3629977951204],[-70.9721096759999,-34.3615576981205],[-70.9708309619999,-34.3598247021204]]]}},{"type":"Feature","properties":{"id":"6114011001028","commune":"Quinta De Tilcoco","code":"06114","gse":"C3","quintil":"Q2","nse_score":661.7,"educ":10.5,"educ_score":500.0,"hacin":1.292,"hacin_class":"Hacinamiento Leve","hacin_score":789.0,"auto_score":187.5,"n_per":62,"n_hog":24,"source_year":2024,"crime_score":0.0427,"crime_nivel":"Muy Bajo","crime_color":"#4caf50"},"geometry":{"type":"Polygon","coordinates":[[[-70.9699902409999,-34.3637125661204],[-70.9708617419999,-34.3646359291204],[-70.9723124519999,-34.3665907901204],[-70.9729595619999,-34.3671807921204],[-70.9739034099999,-34.3667557321204],[-70.9731142739999,-34.3660203671204],[-70.9717509259999,-34.3641752231204],[-70.9709188909999,-34.3632896831204],[-70.9699902409999,-34.3637125661204]]]}},{"type":"Feature","properties":{"id":"6114011001029","commune":"Quinta De Tilcoco","code":"06114","gse":"D","quintil":"Q2","nse_score":656.9,"educ":10.6,"educ_score":506.7,"hacin":1.286,"hacin_class":"Hacinamiento Leve","hacin_score":790.2,"auto_score":338.1,"n_per":328,"n_hog":114,"source_year":2024,"crime_score":0.0478,"crime_nivel":"Muy Bajo","crime_color":"#4caf50"},"geometry":{"type":"Polygon","coordinates":[[[-70.9753718899999,-34.3671019251204],[-70.9747524609999,-34.3673265331204],[-70.9759852329999,-34.3685905111204],[-70.9765060229999,-34.3688105751204],[-70.9806991229999,-34.3681899701204],[-70.9804670029999,-34.3674428411204],[-70.9807707519999,-34.3682026951204],[-70.9832446289999,-34.3677675221204],[-70.9827003679999,-34.3678899491204],[-70.9828213369999,-34.3684828911204],[-70.9826126829999,-34.3679018291204],[-70.9808089589999,-34.3682367901203],[-70.981188658,-34.3696086021203],[-70.9836954279999,-34.3695528551204],[-70.9839797039999,-34.3693453771204],[-70.9867024229999,-34.3683634901204],[-70.9857100829999,-34.3681271401204],[-70.9847854769999,-34.3675786181204],[-70.9837877139999,-34.3655841411204],[-70.9833023069999,-34.3655469281204],[-70.9832179429999,-34.3654130501204],[-70.9826812049999,-34.3652594531204],[-70.9808910699999,-34.3651081191204],[-70.9807173789999,-34.3652642101204],[-70.9804390759999,-34.3652777311204],[-70.9803098769999,-34.3655380221204],[-70.9800797159999,-34.3646394241204],[-70.978907606,-34.3646020241204],[-70.9745800999999,-34.3650343071204],[-70.9745533109999,-34.3653846671204],[-70.9742256589999,-34.3655680291204],[-70.9742549569999,-34.3657369741204],[-70.9749628619999,-34.3658000261204],[-70.9757771879999,-34.3659683791204],[-70.9742708279999,-34.3657831531204],[-70.974102017,-34.3666996091204],[-70.9754665759999,-34.3667216191204],[-70.9740891289999,-34.3667929491204],[-70.9745544949999,-34.3671665321204],[-70.9747892689999,-34.3670381811204],[-70.9753644629999,-34.3669280721204],[-70.9745785219999,-34.3671858121204],[-70.9747291979999,-34.3673067151204],[-70.9753718899999,-34.3671019251204]]]}},{"type":"Feature","properties":{"id":"6114011001030","commune":"Quinta De Tilcoco","code":"06114","gse":"D","quintil":"Q1","nse_score":626.0,"educ":9.2,"educ_score":413.3,"hacin":1.333,"hacin_class":"Hacinamiento Leve","hacin_score":780.1,"auto_score":333.3,"n_per":36,"n_hog":15,"source_year":2024,"crime_score":0.043,"crime_nivel":"Muy Bajo","crime_color":"#4caf50"},"geometry":{"type":"Polygon","coordinates":[[[-70.9740003619999,-34.3667263071204],[-70.9741710559999,-34.3660259531204],[-70.974144313,-34.3655859321204],[-70.9727967029999,-34.3655070441204],[-70.9740003619999,-34.3667263071204]]]}},{"type":"Feature","properties":{"id":"6114011001031","commune":"Quinta De Tilcoco","code":"06114","gse":"E","quintil":"Q1","nse_score":590.0,"educ":10.1,"educ_score":473.3,"hacin":1.434,"hacin_class":"Hacinamiento Leve","hacin_score":758.7,"auto_score":192.3,"n_per":76,"n_hog":28,"source_year":2024,"crime_score":0.0447,"crime_nivel":"Muy Bajo","crime_color":"#4caf50"},"geometry":{"type":"Polygon","coordinates":[[[-70.9729917469999,-34.3672074121204],[-70.9744609199999,-34.3684101311204],[-70.9752042809999,-34.3692678351204],[-70.9750645239999,-34.3695227491203],[-70.9743682459999,-34.3698261971204],[-70.9752267739999,-34.3711665921204],[-70.97693555,-34.3704726131204],[-70.976703299,-34.3699551121204],[-70.9782116769999,-34.3695013251203],[-70.9792206199999,-34.3693418721204],[-70.9802994949999,-34.3711756371204],[-70.9801975329999,-34.3712440841204],[-70.9803621199999,-34.3715753971204],[-70.9815461589999,-34.3714705321203],[-70.9808699259999,-34.3687156571204],[-70.9806222189999,-34.3684058061204],[-70.9802210439999,-34.3682972491204],[-70.9760853959999,-34.3689704651204],[-70.975999811,-34.3690828221204],[-70.9765216709999,-34.3699698731204],[-70.9759374519999,-34.3690563471204],[-70.9760761799999,-34.3689143291204],[-70.9764527859999,-34.3688794551204],[-70.9760035759999,-34.3687331961204],[-70.9753835479999,-34.3679629471204],[-70.974070261,-34.3668646641204],[-70.9739217919999,-34.3667884361204],[-70.9729917469999,-34.3672074121204]]]}},{"type":"Feature","properties":{"id":"6114011001034","commune":"Quinta De Tilcoco","code":"06114","gse":"E","quintil":"Q1","nse_score":604.5,"educ":14.0,"educ_score":733.3,"hacin":1.3,"hacin_class":"Hacinamiento Leve","hacin_score":787.2,"auto_score":250.0,"n_per":13,"n_hog":4,"source_year":2024,"crime_score":0.043,"crime_nivel":"Muy Bajo","crime_color":"#4caf50"},"geometry":{"type":"Polygon","coordinates":[[[-70.9899470119999,-34.3700915891203],[-70.9871678919999,-34.3705594481203],[-70.9814948049999,-34.3707460411204],[-70.9816093609999,-34.3716021271203],[-70.9870670349999,-34.3714517251203],[-70.990839289,-34.3707554961204],[-70.9903327079999,-34.3766107631203],[-70.9913916159999,-34.3766760171203],[-70.9920074369999,-34.3697189531204],[-70.9912677169999,-34.3694712331204],[-70.9899470119999,-34.3700915891203]]]}},{"type":"Feature","properties":{"id":"6114011001022","commune":"Quinta De Tilcoco","code":"06114","gse":"D","quintil":"Q2","nse_score":660.6,"educ":11.5,"educ_score":566.7,"hacin":1.267,"hacin_class":"Hacinamiento Leve","hacin_score":794.2,"auto_score":250.0,"n_per":109,"n_hog":46,"source_year":2024,"crime_score":0.0438,"crime_nivel":"Muy Bajo","crime_color":"#4caf50"},"geometry":{"type":"MultiPolygon","coordinates":[[[[-70.9680912839999,-34.3582138301205],[-70.9686031559999,-34.3588521601205],[-70.9688859329999,-34.3587569871205],[-70.9685238159999,-34.3580976471205],[-70.9680912839999,-34.3582138301205]]],[[[-70.9649047379999,-34.3563868551205],[-70.965937332,-34.3574778851205],[-70.9674079599999,-34.3572456701205],[-70.9659860819999,-34.3575251641205],[-70.9670996959999,-34.3586248871205],[-70.9680924889999,-34.3583160561205],[-70.9680293819999,-34.3581736461205],[-70.9692806499999,-34.3578222101205],[-70.9689929339999,-34.3579642971205],[-70.9693327369999,-34.3586066091205],[-70.969487092,-34.3586122531205],[-70.9689577869999,-34.3587911771205],[-70.9693765689999,-34.3596128491205],[-70.9693160749999,-34.3597119581205],[-70.9681288919999,-34.3583625001205],[-70.9671433709999,-34.3586690691205],[-70.9688881779999,-34.3605822871205],[-70.9708309619999,-34.3598247021204],[-70.9705220899999,-34.3594053771205],[-70.9705943699999,-34.3592616671205],[-70.9695629629999,-34.3569708041205],[-70.9696553599999,-34.3557219131206],[-70.9656596869999,-34.3561728521205],[-70.9649047379999,-34.3563868551205]]]]}},{"type":"Feature","properties":{"id":"6114011001012","commune":"Quinta De Tilcoco","code":"06114","gse":"C3","quintil":"Q2","nse_score":665.2,"educ":10.5,"educ_score":500.0,"hacin":1.34,"hacin_class":"Hacinamiento Leve","hacin_score":778.6,"auto_score":236.8,"n_per":63,"n_hog":21,"source_year":2024,"crime_score":0.0427,"crime_nivel":"Muy Bajo","crime_color":"#4caf50"},"geometry":{"type":"MultiPolygon","coordinates":[[[[-70.9662232649999,-34.3549200681205],[-70.9673967719999,-34.3548788471206],[-70.9673824939999,-34.3544493521206],[-70.9661626299999,-34.3544978101205],[-70.9662232649999,-34.3549200681205]]],[[[-70.9645516709999,-34.3549218491205],[-70.9661173209999,-34.3549178031205],[-70.9660135869999,-34.3540792261206],[-70.9644126569999,-34.3542013211205],[-70.9645516709999,-34.3549218491205]]]]}},{"type":"Feature","properties":{"id":"6114011002001","commune":"Quinta De Tilcoco","code":"06114","gse":"D","quintil":"Q2","nse_score":649.8,"educ":10.0,"educ_score":466.7,"hacin":1.221,"hacin_class":"Hacinamiento Leve","hacin_score":804.1,"auto_score":390.6,"n_per":94,"n_hog":33,"source_year":2024,"crime_score":0.0437,"crime_nivel":"Muy Bajo","crime_color":"#4caf50"},"geometry":{"type":"Polygon","coordinates":[[[-70.9447902199999,-34.3403841431207],[-70.9444766909999,-34.3409193981207],[-70.9440171059999,-34.3409492401207],[-70.9432238929999,-34.3406823241207],[-70.9429835949999,-34.3404451961207],[-70.9413079759999,-34.3412918251207],[-70.9425984059999,-34.3419061461207],[-70.9431773679999,-34.3408163001207],[-70.9432910959999,-34.3407927011207],[-70.9441643929999,-34.3410483281207],[-70.9443314809999,-34.3409370011207],[-70.9446290559999,-34.3409359861207],[-70.9447009709999,-34.3407375501207],[-70.9450307979999,-34.3404216171207],[-70.9446077469999,-34.3409852051207],[-70.9440706679999,-34.3410788291207],[-70.9432112969999,-34.3408421901207],[-70.9426602279999,-34.3419048951207],[-70.9442189509999,-34.3427174181207],[-70.9444583039999,-34.3429620341206],[-70.9453807169999,-34.3411137621207],[-70.9451489989999,-34.3402273091207],[-70.9447902199999,-34.3403841431207]]]}},{"type":"Feature","properties":{"id":"6114011002002","commune":"Quinta De Tilcoco","code":"06114","gse":"E","quintil":"Q1","nse_score":522.5,"educ":8.6,"educ_score":373.3,"hacin":1.571,"hacin_class":"Hacinamiento Medio","hacin_score":729.5,"auto_score":85.7,"n_per":99,"n_hog":36,"source_year":2024,"crime_score":0.0468,"crime_nivel":"Muy Bajo","crime_color":"#4caf50"},"geometry":{"type":"Polygon","coordinates":[[[-70.9537143479999,-34.3406148531207],[-70.9508262019999,-34.3419790731207],[-70.9501175889999,-34.3426648501207],[-70.9488642859999,-34.3429202731207],[-70.9481669029999,-34.3433493621206],[-70.9479929079999,-34.3439939671207],[-70.9481673749999,-34.3446779871207],[-70.9481044859999,-34.3453801641206],[-70.9473598679999,-34.3475066881206],[-70.9472970939999,-34.3482788821206],[-70.9483901319999,-34.3478553241206],[-70.9491576129999,-34.3455449781207],[-70.9492388559999,-34.3446357221207],[-70.9491011569999,-34.3438339141207],[-70.9507851689999,-34.3433639241207],[-70.9514223499999,-34.3427291941207],[-70.9518504759999,-34.3424784711207],[-70.9516568429999,-34.3423127691207],[-70.9518905469999,-34.3424533061207],[-70.9521768509999,-34.3423025831207],[-70.951820472,-34.3420281241207],[-70.9522194579999,-34.3422743131207],[-70.9525382669999,-34.3421144141207],[-70.9520268129999,-34.3417057401207],[-70.9525982209999,-34.3420888421207],[-70.9532606889999,-34.3418048921207],[-70.9538168879999,-34.3412136401207],[-70.9539090849999,-34.3408660721207],[-70.9537143479999,-34.3406148531207]]]}},{"type":"Feature","properties":{"id":"6114011002004","commune":"Quinta De Tilcoco","code":"06114","gse":"C3","quintil":"Q3","nse_score":710.3,"educ":11.2,"educ_score":546.7,"hacin":1.286,"hacin_class":"Hacinamiento Leve","hacin_score":790.3,"auto_score":272.7,"n_per":36,"n_hog":12,"source_year":2024,"crime_score":0.0411,"crime_nivel":"Muy Bajo","crime_color":"#4caf50"},"geometry":{"type":"Polygon","coordinates":[[[-70.9412047699999,-34.3413605481207],[-70.9405578779999,-34.3417913031207],[-70.9393743179999,-34.3424657651207],[-70.9411099269999,-34.3433134881206],[-70.9422449499999,-34.3418088781207],[-70.9412047699999,-34.3413605481207]]]}},{"type":"Feature","properties":{"id":"6114011002005","commune":"Quinta De Tilcoco","code":"06114","gse":"D","quintil":"Q2","nse_score":650.7,"educ":11.1,"educ_score":540.0,"hacin":1.323,"hacin_class":"Hacinamiento Leve","hacin_score":782.4,"auto_score":225.8,"n_per":254,"n_hog":95,"source_year":2024,"crime_score":0.047,"crime_nivel":"Muy Bajo","crime_color":"#4caf50"},"geometry":{"type":"Polygon","coordinates":[[[-70.9556490059999,-34.3463878391206],[-70.9565996019999,-34.3459605001206],[-70.9532735479999,-34.3418297531207],[-70.9514939559999,-34.3427092071207],[-70.9506342749999,-34.3434758791207],[-70.9491280549999,-34.3438500761207],[-70.9492490419999,-34.3452118951206],[-70.9484454459999,-34.3478545331206],[-70.9489448589999,-34.3481224861207],[-70.9498533329999,-34.3481081961206],[-70.9496031029999,-34.3471934921206],[-70.9499122129999,-34.3481064461206],[-70.9517110349999,-34.3481072571206],[-70.9540815909999,-34.3473274641206],[-70.9558268089999,-34.3470571341206],[-70.9571941589999,-34.3471332841206],[-70.9572994459999,-34.3470142051206],[-70.9566178659999,-34.3459831511206],[-70.9556490059999,-34.3463878391206]]]}},{"type":"Feature","properties":{"id":"6114011002006","commune":"Quinta De Tilcoco","code":"06114","gse":"C3","quintil":"Q3","nse_score":703.9,"educ":10.3,"educ_score":486.7,"hacin":1.2,"hacin_class":"Hacinamiento Leve","hacin_score":808.5,"auto_score":458.3,"n_per":36,"n_hog":12,"source_year":2024,"crime_score":0.0412,"crime_nivel":"Muy Bajo","crime_color":"#4caf50"},"geometry":{"type":"Polygon","coordinates":[[[-70.9429207019999,-34.3426316391207],[-70.9431603209999,-34.3422612241207],[-70.9422878179999,-34.3418294761207],[-70.9411440779999,-34.3433293851207],[-70.9418923229999,-34.3424086421207],[-70.9427134069999,-34.3428158531207],[-70.9428929129999,-34.3426658761207],[-70.9425593019999,-34.3425169881207],[-70.9425830959999,-34.3424896251207],[-70.9429207019999,-34.3426316391207]]]}},{"type":"Feature","properties":{"id":"6114011002007","commune":"Quinta De Tilcoco","code":"06114","gse":"D","quintil":"Q2","nse_score":642.8,"educ":10.2,"educ_score":480.0,"hacin":1.36,"hacin_class":"Hacinamiento Leve","hacin_score":774.5,"auto_score":253.3,"n_per":427,"n_hog":152,"source_year":2024,"crime_score":0.0482,"crime_nivel":"Muy Bajo","crime_color":"#4caf50"},"geometry":{"type":"Polygon","coordinates":[[[-70.971152678,-34.3419979891207],[-70.9710230539999,-34.3444324591207],[-70.9747111389999,-34.3451102791206],[-70.9743118289999,-34.3450656041207],[-70.9742027439999,-34.3454758991207],[-70.9742736159999,-34.3450538671206],[-70.9739933639999,-34.3449879721207],[-70.9737968999999,-34.3459834271207],[-70.9739702829999,-34.3449863861207],[-70.9710174539999,-34.3444904351207],[-70.9706586049999,-34.3461152991207],[-70.971834983,-34.3463459271207],[-70.9719503099999,-34.3461737481207],[-70.9717910069999,-34.3469978941206],[-70.9729950219999,-34.3472544191207],[-70.9704671719999,-34.3468537631206],[-70.9703316439999,-34.3472358991206],[-70.9729536099999,-34.3476745061206],[-70.9703583599999,-34.3473091331206],[-70.9702170159999,-34.3476564681206],[-70.9733413299999,-34.3481412581206],[-70.9754390779999,-34.3486052471206],[-70.9754544939999,-34.3484198901206],[-70.9749696199999,-34.3483229291206],[-70.9757473049999,-34.3443068971207],[-70.9721281699999,-34.3437291421207],[-70.9722562619999,-34.3423485751207],[-70.9721591329999,-34.3418672091207],[-70.971152678,-34.3419979891207]]]}},{"type":"Feature","properties":{"id":"6114011002008","commune":"Quinta De Tilcoco","code":"06114","gse":"C3","quintil":"Q2","nse_score":672.9,"educ":10.9,"educ_score":526.7,"hacin":1.362,"hacin_class":"Hacinamiento Leve","hacin_score":774.1,"auto_score":225.5,"n_per":945,"n_hog":343,"source_year":2024,"crime_score":0.0474,"crime_nivel":"Muy Bajo","crime_color":"#4caf50"},"geometry":{"type":"Polygon","coordinates":[[[-70.9685889609999,-34.3472918241207],[-70.9614203879999,-34.3464234741207],[-70.9608213949999,-34.3440682631207],[-70.9603434059999,-34.3432968011207],[-70.9550516469999,-34.3439767231207],[-70.9558032019999,-34.3448427911207],[-70.9576245389999,-34.3447677791206],[-70.9592186399999,-34.3445415641207],[-70.9591478509999,-34.3440312821207],[-70.9592626579999,-34.3445739501206],[-70.9576315289999,-34.3448033631206],[-70.9558188539999,-34.3448988941207],[-70.9562134179999,-34.3453984551207],[-70.9567985299999,-34.3453593621206],[-70.9568498959999,-34.3452267951206],[-70.9573326719999,-34.3451821391206],[-70.9568654239999,-34.3452521241207],[-70.9568182639999,-34.3453850151206],[-70.9562340809999,-34.3454247251206],[-70.9571649489999,-34.3466202621206],[-70.9574388409999,-34.3466322021207],[-70.9603511159999,-34.3472262101206],[-70.9621838509999,-34.3470695631206],[-70.964525567,-34.3473295571206],[-70.9621829239999,-34.3471236991206],[-70.96034499,-34.3472619231206],[-70.9572110969999,-34.3466600981206],[-70.9573639669999,-34.3469792721206],[-70.9572750519999,-34.3472134091206],[-70.9584372209999,-34.3482733691206],[-70.9605436209999,-34.3479071161206],[-70.9584709479999,-34.3483025831206],[-70.9594204179999,-34.3491856971206],[-70.9640349659999,-34.3494920511206],[-70.9639573839999,-34.3487501481206],[-70.9635984749999,-34.3487417401206],[-70.9635686039999,-34.3484885121206],[-70.9644467869999,-34.3484660571206],[-70.9645883109999,-34.3495345111206],[-70.9652472019999,-34.3495810961206],[-70.9652509059999,-34.3491981711206],[-70.9647738279999,-34.3491659411206],[-70.9652236109999,-34.3491430821206],[-70.9652259199999,-34.3488721311206],[-70.964732711,-34.3488842121206],[-70.9651937589999,-34.3488318381206],[-70.9652082619999,-34.3486050711206],[-70.9647037769999,-34.3485796411206],[-70.9651753039999,-34.3485478211206],[-70.9651859829999,-34.3482981731206],[-70.9646748429999,-34.3482781161206],[-70.9651541889999,-34.3482406571206],[-70.9651746499999,-34.3479688931206],[-70.9646261109999,-34.3479583161206],[-70.9651416849999,-34.3479108781206],[-70.9651958489999,-34.3477661511206],[-70.9650727829999,-34.3476263841206],[-70.9645667199999,-34.3475532371206],[-70.9652297849999,-34.3476275131206],[-70.9652510509999,-34.3479410381206],[-70.9653789139999,-34.3478991091206],[-70.9654469299999,-34.3475486681206],[-70.9654236919999,-34.3479339081206],[-70.9659094359999,-34.3480005891206],[-70.9660024039999,-34.3482669211206],[-70.9664926559999,-34.3483091441206],[-70.9659636899999,-34.3483181301206],[-70.9659656409999,-34.3485550161206],[-70.9664426869999,-34.3486160951206],[-70.9659412219999,-34.3486130871206],[-70.9659444849999,-34.3488350301206],[-70.9664236509999,-34.3488873531206],[-70.9659226159999,-34.3488872391206],[-70.9659218379999,-34.3491162341206],[-70.96638558,-34.3491681301206],[-70.9659263909999,-34.3491400091206],[-70.9658976089999,-34.3492959451206],[-70.9663808209999,-34.3493608661206],[-70.9658995009999,-34.3493427171206],[-70.9658947679999,-34.3496272361206],[-70.9666440639999,-34.3496831301206],[-70.9667197569999,-34.3488468091206],[-70.9667696989999,-34.3491092871206],[-70.9672321609999,-34.3491423381206],[-70.9672977669999,-34.3488143471206],[-70.9672694179999,-34.3497318671206],[-70.9699305209999,-34.3499308831206],[-70.9700595329999,-34.3487334331206],[-70.968293205,-34.3485690361206],[-70.9700606049999,-34.3487063191206],[-70.9701319709999,-34.3476270911206],[-70.9707602459999,-34.3455255191206],[-70.9709465169999,-34.3442744821207],[-70.9695147009999,-34.3442423191206],[-70.9709499349999,-34.3442384151207],[-70.9711300579999,-34.3423676801207],[-70.9709982979999,-34.3419548841207],[-70.9692920979999,-34.3421734261207],[-70.9695236129999,-34.3424878061207],[-70.9692858759999,-34.3448164891206],[-70.9685889609999,-34.3472918241207]]]}},{"type":"Feature","properties":{"id":"6114011002009","commune":"Quinta De Tilcoco","code":"06114","gse":"C3","quintil":"Q2","nse_score":665.3,"educ":11.1,"educ_score":540.0,"hacin":1.449,"hacin_class":"Hacinamiento Leve","hacin_score":755.5,"auto_score":301.9,"n_per":142,"n_hog":54,"source_year":2024,"crime_score":0.0443,"crime_nivel":"Muy Bajo","crime_color":"#4caf50"},"geometry":{"type":"Polygon","coordinates":[[[-70.9412101709999,-34.3433601511207],[-70.9425391799999,-34.3439787871206],[-70.9430612469999,-34.3454645351207],[-70.943436302,-34.3460928121206],[-70.9436122389999,-34.3488050891206],[-70.9458036439999,-34.3485896621206],[-70.9456348069999,-34.3480999551206],[-70.9455030519999,-34.3455688621206],[-70.9454225389999,-34.3453963941206],[-70.9446028369999,-34.3456289731206],[-70.9453978209999,-34.3453569341206],[-70.9450623179999,-34.3448329071207],[-70.9443364559999,-34.3429197761207],[-70.9432263819999,-34.3422929051207],[-70.9427176899999,-34.3428479761206],[-70.9419342799999,-34.3424358311207],[-70.9412101709999,-34.3433601511207]]]}},{"type":"Feature","properties":{"id":"6114011002011","commune":"Quinta De Tilcoco","code":"06114","gse":"D","quintil":"Q2","nse_score":660.2,"educ":11.1,"educ_score":540.0,"hacin":1.304,"hacin_class":"Hacinamiento Leve","hacin_score":786.3,"auto_score":250.0,"n_per":30,"n_hog":11,"source_year":2024,"crime_score":0.0421,"crime_nivel":"Muy Bajo","crime_color":"#4caf50"},"geometry":{"type":"Polygon","coordinates":[[[-70.9708519589999,-34.3468615431206],[-70.9712370979999,-34.3469262101206],[-70.9713814509999,-34.3463222171207],[-70.9709752079999,-34.3462800711207],[-70.9708519589999,-34.3468615431206]]]}},{"type":"Feature","properties":{"id":"6114011002012","commune":"Quinta De Tilcoco","code":"06114","gse":"C3","quintil":"Q2","nse_score":678.5,"educ":10.1,"educ_score":473.3,"hacin":1.182,"hacin_class":"Hacinamiento Leve","hacin_score":812.4,"auto_score":181.8,"n_per":26,"n_hog":11,"source_year":2024,"crime_score":0.0416,"crime_nivel":"Muy Bajo","crime_color":"#4caf50"},"geometry":{"type":"Polygon","coordinates":[[[-70.9713334979999,-34.3469391731206],[-70.9717212709999,-34.3469816161206],[-70.9718355009999,-34.3463865831206],[-70.9714426149999,-34.3463438631207],[-70.9713334979999,-34.3469391731206]]]}},{"type":"Feature","properties":{"id":"6114011002013","commune":"Quinta De Tilcoco","code":"06114","gse":"D","quintil":"Q1","nse_score":634.7,"educ":11.3,"educ_score":553.3,"hacin":1.425,"hacin_class":"Hacinamiento Leve","hacin_score":760.7,"auto_score":342.6,"n_per":161,"n_hog":54,"source_year":2024,"crime_score":0.0455,"crime_nivel":"Muy Bajo","crime_color":"#4caf50"},"geometry":{"type":"Polygon","coordinates":[[[-70.9517109829999,-34.3481727631206],[-70.946907242,-34.3489648701206],[-70.9460510799999,-34.3488167641206],[-70.9458900489999,-34.3489772431206],[-70.9460803349999,-34.3495946091206],[-70.9458455269999,-34.3489772511206],[-70.9460158409999,-34.3487947051206],[-70.9458294389999,-34.3486333421206],[-70.9441532349999,-34.3487589701206],[-70.9442761879999,-34.3497878311206],[-70.9447195679999,-34.3501998561206],[-70.9454480979999,-34.3505545541206],[-70.9469457699999,-34.3507393511206],[-70.9522828409999,-34.3498876551206],[-70.9544878659999,-34.3491328371206],[-70.955789594,-34.3489070391206],[-70.9566997379999,-34.3488891931206],[-70.9573243469999,-34.3490379091206],[-70.9579770839999,-34.3494481901206],[-70.9576701339999,-34.3499321031206],[-70.9576132059999,-34.3505495681206],[-70.9588362619999,-34.3525354881206],[-70.9598743249999,-34.3530619971205],[-70.9607976979999,-34.3527530961206],[-70.9608222619999,-34.3524914951205],[-70.961247382,-34.3521762301206],[-70.9594228869999,-34.3493151351206],[-70.9588946699999,-34.3487453641206],[-70.9585595309999,-34.3489187951206],[-70.9583247029999,-34.3492779821206],[-70.9584009929999,-34.3502910251206],[-70.9584614109999,-34.3506357501206],[-70.9587965099999,-34.3508200931206],[-70.9587334529999,-34.3502872371206],[-70.9587849199999,-34.3500182631206],[-70.9588515179999,-34.3508807951206],[-70.9590151009999,-34.3510664411206],[-70.9593805069999,-34.3518007531206],[-70.9596756889999,-34.3519793321206],[-70.9593429969999,-34.3518192971206],[-70.9589531979999,-34.3510457921206],[-70.9584219999999,-34.3506519791206],[-70.9583578259999,-34.3502953221206],[-70.9582830289999,-34.3492670181206],[-70.9585273279999,-34.3488943351206],[-70.9588671749999,-34.3487128001206],[-70.9571025309999,-34.3471993081206],[-70.9558353709999,-34.3471168661206],[-70.9540992529999,-34.3473858801206],[-70.9517109829999,-34.3481727631206]]]}},{"type":"Feature","properties":{"id":"6114011002014","commune":"Quinta De Tilcoco","code":"06114","gse":"C3","quintil":"Q2","nse_score":664.4,"educ":11.3,"educ_score":553.3,"hacin":1.355,"hacin_class":"Hacinamiento Leve","hacin_score":775.5,"auto_score":321.6,"n_per":683,"n_hog":247,"source_year":2024,"crime_score":0.0476,"crime_nivel":"Muy Bajo","crime_color":"#4caf50"},"geometry":{"type":"Polygon","coordinates":[[[-70.971764774,-34.3483477141206],[-70.9701566389999,-34.3481374401206],[-70.9701808469999,-34.3485172201206],[-70.9720341259999,-34.3488615901206],[-70.9701733109999,-34.3485435791206],[-70.9701037949999,-34.3491592601206],[-70.9723776749999,-34.3495951001206],[-70.9701024499999,-34.3492132901206],[-70.9699424429999,-34.3511511571206],[-70.9712410919999,-34.3513543051206],[-70.9699702329999,-34.3511958821206],[-70.9699332949999,-34.3514322531206],[-70.9717797639999,-34.3516933391206],[-70.9719999349999,-34.3508390551206],[-70.9719518789999,-34.3512818201206],[-70.9723936799999,-34.3513338291206],[-70.9725149569999,-34.3509433191206],[-70.9724530099999,-34.3513464361205],[-70.9729040859999,-34.3514301441206],[-70.9730296269999,-34.3510197651206],[-70.9729710759999,-34.3514325971206],[-70.9732661869999,-34.3514977541206],[-70.9733786329999,-34.3510373291206],[-70.9733772359999,-34.3519390641206],[-70.9758112869999,-34.3522855951206],[-70.9758558189999,-34.3516366671206],[-70.9758983849999,-34.3520328831206],[-70.9763186189999,-34.3520445811205],[-70.9763915289999,-34.3517605581206],[-70.9769672579999,-34.3518340291205],[-70.9769816389999,-34.3529509341205],[-70.9772138249999,-34.3529266251206],[-70.9769382229999,-34.3530048321206],[-70.9769104249999,-34.3545152631205],[-70.9817954179999,-34.3543533981205],[-70.9811586939999,-34.3530914551205],[-70.9780534479999,-34.3531747211206],[-70.9781009369999,-34.3501889391206],[-70.9753493269999,-34.3496843671206],[-70.9754390779999,-34.3486052471206],[-70.9750568159999,-34.3485582851206],[-70.9749526959999,-34.3489669681206],[-70.9750137739999,-34.3485495971206],[-70.9746904399999,-34.3484843311206],[-70.9745862589999,-34.3488836871206],[-70.9746473929999,-34.3484756421206],[-70.9742554539999,-34.3483965271206],[-70.9741285309999,-34.3488481581206],[-70.9742132099999,-34.3483880001206],[-70.9739021089999,-34.3483252011206],[-70.973774853,-34.3487696391206],[-70.9738598659999,-34.3483166741206],[-70.9735423729999,-34.3482525831206],[-70.9734132289999,-34.3487137621206],[-70.9735001289999,-34.3482440561206],[-70.9731181319999,-34.3481867831206],[-70.9730467889999,-34.3485705021206],[-70.9729843049999,-34.3484555571206],[-70.9723777269999,-34.3483448751206],[-70.9722934339999,-34.3484218811206],[-70.9722969069999,-34.3480364621206],[-70.9701867269999,-34.3478207851206],[-70.9701598739999,-34.3480828251206],[-70.971764774,-34.3483477141206]]]}},{"type":"Feature","properties":{"id":"6114011002015","commune":"Quinta De Tilcoco","code":"06114","gse":"C2","quintil":"Q3","nse_score":717.4,"educ":12.2,"educ_score":613.3,"hacin":1.296,"hacin_class":"Hacinamiento Leve","hacin_score":788.0,"auto_score":357.1,"n_per":35,"n_hog":14,"source_year":2024,"crime_score":0.0409,"crime_nivel":"Muy Bajo","crime_color":"#4caf50"},"geometry":{"type":"Polygon","coordinates":[[[-70.9467952549999,-34.3489124621206],[-70.9515685759999,-34.3481285541206],[-70.9489385219999,-34.3481492761206],[-70.9483730829999,-34.3479688431206],[-70.9460616299999,-34.3487315371206],[-70.9467952549999,-34.3489124621206]]]}},{"type":"Feature","properties":{"id":"6114011002016","commune":"Quinta De Tilcoco","code":"06114","gse":"D","quintil":"Q2","nse_score":656.7,"educ":10.3,"educ_score":486.7,"hacin":1.417,"hacin_class":"Hacinamiento Leve","hacin_score":762.4,"auto_score":333.3,"n_per":17,"n_hog":6,"source_year":2024,"crime_score":0.0419,"crime_nivel":"Muy Bajo","crime_color":"#4caf50"},"geometry":{"type":"Polygon","coordinates":[[[-70.9652505769999,-34.3480664391206],[-70.9653071989999,-34.3486610371206],[-70.9658306739999,-34.3487027371206],[-70.9658717279999,-34.3480709851206],[-70.9652505769999,-34.3480664391206]]]}},{"type":"Feature","properties":{"id":"6114011002020","commune":"Quinta De Tilcoco","code":"06114","gse":"C3","quintil":"Q2","nse_score":667.9,"educ":10.3,"educ_score":486.7,"hacin":1.633,"hacin_class":"Hacinamiento Medio","hacin_score":716.3,"auto_score":333.3,"n_per":49,"n_hog":12,"source_year":2024,"crime_score":0.0423,"crime_nivel":"Muy Bajo","crime_color":"#4caf50"},"geometry":{"type":"Polygon","coordinates":[[[-70.9657941319999,-34.3487512981206],[-70.9653285669999,-34.3487221821206],[-70.9653170079999,-34.3489397841206],[-70.9657964179999,-34.3490037251206],[-70.9657941319999,-34.3487512981206]]]}},{"type":"Feature","properties":{"id":"6114011002021","commune":"Quinta De Tilcoco","code":"06114","gse":"D","quintil":"Q1","nse_score":618.6,"educ":8.5,"educ_score":366.7,"hacin":1.524,"hacin_class":"Hacinamiento Medio","hacin_score":739.6,"auto_score":187.5,"n_per":32,"n_hog":9,"source_year":2024,"crime_score":0.0431,"crime_nivel":"Muy Bajo","crime_color":"#4caf50"},"geometry":{"type":"Polygon","coordinates":[[[-70.965765771,-34.3490314171206],[-70.9653423239999,-34.3490108071206],[-70.9653454049999,-34.3492708431206],[-70.9657756969999,-34.3493198291206],[-70.965765771,-34.3490314171206]]]}},{"type":"Feature","properties":{"id":"6114011002022","commune":"Quinta De Tilcoco","code":"06114","gse":"C3","quintil":"Q2","nse_score":662.2,"educ":10.5,"educ_score":500.0,"hacin":1.154,"hacin_class":"Hacinamiento Leve","hacin_score":818.3,"auto_score":500.0,"n_per":15,"n_hog":6,"source_year":2024,"crime_score":0.0418,"crime_nivel":"Muy Bajo","crime_color":"#4caf50"},"geometry":{"type":"Polygon","coordinates":[[[-70.9667029989999,-34.3496837161206],[-70.9671987809999,-34.3497003631206],[-70.9672378679999,-34.3491912061206],[-70.9667469689999,-34.3491414811206],[-70.9667029989999,-34.3496837161206]]]}},{"type":"Feature","properties":{"id":"6114011002023","commune":"Quinta De Tilcoco","code":"06114","gse":"D","quintil":"Q2","nse_score":642.1,"educ":10.8,"educ_score":520.0,"hacin":1.483,"hacin_class":"Hacinamiento Leve","hacin_score":748.3,"auto_score":355.8,"n_per":175,"n_hog":59,"source_year":2024,"crime_score":0.0456,"crime_nivel":"Muy Bajo","crime_color":"#4caf50"},"geometry":{"type":"Polygon","coordinates":[[[-70.9594979749999,-34.3492671371206],[-70.9608070959999,-34.3513876721206],[-70.9617837789999,-34.3509355321206],[-70.9613986559999,-34.3503681671206],[-70.9615672009999,-34.3504959341206],[-70.9629124559999,-34.3498550231206],[-70.9636573629999,-34.3498652541206],[-70.9637955519999,-34.3504625411206],[-70.9641519259999,-34.3504213881206],[-70.9639508429999,-34.3495513701206],[-70.9594979749999,-34.3492671371206]]]}},{"type":"Feature","properties":{"id":"6114011002024","commune":"Quinta De Tilcoco","code":"06114","gse":"E","quintil":"Q1","nse_score":540.5,"educ":5.6,"educ_score":173.3,"hacin":1.143,"hacin_class":"Hacinamiento Leve","hacin_score":820.7,"auto_score":0.0,"n_per":8,"n_hog":4,"source_year":2024,"crime_score":0.0444,"crime_nivel":"Muy Bajo","crime_color":"#4caf50"},"geometry":{"type":"Polygon","coordinates":[[[-70.9657427599999,-34.3493503091206],[-70.9653752979999,-34.3493280241206],[-70.9653663789999,-34.3495645361206],[-70.9657503999999,-34.3496092251206],[-70.9657427599999,-34.3493503091206]]]}},{"type":"Feature","properties":{"id":"6114011002025","commune":"Quinta De Tilcoco","code":"06114","gse":"C3","quintil":"Q2","nse_score":669.6,"educ":10.1,"educ_score":473.3,"hacin":1.329,"hacin_class":"Hacinamiento Leve","hacin_score":781.1,"auto_score":121.6,"n_per":101,"n_hog":37,"source_year":2024,"crime_score":0.0434,"crime_nivel":"Muy Bajo","crime_color":"#4caf50"},"geometry":{"type":"Polygon","coordinates":[[[-70.9641304039999,-34.3495594891206],[-70.9643624729999,-34.3511563661206],[-70.9647099199999,-34.3511378051206],[-70.9644291899999,-34.3496082511206],[-70.9641304039999,-34.3495594891206]]]}},{"type":"Feature","properties":{"id":"6114011002026","commune":"Quinta De Tilcoco","code":"06114","gse":"C3","quintil":"Q2","nse_score":678.7,"educ":11.2,"educ_score":546.7,"hacin":1.464,"hacin_class":"Hacinamiento Leve","hacin_score":752.4,"auto_score":357.1,"n_per":101,"n_hog":36,"source_year":2024,"crime_score":0.0432,"crime_nivel":"Muy Bajo","crime_color":"#4caf50"},"geometry":{"type":"Polygon","coordinates":[[[-70.9647719619999,-34.3511177851206],[-70.9650960099999,-34.3510469421206],[-70.9648009189999,-34.3496242841206],[-70.9644926289999,-34.3495968631206],[-70.9647719619999,-34.3511177851206]]]}},{"type":"Feature","properties":{"id":"6114011002027","commune":"Quinta De Tilcoco","code":"06114","gse":"C3","quintil":"Q2","nse_score":674.5,"educ":11.0,"educ_score":533.3,"hacin":1.478,"hacin_class":"Hacinamiento Leve","hacin_score":749.3,"auto_score":272.7,"n_per":102,"n_hog":32,"source_year":2024,"crime_score":0.0433,"crime_nivel":"Muy Bajo","crime_color":"#4caf50"},"geometry":{"type":"Polygon","coordinates":[[[-70.9651456469999,-34.3510683251206],[-70.9654581389999,-34.3509774701206],[-70.9651926739999,-34.3496646091206],[-70.9648611259999,-34.3496234971206],[-70.9651456469999,-34.3510683251206]]]}},{"type":"Feature","properties":{"id":"6114011002028","commune":"Quinta De Tilcoco","code":"06114","gse":"D","quintil":"Q2","nse_score":653.1,"educ":9.9,"educ_score":460.0,"hacin":1.27,"hacin_class":"Hacinamiento Leve","hacin_score":793.7,"auto_score":189.7,"n_per":80,"n_hog":30,"source_year":2024,"crime_score":0.0433,"crime_nivel":"Muy Bajo","crime_color":"#4caf50"},"geometry":{"type":"Polygon","coordinates":[[[-70.9655168509999,-34.3510150281206],[-70.9658202269999,-34.3509574991206],[-70.9656824139999,-34.3501906981206],[-70.9655662789999,-34.3496771831206],[-70.9652467139999,-34.3496511181206],[-70.9655168509999,-34.3510150281206]]]}},{"type":"Feature","properties":{"id":"6114011002029","commune":"Quinta De Tilcoco","code":"06114","gse":"C3","quintil":"Q3","nse_score":711.8,"educ":10.7,"educ_score":513.3,"hacin":0.826,"hacin_class":"Sin Hacinamiento","hacin_score":888.1,"auto_score":50.0,"n_per":19,"n_hog":11,"source_year":2024,"crime_score":0.0407,"crime_nivel":"Muy Bajo","crime_color":"#4caf50"},"geometry":{"type":"Polygon","coordinates":[[[-70.9660099279999,-34.3497145081206],[-70.9656621779999,-34.3497011591206],[-70.9657459149999,-34.3501400881206],[-70.9660903079999,-34.3500887521206],[-70.9660099279999,-34.3497145081206]]]}},{"type":"Feature","properties":{"id":"6114011002030","commune":"Quinta De Tilcoco","code":"06114","gse":"D","quintil":"Q2","nse_score":658.7,"educ":10.0,"educ_score":466.7,"hacin":1.283,"hacin_class":"Hacinamiento Leve","hacin_score":790.8,"auto_score":195.7,"n_per":77,"n_hog":25,"source_year":2024,"crime_score":0.0431,"crime_nivel":"Muy Bajo","crime_color":"#4caf50"},"geometry":{"type":"Polygon","coordinates":[[[-70.9670489439999,-34.3498198951206],[-70.9665746399999,-34.3497407791206],[-70.9660666599999,-34.3497511051206],[-70.9661438809999,-34.3500924901206],[-70.9669385559999,-34.3501575321206],[-70.9670489439999,-34.3498198951206]]]}},{"type":"Feature","properties":{"id":"6114011002031","commune":"Quinta De Tilcoco","code":"06114","gse":"C3","quintil":"Q2","nse_score":681.9,"educ":11.4,"educ_score":560.0,"hacin":1.429,"hacin_class":"Hacinamiento Leve","hacin_score":759.7,"auto_score":265.0,"n_per":596,"n_hog":202,"source_year":2024,"crime_score":0.0472,"crime_nivel":"Muy Bajo","crime_color":"#4caf50"},"geometry":{"type":"Polygon","coordinates":[[[-70.9668113189999,-34.3511434581206],[-70.9669620399999,-34.3502320811206],[-70.9665820989999,-34.3501996871206],[-70.9663394659999,-34.3513823081206],[-70.9660712049999,-34.3501645271206],[-70.9657511389999,-34.3502381031206],[-70.9659849089999,-34.3514502171206],[-70.9658411899999,-34.3510311871206],[-70.9655141369999,-34.3510850391206],[-70.9655723789999,-34.3514237541206],[-70.9654653719999,-34.3510823961206],[-70.9651543529999,-34.3511292271206],[-70.9651999349999,-34.3514379401206],[-70.9650988069999,-34.3511341761206],[-70.9647772069999,-34.3511841521206],[-70.9648285609999,-34.3514840261206],[-70.9647362259999,-34.3511889571206],[-70.9643881949999,-34.3512570281206],[-70.9645197859999,-34.3518693881206],[-70.9652551139999,-34.3527400691206],[-70.9673283909999,-34.3524574741206],[-70.9673619189999,-34.3531291511206],[-70.9672689189999,-34.3524917191206],[-70.9668134689999,-34.3525597021206],[-70.9668730099999,-34.3531723421206],[-70.9667594779999,-34.3525676281205],[-70.9663418219999,-34.3526214491206],[-70.9663653949999,-34.3531746111205],[-70.9662815619999,-34.3526253621205],[-70.9652797479999,-34.3527738111206],[-70.9660394429999,-34.3539248101206],[-70.9697164969999,-34.3536210641205],[-70.9699524319999,-34.3500031121206],[-70.9671456499999,-34.3497946271206],[-70.9668113189999,-34.3511434581206]]]}},{"type":"Feature","properties":{"id":"6114011002032","commune":"Quinta De Tilcoco","code":"06114","gse":"D","quintil":"Q2","nse_score":645.0,"educ":9.3,"educ_score":420.0,"hacin":1.231,"hacin_class":"Hacinamiento Leve","hacin_score":802.0,"auto_score":363.6,"n_per":32,"n_hog":12,"source_year":2024,"crime_score":0.0425,"crime_nivel":"Muy Bajo","crime_color":"#4caf50"},"geometry":{"type":"Polygon","coordinates":[[[-70.963202711,-34.3505355291206],[-70.9630628649999,-34.3498810131206],[-70.9624539409999,-34.3501126741206],[-70.9627534279999,-34.3505784411206],[-70.963202711,-34.3505355291206]]]}},{"type":"Feature","properties":{"id":"6114011002033","commune":"Quinta De Tilcoco","code":"06114","gse":"E","quintil":"Q1","nse_score":518.1,"educ":8.4,"educ_score":360.0,"hacin":1.75,"hacin_class":"Hacinamiento Medio","hacin_score":691.5,"auto_score":222.2,"n_per":28,"n_hog":9,"source_year":2024,"crime_score":0.0453,"crime_nivel":"Muy Bajo","crime_color":"#4caf50"},"geometry":{"type":"Polygon","coordinates":[[[-70.9637394409999,-34.3504898601206],[-70.9636248869999,-34.3498944471206],[-70.9631334279999,-34.3498814141206],[-70.9632849309999,-34.3505183411206],[-70.9637394409999,-34.3504898601206]]]}},{"type":"Feature","properties":{"id":"6114011002034","commune":"Quinta De Tilcoco","code":"06114","gse":"D","quintil":"Q2","nse_score":650.0,"educ":9.6,"educ_score":440.0,"hacin":1.333,"hacin_class":"Hacinamiento Leve","hacin_score":780.1,"auto_score":0.0,"n_per":16,"n_hog":7,"source_year":2024,"crime_score":0.0421,"crime_nivel":"Muy Bajo","crime_color":"#4caf50"},"geometry":{"type":"Polygon","coordinates":[[[-70.9665526769999,-34.3501920451205],[-70.9661531609999,-34.3501733081206],[-70.9663288349999,-34.3510760991206],[-70.9665526769999,-34.3501920451205]]]}},{"type":"Feature","properties":{"id":"6114011002035","commune":"Quinta De Tilcoco","code":"06114","gse":"C3","quintil":"Q2","nse_score":666.0,"educ":10.7,"educ_score":513.3,"hacin":1.333,"hacin_class":"Hacinamiento Leve","hacin_score":780.1,"auto_score":200.0,"n_per":32,"n_hog":15,"source_year":2024,"crime_score":0.042,"crime_nivel":"Muy Bajo","crime_color":"#4caf50"},"geometry":{"type":"Polygon","coordinates":[[[-70.9626777039999,-34.3505851551206],[-70.9623773369999,-34.3501469031206],[-70.9615729939999,-34.3505299231206],[-70.9618370399999,-34.3509071781206],[-70.9626777039999,-34.3505851551206]]]}},{"type":"Feature","properties":{"id":"6114011002036","commune":"Quinta De Tilcoco","code":"06114","gse":"D","quintil":"Q1","nse_score":633.8,"educ":10.8,"educ_score":520.0,"hacin":1.375,"hacin_class":"Hacinamiento Leve","hacin_score":771.3,"auto_score":194.4,"n_per":198,"n_hog":76,"source_year":2024,"crime_score":0.0463,"crime_nivel":"Muy Bajo","crime_color":"#4caf50"},"geometry":{"type":"Polygon","coordinates":[[[-70.9638222769999,-34.3505689581206],[-70.9639506569999,-34.3508808511206],[-70.9630305149999,-34.3513748391206],[-70.9625196269999,-34.3506873221206],[-70.9608475829999,-34.3515063111206],[-70.9619910659999,-34.3530893081206],[-70.9633728939999,-34.3524441091205],[-70.9620179499999,-34.3531233201206],[-70.9628890099999,-34.3541785241206],[-70.965889967,-34.3539438011206],[-70.9653745089999,-34.3529970581205],[-70.9644607529999,-34.3518926061205],[-70.9643293339999,-34.3513388511206],[-70.9631176949999,-34.3518453621206],[-70.9643108849999,-34.3512237361206],[-70.9641724649999,-34.3505234851206],[-70.9638222769999,-34.3505689581206]]]}},{"type":"Feature","properties":{"id":"6114011002037","commune":"Quinta De Tilcoco","code":"06114","gse":"C1","quintil":"Q5","nse_score":799.7,"educ":13.5,"educ_score":700.0,"hacin":1.167,"hacin_class":"Hacinamiento Leve","hacin_score":815.6,"auto_score":375.0,"n_per":14,"n_hog":5,"source_year":2024,"crime_score":0.0386,"crime_nivel":"Muy Bajo","crime_color":"#4caf50"},"geometry":{"type":"Polygon","coordinates":[[[-70.9635289259999,-34.3510796691206],[-70.9638494209999,-34.3509030331206],[-70.9637786049999,-34.3505516261206],[-70.9634060699999,-34.3505990791206],[-70.9635289259999,-34.3510796691206]]]}},{"type":"Feature","properties":{"id":"6114011002038","commune":"Quinta De Tilcoco","code":"06114","gse":"C2","quintil":"Q4","nse_score":727.6,"educ":12.8,"educ_score":653.3,"hacin":1.454,"hacin_class":"Hacinamiento Leve","hacin_score":754.4,"auto_score":350.0,"n_per":32,"n_hog":12,"source_year":2024,"crime_score":0.0406,"crime_nivel":"Muy Bajo","crime_color":"#4caf50"},"geometry":{"type":"Polygon","coordinates":[[[-70.9630340399999,-34.3513255521206],[-70.9634768169999,-34.3511014231206],[-70.963343043,-34.3505815161206],[-70.9625886429999,-34.3506819781206],[-70.9630340399999,-34.3513255521206]]]}},{"type":"Feature","properties":{"id":"6114011002039","commune":"Quinta De Tilcoco","code":"06114","gse":"C3","quintil":"Q2","nse_score":680.1,"educ":11.8,"educ_score":586.7,"hacin":1.417,"hacin_class":"Hacinamiento Leve","hacin_score":762.4,"auto_score":333.3,"n_per":34,"n_hog":12,"source_year":2024,"crime_score":0.0417,"crime_nivel":"Muy Bajo","crime_color":"#4caf50"},"geometry":{"type":"Polygon","coordinates":[[[-70.9732453499999,-34.3519185231206],[-70.9732904509999,-34.3515486391206],[-70.971940947,-34.3513622521206],[-70.9718733719999,-34.3517097171206],[-70.9732453499999,-34.3519185231206]]]}},{"type":"Feature","properties":{"id":"6114011002040","commune":"Quinta De Tilcoco","code":"06114","gse":"D","quintil":"Q2","nse_score":643.4,"educ":10.7,"educ_score":513.3,"hacin":1.469,"hacin_class":"Hacinamiento Leve","hacin_score":751.3,"auto_score":365.1,"n_per":166,"n_hog":65,"source_year":2024,"crime_score":0.0454,"crime_nivel":"Muy Bajo","crime_color":"#4caf50"},"geometry":{"type":"Polygon","coordinates":[[[-70.9739978119999,-34.3538007541206],[-70.974806499,-34.3538228691205],[-70.9748144609999,-34.3521881501206],[-70.9699256989999,-34.3514716011206],[-70.9698102629999,-34.3534560871205],[-70.9739493829999,-34.3537965891206],[-70.9739727689999,-34.3532106361205],[-70.9739978119999,-34.3538007541206]]]}},{"type":"Feature","properties":{"id":"6114011002041","commune":"Quinta De Tilcoco","code":"06114","gse":"C3","quintil":"Q2","nse_score":676.2,"educ":11.5,"educ_score":566.7,"hacin":1.17,"hacin_class":"Hacinamiento Leve","hacin_score":814.9,"auto_score":400.0,"n_per":62,"n_hog":22,"source_year":2024,"crime_score":0.0424,"crime_nivel":"Muy Bajo","crime_color":"#4caf50"},"geometry":{"type":"Polygon","coordinates":[[[-70.9764026649999,-34.3531007621205],[-70.9769474199999,-34.3529474291206],[-70.976950745,-34.3518576491206],[-70.9764128029999,-34.3517961901206],[-70.9764026649999,-34.3531007621205]]]}},{"type":"Feature","properties":{"id":"6114011002042","commune":"Quinta De Tilcoco","code":"06114","gse":"D","quintil":"Q2","nse_score":646.0,"educ":10.5,"educ_score":500.0,"hacin":1.146,"hacin_class":"Hacinamiento Leve","hacin_score":819.9,"auto_score":194.4,"n_per":47,"n_hog":18,"source_year":2024,"crime_score":0.0428,"crime_nivel":"Muy Bajo","crime_color":"#4caf50"},"geometry":{"type":"Polygon","coordinates":[[[-70.9758573209999,-34.3532244371206],[-70.976322836,-34.3530993461206],[-70.9763175149999,-34.3520716481206],[-70.9758761759999,-34.3520685861206],[-70.9758573209999,-34.3532244371206]]]}},{"type":"Feature","properties":{"id":"6114011002043","commune":"Quinta De Tilcoco","code":"06114","gse":"D","quintil":"Q1","nse_score":630.7,"educ":10.8,"educ_score":520.0,"hacin":1.25,"hacin_class":"Hacinamiento Leve","hacin_score":797.9,"auto_score":277.8,"n_per":50,"n_hog":18,"source_year":2024,"crime_score":0.0432,"crime_nivel":"Muy Bajo","crime_color":"#4caf50"},"geometry":{"type":"Polygon","coordinates":[[[-70.9748620129999,-34.3538582191205],[-70.9752848829999,-34.3538475171206],[-70.9752859079999,-34.3522697141206],[-70.9748831119999,-34.3521996651206],[-70.9748620129999,-34.3538582191205]]]}},{"type":"Feature","properties":{"id":"6114011002044","commune":"Quinta De Tilcoco","code":"06114","gse":"D","quintil":"Q2","nse_score":640.2,"educ":9.9,"educ_score":460.0,"hacin":1.083,"hacin_class":"Hacinamiento Leve","hacin_score":833.3,"auto_score":281.2,"n_per":52,"n_hog":17,"source_year":2024,"crime_score":0.043,"crime_nivel":"Muy Bajo","crime_color":"#4caf50"},"geometry":{"type":"Polygon","coordinates":[[[-70.9753919529999,-34.3533280651205],[-70.9758092619999,-34.3532334181206],[-70.9758224149999,-34.3523209221206],[-70.9753354719999,-34.3522739631206],[-70.9753919529999,-34.3533280651205]]]}},{"type":"Feature","properties":{"id":"6114021001001","commune":"Quinta De Tilcoco","code":"06114","gse":"D","quintil":"Q1","nse_score":619.6,"educ":10.6,"educ_score":506.7,"hacin":1.195,"hacin_class":"Hacinamiento Leve","hacin_score":809.5,"auto_score":351.9,"n_per":147,"n_hog":54,"source_year":2024,"crime_score":0.0455,"crime_nivel":"Muy Bajo","crime_color":"#4caf50"},"geometry":{"type":"MultiPolygon","coordinates":[[[[-70.9921337729999,-34.3686346601204],[-70.9921057319999,-34.3696362061204],[-70.9929486449999,-34.3697320701204],[-70.9929914779999,-34.3686542631204],[-70.9921337729999,-34.3686346601204]]],[[[-70.9891980689999,-34.3682282691204],[-70.9878722089999,-34.3684301461204],[-70.9867024229999,-34.3683634901204],[-70.9839797039999,-34.3693453771204],[-70.9836954279999,-34.3695528551204],[-70.981188658,-34.3696086021203],[-70.9815172709999,-34.3706749881204],[-70.9820554359999,-34.3706626311204],[-70.9819027469999,-34.3700697141204],[-70.9820786479999,-34.3706618231203],[-70.9869756259999,-34.3705218161204],[-70.9901687879999,-34.3699885311204],[-70.9912588409999,-34.3694224181204],[-70.9920405619999,-34.3696070621204],[-70.9921249289999,-34.3683438041204],[-70.9891980689999,-34.3682282691204]]]]}},{"type":"Feature","properties":{"id":"6114031001001","commune":"Quinta De Tilcoco","code":"06114","gse":"D","quintil":"Q1","nse_score":630.6,"educ":9.8,"educ_score":453.3,"hacin":1.456,"hacin_class":"Hacinamiento Leve","hacin_score":754.1,"auto_score":320.5,"n_per":99,"n_hog":39,"source_year":2024,"crime_score":0.0443,"crime_nivel":"Muy Bajo","crime_color":"#4caf50"},"geometry":{"type":"Polygon","coordinates":[[[-70.9914306119999,-34.3766791811203],[-70.9931184519999,-34.3771327551203],[-70.9936577049999,-34.3709339711204],[-70.9940602499999,-34.3710244151204],[-70.9965906759999,-34.3709417681204],[-70.9987017639999,-34.3716649521203],[-70.9985822509999,-34.3706091861204],[-70.9974178539999,-34.3701335881203],[-70.996050297,-34.3699634191203],[-70.996065315,-34.3704640051203],[-70.9962095109999,-34.3707559651203],[-70.996175246,-34.3708180691203],[-70.9960346199999,-34.3704661461204],[-70.9960145729999,-34.3699645111203],[-70.9942147479999,-34.3700482491203],[-70.9934441169999,-34.3698271931203],[-70.9920778219999,-34.3697249311204],[-70.9914306119999,-34.3766791811203]]]}},{"type":"Feature","properties":{"id":"6114031001002","commune":"Quinta De Tilcoco","code":"06114","gse":"D","quintil":"Q2","nse_score":656.4,"educ":10.4,"educ_score":493.3,"hacin":1.254,"hacin_class":"Hacinamiento Leve","hacin_score":797.1,"auto_score":300.0,"n_per":89,"n_hog":34,"source_year":2024,"crime_score":0.0434,"crime_nivel":"Muy Bajo","crime_color":"#4caf50"},"geometry":{"type":"Polygon","coordinates":[[[-70.9985822509999,-34.3706091861204],[-70.9992290579999,-34.3758141971203],[-71.0001016689999,-34.3761021251203],[-71.0026058539999,-34.3760573571203],[-71.0020452469999,-34.3733051971203],[-71.0004901249999,-34.3736148311203],[-71.0004157229999,-34.3738653501203],[-71.0005607139999,-34.3749459341203],[-71.0005094899999,-34.3747786021203],[-70.9995180319999,-34.3748817361203],[-71.0005070659999,-34.3747597251203],[-71.0003830969999,-34.3738651621203],[-71.0004602629999,-34.3736039091203],[-71.0003541089999,-34.3731904011203],[-70.9996197549999,-34.3731112501204],[-71.0003477669999,-34.3731477671203],[-71.0000477599999,-34.3711907111203],[-70.9997964199999,-34.3709554351203],[-70.9985822509999,-34.3706091861204]]]}},{"type":"Feature","properties":{"id":"6114013031001","commune":"Quinta De Tilcoco","code":"06114","gse":"D","quintil":"Q1","nse_score":625.7,"educ":9.1,"educ_score":406.7,"hacin":1.297,"hacin_class":"Hacinamiento Leve","hacin_score":787.9,"auto_score":200.0,"n_per":83,"n_hog":29,"source_year":2024,"crime_score":0.044,"crime_nivel":"Muy Bajo","crime_color":"#4caf50"},"geometry":{"type":"Polygon","coordinates":[[[-70.9610831249999,-34.3355018991208],[-70.9601701359999,-34.3360513531208],[-70.9607838589999,-34.3362111951207],[-70.9619817339999,-34.3358174841208],[-70.9618258039999,-34.3354324011208],[-70.9612746209999,-34.3355366141208],[-70.9618146299999,-34.3353783091208],[-70.9618808079999,-34.3352273071208],[-70.9621315779999,-34.3351449371208],[-70.961952246,-34.3347461651208],[-70.9621924209999,-34.3351253271208],[-70.9627240719999,-34.3349539691208],[-70.962468225,-34.3343598691208],[-70.9627853699999,-34.3349355331208],[-70.9632140639999,-34.3348001901208],[-70.9629017399999,-34.3340545751208],[-70.9617113029999,-34.3348308911208],[-70.9610831249999,-34.3355018991208]]]}},{"type":"Feature","properties":{"id":"6114013031002","commune":"Quinta De Tilcoco","code":"06114","gse":"C3","quintil":"Q3","nse_score":684.7,"educ":10.5,"educ_score":500.0,"hacin":1.27,"hacin_class":"Hacinamiento Leve","hacin_score":793.6,"auto_score":166.7,"n_per":47,"n_hog":15,"source_year":2024,"crime_score":0.0419,"crime_nivel":"Muy Bajo","crime_color":"#4caf50"},"geometry":{"type":"Polygon","coordinates":[[[-70.9620213559999,-34.3357519721208],[-70.9634727659999,-34.3353629661208],[-70.9632363029999,-34.3348511691208],[-70.9619234069999,-34.3352700621208],[-70.9620213559999,-34.3357519721208]]]}},{"type":"Feature","properties":{"id":"6114013031003","commune":"Quinta De Tilcoco","code":"06114","gse":"C3","quintil":"Q3","nse_score":710.9,"educ":11.3,"educ_score":553.3,"hacin":1.194,"hacin_class":"Hacinamiento Leve","hacin_score":809.7,"auto_score":200.0,"n_per":43,"n_hog":15,"source_year":2024,"crime_score":0.0412,"crime_nivel":"Muy Bajo","crime_color":"#4caf50"},"geometry":{"type":"Polygon","coordinates":[[[-70.9620674899999,-34.3358489151207],[-70.9622411589999,-34.3362144161208],[-70.96370558,-34.3358185821208],[-70.9634972009999,-34.3354131431207],[-70.9620674899999,-34.3358489151207]]]}},{"type":"Feature","properties":{"id":"6114013031004","commune":"Quinta De Tilcoco","code":"06114","gse":"D","quintil":"Q1","nse_score":629.7,"educ":9.8,"educ_score":453.3,"hacin":1.389,"hacin_class":"Hacinamiento Leve","hacin_score":768.3,"auto_score":327.4,"n_per":275,"n_hog":82,"source_year":2024,"crime_score":0.048,"crime_nivel":"Muy Bajo","crime_color":"#4caf50"},"geometry":{"type":"Polygon","coordinates":[[[-70.9639453929999,-34.3386907111207],[-70.9653184549999,-34.3384958201207],[-70.9661058599999,-34.3379774241207],[-70.9673309879999,-34.3380264451208],[-70.9674851239999,-34.3377157471207],[-70.9663371839999,-34.3376397481207],[-70.9674937979999,-34.3376803271207],[-70.9674945359999,-34.3365683671207],[-70.9657627049999,-34.3368640621208],[-70.9640681319999,-34.3373797981207],[-70.9657241889999,-34.3368369211207],[-70.9653671589999,-34.3358492571208],[-70.9635881059999,-34.3358760661208],[-70.9620387009999,-34.3363312781207],[-70.9624248309999,-34.3369133141208],[-70.9629625939999,-34.3373074941208],[-70.9641192689999,-34.3371215971208],[-70.9629729609999,-34.3373426591208],[-70.9628676919999,-34.3378808081208],[-70.9622598329999,-34.3378639791208],[-70.9623770999999,-34.3369535541207],[-70.9619764149999,-34.3363495771208],[-70.9613067199999,-34.3365817141207],[-70.9616232219999,-34.3370598461207],[-70.9614719429999,-34.3379361061207],[-70.9617132489999,-34.3380566251207],[-70.962400236,-34.3380147011208],[-70.9631115669999,-34.3382024361207],[-70.9639453929999,-34.3386907111207]]]}},{"type":"Feature","properties":{"id":"6114013031005","commune":"Quinta De Tilcoco","code":"06114","gse":"E","quintil":"Q1","nse_score":568.2,"educ":8.6,"educ_score":373.3,"hacin":1.458,"hacin_class":"Hacinamiento Leve","hacin_score":753.5,"auto_score":107.1,"n_per":35,"n_hog":12,"source_year":2024,"crime_score":0.0443,"crime_nivel":"Muy Bajo","crime_color":"#4caf50"},"geometry":{"type":"Polygon","coordinates":[[[-70.9620062919999,-34.3358676191208],[-70.9608481049999,-34.3362302311208],[-70.9607660129999,-34.3365930991207],[-70.9609373339999,-34.3366466361208],[-70.9621796579999,-34.3362324841207],[-70.9620062919999,-34.3358676191208]]]}},{"type":"Feature","properties":{"id":"6114013031006","commune":"Quinta De Tilcoco","code":"06114","gse":"D","quintil":"Q2","nse_score":656.4,"educ":9.6,"educ_score":440.0,"hacin":1.077,"hacin_class":"Hacinamiento Leve","hacin_score":834.7,"auto_score":200.0,"n_per":28,"n_hog":10,"source_year":2024,"crime_score":0.0422,"crime_nivel":"Muy Bajo","crime_color":"#4caf50"},"geometry":{"type":"Polygon","coordinates":[[[-70.9623472379999,-34.3377500831207],[-70.9628140689999,-34.3378134151207],[-70.9629079569999,-34.3373384101207],[-70.9624640819999,-34.3369587041207],[-70.9623472379999,-34.3377500831207]]]}},{"type":"Feature","properties":{"id":"6114013031007","commune":"Quinta De Tilcoco","code":"06114","gse":"E","quintil":"Q1","nse_score":524.0,"educ":10.3,"educ_score":486.7,"hacin":1.8,"hacin_class":"Hacinamiento Medio","hacin_score":680.9,"auto_score":250.0,"n_per":9,"n_hog":5,"source_year":2024,"crime_score":0.0448,"crime_nivel":"Muy Bajo","crime_color":"#4caf50"},"geometry":{"type":"Polygon","coordinates":[[[-70.9674669529999,-34.3385118571207],[-70.9672606509999,-34.3380651291207],[-70.9661723239999,-34.3380122401207],[-70.9651664419999,-34.3385961701208],[-70.9639582989999,-34.3387261291207],[-70.9642948349999,-34.3392598111207],[-70.9647047439999,-34.3394066861207],[-70.9655174949999,-34.3386992831207],[-70.9674669529999,-34.3385118571207]]]}},{"type":"Feature","properties":{"id":"6114023015001","commune":"Quinta De Tilcoco","code":"06114","gse":"D","quintil":"Q1","nse_score":614.6,"educ":9.9,"educ_score":460.0,"hacin":1.343,"hacin_class":"Hacinamiento Leve","hacin_score":778.1,"auto_score":357.1,"n_per":94,"n_hog":35,"source_year":2024,"crime_score":0.0445,"crime_nivel":"Muy Bajo","crime_color":"#4caf50"},"geometry":{"type":"Polygon","coordinates":[[[-71.0143153639999,-34.3483156731206],[-71.0139589089999,-34.3502389341206],[-71.0132194759999,-34.3500560661206],[-71.0124810039999,-34.3501412991206],[-71.0101406539999,-34.3510212981206],[-71.0096791329999,-34.3512896961206],[-71.0095989979999,-34.3515479521206],[-71.0102010969999,-34.3520858501206],[-71.0107822419999,-34.3517306231205],[-71.0130619489999,-34.3509270701206],[-71.0135558689999,-34.3510610651206],[-71.0143562109999,-34.3516994811206],[-71.0149723999999,-34.3515847121206],[-71.0150603549999,-34.3511570521206],[-71.0149600099999,-34.3501293181206],[-71.0151801639999,-34.3491550271206],[-71.0150033419999,-34.3501323101206],[-71.0151038449999,-34.3511558661206],[-71.0150153389999,-34.3515910511206],[-71.0152104359999,-34.3516690351206],[-71.0155908329999,-34.3528792021206],[-71.0159539119999,-34.3528595901205],[-71.0162242329999,-34.3530928801206],[-71.0159450549999,-34.3528772071206],[-71.0155953729999,-34.3528969751206],[-71.015778457,-34.3534408891206],[-71.0160570589999,-34.3537438701206],[-71.0165985359999,-34.3537154651205],[-71.0166763379999,-34.3533912191206],[-71.0196012599999,-34.3525707611205],[-71.0191468129999,-34.3517983711205],[-71.0190689439999,-34.3515735021206],[-71.0190481859999,-34.3513089731206],[-71.0191667149999,-34.3517910621206],[-71.0196112519999,-34.3525444891206],[-71.0201491989999,-34.3518746481205],[-71.0201018729999,-34.3517440881205],[-71.0206599009999,-34.3516718461206],[-71.0202259049999,-34.3499169411206],[-71.0194585609999,-34.3501326461206],[-71.0186793869999,-34.3498076411206],[-71.0188565239999,-34.3496061061206],[-71.0185837629999,-34.3490831481206],[-71.0182642319999,-34.3487997301206],[-71.0166101729999,-34.3488774391206],[-71.0143153639999,-34.3483156731206]]]}},{"type":"Feature","properties":{"id":"6114023015003","commune":"Quinta De Tilcoco","code":"06114","gse":"C3","quintil":"Q2","nse_score":669.7,"educ":10.4,"educ_score":493.3,"hacin":1.516,"hacin_class":"Hacinamiento Medio","hacin_score":741.2,"auto_score":357.1,"n_per":47,"n_hog":15,"source_year":2024,"crime_score":0.0423,"crime_nivel":"Muy Bajo","crime_color":"#4caf50"},"geometry":{"type":"Polygon","coordinates":[[[-71.012130667,-34.3515765381206],[-71.0122440389999,-34.3518682501206],[-71.0130420699999,-34.3514904781206],[-71.0128504629999,-34.3512324701206],[-71.012130667,-34.3515765381206]]]}},{"type":"Feature","properties":{"id":"6114023015004","commune":"Quinta De Tilcoco","code":"06114","gse":"D","quintil":"Q1","nse_score":629.5,"educ":10.2,"educ_score":480.0,"hacin":1.421,"hacin_class":"Hacinamiento Leve","hacin_score":761.5,"auto_score":318.2,"n_per":27,"n_hog":11,"source_year":2024,"crime_score":0.0428,"crime_nivel":"Muy Bajo","crime_color":"#4caf50"},"geometry":{"type":"Polygon","coordinates":[[[-71.0122739029999,-34.3518955801206],[-71.0125419629999,-34.3521408911205],[-71.0131444209999,-34.3518726641206],[-71.0131398949999,-34.3516222041206],[-71.0130648549999,-34.3515211591206],[-71.0122739029999,-34.3518955801206]]]}},{"type":"Feature","properties":{"id":"6114023015005","commune":"Quinta De Tilcoco","code":"06114","gse":"D","quintil":"Q1","nse_score":629.5,"educ":11.6,"educ_score":573.3,"hacin":1.323,"hacin_class":"Hacinamiento Leve","hacin_score":782.3,"auto_score":258.6,"n_per":86,"n_hog":30,"source_year":2024,"crime_score":0.044,"crime_nivel":"Muy Bajo","crime_color":"#4caf50"},"geometry":{"type":"Polygon","coordinates":[[[-71.0202171149999,-34.3535785551206],[-71.0196123679999,-34.3526250581206],[-71.0167067719999,-34.3534395271205],[-71.0166344649999,-34.3537620851205],[-71.0160892189999,-34.3537909481205],[-71.016139817,-34.3544211481205],[-71.0162580949999,-34.3545219791205],[-71.0184119479999,-34.3542438111206],[-71.0202649349999,-34.3538659561205],[-71.0208849669999,-34.3539896881206],[-71.0212292519999,-34.3546226491206],[-71.0225616639999,-34.3550092801205],[-71.0249483309999,-34.3553212851205],[-71.0250788739999,-34.3551613791205],[-71.0253773109999,-34.3551079981205],[-71.0253041469999,-34.3545643021205],[-71.0242851269999,-34.3546277811205],[-71.0241082169999,-34.3536085301205],[-71.0228366999999,-34.3541612581205],[-71.0223899669999,-34.3539130291206],[-71.0219821059999,-34.3534122341206],[-71.0202171149999,-34.3535785551206]]]}},{"type":"Feature","properties":{"id":"6114023015006","commune":"Quinta De Tilcoco","code":"06114","gse":"C3","quintil":"Q2","nse_score":660.9,"educ":11.1,"educ_score":540.0,"hacin":1.138,"hacin_class":"Hacinamiento Leve","hacin_score":821.7,"auto_score":327.9,"n_per":173,"n_hog":60,"source_year":2024,"crime_score":0.0451,"crime_nivel":"Muy Bajo","crime_color":"#4caf50"},"geometry":{"type":"Polygon","coordinates":[[[-71.0161787399999,-34.3545633691206],[-71.0160466499999,-34.3548626321205],[-71.0162961299999,-34.3564523931205],[-71.0167334689999,-34.3563029941205],[-71.0169638499999,-34.3563496551205],[-71.0177405939999,-34.3570098411205],[-71.0178321409999,-34.3574031661205],[-71.0177520689999,-34.3574949541205],[-71.0176418959999,-34.3569967981205],[-71.0167474079999,-34.3563562091205],[-71.01630689,-34.3565229601205],[-71.0163457429999,-34.3568239791205],[-71.0167390389999,-34.3568257001205],[-71.0170935909999,-34.3573627871205],[-71.0166981259999,-34.3568683691205],[-71.0163439609999,-34.3568740561205],[-71.0162413139999,-34.3573594271205],[-71.0164784469999,-34.3573180241205],[-71.0166432249999,-34.3575294981205],[-71.0164533959999,-34.3573703101205],[-71.0162257549999,-34.3574200141205],[-71.0160262969999,-34.3580799061205],[-71.0177523819999,-34.3579509171205],[-71.0178638249999,-34.3575522421205],[-71.0185347329999,-34.3576460111205],[-71.0185454409999,-34.3578066241205],[-71.0194901249999,-34.3579008811205],[-71.0195440939999,-34.3586056871205],[-71.0221105869999,-34.3580457771205],[-71.0221106609999,-34.3582892171205],[-71.0225764259999,-34.3581381501205],[-71.0235407389999,-34.3552039841205],[-71.0225440489999,-34.3550613791205],[-71.0211893669999,-34.3546658431206],[-71.0211707589999,-34.3550329451205],[-71.0207168599999,-34.3551230431205],[-71.0204351509999,-34.3561495061205],[-71.0203029739999,-34.3562128241205],[-71.0195415249999,-34.3561485781205],[-71.019422673,-34.3562113061205],[-71.0191443249999,-34.3564401831205],[-71.0189890529999,-34.3570590931205],[-71.0191608369999,-34.3563254401205],[-71.0195263659999,-34.3560949001205],[-71.0203586619999,-34.3561412651205],[-71.0206637759999,-34.3550872241205],[-71.0211154639999,-34.3549973881206],[-71.0211319789999,-34.3546044431205],[-71.0208386779999,-34.3540284561205],[-71.0198854669999,-34.3539344591206],[-71.0186381209999,-34.3542612781206],[-71.0161787399999,-34.3545633691206]]]}},{"type":"Feature","properties":{"id":"6114023015008","commune":"Quinta De Tilcoco","code":"06114","gse":"C2","quintil":"Q4","nse_score":739.8,"educ":13.2,"educ_score":680.0,"hacin":1.0,"hacin_class":"Hacinamiento Leve","hacin_score":851.1,"auto_score":125.0,"n_per":17,"n_hog":7,"source_year":2024,"crime_score":0.04,"crime_nivel":"Muy Bajo","crime_color":"#4caf50"},"geometry":{"type":"Polygon","coordinates":[[[-71.0265602089999,-34.3571682431205],[-71.0258243369999,-34.3555362731205],[-71.0255566469999,-34.3555987331206],[-71.0254882379999,-34.3554024281205],[-71.0256547999999,-34.3553756591205],[-71.0256254269999,-34.3551406241205],[-71.0251124979999,-34.3552088051205],[-71.0250092789999,-34.3553406901205],[-71.0254623149999,-34.3559609271205],[-71.0261667859999,-34.3573340891205],[-71.0265602089999,-34.3571682431205]]]}},{"type":"Feature","properties":{"id":"6114023015009","commune":"Quinta De Tilcoco","code":"06114","gse":"D","quintil":"Q1","nse_score":634.8,"educ":10.2,"educ_score":480.0,"hacin":1.358,"hacin_class":"Hacinamiento Leve","hacin_score":775.0,"auto_score":230.8,"n_per":224,"n_hog":77,"source_year":2024,"crime_score":0.0468,"crime_nivel":"Muy Bajo","crime_color":"#4caf50"},"geometry":{"type":"Polygon","coordinates":[[[-71.0289369969999,-34.3624142911204],[-71.0284226019999,-34.3622915071205],[-71.0289418909999,-34.3623306861205],[-71.028988448,-34.3619587671204],[-71.0281928829999,-34.3619598531204],[-71.0290047149999,-34.3619219251204],[-71.0282405689999,-34.3598873371204],[-71.0274286479999,-34.3596047171205],[-71.0276074759999,-34.3607387121205],[-71.0273600039999,-34.3595936931205],[-71.0263992169999,-34.3595597921205],[-71.0263135579999,-34.3597190491204],[-71.0263866249999,-34.3606211541205],[-71.0262485059999,-34.3597233791205],[-71.0263099969999,-34.3595514871205],[-71.0272575469999,-34.3595353301205],[-71.026910632,-34.3588853661205],[-71.0264025419999,-34.3588908841205],[-71.0261636089999,-34.3587510721205],[-71.02688803,-34.3588338881205],[-71.0266569149999,-34.3583222951205],[-71.0264670439999,-34.3579686761205],[-71.0246744099999,-34.3583459811205],[-71.0264416839999,-34.3579179601205],[-71.0250730959999,-34.3554525931205],[-71.0236063429999,-34.3552095861205],[-71.0231368819999,-34.3567585661205],[-71.0234765769999,-34.3568870741205],[-71.0231200259999,-34.3568167001205],[-71.023016175,-34.3571748451205],[-71.0231656639999,-34.3574327571205],[-71.0241991959999,-34.3575508201205],[-71.0231353139999,-34.3574824731205],[-71.0229874609999,-34.3572590511205],[-71.0226643259999,-34.3581287471205],[-71.0222512799999,-34.3582868931205],[-71.0242121969999,-34.3581455461205],[-71.0243698479999,-34.3587202481205],[-71.0235715109999,-34.3587763931204],[-71.0234945189999,-34.3594026871205],[-71.0248764579999,-34.3594513941205],[-71.0251522219999,-34.3603915181204],[-71.0260722619999,-34.3603715161205],[-71.0261839229999,-34.3609469761204],[-71.0267131299999,-34.3609429831204],[-71.0267097989999,-34.3608046751205],[-71.027528119,-34.3608039151205],[-71.0275114219999,-34.3609723691205],[-71.0268384979999,-34.3611052381205],[-71.026702542,-34.3614275701205],[-71.0267108439999,-34.3621824871204],[-71.0289369969999,-34.3624142911204]]]}},{"type":"Feature","properties":{"id":"6114023015002","commune":"Quinta De Tilcoco","code":"06114","gse":"D","quintil":"Q2","nse_score":649.3,"educ":11.2,"educ_score":546.7,"hacin":1.177,"hacin_class":"Hacinamiento Leve","hacin_score":813.3,"auto_score":233.3,"n_per":146,"n_hog":55,"source_year":2024,"crime_score":0.0448,"crime_nivel":"Muy Bajo","crime_color":"#4caf50"},"geometry":{"type":"MultiPolygon","coordinates":[[[[-71.0155427359999,-34.3559834241205],[-71.0139677369999,-34.3564413391205],[-71.0140973079999,-34.3567380811205],[-71.0158852229999,-34.3563975861205],[-71.0162805679999,-34.3568579361205],[-71.0159825479999,-34.3548951951205],[-71.0160371259999,-34.3546067631205],[-71.0157750609999,-34.3558440241206],[-71.0155427359999,-34.3559834241205]]],[[[-71.0132659339999,-34.3510002291206],[-71.0120642179999,-34.3513703041206],[-71.0121132619999,-34.3515225181206],[-71.0128739369999,-34.3511709701206],[-71.013203341,-34.3516061331206],[-71.0132013869999,-34.3519068521206],[-71.0125175519999,-34.3521975211206],[-71.0121583049999,-34.3518689641206],[-71.0120047979999,-34.3513951301206],[-71.010725035,-34.3518141721206],[-71.0102461649999,-34.3521261181206],[-71.0107966979999,-34.3523625641205],[-71.0114855689999,-34.3523016531205],[-71.0119963239999,-34.3520092411206],[-71.012139971,-34.3520068791206],[-71.012291607,-34.3523244671206],[-71.0132528039999,-34.3522426971206],[-71.0133679339999,-34.3527609611206],[-71.0126524009999,-34.3529099021206],[-71.0130503539999,-34.3542798031205],[-71.0135984019999,-34.3538616441205],[-71.0155423149999,-34.3540723971205],[-71.0155502449999,-34.3544068731206],[-71.0136712839999,-34.3548811561205],[-71.0131679259999,-34.3548628001205],[-71.0137657499999,-34.3564041791205],[-71.0157462109999,-34.3558048861205],[-71.0158608849999,-34.3548631051205],[-71.0160978309999,-34.3544992671205],[-71.0160401509999,-34.3538317921205],[-71.0157199329999,-34.3534649541206],[-71.0155305469999,-34.3529041741206],[-71.0147159029999,-34.3530835421206],[-71.0146405629999,-34.3530789751206],[-71.0155260469999,-34.3528865561205],[-71.0151527509999,-34.3516957111206],[-71.0143293669999,-34.3517488151206],[-71.0132659339999,-34.3510002291206]]]]}},{"type":"Feature","properties":{"id":"6114023015010","commune":"Quinta De Tilcoco","code":"06114","gse":"C3","quintil":"Q2","nse_score":670.4,"educ":11.0,"educ_score":533.3,"hacin":1.308,"hacin_class":"Hacinamiento Leve","hacin_score":785.6,"auto_score":178.6,"n_per":34,"n_hog":14,"source_year":2024,"crime_score":0.042,"crime_nivel":"Muy Bajo","crime_color":"#4caf50"},"geometry":{"type":"MultiPolygon","coordinates":[[[[-71.0289601599999,-34.3608864921205],[-71.0286205949999,-34.3608345341204],[-71.0287583799999,-34.3612613991205],[-71.0290847219999,-34.3612968311205],[-71.0297541709999,-34.3610052291205],[-71.0314105769999,-34.3606831471205],[-71.0312715219999,-34.3603372691205],[-71.0289601599999,-34.3608864921205]]],[[[-71.0281811689999,-34.3597462351205],[-71.0284514119999,-34.3603369741205],[-71.0291032459999,-34.3602418361205],[-71.0284671889999,-34.3603828101205],[-71.0285994819999,-34.3607671701204],[-71.0288053979999,-34.3608238311205],[-71.0312844929999,-34.3602777131205],[-71.0311935189999,-34.3599916381205],[-71.0305334739999,-34.3599394781205],[-71.0301252479999,-34.3597208441205],[-71.0291168899999,-34.3596519141205],[-71.0288464429999,-34.3597645951205],[-71.0278205509999,-34.3595801311204],[-71.0271722489999,-34.3577757761205],[-71.0264651849999,-34.3578253101205],[-71.0271927279999,-34.3593981721205],[-71.0281811689999,-34.3597462351205]]]]}}]}