{"type":"FeatureCollection","features":[{"type":"Feature","properties":{"id":"7305011001001","commune":"Rauco","code":"07305","gse":"D","quintil":"Q2","nse_score":643.8,"educ":10.0,"educ_score":466.7,"hacin":1.341,"hacin_class":"Hacinamiento Leve","hacin_score":778.5,"auto_score":152.0,"n_per":283,"n_hog":100,"source_year":2024},"geometry":{"type":"Polygon","coordinates":[[[-71.3190276709999,-34.919270912114],[-71.3176928589999,-34.919675171114],[-71.3170807879999,-34.920320299114],[-71.315496144,-34.920641412114],[-71.3150070569999,-34.920988898114],[-71.3140948539999,-34.9202608721139],[-71.3136439609999,-34.919385445114],[-71.3130535099999,-34.919463152114],[-71.3130615259999,-34.919908423114],[-71.3114873199999,-34.921698197114],[-71.3133072909999,-34.9227939551139],[-71.3137397389999,-34.9223042711139],[-71.3137497309999,-34.922047677114],[-71.3131733939999,-34.921732177114],[-71.3135169869999,-34.921292815114],[-71.3134830659999,-34.921432288114],[-71.313918655,-34.921632229114],[-71.3143567859999,-34.921126656114],[-71.3140333179999,-34.921550715114],[-71.3138018999999,-34.922313002114],[-71.3134081889999,-34.9228194791139],[-71.314375906,-34.9234100951139],[-71.3152050929999,-34.9224787171139],[-71.3149947649999,-34.9222976761139],[-71.3152290549999,-34.922453425114],[-71.3154399239999,-34.9222149411139],[-71.315111553,-34.921949579114],[-71.3154889449999,-34.9221599161139],[-71.3157230929999,-34.921900057114],[-71.3154731409999,-34.921733898114],[-71.315511452,-34.9216950341139],[-71.3157600619999,-34.921864103114],[-71.3161346289999,-34.921495008114],[-71.319612204,-34.919322040114],[-71.3190276709999,-34.919270912114]]]}},{"type":"Feature","properties":{"id":"7305011001002","commune":"Rauco","code":"07305","gse":"C3","quintil":"Q3","nse_score":697.8,"educ":10.0,"educ_score":466.7,"hacin":1.105,"hacin_class":"Hacinamiento Leve","hacin_score":828.7,"auto_score":500.0,"n_per":21,"n_hog":8,"source_year":2024},"geometry":{"type":"Polygon","coordinates":[[[-71.3186438109999,-34.920836602114],[-71.3189086389999,-34.920701849114],[-71.318393092,-34.920154165114],[-71.3180555449999,-34.920361679114],[-71.3186438109999,-34.920836602114]]]}},{"type":"Feature","properties":{"id":"7305011001003","commune":"Rauco","code":"07305","gse":"C3","quintil":"Q3","nse_score":687.3,"educ":11.0,"educ_score":533.3,"hacin":1.29,"hacin_class":"Hacinamiento Leve","hacin_score":789.3,"auto_score":189.8,"n_per":378,"n_hog":137,"source_year":2024},"geometry":{"type":"Polygon","coordinates":[[[-71.3207543199999,-34.9246272491139],[-71.3195963699999,-34.9213370021139],[-71.3189522519999,-34.920715208114],[-71.3187272679999,-34.920903979114],[-71.3188120209999,-34.9210162711139],[-71.3180198649999,-34.920383324114],[-71.3176610969999,-34.920598362114],[-71.3184584349999,-34.9212637241139],[-71.3187315479999,-34.921120852114],[-71.3181580649999,-34.921601022114],[-71.3183297929999,-34.921774433114],[-71.3190114359999,-34.921184987114],[-71.3184081509999,-34.9218296521139],[-71.3189020479999,-34.922252130114],[-71.3192069049999,-34.921980184114],[-71.3187699189999,-34.921626155114],[-71.3192776369999,-34.921952657114],[-71.3193962669999,-34.921839143114],[-71.3193552899999,-34.9216065221139],[-71.3190479659999,-34.921393874114],[-71.3194002269999,-34.921603482114],[-71.3194434829999,-34.9218229721139],[-71.3192865239999,-34.921991526114],[-71.3194991749999,-34.9221909111139],[-71.3193913559999,-34.9224172941139],[-71.3195828349999,-34.922427544114],[-71.31909522,-34.9229050251139],[-71.3191406649999,-34.922731832114],[-71.3187452789999,-34.9224847461139],[-71.3183746319999,-34.9229564221139],[-71.3186373489999,-34.9230974491139],[-71.3188823779999,-34.9228355731139],[-71.3186745559999,-34.9231205381139],[-71.3189340829999,-34.9232959731139],[-71.3192198789999,-34.9229966161139],[-71.3189912059999,-34.9233188621139],[-71.3192618179999,-34.9235069761139],[-71.3195683299999,-34.9231935311139],[-71.3192825049999,-34.9235235811139],[-71.3195654339999,-34.9239510281139],[-71.3201593039999,-34.923071943114],[-71.3197360409999,-34.9238963291139],[-71.3195380849999,-34.9239979121139],[-71.3191843519999,-34.923517633114],[-71.3186715649999,-34.9240642851139],[-71.3190546839999,-34.9244667741139],[-71.3186609049999,-34.924121102114],[-71.3184420079999,-34.924319915114],[-71.3184689819999,-34.9244344311139],[-71.3182607049999,-34.9243183271139],[-71.3176331059999,-34.9255024581139],[-71.3197158929999,-34.9267548771139],[-71.3202496359999,-34.9255046631139],[-71.3198980349999,-34.9253120781139],[-71.3198569429999,-34.9251980691139],[-71.3200730429999,-34.9250134381139],[-71.3204482619999,-34.9248351531139],[-71.3199171049999,-34.9252340491139],[-71.3206988189999,-34.9255242231139],[-71.3211599719999,-34.9250045741139],[-71.3207543199999,-34.9246272491139]]]}},{"type":"Feature","properties":{"id":"7305011001004","commune":"Rauco","code":"07305","gse":"C3","quintil":"Q3","nse_score":689.4,"educ":11.4,"educ_score":560.0,"hacin":1.067,"hacin_class":"Hacinamiento Leve","hacin_score":836.9,"auto_score":71.4,"n_per":16,"n_hog":7,"source_year":2024},"geometry":{"type":"Polygon","coordinates":[[[-71.3175140699999,-34.9211144951139],[-71.3178429699999,-34.920850109114],[-71.3176199729999,-34.920642774114],[-71.3172431199999,-34.920874997114],[-71.3175140699999,-34.9211144951139]]]}},{"type":"Feature","properties":{"id":"7305011001005","commune":"Rauco","code":"07305","gse":"E","quintil":"Q1","nse_score":539.8,"educ":6.6,"educ_score":240.0,"hacin":1.571,"hacin_class":"Hacinamiento Medio","hacin_score":729.5,"auto_score":250.0,"n_per":22,"n_hog":9,"source_year":2024},"geometry":{"type":"Polygon","coordinates":[[[-71.3177933039999,-34.921344041114],[-71.3181217999999,-34.921065103114],[-71.3179043399999,-34.920866389114],[-71.3175674739999,-34.921130215114],[-71.3177933039999,-34.921344041114]]]}},{"type":"Feature","properties":{"id":"7305011001006","commune":"Rauco","code":"07305","gse":"C3","quintil":"Q3","nse_score":683.0,"educ":10.8,"educ_score":520.0,"hacin":1.214,"hacin_class":"Hacinamiento Leve","hacin_score":805.5,"auto_score":133.3,"n_per":34,"n_hog":15,"source_year":2024},"geometry":{"type":"Polygon","coordinates":[[[-71.317014991,-34.9216055081139],[-71.3174661769999,-34.921178424114],[-71.3171835369999,-34.920943566114],[-71.3165981599999,-34.921288829114],[-71.317014991,-34.9216055081139]]]}},{"type":"Feature","properties":{"id":"7305011001007","commune":"Rauco","code":"07305","gse":"E","quintil":"Q1","nse_score":551.2,"educ":8.2,"educ_score":346.7,"hacin":2.454,"hacin_class":"Hacinamiento Medio","hacin_score":541.6,"auto_score":125.0,"n_per":27,"n_hog":4,"source_year":2024},"geometry":{"type":"Polygon","coordinates":[[[-71.3180941489999,-34.921568660114],[-71.3184221139999,-34.9212905941139],[-71.3181834779999,-34.921092284114],[-71.3178549209999,-34.9213690411139],[-71.3180941489999,-34.921568660114]]]}},{"type":"Feature","properties":{"id":"7305011001008","commune":"Rauco","code":"07305","gse":"D","quintil":"Q2","nse_score":636.2,"educ":9.8,"educ_score":453.3,"hacin":1.529,"hacin_class":"Hacinamiento Medio","hacin_score":738.4,"auto_score":55.6,"n_per":26,"n_hog":9,"source_year":2024},"geometry":{"type":"Polygon","coordinates":[[[-71.3173167679999,-34.9218085381139],[-71.3177375299999,-34.9214049311139],[-71.3175299339999,-34.921211554114],[-71.3170837679999,-34.9216342161139],[-71.3173167679999,-34.9218085381139]]]}},{"type":"Feature","properties":{"id":"7305011001009","commune":"Rauco","code":"07305","gse":"D","quintil":"Q1","nse_score":624.7,"educ":8.5,"educ_score":366.7,"hacin":1.167,"hacin_class":"Hacinamiento Leve","hacin_score":815.6,"auto_score":166.7,"n_per":35,"n_hog":15,"source_year":2024},"geometry":{"type":"Polygon","coordinates":[[[-71.3168734679999,-34.9219752091139],[-71.3171176769999,-34.921746346114],[-71.3165329729999,-34.921348851114],[-71.3162455529999,-34.9215162421139],[-71.3168734679999,-34.9219752091139]]]}},{"type":"Feature","properties":{"id":"7305011001010","commune":"Rauco","code":"07305","gse":"D","quintil":"Q2","nse_score":650.6,"educ":9.1,"educ_score":406.7,"hacin":1.185,"hacin_class":"Hacinamiento Leve","hacin_score":811.7,"auto_score":55.6,"n_per":32,"n_hog":10,"source_year":2024},"geometry":{"type":"Polygon","coordinates":[[[-71.3176167219999,-34.922012864114],[-71.3180329369999,-34.921642157114],[-71.3177939459999,-34.921433874114],[-71.3173799619999,-34.921825543114],[-71.3176167219999,-34.922012864114]]]}},{"type":"Feature","properties":{"id":"7305011001011","commune":"Rauco","code":"07305","gse":"C3","quintil":"Q2","nse_score":666.1,"educ":10.6,"educ_score":506.7,"hacin":1.812,"hacin_class":"Hacinamiento Medio","hacin_score":678.2,"auto_score":150.0,"n_per":29,"n_hog":10,"source_year":2024},"geometry":{"type":"Polygon","coordinates":[[[-71.3137409479999,-34.9219798481139],[-71.3138698379999,-34.9216699911139],[-71.3134392869999,-34.921465704114],[-71.3132658309999,-34.921719745114],[-71.3137409479999,-34.9219798481139]]]}},{"type":"Feature","properties":{"id":"7305011001012","commune":"Rauco","code":"07305","gse":"D","quintil":"Q1","nse_score":610.5,"educ":9.0,"educ_score":400.0,"hacin":1.279,"hacin_class":"Hacinamiento Leve","hacin_score":791.7,"auto_score":152.2,"n_per":55,"n_hog":24,"source_year":2024},"geometry":{"type":"Polygon","coordinates":[[[-71.3167915349999,-34.9225295711139],[-71.3171104509999,-34.9222094051139],[-71.3161255359999,-34.9216037221139],[-71.3158885059999,-34.9218777911139],[-71.3167915349999,-34.9225295711139]]]}},{"type":"Feature","properties":{"id":"7305011001013","commune":"Rauco","code":"07305","gse":"C3","quintil":"Q2","nse_score":662.6,"educ":9.9,"educ_score":460.0,"hacin":1.222,"hacin_class":"Hacinamiento Leve","hacin_score":803.8,"auto_score":187.5,"n_per":22,"n_hog":8,"source_year":2024},"geometry":{"type":"Polygon","coordinates":[[[-71.3180922639999,-34.921666537114],[-71.3176853889999,-34.9220493261139],[-71.3179075379999,-34.9222074471139],[-71.3182958109999,-34.9218395261139],[-71.3180922639999,-34.921666537114]]]}},{"type":"Feature","properties":{"id":"7305011001014","commune":"Rauco","code":"07305","gse":"E","quintil":"Q1","nse_score":516.6,"educ":5.9,"educ_score":193.3,"hacin":1.154,"hacin_class":"Hacinamiento Leve","hacin_score":818.3,"auto_score":125.0,"n_per":30,"n_hog":15,"source_year":2024},"geometry":{"type":"Polygon","coordinates":[[[-71.3172241589999,-34.921819771114],[-71.3170083359999,-34.922077210114],[-71.3177074359999,-34.9224867641139],[-71.3178811229999,-34.922264475114],[-71.3172241589999,-34.921819771114]]]}},{"type":"Feature","properties":{"id":"7305011001015","commune":"Rauco","code":"07305","gse":"D","quintil":"Q1","nse_score":626.4,"educ":9.3,"educ_score":420.0,"hacin":1.16,"hacin_class":"Hacinamiento Leve","hacin_score":817.0,"auto_score":66.7,"n_per":29,"n_hog":13,"source_year":2024},"geometry":{"type":"Polygon","coordinates":[[[-71.3183663899999,-34.921880594114],[-71.3180229719999,-34.9222722251139],[-71.3185451429999,-34.922621325114],[-71.3188950889999,-34.922287164114],[-71.3183663899999,-34.921880594114]]]}},{"type":"Feature","properties":{"id":"7305011001016","commune":"Rauco","code":"07305","gse":"D","quintil":"Q1","nse_score":626.1,"educ":9.3,"educ_score":420.0,"hacin":1.161,"hacin_class":"Hacinamiento Leve","hacin_score":816.9,"auto_score":43.5,"n_per":65,"n_hog":23,"source_year":2024},"geometry":{"type":"Polygon","coordinates":[[[-71.3165473149999,-34.9228064791139],[-71.3167660229999,-34.922552595114],[-71.3158253509999,-34.921912801114],[-71.315603129,-34.922160464114],[-71.3165473149999,-34.9228064791139]]]}},{"type":"Feature","properties":{"id":"7305011001017","commune":"Rauco","code":"07305","gse":"C3","quintil":"Q3","nse_score":695.6,"educ":10.5,"educ_score":500.0,"hacin":1.25,"hacin_class":"Hacinamiento Leve","hacin_score":797.9,"auto_score":31.2,"n_per":45,"n_hog":15,"source_year":2024},"geometry":{"type":"Polygon","coordinates":[[[-71.3194763119999,-34.922263733114],[-71.3192648249999,-34.922011847114],[-71.3188277929999,-34.9224367801139],[-71.3191244849999,-34.9226274361139],[-71.3194763119999,-34.922263733114]]]}},{"type":"Feature","properties":{"id":"7305011001018","commune":"Rauco","code":"07305","gse":"C3","quintil":"Q2","nse_score":667.9,"educ":10.4,"educ_score":493.3,"hacin":1.169,"hacin_class":"Hacinamiento Leve","hacin_score":815.1,"auto_score":152.2,"n_per":180,"n_hog":67,"source_year":2024},"geometry":{"type":"Polygon","coordinates":[[[-71.3161608119999,-34.9230477471139],[-71.3168287709999,-34.9234450551139],[-71.3170750689999,-34.9231618831139],[-71.3155601129999,-34.922207511114],[-71.3144321329999,-34.9234595601139],[-71.3159539829999,-34.9243939811139],[-71.3162112069999,-34.9241021281139],[-71.315514344,-34.9236672811139],[-71.3158707259999,-34.9238307791139],[-71.316097608,-34.9235576251139],[-71.3157554979999,-34.9233372411139],[-71.3161324399999,-34.9235273911139],[-71.3163966129999,-34.923245322114],[-71.3161608119999,-34.9230477471139]]]}},{"type":"Feature","properties":{"id":"7305011001019","commune":"Rauco","code":"07305","gse":"C3","quintil":"Q2","nse_score":670.1,"educ":10.1,"educ_score":473.3,"hacin":1.161,"hacin_class":"Hacinamiento Leve","hacin_score":816.7,"auto_score":125.0,"n_per":72,"n_hog":27,"source_year":2024},"geometry":{"type":"Polygon","coordinates":[[[-71.3167942029999,-34.9228889691139],[-71.3171823409999,-34.9230804141139],[-71.3176236539999,-34.9225744561139],[-71.3171949929999,-34.9222927131139],[-71.3172546769999,-34.922391219114],[-71.3167942029999,-34.9228889691139]]]}},{"type":"Feature","properties":{"id":"7305011001020","commune":"Rauco","code":"07305","gse":"E","quintil":"Q1","nse_score":562.6,"educ":7.4,"educ_score":293.3,"hacin":1.3,"hacin_class":"Hacinamiento Leve","hacin_score":787.2,"auto_score":90.9,"n_per":26,"n_hog":10,"source_year":2024},"geometry":{"type":"Polygon","coordinates":[[[-71.3179729279999,-34.9223239091139],[-71.3177630069999,-34.9225712561139],[-71.3183203959999,-34.9228727161139],[-71.3185075889999,-34.922663691114],[-71.3179729279999,-34.9223239091139]]]}},{"type":"Feature","properties":{"id":"7305011001023","commune":"Rauco","code":"07305","gse":"C2","quintil":"Q3","nse_score":713.1,"educ":10.7,"educ_score":513.3,"hacin":1.158,"hacin_class":"Hacinamiento Leve","hacin_score":817.5,"auto_score":375.0,"n_per":22,"n_hog":9,"source_year":2024},"geometry":{"type":"Polygon","coordinates":[[[-71.3175052759999,-34.9228486071139],[-71.3180199479999,-34.9231800931139],[-71.318232442,-34.9229599471139],[-71.3177165549999,-34.922624159114],[-71.3175052759999,-34.9228486071139]]]}},{"type":"Feature","properties":{"id":"7305011001025","commune":"Rauco","code":"07305","gse":"C3","quintil":"Q2","nse_score":655.9,"educ":8.8,"educ_score":386.7,"hacin":0.977,"hacin_class":"Sin Hacinamiento","hacin_score":856.0,"auto_score":83.3,"n_per":42,"n_hog":18,"source_year":2024},"geometry":{"type":"Polygon","coordinates":[[[-71.3190880919999,-34.9234556631139],[-71.3183155759999,-34.9229892821139],[-71.3180979979999,-34.9231960021139],[-71.3188928029999,-34.9237231701139],[-71.3190880919999,-34.9234556631139]]]}},{"type":"Feature","properties":{"id":"7305011001026","commune":"Rauco","code":"07305","gse":"C2","quintil":"Q4","nse_score":754.5,"educ":12.0,"educ_score":600.0,"hacin":0.902,"hacin_class":"Sin Hacinamiento","hacin_score":871.8,"auto_score":147.1,"n_per":37,"n_hog":18,"source_year":2024},"geometry":{"type":"Polygon","coordinates":[[[-71.3161994079999,-34.9240561961139],[-71.3167867279999,-34.9234912931139],[-71.3164498429999,-34.923262157114],[-71.3159053049999,-34.9238538291139],[-71.3161994079999,-34.9240561961139]]]}},{"type":"Feature","properties":{"id":"7305011001027","commune":"Rauco","code":"07305","gse":"C3","quintil":"Q2","nse_score":674.2,"educ":10.7,"educ_score":513.3,"hacin":1.278,"hacin_class":"Hacinamiento Leve","hacin_score":792.0,"auto_score":250.0,"n_per":46,"n_hog":16,"source_year":2024},"geometry":{"type":"Polygon","coordinates":[[[-71.3188305899999,-34.9237566321139],[-71.3180579229999,-34.9232810571139],[-71.3178381659999,-34.9234920551139],[-71.3186264699999,-34.9240137601139],[-71.3188305899999,-34.9237566321139]]]}},{"type":"Feature","properties":{"id":"7305011001029","commune":"Rauco","code":"07305","gse":"C2","quintil":"Q4","nse_score":725.4,"educ":12.1,"educ_score":606.7,"hacin":1.441,"hacin_class":"Hacinamiento Leve","hacin_score":757.2,"auto_score":250.0,"n_per":49,"n_hog":18,"source_year":2024},"geometry":{"type":"Polygon","coordinates":[[[-71.3183485169999,-34.9242960071139],[-71.3185784749999,-34.9240546131139],[-71.3177967689999,-34.9235651451139],[-71.31757726,-34.9237694671139],[-71.3183485169999,-34.9242960071139]]]}},{"type":"Feature","properties":{"id":"7305011001030","commune":"Rauco","code":"07305","gse":"C3","quintil":"Q3","nse_score":701.3,"educ":11.6,"educ_score":573.3,"hacin":1.2,"hacin_class":"Hacinamiento Leve","hacin_score":808.5,"auto_score":250.0,"n_per":78,"n_hog":30,"source_year":2024},"geometry":{"type":"Polygon","coordinates":[[[-71.3173591579999,-34.924214552114],[-71.3178208409999,-34.9244536411139],[-71.3172944819999,-34.9242460771139],[-71.316796312,-34.9249335991139],[-71.3175783609999,-34.9254310891139],[-71.3182189999999,-34.9242871201139],[-71.3175402469999,-34.9238778131139],[-71.3173591579999,-34.924214552114]]]}},{"type":"Feature","properties":{"id":"7305011001033","commune":"Rauco","code":"07305","gse":"C3","quintil":"Q2","nse_score":658.4,"educ":10.3,"educ_score":486.7,"hacin":1.304,"hacin_class":"Hacinamiento Leve","hacin_score":786.4,"auto_score":287.0,"n_per":163,"n_hog":56,"source_year":2024},"geometry":{"type":"Polygon","coordinates":[[[-71.3207623009999,-34.9255588861139],[-71.3203165369999,-34.9255140901139],[-71.3198201209999,-34.9268487841139],[-71.3207215149999,-34.9273586191139],[-71.3210269159999,-34.9261737641139],[-71.3207585479999,-34.9274080501139],[-71.3214403929999,-34.9278185071139],[-71.3218665669999,-34.9257114921139],[-71.3223971349999,-34.9258815731139],[-71.3222844859999,-34.9258887981139],[-71.3221827239999,-34.9264012421139],[-71.3225074959999,-34.9264162881139],[-71.3222569339999,-34.9269397341139],[-71.3225464849999,-34.9270552481139],[-71.3228253019999,-34.9265966151139],[-71.3223286539999,-34.9275782811139],[-71.3216202239999,-34.9273015761139],[-71.3214888449999,-34.9278603531139],[-71.3228438339999,-34.9286900131139],[-71.3235318449999,-34.9268227881139],[-71.3229190489999,-34.9265143651139],[-71.324871045,-34.9272318421139],[-71.3256953109999,-34.9258738201139],[-71.3247987969999,-34.9261119221139],[-71.3238152789999,-34.9260336211139],[-71.3220196789999,-34.9254592071139],[-71.3212151959999,-34.9250451041139],[-71.3207623009999,-34.9255588861139]]]}},{"type":"Feature","properties":{"id":"7305011001034","commune":"Rauco","code":"07305","gse":"D","quintil":"Q2","nse_score":630.2,"educ":9.1,"educ_score":406.7,"hacin":1.257,"hacin_class":"Hacinamiento Leve","hacin_score":796.4,"auto_score":214.3,"n_per":44,"n_hog":14,"source_year":2024},"geometry":{"type":"Polygon","coordinates":[[[-71.3218222899999,-34.9265698151139],[-71.3220802909999,-34.9266939121139],[-71.3222459659999,-34.9258596131139],[-71.3219373509999,-34.9257243211139],[-71.3218222899999,-34.9265698151139]]]}},{"type":"Feature","properties":{"id":"7305011001036","commune":"Rauco","code":"07305","gse":"C3","quintil":"Q3","nse_score":679.7,"educ":10.3,"educ_score":486.7,"hacin":1.318,"hacin_class":"Hacinamiento Leve","hacin_score":783.4,"auto_score":250.0,"n_per":29,"n_hog":10,"source_year":2024},"geometry":{"type":"Polygon","coordinates":[[[-71.3219298199999,-34.9273879951139],[-71.3220729559999,-34.9267325401139],[-71.3217711489999,-34.9265902041139],[-71.3216416649999,-34.9272187141139],[-71.3219298199999,-34.9273879951139]]]}},{"type":"Feature","properties":{"id":"7305011001037","commune":"Rauco","code":"07305","gse":"C3","quintil":"Q2","nse_score":668.0,"educ":8.6,"educ_score":373.3,"hacin":1.4,"hacin_class":"Hacinamiento Leve","hacin_score":766.0,"auto_score":166.7,"n_per":28,"n_hog":9,"source_year":2024},"geometry":{"type":"Polygon","coordinates":[[[-71.3223226069999,-34.9274957721139],[-71.3225057479999,-34.9271204061139],[-71.3222344149999,-34.9269803841139],[-71.3220202449999,-34.9274094781139],[-71.3223226069999,-34.9274957721139]]]}},{"type":"Feature","properties":{"id":"7305011002002","commune":"Rauco","code":"07305","gse":"C3","quintil":"Q3","nse_score":687.2,"educ":10.4,"educ_score":493.3,"hacin":1.385,"hacin_class":"Hacinamiento Leve","hacin_score":769.2,"auto_score":227.3,"n_per":126,"n_hog":44,"source_year":2024},"geometry":{"type":"Polygon","coordinates":[[[-71.3001180279999,-34.914935178114],[-71.3002563629999,-34.914771639114],[-71.2998956339999,-34.914443148114],[-71.3002858789999,-34.9147448141141],[-71.3004963849999,-34.9145782411141],[-71.300114344,-34.914232263114],[-71.3005283209999,-34.9145535901141],[-71.3007716029999,-34.914386119114],[-71.3002817899999,-34.913924152114],[-71.3008046409999,-34.914339657114],[-71.3010263339999,-34.914189600114],[-71.3005014469999,-34.913626413114],[-71.2997261029999,-34.914427759114],[-71.3001180279999,-34.914935178114]]]}},{"type":"Feature","properties":{"id":"7305011002003","commune":"Rauco","code":"07305","gse":"D","quintil":"Q2","nse_score":642.4,"educ":10.2,"educ_score":480.0,"hacin":1.68,"hacin_class":"Hacinamiento Medio","hacin_score":706.4,"auto_score":173.1,"n_per":84,"n_hog":26,"source_year":2024},"geometry":{"type":"Polygon","coordinates":[[[-71.3004119849999,-34.915141731114],[-71.3013030579999,-34.914435245114],[-71.3013044909999,-34.9144038261141],[-71.3010822229999,-34.914241932114],[-71.3001960799999,-34.914924197114],[-71.3004119849999,-34.915141731114]]]}},{"type":"Feature","properties":{"id":"7305011002004","commune":"Rauco","code":"07305","gse":"C3","quintil":"Q2","nse_score":654.9,"educ":9.7,"educ_score":446.7,"hacin":1.568,"hacin_class":"Hacinamiento Medio","hacin_score":730.3,"auto_score":23.8,"n_per":58,"n_hog":21,"source_year":2024},"geometry":{"type":"Polygon","coordinates":[[[-71.3013768289999,-34.9144639021141],[-71.3004092909999,-34.915217836114],[-71.3005630829999,-34.915436750114],[-71.3015592239999,-34.914649356114],[-71.3013768289999,-34.9144639021141]]]}},{"type":"Feature","properties":{"id":"7305011002005","commune":"Rauco","code":"07305","gse":"E","quintil":"Q1","nse_score":580.7,"educ":9.2,"educ_score":413.3,"hacin":1.568,"hacin_class":"Hacinamiento Medio","hacin_score":730.2,"auto_score":37.0,"n_per":69,"n_hog":25,"source_year":2024},"geometry":{"type":"Polygon","coordinates":[[[-71.3007598379999,-34.915680213114],[-71.3017989129999,-34.914874830114],[-71.3018035229999,-34.914853276114],[-71.3015986729999,-34.9146725411141],[-71.3006171829999,-34.915486849114],[-71.3007598379999,-34.915680213114]]]}},{"type":"Feature","properties":{"id":"7305011002006","commune":"Rauco","code":"07305","gse":"D","quintil":"Q2","nse_score":634.8,"educ":10.8,"educ_score":520.0,"hacin":1.621,"hacin_class":"Hacinamiento Medio","hacin_score":719.0,"auto_score":55.6,"n_per":47,"n_hog":16,"source_year":2024},"geometry":{"type":"Polygon","coordinates":[[[-71.3011317669999,-34.915516708114],[-71.3012815499999,-34.915702605114],[-71.3020676029999,-34.9151006701141],[-71.3018660039999,-34.914917508114],[-71.3011317669999,-34.915516708114]]]}},{"type":"Feature","properties":{"id":"7305011002008","commune":"Rauco","code":"07305","gse":"D","quintil":"Q2","nse_score":631.1,"educ":9.8,"educ_score":453.3,"hacin":1.674,"hacin_class":"Hacinamiento Medio","hacin_score":707.6,"auto_score":125.0,"n_per":72,"n_hog":23,"source_year":2024},"geometry":{"type":"Polygon","coordinates":[[[-71.3015016889999,-34.915978895114],[-71.3017058579999,-34.916245102114],[-71.3025714599999,-34.915541098114],[-71.3023270659999,-34.915366235114],[-71.3015016889999,-34.915978895114]]]}},{"type":"Feature","properties":{"id":"7305011002010","commune":"Rauco","code":"07305","gse":"C3","quintil":"Q2","nse_score":652.5,"educ":10.4,"educ_score":493.3,"hacin":1.524,"hacin_class":"Hacinamiento Medio","hacin_score":739.6,"auto_score":166.7,"n_per":64,"n_hog":20,"source_year":2024},"geometry":{"type":"Polygon","coordinates":[[[-71.3008103189999,-34.915750160114],[-71.3013941469999,-34.916452420114],[-71.3016406219999,-34.916294924114],[-71.3010698179999,-34.915570096114],[-71.3008103189999,-34.915750160114]]]}},{"type":"Feature","properties":{"id":"7305011002011","commune":"Rauco","code":"07305","gse":"D","quintil":"Q1","nse_score":617.6,"educ":8.6,"educ_score":373.3,"hacin":1.235,"hacin_class":"Hacinamiento Leve","hacin_score":801.0,"auto_score":200.0,"n_per":63,"n_hog":25,"source_year":2024},"geometry":{"type":"Polygon","coordinates":[[[-71.3017461239999,-34.916294961114],[-71.3019538709999,-34.916533072114],[-71.3028645939999,-34.915803068114],[-71.3026325239999,-34.915629341114],[-71.3017461239999,-34.916294961114]]]}},{"type":"Feature","properties":{"id":"7305011002012","commune":"Rauco","code":"07305","gse":"C3","quintil":"Q2","nse_score":667.4,"educ":10.3,"educ_score":486.7,"hacin":1.604,"hacin_class":"Hacinamiento Medio","hacin_score":722.5,"auto_score":180.0,"n_per":77,"n_hog":27,"source_year":2024},"geometry":{"type":"Polygon","coordinates":[[[-71.3019945839999,-34.916580617114],[-71.3021553359999,-34.916774225114],[-71.3031111169999,-34.916013781114],[-71.3029159099999,-34.915869996114],[-71.3019945839999,-34.916580617114]]]}},{"type":"Feature","properties":{"id":"7305011002013","commune":"Rauco","code":"07305","gse":"C3","quintil":"Q2","nse_score":655.2,"educ":10.3,"educ_score":486.7,"hacin":1.571,"hacin_class":"Hacinamiento Medio","hacin_score":729.5,"auto_score":145.8,"n_per":66,"n_hog":24,"source_year":2024},"geometry":{"type":"Polygon","coordinates":[[[-71.3033742929999,-34.916218216114],[-71.3031654009999,-34.916066121114],[-71.3023638729999,-34.916723007114],[-71.3025797639999,-34.916888004114],[-71.3033742929999,-34.916218216114]]]}},{"type":"Feature","properties":{"id":"7305011002014","commune":"Rauco","code":"07305","gse":"C3","quintil":"Q3","nse_score":685.9,"educ":11.2,"educ_score":546.7,"hacin":1.467,"hacin_class":"Hacinamiento Leve","hacin_score":751.8,"auto_score":166.7,"n_per":66,"n_hog":22,"source_year":2024},"geometry":{"type":"Polygon","coordinates":[[[-71.3036589659999,-34.916478955114],[-71.3034103669999,-34.916269908114],[-71.3026115279999,-34.916938616114],[-71.3028428499999,-34.917111872114],[-71.3036589659999,-34.916478955114]]]}},{"type":"Feature","properties":{"id":"7305011002015","commune":"Rauco","code":"07305","gse":"C3","quintil":"Q3","nse_score":677.8,"educ":11.0,"educ_score":533.3,"hacin":1.458,"hacin_class":"Hacinamiento Leve","hacin_score":753.5,"auto_score":153.8,"n_per":35,"n_hog":14,"source_year":2024},"geometry":{"type":"Polygon","coordinates":[[[-71.3014559389999,-34.916529407114],[-71.3018389959999,-34.917021335114],[-71.3020910659999,-34.916824430114],[-71.3016810549999,-34.916343823114],[-71.3014559389999,-34.916529407114]]]}},{"type":"Feature","properties":{"id":"7305011002016","commune":"Rauco","code":"07305","gse":"D","quintil":"Q2","nse_score":643.5,"educ":10.3,"educ_score":486.7,"hacin":1.744,"hacin_class":"Hacinamiento Medio","hacin_score":692.9,"auto_score":181.8,"n_per":68,"n_hog":22,"source_year":2024},"geometry":{"type":"Polygon","coordinates":[[[-71.3036914569999,-34.916503272114],[-71.3028644769999,-34.917144617114],[-71.3028667549999,-34.917160816114],[-71.3031446869999,-34.917377734114],[-71.3039481939999,-34.916719338114],[-71.3036914569999,-34.916503272114]]]}},{"type":"Feature","properties":{"id":"7305011002017","commune":"Rauco","code":"07305","gse":"D","quintil":"Q1","nse_score":620.6,"educ":9.7,"educ_score":446.7,"hacin":1.46,"hacin_class":"Hacinamiento Leve","hacin_score":753.2,"auto_score":120.0,"n_per":73,"n_hog":25,"source_year":2024},"geometry":{"type":"Polygon","coordinates":[[[-71.3031995109999,-34.917409412114],[-71.3039204879999,-34.918089938114],[-71.3031923729999,-34.918725254114],[-71.3033876799999,-34.919047157114],[-71.304337416,-34.918094229114],[-71.305069252,-34.918296478114],[-71.3069645679999,-34.920019903114],[-71.3074150889999,-34.919546509114],[-71.3047202929999,-34.917135520114],[-71.3044161869999,-34.917422603114],[-71.3046857689999,-34.917109767114],[-71.3041533589999,-34.916657777114],[-71.3031995109999,-34.917409412114]]]}},{"type":"Feature","properties":{"id":"7305011002018","commune":"Rauco","code":"07305","gse":"C3","quintil":"Q3","nse_score":690.8,"educ":10.6,"educ_score":506.7,"hacin":1.571,"hacin_class":"Hacinamiento Medio","hacin_score":729.5,"auto_score":115.4,"n_per":44,"n_hog":13,"source_year":2024},"geometry":{"type":"Polygon","coordinates":[[[-71.3020885169999,-34.917343739114],[-71.3025607879999,-34.916999744114],[-71.3023299579999,-34.916770367114],[-71.3019000209999,-34.917072948114],[-71.3020885169999,-34.917343739114]]]}},{"type":"Feature","properties":{"id":"7305011002019","commune":"Rauco","code":"07305","gse":"C3","quintil":"Q3","nse_score":704.7,"educ":10.8,"educ_score":520.0,"hacin":1.677,"hacin_class":"Hacinamiento Medio","hacin_score":706.9,"auto_score":115.4,"n_per":52,"n_hog":13,"source_year":2024},"geometry":{"type":"Polygon","coordinates":[[[-71.3022977789999,-34.917587919114],[-71.302794994,-34.917194471114],[-71.3026297009999,-34.917030638114],[-71.3021450109999,-34.917405959114],[-71.3022977789999,-34.917587919114]]]}},{"type":"Feature","properties":{"id":"7305011002020","commune":"Rauco","code":"07305","gse":"C2","quintil":"Q3","nse_score":710.1,"educ":10.4,"educ_score":493.3,"hacin":1.471,"hacin_class":"Hacinamiento Leve","hacin_score":750.9,"auto_score":62.5,"n_per":25,"n_hog":9,"source_year":2024},"geometry":{"type":"Polygon","coordinates":[[[-71.3028324049999,-34.917237888114],[-71.3023201749999,-34.917642628114],[-71.30248495,-34.917861058114],[-71.3030594439999,-34.917435135114],[-71.3028324049999,-34.917237888114]]]}},{"type":"Feature","properties":{"id":"7305011002021","commune":"Rauco","code":"07305","gse":"C3","quintil":"Q2","nse_score":662.7,"educ":10.2,"educ_score":480.0,"hacin":1.444,"hacin_class":"Hacinamiento Leve","hacin_score":756.5,"auto_score":187.5,"n_per":52,"n_hog":16,"source_year":2024},"geometry":{"type":"Polygon","coordinates":[[[-71.3025505099999,-34.917919507114],[-71.3027245999999,-34.918122707114],[-71.3033015169999,-34.917628042114],[-71.3031168479999,-34.917468633114],[-71.3025505099999,-34.917919507114]]]}},{"type":"Feature","properties":{"id":"7305011002022","commune":"Rauco","code":"07305","gse":"D","quintil":"Q2","nse_score":639.8,"educ":9.3,"educ_score":420.0,"hacin":1.231,"hacin_class":"Hacinamiento Leve","hacin_score":802.0,"auto_score":93.8,"n_per":32,"n_hog":15,"source_year":2024},"geometry":{"type":"Polygon","coordinates":[[[-71.3033834269999,-34.917681826114],[-71.3027427499999,-34.918174599114],[-71.3028964199999,-34.918388742114],[-71.3035461279999,-34.917856440114],[-71.3033834269999,-34.917681826114]]]}},{"type":"Feature","properties":{"id":"7305011002023","commune":"Rauco","code":"07305","gse":"D","quintil":"Q2","nse_score":640.5,"educ":10.7,"educ_score":513.3,"hacin":1.593,"hacin_class":"Hacinamiento Medio","hacin_score":725.0,"auto_score":58.8,"n_per":43,"n_hog":14,"source_year":2024},"geometry":{"type":"Polygon","coordinates":[[[-71.3036150099999,-34.917886142114],[-71.3029541579999,-34.918434159114],[-71.3031156309999,-34.918668428114],[-71.3038418089999,-34.918101413114],[-71.3036150099999,-34.917886142114]]]}},{"type":"Feature","properties":{"id":"7305011002024","commune":"Rauco","code":"07305","gse":"E","quintil":"Q1","nse_score":567.2,"educ":8.5,"educ_score":366.7,"hacin":1.328,"hacin_class":"Hacinamiento Leve","hacin_score":781.3,"auto_score":69.4,"n_per":81,"n_hog":36,"source_year":2024},"geometry":{"type":"Polygon","coordinates":[[[-71.3058433569999,-34.921334165114],[-71.3065155289999,-34.921912083114],[-71.3078686389999,-34.920543488114],[-71.3087263069999,-34.921121226114],[-71.3090965839999,-34.921601719114],[-71.310507346,-34.9220206811139],[-71.3108234699999,-34.9223235831139],[-71.3113350039999,-34.921754432114],[-71.3075165019999,-34.919581551114],[-71.3069421369999,-34.920142362114],[-71.3071995809999,-34.920390334114],[-71.3069030689999,-34.9201861961139],[-71.3058433569999,-34.921334165114]]]}},{"type":"Feature","properties":{"id":"7305011002025","commune":"Rauco","code":"07305","gse":"C3","quintil":"Q3","nse_score":678.5,"educ":11.2,"educ_score":546.7,"hacin":1.397,"hacin_class":"Hacinamiento Leve","hacin_score":766.5,"auto_score":253.7,"n_per":211,"n_hog":69,"source_year":2024},"geometry":{"type":"Polygon","coordinates":[[[-71.3092770579999,-34.9241765661139],[-71.3093070549999,-34.9243930821139],[-71.3096056089999,-34.9246219751139],[-71.3094395479999,-34.9253046851139],[-71.3094541109999,-34.9258475481139],[-71.3098752699999,-34.9261977191139],[-71.3103287909999,-34.9271503881139],[-71.3115304689999,-34.9267743921139],[-71.3104039519999,-34.9258260861139],[-71.3108586539999,-34.9261246771139],[-71.3118553059999,-34.9253368081139],[-71.3120932519999,-34.9248728131139],[-71.3118850499999,-34.9253725001139],[-71.3108854479999,-34.9261467581139],[-71.3116017229999,-34.9267342221139],[-71.3135601579999,-34.9258451141139],[-71.3131530829999,-34.9255319061139],[-71.3134120509999,-34.9251294371139],[-71.313100732,-34.9249302311139],[-71.3135713329999,-34.9243287791139],[-71.3139077089999,-34.9244755981139],[-71.3145357929999,-34.9236818771139],[-71.3125843269999,-34.9224807451139],[-71.3118348829999,-34.9232142961139],[-71.3122403449999,-34.9238313561139],[-71.3118430389999,-34.9233912051139],[-71.3112627529999,-34.9241569541139],[-71.3118131869999,-34.9233235901139],[-71.3117836919999,-34.9231690421139],[-71.3125333799999,-34.922443858114],[-71.3114082559999,-34.921790041114],[-71.3100900789999,-34.9231859191139],[-71.3095403489999,-34.923602897114],[-71.3092770579999,-34.9241765661139]]]}},{"type":"Feature","properties":{"id":"7305011002026","commune":"Rauco","code":"07305","gse":"D","quintil":"Q2","nse_score":635.3,"educ":11.0,"educ_score":533.3,"hacin":1.237,"hacin_class":"Hacinamiento Leve","hacin_score":800.7,"auto_score":113.6,"n_per":47,"n_hog":21,"source_year":2024},"geometry":{"type":"Polygon","coordinates":[[[-71.3132307149999,-34.9255374221139],[-71.3136894179999,-34.9257669371139],[-71.3160591379999,-34.9246459281139],[-71.3145831549999,-34.9237313691139],[-71.3132307149999,-34.9255374221139]]]}},{"type":"Feature","properties":{"id":"7305011002027","commune":"Rauco","code":"07305","gse":"C3","quintil":"Q3","nse_score":696.6,"educ":11.2,"educ_score":546.7,"hacin":1.273,"hacin_class":"Hacinamiento Leve","hacin_score":793.0,"auto_score":100.0,"n_per":14,"n_hog":5,"source_year":2024},"geometry":{"type":"Polygon","coordinates":[[[-71.3131675589999,-34.9249383301139],[-71.3134464459999,-34.9250834251139],[-71.3138712789999,-34.9245205421139],[-71.3136123049999,-34.9243734101139],[-71.3131675589999,-34.9249383301139]]]}},{"type":"Feature","properties":{"id":"7305011002028","commune":"Rauco","code":"07305","gse":"C2","quintil":"Q4","nse_score":729.4,"educ":11.4,"educ_score":560.0,"hacin":1.155,"hacin_class":"Hacinamiento Leve","hacin_score":818.1,"auto_score":128.6,"n_per":82,"n_hog":35,"source_year":2024},"geometry":{"type":"Polygon","coordinates":[[[-71.3145752649999,-34.9254425141139],[-71.3162860109999,-34.9266176101139],[-71.3168361599999,-34.9257400421139],[-71.3181887449999,-34.9266179011139],[-71.318557789,-34.9261858811139],[-71.3162513379999,-34.9247275441139],[-71.3151562439999,-34.9252070181139],[-71.3158280829999,-34.9257091451139],[-71.3160468419999,-34.9255595621139],[-71.3157508999999,-34.9258448501139],[-71.3159170939999,-34.9260058441139],[-71.3153548089999,-34.9256280191139],[-71.315206815,-34.9257172951139],[-71.315401172,-34.9255056131139],[-71.3150481439999,-34.9252630781139],[-71.3145752649999,-34.9254425141139]]]}},{"type":"Feature","properties":{"id":"7305011002030","commune":"Rauco","code":"07305","gse":"C3","quintil":"Q2","nse_score":668.9,"educ":10.0,"educ_score":466.7,"hacin":1.231,"hacin_class":"Hacinamiento Leve","hacin_score":802.0,"auto_score":208.3,"n_per":32,"n_hog":12,"source_year":2024},"geometry":{"type":"Polygon","coordinates":[[[-71.3133538209999,-34.9277170641139],[-71.3144567729999,-34.9261669061139],[-71.3139157029999,-34.9257479631139],[-71.3120415609999,-34.9266426751139],[-71.3133538209999,-34.9277170641139]]]}},{"type":"Feature","properties":{"id":"7305011002031","commune":"Rauco","code":"07305","gse":"C3","quintil":"Q3","nse_score":676.1,"educ":11.1,"educ_score":540.0,"hacin":1.305,"hacin_class":"Hacinamiento Leve","hacin_score":786.2,"auto_score":151.5,"n_per":274,"n_hog":95,"source_year":2024},"geometry":{"type":"Polygon","coordinates":[[[-71.3186237279999,-34.9269680861139],[-71.3181867389999,-34.9267697431139],[-71.3178227039999,-34.9272428661139],[-71.3193610239999,-34.9282106381139],[-71.3191518829999,-34.9282268701139],[-71.3189687259999,-34.9292096511139],[-71.3201637339999,-34.9294206491139],[-71.3202419939999,-34.9292779931138],[-71.3203219149999,-34.9294477231139],[-71.3215420899999,-34.9295540481139],[-71.3215310919999,-34.9299617141139],[-71.3210134849999,-34.9299484561138],[-71.3208379939999,-34.9305366411139],[-71.3210717769999,-34.9305761421139],[-71.3208188929999,-34.9314584781139],[-71.3230115629999,-34.9315740191138],[-71.3230120089999,-34.9313038871139],[-71.3231502429999,-34.9312646261138],[-71.3229423729999,-34.9308683101138],[-71.3227482989999,-34.9287335801138],[-71.3210368409999,-34.9276792511139],[-71.3207637099999,-34.9287275301139],[-71.3206465519999,-34.9286175321138],[-71.3207526799999,-34.9285867471139],[-71.3209179689999,-34.9276066021139],[-71.3186736929999,-34.9262165661139],[-71.3182466259999,-34.9266885471139],[-71.3186237279999,-34.9269680861139]]]}},{"type":"Feature","properties":{"id":"7305011002032","commune":"Rauco","code":"07305","gse":"D","quintil":"Q1","nse_score":609.1,"educ":10.0,"educ_score":466.7,"hacin":1.404,"hacin_class":"Hacinamiento Leve","hacin_score":765.1,"auto_score":125.0,"n_per":73,"n_hog":26,"source_year":2024},"geometry":{"type":"Polygon","coordinates":[[[-71.3134259119999,-34.9288049561139],[-71.3139008609999,-34.9282593471139],[-71.3131714349999,-34.9276615801139],[-71.3127362669999,-34.9280724481139],[-71.3120833559999,-34.9276345251139],[-71.3127335859999,-34.9280356101139],[-71.3131326649999,-34.9276356611139],[-71.3119661799999,-34.9266751221139],[-71.3103604149999,-34.9272146551139],[-71.310944091,-34.9277181391139],[-71.3113874399999,-34.9284216171139],[-71.312497532,-34.9288951361139],[-71.3140656669999,-34.9301587391138],[-71.3149408049999,-34.9286484911139],[-71.3143535439999,-34.9285245401139],[-71.3140539039999,-34.9290465001138],[-71.3143127439999,-34.9285113491139],[-71.3139348969999,-34.9282822511139],[-71.3134259119999,-34.9288049561139]]]}},{"type":"Feature","properties":{"id":"7305011002033","commune":"Rauco","code":"07305","gse":"C3","quintil":"Q2","nse_score":663.8,"educ":10.2,"educ_score":480.0,"hacin":1.435,"hacin_class":"Hacinamiento Leve","hacin_score":758.5,"auto_score":307.7,"n_per":155,"n_hog":50,"source_year":2024},"geometry":{"type":"Polygon","coordinates":[[[-71.3177687279999,-34.9273226101139],[-71.3154962409999,-34.9306783931138],[-71.3176549379999,-34.9307671331139],[-71.3188444549999,-34.9313571731138],[-71.3196901269999,-34.9314837181138],[-71.3207097559999,-34.9318349781138],[-71.3210541819999,-34.9306467721139],[-71.3207746529999,-34.9306147741139],[-71.3203839259999,-34.9315566621138],[-71.3191085579999,-34.9311169331139],[-71.3181293359999,-34.9305688681139],[-71.3181915849999,-34.9303364761138],[-71.3180315409999,-34.9303067521138],[-71.3182033719999,-34.9302924711138],[-71.3182429419999,-34.9301447471138],[-71.3179636329999,-34.9300185221139],[-71.3186386389999,-34.9301415351139],[-71.3187023569999,-34.9298328651139],[-71.3174627829999,-34.9296365941139],[-71.3173669039999,-34.9297352731139],[-71.3174924029999,-34.9290379051139],[-71.3173590389999,-34.9289556221139],[-71.3175250079999,-34.9289618141139],[-71.3182354609999,-34.9276262381139],[-71.3179885079999,-34.9274411141139],[-71.31781351,-34.9277153201139],[-71.3179456489999,-34.9274164671139],[-71.3177687279999,-34.9273226101139]]]}},{"type":"Feature","properties":{"id":"7305011002034","commune":"Rauco","code":"07305","gse":"C3","quintil":"Q3","nse_score":690.3,"educ":10.9,"educ_score":526.7,"hacin":1.067,"hacin_class":"Hacinamiento Leve","hacin_score":836.9,"auto_score":285.7,"n_per":16,"n_hog":7,"source_year":2024},"geometry":{"type":"Polygon","coordinates":[[[-71.3143623939999,-34.9275163141139],[-71.3139994019999,-34.9282504421139],[-71.3143442069999,-34.9284570771139],[-71.3149724009999,-34.9285939661139],[-71.3153753199999,-34.9278986191139],[-71.3143623939999,-34.9275163141139]]]}},{"type":"Feature","properties":{"id":"7305011002035","commune":"Rauco","code":"07305","gse":"C3","quintil":"Q3","nse_score":680.6,"educ":10.7,"educ_score":513.3,"hacin":1.4,"hacin_class":"Hacinamiento Leve","hacin_score":766.0,"auto_score":181.8,"n_per":28,"n_hog":10,"source_year":2024},"geometry":{"type":"Polygon","coordinates":[[[-71.3185355999999,-34.9278034001139],[-71.31826989,-34.9276510471139],[-71.3180080409999,-34.9281352691139],[-71.3183125069999,-34.9281664981139],[-71.3185355999999,-34.9278034001139]]]}},{"type":"Feature","properties":{"id":"7305011002037","commune":"Rauco","code":"07305","gse":"C2","quintil":"Q4","nse_score":735.1,"educ":12.4,"educ_score":626.7,"hacin":1.392,"hacin_class":"Hacinamiento Leve","hacin_score":767.6,"auto_score":166.7,"n_per":71,"n_hog":22,"source_year":2024},"geometry":{"type":"Polygon","coordinates":[[[-71.3178359819999,-34.9284140491139],[-71.318965251,-34.9285869581139],[-71.3190428259999,-34.9283470221139],[-71.3180090829999,-34.9281722901139],[-71.3178359819999,-34.9284140491139]]]}},{"type":"Feature","properties":{"id":"7305011002038","commune":"Rauco","code":"07305","gse":"C3","quintil":"Q3","nse_score":678.8,"educ":10.8,"educ_score":520.0,"hacin":1.24,"hacin_class":"Hacinamiento Leve","hacin_score":800.0,"auto_score":230.8,"n_per":62,"n_hog":23,"source_year":2024},"geometry":{"type":"Polygon","coordinates":[[[-71.3176978309999,-34.9286991271139],[-71.3188919169999,-34.9288777441138],[-71.3189781829999,-34.9286469031139],[-71.3178232049999,-34.9284496841139],[-71.3176978309999,-34.9286991271139]]]}},{"type":"Feature","properties":{"id":"7305011002039","commune":"Rauco","code":"07305","gse":"D","quintil":"Q2","nse_score":649.2,"educ":9.5,"educ_score":433.3,"hacin":1.316,"hacin_class":"Hacinamiento Leve","hacin_score":783.9,"auto_score":166.7,"n_per":75,"n_hog":28,"source_year":2024},"geometry":{"type":"Polygon","coordinates":[[[-71.317693189,-34.9287339411139],[-71.3175766569999,-34.9289916621139],[-71.3188743839999,-34.9291535741139],[-71.3189014529999,-34.9289169191139],[-71.317693189,-34.9287339411139]]]}},{"type":"Feature","properties":{"id":"7305011002040","commune":"Rauco","code":"07305","gse":"C3","quintil":"Q2","nse_score":667.8,"educ":10.3,"educ_score":486.7,"hacin":1.143,"hacin_class":"Hacinamiento Leve","hacin_score":820.7,"auto_score":250.0,"n_per":72,"n_hog":26,"source_year":2024},"geometry":{"type":"Polygon","coordinates":[[[-71.317523434,-34.9293098161139],[-71.3187774579999,-34.9295050041139],[-71.3188415299999,-34.9292769461139],[-71.3175640799999,-34.9290436581139],[-71.317523434,-34.9293098161139]]]}},{"type":"Feature","properties":{"id":"7305011002041","commune":"Rauco","code":"07305","gse":"C3","quintil":"Q3","nse_score":686.1,"educ":10.9,"educ_score":526.7,"hacin":1.312,"hacin_class":"Hacinamiento Leve","hacin_score":784.6,"auto_score":280.0,"n_per":84,"n_hog":25,"source_year":2024},"geometry":{"type":"Polygon","coordinates":[[[-71.3188942009999,-34.9295330651139],[-71.320080603,-34.9297377971138],[-71.320167265,-34.9295153561139],[-71.3189702889999,-34.9292651831139],[-71.3188942009999,-34.9295330651139]]]}},{"type":"Feature","properties":{"id":"7305011002042","commune":"Rauco","code":"07305","gse":"C3","quintil":"Q2","nse_score":657.7,"educ":9.7,"educ_score":446.7,"hacin":1.177,"hacin_class":"Hacinamiento Leve","hacin_score":813.5,"auto_score":75.0,"n_per":60,"n_hog":21,"source_year":2024},"geometry":{"type":"Polygon","coordinates":[[[-71.3174646809999,-34.9296041471139],[-71.3186927549999,-34.9297913771139],[-71.3187791319999,-34.9295539831139],[-71.3175037119999,-34.9293454311139],[-71.3174646809999,-34.9296041471139]]]}},{"type":"Feature","properties":{"id":"7305011002043","commune":"Rauco","code":"07305","gse":"C3","quintil":"Q2","nse_score":666.4,"educ":9.6,"educ_score":440.0,"hacin":1.473,"hacin_class":"Hacinamiento Leve","hacin_score":750.5,"auto_score":152.2,"n_per":81,"n_hog":24,"source_year":2024},"geometry":{"type":"Polygon","coordinates":[[[-71.3202511489999,-34.9295301041139],[-71.3201994609999,-34.9297564481138],[-71.3214814389999,-34.9298955251139],[-71.3214697599999,-34.9295808961139],[-71.3202511489999,-34.9295301041139]]]}},{"type":"Feature","properties":{"id":"7305011002044","commune":"Rauco","code":"07305","gse":"C3","quintil":"Q3","nse_score":682.6,"educ":10.6,"educ_score":506.7,"hacin":1.51,"hacin_class":"Hacinamiento Medio","hacin_score":742.6,"auto_score":547.6,"n_per":77,"n_hog":21,"source_year":2024},"geometry":{"type":"Polygon","coordinates":[[[-71.3189141389999,-34.9295672171139],[-71.3188227109999,-34.9298143621139],[-71.320020472,-34.9300229941139],[-71.3200708589999,-34.9297715701139],[-71.3189141389999,-34.9295672171139]]]}},{"type":"Feature","properties":{"id":"7305011002045","commune":"Rauco","code":"07305","gse":"C3","quintil":"Q3","nse_score":698.6,"educ":10.9,"educ_score":526.7,"hacin":1.359,"hacin_class":"Hacinamiento Leve","hacin_score":774.6,"auto_score":370.4,"n_per":87,"n_hog":27,"source_year":2024},"geometry":{"type":"Polygon","coordinates":[[[-71.3201661249999,-34.9298049081139],[-71.3199883779999,-34.9303835761139],[-71.3204150279999,-34.9304601291138],[-71.3205116399999,-34.9300985011138],[-71.3204652539999,-34.9304692531139],[-71.3207967529999,-34.9305293941139],[-71.3209539629999,-34.9299310741139],[-71.3201661249999,-34.9298049081139]]]}},{"type":"Feature","properties":{"id":"7305011002046","commune":"Rauco","code":"07305","gse":"C3","quintil":"Q2","nse_score":656.6,"educ":10.0,"educ_score":466.7,"hacin":1.341,"hacin_class":"Hacinamiento Leve","hacin_score":778.5,"auto_score":113.6,"n_per":59,"n_hog":23,"source_year":2024},"geometry":{"type":"Polygon","coordinates":[[[-71.3187363449999,-34.9301592271139],[-71.3199125889999,-34.9303713981138],[-71.3199997549999,-34.9300858981139],[-71.3187873589999,-34.9298567091138],[-71.3187363449999,-34.9301592271139]]]}},{"type":"Feature","properties":{"id":"7305011002047","commune":"Rauco","code":"07305","gse":"C3","quintil":"Q3","nse_score":692.9,"educ":11.3,"educ_score":553.3,"hacin":1.6,"hacin_class":"Hacinamiento Medio","hacin_score":723.4,"auto_score":136.4,"n_per":32,"n_hog":12,"source_year":2024},"geometry":{"type":"Polygon","coordinates":[[[-71.3186317129999,-34.9302144251138],[-71.3182922349999,-34.9301699071139],[-71.3181939629999,-34.9305576561139],[-71.3184928629999,-34.9307132781138],[-71.3186317129999,-34.9302144251138]]]}},{"type":"Feature","properties":{"id":"7305011002049","commune":"Rauco","code":"07305","gse":"C3","quintil":"Q2","nse_score":660.2,"educ":10.7,"educ_score":513.3,"hacin":1.3,"hacin_class":"Hacinamiento Leve","hacin_score":787.2,"auto_score":125.0,"n_per":39,"n_hog":17,"source_year":2024},"geometry":{"type":"Polygon","coordinates":[[[-71.3190196809999,-34.9302834211139],[-71.318699793,-34.9302471211139],[-71.3185500069999,-34.9307449801138],[-71.3188586129999,-34.9309531201138],[-71.3190196809999,-34.9302834211139]]]}},{"type":"Feature","properties":{"id":"7305011002050","commune":"Rauco","code":"07305","gse":"D","quintil":"Q2","nse_score":640.3,"educ":10.1,"educ_score":473.3,"hacin":1.292,"hacin_class":"Hacinamiento Leve","hacin_score":789.0,"auto_score":95.2,"n_per":62,"n_hog":21,"source_year":2024},"geometry":{"type":"Polygon","coordinates":[[[-71.3194072919999,-34.9303524921139],[-71.3191026819999,-34.9303141171139],[-71.3189428599999,-34.9310028761138],[-71.3192182739999,-34.9311088061139],[-71.3194072919999,-34.9303524921139]]]}},{"type":"Feature","properties":{"id":"7305011002051","commune":"Rauco","code":"07305","gse":"C3","quintil":"Q2","nse_score":672.9,"educ":11.0,"educ_score":533.3,"hacin":1.326,"hacin_class":"Hacinamiento Leve","hacin_score":781.8,"auto_score":200.0,"n_per":57,"n_hog":20,"source_year":2024},"geometry":{"type":"Polygon","coordinates":[[[-71.3192790229999,-34.9311404071139],[-71.3196020099999,-34.9312436971139],[-71.3198764079999,-34.9304362061139],[-71.3194877119999,-34.9303899521138],[-71.3192790229999,-34.9311404071139]]]}},{"type":"Feature","properties":{"id":"7305011002052","commune":"Rauco","code":"07305","gse":"C3","quintil":"Q2","nse_score":666.0,"educ":10.4,"educ_score":493.3,"hacin":1.378,"hacin_class":"Hacinamiento Leve","hacin_score":770.7,"auto_score":125.0,"n_per":62,"n_hog":22,"source_year":2024},"geometry":{"type":"Polygon","coordinates":[[[-71.3202838129999,-34.9305101771138],[-71.319955536,-34.9304787431138],[-71.3196832549999,-34.9312842831139],[-71.3199796849999,-34.9313768991138],[-71.3202838129999,-34.9305101771138]]]}},{"type":"Feature","properties":{"id":"7305011002053","commune":"Rauco","code":"07305","gse":"C2","quintil":"Q3","nse_score":714.8,"educ":11.7,"educ_score":580.0,"hacin":1.39,"hacin_class":"Hacinamiento Leve","hacin_score":768.0,"auto_score":285.7,"n_per":57,"n_hog":21,"source_year":2024},"geometry":{"type":"Polygon","coordinates":[[[-71.3200437199999,-34.9314062151138],[-71.3203352849999,-34.9314863841138],[-71.3206644549999,-34.9305767021139],[-71.320350974,-34.9305445081139],[-71.3200437199999,-34.9314062151138]]]}},{"type":"Feature","properties":{"id":"7305013008001","commune":"Rauco","code":"07305","gse":"E","quintil":"Q1","nse_score":462.0,"educ":7.0,"educ_score":266.7,"hacin":1.0,"hacin_class":"Hacinamiento Leve","hacin_score":851.1,"auto_score":0.0,"n_per":5,"n_hog":4,"source_year":2024},"geometry":{"type":"Polygon","coordinates":[[[-71.2965322309999,-34.8985774501142],[-71.2970286459999,-34.9000723041142],[-71.2968399639999,-34.9008817321142],[-71.2981122639999,-34.9018828141141],[-71.2984099019999,-34.9023218521142],[-71.2988837389999,-34.9017058401142],[-71.2978950799999,-34.9013399781142],[-71.2974082929999,-34.9009103001142],[-71.2987107709999,-34.9005832631142],[-71.2973573009999,-34.8991221531142],[-71.2972623089999,-34.8988684051142],[-71.2973844769999,-34.8985580081142],[-71.2965322309999,-34.8985774501142]]]}},{"type":"Feature","properties":{"id":"7305013008002","commune":"Rauco","code":"07305","gse":"E","quintil":"Q1","nse_score":578.3,"educ":8.7,"educ_score":380.0,"hacin":1.523,"hacin_class":"Hacinamiento Medio","hacin_score":739.8,"auto_score":43.5,"n_per":67,"n_hog":25,"source_year":2024},"geometry":{"type":"Polygon","coordinates":[[[-71.2957530179999,-34.9035408481141],[-71.2965692419999,-34.9038763011142],[-71.2979662299999,-34.9018696511141],[-71.2969444569999,-34.9010995191142],[-71.2966984409999,-34.9006668751142],[-71.2961158289999,-34.9015117081142],[-71.2967584619999,-34.9018302391142],[-71.2957530179999,-34.9035408481141]]]}},{"type":"Feature","properties":{"id":"7305013008005","commune":"Rauco","code":"07305","gse":"E","quintil":"Q1","nse_score":584.6,"educ":9.1,"educ_score":406.7,"hacin":1.378,"hacin_class":"Hacinamiento Leve","hacin_score":770.6,"auto_score":127.1,"n_per":306,"n_hog":119,"source_year":2024},"geometry":{"type":"Polygon","coordinates":[[[-71.2944509169999,-34.9067336621141],[-71.2912520099999,-34.9114047131141],[-71.2918674129999,-34.9118915661141],[-71.2920706899999,-34.9123993231141],[-71.2932612189999,-34.912911599114],[-71.2934087159999,-34.913245584114],[-71.2938648269999,-34.9133598821141],[-71.2939920079999,-34.913616377114],[-71.2944032939999,-34.9137640481141],[-71.2946651639999,-34.9140643201141],[-71.2948140669999,-34.913824229114],[-71.2951852639999,-34.913878610114],[-71.2964189149999,-34.914449487114],[-71.2972378089999,-34.9135078641141],[-71.2964469679999,-34.913297947114],[-71.2972720809999,-34.9134685281141],[-71.3003577189999,-34.9093945001141],[-71.3002120939999,-34.9074355241141],[-71.2985445189999,-34.9093824141141],[-71.2954499369999,-34.913494746114],[-71.2947967939999,-34.913305285114],[-71.2954188739999,-34.913452674114],[-71.2962078899999,-34.9124116191141],[-71.2958440339999,-34.9123320831141],[-71.2953185879999,-34.9124198281141],[-71.2944852469999,-34.9121080141141],[-71.2941207209999,-34.9108918971141],[-71.2930267549999,-34.9120828041141],[-71.2957506879999,-34.9088747171141],[-71.2956436929999,-34.9085864501141],[-71.2959564339999,-34.9080554571141],[-71.2956765169999,-34.9085898141141],[-71.2957720249999,-34.9088483481141],[-71.2992350329999,-34.9047162261142],[-71.2985542609999,-34.9029083231142],[-71.2930708899999,-34.9101367821141],[-71.2924556369999,-34.9110007201141],[-71.2924462049999,-34.9113265931141],[-71.2919126129999,-34.9117709201141],[-71.2923997349999,-34.9113021601141],[-71.2924036919999,-34.9109849161141],[-71.2930240089999,-34.9101136241141],[-71.2985337229999,-34.9028492131142],[-71.298105345,-34.9019953721142],[-71.2977847779999,-34.9021943751142],[-71.2949577249999,-34.9064015991141],[-71.2944509169999,-34.9067336621141]]]}},{"type":"Feature","properties":{"id":"7305013008006","commune":"Rauco","code":"07305","gse":"E","quintil":"Q1","nse_score":572.1,"educ":8.0,"educ_score":333.3,"hacin":1.259,"hacin_class":"Hacinamiento Leve","hacin_score":796.0,"auto_score":232.1,"n_per":73,"n_hog":29,"source_year":2024},"geometry":{"type":"Polygon","coordinates":[[[-71.2939727599999,-34.9036947501142],[-71.2945567949999,-34.9038050341142],[-71.2953780949999,-34.9042941001142],[-71.2940026369999,-34.9063445111141],[-71.2945056529999,-34.9066553831141],[-71.2949121969999,-34.9063762801142],[-71.2953236989999,-34.9057211261141],[-71.2947348439999,-34.9054064741142],[-71.2953379569999,-34.9056984251142],[-71.2965425699999,-34.9039157751141],[-71.2958515919999,-34.9036383601142],[-71.2955233099999,-34.9041051861141],[-71.2958245119999,-34.9036257731141],[-71.2950732479999,-34.9032457581142],[-71.2945846399999,-34.9027965671142],[-71.2939727599999,-34.9036947501142]]]}},{"type":"Feature","properties":{"id":"7305013008008","commune":"Rauco","code":"07305","gse":"D","quintil":"Q2","nse_score":629.4,"educ":9.5,"educ_score":433.3,"hacin":1.134,"hacin_class":"Hacinamiento Leve","hacin_score":822.5,"auto_score":187.5,"n_per":76,"n_hog":33,"source_year":2024},"geometry":{"type":"Polygon","coordinates":[[[-71.2977535159999,-34.9086200621141],[-71.2997929939999,-34.9061666031141],[-71.2992528909999,-34.9047614141141],[-71.2941524279999,-34.9108551271141],[-71.2942917769999,-34.9110332491141],[-71.2945229739999,-34.9120748091141],[-71.2953309549999,-34.9123751751141],[-71.2958440819999,-34.9122868041141],[-71.2962382279999,-34.912372712114],[-71.2978296319999,-34.9102116471141],[-71.2967180209999,-34.9095685841141],[-71.2971842549999,-34.9097476021141],[-71.2978255539999,-34.9088764081141],[-71.2977535159999,-34.9086200621141]]]}},{"type":"Feature","properties":{"id":"7305013008009","commune":"Rauco","code":"07305","gse":"C3","quintil":"Q2","nse_score":673.0,"educ":12.6,"educ_score":640.0,"hacin":1.6,"hacin_class":"Hacinamiento Medio","hacin_score":723.4,"auto_score":437.5,"n_per":24,"n_hog":7,"source_year":2024},"geometry":{"type":"Polygon","coordinates":[[[-71.2998134299999,-34.9062228791141],[-71.2978136569999,-34.9086265641141],[-71.2978671949999,-34.9089239971141],[-71.2972265059999,-34.9097685421141],[-71.2978594099999,-34.9101736461141],[-71.3002079319999,-34.9073827191141],[-71.2998134299999,-34.9062228791141]]]}},{"type":"Feature","properties":{"id":"7305013008003","commune":"Rauco","code":"07305","gse":"D","quintil":"Q2","nse_score":635.0,"educ":10.7,"educ_score":513.3,"hacin":1.206,"hacin_class":"Hacinamiento Leve","hacin_score":807.3,"auto_score":156.2,"n_per":41,"n_hog":16,"source_year":2024},"geometry":{"type":"MultiPolygon","coordinates":[[[[-71.3034620839999,-34.9046409411142],[-71.3038254859999,-34.9042243341141],[-71.3048129629999,-34.9024754301142],[-71.3049795249999,-34.9017853861142],[-71.3045160289999,-34.9015863781142],[-71.303805113,-34.9030950901142],[-71.3031418369999,-34.9037911771142],[-71.3031556269999,-34.9041745771141],[-71.3030005599999,-34.9044135931142],[-71.3034620839999,-34.9046409411142]]],[[[-71.2984281419999,-34.9023651711142],[-71.3002639949999,-34.9072390871141],[-71.3014695979999,-34.9057571621141],[-71.3023571329999,-34.9053180001142],[-71.3030668579999,-34.9042677091142],[-71.3031014609999,-34.9037757481141],[-71.3037663559999,-34.9030783881142],[-71.3044770029999,-34.9015696221142],[-71.303991445,-34.9013611411142],[-71.303261587,-34.9028024621142],[-71.3025539079999,-34.9024474421142],[-71.3011281139999,-34.9045782381142],[-71.3005285549999,-34.9052378031141],[-71.2995320269999,-34.9023155741142],[-71.300019071,-34.9017015911142],[-71.2994231499999,-34.9011754901142],[-71.2984281419999,-34.9023651711142]]]]}},{"type":"Feature","properties":{"id":"7305013008007","commune":"Rauco","code":"07305","gse":"E","quintil":"Q1","nse_score":589.9,"educ":9.8,"educ_score":453.3,"hacin":1.503,"hacin_class":"Hacinamiento Medio","hacin_score":744.0,"auto_score":207.3,"n_per":227,"n_hog":80,"source_year":2024},"geometry":{"type":"MultiPolygon","coordinates":[[[[-71.2996697709999,-34.9127061201141],[-71.3000127519999,-34.912872909114],[-71.3003922429999,-34.9124763141141],[-71.3004774729999,-34.9108190271141],[-71.3003637859999,-34.9094621651141],[-71.2995937769999,-34.9104075321141],[-71.3003820659999,-34.9107256671141],[-71.2994499269999,-34.911987556114],[-71.2999703579999,-34.912271086114],[-71.2996697709999,-34.9127061201141]]],[[[-71.3015024939999,-34.9057812191141],[-71.3002782919999,-34.9072841791141],[-71.3004231169999,-34.9090520111141],[-71.3009333789999,-34.9083329521141],[-71.3011072549999,-34.9083164301141],[-71.3019366089999,-34.9088283871141],[-71.3026875669999,-34.9080959891141],[-71.3019423199999,-34.9088498021141],[-71.3009574319999,-34.9083654871141],[-71.3004272479999,-34.9091163241141],[-71.3005650219999,-34.9108188781141],[-71.3004704439999,-34.9119272401141],[-71.3019266859999,-34.9104202751141],[-71.3021851139999,-34.9105785801141],[-71.3036725039999,-34.9089138361141],[-71.3041846059999,-34.9085134431141],[-71.3044954099999,-34.9086924631141],[-71.3041953079999,-34.9085553061141],[-71.3036972799999,-34.9089467181141],[-71.3022050279999,-34.9106169051141],[-71.3019458489999,-34.9104580731141],[-71.3004800969999,-34.9119753621141],[-71.3005817989999,-34.913047718114],[-71.3020766429999,-34.911393801114],[-71.3005991769999,-34.913089369114],[-71.3006630329999,-34.9134718881141],[-71.3010721089999,-34.913151838114],[-71.3016168969999,-34.9135557551141],[-71.3022051499999,-34.9129463571141],[-71.301683996,-34.912417109114],[-71.3056283459999,-34.9076429901141],[-71.3036978849999,-34.9077891821141],[-71.302757315,-34.9073780221141],[-71.3018067199999,-34.9083507521141],[-71.3008112039999,-34.9075395501141],[-71.3018356239999,-34.9062750491141],[-71.3024232969999,-34.9065374391141],[-71.3027875109999,-34.9055407541142],[-71.3034393629999,-34.9046717311142],[-71.3029780179999,-34.9044444551141],[-71.3023906279999,-34.9053414331141],[-71.3015024939999,-34.9057812191141]]]]}},{"type":"Feature","properties":{"id":"7305013022010","commune":"Rauco","code":"07305","gse":"D","quintil":"Q1","nse_score":600.9,"educ":8.8,"educ_score":386.7,"hacin":1.39,"hacin_class":"Hacinamiento Leve","hacin_score":768.0,"auto_score":105.3,"n_per":114,"n_hog":37,"source_year":2024},"geometry":{"type":"Polygon","coordinates":[[[-71.2762255609999,-34.8887308971144],[-71.276593052,-34.8887196321143],[-71.2787814179999,-34.8844790421144],[-71.2786266779999,-34.8843589861144],[-71.2786694569999,-34.8840999801144],[-71.2771381199999,-34.8835449741144],[-71.2770258459999,-34.8838305991144],[-71.2785587399999,-34.8843598141144],[-71.2762255609999,-34.8887308971144]]]}},{"type":"Feature","properties":{"id":"7305013022013","commune":"Rauco","code":"07305","gse":"E","quintil":"Q1","nse_score":562.8,"educ":8.4,"educ_score":360.0,"hacin":1.571,"hacin_class":"Hacinamiento Medio","hacin_score":729.5,"auto_score":187.5,"n_per":22,"n_hog":8,"source_year":2024},"geometry":{"type":"Polygon","coordinates":[[[-71.2784347289999,-34.8852775981144],[-71.2789465509999,-34.8854991491144],[-71.2791497779999,-34.8853047641144],[-71.2790490029999,-34.8855273791144],[-71.2794385199999,-34.8856577471144],[-71.2795644289999,-34.8847402111144],[-71.2788517179999,-34.8845016021144],[-71.2784347289999,-34.8852775981144]]]}},{"type":"Feature","properties":{"id":"7305013022014","commune":"Rauco","code":"07305","gse":"E","quintil":"Q1","nse_score":538.4,"educ":7.9,"educ_score":326.7,"hacin":1.286,"hacin_class":"Hacinamiento Leve","hacin_score":790.3,"auto_score":29.4,"n_per":36,"n_hog":16,"source_year":2024},"geometry":{"type":"Polygon","coordinates":[[[-71.2789328379999,-34.8855897591143],[-71.2783745769999,-34.8853924701144],[-71.2778568069999,-34.8864193991143],[-71.2784105739999,-34.8865979291144],[-71.2789328379999,-34.8855897591143]]]}},{"type":"Feature","properties":{"id":"7305013022015","commune":"Rauco","code":"07305","gse":"E","quintil":"Q1","nse_score":579.7,"educ":9.1,"educ_score":406.7,"hacin":1.6,"hacin_class":"Hacinamiento Medio","hacin_score":723.4,"auto_score":166.7,"n_per":16,"n_hog":8,"source_year":2024},"geometry":{"type":"Polygon","coordinates":[[[-71.2794491769999,-34.8857661411143],[-71.2790075649999,-34.8855991181144],[-71.2784913219999,-34.8866288541143],[-71.2790381999999,-34.8868079391144],[-71.2794491769999,-34.8857661411143]]]}},{"type":"Feature","properties":{"id":"7305013022016","commune":"Rauco","code":"07305","gse":"D","quintil":"Q1","nse_score":622.6,"educ":9.3,"educ_score":420.0,"hacin":1.273,"hacin_class":"Hacinamiento Leve","hacin_score":793.0,"auto_score":333.3,"n_per":42,"n_hog":17,"source_year":2024},"geometry":{"type":"Polygon","coordinates":[[[-71.2783663629999,-34.8866976481143],[-71.2778088969999,-34.8864874421143],[-71.2773280579999,-34.8874826401143],[-71.2778632869999,-34.8876605651143],[-71.2783663629999,-34.8866976481143]]]}},{"type":"Feature","properties":{"id":"7305013022017","commune":"Rauco","code":"07305","gse":"D","quintil":"Q1","nse_score":615.1,"educ":8.3,"educ_score":353.3,"hacin":1.429,"hacin_class":"Hacinamiento Leve","hacin_score":759.9,"auto_score":125.0,"n_per":70,"n_hog":24,"source_year":2024},"geometry":{"type":"Polygon","coordinates":[[[-71.2789913839999,-34.8868973261144],[-71.2784469259999,-34.8866983821144],[-71.2779418009999,-34.8876943951143],[-71.278475796,-34.8878694791144],[-71.2789913839999,-34.8868973261144]]]}},{"type":"Feature","properties":{"id":"7305013022018","commune":"Rauco","code":"07305","gse":"C3","quintil":"Q2","nse_score":653.1,"educ":9.2,"educ_score":413.3,"hacin":1.346,"hacin_class":"Hacinamiento Leve","hacin_score":777.4,"auto_score":272.7,"n_per":35,"n_hog":11,"source_year":2024},"geometry":{"type":"Polygon","coordinates":[[[-71.2790790239999,-34.8868664691143],[-71.2785522529999,-34.8878847421143],[-71.2790139429999,-34.8880597871143],[-71.2792257819999,-34.8876553141143],[-71.2792401289999,-34.8869160121143],[-71.2790790239999,-34.8868664691143]]]}},{"type":"Feature","properties":{"id":"7305013022019","commune":"Rauco","code":"07305","gse":"D","quintil":"Q1","nse_score":607.0,"educ":8.0,"educ_score":333.3,"hacin":1.139,"hacin_class":"Hacinamiento Leve","hacin_score":821.4,"auto_score":90.9,"n_per":49,"n_hog":22,"source_year":2024},"geometry":{"type":"Polygon","coordinates":[[[-71.277807789,-34.8877133031143],[-71.2772794969999,-34.8875516251144],[-71.2766877319999,-34.8887227631143],[-71.2773066379999,-34.8887712241143],[-71.277807789,-34.8877133031143]]]}},{"type":"Feature","properties":{"id":"7305013022020","commune":"Rauco","code":"07305","gse":"D","quintil":"Q2","nse_score":632.8,"educ":9.9,"educ_score":460.0,"hacin":1.655,"hacin_class":"Hacinamiento Medio","hacin_score":711.7,"auto_score":205.9,"n_per":48,"n_hog":15,"source_year":2024},"geometry":{"type":"Polygon","coordinates":[[[-71.2784338339999,-34.8879646651143],[-71.2778836059999,-34.8877780151143],[-71.2773900489999,-34.8887879791143],[-71.2779960499999,-34.8888330731143],[-71.2784338339999,-34.8879646651143]]]}}]}