{"type":"FeatureCollection","features":[{"type":"Feature","properties":{"id":"5303011001001","commune":"Rinconada","code":"05303","gse":"D","quintil":"Q2","nse_score":662.7,"educ":11.2,"educ_score":546.7,"hacin":1.329,"hacin_class":"Hacinamiento Leve","hacin_score":781.1,"auto_score":209.7,"n_per":97,"n_hog":34,"source_year":2024,"crime_score":0.3101,"crime_nivel":"Medio","crime_color":"#ff9800"},"geometry":{"type":"Polygon","coordinates":[[[-70.6919983469999,-32.82922033414],[-70.6922932719999,-32.8300601911399],[-70.6926139429999,-32.8300255511399],[-70.6926022899999,-32.8297773251399],[-70.6937039839999,-32.82962632314],[-70.6937998139999,-32.82988831414],[-70.6945210499999,-32.82973571214],[-70.694307379,-32.8290101411399],[-70.6945694179999,-32.82972859914],[-70.6965972079999,-32.8294539791399],[-70.6938123339999,-32.8299228691399],[-70.6940036169999,-32.83005619814],[-70.6956256369999,-32.8299554041399],[-70.6956963199999,-32.8296804411399],[-70.696788437,-32.82954424514],[-70.6967924939999,-32.82882111914],[-70.6970048749999,-32.82861299814],[-70.6921629259999,-32.82910303014],[-70.6919983469999,-32.82922033414]]]}},{"type":"Feature","properties":{"id":"5303011001002","commune":"Rinconada","code":"05303","gse":"C3","quintil":"Q3","nse_score":731.0,"educ":12.4,"educ_score":626.7,"hacin":1.081,"hacin_class":"Hacinamiento Leve","hacin_score":833.9,"auto_score":193.5,"n_per":255,"n_hog":89,"source_year":2024,"crime_score":0.3211,"crime_nivel":"Medio","crime_color":"#ff9800"},"geometry":{"type":"Polygon","coordinates":[[[-70.6915735329999,-32.82987664614],[-70.6914947479999,-32.8292821871399],[-70.6910376569999,-32.82933327914],[-70.6910619359999,-32.8300054071399],[-70.6906455049999,-32.83000950014],[-70.6906408759999,-32.82933692614],[-70.6887626249999,-32.8294796251399],[-70.688902992,-32.8320410191399],[-70.6910896239999,-32.8318828691399],[-70.6909265049999,-32.83047631314],[-70.6904698959999,-32.8304179601399],[-70.6910810139999,-32.8304313861399],[-70.691111583,-32.8306182081399],[-70.6917418159999,-32.8305786971399],[-70.6917866079999,-32.8303500061399],[-70.6918727659999,-32.8309589381399],[-70.6917428579999,-32.8306149061399],[-70.6910702129999,-32.8306617871399],[-70.6911804049999,-32.8318535111399],[-70.6918763829999,-32.8318176481399],[-70.6918908549999,-32.8314716491399],[-70.6919266849999,-32.8318134791399],[-70.6922853739999,-32.8317973261399],[-70.6923001789999,-32.8314542851399],[-70.6924214939999,-32.8322759841399],[-70.6922967539999,-32.8318615251399],[-70.6889056679999,-32.8321089861399],[-70.6889266739999,-32.8331449851399],[-70.693016327,-32.8328326781399],[-70.6920187679999,-32.8292679771399],[-70.6915501549999,-32.82929731114],[-70.6915735329999,-32.82987664614]]]}},{"type":"Feature","properties":{"id":"5303011001003","commune":"Rinconada","code":"05303","gse":"C3","quintil":"Q2","nse_score":686.0,"educ":10.4,"educ_score":493.3,"hacin":1.417,"hacin_class":"Hacinamiento Leve","hacin_score":762.4,"auto_score":100.0,"n_per":17,"n_hog":5,"source_year":2024,"crime_score":0.2945,"crime_nivel":"Medio","crime_color":"#ff9800"},"geometry":{"type":"Polygon","coordinates":[[[-70.6907036599999,-32.82933544714],[-70.6906961959999,-32.82973067014],[-70.6910187759999,-32.82972351514],[-70.6909946419999,-32.8293295311399],[-70.6907036599999,-32.82933544714]]]}},{"type":"Feature","properties":{"id":"5303011001004","commune":"Rinconada","code":"05303","gse":"C3","quintil":"Q2","nse_score":686.2,"educ":9.8,"educ_score":453.3,"hacin":1.529,"hacin_class":"Hacinamiento Medio","hacin_score":738.4,"auto_score":0.0,"n_per":26,"n_hog":7,"source_year":2024,"crime_score":0.2958,"crime_nivel":"Medio","crime_color":"#ff9800"},"geometry":{"type":"Polygon","coordinates":[[[-70.6937339479999,-32.82990478414],[-70.6936841079999,-32.82965969114],[-70.6926315179999,-32.82980894714],[-70.6926743829999,-32.8300186901399],[-70.6937339479999,-32.82990478414]]]}},{"type":"Feature","properties":{"id":"5303011001009","commune":"Rinconada","code":"05303","gse":"C2","quintil":"Q3","nse_score":733.4,"educ":12.6,"educ_score":640.0,"hacin":1.283,"hacin_class":"Hacinamiento Leve","hacin_score":790.8,"auto_score":239.5,"n_per":417,"n_hog":154,"source_year":2024,"crime_score":0.3271,"crime_nivel":"Medio","crime_color":"#ff9800"},"geometry":{"type":"Polygon","coordinates":[[[-70.6889414819999,-32.8332105331399],[-70.6889583519999,-32.8346782951399],[-70.6893688289999,-32.8347928811399],[-70.6895099739999,-32.8346147481399],[-70.6894539349999,-32.8348091071399],[-70.6897559519999,-32.8349009481399],[-70.6899070339999,-32.8347112191399],[-70.6898396449999,-32.8349074641399],[-70.6899834949999,-32.8349644671399],[-70.6901481329999,-32.8347515591399],[-70.6900723079999,-32.8349840231399],[-70.6903640129999,-32.8350706861399],[-70.6905256309999,-32.8348526451399],[-70.6904462599999,-32.8350882631399],[-70.690779904,-32.8351867801399],[-70.6909140049999,-32.8349614841399],[-70.6907588129999,-32.8358016111399],[-70.6907181259999,-32.8355663271399],[-70.6903832909999,-32.8355713091399],[-70.690311188,-32.8358472311399],[-70.69031279,-32.8355739801399],[-70.6899781889999,-32.8355683331398],[-70.6899046409999,-32.8358702381398],[-70.6898982869999,-32.8355732791399],[-70.6895590649999,-32.8355715601399],[-70.6895031569999,-32.8358067031399],[-70.6895018519999,-32.8355236521399],[-70.689355223,-32.8354802891398],[-70.6896238919999,-32.8354972471398],[-70.6897010039999,-32.8352114671399],[-70.6893572519999,-32.8351307551399],[-70.6897128789999,-32.8351674581399],[-70.6897596939999,-32.8349543601399],[-70.6889452209999,-32.8347347971399],[-70.6888231169999,-32.8352979531399],[-70.6879298069999,-32.8365063761399],[-70.6886966769999,-32.8366939951399],[-70.6888827319999,-32.8371032911399],[-70.6909540949999,-32.8372992571398],[-70.6910638459999,-32.8366813261399],[-70.6908377489999,-32.8366454191398],[-70.6910742919999,-32.8366011861399],[-70.6911085289999,-32.8363394931399],[-70.6908906239999,-32.8362844871399],[-70.6911142009999,-32.8362945431399],[-70.6913216039999,-32.8350239031398],[-70.6911953469999,-32.8362808191399],[-70.691417714,-32.8363116351399],[-70.6911856839999,-32.8363458871398],[-70.6911473069999,-32.8366093991399],[-70.6913651059999,-32.8366752701398],[-70.6911347239999,-32.8366726121398],[-70.6910578799999,-32.8373131861399],[-70.6915024839999,-32.8373056431398],[-70.6917508339999,-32.8352988991399],[-70.6917311569999,-32.8355118331399],[-70.6920620779999,-32.8355490261399],[-70.6917465719999,-32.8355585231399],[-70.6917125069999,-32.8357732751399],[-70.6921552119999,-32.8357843341398],[-70.6917112379999,-32.8358358841399],[-70.6916099179999,-32.8373485641399],[-70.6930632679999,-32.8372861571398],[-70.6938457459999,-32.8370178951398],[-70.6951766549999,-32.8371014251399],[-70.6958005029999,-32.8376448771398],[-70.6960405799999,-32.8386219501398],[-70.6986748859999,-32.8384252061398],[-70.6985918809999,-32.8380510411398],[-70.6974473849999,-32.8376836621398],[-70.6965009139999,-32.8378505531398],[-70.6962337189999,-32.8372453321399],[-70.6954086509999,-32.8366079731399],[-70.6937960299999,-32.8364968001399],[-70.6929087819999,-32.8367739041398],[-70.6922309699999,-32.8368368561399],[-70.6923626419999,-32.8354164811399],[-70.6922712829999,-32.8354740321398],[-70.6915907499999,-32.8349832011399],[-70.6906054629999,-32.8347712921399],[-70.6903798439999,-32.8330973981399],[-70.6889414819999,-32.8332105331399]]]}},{"type":"Feature","properties":{"id":"5303011001010","commune":"Rinconada","code":"05303","gse":"C3","quintil":"Q3","nse_score":718.1,"educ":13.3,"educ_score":686.7,"hacin":1.308,"hacin_class":"Hacinamiento Leve","hacin_score":785.6,"auto_score":38.5,"n_per":34,"n_hog":10,"source_year":2024,"crime_score":0.2917,"crime_nivel":"Medio","crime_color":"#ff9800"},"geometry":{"type":"Polygon","coordinates":[[[-70.6896828999999,-32.8355194891398],[-70.6907437979999,-32.8355148951399],[-70.6907792219999,-32.8352369641399],[-70.6898178519999,-32.8349814201399],[-70.6897415049999,-32.8352643701399],[-70.690240823,-32.8353917321399],[-70.6897296149999,-32.8353084371399],[-70.6896828999999,-32.8355194891398]]]}},{"type":"Feature","properties":{"id":"5303011001012","commune":"Rinconada","code":"05303","gse":"E","quintil":"Q1","nse_score":611.4,"educ":10.6,"educ_score":506.7,"hacin":1.229,"hacin_class":"Hacinamiento Leve","hacin_score":802.3,"auto_score":90.0,"n_per":134,"n_hog":47,"source_year":2024,"crime_score":0.3244,"crime_nivel":"Medio","crime_color":"#ff9800"},"geometry":{"type":"Polygon","coordinates":[[[-70.6901719669999,-32.8392966061398],[-70.6904909869999,-32.8404359731398],[-70.6915298469999,-32.8402143261398],[-70.6912384599999,-32.8391587581398],[-70.6917709379999,-32.8390656541398],[-70.691702012,-32.8381144611398],[-70.6920906329999,-32.8380376181398],[-70.6921399279999,-32.8375071981399],[-70.6931300569999,-32.8374007391398],[-70.6932607049999,-32.8380289481398],[-70.69413886,-32.8378309321398],[-70.6941893629999,-32.8383428021398],[-70.6952137999999,-32.8378873371398],[-70.6958041699999,-32.8377632121398],[-70.6952427409999,-32.8371553651399],[-70.6942152559999,-32.8370503211398],[-70.6920683309999,-32.8374156901398],[-70.6888684839999,-32.8371688711399],[-70.6885819939999,-32.8373344481398],[-70.6876787139999,-32.8373624181399],[-70.6870893959999,-32.8403086611398],[-70.6893098269999,-32.8396453881398],[-70.690129183,-32.8392693251398],[-70.6907763819999,-32.8391708611398],[-70.6901719669999,-32.8392966061398]]]}},{"type":"Feature","properties":{"id":"5303011001013","commune":"Rinconada","code":"05303","gse":"D","quintil":"Q1","nse_score":626.3,"educ":11.2,"educ_score":546.7,"hacin":1.188,"hacin_class":"Hacinamiento Leve","hacin_score":811.2,"auto_score":285.7,"n_per":38,"n_hog":13,"source_year":2024,"crime_score":0.3074,"crime_nivel":"Medio","crime_color":"#ff9800"},"geometry":{"type":"Polygon","coordinates":[[[-70.6899220989999,-32.8425288581398],[-70.6896160419999,-32.8406373811398],[-70.6893284529999,-32.8396771721398],[-70.6870676099999,-32.8403712761398],[-70.6866025989999,-32.8428985321397],[-70.6899220989999,-32.8425288581398]]]}},{"type":"Feature","properties":{"id":"5303011001014","commune":"Rinconada","code":"05303","gse":"C3","quintil":"Q2","nse_score":686.3,"educ":10.5,"educ_score":500.0,"hacin":1.21,"hacin_class":"Hacinamiento Leve","hacin_score":806.3,"auto_score":111.1,"n_per":23,"n_hog":9,"source_year":2024,"crime_score":0.2953,"crime_nivel":"Medio","crime_color":"#ff9800"},"geometry":{"type":"Polygon","coordinates":[[[-70.6884852749999,-32.8450253431397],[-70.6885718959999,-32.8427173621397],[-70.6865686899999,-32.8429585141397],[-70.6861315549999,-32.8449555271398],[-70.6884852749999,-32.8450253431397]]]}},{"type":"Feature","properties":{"id":"5303011001006","commune":"Rinconada","code":"05303","gse":"D","quintil":"Q1","nse_score":636.9,"educ":11.3,"educ_score":553.3,"hacin":1.193,"hacin_class":"Hacinamiento Leve","hacin_score":810.0,"auto_score":156.9,"n_per":136,"n_hog":51,"source_year":2024,"crime_score":0.3203,"crime_nivel":"Medio","crime_color":"#ff9800"},"geometry":{"type":"MultiPolygon","coordinates":[[[[-70.6975796409999,-32.8322982181399],[-70.6976506659999,-32.8329558701399],[-70.6984228579999,-32.8328615921399],[-70.6983115539999,-32.8320331681399],[-70.6975796409999,-32.8322982181399]]],[[[-70.6931874249999,-32.83048109714],[-70.6930470299999,-32.8300040891399],[-70.6922946689999,-32.8300887631399],[-70.6931233319999,-32.8328476441399],[-70.694597944,-32.8326487471399],[-70.6955000799999,-32.8327043161399],[-70.6953703869999,-32.8319332471399],[-70.6955439089999,-32.8327067851399],[-70.6961773909999,-32.8328011731399],[-70.6962146959999,-32.8323893921399],[-70.6965241219999,-32.8323277401399],[-70.6964086219999,-32.8319146901399],[-70.6965609369999,-32.8323112061399],[-70.6969749339999,-32.8321895181399],[-70.6972021719999,-32.8322787471399],[-70.6969249649999,-32.8322323481399],[-70.6962527669999,-32.8324108071399],[-70.6962058299999,-32.8328190851399],[-70.6963402929999,-32.8330951591399],[-70.6976052039999,-32.8329611991399],[-70.6975388679999,-32.8322816931399],[-70.6982858559999,-32.8320005511399],[-70.6980210989999,-32.8311473881399],[-70.6969458559999,-32.8312193851399],[-70.6970286029999,-32.8314645151399],[-70.6939027219999,-32.8320064581399],[-70.6936415159999,-32.8309978541399],[-70.6930450429999,-32.8310740591399],[-70.6931254439999,-32.8305943741399],[-70.693388335,-32.8305224461399],[-70.693353209,-32.8299716301399],[-70.6930930209999,-32.83001834814],[-70.6931874249999,-32.83048109714]]]]}},{"type":"Feature","properties":{"id":"5303011002001","commune":"Rinconada","code":"05303","gse":"D","quintil":"Q1","nse_score":633.4,"educ":10.7,"educ_score":513.3,"hacin":1.036,"hacin_class":"Hacinamiento Leve","hacin_score":843.5,"auto_score":250.0,"n_per":29,"n_hog":11,"source_year":2024,"crime_score":0.3049,"crime_nivel":"Medio","crime_color":"#ff9800"},"geometry":{"type":"Polygon","coordinates":[[[-70.6947260879999,-32.8488350811397],[-70.6939590189999,-32.8479627901397],[-70.6922288769999,-32.8479138211397],[-70.6922466039999,-32.8487954931397],[-70.6947260879999,-32.8488350811397]]]}},{"type":"Feature","properties":{"id":"5303021001001","commune":"Rinconada","code":"05303","gse":"C2","quintil":"Q3","nse_score":735.2,"educ":12.7,"educ_score":646.7,"hacin":1.016,"hacin_class":"Hacinamiento Leve","hacin_score":847.6,"auto_score":198.4,"n_per":188,"n_hog":64,"source_year":2024,"crime_score":0.3108,"crime_nivel":"Medio","crime_color":"#ff9800"},"geometry":{"type":"Polygon","coordinates":[[[-70.6866317249999,-32.82812022814],[-70.686590426,-32.8297756881399],[-70.6853135129999,-32.8298464511399],[-70.6852421289999,-32.8296798881399],[-70.6833942099999,-32.83011794714],[-70.683408487,-32.8309174461399],[-70.6866263389999,-32.8307151951399],[-70.6868026759999,-32.8342172711399],[-70.6867206139999,-32.8353830641399],[-70.6836266279999,-32.8349205351398],[-70.6830034849999,-32.8349335541399],[-70.6830268799999,-32.8369868931399],[-70.6843503999999,-32.8371435031398],[-70.6844508829999,-32.8361329981398],[-70.6849973839999,-32.8360719491398],[-70.6851036389999,-32.8355246561399],[-70.6850929259999,-32.8360796111399],[-70.6845186739999,-32.8361678801399],[-70.6844240609999,-32.8371999821399],[-70.6857034749999,-32.8373440771399],[-70.6857598629999,-32.8366266801399],[-70.6850644749999,-32.8364749731399],[-70.6857293489999,-32.8365077771399],[-70.6858438509999,-32.8365837891398],[-70.6858558369999,-32.8377129411398],[-70.686485564,-32.8379198251398],[-70.687414584,-32.8380040741399],[-70.6877963049999,-32.8366043191399],[-70.688808031,-32.8351613381398],[-70.6889034539999,-32.8342374081399],[-70.688809767,-32.8323701171399],[-70.6879590429999,-32.8323953051399],[-70.6879028089999,-32.8331155991399],[-70.6873302989999,-32.8330469291399],[-70.6873879029999,-32.8323705391399],[-70.6888060909999,-32.8323113631399],[-70.6887069119999,-32.8303147431399],[-70.6884773219999,-32.83020924214],[-70.6842011879999,-32.8305182771399],[-70.6840998909999,-32.8304275821399],[-70.6886638719999,-32.83002078814],[-70.6886683409999,-32.82816182514],[-70.6866317249999,-32.82812022814]]]}},{"type":"Feature","properties":{"id":"5303021001002","commune":"Rinconada","code":"05303","gse":"C2","quintil":"Q3","nse_score":739.7,"educ":12.4,"educ_score":626.7,"hacin":1.516,"hacin_class":"Hacinamiento Medio","hacin_score":741.2,"auto_score":166.7,"n_per":47,"n_hog":15,"source_year":2024,"crime_score":0.29,"crime_nivel":"Medio","crime_color":"#ff9800"},"geometry":{"type":"Polygon","coordinates":[[[-70.6874580109999,-32.8323897091399],[-70.6873794009999,-32.8330165951399],[-70.6878487819999,-32.8330605901399],[-70.6879065769999,-32.8323945701399],[-70.6874580109999,-32.8323897091399]]]}},{"type":"Feature","properties":{"id":"5303021001004","commune":"Rinconada","code":"05303","gse":"C3","quintil":"Q3","nse_score":703.8,"educ":11.3,"educ_score":553.3,"hacin":1.494,"hacin_class":"Hacinamiento Leve","hacin_score":745.9,"auto_score":173.9,"n_per":130,"n_hog":43,"source_year":2024,"crime_score":0.308,"crime_nivel":"Medio","crime_color":"#ff9800"},"geometry":{"type":"Polygon","coordinates":[[[-70.6800495139999,-32.8348907571399],[-70.6801752029999,-32.8374271441399],[-70.6811903299999,-32.8374787101398],[-70.681180202,-32.8371138681399],[-70.6808487889999,-32.8370814181399],[-70.6808438149999,-32.8361373761399],[-70.6802113339999,-32.8361122301398],[-70.6801726219999,-32.8350504001399],[-70.681277657,-32.8350322211399],[-70.6812954049999,-32.8349031261398],[-70.6800495139999,-32.8348907571399]]]}},{"type":"Feature","properties":{"id":"5303021001005","commune":"Rinconada","code":"05303","gse":"D","quintil":"Q2","nse_score":672.5,"educ":10.9,"educ_score":526.7,"hacin":1.943,"hacin_class":"Hacinamiento Medio","hacin_score":650.5,"auto_score":166.7,"n_per":68,"n_hog":16,"source_year":2024,"crime_score":0.3042,"crime_nivel":"Medio","crime_color":"#ff9800"},"geometry":{"type":"Polygon","coordinates":[[[-70.6829704489999,-32.8349329661399],[-70.6813474519999,-32.8349040541399],[-70.681349242,-32.8350156561399],[-70.6829423739999,-32.8350251741399],[-70.6829704489999,-32.8349329661399]]]}},{"type":"Feature","properties":{"id":"5303021001008","commune":"Rinconada","code":"05303","gse":"C3","quintil":"Q3","nse_score":714.7,"educ":11.8,"educ_score":586.7,"hacin":1.309,"hacin_class":"Hacinamiento Leve","hacin_score":785.4,"auto_score":111.1,"n_per":89,"n_hog":25,"source_year":2024,"crime_score":0.3002,"crime_nivel":"Medio","crime_color":"#ff9800"},"geometry":{"type":"Polygon","coordinates":[[[-70.6808835799999,-32.8350956881399],[-70.6808710259999,-32.8360223791398],[-70.6812828729999,-32.8360568901399],[-70.6812928599999,-32.8350849581399],[-70.6808835799999,-32.8350956881399]]]}},{"type":"Feature","properties":{"id":"5303021001009","commune":"Rinconada","code":"05303","gse":"C3","quintil":"Q3","nse_score":724.3,"educ":11.4,"educ_score":560.0,"hacin":1.514,"hacin_class":"Hacinamiento Medio","hacin_score":741.8,"auto_score":111.1,"n_per":56,"n_hog":18,"source_year":2024,"crime_score":0.2939,"crime_nivel":"Medio","crime_color":"#ff9800"},"geometry":{"type":"Polygon","coordinates":[[[-70.6820526949999,-32.8350935061399],[-70.6820678599999,-32.8353877721399],[-70.6829692949999,-32.8353534641399],[-70.6829422359999,-32.8350631461399],[-70.6820526949999,-32.8350935061399]]]}},{"type":"Feature","properties":{"id":"5303021001011","commune":"Rinconada","code":"05303","gse":"C3","quintil":"Q3","nse_score":724.4,"educ":10.9,"educ_score":526.7,"hacin":1.175,"hacin_class":"Hacinamiento Leve","hacin_score":813.9,"auto_score":65.2,"n_per":74,"n_hog":23,"source_year":2024,"crime_score":0.2964,"crime_nivel":"Medio","crime_color":"#ff9800"},"geometry":{"type":"Polygon","coordinates":[[[-70.6817192479999,-32.8350920351399],[-70.6813545989999,-32.8351014451399],[-70.6813933239999,-32.8360505351398],[-70.6817381019999,-32.8360294871399],[-70.6817192479999,-32.8350920351399]]]}},{"type":"Feature","properties":{"id":"5303021001012","commune":"Rinconada","code":"05303","gse":"C3","quintil":"Q3","nse_score":720.5,"educ":11.3,"educ_score":553.3,"hacin":1.511,"hacin_class":"Hacinamiento Medio","hacin_score":742.3,"auto_score":147.1,"n_per":68,"n_hog":18,"source_year":2024,"crime_score":0.2962,"crime_nivel":"Medio","crime_color":"#ff9800"},"geometry":{"type":"Polygon","coordinates":[[[-70.682055278,-32.8354230251399],[-70.6820800769999,-32.8357183351399],[-70.6829748929999,-32.8356953901399],[-70.6829520239999,-32.8353950041399],[-70.682055278,-32.8354230251399]]]}},{"type":"Feature","properties":{"id":"5303021001013","commune":"Rinconada","code":"05303","gse":"C3","quintil":"Q3","nse_score":707.7,"educ":11.3,"educ_score":553.3,"hacin":1.528,"hacin_class":"Hacinamiento Medio","hacin_score":738.8,"auto_score":0.0,"n_per":55,"n_hog":16,"source_year":2024,"crime_score":0.2965,"crime_nivel":"Medio","crime_color":"#ff9800"},"geometry":{"type":"Polygon","coordinates":[[[-70.6820579749999,-32.8357585861399],[-70.6820812919999,-32.8360489551399],[-70.6829762349999,-32.8360269291399],[-70.6829531479999,-32.8357376201398],[-70.6820579749999,-32.8357585861399]]]}},{"type":"Feature","properties":{"id":"5303021001014","commune":"Rinconada","code":"05303","gse":"C3","quintil":"Q3","nse_score":724.8,"educ":11.5,"educ_score":566.7,"hacin":1.347,"hacin_class":"Hacinamiento Leve","hacin_score":777.2,"auto_score":200.0,"n_per":66,"n_hog":20,"source_year":2024,"crime_score":0.2952,"crime_nivel":"Medio","crime_color":"#ff9800"},"geometry":{"type":"Polygon","coordinates":[[[-70.6829769589999,-32.8360992331398],[-70.682082884,-32.8360936681398],[-70.6820647439999,-32.8363836921398],[-70.6829641249999,-32.8363872021399],[-70.6829769589999,-32.8360992331398]]]}},{"type":"Feature","properties":{"id":"5303021001015","commune":"Rinconada","code":"05303","gse":"C3","quintil":"Q3","nse_score":708.0,"educ":11.8,"educ_score":586.7,"hacin":1.633,"hacin_class":"Hacinamiento Medio","hacin_score":716.5,"auto_score":166.7,"n_per":80,"n_hog":22,"source_year":2024,"crime_score":0.3,"crime_nivel":"Medio","crime_color":"#ff9800"},"geometry":{"type":"Polygon","coordinates":[[[-70.6817363839999,-32.8361140181398],[-70.681374048,-32.8361273661398],[-70.6814074749999,-32.8370730101398],[-70.6817458899999,-32.8370486201399],[-70.6817363839999,-32.8361140181398]]]}},{"type":"Feature","properties":{"id":"5303021001017","commune":"Rinconada","code":"05303","gse":"C3","quintil":"Q3","nse_score":717.0,"educ":11.5,"educ_score":566.7,"hacin":1.475,"hacin_class":"Hacinamiento Leve","hacin_score":749.9,"auto_score":153.8,"n_per":90,"n_hog":25,"source_year":2024,"crime_score":0.3,"crime_nivel":"Medio","crime_color":"#ff9800"},"geometry":{"type":"Polygon","coordinates":[[[-70.6808984919999,-32.8361305981399],[-70.6809053299999,-32.8370431391399],[-70.6813052289999,-32.8370669881399],[-70.6812971869999,-32.8361191091398],[-70.6808984919999,-32.8361305981399]]]}},{"type":"Feature","properties":{"id":"5303021001018","commune":"Rinconada","code":"05303","gse":"C2","quintil":"Q4","nse_score":765.6,"educ":11.8,"educ_score":586.7,"hacin":1.27,"hacin_class":"Hacinamiento Leve","hacin_score":793.6,"auto_score":107.1,"n_per":47,"n_hog":15,"source_year":2024,"crime_score":0.2858,"crime_nivel":"Medio","crime_color":"#ff9800"},"geometry":{"type":"Polygon","coordinates":[[[-70.6829867719999,-32.8364267611399],[-70.6820839489999,-32.8364220351398],[-70.682071661,-32.8367220821399],[-70.6829745769999,-32.8367315871398],[-70.6829867719999,-32.8364267611399]]]}},{"type":"Feature","properties":{"id":"5303021001019","commune":"Rinconada","code":"05303","gse":"C3","quintil":"Q2","nse_score":697.0,"educ":10.9,"educ_score":526.7,"hacin":1.587,"hacin_class":"Hacinamiento Medio","hacin_score":726.2,"auto_score":26.3,"n_per":73,"n_hog":19,"source_year":2024,"crime_score":0.3009,"crime_nivel":"Medio","crime_color":"#ff9800"},"geometry":{"type":"Polygon","coordinates":[[[-70.6829876229999,-32.8367662251399],[-70.6820819179999,-32.8367618081399],[-70.6820814109999,-32.8370634111398],[-70.6829866769999,-32.8370500651398],[-70.6829876229999,-32.8367662251399]]]}},{"type":"Feature","properties":{"id":"5303021001022","commune":"Rinconada","code":"05303","gse":"E","quintil":"Q1","nse_score":607.2,"educ":7.3,"educ_score":286.7,"hacin":1.2,"hacin_class":"Hacinamiento Leve","hacin_score":808.5,"auto_score":100.0,"n_per":24,"n_hog":10,"source_year":2024,"crime_score":0.3084,"crime_nivel":"Medio","crime_color":"#ff9800"},"geometry":{"type":"Polygon","coordinates":[[[-70.6835065829999,-32.8376903571398],[-70.6838273739999,-32.8377055181398],[-70.6837974959999,-32.8371637401398],[-70.6834699349999,-32.8371267931398],[-70.6835065829999,-32.8376903571398]]]}},{"type":"Feature","properties":{"id":"5303021001023","commune":"Rinconada","code":"05303","gse":"C2","quintil":"Q4","nse_score":753.1,"educ":12.3,"educ_score":620.0,"hacin":1.474,"hacin_class":"Hacinamiento Leve","hacin_score":750.3,"auto_score":50.0,"n_per":28,"n_hog":10,"source_year":2024,"crime_score":0.2852,"crime_nivel":"Medio","crime_color":"#ff9800"},"geometry":{"type":"Polygon","coordinates":[[[-70.6843114339999,-32.8372789311399],[-70.6838596359999,-32.8371864631399],[-70.6838705089999,-32.8377202581398],[-70.6843120599999,-32.8377545401398],[-70.6843114339999,-32.8372789311399]]]}},{"type":"Feature","properties":{"id":"5303021001024","commune":"Rinconada","code":"05303","gse":"D","quintil":"Q2","nse_score":672.0,"educ":9.6,"educ_score":440.0,"hacin":1.538,"hacin_class":"Hacinamiento Medio","hacin_score":736.5,"auto_score":62.5,"n_per":20,"n_hog":8,"source_year":2024,"crime_score":0.2972,"crime_nivel":"Medio","crime_color":"#ff9800"},"geometry":{"type":"Polygon","coordinates":[[[-70.6843784189999,-32.8372579541398],[-70.6843612949999,-32.8377593791398],[-70.684796736,-32.8377925681398],[-70.6847833869999,-32.8373246041398],[-70.6843784189999,-32.8372579541398]]]}},{"type":"Feature","properties":{"id":"5303021001025","commune":"Rinconada","code":"05303","gse":"C3","quintil":"Q3","nse_score":717.6,"educ":10.5,"educ_score":500.0,"hacin":1.2,"hacin_class":"Hacinamiento Leve","hacin_score":808.5,"auto_score":250.0,"n_per":24,"n_hog":8,"source_year":2024,"crime_score":0.2904,"crime_nivel":"Medio","crime_color":"#ff9800"},"geometry":{"type":"Polygon","coordinates":[[[-70.6848607019999,-32.8377967581399],[-70.6852898539999,-32.8378306611398],[-70.6852899019999,-32.8373726991399],[-70.6848256369999,-32.8373172231398],[-70.6848607019999,-32.8377967581399]]]}},{"type":"Feature","properties":{"id":"5303021001026","commune":"Rinconada","code":"05303","gse":"C3","quintil":"Q3","nse_score":725.2,"educ":11.8,"educ_score":586.7,"hacin":1.429,"hacin_class":"Hacinamiento Leve","hacin_score":759.9,"auto_score":125.0,"n_per":20,"n_hog":8,"source_year":2024,"crime_score":0.2886,"crime_nivel":"Medio","crime_color":"#ff9800"},"geometry":{"type":"Polygon","coordinates":[[[-70.6853189629999,-32.8373761481398],[-70.6853395479999,-32.8378315251399],[-70.6857818559999,-32.8378549691398],[-70.6857717679999,-32.8374286871398],[-70.6853189629999,-32.8373761481398]]]}},{"type":"Feature","properties":{"id":"5303021001027","commune":"Rinconada","code":"05303","gse":"C3","quintil":"Q2","nse_score":695.3,"educ":11.1,"educ_score":540.0,"hacin":1.296,"hacin_class":"Hacinamiento Leve","hacin_score":788.2,"auto_score":95.2,"n_per":57,"n_hog":23,"source_year":2024,"crime_score":0.2988,"crime_nivel":"Medio","crime_color":"#ff9800"},"geometry":{"type":"Polygon","coordinates":[[[-70.6818285319999,-32.8378448791398],[-70.6818015449999,-32.8375320601398],[-70.6801756489999,-32.8374734961398],[-70.6802004829999,-32.8377879261398],[-70.6818285319999,-32.8378448791398]]]}},{"type":"Feature","properties":{"id":"5303021001028","commune":"Rinconada","code":"05303","gse":"C3","quintil":"Q3","nse_score":722.0,"educ":10.7,"educ_score":513.3,"hacin":1.136,"hacin_class":"Hacinamiento Leve","hacin_score":822.1,"auto_score":200.0,"n_per":25,"n_hog":10,"source_year":2024,"crime_score":0.2898,"crime_nivel":"Medio","crime_color":"#ff9800"},"geometry":{"type":"Polygon","coordinates":[[[-70.6838603179999,-32.8377776361398],[-70.6835086339999,-32.8377233091399],[-70.683522664,-32.8382948421398],[-70.6838633769999,-32.8383016891398],[-70.6838603179999,-32.8377776361398]]]}},{"type":"Feature","properties":{"id":"5303021001029","commune":"Rinconada","code":"05303","gse":"C3","quintil":"Q3","nse_score":707.9,"educ":10.6,"educ_score":506.7,"hacin":1.393,"hacin_class":"Hacinamiento Leve","hacin_score":767.5,"auto_score":250.0,"n_per":39,"n_hog":12,"source_year":2024,"crime_score":0.2941,"crime_nivel":"Medio","crime_color":"#ff9800"},"geometry":{"type":"Polygon","coordinates":[[[-70.6843343889999,-32.8378028221398],[-70.6839014569999,-32.8377893481399],[-70.6839189679999,-32.8382878861398],[-70.6843533799999,-32.8383015081398],[-70.6843343889999,-32.8378028221398]]]}},{"type":"Feature","properties":{"id":"5303021001031","commune":"Rinconada","code":"05303","gse":"C3","quintil":"Q3","nse_score":726.7,"educ":10.6,"educ_score":506.7,"hacin":1.143,"hacin_class":"Hacinamiento Leve","hacin_score":820.7,"auto_score":222.2,"n_per":24,"n_hog":9,"source_year":2024,"crime_score":0.2889,"crime_nivel":"Medio","crime_color":"#ff9800"},"geometry":{"type":"Polygon","coordinates":[[[-70.6843935129999,-32.8378221381398],[-70.6843998029999,-32.8383029631398],[-70.6848579759999,-32.8383110561398],[-70.6848372519999,-32.8378478201398],[-70.6843935129999,-32.8378221381398]]]}},{"type":"Feature","properties":{"id":"5303021001032","commune":"Rinconada","code":"05303","gse":"D","quintil":"Q2","nse_score":663.5,"educ":10.4,"educ_score":493.3,"hacin":1.265,"hacin_class":"Hacinamiento Leve","hacin_score":794.7,"auto_score":111.1,"n_per":43,"n_hog":17,"source_year":2024,"crime_score":0.302,"crime_nivel":"Medio","crime_color":"#ff9800"},"geometry":{"type":"Polygon","coordinates":[[[-70.6818164749999,-32.8378796741399],[-70.6802013139999,-32.8378150621398],[-70.680194706,-32.8381617511398],[-70.6818293529999,-32.8382056281399],[-70.6818164749999,-32.8378796741399]]]}},{"type":"Feature","properties":{"id":"5303021001033","commune":"Rinconada","code":"05303","gse":"C3","quintil":"Q3","nse_score":717.2,"educ":11.2,"educ_score":546.7,"hacin":1.121,"hacin_class":"Hacinamiento Leve","hacin_score":825.4,"auto_score":280.7,"n_per":158,"n_hog":60,"source_year":2024,"crime_score":0.3097,"crime_nivel":"Medio","crime_color":"#ff9800"},"geometry":{"type":"Polygon","coordinates":[[[-70.6848719779999,-32.8378546381399],[-70.6848886009999,-32.8383561181398],[-70.6844398729999,-32.8383908411398],[-70.6845882189999,-32.8386678761398],[-70.6849091229999,-32.8386776451398],[-70.6846013059999,-32.8387214141398],[-70.6848178369999,-32.8391461481398],[-70.6848211409999,-32.8396641541398],[-70.6855662069999,-32.8396184041398],[-70.6856288299999,-32.8392213231398],[-70.6848440109999,-32.8391687531398],[-70.6856217149999,-32.8391750941398],[-70.685697591,-32.8386451081398],[-70.6850216949999,-32.8385685311398],[-70.6873587499999,-32.8385877241398],[-70.6874024759999,-32.8380473481398],[-70.68645269,-32.8379610341398],[-70.6862683189999,-32.8380583991398],[-70.6854023599999,-32.8378795851398],[-70.6853627769999,-32.8381932581398],[-70.6853427119999,-32.8378720911399],[-70.6848719779999,-32.8378546381399]]]}},{"type":"Feature","properties":{"id":"5303021001034","commune":"Rinconada","code":"05303","gse":"C3","quintil":"Q3","nse_score":713.6,"educ":11.4,"educ_score":560.0,"hacin":1.365,"hacin_class":"Hacinamiento Leve","hacin_score":773.4,"auto_score":257.6,"n_per":187,"n_hog":64,"source_year":2024,"crime_score":0.3145,"crime_nivel":"Medio","crime_color":"#ff9800"},"geometry":{"type":"Polygon","coordinates":[[[-70.6847465839999,-32.8391867491398],[-70.684064513,-32.8391683811398],[-70.6840523189999,-32.8393716081398],[-70.6840340289999,-32.8391663481398],[-70.6835704939999,-32.8391595001398],[-70.6835694649999,-32.8393063421398],[-70.6835304419999,-32.8391826101398],[-70.6834305329999,-32.8393032271398],[-70.6808351629999,-32.8392613411398],[-70.6808235669999,-32.8382120331398],[-70.6801962729999,-32.8382108831398],[-70.6802887149999,-32.8397205951398],[-70.6847305569999,-32.8396648331398],[-70.6847465839999,-32.8391867491398]]]}},{"type":"Feature","properties":{"id":"5303021001035","commune":"Rinconada","code":"05303","gse":"C3","quintil":"Q3","nse_score":730.4,"educ":11.3,"educ_score":553.3,"hacin":1.333,"hacin_class":"Hacinamiento Leve","hacin_score":780.1,"auto_score":125.0,"n_per":40,"n_hog":12,"source_year":2024,"crime_score":0.2906,"crime_nivel":"Medio","crime_color":"#ff9800"},"geometry":{"type":"Polygon","coordinates":[[[-70.6814748739999,-32.8385416171398],[-70.6814504719999,-32.8382383151398],[-70.6808512229999,-32.8382461891399],[-70.6808715419999,-32.8385651341398],[-70.6814748739999,-32.8385416171398]]]}},{"type":"Feature","properties":{"id":"5303021001036","commune":"Rinconada","code":"05303","gse":"C3","quintil":"Q3","nse_score":727.7,"educ":11.6,"educ_score":573.3,"hacin":1.279,"hacin_class":"Hacinamiento Leve","hacin_score":791.8,"auto_score":195.7,"n_per":78,"n_hog":26,"source_year":2024,"crime_score":0.2964,"crime_nivel":"Medio","crime_color":"#ff9800"},"geometry":{"type":"Polygon","coordinates":[[[-70.6834419259999,-32.8387998021398],[-70.6833878589999,-32.8382748321399],[-70.6815295999999,-32.8382462291398],[-70.6815543469999,-32.8387973121398],[-70.6834419259999,-32.8387998021398]]]}},{"type":"Feature","properties":{"id":"5303021001038","commune":"Rinconada","code":"05303","gse":"C2","quintil":"Q3","nse_score":733.0,"educ":11.9,"educ_score":593.3,"hacin":1.308,"hacin_class":"Hacinamiento Leve","hacin_score":785.6,"auto_score":175.0,"n_per":51,"n_hog":19,"source_year":2024,"crime_score":0.2917,"crime_nivel":"Medio","crime_color":"#ff9800"},"geometry":{"type":"Polygon","coordinates":[[[-70.6845346329999,-32.8387271091398],[-70.6843462279999,-32.8383687901398],[-70.6840200709999,-32.8383476271399],[-70.6838903909999,-32.8391376091398],[-70.6847516879999,-32.8391444941398],[-70.6845556199999,-32.8387618771398],[-70.6844298029999,-32.8387445061398],[-70.6845346329999,-32.8387271091398]]]}},{"type":"Feature","properties":{"id":"5303021001039","commune":"Rinconada","code":"05303","gse":"ABC1","quintil":"Q5","nse_score":899.2,"educ":16.2,"educ_score":880.0,"hacin":1.059,"hacin_class":"Hacinamiento Leve","hacin_score":838.5,"auto_score":467.4,"n_per":162,"n_hog":48,"source_year":2024,"crime_score":0.2786,"crime_nivel":"Medio","crime_color":"#ff9800"},"geometry":{"type":"Polygon","coordinates":[[[-70.6751624949999,-32.8387824781398],[-70.6753343689999,-32.8397464851398],[-70.6778662839999,-32.8396708371398],[-70.6778048629999,-32.8391798901398],[-70.6754498699999,-32.8391181521398],[-70.6801123079999,-32.8390584881398],[-70.6780082679999,-32.8391536601398],[-70.6780213549999,-32.8396688131398],[-70.6801873109999,-32.8397253841398],[-70.6802274799999,-32.8396402461398],[-70.6801792809999,-32.8385577351398],[-70.6751624949999,-32.8387824781398]]]}},{"type":"Feature","properties":{"id":"5303021001040","commune":"Rinconada","code":"05303","gse":"C3","quintil":"Q3","nse_score":714.5,"educ":10.7,"educ_score":513.3,"hacin":1.462,"hacin_class":"Hacinamiento Leve","hacin_score":752.9,"auto_score":166.7,"n_per":38,"n_hog":13,"source_year":2024,"crime_score":0.2929,"crime_nivel":"Medio","crime_color":"#ff9800"},"geometry":{"type":"Polygon","coordinates":[[[-70.6808762089999,-32.8389033421398],[-70.6814475919999,-32.8389011801398],[-70.6814668619999,-32.8386150721398],[-70.6808648769999,-32.8385959141398],[-70.6808762089999,-32.8389033421398]]]}},{"type":"Feature","properties":{"id":"5303021001041","commune":"Rinconada","code":"05303","gse":"C2","quintil":"Q3","nse_score":737.3,"educ":11.4,"educ_score":560.0,"hacin":1.21,"hacin_class":"Hacinamiento Leve","hacin_score":806.3,"auto_score":107.1,"n_per":46,"n_hog":15,"source_year":2024,"crime_score":0.2903,"crime_nivel":"Medio","crime_color":"#ff9800"},"geometry":{"type":"Polygon","coordinates":[[[-70.6865793299999,-32.8386380991398],[-70.686383352,-32.8396131341398],[-70.6871877859999,-32.8396081831398],[-70.6873469319999,-32.8386688741398],[-70.6865793299999,-32.8386380991398]]]}},{"type":"Feature","properties":{"id":"5303021001044","commune":"Rinconada","code":"05303","gse":"C2","quintil":"Q4","nse_score":762.3,"educ":12.9,"educ_score":660.0,"hacin":1.391,"hacin_class":"Hacinamiento Leve","hacin_score":768.0,"auto_score":214.3,"n_per":89,"n_hog":26,"source_year":2024,"crime_score":0.2922,"crime_nivel":"Medio","crime_color":"#ff9800"},"geometry":{"type":"Polygon","coordinates":[[[-70.6833476989999,-32.8392580871398],[-70.6834263419999,-32.8388680411398],[-70.6822826519999,-32.8388754691398],[-70.6822869349999,-32.8392423821398],[-70.6833476989999,-32.8392580871398]]]}},{"type":"Feature","properties":{"id":"5303021001045","commune":"Rinconada","code":"05303","gse":"C2","quintil":"Q3","nse_score":736.3,"educ":11.1,"educ_score":540.0,"hacin":1.406,"hacin_class":"Hacinamiento Leve","hacin_score":764.6,"auto_score":454.5,"n_per":45,"n_hog":11,"source_year":2024,"crime_score":0.2903,"crime_nivel":"Medio","crime_color":"#ff9800"},"geometry":{"type":"Polygon","coordinates":[[[-70.6808813829999,-32.8392119271398],[-70.6814871209999,-32.8391990811398],[-70.6814657579999,-32.8389342851398],[-70.6808702549999,-32.8389461261398],[-70.6808813829999,-32.8392119271398]]]}},{"type":"Feature","properties":{"id":"5303021001046","commune":"Rinconada","code":"05303","gse":"C3","quintil":"Q2","nse_score":688.5,"educ":10.9,"educ_score":526.7,"hacin":1.217,"hacin_class":"Hacinamiento Leve","hacin_score":804.8,"auto_score":181.8,"n_per":28,"n_hog":11,"source_year":2024,"crime_score":0.2957,"crime_nivel":"Medio","crime_color":"#ff9800"},"geometry":{"type":"Polygon","coordinates":[[[-70.6864268919999,-32.8390204791398],[-70.6857015149999,-32.8390302541398],[-70.6856159659999,-32.8396113301398],[-70.686324226,-32.8396305101398],[-70.6864268919999,-32.8390204791398]]]}},{"type":"Feature","properties":{"id":"5303021001020","commune":"Rinconada","code":"05303","gse":"C2","quintil":"Q3","nse_score":735.2,"educ":11.8,"educ_score":586.7,"hacin":1.546,"hacin_class":"Hacinamiento Medio","hacin_score":735.0,"auto_score":0.0,"n_per":17,"n_hog":5,"source_year":2024,"crime_score":0.2865,"crime_nivel":"Medio","crime_color":"#ff9800"},"geometry":{"type":"MultiPolygon","coordinates":[[[[-70.6834833279999,-32.8383300971398],[-70.6834861839999,-32.8391210301398],[-70.6838606689999,-32.8391356901398],[-70.6839868789999,-32.8383389371398],[-70.6834833279999,-32.8383300971398]]],[[[-70.6834047289999,-32.8382392781398],[-70.6834155099999,-32.8371184331398],[-70.6818533189999,-32.8370915501399],[-70.6818957639999,-32.8381977911398],[-70.6834047289999,-32.8382392781398]]]]}},{"type":"Feature","properties":{"id":"5303021001003","commune":"Rinconada","code":"05303","gse":"D","quintil":"Q2","nse_score":656.3,"educ":10.4,"educ_score":493.3,"hacin":1.382,"hacin_class":"Hacinamiento Leve","hacin_score":769.8,"auto_score":60.0,"n_per":76,"n_hog":24,"source_year":2024,"crime_score":0.3081,"crime_nivel":"Medio","crime_color":"#ff9800"},"geometry":{"type":"MultiPolygon","coordinates":[[[[-70.6802437349999,-32.8360464061398],[-70.6806152789999,-32.8360454751398],[-70.6805778719999,-32.8350525341399],[-70.6802046549999,-32.8350495191399],[-70.6802437349999,-32.8360464061398]]],[[[-70.6795667789999,-32.8358549641399],[-70.6800841729999,-32.8358739331399],[-70.6800495139999,-32.8348907571399],[-70.6795279059999,-32.8348823701399],[-70.6795667789999,-32.8358549641399]]]]}},{"type":"Feature","properties":{"id":"5303031001001","commune":"Rinconada","code":"05303","gse":"ABC1","quintil":"Q5","nse_score":859.7,"educ":16.5,"educ_score":900.0,"hacin":1.121,"hacin_class":"Hacinamiento Leve","hacin_score":825.2,"auto_score":376.8,"n_per":203,"n_hog":59,"source_year":2024,"crime_score":0.2909,"crime_nivel":"Medio","crime_color":"#ff9800"},"geometry":{"type":"Polygon","coordinates":[[[-70.6871565849999,-32.8397152081398],[-70.6812643439999,-32.8397314591398],[-70.6812156659999,-32.8401192651398],[-70.6854708639999,-32.8401346921398],[-70.685335027,-32.8401377721398],[-70.6852242509999,-32.8403413191398],[-70.6801710789999,-32.8403982441398],[-70.6791434549999,-32.8403949411398],[-70.6791311399999,-32.8401876081398],[-70.6786852849999,-32.8401908471398],[-70.6786452829999,-32.8406263151398],[-70.6784657689999,-32.8397635061398],[-70.677077445,-32.8397681691398],[-70.6771989249999,-32.8403757521398],[-70.6770204219999,-32.8397686511398],[-70.6759829019999,-32.8397773581398],[-70.6760990759999,-32.8404754221398],[-70.6759390919999,-32.8397777091398],[-70.6742914309999,-32.8398219161398],[-70.6743323999999,-32.8406504881398],[-70.6782173309999,-32.8405941451398],[-70.6782224549999,-32.8407543481398],[-70.6855008059999,-32.8406811021398],[-70.6853428859999,-32.8414843981397],[-70.6854952149999,-32.8414839941398],[-70.6847243429999,-32.8451841501398],[-70.6859896599999,-32.8451471991397],[-70.6871565849999,-32.8397152081398]]]}},{"type":"Feature","properties":{"id":"5303031001002","commune":"Rinconada","code":"05303","gse":"ABC1","quintil":"Q5","nse_score":877.0,"educ":16.3,"educ_score":886.7,"hacin":1.387,"hacin_class":"Hacinamiento Leve","hacin_score":768.7,"auto_score":541.7,"n_per":43,"n_hog":12,"source_year":2024,"crime_score":0.2669,"crime_nivel":"Medio","crime_color":"#ff9800"},"geometry":{"type":"Polygon","coordinates":[[[-70.681092083,-32.8401285321398],[-70.6810710499999,-32.8397368451398],[-70.6785297929999,-32.8397636941398],[-70.678544702,-32.8401366581398],[-70.681092083,-32.8401285321398]]]}},{"type":"Feature","properties":{"id":"5303031002003","commune":"Rinconada","code":"05303","gse":"C1","quintil":"Q5","nse_score":813.1,"educ":13.6,"educ_score":706.7,"hacin":0.943,"hacin_class":"Sin Hacinamiento","hacin_score":863.2,"auto_score":107.1,"n_per":33,"n_hog":14,"source_year":2024,"crime_score":0.2761,"crime_nivel":"Medio","crime_color":"#ff9800"},"geometry":{"type":"Polygon","coordinates":[[[-70.682785813,-32.8526260341397],[-70.6826256809999,-32.8532054031396],[-70.683946224,-32.8534743471396],[-70.6840780879999,-32.8528640611396],[-70.682785813,-32.8526260341397]]]}},{"type":"Feature","properties":{"id":"5303031002004","commune":"Rinconada","code":"05303","gse":"C3","quintil":"Q2","nse_score":694.1,"educ":10.8,"educ_score":520.0,"hacin":1.214,"hacin_class":"Hacinamiento Leve","hacin_score":805.5,"auto_score":0.0,"n_per":17,"n_hog":8,"source_year":2024,"crime_score":0.2932,"crime_nivel":"Medio","crime_color":"#ff9800"},"geometry":{"type":"Polygon","coordinates":[[[-70.6825529979999,-32.8532287461396],[-70.6822279499999,-32.8540504531396],[-70.6826375799999,-32.8538695811396],[-70.6837832389999,-32.8542077091396],[-70.6838927739999,-32.8535296311396],[-70.6825529979999,-32.8532287461396]]]}},{"type":"Feature","properties":{"id":"5303031002005","commune":"Rinconada","code":"05303","gse":"C2","quintil":"Q4","nse_score":763.6,"educ":13.2,"educ_score":680.0,"hacin":1.059,"hacin_class":"Hacinamiento Leve","hacin_score":838.5,"auto_score":200.0,"n_per":18,"n_hog":9,"source_year":2024,"crime_score":0.2821,"crime_nivel":"Medio","crime_color":"#ff9800"},"geometry":{"type":"Polygon","coordinates":[[[-70.6814698729999,-32.8544634211396],[-70.6816334029999,-32.8550645231396],[-70.6814060609999,-32.8559383611396],[-70.6825512609999,-32.8560639931396],[-70.6822879599999,-32.8581670581396],[-70.6830738729999,-32.8583395571396],[-70.6833812179999,-32.8560271961396],[-70.6837648629999,-32.8542870531396],[-70.6825940089999,-32.8539161641396],[-70.6814698729999,-32.8544634211396]]]}},{"type":"Feature","properties":{"id":"5303031002001","commune":"Rinconada","code":"05303","gse":"C3","quintil":"Q3","nse_score":722.2,"educ":11.8,"educ_score":586.7,"hacin":1.083,"hacin_class":"Hacinamiento Leve","hacin_score":833.3,"auto_score":156.2,"n_per":39,"n_hog":15,"source_year":2024,"crime_score":0.2918,"crime_nivel":"Medio","crime_color":"#ff9800"},"geometry":{"type":"MultiPolygon","coordinates":[[[[-70.6840733929999,-32.8528248021396],[-70.684264874,-32.8522256191397],[-70.6829836769999,-32.8519626421396],[-70.6828099399999,-32.8525626671396],[-70.6840733929999,-32.8528248021396]]],[[[-70.6829811879999,-32.8517735691396],[-70.6829399269999,-32.8519137921396],[-70.6842868219999,-32.8521600261396],[-70.6846205279999,-32.8511191011397],[-70.6834003539999,-32.8511081571396],[-70.6832604669999,-32.8517057991397],[-70.6829811879999,-32.8517735691396]]]]}},{"type":"Feature","properties":{"id":"5303031002006","commune":"Rinconada","code":"05303","gse":"E","quintil":"Q1","nse_score":601.0,"educ":9.8,"educ_score":453.3,"hacin":1.069,"hacin_class":"Hacinamiento Leve","hacin_score":836.4,"auto_score":125.0,"n_per":31,"n_hog":16,"source_year":2024,"crime_score":0.3105,"crime_nivel":"Medio","crime_color":"#ff9800"},"geometry":{"type":"MultiPolygon","coordinates":[[[[-70.6814341989999,-32.8636544751395],[-70.6823033769999,-32.8636353171395],[-70.6824788039999,-32.8632132061395],[-70.6815983209999,-32.8632559541395],[-70.6814341989999,-32.8636544751395]]],[[[-70.6816041479999,-32.8580452391395],[-70.6814583899999,-32.8594427821395],[-70.6817700389999,-32.8594767731395],[-70.6818212929999,-32.8609937541395],[-70.6819927209999,-32.8609990591395],[-70.6818316229999,-32.8625639941395],[-70.6816129439999,-32.8632205761395],[-70.6819899669999,-32.8631875971395],[-70.6819575839999,-32.8628148141395],[-70.6820238179999,-32.8631872181395],[-70.6825019999999,-32.8631626581395],[-70.6826729819999,-32.8624610281395],[-70.6830753609999,-32.8584353191396],[-70.6823674109999,-32.8582347661396],[-70.6823055329999,-32.8584882261396],[-70.682654124,-32.8586428911395],[-70.6824730469999,-32.8607618011396],[-70.6820104799999,-32.8608103421395],[-70.6820716349999,-32.8593209281395],[-70.6816292899999,-32.8592698791396],[-70.681792045,-32.8584004241396],[-70.6822650819999,-32.8584680011396],[-70.682332228,-32.8582256601396],[-70.6816041479999,-32.8580452391395]]]]}},{"type":"Feature","properties":{"id":"5303041001001","commune":"Rinconada","code":"05303","gse":"D","quintil":"Q2","nse_score":670.2,"educ":9.8,"educ_score":453.3,"hacin":1.313,"hacin_class":"Hacinamiento Leve","hacin_score":784.5,"auto_score":157.9,"n_per":340,"n_hog":120,"source_year":2024,"crime_score":0.3388,"crime_nivel":"Medio","crime_color":"#ff9800"},"geometry":{"type":"Polygon","coordinates":[[[-70.6877870839999,-32.8451184891398],[-70.6861999509999,-32.8450365391397],[-70.6860933999999,-32.8451172701397],[-70.6853158599999,-32.8485806041397],[-70.6890940019999,-32.8487010101397],[-70.6890872779999,-32.8481657351397],[-70.6883385079999,-32.8482056951397],[-70.6890866409999,-32.8480982821397],[-70.6890520249999,-32.8478164551397],[-70.6883397319999,-32.8478190351397],[-70.6890801149999,-32.8477708011397],[-70.6890578869999,-32.8474773531397],[-70.6883418269999,-32.8474783601397],[-70.6890578439999,-32.8474412781397],[-70.689078977,-32.8472823161397],[-70.6887967499999,-32.8472871841397],[-70.6887540659999,-32.8466508071397],[-70.6882445619999,-32.8465907631397],[-70.6897938579999,-32.8466611181397],[-70.68977272,-32.8461040311397],[-70.6881299549999,-32.8461356791397],[-70.6880487459999,-32.8463424991397],[-70.6881055459999,-32.8451516101398],[-70.6878457939999,-32.8451036561397],[-70.6877703039999,-32.8453731061397],[-70.6877870839999,-32.8451184891398]]]}},{"type":"Feature","properties":{"id":"5303041001002","commune":"Rinconada","code":"05303","gse":"E","quintil":"Q1","nse_score":614.5,"educ":7.6,"educ_score":306.7,"hacin":1.29,"hacin_class":"Hacinamiento Leve","hacin_score":789.5,"auto_score":175.0,"n_per":49,"n_hog":19,"source_year":2024,"crime_score":0.311,"crime_nivel":"Medio","crime_color":"#ff9800"},"geometry":{"type":"Polygon","coordinates":[[[-70.6886004119999,-32.8451039491398],[-70.688152924,-32.8451267421397],[-70.6881319439999,-32.8460996661397],[-70.6886073659999,-32.8460866661397],[-70.6886004119999,-32.8451039491398]]]}},{"type":"Feature","properties":{"id":"5303041001003","commune":"Rinconada","code":"05303","gse":"D","quintil":"Q2","nse_score":660.0,"educ":9.2,"educ_score":413.3,"hacin":1.114,"hacin_class":"Hacinamiento Leve","hacin_score":826.7,"auto_score":66.7,"n_per":39,"n_hog":16,"source_year":2024,"crime_score":0.302,"crime_nivel":"Medio","crime_color":"#ff9800"},"geometry":{"type":"Polygon","coordinates":[[[-70.6892448999999,-32.8451057341398],[-70.6891790259999,-32.8461398271397],[-70.6897342459999,-32.8460583741397],[-70.6897544089999,-32.8451943541397],[-70.6892448999999,-32.8451057341398]]]}},{"type":"Feature","properties":{"id":"5303041001004","commune":"Rinconada","code":"05303","gse":"C3","quintil":"Q2","nse_score":684.6,"educ":9.7,"educ_score":446.7,"hacin":1.146,"hacin_class":"Hacinamiento Leve","hacin_score":819.9,"auto_score":166.7,"n_per":47,"n_hog":15,"source_year":2024,"crime_score":0.2991,"crime_nivel":"Medio","crime_color":"#ff9800"},"geometry":{"type":"Polygon","coordinates":[[[-70.6891236959999,-32.8451180771398],[-70.6886986639999,-32.8451345951397],[-70.6886677289999,-32.8461203041397],[-70.6891154309999,-32.8461232421397],[-70.6891236959999,-32.8451180771398]]]}},{"type":"Feature","properties":{"id":"5303041001005","commune":"Rinconada","code":"05303","gse":"D","quintil":"Q2","nse_score":664.4,"educ":10.9,"educ_score":526.7,"hacin":1.329,"hacin_class":"Hacinamiento Leve","hacin_score":781.0,"auto_score":291.7,"n_per":113,"n_hog":35,"source_year":2024,"crime_score":0.3122,"crime_nivel":"Medio","crime_color":"#ff9800"},"geometry":{"type":"Polygon","coordinates":[[[-70.6898212629999,-32.8471880871397],[-70.6891190739999,-32.8471420251397],[-70.6891533719999,-32.8487159921397],[-70.6921858409999,-32.8487859431397],[-70.6920579149999,-32.8460206541397],[-70.6903070719999,-32.8460659681397],[-70.6902890759999,-32.8470665051397],[-70.6898450609999,-32.8470964041397],[-70.6898212629999,-32.8471880871397]]]}},{"type":"Feature","properties":{"id":"5303041001006","commune":"Rinconada","code":"05303","gse":"C3","quintil":"Q2","nse_score":693.8,"educ":11.1,"educ_score":540.0,"hacin":1.483,"hacin_class":"Hacinamiento Leve","hacin_score":748.3,"auto_score":266.7,"n_per":43,"n_hog":15,"source_year":2024,"crime_score":0.297,"crime_nivel":"Medio","crime_color":"#ff9800"},"geometry":{"type":"Polygon","coordinates":[[[-70.6902115279999,-32.8460702351397],[-70.6898242849999,-32.8461131651397],[-70.689877469,-32.8470531261397],[-70.6902580719999,-32.8470373421397],[-70.6902115279999,-32.8460702351397]]]}},{"type":"Feature","properties":{"id":"5303041001007","commune":"Rinconada","code":"05303","gse":"ABC1","quintil":"Q5","nse_score":862.6,"educ":16.3,"educ_score":886.7,"hacin":1.121,"hacin_class":"Hacinamiento Leve","hacin_score":825.2,"auto_score":317.5,"n_per":203,"n_hog":58,"source_year":2024,"crime_score":0.2904,"crime_nivel":"Medio","crime_color":"#ff9800"},"geometry":{"type":"Polygon","coordinates":[[[-70.7035882549999,-32.8466524831397],[-70.7016759379999,-32.8473130001397],[-70.6978337579999,-32.8473726561397],[-70.6980113529999,-32.8478571271397],[-70.7017513629999,-32.8478537821397],[-70.7034814019999,-32.8472417701397],[-70.7037758339999,-32.8473509201397],[-70.7035333029999,-32.8478906651397],[-70.7021576789999,-32.8485960091397],[-70.7016284169999,-32.8490832331397],[-70.7013066419999,-32.8497276381397],[-70.7012262969999,-32.8504897591396],[-70.7015713189999,-32.8507425771397],[-70.7011787079999,-32.8505938611397],[-70.6988319779999,-32.8510999461396],[-70.6988693999999,-32.8513488831397],[-70.6985762849999,-32.8504258981397],[-70.6983597119999,-32.8504186141396],[-70.6988169839999,-32.8502136281397],[-70.6985330019999,-32.8494671561397],[-70.6981240799999,-32.8495762411397],[-70.6985158729999,-32.8494206551397],[-70.6977908069999,-32.8474115821397],[-70.6976624599999,-32.8475161581397],[-70.6976944599999,-32.8488206191397],[-70.698689612,-32.8520039681397],[-70.6993625949999,-32.8537246491396],[-70.6996148089999,-32.8536560301396],[-70.6987395289999,-32.8514284591396],[-70.7017927699999,-32.8507385741397],[-70.7018520569999,-32.8497377921397],[-70.7021421149999,-32.8492179741397],[-70.70242128,-32.8489412421397],[-70.7040167139999,-32.8481125531397],[-70.7044724849999,-32.8471936121397],[-70.7042971269999,-32.8469828751397],[-70.7035882549999,-32.8466524831397]]]}},{"type":"Feature","properties":{"id":"5303041001008","commune":"Rinconada","code":"05303","gse":"D","quintil":"Q2","nse_score":661.7,"educ":9.3,"educ_score":420.0,"hacin":1.22,"hacin_class":"Hacinamiento Leve","hacin_score":804.4,"auto_score":119.0,"n_per":50,"n_hog":20,"source_year":2024,"crime_score":0.3033,"crime_nivel":"Medio","crime_color":"#ff9800"},"geometry":{"type":"Polygon","coordinates":[[[-70.689140989,-32.8470733961397],[-70.6897880889999,-32.8471458761397],[-70.6897932029999,-32.8467110921397],[-70.6888504689999,-32.8466636651397],[-70.6888381909999,-32.8472500411397],[-70.6890808369999,-32.8472483821397],[-70.689140989,-32.8470733961397]]]}},{"type":"Feature","properties":{"id":"5303041001010","commune":"Rinconada","code":"05303","gse":"ABC1","quintil":"Q5","nse_score":880.0,"educ":16.5,"educ_score":900.0,"hacin":1.161,"hacin_class":"Hacinamiento Leve","hacin_score":816.7,"auto_score":416.7,"n_per":36,"n_hog":11,"source_year":2024,"crime_score":0.2655,"crime_nivel":"Medio","crime_color":"#ff9800"},"geometry":{"type":"Polygon","coordinates":[[[-70.7034633679999,-32.8478082621397],[-70.7031826189999,-32.8474034791397],[-70.7017248689999,-32.8479021211397],[-70.7017490529999,-32.8487129741397],[-70.7034633679999,-32.8478082621397]]]}},{"type":"Feature","properties":{"id":"5303041001012","commune":"Rinconada","code":"05303","gse":"ABC1","quintil":"Q5","nse_score":875.6,"educ":15.1,"educ_score":806.7,"hacin":1.038,"hacin_class":"Hacinamiento Leve","hacin_score":842.9,"auto_score":714.3,"n_per":27,"n_hog":7,"source_year":2024,"crime_score":0.265,"crime_nivel":"Medio","crime_color":"#ff9800"},"geometry":{"type":"Polygon","coordinates":[[[-70.7000069959999,-32.8488498321397],[-70.7008060699999,-32.8488490121397],[-70.7007959649999,-32.8478980891397],[-70.6999996949999,-32.8478979131397],[-70.7000069959999,-32.8488498321397]]]}},{"type":"Feature","properties":{"id":"5303041001013","commune":"Rinconada","code":"05303","gse":"ABC1","quintil":"Q5","nse_score":925.3,"educ":17.0,"educ_score":933.3,"hacin":1.053,"hacin_class":"Hacinamiento Leve","hacin_score":839.9,"auto_score":687.5,"n_per":20,"n_hog":8,"source_year":2024,"crime_score":0.256,"crime_nivel":"Medio","crime_color":"#ff9800"},"geometry":{"type":"Polygon","coordinates":[[[-70.7008537759999,-32.8479093661397],[-70.7008637599999,-32.8488489521397],[-70.7016536769999,-32.8488481361397],[-70.70166717,-32.8479013291397],[-70.7008537759999,-32.8479093661397]]]}},{"type":"Feature","properties":{"id":"5303041001014","commune":"Rinconada","code":"05303","gse":"ABC1","quintil":"Q5","nse_score":884.9,"educ":16.9,"educ_score":926.7,"hacin":1.121,"hacin_class":"Hacinamiento Leve","hacin_score":825.3,"auto_score":666.7,"n_per":37,"n_hog":11,"source_year":2024,"crime_score":0.2648,"crime_nivel":"Medio","crime_color":"#ff9800"},"geometry":{"type":"Polygon","coordinates":[[[-70.6980282579999,-32.8479057381397],[-70.6983695719999,-32.8488594691397],[-70.6993987509999,-32.8488527631397],[-70.6993935539999,-32.8478987911397],[-70.6980282579999,-32.8479057381397]]]}},{"type":"Feature","properties":{"id":"5303041001015","commune":"Rinconada","code":"05303","gse":"C3","quintil":"Q3","nse_score":702.6,"educ":11.6,"educ_score":573.3,"hacin":1.46,"hacin_class":"Hacinamiento Leve","hacin_score":753.2,"auto_score":131.6,"n_per":292,"n_hog":95,"source_year":2024,"crime_score":0.3316,"crime_nivel":"Medio","crime_color":"#ff9800"},"geometry":{"type":"Polygon","coordinates":[[[-70.6848426409999,-32.8506779281396],[-70.685429945,-32.8507389541397],[-70.6856388329999,-32.8506416481397],[-70.6860178179999,-32.8492251251397],[-70.689002264,-32.8493162341397],[-70.6891991629999,-32.8487577241397],[-70.6853490829999,-32.8486367961397],[-70.6848426409999,-32.8506779281396]]]}},{"type":"Feature","properties":{"id":"5303041001016","commune":"Rinconada","code":"05303","gse":"D","quintil":"Q2","nse_score":667.3,"educ":10.5,"educ_score":500.0,"hacin":1.298,"hacin_class":"Hacinamiento Leve","hacin_score":787.6,"auto_score":172.4,"n_per":335,"n_hog":117,"source_year":2024,"crime_score":0.3393,"crime_nivel":"Medio","crime_color":"#ff9800"},"geometry":{"type":"Polygon","coordinates":[[[-70.6890441059999,-32.8508314651397],[-70.6919769289999,-32.8508576091397],[-70.6921225799999,-32.8524985871396],[-70.6920655079999,-32.8539597571396],[-70.6923026569999,-32.8539422311396],[-70.6923446609999,-32.8543676121396],[-70.6924927779999,-32.8543512911396],[-70.6925451229999,-32.8546512531396],[-70.6929143139999,-32.8546507491396],[-70.6927601889999,-32.8527602251396],[-70.692868556,-32.8526262701396],[-70.6933983749999,-32.8525951081396],[-70.6934609969999,-32.8524773751396],[-70.6932111469999,-32.8518626881396],[-70.6923668729999,-32.8508022991397],[-70.6924651019999,-32.8495211801397],[-70.6918824629999,-32.8495100311397],[-70.6919470379999,-32.8499623601397],[-70.6915021629999,-32.8499927281397],[-70.6914941649999,-32.8508380931397],[-70.6914151399999,-32.8488190031397],[-70.690249203,-32.8487896671397],[-70.6902414039999,-32.8497194481397],[-70.6901376729999,-32.8498500011397],[-70.6900909459999,-32.8506991121396],[-70.6901810419999,-32.8487957291397],[-70.6895232469999,-32.8487692231397],[-70.689508955,-32.8505399961397],[-70.6899710369999,-32.8505586411397],[-70.6895020889999,-32.8505820431396],[-70.6894804549999,-32.8487687031397],[-70.6892419829999,-32.8487603091397],[-70.6890785989999,-32.8493501341397],[-70.6890441059999,-32.8508314651397]]]}},{"type":"Feature","properties":{"id":"5303041001017","commune":"Rinconada","code":"05303","gse":"D","quintil":"Q1","nse_score":647.5,"educ":10.5,"educ_score":500.0,"hacin":1.214,"hacin_class":"Hacinamiento Leve","hacin_score":805.5,"auto_score":264.7,"n_per":34,"n_hog":14,"source_year":2024,"crime_score":0.3033,"crime_nivel":"Medio","crime_color":"#ff9800"},"geometry":{"type":"Polygon","coordinates":[[[-70.6976537589999,-32.8488042161397],[-70.697062479,-32.8488328021397],[-70.6973045209999,-32.8497267241397],[-70.6978846369999,-32.8496390341397],[-70.6976537589999,-32.8488042161397]]]}},{"type":"Feature","properties":{"id":"5303041001018","commune":"Rinconada","code":"05303","gse":"C3","quintil":"Q3","nse_score":702.6,"educ":10.4,"educ_score":493.3,"hacin":1.375,"hacin_class":"Hacinamiento Leve","hacin_score":771.3,"auto_score":173.9,"n_per":66,"n_hog":23,"source_year":2024,"crime_score":0.2989,"crime_nivel":"Medio","crime_color":"#ff9800"},"geometry":{"type":"Polygon","coordinates":[[[-70.6964090449999,-32.8488743131397],[-70.6966767839999,-32.8498275031397],[-70.6972292439999,-32.8497406421396],[-70.6969761459999,-32.8488103431397],[-70.6964090449999,-32.8488743131397]]]}},{"type":"Feature","properties":{"id":"5303041001019","commune":"Rinconada","code":"05303","gse":"D","quintil":"Q1","nse_score":623.4,"educ":9.8,"educ_score":453.3,"hacin":1.05,"hacin_class":"Hacinamiento Leve","hacin_score":840.4,"auto_score":125.0,"n_per":42,"n_hog":19,"source_year":2024,"crime_score":0.3085,"crime_nivel":"Medio","crime_color":"#ff9800"},"geometry":{"type":"Polygon","coordinates":[[[-70.6925135389999,-32.8488871221397],[-70.6914801679999,-32.8488111801397],[-70.6914750059999,-32.8494456441397],[-70.6918250139999,-32.8494612031397],[-70.6918675439999,-32.8491856401397],[-70.691910172,-32.8494612241397],[-70.6924715559999,-32.8494531971397],[-70.6925135389999,-32.8488871221397]]]}},{"type":"Feature","properties":{"id":"5303041001020","commune":"Rinconada","code":"05303","gse":"D","quintil":"Q2","nse_score":677.2,"educ":10.5,"educ_score":500.0,"hacin":1.318,"hacin_class":"Hacinamiento Leve","hacin_score":783.4,"auto_score":125.4,"n_per":941,"n_hog":305,"source_year":2024,"crime_score":0.3375,"crime_nivel":"Medio","crime_color":"#ff9800"},"geometry":{"type":"Polygon","coordinates":[[[-70.6947937859999,-32.8488700631397],[-70.6946006319999,-32.8502257941396],[-70.6946319209999,-32.8499214311397],[-70.6940276289999,-32.8497830571397],[-70.6946318949999,-32.8498863481397],[-70.6947029999999,-32.8488718341397],[-70.6925561849999,-32.8488807851397],[-70.692463185,-32.8503143521397],[-70.6929388679999,-32.8503043951397],[-70.6929216509999,-32.8497359421397],[-70.6930453829999,-32.8497359421397],[-70.6930005249999,-32.8500936351397],[-70.693417597,-32.8500828461397],[-70.6933861219999,-32.8497245211397],[-70.6935060469999,-32.8497245211397],[-70.6934905179999,-32.8502977341396],[-70.6946266159999,-32.8503197451397],[-70.6945350529999,-32.8507102331396],[-70.6944475829999,-32.8503408521397],[-70.6940289309999,-32.8503549811397],[-70.6940050809999,-32.8507250691397],[-70.6939356499999,-32.8503454581397],[-70.6935011559999,-32.8503649161397],[-70.6934794289999,-32.8507285041397],[-70.6934142039999,-32.8503617151397],[-70.6930040989999,-32.8503863491397],[-70.6929634789999,-32.8507395251397],[-70.6929119249999,-32.8503794721397],[-70.6924373339999,-32.8504149681397],[-70.6924186089999,-32.8508146761396],[-70.6932550179999,-32.8518491061396],[-70.6935119349999,-32.8524722941396],[-70.6960907899999,-32.8522219801397],[-70.695970471,-32.8522342861396],[-70.6959791089999,-32.8525306631396],[-70.6959344089999,-32.8522379751396],[-70.6955487019999,-32.8522774251397],[-70.6955620089999,-32.8526397881396],[-70.6955126399999,-32.8522811131396],[-70.695187873,-32.8523143291397],[-70.6952494609999,-32.8527176151397],[-70.6951518109999,-32.8523180171397],[-70.6948262339999,-32.8523513151397],[-70.6948826329999,-32.8527206421396],[-70.6947901709999,-32.8523550041396],[-70.6944721169999,-32.8523894191397],[-70.6945110979999,-32.8526446841396],[-70.6944342079999,-32.8523937461397],[-70.6928167809999,-32.8527469221396],[-70.6928570679999,-32.8533602971396],[-70.6932765549999,-32.8533369431396],[-70.6932974509999,-32.8530026881396],[-70.6956401189999,-32.8528028421397],[-70.6954446249999,-32.8528725931396],[-70.6954432139999,-32.8531747471397],[-70.6956273149999,-32.8531948461396],[-70.6928301239999,-32.8534099961396],[-70.6931327339999,-32.8556867761395],[-70.6939471689999,-32.8554797351396],[-70.6931401999999,-32.8557233621396],[-70.693375596,-32.8573456991396],[-70.6952255249999,-32.8565857601396],[-70.6952800369999,-32.8560948591396],[-70.697619545,-32.8552204001396],[-70.6973123179999,-32.8537774791396],[-70.6991145189999,-32.8531957321396],[-70.6978972549999,-32.8496844071397],[-70.6967113869999,-32.8498659951397],[-70.6967099919999,-32.8501014091397],[-70.6963364529999,-32.8488271351397],[-70.6947937859999,-32.8488700631397]]]}},{"type":"Feature","properties":{"id":"5303041001022","commune":"Rinconada","code":"05303","gse":"ABC1","quintil":"Q5","nse_score":908.2,"educ":17.6,"educ_score":973.3,"hacin":1.571,"hacin_class":"Hacinamiento Medio","hacin_score":729.5,"auto_score":375.0,"n_per":11,"n_hog":4,"source_year":2024,"crime_score":0.2577,"crime_nivel":"Medio","crime_color":"#ff9800"},"geometry":{"type":"Polygon","coordinates":[[[-70.700872725,-32.8496924571397],[-70.7012929069999,-32.8496025501397],[-70.7016499959999,-32.8488968361397],[-70.7008642779999,-32.8488976481397],[-70.700872725,-32.8496924571397]]]}},{"type":"Feature","properties":{"id":"5303041001023","commune":"Rinconada","code":"05303","gse":"ABC1","quintil":"Q5","nse_score":846.9,"educ":15.7,"educ_score":846.7,"hacin":0.842,"hacin_class":"Sin Hacinamiento","hacin_score":884.7,"auto_score":428.6,"n_per":16,"n_hog":6,"source_year":2024,"crime_score":0.2683,"crime_nivel":"Medio","crime_color":"#ff9800"},"geometry":{"type":"Polygon","coordinates":[[[-70.7000074169999,-32.8488985281397],[-70.7000162029999,-32.8499155101397],[-70.7008153219999,-32.8497196231397],[-70.7008065869999,-32.8488977071397],[-70.7000074169999,-32.8488985281397]]]}},{"type":"Feature","properties":{"id":"5303041001024","commune":"Rinconada","code":"05303","gse":"ABC1","quintil":"Q5","nse_score":914.5,"educ":16.4,"educ_score":893.3,"hacin":0.971,"hacin_class":"Sin Hacinamiento","hacin_score":857.3,"auto_score":545.5,"n_per":33,"n_hog":11,"source_year":2024,"crime_score":0.2595,"crime_nivel":"Medio","crime_color":"#ff9800"},"geometry":{"type":"Polygon","coordinates":[[[-70.6983874859999,-32.8489081021397],[-70.6988723389999,-32.8501998531397],[-70.6994053669999,-32.8500672141397],[-70.6993990149999,-32.8489014591397],[-70.6983874859999,-32.8489081021397]]]}},{"type":"Feature","properties":{"id":"5303041001025","commune":"Rinconada","code":"05303","gse":"C2","quintil":"Q3","nse_score":734.2,"educ":12.2,"educ_score":613.3,"hacin":1.552,"hacin_class":"Hacinamiento Medio","hacin_score":733.7,"auto_score":31.2,"n_per":45,"n_hog":15,"source_year":2024,"crime_score":0.2907,"crime_nivel":"Medio","crime_color":"#ff9800"},"geometry":{"type":"Polygon","coordinates":[[[-70.6872334309999,-32.8500421751397],[-70.6872567949999,-32.8492811631397],[-70.6869017409999,-32.8492523671397],[-70.6868716379999,-32.8500249691397],[-70.6872334309999,-32.8500421751397]]]}},{"type":"Feature","properties":{"id":"5303041001026","commune":"Rinconada","code":"05303","gse":"C2","quintil":"Q3","nse_score":735.4,"educ":11.7,"educ_score":580.0,"hacin":1.5,"hacin_class":"Hacinamiento Medio","hacin_score":744.7,"auto_score":66.7,"n_per":42,"n_hog":15,"source_year":2024,"crime_score":0.29,"crime_nivel":"Medio","crime_color":"#ff9800"},"geometry":{"type":"Polygon","coordinates":[[[-70.6867896749999,-32.8500479661396],[-70.6868317219999,-32.8492834341397],[-70.6864854429999,-32.8492527491397],[-70.6864536079999,-32.8500299051397],[-70.6867896749999,-32.8500479661396]]]}},{"type":"Feature","properties":{"id":"5303041001027","commune":"Rinconada","code":"05303","gse":"C2","quintil":"Q4","nse_score":784.1,"educ":13.8,"educ_score":720.0,"hacin":1.5,"hacin_class":"Hacinamiento Medio","hacin_score":744.7,"auto_score":272.7,"n_per":33,"n_hog":11,"source_year":2024,"crime_score":0.2808,"crime_nivel":"Medio","crime_color":"#ff9800"},"geometry":{"type":"Polygon","coordinates":[[[-70.6858414389999,-32.8500347041397],[-70.6864002229999,-32.8500323241396],[-70.6863894639999,-32.8492593901397],[-70.6859697039999,-32.8493106081397],[-70.6858414389999,-32.8500347041397]]]}},{"type":"Feature","properties":{"id":"5303041001028","commune":"Rinconada","code":"05303","gse":"C2","quintil":"Q4","nse_score":748.5,"educ":13.2,"educ_score":680.0,"hacin":1.278,"hacin_class":"Hacinamiento Leve","hacin_score":792.0,"auto_score":388.9,"n_per":46,"n_hog":17,"source_year":2024,"crime_score":0.2885,"crime_nivel":"Medio","crime_color":"#ff9800"},"geometry":{"type":"Polygon","coordinates":[[[-70.6876777979999,-32.8500363751397],[-70.6877066409999,-32.8493114811397],[-70.6873337069999,-32.8492655371397],[-70.6873114929999,-32.8500171571397],[-70.6876777979999,-32.8500363751397]]]}},{"type":"Feature","properties":{"id":"5303041001029","commune":"Rinconada","code":"05303","gse":"C3","quintil":"Q3","nse_score":701.0,"educ":11.6,"educ_score":573.3,"hacin":1.568,"hacin_class":"Hacinamiento Medio","hacin_score":730.3,"auto_score":157.9,"n_per":58,"n_hog":18,"source_year":2024,"crime_score":0.298,"crime_nivel":"Medio","crime_color":"#ff9800"},"geometry":{"type":"Polygon","coordinates":[[[-70.6881248959999,-32.8493314481397],[-70.6877527409999,-32.8493180381397],[-70.6877527729999,-32.8500163791397],[-70.6881120689999,-32.8500307051397],[-70.6881248959999,-32.8493314481397]]]}},{"type":"Feature","properties":{"id":"5303041001030","commune":"Rinconada","code":"05303","gse":"C3","quintil":"Q3","nse_score":725.6,"educ":11.9,"educ_score":593.3,"hacin":1.424,"hacin_class":"Hacinamiento Leve","hacin_score":760.8,"auto_score":233.3,"n_per":47,"n_hog":15,"source_year":2024,"crime_score":0.2924,"crime_nivel":"Medio","crime_color":"#ff9800"},"geometry":{"type":"Polygon","coordinates":[[[-70.6885319869999,-32.8500252211397],[-70.6885621189999,-32.8493589951397],[-70.6881957729999,-32.8493138161397],[-70.6881780309999,-32.8500141081397],[-70.6885319869999,-32.8500252211397]]]}},{"type":"Feature","properties":{"id":"5303041001032","commune":"Rinconada","code":"05303","gse":"D","quintil":"Q1","nse_score":642.1,"educ":9.7,"educ_score":446.7,"hacin":1.526,"hacin_class":"Hacinamiento Medio","hacin_score":739.1,"auto_score":83.3,"n_per":29,"n_hog":12,"source_year":2024,"crime_score":0.3034,"crime_nivel":"Medio","crime_color":"#ff9800"},"geometry":{"type":"Polygon","coordinates":[[[-70.6914802109999,-32.8495228661396],[-70.6915008439999,-32.8499176171397],[-70.6918374059999,-32.8499283081397],[-70.6918397279999,-32.8495102481397],[-70.6914802109999,-32.8495228661396]]]}},{"type":"Feature","properties":{"id":"5303041001033","commune":"Rinconada","code":"05303","gse":"ABC1","quintil":"Q5","nse_score":870.6,"educ":16.5,"educ_score":900.0,"hacin":1.231,"hacin_class":"Hacinamiento Leve","hacin_score":802.0,"auto_score":550.0,"n_per":32,"n_hog":9,"source_year":2024,"crime_score":0.2665,"crime_nivel":"Medio","crime_color":"#ff9800"},"geometry":{"type":"Polygon","coordinates":[[[-70.7011599099999,-32.8505249751396],[-70.7012720389999,-32.8496583731397],[-70.699912761,-32.8499917191397],[-70.7001719579999,-32.8507633971396],[-70.7011599099999,-32.8505249751396]]]}},{"type":"Feature","properties":{"id":"5303041001035","commune":"Rinconada","code":"05303","gse":"C2","quintil":"Q3","nse_score":735.0,"educ":13.6,"educ_score":706.7,"hacin":1.36,"hacin_class":"Hacinamiento Leve","hacin_score":774.5,"auto_score":133.3,"n_per":34,"n_hog":13,"source_year":2024,"crime_score":0.289,"crime_nivel":"Medio","crime_color":"#ff9800"},"geometry":{"type":"Polygon","coordinates":[[[-70.6890657949999,-32.8506608311396],[-70.6890410569999,-32.8500867171397],[-70.6886400049999,-32.8500701141397],[-70.6886293949999,-32.8506925111396],[-70.6890657949999,-32.8506608311396]]]}},{"type":"Feature","properties":{"id":"5303041001036","commune":"Rinconada","code":"05303","gse":"C3","quintil":"Q2","nse_score":687.4,"educ":11.3,"educ_score":553.3,"hacin":1.28,"hacin_class":"Hacinamiento Leve","hacin_score":791.5,"auto_score":250.0,"n_per":32,"n_hog":13,"source_year":2024,"crime_score":0.2965,"crime_nivel":"Medio","crime_color":"#ff9800"},"geometry":{"type":"Polygon","coordinates":[[[-70.6885240219999,-32.8500613401397],[-70.6881805849999,-32.8500990181396],[-70.688208088,-32.8507135791397],[-70.688571754,-32.8506939851397],[-70.6885240219999,-32.8500613401397]]]}},{"type":"Feature","properties":{"id":"5303041001037","commune":"Rinconada","code":"05303","gse":"C3","quintil":"Q3","nse_score":720.6,"educ":11.6,"educ_score":573.3,"hacin":1.444,"hacin_class":"Hacinamiento Leve","hacin_score":756.5,"auto_score":142.9,"n_per":39,"n_hog":14,"source_year":2024,"crime_score":0.292,"crime_nivel":"Medio","crime_color":"#ff9800"},"geometry":{"type":"Polygon","coordinates":[[[-70.6880906739999,-32.8500670001397],[-70.6877574029999,-32.8500983851397],[-70.6877717169999,-32.8507144791396],[-70.6881346919999,-32.8506918911397],[-70.6880906739999,-32.8500670001397]]]}},{"type":"Feature","properties":{"id":"5303041001040","commune":"Rinconada","code":"05303","gse":"C2","quintil":"Q4","nse_score":762.2,"educ":11.9,"educ_score":593.3,"hacin":1.476,"hacin_class":"Hacinamiento Leve","hacin_score":749.7,"auto_score":291.7,"n_per":31,"n_hog":12,"source_year":2024,"crime_score":0.2841,"crime_nivel":"Medio","crime_color":"#ff9800"},"geometry":{"type":"Polygon","coordinates":[[[-70.6872105859999,-32.8507202811397],[-70.6872618799999,-32.8501010491397],[-70.6868915049999,-32.8500864401396],[-70.6868658809999,-32.8506960521396],[-70.6872105859999,-32.8507202811397]]]}},{"type":"Feature","properties":{"id":"5303041001041","commune":"Rinconada","code":"05303","gse":"C3","quintil":"Q3","nse_score":705.5,"educ":10.7,"educ_score":513.3,"hacin":1.276,"hacin_class":"Hacinamiento Leve","hacin_score":792.4,"auto_score":156.2,"n_per":37,"n_hog":15,"source_year":2024,"crime_score":0.2942,"crime_nivel":"Medio","crime_color":"#ff9800"},"geometry":{"type":"Polygon","coordinates":[[[-70.6867901239999,-32.8500839751397],[-70.6864541879999,-32.8501075781397],[-70.6864656799999,-32.8507193911396],[-70.6868161429999,-32.8507025091396],[-70.6867901239999,-32.8500839751397]]]}},{"type":"Feature","properties":{"id":"5303041001042","commune":"Rinconada","code":"05303","gse":"C1","quintil":"Q5","nse_score":819.5,"educ":16.6,"educ_score":906.7,"hacin":1.2,"hacin_class":"Hacinamiento Leve","hacin_score":808.5,"auto_score":285.7,"n_per":18,"n_hog":5,"source_year":2024,"crime_score":0.273,"crime_nivel":"Medio","crime_color":"#ff9800"},"geometry":{"type":"Polygon","coordinates":[[[-70.6986464999999,-32.8503068181396],[-70.6988499299999,-32.8510475051397],[-70.6997707809999,-32.8508376371397],[-70.6995368049999,-32.8500852741397],[-70.6986464999999,-32.8503068181396]]]}},{"type":"Feature","properties":{"id":"5303041001043","commune":"Rinconada","code":"05303","gse":"C3","quintil":"Q2","nse_score":681.9,"educ":12.6,"educ_score":640.0,"hacin":1.462,"hacin_class":"Hacinamiento Leve","hacin_score":752.9,"auto_score":176.5,"n_per":38,"n_hog":13,"source_year":2024,"crime_score":0.2983,"crime_nivel":"Medio","crime_color":"#ff9800"},"geometry":{"type":"Polygon","coordinates":[[[-70.6863754229999,-32.8507224911396],[-70.6864034259999,-32.8501153461397],[-70.6860518389999,-32.8500936791397],[-70.6860328819999,-32.8507036961397],[-70.6863754229999,-32.8507224911396]]]}},{"type":"Feature","properties":{"id":"5303041001045","commune":"Rinconada","code":"05303","gse":"C2","quintil":"Q4","nse_score":760.9,"educ":12.4,"educ_score":626.7,"hacin":1.231,"hacin_class":"Hacinamiento Leve","hacin_score":801.8,"auto_score":188.1,"n_per":298,"n_hog":106,"source_year":2024,"crime_score":0.3217,"crime_nivel":"Medio","crime_color":"#ff9800"},"geometry":{"type":"Polygon","coordinates":[[[-70.6855596279999,-32.8508241921397],[-70.6847908689999,-32.8508276291396],[-70.6841567929999,-32.8529617011396],[-70.6851302949999,-32.8530281481396],[-70.6852011119999,-32.8527323641397],[-70.6843979719999,-32.8526417141397],[-70.6852139109999,-32.8526789031397],[-70.6852422139999,-32.8525606901396],[-70.6844386899999,-32.8523661421396],[-70.6852549539999,-32.8525074741396],[-70.6853254449999,-32.8523419731397],[-70.6871472619999,-32.8525468651397],[-70.6871078969999,-32.8531579341396],[-70.6841440009999,-32.8530151341396],[-70.6840520819999,-32.8533990561396],[-70.6872596139999,-32.8536301021397],[-70.6874026289999,-32.8524343051396],[-70.6854802819999,-32.8522411611396],[-70.6855596279999,-32.8508241921397]]]}},{"type":"Feature","properties":{"id":"5303041001046","commune":"Rinconada","code":"05303","gse":"C2","quintil":"Q4","nse_score":778.9,"educ":13.2,"educ_score":680.0,"hacin":1.237,"hacin_class":"Hacinamiento Leve","hacin_score":800.7,"auto_score":300.0,"n_per":47,"n_hog":14,"source_year":2024,"crime_score":0.2836,"crime_nivel":"Medio","crime_color":"#ff9800"},"geometry":{"type":"Polygon","coordinates":[[[-70.6856338009999,-32.8524536601396],[-70.6853462609999,-32.8523992611397],[-70.6851943549999,-32.8530337431397],[-70.6855860769999,-32.8530679491396],[-70.6856338009999,-32.8524536601396]]]}},{"type":"Feature","properties":{"id":"5303041001047","commune":"Rinconada","code":"05303","gse":"C2","quintil":"Q4","nse_score":747.1,"educ":13.0,"educ_score":666.7,"hacin":1.259,"hacin_class":"Hacinamiento Leve","hacin_score":795.9,"auto_score":125.0,"n_per":68,"n_hog":21,"source_year":2024,"crime_score":0.2918,"crime_nivel":"Medio","crime_color":"#ff9800"},"geometry":{"type":"Polygon","coordinates":[[[-70.6868060869999,-32.8525625801396],[-70.6857048179999,-32.8524435111396],[-70.6856661329999,-32.8527322221396],[-70.6867953149999,-32.8528033951397],[-70.6868060869999,-32.8525625801396]]]}},{"type":"Feature","properties":{"id":"5303041001049","commune":"Rinconada","code":"05303","gse":"C3","quintil":"Q2","nse_score":693.3,"educ":11.5,"educ_score":566.7,"hacin":1.214,"hacin_class":"Hacinamiento Leve","hacin_score":805.5,"auto_score":83.3,"n_per":68,"n_hog":20,"source_year":2024,"crime_score":0.3007,"crime_nivel":"Medio","crime_color":"#ff9800"},"geometry":{"type":"Polygon","coordinates":[[[-70.686792883,-32.8528577511396],[-70.685662927,-32.8527862661396],[-70.6856499759999,-32.8530735281396],[-70.6867797559999,-32.8531512271397],[-70.686792883,-32.8528577511396]]]}},{"type":"Feature","properties":{"id":"5303041001050","commune":"Rinconada","code":"05303","gse":"C3","quintil":"Q2","nse_score":690.3,"educ":10.3,"educ_score":486.7,"hacin":1.25,"hacin_class":"Hacinamiento Leve","hacin_score":797.9,"auto_score":125.0,"n_per":45,"n_hog":16,"source_year":2024,"crime_score":0.2979,"crime_nivel":"Medio","crime_color":"#ff9800"},"geometry":{"type":"Polygon","coordinates":[[[-70.6942736379999,-32.8532550981396],[-70.6953964409999,-32.8531818741396],[-70.6954003809999,-32.8528666091396],[-70.6942929989999,-32.8529671651396],[-70.6942736379999,-32.8532550981396]]]}},{"type":"Feature","properties":{"id":"5303041001051","commune":"Rinconada","code":"05303","gse":"C3","quintil":"Q2","nse_score":684.9,"educ":10.3,"educ_score":486.7,"hacin":1.324,"hacin_class":"Hacinamiento Leve","hacin_score":782.1,"auto_score":166.7,"n_per":49,"n_hog":18,"source_year":2024,"crime_score":0.2994,"crime_nivel":"Medio","crime_color":"#ff9800"},"geometry":{"type":"Polygon","coordinates":[[[-70.6933302119999,-32.8533153831396],[-70.6942177709999,-32.8532670191396],[-70.6942405749999,-32.8529791431396],[-70.6933393589999,-32.8530375651397],[-70.6933302119999,-32.8533153831396]]]}},{"type":"Feature","properties":{"id":"5303041001053","commune":"Rinconada","code":"05303","gse":"C3","quintil":"Q3","nse_score":721.4,"educ":11.2,"educ_score":546.7,"hacin":1.318,"hacin_class":"Hacinamiento Leve","hacin_score":783.5,"auto_score":154.4,"n_per":195,"n_hog":69,"source_year":2024,"crime_score":0.3142,"crime_nivel":"Medio","crime_color":"#ff9800"},"geometry":{"type":"Polygon","coordinates":[[[-70.6838913559999,-32.8548519881396],[-70.6840008539999,-32.8541077081396],[-70.6871775739999,-32.8543160491396],[-70.6872531689999,-32.8536839891396],[-70.6870568559999,-32.8536797341397],[-70.6870025499999,-32.8541864311397],[-70.6870108029999,-32.8536684501396],[-70.6866134119999,-32.8536512611396],[-70.6865274029999,-32.8541485541396],[-70.6865628769999,-32.8536403081397],[-70.6861827789999,-32.8536052981396],[-70.6860704539999,-32.8541236891396],[-70.6861098199999,-32.8536007801397],[-70.6857203149999,-32.8535768081396],[-70.6856127379999,-32.8540864761396],[-70.6856483269999,-32.8535671361396],[-70.685274552,-32.8535499851396],[-70.6851804589999,-32.8540439591396],[-70.685226053,-32.8535506381396],[-70.6848271329999,-32.8535147051396],[-70.6847674789999,-32.8540274251396],[-70.6847717989999,-32.8535098591396],[-70.6840363459999,-32.8534597851396],[-70.6837134879999,-32.8548310661396],[-70.6838913559999,-32.8548519881396]]]}},{"type":"Feature","properties":{"id":"5303041001054","commune":"Rinconada","code":"05303","gse":"D","quintil":"Q2","nse_score":674.3,"educ":12.3,"educ_score":620.0,"hacin":1.156,"hacin_class":"Hacinamiento Leve","hacin_score":818.0,"auto_score":261.9,"n_per":52,"n_hog":20,"source_year":2024,"crime_score":0.3016,"crime_nivel":"Medio","crime_color":"#ff9800"},"geometry":{"type":"Polygon","coordinates":[[[-70.6843964879999,-32.8593712311396],[-70.6846355789999,-32.8578602051396],[-70.6842806689999,-32.8578307811396],[-70.6837559229999,-32.8574417241396],[-70.6838359549999,-32.8556221011396],[-70.6862108379999,-32.8558066091396],[-70.6862444069999,-32.8551372831396],[-70.6837022729999,-32.8548857551396],[-70.6830881129999,-32.8589717271395],[-70.6844186309999,-32.8589632781395],[-70.6830826709999,-32.8590194471395],[-70.6830340239999,-32.8594092921396],[-70.6843964879999,-32.8593712311396]]]}},{"type":"Feature","properties":{"id":"5303041001056","commune":"Rinconada","code":"05303","gse":"D","quintil":"Q2","nse_score":664.7,"educ":11.2,"educ_score":546.7,"hacin":1.25,"hacin_class":"Hacinamiento Leve","hacin_score":797.9,"auto_score":150.0,"n_per":80,"n_hog":30,"source_year":2024,"crime_score":0.3073,"crime_nivel":"Medio","crime_color":"#ff9800"},"geometry":{"type":"Polygon","coordinates":[[[-70.6960181779999,-32.8582240451396],[-70.6960514899999,-32.8584715091396],[-70.6959099119999,-32.8591368071395],[-70.6970008949999,-32.8589735751395],[-70.6959372759999,-32.8591924861395],[-70.6959612449999,-32.8595421371395],[-70.6961747849999,-32.8597289931395],[-70.6975996279999,-32.8594207761395],[-70.6975267549999,-32.8591327331396],[-70.6968330889999,-32.8580849021395],[-70.6966264339999,-32.8580906131396],[-70.6964753279999,-32.8578865261396],[-70.6954739299999,-32.8579904501395],[-70.6934794989999,-32.8585059341396],[-70.6937053759999,-32.8599606991395],[-70.6952705089999,-32.8592729051396],[-70.6959093919999,-32.8595127171395],[-70.6958553409999,-32.8590754411396],[-70.6960181779999,-32.8582240451396]]]}},{"type":"Feature","properties":{"id":"5303041001057","commune":"Rinconada","code":"05303","gse":"C3","quintil":"Q2","nse_score":678.9,"educ":10.5,"educ_score":500.0,"hacin":1.414,"hacin_class":"Hacinamiento Leve","hacin_score":762.9,"auto_score":217.4,"n_per":140,"n_hog":47,"source_year":2024,"crime_score":0.3137,"crime_nivel":"Medio","crime_color":"#ff9800"},"geometry":{"type":"Polygon","coordinates":[[[-70.69394331,-32.8622972141395],[-70.6937298599999,-32.8612642371395],[-70.6925511659999,-32.8614222251395],[-70.6937204789999,-32.8612052401395],[-70.6934017839999,-32.8583019861396],[-70.6916917869999,-32.8584603431396],[-70.691877142,-32.8611213431395],[-70.6921064999999,-32.8618213281395],[-70.6919870839999,-32.8622283621395],[-70.690459857,-32.8626395451395],[-70.6903889309999,-32.8632461341395],[-70.6910613729999,-32.8634657811395],[-70.6940533339999,-32.8627366921395],[-70.6939792979999,-32.8625199931395],[-70.6908741389999,-32.8632561081395],[-70.6907052139999,-32.8628690431395],[-70.6914807119999,-32.8626544591395],[-70.6914786279999,-32.8625109071395],[-70.6915320499999,-32.8626398761395],[-70.69394331,-32.8622972141395]]]}},{"type":"Feature","properties":{"id":"5303041001058","commune":"Rinconada","code":"05303","gse":"D","quintil":"Q1","nse_score":643.7,"educ":10.6,"educ_score":506.7,"hacin":1.302,"hacin_class":"Hacinamiento Leve","hacin_score":786.8,"auto_score":216.7,"n_per":181,"n_hog":60,"source_year":2024,"crime_score":0.3259,"crime_nivel":"Medio","crime_color":"#ff9800"},"geometry":{"type":"Polygon","coordinates":[[[-70.6940491299999,-32.8624607851395],[-70.6944334539999,-32.8638283521395],[-70.6943910439999,-32.8649158421395],[-70.6951376459999,-32.8645677151395],[-70.6958995879999,-32.8637040571395],[-70.6971590729999,-32.8629703291395],[-70.6966835459999,-32.8620298661395],[-70.6965114449999,-32.8604333201395],[-70.6960512079999,-32.8604851261395],[-70.6965096779999,-32.8604160531395],[-70.6964479739999,-32.8602034791395],[-70.6959359389999,-32.8595712501395],[-70.6953082939999,-32.8593043201395],[-70.6944576659999,-32.8596738091396],[-70.6946479579999,-32.8602567411395],[-70.6948559069999,-32.8602458831395],[-70.6943539749999,-32.8603453061395],[-70.6946181159999,-32.8602648081395],[-70.6944133639999,-32.8596929881395],[-70.6937139259999,-32.8600450911396],[-70.6937372199999,-32.8607471591395],[-70.6942442309999,-32.8607044731395],[-70.6937363489999,-32.8608063971395],[-70.6940344429999,-32.8623978591395],[-70.6950186409999,-32.8620696521395],[-70.6950414829999,-32.8621253321395],[-70.6940491299999,-32.8624607851395]]]}},{"type":"Feature","properties":{"id":"5303041001059","commune":"Rinconada","code":"05303","gse":"D","quintil":"Q2","nse_score":667.3,"educ":11.3,"educ_score":553.3,"hacin":1.224,"hacin_class":"Hacinamiento Leve","hacin_score":803.3,"auto_score":100.0,"n_per":60,"n_hog":20,"source_year":2024,"crime_score":0.3039,"crime_nivel":"Medio","crime_color":"#ff9800"},"geometry":{"type":"Polygon","coordinates":[[[-70.6825820739999,-32.8631560401395],[-70.6853424059999,-32.8629975311395],[-70.685460169,-32.8620418961395],[-70.6855925949999,-32.8620174421395],[-70.6856326089999,-32.8611435271396],[-70.6843614039999,-32.8611730611395],[-70.6843055879999,-32.8602395871396],[-70.6837608419999,-32.8601395391395],[-70.6837555119999,-32.8594479691395],[-70.6830262589999,-32.8594903871395],[-70.6827709309999,-32.8622323421395],[-70.6843507589999,-32.8621472791395],[-70.6827658309999,-32.8622848101395],[-70.6825820739999,-32.8631560401395]]]}},{"type":"Feature","properties":{"id":"5303041001060","commune":"Rinconada","code":"05303","gse":"D","quintil":"Q2","nse_score":659.2,"educ":11.3,"educ_score":553.3,"hacin":1.273,"hacin_class":"Hacinamiento Leve","hacin_score":793.0,"auto_score":100.0,"n_per":14,"n_hog":5,"source_year":2024,"crime_score":0.2984,"crime_nivel":"Medio","crime_color":"#ff9800"},"geometry":{"type":"Polygon","coordinates":[[[-70.6965550529999,-32.8604618631395],[-70.6967250569999,-32.8620211861395],[-70.6971960719999,-32.8629530371395],[-70.6979648229999,-32.8626805641395],[-70.6975333299999,-32.8618517051395],[-70.6974104499999,-32.8611851151395],[-70.6973856699999,-32.8603803941395],[-70.6977115049999,-32.8600146831395],[-70.6976623109999,-32.8594555491396],[-70.6962207079999,-32.8597711801395],[-70.6965491519999,-32.8603910931395],[-70.6973789469999,-32.8603345061396],[-70.6965550529999,-32.8604618631395]]]}},{"type":"Feature","properties":{"id":"5303041001062","commune":"Rinconada","code":"05303","gse":"D","quintil":"Q2","nse_score":676.2,"educ":10.9,"educ_score":526.7,"hacin":1.571,"hacin_class":"Hacinamiento Medio","hacin_score":729.5,"auto_score":233.3,"n_per":55,"n_hog":15,"source_year":2024,"crime_score":0.3017,"crime_nivel":"Medio","crime_color":"#ff9800"},"geometry":{"type":"Polygon","coordinates":[[[-70.6916714359999,-32.8630581831395],[-70.6934617009999,-32.8626110231395],[-70.693416382,-32.8624225041395],[-70.6923005959999,-32.8624849151395],[-70.6915352729999,-32.8626801471395],[-70.6916714359999,-32.8630581831395]]]}},{"type":"Feature","properties":{"id":"5303041001063","commune":"Rinconada","code":"05303","gse":"E","quintil":"Q1","nse_score":608.1,"educ":8.8,"educ_score":386.7,"hacin":1.5,"hacin_class":"Hacinamiento Medio","hacin_score":744.7,"auto_score":300.0,"n_per":39,"n_hog":12,"source_year":2024,"crime_score":0.3105,"crime_nivel":"Medio","crime_color":"#ff9800"},"geometry":{"type":"Polygon","coordinates":[[[-70.6914919899999,-32.8626800111395],[-70.6907448199999,-32.8628612931395],[-70.6908621439999,-32.8632265981395],[-70.6916279779999,-32.8630713081395],[-70.6914919899999,-32.8626800111395]]]}},{"type":"Feature","properties":{"id":"5303041001052","commune":"Rinconada","code":"05303","gse":"E","quintil":"Q1","nse_score":604.2,"educ":10.0,"educ_score":466.7,"hacin":1.404,"hacin_class":"Hacinamiento Leve","hacin_score":765.1,"auto_score":80.0,"n_per":73,"n_hog":26,"source_year":2024,"crime_score":0.3163,"crime_nivel":"Medio","crime_color":"#ff9800"},"geometry":{"type":"MultiPolygon","coordinates":[[[[-70.6916852839999,-32.8583669821396],[-70.6933547809999,-32.8582183851396],[-70.6932846079999,-32.8569687121396],[-70.692140348,-32.8581446191395],[-70.6916852839999,-32.8583669821396]]],[[[-70.6934722319999,-32.8584552561396],[-70.6948875239999,-32.8580481821396],[-70.6964348499999,-32.8578550911395],[-70.6957209259999,-32.8569414321396],[-70.6972724809999,-32.8557759441396],[-70.6981287809999,-32.8553653951396],[-70.6987483579999,-32.8552787111396],[-70.6986368869999,-32.8545425291396],[-70.6983858829999,-32.8540125701396],[-70.699331851,-32.8537330141396],[-70.6991402359999,-32.8532387651396],[-70.697350706,-32.8537958091396],[-70.6976499479999,-32.8552457821396],[-70.6972041639999,-32.8554989511396],[-70.6953018909999,-32.8561258601396],[-70.6952756659999,-32.8566040391396],[-70.6933822749999,-32.8573935011396],[-70.6934722319999,-32.8584552561396]]]]}},{"type":"Feature","properties":{"id":"5303013035002","commune":"Rinconada","code":"05303","gse":"E","quintil":"Q1","nse_score":586.8,"educ":9.7,"educ_score":446.7,"hacin":1.13,"hacin_class":"Hacinamiento Leve","hacin_score":823.3,"auto_score":55.6,"n_per":52,"n_hog":19,"source_year":2024,"crime_score":0.316,"crime_nivel":"Medio","crime_color":"#ff9800"},"geometry":{"type":"Polygon","coordinates":[[[-70.7129687069999,-32.7876617321405],[-70.7128594679999,-32.7879757201405],[-70.7133256909999,-32.7878806011405],[-70.7134593749999,-32.7879088961405],[-70.7128613389999,-32.7879964511405],[-70.7131047769999,-32.7885919691405],[-70.7124437219999,-32.7899318571405],[-70.7126810859999,-32.7899720261405],[-70.7129890579999,-32.7899703911405],[-70.7135767189999,-32.7888184351405],[-70.7139815669999,-32.7889585261405],[-70.7140363569999,-32.7886592661405],[-70.7139206459999,-32.7881350481405],[-70.7136743289999,-32.7881365101405],[-70.7135090019999,-32.7878829631405],[-70.7133481939999,-32.7878640641405],[-70.7132513519999,-32.7878826701405],[-70.7129687069999,-32.7876617321405]]]}},{"type":"Feature","properties":{"id":"5303013035001","commune":"Rinconada","code":"05303","gse":"D","quintil":"Q2","nse_score":672.2,"educ":11.6,"educ_score":573.3,"hacin":1.0,"hacin_class":"Hacinamiento Leve","hacin_score":851.1,"auto_score":62.5,"n_per":15,"n_hog":8,"source_year":2024,"crime_score":0.2965,"crime_nivel":"Medio","crime_color":"#ff9800"},"geometry":{"type":"MultiPolygon","coordinates":[[[[-70.7124194519999,-32.7899723401405],[-70.7122546999999,-32.7902430251405],[-70.7127138769999,-32.7904257291405],[-70.7129634549999,-32.7900130961405],[-70.7124194519999,-32.7899723401405]]],[[[-70.7114035289999,-32.7900433451405],[-70.7115563449999,-32.7902487751405],[-70.7118339039999,-32.7901282431405],[-70.7122031589999,-32.7902289661405],[-70.7126472679999,-32.7894925481405],[-70.7130514259999,-32.7885897901405],[-70.7128106059999,-32.7880591391405],[-70.7128589189999,-32.7875759131405],[-70.7116482429999,-32.7873881901405],[-70.7117128589999,-32.7885621311405],[-70.7113797349999,-32.7895198641405],[-70.7114035289999,-32.7900433451405]]]]}},{"type":"Feature","properties":{"id":"5303023029001","commune":"Rinconada","code":"05303","gse":"D","quintil":"Q2","nse_score":660.0,"educ":12.4,"educ_score":626.7,"hacin":1.353,"hacin_class":"Hacinamiento Leve","hacin_score":776.0,"auto_score":176.5,"n_per":46,"n_hog":18,"source_year":2024,"crime_score":0.303,"crime_nivel":"Medio","crime_color":"#ff9800"},"geometry":{"type":"Polygon","coordinates":[[[-70.6616486409999,-32.82450183914],[-70.6627613269999,-32.82544119014],[-70.6656362229999,-32.82463934614],[-70.6649354969999,-32.82361425914],[-70.6616486409999,-32.82450183914]]]}}]}