{"type":"FeatureCollection","features":[{"type":"Feature","properties":{"id":"10305011001001","commune":"Río Negro","code":"10305","gse":"E","quintil":"Q1","nse_score":577.4,"educ":11.0,"educ_score":533.3,"hacin":1.345,"hacin_class":"Hacinamiento Leve","hacin_score":777.7,"auto_score":269.2,"n_per":39,"n_hog":13,"source_year":2024,"crime_score":0.3643,"crime_nivel":"Medio","crime_color":"#ff9800"},"geometry":{"type":"Polygon","coordinates":[[[-73.2088175019999,-40.7856442170666],[-73.2090189059999,-40.7856199240667],[-73.2083035169999,-40.7848876350667],[-73.2081866389999,-40.7849521940666],[-73.2088175019999,-40.7856442170666]]]}},{"type":"Feature","properties":{"id":"10305011001002","commune":"Río Negro","code":"10305","gse":"E","quintil":"Q1","nse_score":606.6,"educ":10.7,"educ_score":513.3,"hacin":1.443,"hacin_class":"Hacinamiento Leve","hacin_score":756.8,"auto_score":118.3,"n_per":267,"n_hog":85,"source_year":2024,"crime_score":0.3989,"crime_nivel":"Medio","crime_color":"#ff9800"},"geometry":{"type":"Polygon","coordinates":[[[-73.211025919,-40.7863277770667],[-73.2112216509999,-40.7865155310667],[-73.211715093,-40.7863181960667],[-73.2112299719999,-40.7865804790667],[-73.212106661,-40.7874094220666],[-73.2123193729999,-40.7874053300667],[-73.2102015499999,-40.7886432140666],[-73.2103528579999,-40.7887277820667],[-73.2111592869999,-40.7884836540667],[-73.2125062459999,-40.7877305690667],[-73.2123453179999,-40.7879479630667],[-73.2131774409999,-40.7883582840666],[-73.2134863769999,-40.7880237410667],[-73.213590398,-40.7880737240667],[-73.2134647079999,-40.7882219400666],[-73.2137816419999,-40.7883759290666],[-73.2139943719999,-40.7881374500667],[-73.2140437549999,-40.7881610040667],[-73.2134205329999,-40.7888971200666],[-73.2137636689999,-40.7890420560666],[-73.2142818519999,-40.7884618620667],[-73.2145377239999,-40.7888027180666],[-73.214220613,-40.7892256860667],[-73.2148009189999,-40.7892153910666],[-73.2149672629999,-40.7894056630666],[-73.2146020609999,-40.7886264390666],[-73.2128952279999,-40.7866046650666],[-73.2125904399999,-40.7855847440667],[-73.2114991079999,-40.7849528400667],[-73.2112251469999,-40.7851020900667],[-73.2120447649999,-40.7856625810666],[-73.211025919,-40.7863277770667]]]}},{"type":"Feature","properties":{"id":"10305011001003","commune":"Río Negro","code":"10305","gse":"D","quintil":"Q2","nse_score":653.6,"educ":9.6,"educ_score":440.0,"hacin":0.978,"hacin_class":"Sin Hacinamiento","hacin_score":855.8,"auto_score":145.8,"n_per":44,"n_hog":23,"source_year":2024,"crime_score":0.3507,"crime_nivel":"Medio","crime_color":"#ff9800"},"geometry":{"type":"Polygon","coordinates":[[[-73.2084539199999,-40.7858612240666],[-73.2087929869999,-40.7856839550667],[-73.2081479979999,-40.7850117440666],[-73.2078382849999,-40.7851418450667],[-73.2084539199999,-40.7858612240666]]]}},{"type":"Feature","properties":{"id":"10305011001006","commune":"Río Negro","code":"10305","gse":"D","quintil":"Q1","nse_score":644.1,"educ":9.5,"educ_score":433.3,"hacin":1.421,"hacin_class":"Hacinamiento Leve","hacin_score":761.5,"auto_score":153.8,"n_per":81,"n_hog":27,"source_year":2024,"crime_score":0.3589,"crime_nivel":"Medio","crime_color":"#ff9800"},"geometry":{"type":"Polygon","coordinates":[[[-73.2083987169999,-40.7859468850667],[-73.2077838469999,-40.7852156260667],[-73.2074501529999,-40.7853539260666],[-73.2080635839999,-40.7860881190666],[-73.2083987169999,-40.7859468850667]]]}},{"type":"Feature","properties":{"id":"10305011001007","commune":"Río Negro","code":"10305","gse":"D","quintil":"Q2","nse_score":658.1,"educ":10.4,"educ_score":493.3,"hacin":1.413,"hacin_class":"Hacinamiento Leve","hacin_score":763.2,"auto_score":295.5,"n_per":65,"n_hog":22,"source_year":2024,"crime_score":0.3535,"crime_nivel":"Medio","crime_color":"#ff9800"},"geometry":{"type":"Polygon","coordinates":[[[-73.2110925439999,-40.7861374200667],[-73.211315753,-40.7859509420667],[-73.210801537,-40.7854019070667],[-73.2104614799999,-40.7855321290667],[-73.2110925439999,-40.7861374200667]]]}},{"type":"Feature","properties":{"id":"10305011001009","commune":"Río Negro","code":"10305","gse":"E","quintil":"Q1","nse_score":474.8,"educ":6.2,"educ_score":213.3,"hacin":1.118,"hacin_class":"Hacinamiento Leve","hacin_score":826.0,"auto_score":41.7,"n_per":19,"n_hog":11,"source_year":2024,"crime_score":0.38,"crime_nivel":"Medio","crime_color":"#ff9800"},"geometry":{"type":"Polygon","coordinates":[[[-73.2095793739999,-40.7859263540666],[-73.2092892299999,-40.7855863540666],[-73.2089589719999,-40.7857626390666],[-73.2092760969999,-40.7860851260666],[-73.2095793739999,-40.7859263540666]]]}},{"type":"Feature","properties":{"id":"10305011001010","commune":"Río Negro","code":"10305","gse":"C3","quintil":"Q3","nse_score":701.3,"educ":11.5,"educ_score":566.7,"hacin":1.41,"hacin_class":"Hacinamiento Leve","hacin_score":763.8,"auto_score":272.7,"n_per":55,"n_hog":20,"source_year":2024,"crime_score":0.3435,"crime_nivel":"Medio","crime_color":"#ff9800"},"geometry":{"type":"Polygon","coordinates":[[[-73.2106050499999,-40.7863670740667],[-73.2109362739999,-40.7861702550667],[-73.2104161819999,-40.7856121540666],[-73.2100724989999,-40.7857434930666],[-73.2106050499999,-40.7863670740667]]]}},{"type":"Feature","properties":{"id":"10305011001011","commune":"Río Negro","code":"10305","gse":"C3","quintil":"Q2","nse_score":684.9,"educ":11.1,"educ_score":540.0,"hacin":1.5,"hacin_class":"Hacinamiento Medio","hacin_score":744.7,"auto_score":272.7,"n_per":39,"n_hog":10,"source_year":2024,"crime_score":0.3439,"crime_nivel":"Medio","crime_color":"#ff9800"},"geometry":{"type":"Polygon","coordinates":[[[-73.2092128909999,-40.7861363620666],[-73.208872659,-40.7857860030667],[-73.2085586329999,-40.7859444170667],[-73.2088999139999,-40.7863019850667],[-73.2092128909999,-40.7861363620666]]]}},{"type":"Feature","properties":{"id":"10305011001012","commune":"Río Negro","code":"10305","gse":"C3","quintil":"Q3","nse_score":708.9,"educ":11.8,"educ_score":586.7,"hacin":1.488,"hacin_class":"Hacinamiento Leve","hacin_score":747.3,"auto_score":250.0,"n_per":61,"n_hog":20,"source_year":2024,"crime_score":0.343,"crime_nivel":"Medio","crime_color":"#ff9800"},"geometry":{"type":"Polygon","coordinates":[[[-73.2103005739999,-40.7865993750666],[-73.2105603839999,-40.7863798620667],[-73.2100473659999,-40.7858215470667],[-73.2096792159999,-40.7859577440666],[-73.2103005739999,-40.7865993750666]]]}},{"type":"Feature","properties":{"id":"10305011001013","commune":"Río Negro","code":"10305","gse":"D","quintil":"Q2","nse_score":651.6,"educ":10.0,"educ_score":466.7,"hacin":1.111,"hacin_class":"Hacinamiento Leve","hacin_score":827.4,"auto_score":250.0,"n_per":30,"n_hog":11,"source_year":2024,"crime_score":0.3487,"crime_nivel":"Medio","crime_color":"#ff9800"},"geometry":{"type":"Polygon","coordinates":[[[-73.2084722009999,-40.7865652720667],[-73.208851578,-40.7863356590666],[-73.2084833769999,-40.7859920960666],[-73.2081495599999,-40.7862022270666],[-73.2084722009999,-40.7865652720667]]]}},{"type":"Feature","properties":{"id":"10305011001014","commune":"Río Negro","code":"10305","gse":"C2","quintil":"Q4","nse_score":727.2,"educ":12.7,"educ_score":646.7,"hacin":1.167,"hacin_class":"Hacinamiento Leve","hacin_score":815.6,"auto_score":285.7,"n_per":56,"n_hog":21,"source_year":2024,"crime_score":0.3387,"crime_nivel":"Medio","crime_color":"#ff9800"},"geometry":{"type":"Polygon","coordinates":[[[-73.2098847509999,-40.7867998230667],[-73.210215865,-40.7866261050666],[-73.2096317469999,-40.7860277430666],[-73.2093183979999,-40.7861830400666],[-73.2098847509999,-40.7867998230667]]]}},{"type":"Feature","properties":{"id":"10305011001015","commune":"Río Negro","code":"10305","gse":"D","quintil":"Q2","nse_score":661.2,"educ":11.8,"educ_score":586.7,"hacin":1.175,"hacin_class":"Hacinamiento Leve","hacin_score":813.8,"auto_score":205.9,"n_per":47,"n_hog":17,"source_year":2024,"crime_score":0.3498,"crime_nivel":"Medio","crime_color":"#ff9800"},"geometry":{"type":"Polygon","coordinates":[[[-73.2095195659999,-40.7870053200667],[-73.2098492969999,-40.7868239410667],[-73.2092568869999,-40.7862316590667],[-73.2089535909999,-40.7863983900666],[-73.2095195659999,-40.7870053200667]]]}},{"type":"Feature","properties":{"id":"10305011001016","commune":"Río Negro","code":"10305","gse":"C3","quintil":"Q3","nse_score":694.9,"educ":11.1,"educ_score":540.0,"hacin":1.2,"hacin_class":"Hacinamiento Leve","hacin_score":808.5,"auto_score":227.3,"n_per":24,"n_hog":10,"source_year":2024,"crime_score":0.3395,"crime_nivel":"Medio","crime_color":"#ff9800"},"geometry":{"type":"Polygon","coordinates":[[[-73.2107376739999,-40.7868577970666],[-73.2111787899999,-40.7866328570666],[-73.2109030649999,-40.7863736820666],[-73.2104832129999,-40.7865763090666],[-73.2107376739999,-40.7868577970666]]]}},{"type":"Feature","properties":{"id":"10305011001017","commune":"Río Negro","code":"10305","gse":"C2","quintil":"Q4","nse_score":734.5,"educ":12.8,"educ_score":653.3,"hacin":1.333,"hacin_class":"Hacinamiento Leve","hacin_score":780.1,"auto_score":130.4,"n_per":64,"n_hog":21,"source_year":2024,"crime_score":0.3386,"crime_nivel":"Medio","crime_color":"#ff9800"},"geometry":{"type":"Polygon","coordinates":[[[-73.2085299299999,-40.7866543160667],[-73.2091069909999,-40.7872753190666],[-73.2094876529999,-40.7870424170667],[-73.2088783769999,-40.7864436260667],[-73.2085299299999,-40.7866543160667]]]}},{"type":"Feature","properties":{"id":"10305011001019","commune":"Río Negro","code":"10305","gse":"D","quintil":"Q2","nse_score":647.8,"educ":10.2,"educ_score":480.0,"hacin":1.285,"hacin_class":"Hacinamiento Leve","hacin_score":790.4,"auto_score":164.8,"n_per":239,"n_hog":86,"source_year":2024,"crime_score":0.3854,"crime_nivel":"Medio","crime_color":"#ff9800"},"geometry":{"type":"Polygon","coordinates":[[[-73.2104049939999,-40.7866165660667],[-73.2091304639999,-40.7873805840667],[-73.2093509589999,-40.7876144390666],[-73.2104561259999,-40.7869701600667],[-73.2103714539999,-40.7870794340667],[-73.2112293449999,-40.7879223760666],[-73.2115708139999,-40.7877464630667],[-73.2112730529999,-40.7874844440666],[-73.2117650319999,-40.7871987610667],[-73.21152595,-40.7869469480666],[-73.2110029409999,-40.7871807480666],[-73.2114731179999,-40.7869070420666],[-73.2112428819999,-40.7866720330667],[-73.2107049189999,-40.7869726610666],[-73.2104049939999,-40.7866165660667]]]}},{"type":"Feature","properties":{"id":"10305011001020","commune":"Río Negro","code":"10305","gse":"E","quintil":"Q1","nse_score":605.3,"educ":9.5,"educ_score":433.3,"hacin":1.277,"hacin_class":"Hacinamiento Leve","hacin_score":792.2,"auto_score":94.3,"n_per":143,"n_hog":51,"source_year":2024,"crime_score":0.3773,"crime_nivel":"Medio","crime_color":"#ff9800"},"geometry":{"type":"Polygon","coordinates":[[[-73.215898793,-40.7870215660667],[-73.2159870649999,-40.7881436020666],[-73.2177999509999,-40.7888284740667],[-73.2179775429999,-40.7887472520667],[-73.217958957,-40.7884446250667],[-73.2180310589999,-40.7883734070666],[-73.2180355589999,-40.7887585650667],[-73.2179052909999,-40.7888666300666],[-73.217081118,-40.7887539590667],[-73.216248618,-40.7899505820667],[-73.2178646609999,-40.7906543070666],[-73.2180539599999,-40.7904186110667],[-73.2179266969999,-40.7906790460666],[-73.218190665,-40.7907890570666],[-73.2184269879999,-40.7906031800666],[-73.2186343899999,-40.7905725130666],[-73.2182552259999,-40.7908168980666],[-73.2189740669999,-40.7911846220666],[-73.2176648639999,-40.7906797750666],[-73.2169102699999,-40.7917061860666],[-73.2174566739999,-40.7919272180667],[-73.2174072349999,-40.7920075250666],[-73.2168239079999,-40.7918197920666],[-73.2161293069999,-40.7928755000666],[-73.2171838909999,-40.7933740490666],[-73.2172872949999,-40.7930439240666],[-73.2170698979999,-40.7925840430666],[-73.2171393109999,-40.7923154190666],[-73.2177697119999,-40.7920639300666],[-73.2186116669999,-40.7914091780666],[-73.2190762549999,-40.7915829080666],[-73.21971228,-40.7913732030666],[-73.2205014399999,-40.7914783410666],[-73.2212032259999,-40.7909166160666],[-73.2216778629999,-40.7902982730666],[-73.222004749,-40.7894491480667],[-73.2219413219999,-40.7891435000667],[-73.2217324699999,-40.7889226590666],[-73.2210746979999,-40.7888934760666],[-73.2197954049999,-40.7890859210666],[-73.2184719209999,-40.7873163580667],[-73.2182913569999,-40.7872428420667],[-73.21802729,-40.7873475740667],[-73.2173654409999,-40.7880451050666],[-73.2165422969999,-40.7881354330666],[-73.2161677459999,-40.7877826570666],[-73.2163550079999,-40.7870184020667],[-73.215898793,-40.7870215660667]]]}},{"type":"Feature","properties":{"id":"10305011001021","commune":"Río Negro","code":"10305","gse":"E","quintil":"Q1","nse_score":572.2,"educ":7.9,"educ_score":326.7,"hacin":2.0,"hacin_class":"Hacinamiento Medio","hacin_score":638.3,"auto_score":0.0,"n_per":10,"n_hog":4,"source_year":2024,"crime_score":0.3601,"crime_nivel":"Medio","crime_color":"#ff9800"},"geometry":{"type":"Polygon","coordinates":[[[-73.2158344179999,-40.7870220110666],[-73.2147260019999,-40.7872959050667],[-73.2148364539999,-40.7873889540666],[-73.2158522399999,-40.7873582780666],[-73.2158344179999,-40.7870220110666]]]}},{"type":"Feature","properties":{"id":"10305011001022","commune":"Río Negro","code":"10305","gse":"C3","quintil":"Q2","nse_score":675.2,"educ":10.9,"educ_score":526.7,"hacin":1.217,"hacin_class":"Hacinamiento Leve","hacin_score":804.9,"auto_score":198.7,"n_per":230,"n_hog":77,"source_year":2024,"crime_score":0.3782,"crime_nivel":"Medio","crime_color":"#ff9800"},"geometry":{"type":"Polygon","coordinates":[[[-73.2103591119999,-40.7871199510667],[-73.2093813249999,-40.7876399520667],[-73.2095511889999,-40.7879055570666],[-73.2098251769999,-40.7876660280666],[-73.2104987049999,-40.7883367590666],[-73.2108165609999,-40.7881736910666],[-73.2102047159999,-40.7874655460667],[-73.2108473789999,-40.7881161580666],[-73.2111801279999,-40.7879677340666],[-73.2103591119999,-40.7871199510667]]]}},{"type":"Feature","properties":{"id":"10305011001023","commune":"Río Negro","code":"10305","gse":"E","quintil":"Q1","nse_score":609.6,"educ":9.2,"educ_score":413.3,"hacin":1.174,"hacin_class":"Hacinamiento Leve","hacin_score":814.1,"auto_score":50.0,"n_per":27,"n_hog":10,"source_year":2024,"crime_score":0.3561,"crime_nivel":"Medio","crime_color":"#ff9800"},"geometry":{"type":"Polygon","coordinates":[[[-73.2113871969999,-40.7874699220667],[-73.2116310459999,-40.7876987760667],[-73.2120373399999,-40.7874686460666],[-73.2117980579999,-40.7872331900666],[-73.2113871969999,-40.7874699220667]]]}},{"type":"Feature","properties":{"id":"10305011001024","commune":"Río Negro","code":"10305","gse":"D","quintil":"Q1","nse_score":629.7,"educ":10.8,"educ_score":520.0,"hacin":1.265,"hacin_class":"Hacinamiento Leve","hacin_score":794.6,"auto_score":208.3,"n_per":62,"n_hog":23,"source_year":2024,"crime_score":0.3584,"crime_nivel":"Medio","crime_color":"#ff9800"},"geometry":{"type":"Polygon","coordinates":[[[-73.2136594659999,-40.7875310150667],[-73.2146020609999,-40.7886264390666],[-73.2153542209999,-40.7900321550666],[-73.2154934979999,-40.7897215430666],[-73.215213489,-40.7895647070667],[-73.2150287199999,-40.7889407520666],[-73.2141131289999,-40.7875800770666],[-73.2145383999999,-40.7880387670666],[-73.2150140979999,-40.7878672310666],[-73.214677864,-40.7873143470667],[-73.2141146149999,-40.7874831080666],[-73.2140132649999,-40.7873676880667],[-73.2136594659999,-40.7875310150667]]]}},{"type":"Feature","properties":{"id":"10305011001025","commune":"Río Negro","code":"10305","gse":"C2","quintil":"Q4","nse_score":732.2,"educ":12.2,"educ_score":613.3,"hacin":1.217,"hacin_class":"Hacinamiento Leve","hacin_score":804.8,"auto_score":227.3,"n_per":28,"n_hog":11,"source_year":2024,"crime_score":0.3332,"crime_nivel":"Medio","crime_color":"#ff9800"},"geometry":{"type":"Polygon","coordinates":[[[-73.2151235959999,-40.7878499190666],[-73.2158531359999,-40.7878339100667],[-73.2158591139999,-40.7874246830666],[-73.2148461809999,-40.7874328830667],[-73.2151235959999,-40.7878499190666]]]}},{"type":"Feature","properties":{"id":"10305011001026","commune":"Río Negro","code":"10305","gse":"D","quintil":"Q1","nse_score":620.3,"educ":11.1,"educ_score":540.0,"hacin":1.625,"hacin_class":"Hacinamiento Medio","hacin_score":718.1,"auto_score":55.6,"n_per":26,"n_hog":8,"source_year":2024,"crime_score":0.3539,"crime_nivel":"Medio","crime_color":"#ff9800"},"geometry":{"type":"Polygon","coordinates":[[[-73.2100793089999,-40.7885428390667],[-73.2104339949999,-40.7883499870667],[-73.2098518059999,-40.7877997580667],[-73.2095985319999,-40.7879660990667],[-73.2100793089999,-40.7885428390667]]]}},{"type":"Feature","properties":{"id":"10305011001027","commune":"Río Negro","code":"10305","gse":"C2","quintil":"Q4","nse_score":745.7,"educ":12.8,"educ_score":653.3,"hacin":1.165,"hacin_class":"Hacinamiento Leve","hacin_score":815.9,"auto_score":215.5,"n_per":120,"n_hog":51,"source_year":2024,"crime_score":0.3456,"crime_nivel":"Medio","crime_color":"#ff9800"},"geometry":{"type":"Polygon","coordinates":[[[-73.2162922209999,-40.7893577250666],[-73.2162299679999,-40.7894385540666],[-73.2151703499999,-40.7890070790666],[-73.2152727719999,-40.7895240070667],[-73.2161384569999,-40.7898906880666],[-73.2167348009999,-40.7890819890667],[-73.2156099819999,-40.7885892470666],[-73.2158775049999,-40.7881233520667],[-73.2158693299999,-40.7879240600667],[-73.2150730299999,-40.7879192180667],[-73.2146025099999,-40.7881186690666],[-73.2151287949999,-40.7889478850666],[-73.2162922209999,-40.7893577250666]]]}},{"type":"Feature","properties":{"id":"10305011001028","commune":"Río Negro","code":"10305","gse":"E","quintil":"Q1","nse_score":532.0,"educ":9.5,"educ_score":433.3,"hacin":1.22,"hacin_class":"Hacinamiento Leve","hacin_score":804.4,"auto_score":130.4,"n_per":50,"n_hog":21,"source_year":2024,"crime_score":0.3749,"crime_nivel":"Medio","crime_color":"#ff9800"},"geometry":{"type":"Polygon","coordinates":[[[-73.2131764929999,-40.7884157400667],[-73.2122845159999,-40.7879569290667],[-73.2119443399999,-40.7881260500667],[-73.2129346239999,-40.7886490820666],[-73.2131764929999,-40.7884157400667]]]}},{"type":"Feature","properties":{"id":"10305011001029","commune":"Río Negro","code":"10305","gse":"E","quintil":"Q1","nse_score":611.9,"educ":8.6,"educ_score":373.3,"hacin":1.426,"hacin_class":"Hacinamiento Leve","hacin_score":760.4,"auto_score":155.2,"n_per":77,"n_hog":29,"source_year":2024,"crime_score":0.3644,"crime_nivel":"Medio","crime_color":"#ff9800"},"geometry":{"type":"Polygon","coordinates":[[[-73.2126822839999,-40.7889678360666],[-73.2128721829999,-40.7886882000667],[-73.2118588389999,-40.7881853480667],[-73.2115183009999,-40.7883722980667],[-73.2126822839999,-40.7889678360666]]]}},{"type":"Feature","properties":{"id":"10305011001030","commune":"Río Negro","code":"10305","gse":"C3","quintil":"Q3","nse_score":697.7,"educ":12.3,"educ_score":620.0,"hacin":1.323,"hacin_class":"Hacinamiento Leve","hacin_score":782.2,"auto_score":200.0,"n_per":45,"n_hog":17,"source_year":2024,"crime_score":0.3425,"crime_nivel":"Medio","crime_color":"#ff9800"},"geometry":{"type":"Polygon","coordinates":[[[-73.2167673539999,-40.7890303360666],[-73.2169740169999,-40.7886240310666],[-73.2159103689999,-40.7881884470666],[-73.2156427629999,-40.7885467860666],[-73.2167673539999,-40.7890303360666]]]}},{"type":"Feature","properties":{"id":"10305011001031","commune":"Río Negro","code":"10305","gse":"D","quintil":"Q1","nse_score":627.1,"educ":11.6,"educ_score":573.3,"hacin":1.179,"hacin_class":"Hacinamiento Leve","hacin_score":813.1,"auto_score":153.8,"n_per":33,"n_hog":13,"source_year":2024,"crime_score":0.3538,"crime_nivel":"Medio","crime_color":"#ff9800"},"geometry":{"type":"Polygon","coordinates":[[[-73.2134116939999,-40.7882542680667],[-73.2130378639999,-40.7886840100666],[-73.2133544749999,-40.7888678120666],[-73.2137448539999,-40.7884263440667],[-73.2134116939999,-40.7882542680667]]]}},{"type":"Feature","properties":{"id":"10305011001032","commune":"Río Negro","code":"10305","gse":"D","quintil":"Q1","nse_score":637.7,"educ":9.2,"educ_score":413.3,"hacin":1.239,"hacin_class":"Hacinamiento Leve","hacin_score":800.1,"auto_score":88.2,"n_per":88,"n_hog":31,"source_year":2024,"crime_score":0.3614,"crime_nivel":"Medio","crime_color":"#ff9800"},"geometry":{"type":"Polygon","coordinates":[[[-73.2124235049999,-40.7892746900667],[-73.2125994199999,-40.7889995210666],[-73.2114404659999,-40.7884285620666],[-73.2111004719999,-40.7885775050666],[-73.2124235049999,-40.7892746900667]]]}},{"type":"Feature","properties":{"id":"10305011001033","commune":"Río Negro","code":"10305","gse":"C3","quintil":"Q2","nse_score":682.7,"educ":11.2,"educ_score":546.7,"hacin":1.105,"hacin_class":"Hacinamiento Leve","hacin_score":828.7,"auto_score":153.8,"n_per":42,"n_hog":13,"source_year":2024,"crime_score":0.3449,"crime_nivel":"Medio","crime_color":"#ff9800"},"geometry":{"type":"Polygon","coordinates":[[[-73.2138025149999,-40.7890607640666],[-73.2141589079999,-40.7891886990667],[-73.2144845589999,-40.7887787450667],[-73.214263619,-40.7885275170666],[-73.2138025149999,-40.7890607640666]]]}},{"type":"Feature","properties":{"id":"10305011001034","commune":"Río Negro","code":"10305","gse":"C2","quintil":"Q4","nse_score":741.7,"educ":12.0,"educ_score":600.0,"hacin":1.262,"hacin_class":"Hacinamiento Leve","hacin_score":795.3,"auto_score":302.6,"n_per":106,"n_hog":39,"source_year":2024,"crime_score":0.3441,"crime_nivel":"Medio","crime_color":"#ff9800"},"geometry":{"type":"Polygon","coordinates":[[[-73.2121062439999,-40.7896010840666],[-73.2123576059999,-40.7893145640666],[-73.2109951029999,-40.7886130740667],[-73.210590351,-40.7887195760667],[-73.2121062439999,-40.7896010840666]]]}},{"type":"Feature","properties":{"id":"10305011001036","commune":"Río Negro","code":"10305","gse":"E","quintil":"Q1","nse_score":604.0,"educ":10.0,"educ_score":466.7,"hacin":1.155,"hacin_class":"Hacinamiento Leve","hacin_score":818.1,"auto_score":265.6,"n_per":82,"n_hog":30,"source_year":2024,"crime_score":0.3668,"crime_nivel":"Medio","crime_color":"#ff9800"},"geometry":{"type":"Polygon","coordinates":[[[-73.2147517469999,-40.7908263970666],[-73.2150226869999,-40.7899756680666],[-73.2149812689999,-40.7894716940666],[-73.2147893129999,-40.7892371910666],[-73.2144235559999,-40.7893126910666],[-73.2145088879999,-40.7893967950667],[-73.2129842439999,-40.7887654220666],[-73.212167802,-40.7896965310666],[-73.2147517469999,-40.7908263970666]]]}},{"type":"Feature","properties":{"id":"10305011001037","commune":"Río Negro","code":"10305","gse":"D","quintil":"Q2","nse_score":663.8,"educ":9.8,"educ_score":453.3,"hacin":1.5,"hacin_class":"Hacinamiento Medio","hacin_score":744.7,"auto_score":250.0,"n_per":66,"n_hog":22,"source_year":2024,"crime_score":0.3525,"crime_nivel":"Medio","crime_color":"#ff9800"},"geometry":{"type":"Polygon","coordinates":[[[-73.2102658219999,-40.7888309230666],[-73.2112341639999,-40.7900740820666],[-73.2115944089999,-40.7896390000667],[-73.2112837629999,-40.7901381770667],[-73.2117252399999,-40.7907038730666],[-73.2123061899999,-40.7899013540666],[-73.2102658219999,-40.7888309230666]]]}},{"type":"Feature","properties":{"id":"10305011001039","commune":"Río Negro","code":"10305","gse":"C3","quintil":"Q2","nse_score":684.3,"educ":11.5,"educ_score":566.7,"hacin":1.3,"hacin_class":"Hacinamiento Leve","hacin_score":787.2,"auto_score":142.9,"n_per":26,"n_hog":13,"source_year":2024,"crime_score":0.3418,"crime_nivel":"Medio","crime_color":"#ff9800"},"geometry":{"type":"Polygon","coordinates":[[[-73.2151790729999,-40.7904735240666],[-73.215601649,-40.7906576920667],[-73.2160771339999,-40.7899633340666],[-73.2155505889999,-40.7897538630666],[-73.2151790729999,-40.7904735240666]]]}},{"type":"Feature","properties":{"id":"10305011001040","commune":"Río Negro","code":"10305","gse":"E","quintil":"Q1","nse_score":591.7,"educ":8.9,"educ_score":393.3,"hacin":1.546,"hacin_class":"Hacinamiento Medio","hacin_score":735.0,"auto_score":125.0,"n_per":85,"n_hog":34,"source_year":2024,"crime_score":0.3697,"crime_nivel":"Medio","crime_color":"#ff9800"},"geometry":{"type":"Polygon","coordinates":[[[-73.2123363889999,-40.7899331700666],[-73.2117905719999,-40.7907691120667],[-73.2122229039999,-40.7913446630667],[-73.2129875459999,-40.7902731290667],[-73.2130410639999,-40.7902971980666],[-73.2122975679999,-40.7913580710666],[-73.2123421019999,-40.7914519930666],[-73.2130136559999,-40.7916462500666],[-73.2137865619999,-40.7905977180666],[-73.2130468699999,-40.7916628880666],[-73.2131537079999,-40.7917052590666],[-73.2139967919999,-40.7905765620666],[-73.2123363889999,-40.7899331700666]]]}},{"type":"Feature","properties":{"id":"10305011001041","commune":"Río Negro","code":"10305","gse":"C3","quintil":"Q3","nse_score":713.4,"educ":11.4,"educ_score":560.0,"hacin":1.351,"hacin_class":"Hacinamiento Leve","hacin_score":776.3,"auto_score":152.2,"n_per":50,"n_hog":22,"source_year":2024,"crime_score":0.3404,"crime_nivel":"Medio","crime_color":"#ff9800"},"geometry":{"type":"Polygon","coordinates":[[[-73.2175785859999,-40.7906662810666],[-73.2161918469999,-40.7900214080666],[-73.2158387429999,-40.7904718360666],[-73.2162175139999,-40.7906318220667],[-73.2158158159999,-40.7905033660666],[-73.2154172099999,-40.7910831700666],[-73.2168177249999,-40.7916832270666],[-73.2175785859999,-40.7906662810666]]]}},{"type":"Feature","properties":{"id":"10305011001043","commune":"Río Negro","code":"10305","gse":"C2","quintil":"Q4","nse_score":733.3,"educ":11.5,"educ_score":566.7,"hacin":1.067,"hacin_class":"Hacinamiento Leve","hacin_score":836.9,"auto_score":166.7,"n_per":16,"n_hog":9,"source_year":2024,"crime_score":0.331,"crime_nivel":"Medio","crime_color":"#ff9800"},"geometry":{"type":"Polygon","coordinates":[[[-73.2147188529999,-40.7908828270667],[-73.2138191599999,-40.7920795940666],[-73.2145129989999,-40.7921538220666],[-73.2152380039999,-40.7911185920666],[-73.2147188529999,-40.7908828270667]]]}},{"type":"Feature","properties":{"id":"10305011001044","commune":"Río Negro","code":"10305","gse":"C2","quintil":"Q3","nse_score":719.2,"educ":12.5,"educ_score":633.3,"hacin":1.289,"hacin_class":"Hacinamiento Leve","hacin_score":789.6,"auto_score":80.6,"n_per":58,"n_hog":29,"source_year":2024,"crime_score":0.3406,"crime_nivel":"Medio","crime_color":"#ff9800"},"geometry":{"type":"Polygon","coordinates":[[[-73.2159834189999,-40.7928040630666],[-73.2167596179999,-40.7917641200666],[-73.2153464489999,-40.7911673810666],[-73.2146001279999,-40.7922240810666],[-73.2159834189999,-40.7928040630666]]]}},{"type":"Feature","properties":{"id":"10305011001047","commune":"Río Negro","code":"10305","gse":"C2","quintil":"Q3","nse_score":722.8,"educ":10.9,"educ_score":526.7,"hacin":1.286,"hacin_class":"Hacinamiento Leve","hacin_score":790.3,"auto_score":125.0,"n_per":9,"n_hog":5,"source_year":2024,"crime_score":0.3318,"crime_nivel":"Medio","crime_color":"#ff9800"},"geometry":{"type":"Polygon","coordinates":[[[-73.2138053729999,-40.7920995340666],[-73.212232894,-40.7942915790666],[-73.212330715,-40.7943635340666],[-73.2122339289999,-40.7945515610666],[-73.2128267889999,-40.7945301210666],[-73.2143662649999,-40.7923396360666],[-73.2138053729999,-40.7920995340666]]]}},{"type":"Feature","properties":{"id":"10305011001050","commune":"Río Negro","code":"10305","gse":"D","quintil":"Q1","nse_score":643.4,"educ":10.8,"educ_score":520.0,"hacin":1.175,"hacin_class":"Hacinamiento Leve","hacin_score":813.8,"auto_score":108.7,"n_per":47,"n_hog":18,"source_year":2024,"crime_score":0.3532,"crime_nivel":"Medio","crime_color":"#ff9800"},"geometry":{"type":"Polygon","coordinates":[[[-73.2158706939999,-40.7929769830666],[-73.2144231489999,-40.7924018600666],[-73.2137872779999,-40.7933475760666],[-73.2152691899999,-40.7938393750666],[-73.2158706939999,-40.7929769830666]]]}},{"type":"Feature","properties":{"id":"10305011001051","commune":"Río Negro","code":"10305","gse":"D","quintil":"Q1","nse_score":641.8,"educ":12.9,"educ_score":660.0,"hacin":1.3,"hacin_class":"Hacinamiento Leve","hacin_score":787.2,"auto_score":125.0,"n_per":26,"n_hog":8,"source_year":2024,"crime_score":0.3499,"crime_nivel":"Medio","crime_color":"#ff9800"},"geometry":{"type":"Polygon","coordinates":[[[-73.2191485669999,-40.7932088080666],[-73.2173447429999,-40.7927211170666],[-73.2173711039999,-40.7934548680666],[-73.2177436339999,-40.7936625520666],[-73.2177953439999,-40.7931823680666],[-73.2187165619999,-40.7931909580666],[-73.2178351869999,-40.7932215580666],[-73.2178227919999,-40.7936849430666],[-73.2183346849999,-40.7938203740666],[-73.2187055369999,-40.7937600900666],[-73.2183314129999,-40.7938620700666],[-73.2177820189999,-40.7937176140666],[-73.2178956799999,-40.7962877960666],[-73.2184786819999,-40.7961125000666],[-73.2183937349999,-40.7956189960666],[-73.2184930199999,-40.7953457880666],[-73.2184754969999,-40.7943920290666],[-73.2185925049999,-40.7941962030666],[-73.2192786539999,-40.7937529780666],[-73.219319186,-40.7934160770666],[-73.2191485669999,-40.7932088080666]]]}},{"type":"Feature","properties":{"id":"10305011001053","commune":"Río Negro","code":"10305","gse":"C2","quintil":"Q3","nse_score":717.6,"educ":12.5,"educ_score":633.3,"hacin":1.308,"hacin_class":"Hacinamiento Leve","hacin_score":785.6,"auto_score":71.4,"n_per":17,"n_hog":7,"source_year":2024,"crime_score":0.3341,"crime_nivel":"Medio","crime_color":"#ff9800"},"geometry":{"type":"Polygon","coordinates":[[[-73.2167263629999,-40.7933166610666],[-73.2159940579999,-40.7930042940666],[-73.2156305159999,-40.7934743790666],[-73.2164009359999,-40.7938020210666],[-73.2167263629999,-40.7933166610666]]]}},{"type":"Feature","properties":{"id":"10305011001054","commune":"Río Negro","code":"10305","gse":"D","quintil":"Q2","nse_score":659.1,"educ":9.9,"educ_score":460.0,"hacin":1.25,"hacin_class":"Hacinamiento Leve","hacin_score":797.9,"auto_score":89.3,"n_per":60,"n_hog":28,"source_year":2024,"crime_score":0.3524,"crime_nivel":"Medio","crime_color":"#ff9800"},"geometry":{"type":"Polygon","coordinates":[[[-73.2164408749999,-40.7938641620666],[-73.2155625209999,-40.7935614240666],[-73.2144749309999,-40.7951002620666],[-73.2149204519999,-40.7954026820666],[-73.215649632,-40.7944910370666],[-73.2160187799999,-40.7943297400666],[-73.2162713679999,-40.7944092230666],[-73.2166349779999,-40.7943130550666],[-73.2170474979999,-40.7937887760666],[-73.2171546419999,-40.7934331910666],[-73.2168249679999,-40.7933834030666],[-73.2164408749999,-40.7938641620666]]]}},{"type":"Feature","properties":{"id":"10305011001055","commune":"Río Negro","code":"10305","gse":"C2","quintil":"Q4","nse_score":728.6,"educ":13.0,"educ_score":666.7,"hacin":1.071,"hacin_class":"Hacinamiento Leve","hacin_score":835.9,"auto_score":138.9,"n_per":45,"n_hog":17,"source_year":2024,"crime_score":0.3366,"crime_nivel":"Medio","crime_color":"#ff9800"},"geometry":{"type":"Polygon","coordinates":[[[-73.2137010789999,-40.7934415440667],[-73.2131954649999,-40.7941789380666],[-73.2144099469999,-40.7950129600666],[-73.2152034469999,-40.7939087090666],[-73.2137010789999,-40.7934415440667]]]}},{"type":"Feature","properties":{"id":"10305011001056","commune":"Río Negro","code":"10305","gse":"D","quintil":"Q1","nse_score":625.3,"educ":10.1,"educ_score":473.3,"hacin":1.659,"hacin_class":"Hacinamiento Medio","hacin_score":710.8,"auto_score":113.6,"n_per":73,"n_hog":21,"source_year":2024,"crime_score":0.3611,"crime_nivel":"Medio","crime_color":"#ff9800"},"geometry":{"type":"Polygon","coordinates":[[[-73.2162458279999,-40.7948009420666],[-73.21641847,-40.7945505790666],[-73.2160609269999,-40.7944820850666],[-73.2158031079999,-40.7945934890666],[-73.2150623239999,-40.7954864710666],[-73.2155070199999,-40.7957884930666],[-73.2164172649999,-40.7967650660666],[-73.2168042149999,-40.7959080900666],[-73.216272521,-40.7957518700666],[-73.2168597599999,-40.7957902250666],[-73.2177057519999,-40.7937372440666],[-73.2173535029999,-40.7935143730666],[-73.2172466519999,-40.7938940040666],[-73.2162458279999,-40.7948009420666]]]}},{"type":"Feature","properties":{"id":"10305011001058","commune":"Río Negro","code":"10305","gse":"C3","quintil":"Q3","nse_score":698.3,"educ":12.8,"educ_score":653.3,"hacin":1.141,"hacin_class":"Hacinamiento Leve","hacin_score":821.1,"auto_score":265.6,"n_per":73,"n_hog":32,"source_year":2024,"crime_score":0.3471,"crime_nivel":"Medio","crime_color":"#ff9800"},"geometry":{"type":"Polygon","coordinates":[[[-73.2131485419999,-40.7942451340666],[-73.2124523459999,-40.7951736820666],[-73.2131268789999,-40.7954610870666],[-73.2132939319999,-40.7952918460666],[-73.2132233359999,-40.7951475310666],[-73.2133752759999,-40.7951388430666],[-73.2132566459999,-40.7954283500666],[-73.213133233,-40.7954977080666],[-73.2124298509999,-40.7952053440666],[-73.2122816239999,-40.7954464350666],[-73.2136416029999,-40.7960168640666],[-73.2143228169999,-40.7951140090666],[-73.2131485419999,-40.7942451340666]]]}},{"type":"Feature","properties":{"id":"10305011001059","commune":"Río Negro","code":"10305","gse":"E","quintil":"Q1","nse_score":501.8,"educ":7.3,"educ_score":286.7,"hacin":1.357,"hacin_class":"Hacinamiento Leve","hacin_score":775.1,"auto_score":45.5,"n_per":19,"n_hog":7,"source_year":2024,"crime_score":0.3749,"crime_nivel":"Medio","crime_color":"#ff9800"},"geometry":{"type":"Polygon","coordinates":[[[-73.2115074269999,-40.7954304660666],[-73.2117712849999,-40.7953651910666],[-73.2121533879999,-40.7954813700666],[-73.2128117429999,-40.7945519570666],[-73.2122275529999,-40.7945638930666],[-73.2123156199999,-40.7943651020666],[-73.2122256009999,-40.7943020110666],[-73.2115074269999,-40.7954304660666]]]}},{"type":"Feature","properties":{"id":"10305011001060","commune":"Río Negro","code":"10305","gse":"C2","quintil":"Q4","nse_score":739.9,"educ":11.0,"educ_score":533.3,"hacin":0.667,"hacin_class":"Sin Hacinamiento","hacin_score":922.0,"auto_score":125.0,"n_per":8,"n_hog":4,"source_year":2024,"crime_score":0.3284,"crime_nivel":"Medio","crime_color":"#ff9800"},"geometry":{"type":"Polygon","coordinates":[[[-73.2177427469999,-40.7953229380666],[-73.2177907329999,-40.7945659340666],[-73.217590491,-40.7944879840666],[-73.2172407469999,-40.7952087980666],[-73.2177427469999,-40.7953229380666]]]}},{"type":"Feature","properties":{"id":"10305011001062","commune":"Río Negro","code":"10305","gse":"C2","quintil":"Q3","nse_score":718.6,"educ":11.3,"educ_score":553.3,"hacin":1.25,"hacin_class":"Hacinamiento Leve","hacin_score":797.9,"auto_score":184.2,"n_per":50,"n_hog":19,"source_year":2024,"crime_score":0.3394,"crime_nivel":"Medio","crime_color":"#ff9800"},"geometry":{"type":"Polygon","coordinates":[[[-73.2129872309999,-40.7988225330666],[-73.2134700959999,-40.7988176840666],[-73.2131735689999,-40.7975498090666],[-73.2141370069999,-40.7967849150666],[-73.2142960229999,-40.7962606840666],[-73.2148273919999,-40.7955885410666],[-73.2148898009999,-40.7954590310666],[-73.2144393459999,-40.7951764580666],[-73.2127832699999,-40.7974735010666],[-73.2129872309999,-40.7988225330666]]]}},{"type":"Feature","properties":{"id":"10305011001063","commune":"Río Negro","code":"10305","gse":"ABC1","quintil":"Q5","nse_score":841.8,"educ":16.3,"educ_score":886.7,"hacin":1.286,"hacin_class":"Hacinamiento Leve","hacin_score":790.3,"auto_score":0.0,"n_per":9,"n_hog":4,"source_year":2024,"crime_score":0.3096,"crime_nivel":"Medio","crime_color":"#ff9800"},"geometry":{"type":"Polygon","coordinates":[[[-73.217805961,-40.7962798490666],[-73.2177885549999,-40.7954094910666],[-73.2172062779999,-40.7953009560666],[-73.2168586719999,-40.7961143130666],[-73.217805961,-40.7962798490666]]]}},{"type":"Feature","properties":{"id":"10305011001064","commune":"Río Negro","code":"10305","gse":"E","quintil":"Q1","nse_score":588.3,"educ":11.5,"educ_score":566.7,"hacin":1.452,"hacin_class":"Hacinamiento Leve","hacin_score":755.0,"auto_score":135.1,"n_per":90,"n_hog":34,"source_year":2024,"crime_score":0.3713,"crime_nivel":"Medio","crime_color":"#ff9800"},"geometry":{"type":"Polygon","coordinates":[[[-73.2115819719999,-40.7954499030666],[-73.2111219769999,-40.7960716130666],[-73.2109872689999,-40.7969344630666],[-73.2118296489999,-40.8024446300666],[-73.2119515759999,-40.8024572060666],[-73.2133313509999,-40.8019599110666],[-73.2134116059999,-40.8012570970666],[-73.2129608119999,-40.8008943010665],[-73.212798673,-40.8002969980666],[-73.2131062269999,-40.7997554330666],[-73.2139246989999,-40.7995929050666],[-73.2139833509999,-40.7994390580666],[-73.2135124749999,-40.7988565350666],[-73.2129923939999,-40.7988465740666],[-73.2130358729999,-40.7995323880666],[-73.2129103069999,-40.7989062850666],[-73.2121124289999,-40.7989597690666],[-73.2125391129999,-40.8019388100666],[-73.2124755179999,-40.8018492220666],[-73.2119323039999,-40.8018782750666],[-73.2124707969999,-40.8018223890666],[-73.2124366609999,-40.8016127130666],[-73.2118975289999,-40.8016410720666],[-73.2124326209999,-40.8015858430666],[-73.2123994949999,-40.8013742190666],[-73.2118616619999,-40.8014117750666],[-73.2123959059999,-40.8013473370666],[-73.212360971,-40.8010945470666],[-73.211816257,-40.8011296000666],[-73.212356456,-40.8010677230666],[-73.2120389689999,-40.7989433040666],[-73.211713733,-40.7989273290666],[-73.2120305469999,-40.7988871670666],[-73.2118625229999,-40.7977509980666],[-73.2115519399999,-40.7976775130666],[-73.2118264459999,-40.7976470810666],[-73.2116812769999,-40.7964663630666],[-73.2121457479999,-40.7954922410666],[-73.2117631489999,-40.7953768650666],[-73.2115819719999,-40.7954499030666]]]}},{"type":"Feature","properties":{"id":"10305011001065","commune":"Río Negro","code":"10305","gse":"D","quintil":"Q1","nse_score":619.8,"educ":9.8,"educ_score":453.3,"hacin":1.326,"hacin_class":"Hacinamiento Leve","hacin_score":781.7,"auto_score":200.0,"n_per":61,"n_hog":22,"source_year":2024,"crime_score":0.3601,"crime_nivel":"Medio","crime_color":"#ff9800"},"geometry":{"type":"Polygon","coordinates":[[[-73.2122729969999,-40.7955427660666],[-73.2118807369999,-40.7960611270666],[-73.2117774709999,-40.7967465590666],[-73.2128549689999,-40.7971912230666],[-73.2136283309999,-40.7961106330666],[-73.2122729969999,-40.7955427660666]]]}},{"type":"Feature","properties":{"id":"10305011001066","commune":"Río Negro","code":"10305","gse":"D","quintil":"Q1","nse_score":638.3,"educ":10.5,"educ_score":500.0,"hacin":1.217,"hacin_class":"Hacinamiento Leve","hacin_score":804.8,"auto_score":109.4,"n_per":84,"n_hog":31,"source_year":2024,"crime_score":0.3605,"crime_nivel":"Medio","crime_color":"#ff9800"},"geometry":{"type":"Polygon","coordinates":[[[-73.2144101029999,-40.7986678080666],[-73.214844851,-40.7986128560666],[-73.2147473289999,-40.7981295140666],[-73.2151052099999,-40.7980799240666],[-73.2151217679999,-40.7978733590666],[-73.2152953489999,-40.7986060450666],[-73.2158168209999,-40.7985427690666],[-73.2152395119999,-40.7956817540666],[-73.2150248769999,-40.7955387150666],[-73.2143995739999,-40.7963110200666],[-73.214287441,-40.7968373270666],[-73.2133928179999,-40.7975732930666],[-73.2135696409999,-40.7984098040666],[-73.2138699019999,-40.7986354830666],[-73.2141399599999,-40.7985592990666],[-73.2144101029999,-40.7986678080666]]]}},{"type":"Feature","properties":{"id":"10305011001067","commune":"Río Negro","code":"10305","gse":"C2","quintil":"Q3","nse_score":724.5,"educ":11.7,"educ_score":580.0,"hacin":1.462,"hacin_class":"Hacinamiento Leve","hacin_score":752.9,"auto_score":250.0,"n_per":19,"n_hog":6,"source_year":2024,"crime_score":0.3331,"crime_nivel":"Medio","crime_color":"#ff9800"},"geometry":{"type":"Polygon","coordinates":[[[-73.2160641809999,-40.7966358370666],[-73.2154317819999,-40.7958228200666],[-73.2153627259999,-40.7958033760666],[-73.2154791709999,-40.7968370330666],[-73.2160641809999,-40.7966358370666]]]}},{"type":"Feature","properties":{"id":"10305011001068","commune":"Río Negro","code":"10305","gse":"D","quintil":"Q2","nse_score":659.5,"educ":11.2,"educ_score":546.7,"hacin":1.75,"hacin_class":"Hacinamiento Medio","hacin_score":691.5,"auto_score":166.7,"n_per":14,"n_hog":6,"source_year":2024,"crime_score":0.3445,"crime_nivel":"Medio","crime_color":"#ff9800"},"geometry":{"type":"Polygon","coordinates":[[[-73.2160992909999,-40.7966791680666],[-73.2154984809999,-40.7969038100666],[-73.2156757999999,-40.7976032250666],[-73.2166091059999,-40.7974581280666],[-73.2164998769999,-40.7970353200666],[-73.2160992909999,-40.7966791680666]]]}},{"type":"Feature","properties":{"id":"10305011001069","commune":"Río Negro","code":"10305","gse":"E","quintil":"Q1","nse_score":478.3,"educ":10.0,"educ_score":466.7,"hacin":1.429,"hacin_class":"Hacinamiento Leve","hacin_score":759.9,"auto_score":181.8,"n_per":30,"n_hog":11,"source_year":2024,"crime_score":0.3814,"crime_nivel":"Medio","crime_color":"#ff9800"},"geometry":{"type":"Polygon","coordinates":[[[-73.2126156079999,-40.7975727830666],[-73.2127977499999,-40.7972386190666],[-73.2118057239999,-40.7968641900666],[-73.2119169519999,-40.7976221280666],[-73.2126156079999,-40.7975727830666]]]}},{"type":"Feature","properties":{"id":"10305011001070","commune":"Río Negro","code":"10305","gse":"C2","quintil":"Q4","nse_score":725.5,"educ":13.5,"educ_score":700.0,"hacin":1.154,"hacin_class":"Hacinamiento Leve","hacin_score":818.3,"auto_score":62.5,"n_per":15,"n_hog":7,"source_year":2024,"crime_score":0.3323,"crime_nivel":"Medio","crime_color":"#ff9800"},"geometry":{"type":"Polygon","coordinates":[[[-73.2159375079999,-40.7985553550666],[-73.2168405969999,-40.7984458210666],[-73.2166577859999,-40.7975702180666],[-73.2156982739999,-40.7976758160666],[-73.2159375079999,-40.7985553550666]]]}},{"type":"Feature","properties":{"id":"10305011001071","commune":"Río Negro","code":"10305","gse":"E","quintil":"Q1","nse_score":614.7,"educ":9.5,"educ_score":433.3,"hacin":1.139,"hacin_class":"Hacinamiento Leve","hacin_score":821.4,"auto_score":275.0,"n_per":49,"n_hog":19,"source_year":2024,"crime_score":0.359,"crime_nivel":"Medio","crime_color":"#ff9800"},"geometry":{"type":"Polygon","coordinates":[[[-73.2126942039999,-40.7976475950666],[-73.2119223459999,-40.7977303060666],[-73.2121103649999,-40.7988776750666],[-73.2128986629999,-40.7987968390666],[-73.2126942039999,-40.7976475950666]]]}},{"type":"Feature","properties":{"id":"10305011001072","commune":"Río Negro","code":"10305","gse":"C3","quintil":"Q3","nse_score":702.4,"educ":11.0,"educ_score":533.3,"hacin":1.167,"hacin_class":"Hacinamiento Leve","hacin_score":815.6,"auto_score":277.8,"n_per":21,"n_hog":9,"source_year":2024,"crime_score":0.3376,"crime_nivel":"Medio","crime_color":"#ff9800"},"geometry":{"type":"Polygon","coordinates":[[[-73.2149360049999,-40.7986526410666],[-73.2152210149999,-40.7986109300666],[-73.2151160059999,-40.7981193650666],[-73.2147998369999,-40.7981650070666],[-73.2149360049999,-40.7986526410666]]]}},{"type":"Feature","properties":{"id":"10305011001042","commune":"Río Negro","code":"10305","gse":"E","quintil":"Q1","nse_score":511.9,"educ":7.4,"educ_score":293.3,"hacin":1.727,"hacin_class":"Hacinamiento Medio","hacin_score":696.3,"auto_score":71.4,"n_per":19,"n_hog":7,"source_year":2024,"crime_score":0.373,"crime_nivel":"Medio","crime_color":"#ff9800"},"geometry":{"type":"MultiPolygon","coordinates":[[[[-73.2134827309999,-40.7924658690666],[-73.2138053729999,-40.7920995340666],[-73.2131190409999,-40.7917693090666],[-73.2131077699999,-40.7922428120666],[-73.2134827309999,-40.7924658690666]]],[[[-73.2123243189999,-40.7919658960667],[-73.2130829489999,-40.7922320990666],[-73.2130977619999,-40.7917628540666],[-73.2127592739999,-40.7916463600666],[-73.2123243189999,-40.7919658960667]]],[[[-73.2137980119999,-40.7920717710666],[-73.2146089109999,-40.7910631740666],[-73.2147188529999,-40.7908828270667],[-73.2141276679999,-40.7906418230666],[-73.2138661219999,-40.7908219860666],[-73.2132405329999,-40.7917116480666],[-73.2137980119999,-40.7920717710666]]]]}},{"type":"Feature","properties":{"id":"10305011001005","commune":"Río Negro","code":"10305","gse":"D","quintil":"Q2","nse_score":656.9,"educ":11.1,"educ_score":540.0,"hacin":1.289,"hacin_class":"Hacinamiento Leve","hacin_score":789.6,"auto_score":120.0,"n_per":58,"n_hog":24,"source_year":2024,"crime_score":0.3525,"crime_nivel":"Medio","crime_color":"#ff9800"},"geometry":{"type":"MultiPolygon","coordinates":[[[[-73.2118063819999,-40.7857400500667],[-73.2119358279999,-40.7855762200667],[-73.2116769679999,-40.7854290870667],[-73.2115424659999,-40.7855038170667],[-73.2118063819999,-40.7857400500667]]],[[[-73.2114542219999,-40.7859494430667],[-73.2116796609999,-40.7857519110666],[-73.2111774999999,-40.7852010170667],[-73.2108484189999,-40.7853233310666],[-73.2114542219999,-40.7859494430667]]]]}},{"type":"Feature","properties":{"id":"10305011002001","commune":"Río Negro","code":"10305","gse":"C3","quintil":"Q2","nse_score":671.1,"educ":11.3,"educ_score":553.3,"hacin":1.0,"hacin_class":"Hacinamiento Leve","hacin_score":851.1,"auto_score":138.9,"n_per":34,"n_hog":16,"source_year":2024,"crime_score":0.3457,"crime_nivel":"Medio","crime_color":"#ff9800"},"geometry":{"type":"Polygon","coordinates":[[[-73.2214453159999,-40.7964363160666],[-73.2201707549999,-40.7934851560666],[-73.219322701,-40.7932558860666],[-73.2193565599999,-40.7937605760666],[-73.2185644749999,-40.7943534980666],[-73.2184717709999,-40.7956218220666],[-73.2185600939999,-40.7960823070666],[-73.2201791499999,-40.7960361490666],[-73.2200315969999,-40.7956273450666],[-73.2196073719999,-40.7952505730666],[-73.2194090779999,-40.7949931290666],[-73.2199803439999,-40.7955316170666],[-73.2200219519999,-40.7950683060666],[-73.2200270239999,-40.7955807780666],[-73.2201527239999,-40.7958176010666],[-73.2204193489999,-40.7956991920666],[-73.2205069759999,-40.7954973760666],[-73.2201321239999,-40.7949679670666],[-73.2200165249999,-40.7943272310666],[-73.2200680369999,-40.7941698440666],[-73.2201780489999,-40.7949584050666],[-73.2205544999999,-40.7954933010666],[-73.2204550349999,-40.7957239510666],[-73.2201697489999,-40.7958512600666],[-73.2203440629999,-40.7966071830666],[-73.2214453159999,-40.7964363160666]]]}},{"type":"Feature","properties":{"id":"10305011002002","commune":"Río Negro","code":"10305","gse":"D","quintil":"Q1","nse_score":632.3,"educ":10.4,"educ_score":493.3,"hacin":1.318,"hacin_class":"Hacinamiento Leve","hacin_score":783.4,"auto_score":41.7,"n_per":29,"n_hog":10,"source_year":2024,"crime_score":0.3522,"crime_nivel":"Medio","crime_color":"#ff9800"},"geometry":{"type":"Polygon","coordinates":[[[-73.2179014929999,-40.7963097760666],[-73.2183523519999,-40.7969049570666],[-73.2193156869999,-40.7975737160666],[-73.2195689859999,-40.7968687930666],[-73.2202657099999,-40.7966250710666],[-73.2202235389999,-40.7961138520666],[-73.2199438259999,-40.7960687300666],[-73.2186967599999,-40.7960466870666],[-73.2179014929999,-40.7963097760666]]]}},{"type":"Feature","properties":{"id":"10305011002003","commune":"Río Negro","code":"10305","gse":"D","quintil":"Q2","nse_score":657.6,"educ":10.8,"educ_score":520.0,"hacin":1.244,"hacin_class":"Hacinamiento Leve","hacin_score":799.1,"auto_score":245.9,"n_per":163,"n_hog":61,"source_year":2024,"crime_score":0.3703,"crime_nivel":"Medio","crime_color":"#ff9800"},"geometry":{"type":"Polygon","coordinates":[[[-73.2194407649999,-40.7975683500666],[-73.2208720829999,-40.7976694340666],[-73.2211216599999,-40.7981153920666],[-73.2218303779999,-40.7980529400666],[-73.2217889309999,-40.7976319100666],[-73.2211149369999,-40.7976397230666],[-73.2218172949999,-40.7976099320666],[-73.2218657799999,-40.7980503940666],[-73.2224297139999,-40.7980078240666],[-73.2221593029999,-40.7980580420666],[-73.2223128719999,-40.7984596620666],[-73.2226432559999,-40.7985119540666],[-73.2223200549999,-40.7985044940666],[-73.2223489969999,-40.7988222240666],[-73.2221242629999,-40.7980606770666],[-73.2211246109999,-40.7981513790666],[-73.2216882639999,-40.7995315240666],[-73.2224374309999,-40.7998952810666],[-73.2230737399999,-40.8008473790666],[-73.2234056049999,-40.8010871100665],[-73.2245991039999,-40.8011335150666],[-73.2234966979999,-40.8004547140666],[-73.2226545729999,-40.7995619440666],[-73.2235310359999,-40.8004299180666],[-73.22444293,-40.8010080140666],[-73.2246699589999,-40.8011269330666],[-73.2251264769999,-40.8009509360666],[-73.2238572549999,-40.8001943650666],[-73.2228743149999,-40.7992133190666],[-73.2227353749999,-40.7961073070666],[-73.2196457199999,-40.7968937580666],[-73.2194407649999,-40.7975683500666]]]}},{"type":"Feature","properties":{"id":"10305011002004","commune":"Río Negro","code":"10305","gse":"C2","quintil":"Q4","nse_score":770.3,"educ":12.0,"educ_score":600.0,"hacin":1.0,"hacin_class":"Hacinamiento Leve","hacin_score":851.1,"auto_score":62.5,"n_per":18,"n_hog":8,"source_year":2024,"crime_score":0.3244,"crime_nivel":"Medio","crime_color":"#ff9800"},"geometry":{"type":"Polygon","coordinates":[[[-73.2167924949999,-40.7962352570666],[-73.2166108779999,-40.7969137170666],[-73.2169560589999,-40.7984012150666],[-73.2199756249999,-40.7998444630666],[-73.2195144189999,-40.7983649760666],[-73.2193088519999,-40.7983926100666],[-73.2189526889999,-40.7987459860666],[-73.2185253599999,-40.7987950560666],[-73.2172522649999,-40.7978258640666],[-73.2172004769999,-40.7973071990666],[-73.2175290989999,-40.7968003580666],[-73.2179531969999,-40.7965529330666],[-73.217812019,-40.7963098850666],[-73.2167924949999,-40.7962352570666]]]}},{"type":"Feature","properties":{"id":"10305011002005","commune":"Río Negro","code":"10305","gse":"D","quintil":"Q1","nse_score":631.4,"educ":10.0,"educ_score":466.7,"hacin":1.271,"hacin_class":"Hacinamiento Leve","hacin_score":793.4,"auto_score":116.7,"n_per":75,"n_hog":30,"source_year":2024,"crime_score":0.3603,"crime_nivel":"Medio","crime_color":"#ff9800"},"geometry":{"type":"Polygon","coordinates":[[[-73.2188181559999,-40.7973209810666],[-73.2180889839999,-40.7973891010666],[-73.2179826429999,-40.7975351070666],[-73.2180660959999,-40.7973565480666],[-73.2187137989999,-40.7972471000666],[-73.2179895929999,-40.7966100980666],[-73.2175376639999,-40.7969011080666],[-73.2172780089999,-40.7973245210666],[-73.2172635209999,-40.7976222790666],[-73.2174215579999,-40.7979045970666],[-73.2185239619999,-40.7987276550666],[-73.2188899899999,-40.7987014200666],[-73.2192926639999,-40.7983241700666],[-73.2195693759999,-40.7983178120666],[-73.2200296609999,-40.7997856380666],[-73.2202927009999,-40.7998297820666],[-73.2200270939999,-40.7984887300666],[-73.2193656899999,-40.7977074450666],[-73.2188181559999,-40.7973209810666]]]}},{"type":"Feature","properties":{"id":"10305011002006","commune":"Río Negro","code":"10305","gse":"D","quintil":"Q1","nse_score":620.3,"educ":10.9,"educ_score":526.7,"hacin":1.323,"hacin_class":"Hacinamiento Leve","hacin_score":782.2,"auto_score":125.0,"n_per":45,"n_hog":16,"source_year":2024,"crime_score":0.3572,"crime_nivel":"Medio","crime_color":"#ff9800"},"geometry":{"type":"Polygon","coordinates":[[[-73.2211744759999,-40.7984502200666],[-73.2208378429999,-40.7977132250666],[-73.2194828659999,-40.7977227650666],[-73.2201628109999,-40.7986043230666],[-73.2211744759999,-40.7984502200666]]]}},{"type":"Feature","properties":{"id":"10305011002007","commune":"Río Negro","code":"10305","gse":"D","quintil":"Q2","nse_score":667.3,"educ":11.3,"educ_score":553.3,"hacin":1.311,"hacin_class":"Hacinamiento Leve","hacin_score":784.9,"auto_score":105.3,"n_per":59,"n_hog":19,"source_year":2024,"crime_score":0.3507,"crime_nivel":"Medio","crime_color":"#ff9800"},"geometry":{"type":"Polygon","coordinates":[[[-73.2204462009999,-40.7998034150666],[-73.2216236339999,-40.7995725050666],[-73.2211962969999,-40.7985008470666],[-73.2201695909999,-40.7986433420666],[-73.2204462009999,-40.7998034150666]]]}},{"type":"Feature","properties":{"id":"10305011002008","commune":"Río Negro","code":"10305","gse":"C3","quintil":"Q3","nse_score":702.1,"educ":11.5,"educ_score":566.7,"hacin":0.909,"hacin_class":"Sin Hacinamiento","hacin_score":870.4,"auto_score":142.9,"n_per":10,"n_hog":6,"source_year":2024,"crime_score":0.3358,"crime_nivel":"Medio","crime_color":"#ff9800"},"geometry":{"type":"Polygon","coordinates":[[[-73.2167566639999,-40.7995044840666],[-73.2176887979999,-40.7996831950666],[-73.2178238039999,-40.7989169960666],[-73.2169867129999,-40.7985446440666],[-73.2167566639999,-40.7995044840666]]]}},{"type":"Feature","properties":{"id":"10305011002009","commune":"Río Negro","code":"10305","gse":"C3","quintil":"Q3","nse_score":713.7,"educ":11.1,"educ_score":540.0,"hacin":1.454,"hacin_class":"Hacinamiento Leve","hacin_score":754.4,"auto_score":142.9,"n_per":16,"n_hog":7,"source_year":2024,"crime_score":0.3347,"crime_nivel":"Medio","crime_color":"#ff9800"},"geometry":{"type":"Polygon","coordinates":[[[-73.2155452829999,-40.7992542470666],[-73.216644776,-40.7994465450666],[-73.2168277759999,-40.7985572310666],[-73.2158167559999,-40.7986735630666],[-73.2155452829999,-40.7992542470666]]]}},{"type":"Feature","properties":{"id":"10305011002010","commune":"Río Negro","code":"10305","gse":"E","quintil":"Q1","nse_score":603.1,"educ":10.7,"educ_score":513.3,"hacin":1.314,"hacin_class":"Hacinamiento Leve","hacin_score":784.3,"auto_score":229.2,"n_per":67,"n_hog":23,"source_year":2024,"crime_score":0.3644,"crime_nivel":"Medio","crime_color":"#ff9800"},"geometry":{"type":"Polygon","coordinates":[[[-73.2131094309999,-40.8037366150666],[-73.2157304049999,-40.7987022240666],[-73.2157120129999,-40.7986631150666],[-73.2145722249999,-40.7987586190666],[-73.2141165869999,-40.7986152860666],[-73.2138884809999,-40.7986752970666],[-73.2141898809999,-40.7991015760666],[-73.2143103059999,-40.7996236470666],[-73.2141181679999,-40.7997956960666],[-73.213224093,-40.7998821080666],[-73.2129793319999,-40.8003542040666],[-73.2130147479999,-40.8005363520666],[-73.2134430959999,-40.8008388070666],[-73.2130431389999,-40.8006887550666],[-73.2131229109999,-40.8009054600666],[-73.2135336689999,-40.8010638760666],[-73.2136123019999,-40.8016280880666],[-73.2135048339999,-40.8020726750666],[-73.2133647399999,-40.8022132800666],[-73.2128779329999,-40.8022381670666],[-73.2118614869999,-40.8026500600666],[-73.2119713229999,-40.8033752550666],[-73.2119761029999,-40.8027807160666],[-73.2120441409999,-40.8034028490666],[-73.2131094309999,-40.8037366150666]]]}},{"type":"Feature","properties":{"id":"10305011002011","commune":"Río Negro","code":"10305","gse":"C3","quintil":"Q3","nse_score":708.1,"educ":12.2,"educ_score":613.3,"hacin":1.579,"hacin_class":"Hacinamiento Medio","hacin_score":727.9,"auto_score":277.8,"n_per":30,"n_hog":9,"source_year":2024,"crime_score":0.338,"crime_nivel":"Medio","crime_color":"#ff9800"},"geometry":{"type":"Polygon","coordinates":[[[-73.217967498,-40.7989469600666],[-73.2174983079999,-40.8010608930666],[-73.2190405879999,-40.8014004880666],[-73.2192565809999,-40.8008978030666],[-73.2191151279999,-40.8006197970666],[-73.2191784309999,-40.8004024230666],[-73.2201864469999,-40.8001908010666],[-73.220028522,-40.7999139110666],[-73.217967498,-40.7989469600666]]]}},{"type":"Feature","properties":{"id":"10305011002012","commune":"Río Negro","code":"10305","gse":"E","quintil":"Q1","nse_score":564.5,"educ":9.3,"educ_score":420.0,"hacin":1.333,"hacin_class":"Hacinamiento Leve","hacin_score":780.1,"auto_score":0.0,"n_per":16,"n_hog":5,"source_year":2024,"crime_score":0.3626,"crime_nivel":"Medio","crime_color":"#ff9800"},"geometry":{"type":"Polygon","coordinates":[[[-73.2155085789999,-40.7993101590666],[-73.2149258959999,-40.8004100170666],[-73.2160217149999,-40.8006826140666],[-73.2165962329999,-40.7995993790666],[-73.2155085789999,-40.7993101590666]]]}},{"type":"Feature","properties":{"id":"10305011002013","commune":"Río Negro","code":"10305","gse":"C2","quintil":"Q4","nse_score":739.2,"educ":12.1,"educ_score":606.7,"hacin":1.25,"hacin_class":"Hacinamiento Leve","hacin_score":797.9,"auto_score":214.3,"n_per":40,"n_hog":14,"source_year":2024,"crime_score":0.3338,"crime_nivel":"Medio","crime_color":"#ff9800"},"geometry":{"type":"Polygon","coordinates":[[[-73.2173854349999,-40.8010086140666],[-73.2176529279999,-40.7997833490666],[-73.2167113529999,-40.7996118780666],[-73.2161577659999,-40.8006970590666],[-73.2173854349999,-40.8010086140666]]]}},{"type":"Feature","properties":{"id":"10305011002014","commune":"Río Negro","code":"10305","gse":"C3","quintil":"Q2","nse_score":670.1,"educ":10.2,"educ_score":480.0,"hacin":1.063,"hacin_class":"Hacinamiento Leve","hacin_score":837.6,"auto_score":85.4,"n_per":101,"n_hog":39,"source_year":2024,"crime_score":0.3573,"crime_nivel":"Medio","crime_color":"#ff9800"},"geometry":{"type":"Polygon","coordinates":[[[-73.2213037749999,-40.8002046120666],[-73.2210614019999,-40.7997682250666],[-73.2204149399999,-40.7998776080666],[-73.2207126059999,-40.8011239400666],[-73.2212149329999,-40.8010679110666],[-73.2219338549999,-40.8022943420666],[-73.2212032879999,-40.8011088980666],[-73.2207243809999,-40.8011624050666],[-73.2212260879999,-40.8021416460666],[-73.2216833289999,-40.8039610870666],[-73.2214681149999,-40.8047710920666],[-73.2215118619999,-40.8050373200666],[-73.2223940099999,-40.8049780440666],[-73.2215227359999,-40.8050784730665],[-73.2217329699999,-40.8057958610665],[-73.2223131659999,-40.8057550810665],[-73.2228932289999,-40.8059503020665],[-73.2235840969999,-40.8059598860665],[-73.2232268479999,-40.8048639370666],[-73.2234200759999,-40.8042755740665],[-73.2233879249999,-40.8037119660666],[-73.2228174009999,-40.8015532660666],[-73.2225343289999,-40.8011716290666],[-73.2236100619999,-40.8011652840666],[-73.2230110509999,-40.8008660530666],[-73.2224408229999,-40.7999632670666],[-73.2220790119999,-40.7996814570666],[-73.2217502469999,-40.7996207570666],[-73.2210844209999,-40.7997629050666],[-73.2213037749999,-40.8002046120666]]]}},{"type":"Feature","properties":{"id":"10305011002015","commune":"Río Negro","code":"10305","gse":"C3","quintil":"Q3","nse_score":696.0,"educ":12.1,"educ_score":606.7,"hacin":1.316,"hacin_class":"Hacinamiento Leve","hacin_score":783.9,"auto_score":90.9,"n_per":25,"n_hog":9,"source_year":2024,"crime_score":0.3395,"crime_nivel":"Medio","crime_color":"#ff9800"},"geometry":{"type":"Polygon","coordinates":[[[-73.220113335,-40.7999106670666],[-73.2202635369999,-40.8001537970666],[-73.2202017109999,-40.8002849890666],[-73.2192196689999,-40.8004694480666],[-73.2193369299999,-40.8009030070666],[-73.2191182999999,-40.8014183900666],[-73.2208400689999,-40.8017440290666],[-73.2203417859999,-40.7999447590666],[-73.220113335,-40.7999106670666]]]}},{"type":"Feature","properties":{"id":"10305011002016","commune":"Río Negro","code":"10305","gse":"C3","quintil":"Q2","nse_score":667.9,"educ":11.8,"educ_score":586.7,"hacin":1.28,"hacin_class":"Hacinamiento Leve","hacin_score":791.4,"auto_score":125.0,"n_per":105,"n_hog":45,"source_year":2024,"crime_score":0.3584,"crime_nivel":"Medio","crime_color":"#ff9800"},"geometry":{"type":"Polygon","coordinates":[[[-73.2148593319999,-40.8005008670666],[-73.2131563259999,-40.8037472500666],[-73.2140753209999,-40.8040243330666],[-73.2159738319999,-40.8007398840666],[-73.2148593319999,-40.8005008670666]]]}},{"type":"Feature","properties":{"id":"10305011002017","commune":"Río Negro","code":"10305","gse":"C2","quintil":"Q3","nse_score":725.3,"educ":12.6,"educ_score":640.0,"hacin":1.564,"hacin_class":"Hacinamiento Medio","hacin_score":731.0,"auto_score":277.8,"n_per":61,"n_hog":18,"source_year":2024,"crime_score":0.3399,"crime_nivel":"Medio","crime_color":"#ff9800"},"geometry":{"type":"Polygon","coordinates":[[[-73.2166974039999,-40.8023334910666],[-73.2173951709999,-40.8010921780666],[-73.2161281209999,-40.8007859590666],[-73.2153396289999,-40.8020147810665],[-73.2166974039999,-40.8023334910666]]]}},{"type":"Feature","properties":{"id":"10305011002018","commune":"Río Negro","code":"10305","gse":"C3","quintil":"Q3","nse_score":687.0,"educ":10.9,"educ_score":526.7,"hacin":1.417,"hacin_class":"Hacinamiento Leve","hacin_score":762.4,"auto_score":71.4,"n_per":51,"n_hog":21,"source_year":2024,"crime_score":0.3456,"crime_nivel":"Medio","crime_color":"#ff9800"},"geometry":{"type":"Polygon","coordinates":[[[-73.2174920949999,-40.8010804340665],[-73.2164734469999,-40.8031757810666],[-73.2176119149999,-40.8034158730666],[-73.218488841,-40.8031921520666],[-73.2191979249999,-40.8038464560666],[-73.2194625359999,-40.8037028910666],[-73.2198613999999,-40.8031942460666],[-73.2203989039999,-40.8020218730666],[-73.2201188749999,-40.8019832330666],[-73.2196145489999,-40.8023887320666],[-73.2192000419999,-40.8024761060665],[-73.2190385579999,-40.8023575010666],[-73.2190374169999,-40.8014119270666],[-73.2174920949999,-40.8010804340665]]]}},{"type":"Feature","properties":{"id":"10305011002019","commune":"Río Negro","code":"10305","gse":"E","quintil":"Q1","nse_score":573.4,"educ":8.5,"educ_score":366.7,"hacin":1.305,"hacin_class":"Hacinamiento Leve","hacin_score":786.2,"auto_score":166.7,"n_per":77,"n_hog":32,"source_year":2024,"crime_score":0.3719,"crime_nivel":"Medio","crime_color":"#ff9800"},"geometry":{"type":"Polygon","coordinates":[[[-73.2191146279999,-40.8014307270666],[-73.2191195179999,-40.8023576700666],[-73.2193013439999,-40.8024381250666],[-73.2200798959999,-40.8019292140666],[-73.2204075489999,-40.8019113000666],[-73.2204819329999,-40.8020510790666],[-73.2199323379999,-40.8032234450666],[-73.2195267409999,-40.8037400940666],[-73.219246714,-40.8038954240666],[-73.2194294569999,-40.8040400870665],[-73.2201973529999,-40.8037487320665],[-73.22013591,-40.8034262920666],[-73.2210431969999,-40.8050613500666],[-73.2213656929999,-40.8049663360666],[-73.2216035039999,-40.8040426390666],[-73.221056185,-40.8020008450666],[-73.2208782719999,-40.8018093850666],[-73.2191146279999,-40.8014307270666]]]}},{"type":"Feature","properties":{"id":"10305011002022","commune":"Río Negro","code":"10305","gse":"D","quintil":"Q1","nse_score":630.4,"educ":10.2,"educ_score":480.0,"hacin":1.326,"hacin_class":"Hacinamiento Leve","hacin_score":781.8,"auto_score":128.2,"n_per":171,"n_hog":73,"source_year":2024,"crime_score":0.3772,"crime_nivel":"Medio","crime_color":"#ff9800"},"geometry":{"type":"Polygon","coordinates":[[[-73.2164652379999,-40.8032477170665],[-73.215807906,-40.8044295670666],[-73.2162106859999,-40.8045726260665],[-73.2164447409999,-40.8043230330666],[-73.216335952,-40.8045252900666],[-73.2165443979999,-40.8045901270665],[-73.2166778609999,-40.8049096290666],[-73.2161398409999,-40.8057247940666],[-73.2166027659999,-40.8047700170666],[-73.2162093559999,-40.8046399850666],[-73.2158977669999,-40.8051242050665],[-73.2161436899999,-40.8046175310666],[-73.2157434549999,-40.8045254950666],[-73.2154473339999,-40.8050959780666],[-73.2159631439999,-40.8052680810666],[-73.2154010369999,-40.8051602990666],[-73.2153005849999,-40.8053609720666],[-73.2157994009999,-40.8055701060666],[-73.2152683439999,-40.8054138900666],[-73.215163748,-40.8056054910666],[-73.2157092089999,-40.8057860710666],[-73.2151356799999,-40.8056752280665],[-73.2150713869999,-40.8058536710666],[-73.2166498079999,-40.8062880070665],[-73.2169259139999,-40.8061518700666],[-73.2177117499999,-40.8061527550665],[-73.2184370659999,-40.8053891900665],[-73.2181252299999,-40.8050102760666],[-73.2180985499999,-40.8045054210666],[-73.2191498309999,-40.8038749880666],[-73.2184389559999,-40.8033375800666],[-73.2176134279999,-40.8034833660666],[-73.2164652379999,-40.8032477170665]]]}},{"type":"Feature","properties":{"id":"10305011002023","commune":"Río Negro","code":"10305","gse":"C2","quintil":"Q4","nse_score":738.0,"educ":11.7,"educ_score":580.0,"hacin":1.25,"hacin_class":"Hacinamiento Leve","hacin_score":797.9,"auto_score":250.0,"n_per":45,"n_hog":17,"source_year":2024,"crime_score":0.3348,"crime_nivel":"Medio","crime_color":"#ff9800"},"geometry":{"type":"Polygon","coordinates":[[[-73.2107390339999,-40.8059515560665],[-73.2123631649999,-40.8066570320665],[-73.2140369699999,-40.8041017470666],[-73.2119798569999,-40.8034283210666],[-73.2119881919999,-40.8041975600665],[-73.2118075099999,-40.8047546000666],[-73.2113693089999,-40.8053834030666],[-73.2107390339999,-40.8059515560665]]]}},{"type":"Feature","properties":{"id":"10305011002024","commune":"Río Negro","code":"10305","gse":"E","quintil":"Q1","nse_score":571.5,"educ":8.3,"educ_score":353.3,"hacin":1.147,"hacin_class":"Hacinamiento Leve","hacin_score":819.9,"auto_score":52.6,"n_per":86,"n_hog":36,"source_year":2024,"crime_score":0.3738,"crime_nivel":"Medio","crime_color":"#ff9800"},"geometry":{"type":"Polygon","coordinates":[[[-73.2209431999999,-40.8051479950665],[-73.2202461719999,-40.8037938940666],[-73.2194538799999,-40.8040710010666],[-73.2200811089999,-40.8048736470666],[-73.2204780559999,-40.8050846110666],[-73.2209431999999,-40.8051479950665]]]}},{"type":"Feature","properties":{"id":"10305011002025","commune":"Río Negro","code":"10305","gse":"D","quintil":"Q1","nse_score":619.1,"educ":9.6,"educ_score":440.0,"hacin":1.639,"hacin_class":"Hacinamiento Medio","hacin_score":715.0,"auto_score":122.4,"n_per":141,"n_hog":52,"source_year":2024,"crime_score":0.3742,"crime_nivel":"Medio","crime_color":"#ff9800"},"geometry":{"type":"Polygon","coordinates":[[[-73.2168485089999,-40.8062312940665],[-73.2160245299999,-40.8068842370666],[-73.2159377639999,-40.8072510470666],[-73.2165601339999,-40.8080486830665],[-73.2160586109999,-40.8086936480665],[-73.2161224579999,-40.8089163360665],[-73.2155805819999,-40.8094982500665],[-73.2155219509999,-40.8097489670666],[-73.2156881029999,-40.8098382190665],[-73.2162833549999,-40.8096066300666],[-73.2165542079999,-40.8088461570665],[-73.2172990939999,-40.8077453590666],[-73.2174861839999,-40.8069103630665],[-73.2174573769999,-40.8067494370666],[-73.2172140419999,-40.8067441390665],[-73.2184750339999,-40.8063540720665],[-73.2188944739999,-40.8058261110666],[-73.2190817059999,-40.8053456380666],[-73.2185253169999,-40.8050415870666],[-73.2187450159999,-40.8047345680666],[-73.2184214249999,-40.8045646360666],[-73.2188339109999,-40.8046553200666],[-73.2193225569999,-40.8041232910666],[-73.2191952429999,-40.8039251990666],[-73.2181647619999,-40.8045429260666],[-73.2182268999999,-40.8049586990666],[-73.2185334049999,-40.8053419460666],[-73.2184605119999,-40.8055630450666],[-73.2180165609999,-40.8058594830666],[-73.2178124859999,-40.8061538610665],[-73.2168485089999,-40.8062312940665]]]}},{"type":"Feature","properties":{"id":"10305011002026","commune":"Río Negro","code":"10305","gse":"ABC1","quintil":"Q5","nse_score":817.2,"educ":13.2,"educ_score":680.0,"hacin":0.975,"hacin_class":"Sin Hacinamiento","hacin_score":856.4,"auto_score":235.3,"n_per":39,"n_hog":17,"source_year":2024,"crime_score":0.3189,"crime_nivel":"Medio","crime_color":"#ff9800"},"geometry":{"type":"Polygon","coordinates":[[[-73.214970821,-40.8058329280665],[-73.2156508659999,-40.8044946970666],[-73.2141587079999,-40.8041285840666],[-73.2133718689999,-40.8054386690666],[-73.214970821,-40.8058329280665]]]}},{"type":"Feature","properties":{"id":"10305011002029","commune":"Río Negro","code":"10305","gse":"E","quintil":"Q1","nse_score":607.3,"educ":8.3,"educ_score":353.3,"hacin":1.55,"hacin_class":"Hacinamiento Medio","hacin_score":734.0,"auto_score":41.7,"n_per":62,"n_hog":25,"source_year":2024,"crime_score":0.3627,"crime_nivel":"Medio","crime_color":"#ff9800"},"geometry":{"type":"Polygon","coordinates":[[[-73.2194762029999,-40.8058655390666],[-73.2197799859999,-40.8049983530665],[-73.2193893459999,-40.8048797250665],[-73.2190215489999,-40.8057288960666],[-73.2194762029999,-40.8058655390666]]]}},{"type":"Feature","properties":{"id":"10305011002031","commune":"Río Negro","code":"10305","gse":"E","quintil":"Q1","nse_score":548.5,"educ":8.9,"educ_score":393.3,"hacin":1.032,"hacin_class":"Hacinamiento Leve","hacin_score":844.3,"auto_score":103.4,"n_per":65,"n_hog":27,"source_year":2024,"crime_score":0.3745,"crime_nivel":"Medio","crime_color":"#ff9800"},"geometry":{"type":"Polygon","coordinates":[[[-73.2201545099999,-40.8058576310666],[-73.2201118759999,-40.8054124340666],[-73.2206746809999,-40.8054722810665],[-73.2209807679999,-40.8052238810666],[-73.2198762529999,-40.8050247010665],[-73.2195947109999,-40.8058847530666],[-73.2200087139999,-40.8059988770665],[-73.2201545099999,-40.8058576310666]]]}},{"type":"Feature","properties":{"id":"10305011002032","commune":"Río Negro","code":"10305","gse":"E","quintil":"Q1","nse_score":614.9,"educ":9.1,"educ_score":406.7,"hacin":1.302,"hacin_class":"Hacinamiento Leve","hacin_score":786.9,"auto_score":145.2,"n_per":82,"n_hog":31,"source_year":2024,"crime_score":0.3647,"crime_nivel":"Medio","crime_color":"#ff9800"},"geometry":{"type":"Polygon","coordinates":[[[-73.2212953999999,-40.8075446710666],[-73.2220643699999,-40.8072166530666],[-73.2214091589999,-40.8050921260666],[-73.2208042519999,-40.8054812160665],[-73.2213121389999,-40.8071668610665],[-73.2212182289999,-40.8074205160665],[-73.2212953999999,-40.8075446710666]]]}},{"type":"Feature","properties":{"id":"10305011002034","commune":"Río Negro","code":"10305","gse":"C3","quintil":"Q3","nse_score":710.0,"educ":12.0,"educ_score":600.0,"hacin":1.016,"hacin_class":"Hacinamiento Leve","hacin_score":847.6,"auto_score":307.1,"n_per":185,"n_hog":66,"source_year":2024,"crime_score":0.3635,"crime_nivel":"Medio","crime_color":"#ff9800"},"geometry":{"type":"Polygon","coordinates":[[[-73.2102281069999,-40.8097909750665],[-73.2113049039999,-40.8103985090665],[-73.2144555089999,-40.8059817490666],[-73.2163591349999,-40.8065113880665],[-73.2166498079999,-40.8062880070665],[-73.2133302049999,-40.8054804500666],[-73.2119263849999,-40.8074622330666],[-73.2128085659999,-40.8078096480665],[-73.2125652379999,-40.8081607880666],[-73.2116728369999,-40.8078186180665],[-73.2105943809999,-40.8092918880666],[-73.2116809849999,-40.8096209530665],[-73.2114774069999,-40.8096040150665],[-73.2111998979999,-40.8099604770665],[-73.2113745029999,-40.8100850620665],[-73.2104027369999,-40.8095720330665],[-73.2102281069999,-40.8097909750665]]]}},{"type":"Feature","properties":{"id":"10305011002037","commune":"Río Negro","code":"10305","gse":"C3","quintil":"Q2","nse_score":683.6,"educ":10.9,"educ_score":526.7,"hacin":1.253,"hacin_class":"Hacinamiento Leve","hacin_score":797.3,"auto_score":168.8,"n_per":223,"n_hog":73,"source_year":2024,"crime_score":0.3752,"crime_nivel":"Medio","crime_color":"#ff9800"},"geometry":{"type":"Polygon","coordinates":[[[-73.2107390339999,-40.8059515560665],[-73.2079797329999,-40.8080334460666],[-73.2098100529999,-40.8089796580665],[-73.2095711409999,-40.8092921680666],[-73.2102508169999,-40.8096397090666],[-73.2106937139999,-40.8089130260665],[-73.2099491909999,-40.8085339520666],[-73.2097867839999,-40.8087320370665],[-73.2101125999999,-40.8089469770666],[-73.2088125799999,-40.8082358920665],[-73.2089813489999,-40.8082730130666],[-73.2094827719999,-40.8076356520665],[-73.2103124019999,-40.8080676650666],[-73.2102627879999,-40.8082595740665],[-73.2109732719999,-40.8086082110665],[-73.2113232049999,-40.8080919820666],[-73.2105736359999,-40.8077253860666],[-73.2113798549999,-40.8080436630665],[-73.212337294,-40.8066933830665],[-73.2107390339999,-40.8059515560665]]]}},{"type":"Feature","properties":{"id":"10305011002038","commune":"Río Negro","code":"10305","gse":"E","quintil":"Q1","nse_score":602.0,"educ":8.6,"educ_score":373.3,"hacin":1.458,"hacin_class":"Hacinamiento Leve","hacin_score":753.5,"auto_score":133.3,"n_per":35,"n_hog":14,"source_year":2024,"crime_score":0.3589,"crime_nivel":"Medio","crime_color":"#ff9800"},"geometry":{"type":"Polygon","coordinates":[[[-73.2197394749999,-40.8067888590666],[-73.2201694429999,-40.8067094690666],[-73.2200262349999,-40.8060707610666],[-73.2195765379999,-40.8061610160665],[-73.2197394749999,-40.8067888590666]]]}},{"type":"Feature","properties":{"id":"10305011002039","commune":"Río Negro","code":"10305","gse":"E","quintil":"Q1","nse_score":582.8,"educ":7.8,"educ_score":320.0,"hacin":1.269,"hacin_class":"Hacinamiento Leve","hacin_score":793.8,"auto_score":41.7,"n_per":33,"n_hog":12,"source_year":2024,"crime_score":0.3622,"crime_nivel":"Medio","crime_color":"#ff9800"},"geometry":{"type":"Polygon","coordinates":[[[-73.2202894549999,-40.8067079870665],[-73.2210516579999,-40.8065864280666],[-73.2209464919999,-40.8061519770666],[-73.2201518889999,-40.8062262840665],[-73.2202894549999,-40.8067079870665]]]}},{"type":"Feature","properties":{"id":"10305011002040","commune":"Río Negro","code":"10305","gse":"E","quintil":"Q1","nse_score":600.0,"educ":9.5,"educ_score":433.3,"hacin":1.396,"hacin_class":"Hacinamiento Leve","hacin_score":766.8,"auto_score":0.0,"n_per":67,"n_hog":26,"source_year":2024,"crime_score":0.365,"crime_nivel":"Medio","crime_color":"#ff9800"},"geometry":{"type":"Polygon","coordinates":[[[-73.2191657189999,-40.8066105630665],[-73.2190608349999,-40.8066226360665],[-73.2190052729999,-40.8062266920666],[-73.2185725129999,-40.8063484620666],[-73.2186584839999,-40.8068971990666],[-73.2196071569999,-40.8068071740665],[-73.2195178259999,-40.8061710090666],[-73.2191026779999,-40.8062105400666],[-73.2191657189999,-40.8066105630665]]]}},{"type":"Feature","properties":{"id":"10305011002041","commune":"Río Negro","code":"10305","gse":"E","quintil":"Q1","nse_score":592.5,"educ":9.2,"educ_score":413.3,"hacin":1.386,"hacin_class":"Hacinamiento Leve","hacin_score":768.9,"auto_score":51.7,"n_per":79,"n_hog":28,"source_year":2024,"crime_score":0.3685,"crime_nivel":"Medio","crime_color":"#ff9800"},"geometry":{"type":"Polygon","coordinates":[[[-73.21758933,-40.8067713270665],[-73.217860346,-40.8075151530665],[-73.2195748699999,-40.8072388750666],[-73.2194749069999,-40.8068939510666],[-73.2186115739999,-40.8069135900666],[-73.2185201129999,-40.8064238590666],[-73.21758933,-40.8067713270665]]]}},{"type":"Feature","properties":{"id":"10305011002042","commune":"Río Negro","code":"10305","gse":"E","quintil":"Q1","nse_score":587.7,"educ":9.4,"educ_score":426.7,"hacin":1.6,"hacin_class":"Hacinamiento Medio","hacin_score":723.4,"auto_score":66.7,"n_per":40,"n_hog":14,"source_year":2024,"crime_score":0.3625,"crime_nivel":"Medio","crime_color":"#ff9800"},"geometry":{"type":"Polygon","coordinates":[[[-73.219633412,-40.8070844820665],[-73.2206702329999,-40.8069787840666],[-73.2211504319999,-40.8068696280666],[-73.2210676749999,-40.8066569370666],[-73.2203029929999,-40.8067603520665],[-73.2195896929999,-40.8068750950666],[-73.219633412,-40.8070844820665]]]}},{"type":"Feature","properties":{"id":"10305011002043","commune":"Río Negro","code":"10305","gse":"E","quintil":"Q1","nse_score":580.8,"educ":9.2,"educ_score":413.3,"hacin":1.625,"hacin_class":"Hacinamiento Medio","hacin_score":718.1,"auto_score":125.0,"n_per":13,"n_hog":4,"source_year":2024,"crime_score":0.359,"crime_nivel":"Medio","crime_color":"#ff9800"},"geometry":{"type":"Polygon","coordinates":[[[-73.2177771219999,-40.8074910200665],[-73.2175128309999,-40.8067807060665],[-73.2173563969999,-40.8077594930665],[-73.2168806719999,-40.8085353180665],[-73.2172193179999,-40.8083929060665],[-73.2174368129999,-40.8076696550665],[-73.2177771219999,-40.8074910200665]]]}},{"type":"Feature","properties":{"id":"10305011002044","commune":"Río Negro","code":"10305","gse":"E","quintil":"Q1","nse_score":589.5,"educ":9.0,"educ_score":400.0,"hacin":1.405,"hacin_class":"Hacinamiento Leve","hacin_score":764.9,"auto_score":158.5,"n_per":111,"n_hog":41,"source_year":2024,"crime_score":0.3748,"crime_nivel":"Medio","crime_color":"#ff9800"},"geometry":{"type":"Polygon","coordinates":[[[-73.2199389579999,-40.8078635170665],[-73.2211372739999,-40.8073622480666],[-73.2211729149999,-40.8069466320666],[-73.2206307929999,-40.8070217740666],[-73.2206532999999,-40.8073596470666],[-73.2205019169999,-40.8070088860666],[-73.2200054649999,-40.8070607690665],[-73.2200410219999,-40.8074292000666],[-73.2199484689999,-40.8070863720666],[-73.2196412349999,-40.8071155900666],[-73.2199389579999,-40.8078635170665]]]}},{"type":"Feature","properties":{"id":"10305011002045","commune":"Río Negro","code":"10305","gse":"E","quintil":"Q1","nse_score":578.1,"educ":9.2,"educ_score":413.3,"hacin":1.532,"hacin_class":"Hacinamiento Medio","hacin_score":737.8,"auto_score":121.4,"n_per":236,"n_hog":68,"source_year":2024,"crime_score":0.3993,"crime_nivel":"Medio","crime_color":"#ff9800"},"geometry":{"type":"Polygon","coordinates":[[[-73.2183245439999,-40.8075258370666],[-73.2186105759999,-40.8082095410666],[-73.2182727419999,-40.8075256680665],[-73.2178790139999,-40.8075884060665],[-73.2183568299999,-40.8085213480665],[-73.2198821329999,-40.8078827280665],[-73.2195940369999,-40.8073245660665],[-73.219225923,-40.8073738310666],[-73.2193835479999,-40.8078012570666],[-73.2189834979999,-40.8079939750665],[-73.2187128029999,-40.8074636440666],[-73.2183245439999,-40.8075258370666]]]}},{"type":"Feature","properties":{"id":"10305011002046","commune":"Río Negro","code":"10305","gse":"E","quintil":"Q1","nse_score":506.0,"educ":7.4,"educ_score":293.3,"hacin":1.348,"hacin_class":"Hacinamiento Leve","hacin_score":777.1,"auto_score":166.7,"n_per":31,"n_hog":9,"source_year":2024,"crime_score":0.3763,"crime_nivel":"Medio","crime_color":"#ff9800"},"geometry":{"type":"Polygon","coordinates":[[[-73.2189857249999,-40.8079284320665],[-73.2193213129999,-40.8077833620666],[-73.2191331959999,-40.8073878930666],[-73.2187631979999,-40.8074632510666],[-73.2189857249999,-40.8079284320665]]]}},{"type":"Feature","properties":{"id":"10305011002047","commune":"Río Negro","code":"10305","gse":"D","quintil":"Q1","nse_score":627.3,"educ":10.7,"educ_score":513.3,"hacin":1.365,"hacin_class":"Hacinamiento Leve","hacin_score":773.3,"auto_score":250.0,"n_per":71,"n_hog":20,"source_year":2024,"crime_score":0.3604,"crime_nivel":"Medio","crime_color":"#ff9800"},"geometry":{"type":"Polygon","coordinates":[[[-73.2196958689999,-40.8085840900666],[-73.2198322959999,-40.8085441740666],[-73.2199770159999,-40.8081070320666],[-73.2212269359999,-40.8075738750666],[-73.2210948619999,-40.8074587890666],[-73.2197981829999,-40.8080074530666],[-73.2196336969999,-40.8084617940665],[-73.2196958689999,-40.8085840900666]]]}},{"type":"Feature","properties":{"id":"10305011002048","commune":"Río Negro","code":"10305","gse":"C1","quintil":"Q5","nse_score":781.5,"educ":13.6,"educ_score":706.7,"hacin":1.174,"hacin_class":"Hacinamiento Leve","hacin_score":814.1,"auto_score":363.6,"n_per":27,"n_hog":10,"source_year":2024,"crime_score":0.3237,"crime_nivel":"Medio","crime_color":"#ff9800"},"geometry":{"type":"Polygon","coordinates":[[[-73.2125153279999,-40.8080724580665],[-73.2126612969999,-40.8078504240665],[-73.2119103009999,-40.8075490900666],[-73.2117202159999,-40.8077407140665],[-73.2125153279999,-40.8080724580665]]]}},{"type":"Feature","properties":{"id":"10305011002049","commune":"Río Negro","code":"10305","gse":"E","quintil":"Q1","nse_score":602.0,"educ":9.5,"educ_score":433.3,"hacin":1.609,"hacin_class":"Hacinamiento Medio","hacin_score":721.5,"auto_score":131.6,"n_per":177,"n_hog":58,"source_year":2024,"crime_score":0.384,"crime_nivel":"Medio","crime_color":"#ff9800"},"geometry":{"type":"Polygon","coordinates":[[[-73.2171670589999,-40.8084978620666],[-73.2173837349999,-40.8086312870665],[-73.2168238789999,-40.8085801400666],[-73.2162833549999,-40.8096066300666],[-73.2165538289999,-40.8094085740665],[-73.2168118889999,-40.8088630710666],[-73.2175289459999,-40.8089584830665],[-73.2176390839999,-40.8094885330665],[-73.2196670709999,-40.8085925640665],[-73.2195364909999,-40.8084881280666],[-73.2186621569999,-40.8088562030665],[-73.2195320709999,-40.8084140150665],[-73.2193204189999,-40.8081803260666],[-73.2184256329999,-40.8086350100665],[-73.2181845699999,-40.8084106830665],[-73.2178005489999,-40.8075672750665],[-73.2174819789999,-40.8076838790666],[-73.2173530269999,-40.8083009260666],[-73.2171670589999,-40.8084978620666]]]}},{"type":"Feature","properties":{"id":"10305011002050","commune":"Río Negro","code":"10305","gse":"C3","quintil":"Q3","nse_score":710.8,"educ":11.0,"educ_score":533.3,"hacin":1.407,"hacin_class":"Hacinamiento Leve","hacin_score":764.4,"auto_score":159.1,"n_per":76,"n_hog":23,"source_year":2024,"crime_score":0.3452,"crime_nivel":"Medio","crime_color":"#ff9800"},"geometry":{"type":"Polygon","coordinates":[[[-73.2093262829999,-40.8084866300666],[-73.2098376519999,-40.8079334670665],[-73.2098187149999,-40.8078793950665],[-73.2095264789999,-40.8077649630666],[-73.2090305869999,-40.8083112500665],[-73.2093262829999,-40.8084866300666]]]}},{"type":"Feature","properties":{"id":"10305011002051","commune":"Río Negro","code":"10305","gse":"D","quintil":"Q1","nse_score":647.7,"educ":10.0,"educ_score":466.7,"hacin":1.115,"hacin_class":"Hacinamiento Leve","hacin_score":826.5,"auto_score":65.2,"n_per":58,"n_hog":22,"source_year":2024,"crime_score":0.3542,"crime_nivel":"Medio","crime_color":"#ff9800"},"geometry":{"type":"Polygon","coordinates":[[[-73.209705186,-40.8086847400665],[-73.2102191279999,-40.8081372900665],[-73.2102184849999,-40.8080862050665],[-73.209917861,-40.8079441700665],[-73.2093980109999,-40.8084953110666],[-73.209705186,-40.8086847400665]]]}},{"type":"Feature","properties":{"id":"10305011002053","commune":"Río Negro","code":"10305","gse":"C2","quintil":"Q4","nse_score":727.6,"educ":12.2,"educ_score":613.3,"hacin":1.048,"hacin_class":"Hacinamiento Leve","hacin_score":840.9,"auto_score":200.0,"n_per":22,"n_hog":9,"source_year":2024,"crime_score":0.333,"crime_nivel":"Medio","crime_color":"#ff9800"},"geometry":{"type":"Polygon","coordinates":[[[-73.2107318409999,-40.8088618220665],[-73.2109016249999,-40.8086626790666],[-73.2102204789999,-40.8082943180665],[-73.2100185369999,-40.8084548580666],[-73.2107318409999,-40.8088618220665]]]}},{"type":"Feature","properties":{"id":"10305011002054","commune":"Río Negro","code":"10305","gse":"C2","quintil":"Q4","nse_score":769.3,"educ":12.9,"educ_score":660.0,"hacin":1.0,"hacin_class":"Hacinamiento Leve","hacin_score":851.1,"auto_score":83.3,"n_per":12,"n_hog":6,"source_year":2024,"crime_score":0.3236,"crime_nivel":"Medio","crime_color":"#ff9800"},"geometry":{"type":"Polygon","coordinates":[[[-73.2113327869999,-40.8095680830666],[-73.2105659919999,-40.8093512600665],[-73.2104154129999,-40.8095282710665],[-73.2111259979999,-40.8099266330665],[-73.211348084,-40.8097709970665],[-73.2113327869999,-40.8095680830666]]]}},{"type":"Feature","properties":{"id":"10305011002027","commune":"Río Negro","code":"10305","gse":"D","quintil":"Q2","nse_score":664.1,"educ":10.6,"educ_score":506.7,"hacin":1.245,"hacin_class":"Hacinamiento Leve","hacin_score":799.0,"auto_score":108.7,"n_per":61,"n_hog":20,"source_year":2024,"crime_score":0.3516,"crime_nivel":"Medio","crime_color":"#ff9800"},"geometry":{"type":"MultiPolygon","coordinates":[[[[-73.2201526429999,-40.8050225700666],[-73.2197026709999,-40.8045246950666],[-73.2194289919999,-40.8048068320666],[-73.2194521009999,-40.8048381760665],[-73.2201526429999,-40.8050225700666]]],[[[-73.2190897589999,-40.8052838780666],[-73.2196347689999,-40.8044616730666],[-73.2194019189999,-40.8041700060666],[-73.2186067079999,-40.8050169020665],[-73.2190897589999,-40.8052838780666]]]]}},{"type":"Feature","properties":{"id":"10305011002020","commune":"Río Negro","code":"10305","gse":"C3","quintil":"Q3","nse_score":691.9,"educ":10.8,"educ_score":520.0,"hacin":1.559,"hacin_class":"Hacinamiento Medio","hacin_score":732.2,"auto_score":285.7,"n_per":53,"n_hog":14,"source_year":2024,"crime_score":0.345,"crime_nivel":"Medio","crime_color":"#ff9800"},"geometry":{"type":"MultiPolygon","coordinates":[[[[-73.2156436409999,-40.8044059470666],[-73.2162846489999,-40.8032627600666],[-73.214825501,-40.8028910410666],[-73.2141989929999,-40.8040585860666],[-73.2156436409999,-40.8044059470666]]],[[[-73.2162817939999,-40.8031790330666],[-73.2167127529999,-40.8024021890666],[-73.2152630009999,-40.8020918740666],[-73.2148823739999,-40.8028212990666],[-73.2162817939999,-40.8031790330666]]]]}},{"type":"Feature","properties":{"id":"10305011002033","commune":"Río Negro","code":"10305","gse":"D","quintil":"Q1","nse_score":635.8,"educ":9.3,"educ_score":420.0,"hacin":1.216,"hacin_class":"Hacinamiento Leve","hacin_score":805.1,"auto_score":105.3,"n_per":45,"n_hog":18,"source_year":2024,"crime_score":0.3543,"crime_nivel":"Medio","crime_color":"#ff9800"},"geometry":{"type":"MultiPolygon","coordinates":[[[[-73.2201416779999,-40.8061825280666],[-73.2209037109999,-40.8060848380666],[-73.2207507189999,-40.8055237180666],[-73.2201696019999,-40.8059405570665],[-73.2201416779999,-40.8061825280666]]],[[[-73.2201992879999,-40.8058233720666],[-73.2205247199999,-40.8055920250666],[-73.2206086869999,-40.8055063940666],[-73.2202147229999,-40.8054676170665],[-73.2201127609999,-40.8057430370666],[-73.2201992879999,-40.8058233720666]]]]}},{"type":"Feature","properties":{"id":"10305063265001","commune":"Río Negro","code":"10305","gse":"E","quintil":"Q1","nse_score":604.3,"educ":9.8,"educ_score":453.3,"hacin":1.439,"hacin_class":"Hacinamiento Leve","hacin_score":757.7,"auto_score":173.9,"n_per":59,"n_hog":23,"source_year":2024,"crime_score":0.3627,"crime_nivel":"Medio","crime_color":"#ff9800"},"geometry":{"type":"Polygon","coordinates":[[[-73.33387461,-40.8104416800665],[-73.3360125269999,-40.8132520530665],[-73.3364247149999,-40.8130834140665],[-73.3360354409999,-40.8132835980665],[-73.33650209,-40.8139473670665],[-73.3370221679999,-40.8136703240665],[-73.3365237319999,-40.8139804340665],[-73.3375030669999,-40.8154816210665],[-73.3396252179999,-40.8145810000665],[-73.3382722529999,-40.8137393200666],[-73.3375586729999,-40.8135822380665],[-73.3349254059999,-40.8100557270666],[-73.33387461,-40.8104416800665]]]}},{"type":"Feature","properties":{"id":"10305063265002","commune":"Río Negro","code":"10305","gse":"E","quintil":"Q1","nse_score":593.2,"educ":9.0,"educ_score":400.0,"hacin":1.556,"hacin_class":"Hacinamiento Medio","hacin_score":732.9,"auto_score":100.0,"n_per":42,"n_hog":15,"source_year":2024,"crime_score":0.3618,"crime_nivel":"Medio","crime_color":"#ff9800"},"geometry":{"type":"Polygon","coordinates":[[[-73.333185565,-40.8107791920665],[-73.3317210749999,-40.8108704440665],[-73.3313596129999,-40.8107894290665],[-73.3340339809999,-40.8142861820665],[-73.3354952589999,-40.8165311310665],[-73.3377877919999,-40.8160422730665],[-73.3361840539999,-40.8135627320665],[-73.3349745849999,-40.8139881510665],[-73.3361610879999,-40.8135311170665],[-73.3338382859999,-40.8104654680666],[-73.333185565,-40.8107791920665]]]}},{"type":"Feature","properties":{"id":"10305063265003","commune":"Río Negro","code":"10305","gse":"E","quintil":"Q1","nse_score":567.6,"educ":8.8,"educ_score":386.7,"hacin":1.463,"hacin_class":"Hacinamiento Leve","hacin_score":752.6,"auto_score":80.6,"n_per":79,"n_hog":31,"source_year":2024,"crime_score":0.3733,"crime_nivel":"Medio","crime_color":"#ff9800"},"geometry":{"type":"Polygon","coordinates":[[[-73.3392456729999,-40.8155262250665],[-73.3385766499999,-40.8156927000665],[-73.3392034969999,-40.8155069770665],[-73.3394938469999,-40.8146906640665],[-73.3375221189999,-40.8155146050665],[-73.3379325519999,-40.8161757230665],[-73.3381471229999,-40.8169607410665],[-73.3387296459999,-40.8167910160665],[-73.3393237469999,-40.8168175880665],[-73.3398240539999,-40.8177891570665],[-73.3404309439999,-40.8179913490665],[-73.3406483179999,-40.8176415980665],[-73.3408581169999,-40.8167974000665],[-73.3412194409999,-40.8164783140665],[-73.3406367839999,-40.8161169880665],[-73.3403165239999,-40.8160966690665],[-73.3406581579999,-40.8160845730665],[-73.3412618609999,-40.8164591460665],[-73.3416896509999,-40.8162571790665],[-73.3414484809999,-40.8158338340665],[-73.3416942379999,-40.8160770860665],[-73.341742629,-40.8162063960665],[-73.3416713049999,-40.8163126820665],[-73.3424275659999,-40.8166820530665],[-73.3416293349999,-40.8163350050665],[-73.341384032,-40.8164458500665],[-73.341593885,-40.8168842450665],[-73.3413430339999,-40.8164643760665],[-73.3411857079999,-40.8165354660665],[-73.3409020779999,-40.8168117220665],[-73.3407757599999,-40.8171630660665],[-73.3409506489999,-40.8176491650665],[-73.3416524809999,-40.8182464210665],[-73.3421328199999,-40.8181500840665],[-73.3436035369999,-40.8182159540665],[-73.3429530409999,-40.8176491330665],[-73.3412912589999,-40.8141752930665],[-73.3401805419999,-40.8143099850665],[-73.3395537209999,-40.8146604010665],[-73.3392456729999,-40.8155262250665]]]}},{"type":"Feature","properties":{"id":"10305063265004","commune":"Río Negro","code":"10305","gse":"E","quintil":"Q1","nse_score":569.8,"educ":8.7,"educ_score":380.0,"hacin":1.386,"hacin_class":"Hacinamiento Leve","hacin_score":768.9,"auto_score":129.0,"n_per":79,"n_hog":31,"source_year":2024,"crime_score":0.3729,"crime_nivel":"Medio","crime_color":"#ff9800"},"geometry":{"type":"Polygon","coordinates":[[[-73.3385684779999,-40.8185642130665],[-73.3388006499999,-40.8195277050665],[-73.3407441389999,-40.8187114840665],[-73.3404232709999,-40.8180272080665],[-73.3397864169999,-40.8178125880665],[-73.3392887249999,-40.8168469100665],[-73.3390419269999,-40.8167895360665],[-73.3381568799999,-40.8169964810665],[-73.3385440819999,-40.8184695360665],[-73.3392791629999,-40.8182316700665],[-73.3385684779999,-40.8185642130665]]]}},{"type":"Feature","properties":{"id":"10305063265006","commune":"Río Negro","code":"10305","gse":"E","quintil":"Q1","nse_score":616.4,"educ":9.6,"educ_score":440.0,"hacin":1.329,"hacin_class":"Hacinamiento Leve","hacin_score":780.9,"auto_score":91.8,"n_per":117,"n_hog":49,"source_year":2024,"crime_score":0.3706,"crime_nivel":"Medio","crime_color":"#ff9800"},"geometry":{"type":"Polygon","coordinates":[[[-73.3363628279999,-40.8195005890665],[-73.3329238099999,-40.8207439210665],[-73.3352720239999,-40.8241283720665],[-73.3349031159999,-40.8242520790665],[-73.3352112869999,-40.8247503710665],[-73.3377591109999,-40.8238263590665],[-73.3369083439999,-40.8226793870665],[-73.3356034759999,-40.8231830980665],[-73.3368859539999,-40.8226476330665],[-73.3360596969999,-40.8214107730665],[-73.334626296,-40.8219421570665],[-73.3340275439999,-40.8211288020665],[-73.3364846009999,-40.8201783650665],[-73.3368019499999,-40.8205105740665],[-73.3373035229999,-40.8203233010665],[-73.3371304209999,-40.8199647890665],[-73.3387561799999,-40.8195435120665],[-73.3384437089999,-40.8182674930665],[-73.3362153799999,-40.8189006680665],[-73.3363628279999,-40.8195005890665]]]}},{"type":"Feature","properties":{"id":"10305063265008","commune":"Río Negro","code":"10305","gse":"E","quintil":"Q1","nse_score":618.6,"educ":9.6,"educ_score":440.0,"hacin":1.32,"hacin_class":"Hacinamiento Leve","hacin_score":783.0,"auto_score":192.3,"n_per":33,"n_hog":13,"source_year":2024,"crime_score":0.3554,"crime_nivel":"Medio","crime_color":"#ff9800"},"geometry":{"type":"Polygon","coordinates":[[[-73.3371423109999,-40.8200087260665],[-73.3377084499999,-40.8208361150665],[-73.339310468,-40.8204271470665],[-73.338771059,-40.8195777550665],[-73.3371423109999,-40.8200087260665]]]}},{"type":"Feature","properties":{"id":"10305063265009","commune":"Río Negro","code":"10305","gse":"E","quintil":"Q1","nse_score":543.6,"educ":8.1,"educ_score":340.0,"hacin":1.4,"hacin_class":"Hacinamiento Leve","hacin_score":766.0,"auto_score":166.7,"n_per":21,"n_hog":9,"source_year":2024,"crime_score":0.3674,"crime_nivel":"Medio","crime_color":"#ff9800"},"geometry":{"type":"Polygon","coordinates":[[[-73.3360935959999,-40.8213800020665],[-73.3371002119999,-40.8210685340665],[-73.3364838319999,-40.8202189510665],[-73.3355661149999,-40.8205747730665],[-73.3360935959999,-40.8213800020665]]]}},{"type":"Feature","properties":{"id":"10305063265011","commune":"Río Negro","code":"10305","gse":"E","quintil":"Q1","nse_score":607.1,"educ":10.5,"educ_score":500.0,"hacin":1.462,"hacin_class":"Hacinamiento Leve","hacin_score":752.9,"auto_score":125.0,"n_per":38,"n_hog":15,"source_year":2024,"crime_score":0.3585,"crime_nivel":"Medio","crime_color":"#ff9800"},"geometry":{"type":"Polygon","coordinates":[[[-73.3377318759999,-40.8208679970665],[-73.3385184729999,-40.8219991140665],[-73.3401773839999,-40.8215670500665],[-73.3393312769999,-40.8204599140665],[-73.3377318759999,-40.8208679970665]]]}},{"type":"Feature","properties":{"id":"10305063265012","commune":"Río Negro","code":"10305","gse":"E","quintil":"Q1","nse_score":583.4,"educ":9.0,"educ_score":400.0,"hacin":1.5,"hacin_class":"Hacinamiento Medio","hacin_score":744.7,"auto_score":236.8,"n_per":51,"n_hog":19,"source_year":2024,"crime_score":0.3653,"crime_nivel":"Medio","crime_color":"#ff9800"},"geometry":{"type":"Polygon","coordinates":[[[-73.3340803539999,-40.8212317900665],[-73.3342945469999,-40.8215266400665],[-73.3358000329999,-40.8209662390665],[-73.3355239409999,-40.8205913530665],[-73.3341373349999,-40.8210985080665],[-73.3340803539999,-40.8212317900665]]]}},{"type":"Feature","properties":{"id":"10305063265013","commune":"Río Negro","code":"10305","gse":"D","quintil":"Q1","nse_score":639.5,"educ":10.1,"educ_score":473.3,"hacin":1.185,"hacin_class":"Hacinamiento Leve","hacin_score":811.7,"auto_score":133.3,"n_per":32,"n_hog":15,"source_year":2024,"crime_score":0.3513,"crime_nivel":"Medio","crime_color":"#ff9800"},"geometry":{"type":"Polygon","coordinates":[[[-73.3361495479999,-40.8214757900665],[-73.3369277229999,-40.8226305870665],[-73.3384749349999,-40.8220135500665],[-73.3376879549999,-40.8208821240665],[-73.3361495479999,-40.8214757900665]]]}},{"type":"Feature","properties":{"id":"10305063265014","commune":"Río Negro","code":"10305","gse":"D","quintil":"Q1","nse_score":634.6,"educ":10.3,"educ_score":486.7,"hacin":1.077,"hacin_class":"Hacinamiento Leve","hacin_score":834.7,"auto_score":78.9,"n_per":42,"n_hog":18,"source_year":2024,"crime_score":0.354,"crime_nivel":"Medio","crime_color":"#ff9800"},"geometry":{"type":"Polygon","coordinates":[[[-73.334319676,-40.8215573810665],[-73.3346307549999,-40.8219041530665],[-73.3360404619999,-40.8213778440665],[-73.3358192749999,-40.8209991810665],[-73.334319676,-40.8215573810665]]]}},{"type":"Feature","properties":{"id":"10305063265015","commune":"Río Negro","code":"10305","gse":"C3","quintil":"Q2","nse_score":676.7,"educ":11.4,"educ_score":560.0,"hacin":1.389,"hacin_class":"Hacinamiento Leve","hacin_score":768.3,"auto_score":111.1,"n_per":25,"n_hog":9,"source_year":2024,"crime_score":0.3431,"crime_nivel":"Medio","crime_color":"#ff9800"},"geometry":{"type":"Polygon","coordinates":[[[-73.3385402889999,-40.8220315100665],[-73.3393224779999,-40.8231743800665],[-73.3409873959999,-40.8228404820665],[-73.3401972219999,-40.8215999610665],[-73.3385402889999,-40.8220315100665]]]}},{"type":"Feature","properties":{"id":"10305063265016","commune":"Río Negro","code":"10305","gse":"D","quintil":"Q1","nse_score":639.7,"educ":10.9,"educ_score":526.7,"hacin":1.308,"hacin_class":"Hacinamiento Leve","hacin_score":785.6,"auto_score":66.7,"n_per":34,"n_hog":14,"source_year":2024,"crime_score":0.3516,"crime_nivel":"Medio","crime_color":"#ff9800"},"geometry":{"type":"Polygon","coordinates":[[[-73.3369501129999,-40.8226623400665],[-73.3377990859999,-40.8238069360665],[-73.3392783709999,-40.8231880330665],[-73.3384965309999,-40.8220456190665],[-73.3369501129999,-40.8226623400665]]]}},{"type":"Feature","properties":{"id":"10305063265005","commune":"Río Negro","code":"10305","gse":"D","quintil":"Q1","nse_score":639.6,"educ":10.8,"educ_score":520.0,"hacin":1.371,"hacin_class":"Hacinamiento Leve","hacin_score":772.0,"auto_score":93.8,"n_per":48,"n_hog":18,"source_year":2024,"crime_score":0.3541,"crime_nivel":"Medio","crime_color":"#ff9800"},"geometry":{"type":"MultiPolygon","coordinates":[[[[-73.3415614609999,-40.8188252330665],[-73.3412649969999,-40.8184465580665],[-73.3408032739999,-40.8187220040665],[-73.341149002,-40.8192272400665],[-73.3407653279999,-40.8187446420665],[-73.3388142779999,-40.8195629160665],[-73.3408573709999,-40.8225730050665],[-73.3414401669999,-40.8221291460665],[-73.3418792009999,-40.8219097180665],[-73.3408803539999,-40.8226065080665],[-73.3410547039999,-40.8228555930665],[-73.342963558,-40.8217533820665],[-73.3426313619999,-40.8213775500665],[-73.3435699709999,-40.8196269940665],[-73.3428948769999,-40.8193376100665],[-73.3416632229999,-40.8182817800665],[-73.3413031229999,-40.8184238130665],[-73.3415614609999,-40.8188252330665]]],[[[-73.3404679469999,-40.8180149350665],[-73.3407826829999,-40.8186884900665],[-73.3416396139999,-40.8182520530665],[-73.3409340559999,-40.8176603660665],[-73.3407687279999,-40.8171726750665],[-73.3406943639999,-40.8176502990665],[-73.3404679469999,-40.8180149350665]]]]}}]}