{"type":"FeatureCollection","features":[{"type":"Feature","properties":{"id":"16108011001001","commune":"San Ignacio","code":"16108","gse":"E","quintil":"Q1","nse_score":596.0,"educ":8.9,"educ_score":393.3,"hacin":1.331,"hacin_class":"Hacinamiento Leve","hacin_score":780.7,"auto_score":51.5,"n_per":177,"n_hog":70,"source_year":2024,"crime_score":0.2333,"crime_nivel":"Medio","crime_color":"#ff9800"},"geometry":{"type":"Polygon","coordinates":[[[-72.040116527,-36.7912769520947],[-72.0382147789999,-36.7924834560947],[-72.0384697949999,-36.7926199360947],[-72.0385278569999,-36.7927104910947],[-72.0381770669999,-36.7925037320947],[-72.0373813089999,-36.7930092650947],[-72.0386442019999,-36.7946861380947],[-72.0373458849999,-36.7930317700947],[-72.0358334019999,-36.7939940660947],[-72.0362263869999,-36.7951582690947],[-72.0371479959999,-36.7947534980947],[-72.0378561759999,-36.7945800730947],[-72.0362388469999,-36.7951935560947],[-72.0375286269999,-36.7988792430946],[-72.0401705889999,-36.7983533460947],[-72.0400790479999,-36.7980748470947],[-72.0402078209999,-36.7983423010947],[-72.0405760169999,-36.7982310020947],[-72.0403754629999,-36.7977871890947],[-72.039703561,-36.7981773580946],[-72.0396068939999,-36.7981716890947],[-72.0394996589999,-36.7980418960946],[-72.039689129,-36.7981524280947],[-72.0403475189999,-36.7977592660947],[-72.0399143609999,-36.7971316610947],[-72.0391033289999,-36.7975472840947],[-72.0399052779999,-36.7970935000947],[-72.0404292129999,-36.7977789660947],[-72.0412121569999,-36.7973766330947],[-72.0406659169999,-36.7963757790947],[-72.0412482819999,-36.7973290880946],[-72.041431353,-36.7972762180947],[-72.0407486139999,-36.7960527460947],[-72.0405960299999,-36.7961156150947],[-72.0390373039999,-36.7941578610947],[-72.040612086,-36.7960869660947],[-72.0407676139999,-36.7960255530947],[-72.0414626619999,-36.7972713660947],[-72.0410744749999,-36.7975152630947],[-72.041495843,-36.7984479440946],[-72.0417460509999,-36.7988014090947],[-72.0421446429999,-36.7987347960947],[-72.0408834959999,-36.7959304500947],[-72.0396639639999,-36.7943284760947],[-72.0404858489999,-36.7937471630947],[-72.0402730699999,-36.7935394540947],[-72.0414972139999,-36.7927857170947],[-72.040116527,-36.7912769520947]]]}},{"type":"Feature","properties":{"id":"16108011001003","commune":"San Ignacio","code":"16108","gse":"D","quintil":"Q1","nse_score":609.7,"educ":9.7,"educ_score":446.7,"hacin":1.298,"hacin_class":"Hacinamiento Leve","hacin_score":787.7,"auto_score":210.5,"n_per":61,"n_hog":21,"source_year":2024,"crime_score":0.2193,"crime_nivel":"Medio","crime_color":"#ff9800"},"geometry":{"type":"Polygon","coordinates":[[[-72.0337477099999,-36.7941048330947],[-72.0335824809999,-36.7940793540947],[-72.0327311949999,-36.7946535490947],[-72.0331585509999,-36.7958381690947],[-72.0345831619999,-36.7955399300947],[-72.0344733199999,-36.7948314040947],[-72.0354468019999,-36.7941809610947],[-72.0349781819999,-36.7934550740947],[-72.0337477099999,-36.7941048330947]]]}},{"type":"Feature","properties":{"id":"16108011001004","commune":"San Ignacio","code":"16108","gse":"C2","quintil":"Q4","nse_score":732.9,"educ":12.7,"educ_score":646.7,"hacin":1.4,"hacin_class":"Hacinamiento Leve","hacin_score":766.0,"auto_score":333.3,"n_per":28,"n_hog":9,"source_year":2024,"crime_score":0.2017,"crime_nivel":"Medio","crime_color":"#ff9800"},"geometry":{"type":"Polygon","coordinates":[[[-72.0361640259999,-36.7951457660947],[-72.0357410799999,-36.7940737100947],[-72.0344961289999,-36.7949011900947],[-72.0347061439999,-36.7955089650947],[-72.0361640259999,-36.7951457660947]]]}},{"type":"Feature","properties":{"id":"16108011001006","commune":"San Ignacio","code":"16108","gse":"D","quintil":"Q1","nse_score":609.2,"educ":10.3,"educ_score":486.7,"hacin":0.897,"hacin_class":"Sin Hacinamiento","hacin_score":873.1,"auto_score":26.3,"n_per":26,"n_hog":16,"source_year":2024,"crime_score":0.2157,"crime_nivel":"Medio","crime_color":"#ff9800"},"geometry":{"type":"Polygon","coordinates":[[[-72.0369669769999,-36.7977088800947],[-72.0362037309999,-36.7952676880947],[-72.0347124739999,-36.7955614550947],[-72.0355409219999,-36.7979752880946],[-72.0369669769999,-36.7977088800947]]]}},{"type":"Feature","properties":{"id":"16108011001007","commune":"San Ignacio","code":"16108","gse":"E","quintil":"Q1","nse_score":576.8,"educ":8.4,"educ_score":360.0,"hacin":1.222,"hacin_class":"Hacinamiento Leve","hacin_score":803.8,"auto_score":41.7,"n_per":33,"n_hog":11,"source_year":2024,"crime_score":0.2201,"crime_nivel":"Medio","crime_color":"#ff9800"},"geometry":{"type":"Polygon","coordinates":[[[-72.0345816119999,-36.7955801130947],[-72.033182699,-36.7958959670947],[-72.0335564629999,-36.7970561090947],[-72.0350252489999,-36.7967538190947],[-72.0345816119999,-36.7955801130947]]]}},{"type":"Feature","properties":{"id":"16108011001008","commune":"San Ignacio","code":"16108","gse":"D","quintil":"Q2","nse_score":655.4,"educ":11.1,"educ_score":540.0,"hacin":1.25,"hacin_class":"Hacinamiento Leve","hacin_score":797.9,"auto_score":147.1,"n_per":50,"n_hog":17,"source_year":2024,"crime_score":0.2129,"crime_nivel":"Medio","crime_color":"#ff9800"},"geometry":{"type":"Polygon","coordinates":[[[-72.0303741309999,-36.7977607990947],[-72.0297466259999,-36.7958845440947],[-72.0294851099999,-36.7959551400947],[-72.02941856,-36.7963939800947],[-72.0291340449999,-36.7964750070947],[-72.0288911579999,-36.7967626410947],[-72.0284512869999,-36.7968563410947],[-72.0289069999999,-36.7980883340947],[-72.0303741309999,-36.7977607990947]]]}},{"type":"Feature","properties":{"id":"16108011001009","commune":"San Ignacio","code":"16108","gse":"E","quintil":"Q1","nse_score":599.0,"educ":9.7,"educ_score":446.7,"hacin":1.13,"hacin_class":"Hacinamiento Leve","hacin_score":823.3,"auto_score":0.0,"n_per":26,"n_hog":13,"source_year":2024,"crime_score":0.2168,"crime_nivel":"Medio","crime_color":"#ff9800"},"geometry":{"type":"Polygon","coordinates":[[[-72.0334807139999,-36.7971056460947],[-72.0330963579999,-36.7959222970947],[-72.0316393809999,-36.7962393150947],[-72.0320268789999,-36.7974075830947],[-72.0334807139999,-36.7971056460947]]]}},{"type":"Feature","properties":{"id":"16108011001010","commune":"San Ignacio","code":"16108","gse":"D","quintil":"Q1","nse_score":623.0,"educ":10.1,"educ_score":473.3,"hacin":1.6,"hacin_class":"Hacinamiento Medio","hacin_score":723.4,"auto_score":250.0,"n_per":48,"n_hog":23,"source_year":2024,"crime_score":0.2164,"crime_nivel":"Medio","crime_color":"#ff9800"},"geometry":{"type":"Polygon","coordinates":[[[-72.0314710869999,-36.7962473310947],[-72.0300780299999,-36.7965703660947],[-72.0304525269999,-36.7977338730946],[-72.0319071599999,-36.7974335870947],[-72.0314710869999,-36.7962473310947]]]}},{"type":"Feature","properties":{"id":"16108011001011","commune":"San Ignacio","code":"16108","gse":"C2","quintil":"Q4","nse_score":727.5,"educ":12.7,"educ_score":646.7,"hacin":1.571,"hacin_class":"Hacinamiento Medio","hacin_score":729.5,"auto_score":107.1,"n_per":44,"n_hog":14,"source_year":2024,"crime_score":0.204,"crime_nivel":"Medio","crime_color":"#ff9800"},"geometry":{"type":"Polygon","coordinates":[[[-72.0349858739999,-36.7968285070947],[-72.0336190789999,-36.7971425360947],[-72.0339936329999,-36.7983060330947],[-72.0354618899999,-36.7979952390947],[-72.0349858739999,-36.7968285070947]]]}},{"type":"Feature","properties":{"id":"16108011001012","commune":"San Ignacio","code":"16108","gse":"E","quintil":"Q1","nse_score":572.8,"educ":8.9,"educ_score":393.3,"hacin":1.625,"hacin_class":"Hacinamiento Medio","hacin_score":718.1,"auto_score":0.0,"n_per":13,"n_hog":5,"source_year":2024,"crime_score":0.2184,"crime_nivel":"Medio","crime_color":"#ff9800"},"geometry":{"type":"Polygon","coordinates":[[[-72.0278271709999,-36.7972145050947],[-72.0264473769999,-36.7972080370947],[-72.0261800409999,-36.7975071550947],[-72.0237753569999,-36.7979025180947],[-72.0242347099999,-36.7990930390947],[-72.0288115729999,-36.7981000920946],[-72.0283987039999,-36.7968752580947],[-72.0279439809999,-36.7970365170947],[-72.0278271709999,-36.7972145050947]]]}},{"type":"Feature","properties":{"id":"16108011001013","commune":"San Ignacio","code":"16108","gse":"D","quintil":"Q1","nse_score":613.4,"educ":10.8,"educ_score":520.0,"hacin":1.414,"hacin_class":"Hacinamiento Leve","hacin_score":763.0,"auto_score":117.6,"n_per":41,"n_hog":17,"source_year":2024,"crime_score":0.2168,"crime_nivel":"Medio","crime_color":"#ff9800"},"geometry":{"type":"Polygon","coordinates":[[[-72.0339050219999,-36.7983462540947],[-72.0335109549999,-36.7971650980947],[-72.0320758469999,-36.7974830620946],[-72.032464134,-36.7986546860947],[-72.0339050219999,-36.7983462540947]]]}},{"type":"Feature","properties":{"id":"16108011001014","commune":"San Ignacio","code":"16108","gse":"C3","quintil":"Q3","nse_score":682.0,"educ":12.1,"educ_score":606.7,"hacin":1.25,"hacin_class":"Hacinamiento Leve","hacin_score":797.9,"auto_score":285.7,"n_per":20,"n_hog":7,"source_year":2024,"crime_score":0.2067,"crime_nivel":"Medio","crime_color":"#ff9800"},"geometry":{"type":"Polygon","coordinates":[[[-72.0318905399999,-36.7974996490946],[-72.0304974609999,-36.7978226880947],[-72.0308719679999,-36.7989861940947],[-72.0323266249999,-36.7986859050947],[-72.0318905399999,-36.7974996490946]]]}},{"type":"Feature","properties":{"id":"16108011001015","commune":"San Ignacio","code":"16108","gse":"D","quintil":"Q2","nse_score":651.3,"educ":9.5,"educ_score":433.3,"hacin":1.167,"hacin_class":"Hacinamiento Leve","hacin_score":815.6,"auto_score":166.7,"n_per":63,"n_hog":24,"source_year":2024,"crime_score":0.2147,"crime_nivel":"Medio","crime_color":"#ff9800"},"geometry":{"type":"Polygon","coordinates":[[[-72.0414078089999,-36.7984390330947],[-72.0410192549999,-36.7975220210947],[-72.0404443969999,-36.7978125090946],[-72.0408048729999,-36.7986135500946],[-72.0414078089999,-36.7984390330947]]]}},{"type":"Feature","properties":{"id":"16108011001016","commune":"San Ignacio","code":"16108","gse":"C3","quintil":"Q3","nse_score":699.7,"educ":11.3,"educ_score":553.3,"hacin":1.115,"hacin_class":"Hacinamiento Leve","hacin_score":826.5,"auto_score":195.7,"n_per":58,"n_hog":23,"source_year":2024,"crime_score":0.2086,"crime_nivel":"Medio","crime_color":"#ff9800"},"geometry":{"type":"Polygon","coordinates":[[[-72.0370064529999,-36.7977455780946],[-72.0356128969999,-36.7980692170946],[-72.0359874849999,-36.7992327100946],[-72.037469084,-36.7989296490947],[-72.0370064529999,-36.7977455780946]]]}},{"type":"Feature","properties":{"id":"16108011001017","commune":"San Ignacio","code":"16108","gse":"C1","quintil":"Q5","nse_score":802.0,"educ":14.5,"educ_score":766.7,"hacin":1.0,"hacin_class":"Hacinamiento Leve","hacin_score":851.1,"auto_score":100.0,"n_per":11,"n_hog":5,"source_year":2024,"crime_score":0.1922,"crime_nivel":"Medio","crime_color":"#ff9800"},"geometry":{"type":"Polygon","coordinates":[[[-72.0303298319999,-36.7978368870947],[-72.0289367419999,-36.7981599070947],[-72.0293112259999,-36.7993234170946],[-72.0307658939999,-36.7990231470947],[-72.0303298319999,-36.7978368870947]]]}},{"type":"Feature","properties":{"id":"16108011001018","commune":"San Ignacio","code":"16108","gse":"E","quintil":"Q1","nse_score":593.5,"educ":9.5,"educ_score":433.3,"hacin":1.133,"hacin_class":"Hacinamiento Leve","hacin_score":822.7,"auto_score":66.7,"n_per":34,"n_hog":14,"source_year":2024,"crime_score":0.2183,"crime_nivel":"Medio","crime_color":"#ff9800"},"geometry":{"type":"Polygon","coordinates":[[[-72.0214082369999,-36.7989399690947],[-72.0225015849999,-36.8022005560946],[-72.0234279859999,-36.8019850710946],[-72.0230094319999,-36.8003494480947],[-72.0233918419999,-36.8001256530947],[-72.0231929049999,-36.7993683600947],[-72.0227912919999,-36.7994468410947],[-72.0241233859999,-36.7991065170946],[-72.0237183279999,-36.7979027415947],[-72.0235156509999,-36.7980786390947],[-72.0216168349999,-36.7985905710946],[-72.0214082369999,-36.7989399690947]]]}},{"type":"Feature","properties":{"id":"16108011001019","commune":"San Ignacio","code":"16108","gse":"E","quintil":"Q1","nse_score":543.4,"educ":8.9,"educ_score":393.3,"hacin":1.379,"hacin_class":"Hacinamiento Leve","hacin_score":770.4,"auto_score":75.0,"n_per":40,"n_hog":19,"source_year":2024,"crime_score":0.2247,"crime_nivel":"Medio","crime_color":"#ff9800"},"geometry":{"type":"Polygon","coordinates":[[[-72.0354488919999,-36.7980806840947],[-72.0340558139999,-36.7984037650946],[-72.0344303789999,-36.7995672620946],[-72.0358850369999,-36.7992669290946],[-72.0354488919999,-36.7980806840947]]]}},{"type":"Feature","properties":{"id":"16108011001020","commune":"San Ignacio","code":"16108","gse":"D","quintil":"Q2","nse_score":648.6,"educ":11.0,"educ_score":533.3,"hacin":1.0,"hacin_class":"Hacinamiento Leve","hacin_score":851.1,"auto_score":50.0,"n_per":19,"n_hog":10,"source_year":2024,"crime_score":0.2104,"crime_nivel":"Medio","crime_color":"#ff9800"},"geometry":{"type":"Polygon","coordinates":[[[-72.028779546,-36.7981771920946],[-72.0273864429999,-36.7985001940946],[-72.0277609059999,-36.7996637070946],[-72.0292155849999,-36.7993634580947],[-72.028779546,-36.7981771920946]]]}},{"type":"Feature","properties":{"id":"16108011001021","commune":"San Ignacio","code":"16108","gse":"E","quintil":"Q1","nse_score":593.7,"educ":8.7,"educ_score":380.0,"hacin":1.526,"hacin_class":"Hacinamiento Medio","hacin_score":739.1,"auto_score":100.0,"n_per":29,"n_hog":10,"source_year":2024,"crime_score":0.2177,"crime_nivel":"Medio","crime_color":"#ff9800"},"geometry":{"type":"Polygon","coordinates":[[[-72.0407544519999,-36.7986098200947],[-72.0405908979999,-36.7982669980946],[-72.040094086,-36.7984031360946],[-72.0402806029999,-36.7987817020947],[-72.0407544519999,-36.7986098200947]]]}},{"type":"Feature","properties":{"id":"16108011001022","commune":"San Ignacio","code":"16108","gse":"E","quintil":"Q1","nse_score":584.3,"educ":9.1,"educ_score":406.7,"hacin":1.407,"hacin_class":"Hacinamiento Leve","hacin_score":764.4,"auto_score":115.4,"n_per":38,"n_hog":13,"source_year":2024,"crime_score":0.2198,"crime_nivel":"Medio","crime_color":"#ff9800"},"geometry":{"type":"Polygon","coordinates":[[[-72.0402566069999,-36.7987889060946],[-72.0400691879999,-36.7984102950947],[-72.0393206269999,-36.7986441180946],[-72.039492805,-36.7990140300947],[-72.0402566069999,-36.7987889060946]]]}},{"type":"Feature","properties":{"id":"16108011001023","commune":"San Ignacio","code":"16108","gse":"D","quintil":"Q2","nse_score":641.6,"educ":11.4,"educ_score":560.0,"hacin":1.278,"hacin_class":"Hacinamiento Leve","hacin_score":792.0,"auto_score":50.0,"n_per":23,"n_hog":10,"source_year":2024,"crime_score":0.2116,"crime_nivel":"Medio","crime_color":"#ff9800"},"geometry":{"type":"Polygon","coordinates":[[[-72.0343279299999,-36.7996014800946],[-72.0339565189999,-36.7984246240947],[-72.0324987189999,-36.7987382920947],[-72.032887017,-36.7999099160946],[-72.0343279299999,-36.7996014800946]]]}},{"type":"Feature","properties":{"id":"16108011001024","commune":"San Ignacio","code":"16108","gse":"E","quintil":"Q1","nse_score":591.4,"educ":8.8,"educ_score":386.7,"hacin":1.291,"hacin_class":"Hacinamiento Leve","hacin_score":789.2,"auto_score":92.6,"n_per":71,"n_hog":26,"source_year":2024,"crime_score":0.2225,"crime_nivel":"Medio","crime_color":"#ff9800"},"geometry":{"type":"Polygon","coordinates":[[[-72.0410298039999,-36.7985861730947],[-72.0411052839999,-36.7987710330946],[-72.0409910749999,-36.7985977580946],[-72.0395149709999,-36.7990435770947],[-72.0398217529999,-36.7997202310946],[-72.0410346059999,-36.7990305080947],[-72.0417018059999,-36.7988314230947],[-72.0414601209999,-36.7984735750947],[-72.0410298039999,-36.7985861730947]]]}},{"type":"Feature","properties":{"id":"16108011001025","commune":"San Ignacio","code":"16108","gse":"D","quintil":"Q1","nse_score":634.4,"educ":10.4,"educ_score":493.3,"hacin":1.286,"hacin_class":"Hacinamiento Leve","hacin_score":790.3,"auto_score":111.1,"n_per":18,"n_hog":9,"source_year":2024,"crime_score":0.2119,"crime_nivel":"Medio","crime_color":"#ff9800"},"geometry":{"type":"Polygon","coordinates":[[[-72.0272082709999,-36.7985141240947],[-72.0258151559999,-36.7988371070947],[-72.0261895969999,-36.8000006250947],[-72.0276442869999,-36.7997003940947],[-72.0272082709999,-36.7985141240947]]]}},{"type":"Feature","properties":{"id":"16108011001026","commune":"San Ignacio","code":"16108","gse":"C3","quintil":"Q2","nse_score":662.5,"educ":10.7,"educ_score":513.3,"hacin":1.226,"hacin_class":"Hacinamiento Leve","hacin_score":802.9,"auto_score":148.1,"n_per":352,"n_hog":135,"source_year":2024,"crime_score":0.2379,"crime_nivel":"Medio","crime_color":"#ff9800"},"geometry":{"type":"Polygon","coordinates":[[[-72.0438358429999,-36.8001283830947],[-72.0434657509999,-36.7994623880946],[-72.0430329429999,-36.7995576990946],[-72.0432721729999,-36.8002881790947],[-72.0424291709999,-36.7987255040947],[-72.0419190439999,-36.7988648550946],[-72.0430281469999,-36.8010536630946],[-72.042588754,-36.8003829100946],[-72.0420530459999,-36.8005697140946],[-72.0423248279999,-36.8012539780946],[-72.0411708749999,-36.7990428300947],[-72.0399855729999,-36.7997707220946],[-72.0380130489999,-36.8002512630946],[-72.0384249619999,-36.8014057790946],[-72.0399223729999,-36.8011375790946],[-72.0384441559999,-36.8015010220947],[-72.03912772,-36.8033886000946],[-72.0400062609999,-36.8037962310946],[-72.0418949549999,-36.8038305990946],[-72.0444172539999,-36.8030679720946],[-72.0434321679999,-36.8012732130946],[-72.0444228779999,-36.8010871350946],[-72.0442927829999,-36.8001964830946],[-72.0434754179999,-36.7985166830947],[-72.0431361569999,-36.7985892810946],[-72.0438358429999,-36.8001283830947]]]}},{"type":"Feature","properties":{"id":"16108011001027","commune":"San Ignacio","code":"16108","gse":"C3","quintil":"Q2","nse_score":670.4,"educ":10.1,"educ_score":473.3,"hacin":1.118,"hacin_class":"Hacinamiento Leve","hacin_score":826.0,"auto_score":166.7,"n_per":38,"n_hog":15,"source_year":2024,"crime_score":0.2099,"crime_nivel":"Medio","crime_color":"#ff9800"},"geometry":{"type":"Polygon","coordinates":[[[-72.0425542899999,-36.7987190700947],[-72.042940745,-36.7994969730946],[-72.0434263749999,-36.7994001480947],[-72.0430388409999,-36.7986387500947],[-72.0425542899999,-36.7987190700947]]]}},{"type":"Feature","properties":{"id":"16108011001028","commune":"San Ignacio","code":"16108","gse":"D","quintil":"Q2","nse_score":641.2,"educ":10.3,"educ_score":486.7,"hacin":1.258,"hacin_class":"Hacinamiento Leve","hacin_score":796.2,"auto_score":153.8,"n_per":39,"n_hog":14,"source_year":2024,"crime_score":0.2134,"crime_nivel":"Medio","crime_color":"#ff9800"},"geometry":{"type":"Polygon","coordinates":[[[-72.0397382149999,-36.7997772020946],[-72.0392168879999,-36.7986319860946],[-72.0375835709999,-36.7989823610947],[-72.0379854269999,-36.8001465280946],[-72.0397382149999,-36.7997772020946]]]}},{"type":"Feature","properties":{"id":"16108011001029","commune":"San Ignacio","code":"16108","gse":"D","quintil":"Q2","nse_score":653.9,"educ":10.3,"educ_score":486.7,"hacin":1.2,"hacin_class":"Hacinamiento Leve","hacin_score":808.5,"auto_score":0.0,"n_per":12,"n_hog":5,"source_year":2024,"crime_score":0.2091,"crime_nivel":"Medio","crime_color":"#ff9800"},"geometry":{"type":"Polygon","coordinates":[[[-72.0323202189999,-36.7987607080946],[-72.0309271169999,-36.7990837520947],[-72.0313016369999,-36.8002472570947],[-72.032756317,-36.7999469630947],[-72.0323202189999,-36.7987607080946]]]}},{"type":"Feature","properties":{"id":"16108011001030","commune":"San Ignacio","code":"16108","gse":"D","quintil":"Q1","nse_score":638.3,"educ":11.3,"educ_score":553.3,"hacin":1.391,"hacin_class":"Hacinamiento Leve","hacin_score":767.8,"auto_score":66.7,"n_per":32,"n_hog":15,"source_year":2024,"crime_score":0.213,"crime_nivel":"Medio","crime_color":"#ff9800"},"geometry":{"type":"Polygon","coordinates":[[[-72.0256510399999,-36.7988513860947],[-72.0242438939999,-36.7991738010946],[-72.024632332,-36.8003378720946],[-72.0260870339999,-36.8000376610946],[-72.0256510399999,-36.7988513860947]]]}},{"type":"Feature","properties":{"id":"16108011001031","commune":"San Ignacio","code":"16108","gse":"D","quintil":"Q1","nse_score":635.7,"educ":10.3,"educ_score":486.7,"hacin":1.365,"hacin_class":"Hacinamiento Leve","hacin_score":773.3,"auto_score":136.4,"n_per":71,"n_hog":23,"source_year":2024,"crime_score":0.2174,"crime_nivel":"Medio","crime_color":"#ff9800"},"geometry":{"type":"Polygon","coordinates":[[[-72.0418578169999,-36.7988791530946],[-72.0412556399999,-36.7990338900946],[-72.0420585819999,-36.8004944470947],[-72.0425935649999,-36.8002807510946],[-72.0418578169999,-36.7988791530946]]]}},{"type":"Feature","properties":{"id":"16108011001032","commune":"San Ignacio","code":"16108","gse":"E","quintil":"Q1","nse_score":585.0,"educ":10.7,"educ_score":513.3,"hacin":1.29,"hacin_class":"Hacinamiento Leve","hacin_score":789.3,"auto_score":0.0,"n_per":40,"n_hog":13,"source_year":2024,"crime_score":0.2199,"crime_nivel":"Medio","crime_color":"#ff9800"},"geometry":{"type":"Polygon","coordinates":[[[-72.0374418849999,-36.7989965090947],[-72.0360360029999,-36.7993207080946],[-72.0364249789999,-36.8004990570947],[-72.0378958419999,-36.8001663960946],[-72.0374418849999,-36.7989965090947]]]}},{"type":"Feature","properties":{"id":"16108011001034","commune":"San Ignacio","code":"16108","gse":"C3","quintil":"Q2","nse_score":660.8,"educ":10.8,"educ_score":520.0,"hacin":1.278,"hacin_class":"Hacinamiento Leve","hacin_score":792.0,"auto_score":121.2,"n_per":92,"n_hog":33,"source_year":2024,"crime_score":0.2166,"crime_nivel":"Medio","crime_color":"#ff9800"},"geometry":{"type":"Polygon","coordinates":[[[-72.0235072759999,-36.8019586810946],[-72.0249783699999,-36.8016221210946],[-72.0241033289999,-36.7991702800947],[-72.0232296619999,-36.7993633860946],[-72.0234243019999,-36.8001730520946],[-72.0230371079999,-36.8003387370946],[-72.0235072759999,-36.8019586810946]]]}},{"type":"Feature","properties":{"id":"16108011001035","commune":"San Ignacio","code":"16108","gse":"C3","quintil":"Q3","nse_score":695.5,"educ":11.7,"educ_score":580.0,"hacin":1.263,"hacin_class":"Hacinamiento Leve","hacin_score":795.1,"auto_score":125.0,"n_per":48,"n_hog":20,"source_year":2024,"crime_score":0.208,"crime_nivel":"Medio","crime_color":"#ff9800"},"geometry":{"type":"Polygon","coordinates":[[[-72.0358744639999,-36.7993251660947],[-72.0344791139999,-36.7996496090946],[-72.0348454529999,-36.8008100700946],[-72.0363346849999,-36.8005144850946],[-72.0358744639999,-36.7993251660947]]]}},{"type":"Feature","properties":{"id":"16108011001036","commune":"San Ignacio","code":"16108","gse":"C3","quintil":"Q2","nse_score":666.2,"educ":10.5,"educ_score":500.0,"hacin":1.091,"hacin_class":"Hacinamiento Leve","hacin_score":831.7,"auto_score":0.0,"n_per":12,"n_hog":6,"source_year":2024,"crime_score":0.2077,"crime_nivel":"Medio","crime_color":"#ff9800"},"geometry":{"type":"Polygon","coordinates":[[[-72.02919062,-36.7994287690946],[-72.0277974959999,-36.7997517750947],[-72.0281719699999,-36.8009152880947],[-72.0296266719999,-36.8006150340946],[-72.02919062,-36.7994287690946]]]}},{"type":"Feature","properties":{"id":"16108011001037","commune":"San Ignacio","code":"16108","gse":"E","quintil":"Q1","nse_score":561.1,"educ":9.4,"educ_score":426.7,"hacin":1.364,"hacin_class":"Hacinamiento Leve","hacin_score":773.7,"auto_score":41.7,"n_per":30,"n_hog":11,"source_year":2024,"crime_score":0.2216,"crime_nivel":"Medio","crime_color":"#ff9800"},"geometry":{"type":"Polygon","coordinates":[[[-72.0347482349999,-36.8008567950947],[-72.0343646339999,-36.7996651390947],[-72.0329078589999,-36.7999972240946],[-72.0332930789999,-36.8011634650946],[-72.0347482349999,-36.8008567950947]]]}},{"type":"Feature","properties":{"id":"16108011001038","commune":"San Ignacio","code":"16108","gse":"C3","quintil":"Q3","nse_score":685.7,"educ":11.0,"educ_score":533.3,"hacin":1.026,"hacin_class":"Hacinamiento Leve","hacin_score":845.5,"auto_score":125.0,"n_per":39,"n_hog":15,"source_year":2024,"crime_score":0.2083,"crime_nivel":"Medio","crime_color":"#ff9800"},"geometry":{"type":"Polygon","coordinates":[[[-72.0276243659999,-36.7997607150946],[-72.02623123,-36.8000837010946],[-72.0266056819999,-36.8012472180947],[-72.0280603949999,-36.8009469830946],[-72.0276243659999,-36.7997607150946]]]}},{"type":"Feature","properties":{"id":"16108011001039","commune":"San Ignacio","code":"16108","gse":"C3","quintil":"Q2","nse_score":669.9,"educ":11.1,"educ_score":540.0,"hacin":1.45,"hacin_class":"Hacinamiento Leve","hacin_score":755.3,"auto_score":136.4,"n_per":29,"n_hog":11,"source_year":2024,"crime_score":0.209,"crime_nivel":"Medio","crime_color":"#ff9800"},"geometry":{"type":"Polygon","coordinates":[[[-72.0331811339999,-36.8011986830946],[-72.0328036719999,-36.8000080600946],[-72.0313468839999,-36.8003401250946],[-72.031732083,-36.8015063710947],[-72.0331811339999,-36.8011986830946]]]}},{"type":"Feature","properties":{"id":"16108011001040","commune":"San Ignacio","code":"16108","gse":"E","quintil":"Q1","nse_score":596.8,"educ":8.0,"educ_score":333.3,"hacin":1.056,"hacin_class":"Hacinamiento Leve","hacin_score":839.2,"auto_score":88.2,"n_per":38,"n_hog":17,"source_year":2024,"crime_score":0.2184,"crime_nivel":"Medio","crime_color":"#ff9800"},"geometry":{"type":"Polygon","coordinates":[[[-72.0260739209999,-36.8001038090947],[-72.0246807739999,-36.8004267770946],[-72.0250671009999,-36.8016017130947],[-72.0265099269999,-36.8012900820946],[-72.0260739209999,-36.8001038090947]]]}},{"type":"Feature","properties":{"id":"16108011001041","commune":"San Ignacio","code":"16108","gse":"E","quintil":"Q1","nse_score":589.0,"educ":9.7,"educ_score":446.7,"hacin":1.256,"hacin_class":"Hacinamiento Leve","hacin_score":796.5,"auto_score":47.6,"n_per":49,"n_hog":21,"source_year":2024,"crime_score":0.2204,"crime_nivel":"Medio","crime_color":"#ff9800"},"geometry":{"type":"Polygon","coordinates":[[[-72.0378680399999,-36.8002602910946],[-72.036469441,-36.8005889190947],[-72.036851124,-36.8017628410946],[-72.0383220109999,-36.8014301750946],[-72.0378680399999,-36.8002602910946]]]}},{"type":"Feature","properties":{"id":"16108011001042","commune":"San Ignacio","code":"16108","gse":"C3","quintil":"Q3","nse_score":700.6,"educ":12.3,"educ_score":620.0,"hacin":1.147,"hacin_class":"Hacinamiento Leve","hacin_score":819.8,"auto_score":66.7,"n_per":39,"n_hog":15,"source_year":2024,"crime_score":0.2065,"crime_nivel":"Medio","crime_color":"#ff9800"},"geometry":{"type":"Polygon","coordinates":[[[-72.0316098129999,-36.8015356710946],[-72.0312281739999,-36.8003513030947],[-72.0297755739999,-36.8006770890946],[-72.0301607489999,-36.8018433390947],[-72.0316098129999,-36.8015356710946]]]}},{"type":"Feature","properties":{"id":"16108011001043","commune":"San Ignacio","code":"16108","gse":"C3","quintil":"Q2","nse_score":673.7,"educ":11.9,"educ_score":593.3,"hacin":1.296,"hacin_class":"Hacinamiento Leve","hacin_score":788.0,"auto_score":58.8,"n_per":35,"n_hog":15,"source_year":2024,"crime_score":0.2092,"crime_nivel":"Medio","crime_color":"#ff9800"},"geometry":{"type":"Polygon","coordinates":[[[-72.0363098809999,-36.8006103990946],[-72.0349082999999,-36.8009247910946],[-72.0352750559999,-36.8020861460947],[-72.0367603759999,-36.8017786120946],[-72.0363098809999,-36.8006103990946]]]}},{"type":"Feature","properties":{"id":"16108011001044","commune":"San Ignacio","code":"16108","gse":"C2","quintil":"Q3","nse_score":713.4,"educ":12.9,"educ_score":660.0,"hacin":1.333,"hacin_class":"Hacinamiento Leve","hacin_score":780.1,"auto_score":38.5,"n_per":24,"n_hog":13,"source_year":2024,"crime_score":0.2036,"crime_nivel":"Medio","crime_color":"#ff9800"},"geometry":{"type":"Polygon","coordinates":[[[-72.0300614439999,-36.8018700280946],[-72.0296731439999,-36.8006879650946],[-72.0282163319999,-36.8010199910946],[-72.0286014839999,-36.8021862440946],[-72.0300614439999,-36.8018700280946]]]}},{"type":"Feature","properties":{"id":"16108011001045","commune":"San Ignacio","code":"16108","gse":"D","quintil":"Q2","nse_score":647.9,"educ":11.5,"educ_score":566.7,"hacin":1.25,"hacin_class":"Hacinamiento Leve","hacin_score":797.9,"auto_score":45.5,"n_per":25,"n_hog":10,"source_year":2024,"crime_score":0.2111,"crime_nivel":"Medio","crime_color":"#ff9800"},"geometry":{"type":"Polygon","coordinates":[[[-72.0348113929999,-36.8009520750946],[-72.0333302889999,-36.8012531480946],[-72.0336970219999,-36.8024145070946],[-72.0351765739999,-36.8021086180946],[-72.0348113929999,-36.8009520750946]]]}},{"type":"Feature","properties":{"id":"16108011001046","commune":"San Ignacio","code":"16108","gse":"C3","quintil":"Q2","nse_score":678.0,"educ":12.5,"educ_score":633.3,"hacin":1.167,"hacin_class":"Hacinamiento Leve","hacin_score":815.6,"auto_score":66.7,"n_per":28,"n_hog":13,"source_year":2024,"crime_score":0.208,"crime_nivel":"Medio","crime_color":"#ff9800"},"geometry":{"type":"Polygon","coordinates":[[[-72.0285041539999,-36.8022073260946],[-72.0281158769999,-36.8010252580946],[-72.0266590529999,-36.8013572640946],[-72.0270441819999,-36.8025235210946],[-72.0285041539999,-36.8022073260946]]]}},{"type":"Feature","properties":{"id":"16108011001047","commune":"San Ignacio","code":"16108","gse":"C3","quintil":"Q2","nse_score":662.4,"educ":10.7,"educ_score":513.3,"hacin":1.228,"hacin_class":"Hacinamiento Leve","hacin_score":802.5,"auto_score":118.2,"n_per":140,"n_hog":52,"source_year":2024,"crime_score":0.2214,"crime_nivel":"Medio","crime_color":"#ff9800"},"geometry":{"type":"Polygon","coordinates":[[[-72.028811619,-36.8076144340946],[-72.0287553569999,-36.8061248670946],[-72.0308695659999,-36.8056036520946],[-72.0302840079999,-36.8039877920946],[-72.0319302739999,-36.8030302630946],[-72.0322085869999,-36.8034713910946],[-72.0336727229999,-36.8033898610946],[-72.0335724269999,-36.8028172400946],[-72.0336841719999,-36.8026106990946],[-72.0332103929999,-36.8012608520946],[-72.0317505869999,-36.8015794090946],[-72.03205277,-36.8024532750946],[-72.0323889739999,-36.8024008520946],[-72.0320655719999,-36.8024861260946],[-72.0321941479999,-36.8028457650946],[-72.0327438689999,-36.8025476190946],[-72.0322049469999,-36.8028849300946],[-72.0316170229999,-36.8015994100946],[-72.0301945699999,-36.8019068590946],[-72.0302226519999,-36.8022724750946],[-72.0300905219999,-36.8019367890947],[-72.0286440899999,-36.8022499850946],[-72.0289856349999,-36.8034083680946],[-72.029813826,-36.8032900890946],[-72.0275016409999,-36.8038663540946],[-72.028317119,-36.8060935220946],[-72.0284171509999,-36.8072132250946],[-72.028811619,-36.8076144340946]]]}},{"type":"Feature","properties":{"id":"16108011001048","commune":"San Ignacio","code":"16108","gse":"E","quintil":"Q1","nse_score":590.3,"educ":10.1,"educ_score":473.3,"hacin":1.538,"hacin_class":"Hacinamiento Medio","hacin_score":736.5,"auto_score":50.0,"n_per":40,"n_hog":17,"source_year":2024,"crime_score":0.2193,"crime_nivel":"Medio","crime_color":"#ff9800"},"geometry":{"type":"Polygon","coordinates":[[[-72.026946414,-36.8025559050946],[-72.0265581599999,-36.8013738340946],[-72.0251013249999,-36.8017058210946],[-72.0254864309999,-36.8028720820947],[-72.026946414,-36.8025559050946]]]}},{"type":"Feature","properties":{"id":"16108011001049","commune":"San Ignacio","code":"16108","gse":"D","quintil":"Q1","nse_score":622.9,"educ":9.6,"educ_score":440.0,"hacin":1.188,"hacin_class":"Hacinamiento Leve","hacin_score":811.2,"auto_score":142.9,"n_per":76,"n_hog":26,"source_year":2024,"crime_score":0.2194,"crime_nivel":"Medio","crime_color":"#ff9800"},"geometry":{"type":"Polygon","coordinates":[[[-72.0382880519999,-36.8015012870946],[-72.0368894299999,-36.8018299200946],[-72.0372691559999,-36.8029978680946],[-72.0387477209999,-36.8026719310946],[-72.0382880519999,-36.8015012870946]]]}},{"type":"Feature","properties":{"id":"16108011001050","commune":"San Ignacio","code":"16108","gse":"D","quintil":"Q2","nse_score":651.0,"educ":11.2,"educ_score":546.7,"hacin":1.439,"hacin_class":"Hacinamiento Leve","hacin_score":757.7,"auto_score":75.0,"n_per":59,"n_hog":20,"source_year":2024,"crime_score":0.2143,"crime_nivel":"Medio","crime_color":"#ff9800"},"geometry":{"type":"Polygon","coordinates":[[[-72.0253818509999,-36.8028986360946],[-72.0249936219999,-36.8017165610946],[-72.0235367739999,-36.8020485270946],[-72.0239218579999,-36.8032147930946],[-72.0253818509999,-36.8028986360946]]]}},{"type":"Feature","properties":{"id":"16108011001051","commune":"San Ignacio","code":"16108","gse":"D","quintil":"Q1","nse_score":631.2,"educ":9.0,"educ_score":400.0,"hacin":1.338,"hacin_class":"Hacinamiento Leve","hacin_score":779.1,"auto_score":171.9,"n_per":95,"n_hog":35,"source_year":2024,"crime_score":0.2204,"crime_nivel":"Medio","crime_color":"#ff9800"},"geometry":{"type":"Polygon","coordinates":[[[-72.0350307149999,-36.8026676220946],[-72.0348354149999,-36.8022512150946],[-72.0337277719999,-36.8025064150946],[-72.0336202759999,-36.8028990560946],[-72.0339091299999,-36.8046798840946],[-72.0353777079999,-36.8044721820946],[-72.0356647259999,-36.8043074930946],[-72.0357290359999,-36.8041341880946],[-72.0360655609999,-36.8040969780946],[-72.0368597739999,-36.8041625130946],[-72.0377982629999,-36.8040526920946],[-72.0379251269999,-36.8043134160946],[-72.0387198569999,-36.8044153670946],[-72.0389421229999,-36.8041879530946],[-72.0397353729999,-36.8044217930946],[-72.039777065,-36.8038062540946],[-72.0390677579999,-36.8033927630946],[-72.0387904359999,-36.8027387650946],[-72.0375403859999,-36.8030017150946],[-72.0375998889999,-36.8036025150946],[-72.0374867319999,-36.8034015830946],[-72.0375099079999,-36.8030087710946],[-72.0372087899999,-36.8030239440946],[-72.0367807939999,-36.8018534650946],[-72.0348947639999,-36.8022387330946],[-72.0350307149999,-36.8026676220946]]]}},{"type":"Feature","properties":{"id":"16108011001052","commune":"San Ignacio","code":"16108","gse":"D","quintil":"Q2","nse_score":656.6,"educ":10.4,"educ_score":493.3,"hacin":1.029,"hacin_class":"Hacinamiento Leve","hacin_score":844.8,"auto_score":88.2,"n_per":35,"n_hog":15,"source_year":2024,"crime_score":0.2112,"crime_nivel":"Medio","crime_color":"#ff9800"},"geometry":{"type":"Polygon","coordinates":[[[-72.0224714399999,-36.8022444450946],[-72.0225098309999,-36.8025685070946],[-72.0224158579999,-36.8026174260946],[-72.0203193949999,-36.8034405140946],[-72.018555063,-36.8038205210946],[-72.0188994349999,-36.8044300990946],[-72.0238357989999,-36.8032399530946],[-72.0234513049999,-36.8020641540946],[-72.0224714399999,-36.8022444450946]]]}},{"type":"Feature","properties":{"id":"16108011001053","commune":"San Ignacio","code":"16108","gse":"D","quintil":"Q1","nse_score":635.4,"educ":10.7,"educ_score":513.3,"hacin":1.5,"hacin_class":"Hacinamiento Medio","hacin_score":744.7,"auto_score":66.7,"n_per":39,"n_hog":15,"source_year":2024,"crime_score":0.214,"crime_nivel":"Medio","crime_color":"#ff9800"},"geometry":{"type":"Polygon","coordinates":[[[-72.0284733029999,-36.8022887660946],[-72.0270778719999,-36.8026131180946],[-72.0274500399999,-36.8037794040946],[-72.0289289579999,-36.8034684500946],[-72.0284733029999,-36.8022887660946]]]}},{"type":"Feature","properties":{"id":"16108011001054","commune":"San Ignacio","code":"16108","gse":"D","quintil":"Q1","nse_score":616.6,"educ":8.8,"educ_score":386.7,"hacin":1.081,"hacin_class":"Hacinamiento Leve","hacin_score":833.8,"auto_score":264.7,"n_per":40,"n_hog":16,"source_year":2024,"crime_score":0.2163,"crime_nivel":"Medio","crime_color":"#ff9800"},"geometry":{"type":"Polygon","coordinates":[[[-72.0269842259999,-36.8026355260946],[-72.0255134189999,-36.8029530240946],[-72.0258855639999,-36.8041193140946],[-72.0273644929999,-36.8038083810946],[-72.0269842259999,-36.8026355260946]]]}},{"type":"Feature","properties":{"id":"16108011001055","commune":"San Ignacio","code":"16108","gse":"C3","quintil":"Q3","nse_score":679.3,"educ":10.7,"educ_score":513.3,"hacin":1.256,"hacin_class":"Hacinamiento Leve","hacin_score":796.5,"auto_score":25.0,"n_per":49,"n_hog":20,"source_year":2024,"crime_score":0.21,"crime_nivel":"Medio","crime_color":"#ff9800"},"geometry":{"type":"Polygon","coordinates":[[[-72.0254303149999,-36.8029756960946],[-72.0239594959999,-36.8032931730946],[-72.0243316179999,-36.8044594670946],[-72.0258105599999,-36.8041485530946],[-72.0254303149999,-36.8029756960946]]]}},{"type":"Feature","properties":{"id":"16108011001056","commune":"San Ignacio","code":"16108","gse":"C3","quintil":"Q3","nse_score":696.5,"educ":12.0,"educ_score":600.0,"hacin":1.4,"hacin_class":"Hacinamiento Leve","hacin_score":766.0,"auto_score":200.0,"n_per":35,"n_hog":15,"source_year":2024,"crime_score":0.2066,"crime_nivel":"Medio","crime_color":"#ff9800"},"geometry":{"type":"Polygon","coordinates":[[[-72.0238595619999,-36.8033189580946],[-72.0222877249999,-36.8036671230946],[-72.0226753739999,-36.8048065830946],[-72.0242432149999,-36.8044940270946],[-72.0238595619999,-36.8033189580946]]]}},{"type":"Feature","properties":{"id":"16108011001057","commune":"San Ignacio","code":"16108","gse":"C1","quintil":"Q5","nse_score":774.0,"educ":12.0,"educ_score":600.0,"hacin":1.333,"hacin_class":"Hacinamiento Leve","hacin_score":780.1,"auto_score":1000.0,"n_per":16,"n_hog":4,"source_year":2024,"crime_score":0.1959,"crime_nivel":"Medio","crime_color":"#ff9800"},"geometry":{"type":"Polygon","coordinates":[[[-72.0425287979999,-36.8049541320946],[-72.0431502359999,-36.8048828760946],[-72.0435747689999,-36.8045045940946],[-72.0439921739999,-36.8044392060946],[-72.0432093489999,-36.8034205990946],[-72.0420193139999,-36.8038732730946],[-72.0425287979999,-36.8049541320946]]]}},{"type":"Feature","properties":{"id":"16108011001058","commune":"San Ignacio","code":"16108","gse":"E","quintil":"Q1","nse_score":590.1,"educ":10.8,"educ_score":520.0,"hacin":1.625,"hacin_class":"Hacinamiento Medio","hacin_score":718.1,"auto_score":83.3,"n_per":13,"n_hog":5,"source_year":2024,"crime_score":0.2164,"crime_nivel":"Medio","crime_color":"#ff9800"},"geometry":{"type":"Polygon","coordinates":[[[-72.0166073739999,-36.8035417190946],[-72.0146933919999,-36.8039987830946],[-72.0151622769999,-36.8053569560946],[-72.016862322,-36.8049354280946],[-72.0164520349999,-36.8038945860946],[-72.0169051699999,-36.8049248030946],[-72.0171834639999,-36.8048557960946],[-72.0166073739999,-36.8035417190946]]]}},{"type":"Feature","properties":{"id":"16108011001059","commune":"San Ignacio","code":"16108","gse":"D","quintil":"Q1","nse_score":626.9,"educ":10.4,"educ_score":493.3,"hacin":1.403,"hacin_class":"Hacinamiento Leve","hacin_score":765.2,"auto_score":109.4,"n_per":80,"n_hog":32,"source_year":2024,"crime_score":0.2193,"crime_nivel":"Medio","crime_color":"#ff9800"},"geometry":{"type":"Polygon","coordinates":[[[-72.0221810589999,-36.8036850470946],[-72.0141494869999,-36.8056942330946],[-72.0148877569999,-36.8082292440946],[-72.0164574049999,-36.8074062810946],[-72.0166330419999,-36.8072098680946],[-72.0166205589999,-36.8069466600946],[-72.0175121509999,-36.8062054440946],[-72.0190761709999,-36.8056093220946],[-72.0208407209999,-36.8052426050946],[-72.0213030759999,-36.8062560590946],[-72.020935731,-36.8063741720946],[-72.0221033959999,-36.8079463750945],[-72.0220501909999,-36.8084782140946],[-72.0218197809999,-36.8086509680946],[-72.0223022079999,-36.8090970570945],[-72.0238054689999,-36.8081607240946],[-72.0221810589999,-36.8036850470946]]]}},{"type":"Feature","properties":{"id":"16108011001060","commune":"San Ignacio","code":"16108","gse":"D","quintil":"Q1","nse_score":610.6,"educ":8.4,"educ_score":360.0,"hacin":1.122,"hacin_class":"Hacinamiento Leve","hacin_score":825.1,"auto_score":23.8,"n_per":46,"n_hog":21,"source_year":2024,"crime_score":0.2176,"crime_nivel":"Medio","crime_color":"#ff9800"},"geometry":{"type":"Polygon","coordinates":[[[-72.0273291159999,-36.8038817510946],[-72.0259219829999,-36.8042008460946],[-72.0263100919999,-36.8053753130946],[-72.0277801769999,-36.8050662750946],[-72.0273291159999,-36.8038817510946]]]}},{"type":"Feature","properties":{"id":"16108011001061","commune":"San Ignacio","code":"16108","gse":"E","quintil":"Q1","nse_score":592.4,"educ":9.3,"educ_score":420.0,"hacin":1.3,"hacin_class":"Hacinamiento Leve","hacin_score":787.2,"auto_score":147.1,"n_per":39,"n_hog":15,"source_year":2024,"crime_score":0.219,"crime_nivel":"Medio","crime_color":"#ff9800"},"geometry":{"type":"Polygon","coordinates":[[[-72.0257716659999,-36.8042218350946],[-72.0243645209999,-36.8045409110946],[-72.0247437399999,-36.8057172820946],[-72.0262244479999,-36.8054067620946],[-72.0257716659999,-36.8042218350946]]]}},{"type":"Feature","properties":{"id":"16108011001062","commune":"San Ignacio","code":"16108","gse":"E","quintil":"Q1","nse_score":586.5,"educ":9.0,"educ_score":400.0,"hacin":1.348,"hacin_class":"Hacinamiento Leve","hacin_score":777.1,"auto_score":0.0,"n_per":31,"n_hog":14,"source_year":2024,"crime_score":0.2188,"crime_nivel":"Medio","crime_color":"#ff9800"},"geometry":{"type":"Polygon","coordinates":[[[-72.0246557529999,-36.8056956310946],[-72.0242652149999,-36.8045504470946],[-72.0227098429999,-36.8049156480946],[-72.0231378149999,-36.8061042070946],[-72.0246557529999,-36.8056956310946]]]}},{"type":"Feature","properties":{"id":"16108011001063","commune":"San Ignacio","code":"16108","gse":"E","quintil":"Q1","nse_score":588.7,"educ":8.8,"educ_score":386.7,"hacin":1.333,"hacin_class":"Hacinamiento Leve","hacin_score":780.1,"auto_score":50.0,"n_per":24,"n_hog":10,"source_year":2024,"crime_score":0.2178,"crime_nivel":"Medio","crime_color":"#ff9800"},"geometry":{"type":"Polygon","coordinates":[[[-72.0250755049999,-36.8068558260946],[-72.0246760979999,-36.8058151340946],[-72.0231522619999,-36.8061715830946],[-72.0238741059999,-36.8081607080946],[-72.0257081029999,-36.8079320960946],[-72.0283364359999,-36.8071256450946],[-72.0282567589999,-36.8061177380946],[-72.0278045659999,-36.8051268280946],[-72.0263309069999,-36.8054420780946],[-72.0265974049999,-36.8066074360946],[-72.0250755049999,-36.8068558260946]]]}},{"type":"Feature","properties":{"id":"16108011001064","commune":"San Ignacio","code":"16108","gse":"D","quintil":"Q1","nse_score":629.1,"educ":9.8,"educ_score":453.3,"hacin":1.36,"hacin_class":"Hacinamiento Leve","hacin_score":774.5,"auto_score":76.9,"n_per":68,"n_hog":28,"source_year":2024,"crime_score":0.2178,"crime_nivel":"Medio","crime_color":"#ff9800"},"geometry":{"type":"Polygon","coordinates":[[[-72.0249921109999,-36.8065344870946],[-72.0252257429999,-36.8068575930946],[-72.0265400579999,-36.8065929150946],[-72.0264096949999,-36.8060359610946],[-72.0258795579999,-36.8060964700946],[-72.0263930669999,-36.8059758810946],[-72.0262502029999,-36.8054596800946],[-72.0247746079999,-36.8057921410946],[-72.0249921109999,-36.8065344870946]]]}},{"type":"Feature","properties":{"id":"16108011001002","commune":"San Ignacio","code":"16108","gse":"E","quintil":"Q1","nse_score":598.8,"educ":11.1,"educ_score":540.0,"hacin":1.158,"hacin_class":"Hacinamiento Leve","hacin_score":817.5,"auto_score":62.5,"n_per":22,"n_hog":9,"source_year":2024,"crime_score":0.2164,"crime_nivel":"Medio","crime_color":"#ff9800"},"geometry":{"type":"MultiPolygon","coordinates":[[[[-72.0316086639999,-36.7961687320947],[-72.0330543179999,-36.7958503300947],[-72.0326625099999,-36.7946781100947],[-72.0312055549999,-36.7949951220947],[-72.0316086639999,-36.7961687320947]]],[[[-72.0300534499999,-36.7965017510947],[-72.0315035269999,-36.7961822620947],[-72.031159725,-36.7949523410947],[-72.0326981829999,-36.7945975630947],[-72.0335136659999,-36.7941101530947],[-72.0328271779999,-36.7929644400947],[-72.0297929589999,-36.7942888080947],[-72.0303513309999,-36.7947521690947],[-72.0304230339999,-36.7949637720947],[-72.0303394839999,-36.7952807250947],[-72.0297800139999,-36.7958424090947],[-72.0300534499999,-36.7965017510947]]]]}},{"type":"Feature","properties":{"id":"16108051001002","commune":"San Ignacio","code":"16108","gse":"C2","quintil":"Q4","nse_score":729.5,"educ":11.6,"educ_score":573.3,"hacin":1.118,"hacin_class":"Hacinamiento Leve","hacin_score":826.0,"auto_score":333.3,"n_per":57,"n_hog":21,"source_year":2024,"crime_score":0.205,"crime_nivel":"Medio","crime_color":"#ff9800"},"geometry":{"type":"Polygon","coordinates":[[[-72.0892376549999,-36.8755239960939],[-72.0899696639999,-36.875512523094],[-72.0891913339999,-36.875569491094],[-72.0891864589999,-36.8758714330939],[-72.0899081139999,-36.8758574310939],[-72.0891774599999,-36.8759130580939],[-72.0891558629999,-36.8762284810939],[-72.0900381519999,-36.876218847094],[-72.0891529859999,-36.8762817800939],[-72.0892409879999,-36.8770999420939],[-72.0903973269999,-36.877025316094],[-72.0902663139999,-36.875150640094],[-72.0894912469999,-36.8751733420939],[-72.0892376549999,-36.8755239960939]]]}},{"type":"Feature","properties":{"id":"16108051001003","commune":"San Ignacio","code":"16108","gse":"D","quintil":"Q1","nse_score":608.6,"educ":8.9,"educ_score":393.3,"hacin":1.161,"hacin_class":"Hacinamiento Leve","hacin_score":816.7,"auto_score":187.5,"n_per":36,"n_hog":14,"source_year":2024,"crime_score":0.2168,"crime_nivel":"Medio","crime_color":"#ff9800"},"geometry":{"type":"Polygon","coordinates":[[[-72.0918177719999,-36.8779380810939],[-72.0930668539999,-36.8778374190939],[-72.0929830389999,-36.876910117094],[-72.09169241,-36.8769870860939],[-72.0918177719999,-36.8779380810939]]]}},{"type":"Feature","properties":{"id":"16108051001004","commune":"San Ignacio","code":"16108","gse":"D","quintil":"Q1","nse_score":616.8,"educ":9.5,"educ_score":433.3,"hacin":1.044,"hacin_class":"Hacinamiento Leve","hacin_score":841.8,"auto_score":136.4,"n_per":24,"n_hog":11,"source_year":2024,"crime_score":0.2146,"crime_nivel":"Medio","crime_color":"#ff9800"},"geometry":{"type":"Polygon","coordinates":[[[-72.0905954709999,-36.8780159640939],[-72.0917503759999,-36.8779291780939],[-72.0916425149999,-36.8769968290939],[-72.0904691949999,-36.8770725640939],[-72.0905954709999,-36.8780159640939]]]}},{"type":"Feature","properties":{"id":"16108051001005","commune":"San Ignacio","code":"16108","gse":"D","quintil":"Q1","nse_score":611.6,"educ":9.8,"educ_score":453.3,"hacin":1.0,"hacin_class":"Hacinamiento Leve","hacin_score":851.1,"auto_score":0.0,"n_per":29,"n_hog":11,"source_year":2024,"crime_score":0.2157,"crime_nivel":"Medio","crime_color":"#ff9800"},"geometry":{"type":"Polygon","coordinates":[[[-72.0892638859999,-36.877160467094],[-72.0893774619999,-36.8780976110939],[-72.0905285229999,-36.8780010860939],[-72.0904010759999,-36.8770700080939],[-72.0892638859999,-36.877160467094]]]}},{"type":"Feature","properties":{"id":"16108051001006","commune":"San Ignacio","code":"16108","gse":"C3","quintil":"Q3","nse_score":694.1,"educ":11.0,"educ_score":533.3,"hacin":1.083,"hacin_class":"Hacinamiento Leve","hacin_score":833.3,"auto_score":76.9,"n_per":26,"n_hog":12,"source_year":2024,"crime_score":0.206,"crime_nivel":"Medio","crime_color":"#ff9800"},"geometry":{"type":"Polygon","coordinates":[[[-72.0880108599999,-36.8772901130939],[-72.0881395199999,-36.878188527094],[-72.0893042169999,-36.8780857890939],[-72.0891898959999,-36.8771695520939],[-72.0880108599999,-36.8772901130939]]]}},{"type":"Feature","properties":{"id":"16108051001007","commune":"San Ignacio","code":"16108","gse":"D","quintil":"Q1","nse_score":633.2,"educ":9.8,"educ_score":453.3,"hacin":1.25,"hacin_class":"Hacinamiento Leve","hacin_score":797.9,"auto_score":187.5,"n_per":40,"n_hog":14,"source_year":2024,"crime_score":0.2144,"crime_nivel":"Medio","crime_color":"#ff9800"},"geometry":{"type":"Polygon","coordinates":[[[-72.0879425159999,-36.8772526260939],[-72.0867875839999,-36.8774017920939],[-72.0869134209999,-36.8782721120939],[-72.0880736869999,-36.8781869130939],[-72.0879425159999,-36.8772526260939]]]}},{"type":"Feature","properties":{"id":"16108051001008","commune":"San Ignacio","code":"16108","gse":"C3","quintil":"Q3","nse_score":693.6,"educ":11.2,"educ_score":546.7,"hacin":0.806,"hacin_class":"Sin Hacinamiento","hacin_score":892.4,"auto_score":142.9,"n_per":29,"n_hog":13,"source_year":2024,"crime_score":0.2063,"crime_nivel":"Medio","crime_color":"#ff9800"},"geometry":{"type":"Polygon","coordinates":[[[-72.0919369999999,-36.8789290710939],[-72.0931888679999,-36.8788334200939],[-72.09310138,-36.877932712094],[-72.0918260059999,-36.877985586094],[-72.0919369999999,-36.8789290710939]]]}},{"type":"Feature","properties":{"id":"16108051001009","commune":"San Ignacio","code":"16108","gse":"C3","quintil":"Q3","nse_score":678.6,"educ":10.9,"educ_score":526.7,"hacin":1.273,"hacin_class":"Hacinamiento Leve","hacin_score":793.0,"auto_score":200.0,"n_per":28,"n_hog":10,"source_year":2024,"crime_score":0.2079,"crime_nivel":"Medio","crime_color":"#ff9800"},"geometry":{"type":"Polygon","coordinates":[[[-72.0907010599999,-36.8789928050939],[-72.0918598709999,-36.8789279620939],[-72.0917538189999,-36.8779888210939],[-72.0905893569999,-36.8780777560939],[-72.0907010599999,-36.8789928050939]]]}},{"type":"Feature","properties":{"id":"16108051001010","commune":"San Ignacio","code":"16108","gse":"D","quintil":"Q1","nse_score":619.1,"educ":9.5,"educ_score":433.3,"hacin":1.345,"hacin_class":"Hacinamiento Leve","hacin_score":777.7,"auto_score":62.5,"n_per":39,"n_hog":15,"source_year":2024,"crime_score":0.2159,"crime_nivel":"Medio","crime_color":"#ff9800"},"geometry":{"type":"Polygon","coordinates":[[[-72.0893906569999,-36.8781376580939],[-72.0895070199999,-36.8790857040939],[-72.0906416189999,-36.8789911010939],[-72.0905224749999,-36.8780745370939],[-72.0893906569999,-36.8781376580939]]]}},{"type":"Feature","properties":{"id":"16108051001013","commune":"San Ignacio","code":"16108","gse":"C2","quintil":"Q4","nse_score":724.0,"educ":12.6,"educ_score":640.0,"hacin":1.192,"hacin_class":"Hacinamiento Leve","hacin_score":810.1,"auto_score":291.7,"n_per":31,"n_hog":10,"source_year":2024,"crime_score":0.2031,"crime_nivel":"Medio","crime_color":"#ff9800"},"geometry":{"type":"Polygon","coordinates":[[[-72.0920723659999,-36.8799054070939],[-72.093299827,-36.8797962030939],[-72.093213579,-36.8789340550939],[-72.0919421149999,-36.8789884200939],[-72.0920723659999,-36.8799054070939]]]}},{"type":"Feature","properties":{"id":"16108051001014","commune":"San Ignacio","code":"16108","gse":"E","quintil":"Q1","nse_score":600.5,"educ":9.0,"educ_score":400.0,"hacin":1.389,"hacin_class":"Hacinamiento Leve","hacin_score":768.3,"auto_score":100.0,"n_per":25,"n_hog":10,"source_year":2024,"crime_score":0.2165,"crime_nivel":"Medio","crime_color":"#ff9800"},"geometry":{"type":"Polygon","coordinates":[[[-72.0908323289999,-36.8799846140939],[-72.0919703039999,-36.8799195380939],[-72.091862611,-36.8789910290939],[-72.0907129009999,-36.8790667530939],[-72.0908323289999,-36.8799846140939]]]}},{"type":"Feature","properties":{"id":"16108051001015","commune":"San Ignacio","code":"16108","gse":"C3","quintil":"Q2","nse_score":664.3,"educ":10.6,"educ_score":506.7,"hacin":1.454,"hacin_class":"Hacinamiento Leve","hacin_score":754.4,"auto_score":205.9,"n_per":48,"n_hog":18,"source_year":2024,"crime_score":0.2116,"crime_nivel":"Medio","crime_color":"#ff9800"},"geometry":{"type":"Polygon","coordinates":[[[-72.0896023889999,-36.8800614060939],[-72.090756085,-36.8799902350939],[-72.0906519959999,-36.8790742070939],[-72.0895016469999,-36.8791346220939],[-72.0896023889999,-36.8800614060939]]]}},{"type":"Feature","properties":{"id":"16108051001016","commune":"San Ignacio","code":"16108","gse":"D","quintil":"Q2","nse_score":653.8,"educ":11.1,"educ_score":540.0,"hacin":1.387,"hacin_class":"Hacinamiento Leve","hacin_score":768.7,"auto_score":71.4,"n_per":43,"n_hog":14,"source_year":2024,"crime_score":0.2123,"crime_nivel":"Medio","crime_color":"#ff9800"},"geometry":{"type":"Polygon","coordinates":[[[-72.0894320949999,-36.8791503270939],[-72.0882682269999,-36.8792222010939],[-72.0883819649999,-36.8801407340939],[-72.0895441559999,-36.8800671120939],[-72.0894320949999,-36.8791503270939]]]}},{"type":"Feature","properties":{"id":"16108051001017","commune":"San Ignacio","code":"16108","gse":"C3","quintil":"Q2","nse_score":661.3,"educ":9.9,"educ_score":460.0,"hacin":1.485,"hacin_class":"Hacinamiento Leve","hacin_score":747.9,"auto_score":235.3,"n_per":49,"n_hog":16,"source_year":2024,"crime_score":0.2121,"crime_nivel":"Medio","crime_color":"#ff9800"},"geometry":{"type":"Polygon","coordinates":[[[-72.0882191179999,-36.8792175570939],[-72.0870360199999,-36.8793080440939],[-72.0871408179999,-36.8802181830939],[-72.0883177839999,-36.8801526160939],[-72.0882191179999,-36.8792175570939]]]}},{"type":"Feature","properties":{"id":"16108051001020","commune":"San Ignacio","code":"16108","gse":"C3","quintil":"Q3","nse_score":685.3,"educ":10.4,"educ_score":493.3,"hacin":1.298,"hacin_class":"Hacinamiento Leve","hacin_score":787.6,"auto_score":103.4,"n_per":74,"n_hog":29,"source_year":2024,"crime_score":0.2119,"crime_nivel":"Medio","crime_color":"#ff9800"},"geometry":{"type":"Polygon","coordinates":[[[-72.0910374659999,-36.8827903840939],[-72.0907720389999,-36.8800422110939],[-72.0896068679999,-36.8801056730939],[-72.0899163889999,-36.8826053100939],[-72.0910374659999,-36.8827903840939]]]}},{"type":"Feature","properties":{"id":"16108051001021","commune":"San Ignacio","code":"16108","gse":"D","quintil":"Q1","nse_score":614.3,"educ":9.8,"educ_score":453.3,"hacin":1.302,"hacin_class":"Hacinamiento Leve","hacin_score":786.9,"auto_score":31.2,"n_per":82,"n_hog":32,"source_year":2024,"crime_score":0.221,"crime_nivel":"Medio","crime_color":"#ff9800"},"geometry":{"type":"Polygon","coordinates":[[[-72.0898093319999,-36.8825856790939],[-72.0895557029999,-36.8801233780939],[-72.0884054709999,-36.8801868960939],[-72.0886445769999,-36.8823876950939],[-72.0898093319999,-36.8825856790939]]]}},{"type":"Feature","properties":{"id":"16108051001023","commune":"San Ignacio","code":"16108","gse":"C3","quintil":"Q2","nse_score":668.0,"educ":9.8,"educ_score":453.3,"hacin":1.292,"hacin_class":"Hacinamiento Leve","hacin_score":789.0,"auto_score":50.0,"n_per":62,"n_hog":21,"source_year":2024,"crime_score":0.2127,"crime_nivel":"Medio","crime_color":"#ff9800"},"geometry":{"type":"Polygon","coordinates":[[[-72.0851845429999,-36.8803003950939],[-72.085257527,-36.8807407070939],[-72.0871402859999,-36.8806655650939],[-72.0870371679999,-36.8802701700939],[-72.0851845429999,-36.8803003950939]]]}},{"type":"Feature","properties":{"id":"16108051001024","commune":"San Ignacio","code":"16108","gse":"D","quintil":"Q1","nse_score":613.1,"educ":9.2,"educ_score":413.3,"hacin":1.314,"hacin_class":"Hacinamiento Leve","hacin_score":784.2,"auto_score":156.2,"n_per":46,"n_hog":15,"source_year":2024,"crime_score":0.2173,"crime_nivel":"Medio","crime_color":"#ff9800"},"geometry":{"type":"Polygon","coordinates":[[[-72.0879278599999,-36.8814120040939],[-72.0884579869999,-36.8813935160939],[-72.0883380309999,-36.8805303430939],[-72.0878141809999,-36.8805509640939],[-72.0879278599999,-36.8814120040939]]]}},{"type":"Feature","properties":{"id":"16108051001028","commune":"San Ignacio","code":"16108","gse":"C3","quintil":"Q2","nse_score":659.9,"educ":10.6,"educ_score":506.7,"hacin":1.075,"hacin_class":"Hacinamiento Leve","hacin_score":835.1,"auto_score":166.7,"n_per":43,"n_hog":16,"source_year":2024,"crime_score":0.2116,"crime_nivel":"Medio","crime_color":"#ff9800"},"geometry":{"type":"Polygon","coordinates":[[[-72.0874407149999,-36.8821762670939],[-72.0885654229999,-36.8823744980939],[-72.088492029,-36.8814769660939],[-72.0873258699999,-36.8814934080939],[-72.0874407149999,-36.8821762670939]]]}},{"type":"Feature","properties":{"id":"16108051001030","commune":"San Ignacio","code":"16108","gse":"C3","quintil":"Q3","nse_score":701.3,"educ":11.1,"educ_score":540.0,"hacin":1.053,"hacin_class":"Hacinamiento Leve","hacin_score":839.9,"auto_score":55.6,"n_per":40,"n_hog":17,"source_year":2024,"crime_score":0.2066,"crime_nivel":"Medio","crime_color":"#ff9800"},"geometry":{"type":"Polygon","coordinates":[[[-72.0910461889999,-36.8816928120939],[-72.091162848,-36.8828048650939],[-72.0917204049999,-36.8828737850939],[-72.0916578149999,-36.8822788390939],[-72.0917881459999,-36.8828583400939],[-72.0923281909999,-36.8827413040939],[-72.0921740269999,-36.8816243860939],[-72.0910461889999,-36.8816928120939]]]}},{"type":"Feature","properties":{"id":"16108051001033","commune":"San Ignacio","code":"16108","gse":"D","quintil":"Q2","nse_score":657.3,"educ":9.9,"educ_score":460.0,"hacin":1.315,"hacin_class":"Hacinamiento Leve","hacin_score":784.0,"auto_score":111.1,"n_per":171,"n_hog":61,"source_year":2024,"crime_score":0.2252,"crime_nivel":"Medio","crime_color":"#ff9800"},"geometry":{"type":"Polygon","coordinates":[[[-72.0876675019999,-36.8822715640939],[-72.0880111089999,-36.8845917050939],[-72.0890657329999,-36.8847662340939],[-72.0891148889999,-36.8852250030939],[-72.0902012039999,-36.8853601100939],[-72.0899077569999,-36.8839516040939],[-72.0898325319999,-36.8826456280939],[-72.0890334549999,-36.8825030730939],[-72.0892302179999,-36.8837908090939],[-72.088983949,-36.8824939090939],[-72.0883007709999,-36.8823917940939],[-72.0886860329999,-36.8845400340939],[-72.0882500639999,-36.8823757910939],[-72.0876675019999,-36.8822715640939]]]}},{"type":"Feature","properties":{"id":"16108051001034","commune":"San Ignacio","code":"16108","gse":"C3","quintil":"Q3","nse_score":686.3,"educ":9.7,"educ_score":446.7,"hacin":1.121,"hacin_class":"Hacinamiento Leve","hacin_score":825.3,"auto_score":114.3,"n_per":74,"n_hog":35,"source_year":2024,"crime_score":0.2118,"crime_nivel":"Medio","crime_color":"#ff9800"},"geometry":{"type":"Polygon","coordinates":[[[-72.0918437349999,-36.8829255570939],[-72.0913027569999,-36.8828872110939],[-72.0913231439999,-36.8839211770939],[-72.0912745559999,-36.8828819580939],[-72.0899000499999,-36.8826566410939],[-72.0899533079999,-36.8839519950939],[-72.092332757,-36.8841843200938],[-72.092678427,-36.8858617720939],[-72.0938192929999,-36.8857149440938],[-72.0936301859999,-36.8825549400939],[-72.0918437349999,-36.8829255570939]]]}},{"type":"Feature","properties":{"id":"16108051001018","commune":"San Ignacio","code":"16108","gse":"C3","quintil":"Q3","nse_score":685.4,"educ":9.5,"educ_score":433.3,"hacin":1.417,"hacin_class":"Hacinamiento Leve","hacin_score":762.4,"auto_score":83.3,"n_per":17,"n_hog":6,"source_year":2024,"crime_score":0.206,"crime_nivel":"Medio","crime_color":"#ff9800"},"geometry":{"type":"MultiPolygon","coordinates":[[[[-72.0928844609999,-36.8813839310939],[-72.0928139799999,-36.8809503590939],[-72.092174601,-36.8810158400939],[-72.0924004599999,-36.8827277230939],[-72.0936140009999,-36.8824426370939],[-72.0934504219999,-36.8809412110939],[-72.0928517509999,-36.8809473520939],[-72.0928844609999,-36.8813839310939]]],[[[-72.0909743439999,-36.8810356500939],[-72.0921062059999,-36.8809385550939],[-72.0919940729999,-36.8799770460939],[-72.0908317709999,-36.8800323030939],[-72.0909743439999,-36.8810356500939]]],[[[-72.0921771549999,-36.8809405430939],[-72.0934298869999,-36.8808375790939],[-72.0933107739999,-36.8799054740939],[-72.0920557929999,-36.8799628130939],[-72.0921771549999,-36.8809405430939]]]]}},{"type":"Feature","properties":{"id":"16108051001022","commune":"San Ignacio","code":"16108","gse":"D","quintil":"Q2","nse_score":649.3,"educ":10.5,"educ_score":500.0,"hacin":1.279,"hacin_class":"Hacinamiento Leve","hacin_score":791.7,"auto_score":235.3,"n_per":55,"n_hog":16,"source_year":2024,"crime_score":0.2141,"crime_nivel":"Medio","crime_color":"#ff9800"},"geometry":{"type":"MultiPolygon","coordinates":[[[[-72.087324324,-36.8814227310939],[-72.0878547699999,-36.8813911180939],[-72.0877406099999,-36.8805380040939],[-72.0871885409999,-36.8805703240939],[-72.087324324,-36.8814227310939]]],[[[-72.0872012259999,-36.8804801500939],[-72.0883372529999,-36.8804695880939],[-72.0883405929999,-36.8802192850939],[-72.0872076409999,-36.8802708270939],[-72.0872012259999,-36.8804801500939]]]]}},{"type":"Feature","properties":{"id":"16108051001001","commune":"San Ignacio","code":"16108","gse":"C3","quintil":"Q2","nse_score":665.3,"educ":10.5,"educ_score":500.0,"hacin":1.319,"hacin_class":"Hacinamiento Leve","hacin_score":783.1,"auto_score":229.5,"n_per":351,"n_hog":121,"source_year":2024,"crime_score":0.2376,"crime_nivel":"Medio","crime_color":"#ff9800"},"geometry":{"type":"MultiPolygon","coordinates":[[[[-72.0844249959999,-36.8826509090939],[-72.0844183489999,-36.8816957250939],[-72.0833326149999,-36.8815020180939],[-72.0830201069999,-36.8824714610939],[-72.0844249959999,-36.8826509090939]]],[[[-72.0897091019999,-36.8745862250939],[-72.0869233969999,-36.8769470350939],[-72.085540438,-36.8791573250939],[-72.0844419699999,-36.8789999040939],[-72.0833546989999,-36.8814494750939],[-72.0873132939999,-36.8821538080939],[-72.0871385259999,-36.8807384360939],[-72.0851392129999,-36.8807756060939],[-72.0850878949999,-36.8803135720939],[-72.0853221429999,-36.8802626910939],[-72.0853496579999,-36.8800247060939],[-72.0853604609999,-36.8802662060939],[-72.0870749429999,-36.8802194710939],[-72.08697165,-36.8793121220939],[-72.0856408539999,-36.8793811450939],[-72.0855872409999,-36.8792742880939],[-72.0858011009999,-36.8788393650939],[-72.0861488479999,-36.8788134320939],[-72.0858343149999,-36.8788489890939],[-72.0856441669999,-36.8793361790939],[-72.0869670559999,-36.8792643870939],[-72.0867492479999,-36.8773657530939],[-72.0879295739999,-36.877208079094],[-72.0878959559999,-36.876532826094],[-72.0880371569999,-36.8772017080939],[-72.0891923849999,-36.8771141950939],[-72.0890919439999,-36.8762871610939],[-72.0883782369999,-36.8762838920939],[-72.0890909629999,-36.876232963094],[-72.0890970679999,-36.875920263094],[-72.0884348079999,-36.8759283880939],[-72.0891093859999,-36.875874544094],[-72.0891410099999,-36.875515193094],[-72.0894788879999,-36.8751361040939],[-72.0902281769999,-36.8750911580939],[-72.0903640589999,-36.8756228720939],[-72.0908228959999,-36.8756057990939],[-72.0903481789999,-36.875703569094],[-72.0903549749999,-36.8760731270939],[-72.0908871979999,-36.876064287094],[-72.0903433109999,-36.8761693720939],[-72.0904774549999,-36.8770247050939],[-72.0912555129999,-36.8769549590939],[-72.0912417689999,-36.875375376094],[-72.0913096899999,-36.8769627220939],[-72.0920040279999,-36.8769037900939],[-72.0920065439999,-36.8764997090939],[-72.0920217319999,-36.8769016490939],[-72.0929427269999,-36.8767600920939],[-72.0924991549999,-36.870935682094],[-72.0929360739999,-36.868105861094],[-72.0913823819999,-36.868137791094],[-72.0913108439999,-36.873721055094],[-72.0897091019999,-36.8745862250939]]]]}},{"type":"Feature","properties":{"id":"16108051001031","commune":"San Ignacio","code":"16108","gse":"C3","quintil":"Q2","nse_score":670.4,"educ":12.6,"educ_score":640.0,"hacin":1.417,"hacin_class":"Hacinamiento Leve","hacin_score":762.4,"auto_score":142.9,"n_per":17,"n_hog":5,"source_year":2024,"crime_score":0.2077,"crime_nivel":"Medio","crime_color":"#ff9800"},"geometry":{"type":"MultiPolygon","coordinates":[[[[-72.0860254729999,-36.8828320190939],[-72.087753732,-36.8831056040939],[-72.0876210049999,-36.8822633680939],[-72.0859276389999,-36.8819648920939],[-72.0860254729999,-36.8828320190939]]],[[[-72.0844958359999,-36.8825898540939],[-72.0859790969999,-36.8828246780939],[-72.0858816999999,-36.8819567680939],[-72.0844630649999,-36.8817037020939],[-72.0844958359999,-36.8825898540939]]]]}},{"type":"Feature","properties":{"id":"16108051001011","commune":"San Ignacio","code":"16108","gse":"D","quintil":"Q2","nse_score":639.4,"educ":9.7,"educ_score":446.7,"hacin":1.2,"hacin_class":"Hacinamiento Leve","hacin_score":808.5,"auto_score":45.5,"n_per":30,"n_hog":11,"source_year":2024,"crime_score":0.2126,"crime_nivel":"Medio","crime_color":"#ff9800"},"geometry":{"type":"MultiPolygon","coordinates":[[[[-72.0870265319999,-36.8792506700939],[-72.0881797529999,-36.8791585360939],[-72.0880789549999,-36.8782324350939],[-72.0869154599999,-36.8783106600939],[-72.0870265319999,-36.8792506700939]]],[[[-72.0882430859999,-36.8791578120939],[-72.0894061419999,-36.8790846820939],[-72.0893029409999,-36.8781506900939],[-72.0881410579999,-36.8782296860939],[-72.0882430859999,-36.8791578120939]]]]}},{"type":"Feature","properties":{"id":"16108061001001","commune":"San Ignacio","code":"16108","gse":"C3","quintil":"Q2","nse_score":676.5,"educ":10.7,"educ_score":513.3,"hacin":1.252,"hacin_class":"Hacinamiento Leve","hacin_score":797.4,"auto_score":100.0,"n_per":129,"n_hog":50,"source_year":2024,"crime_score":0.2186,"crime_nivel":"Medio","crime_color":"#ff9800"},"geometry":{"type":"Polygon","coordinates":[[[-72.0930264019999,-36.868104663094],[-72.0925889949999,-36.870939972094],[-72.0926206309999,-36.871943785094],[-72.0931549699999,-36.877585935094],[-72.0950957289999,-36.8775747960939],[-72.0950434689999,-36.8765940050939],[-72.0944036919999,-36.876590389094],[-72.0942559399999,-36.8767956100939],[-72.0943829979999,-36.8765758270939],[-72.0950425909999,-36.8765653260939],[-72.0950382239999,-36.876286596094],[-72.0943203299999,-36.8762509980939],[-72.0950378519999,-36.8762734870939],[-72.0948633019999,-36.873632862094],[-72.094933007,-36.870763889094],[-72.0949874879999,-36.871289773094],[-72.0956859949999,-36.871262143094],[-72.0957382459999,-36.870571591094],[-72.0948778349999,-36.870479426094],[-72.0943082659999,-36.870701173094],[-72.0937598209999,-36.871215443094],[-72.0937604369999,-36.868094928094],[-72.0930264019999,-36.868104663094]]]}},{"type":"Feature","properties":{"id":"16108061001002","commune":"San Ignacio","code":"16108","gse":"D","quintil":"Q1","nse_score":635.4,"educ":9.1,"educ_score":406.7,"hacin":1.267,"hacin_class":"Hacinamiento Leve","hacin_score":794.3,"auto_score":71.4,"n_per":418,"n_hog":153,"source_year":2024,"crime_score":0.2414,"crime_nivel":"Medio","crime_color":"#ff9800"},"geometry":{"type":"Polygon","coordinates":[[[-72.0950787199999,-36.875605843094],[-72.0992875559999,-36.8756937600939],[-72.0965464929999,-36.875705459094],[-72.0966408499999,-36.8778593820939],[-72.097985074,-36.8780868420939],[-72.0979885509999,-36.8765466490939],[-72.0980166829999,-36.8766857660939],[-72.0989878979999,-36.8767410640939],[-72.0980147919999,-36.8767286210939],[-72.0980535249999,-36.8781015110939],[-72.0991918789999,-36.878161711094],[-72.1006229919999,-36.8772148080939],[-72.0992174469999,-36.8781921590939],[-72.0980339129999,-36.8781427860939],[-72.0980922919999,-36.8792889480939],[-72.0996755509999,-36.8795562640939],[-72.0996114659999,-36.878737917094],[-72.0991289109999,-36.8787093640939],[-72.0996371639999,-36.8786993700939],[-72.0999004189999,-36.8808105740939],[-72.0981182099999,-36.8804986110939],[-72.0981272989999,-36.8816301980939],[-72.1014959029999,-36.8823746770938],[-72.1009404699999,-36.8767386540939],[-72.0995438809999,-36.8767567760939],[-72.0993391329999,-36.8752047270939],[-72.0950402249999,-36.8750413420939],[-72.0950787199999,-36.875605843094]]]}},{"type":"Feature","properties":{"id":"16108061001003","commune":"San Ignacio","code":"16108","gse":"C3","quintil":"Q3","nse_score":678.3,"educ":10.4,"educ_score":493.3,"hacin":1.27,"hacin_class":"Hacinamiento Leve","hacin_score":793.6,"auto_score":71.4,"n_per":47,"n_hog":14,"source_year":2024,"crime_score":0.2099,"crime_nivel":"Medio","crime_color":"#ff9800"},"geometry":{"type":"Polygon","coordinates":[[[-72.0951174419999,-36.876189957094],[-72.0965139689999,-36.8762001140939],[-72.0964787369999,-36.8757032650939],[-72.0951113339999,-36.875675536094],[-72.0951174419999,-36.876189957094]]]}},{"type":"Feature","properties":{"id":"16108061001004","commune":"San Ignacio","code":"16108","gse":"E","quintil":"Q1","nse_score":539.4,"educ":7.3,"educ_score":286.7,"hacin":1.48,"hacin_class":"Hacinamiento Leve","hacin_score":748.9,"auto_score":83.3,"n_per":37,"n_hog":15,"source_year":2024,"crime_score":0.2248,"crime_nivel":"Medio","crime_color":"#ff9800"},"geometry":{"type":"Polygon","coordinates":[[[-72.0951796009999,-36.8775934690939],[-72.0965528269999,-36.8778352870939],[-72.0965289579999,-36.876239089094],[-72.0951045419999,-36.8762237050939],[-72.0951796009999,-36.8775934690939]]]}},{"type":"Feature","properties":{"id":"16108061001005","commune":"San Ignacio","code":"16108","gse":"D","quintil":"Q2","nse_score":643.7,"educ":10.0,"educ_score":466.7,"hacin":1.388,"hacin_class":"Hacinamiento Leve","hacin_score":768.6,"auto_score":75.5,"n_per":136,"n_hog":55,"source_year":2024,"crime_score":0.2232,"crime_nivel":"Medio","crime_color":"#ff9800"},"geometry":{"type":"Polygon","coordinates":[[[-72.0934769939999,-36.8803972920939],[-72.0940784059999,-36.8804476300939],[-72.0934846369999,-36.8804334690939],[-72.0935677379999,-36.8810354370939],[-72.0944828649999,-36.8810658290939],[-72.0944890279999,-36.8805625080939],[-72.0943742359999,-36.8805483850939],[-72.0945947339999,-36.8804918700939],[-72.0945043299999,-36.8810680870939],[-72.0952576289999,-36.8810934420939],[-72.0952191439999,-36.8803463520939],[-72.0945305839999,-36.8802619870939],[-72.0952135369999,-36.8803237090939],[-72.0951764519999,-36.8797670840939],[-72.0943063149999,-36.8797544500939],[-72.0951731289999,-36.8797410350939],[-72.0951215579999,-36.8781453340939],[-72.0941721849999,-36.8780632440939],[-72.0951197989999,-36.8781349040939],[-72.095089491,-36.877626919094],[-72.0931613749999,-36.8776421060939],[-72.0934769939999,-36.8803972920939]]]}},{"type":"Feature","properties":{"id":"16108061001006","commune":"San Ignacio","code":"16108","gse":"C3","quintil":"Q2","nse_score":666.0,"educ":9.9,"educ_score":460.0,"hacin":0.973,"hacin_class":"Sin Hacinamiento","hacin_score":856.8,"auto_score":31.2,"n_per":36,"n_hog":16,"source_year":2024,"crime_score":0.2102,"crime_nivel":"Medio","crime_color":"#ff9800"},"geometry":{"type":"Polygon","coordinates":[[[-72.0951640629999,-36.8781622040939],[-72.0956866479999,-36.8782492470939],[-72.0951642469999,-36.8781903060939],[-72.0952122059999,-36.8787705020939],[-72.0966004619999,-36.8789891010939],[-72.0965440729999,-36.8778728270939],[-72.0951778499999,-36.8776336950939],[-72.0951640629999,-36.8781622040939]]]}},{"type":"Feature","properties":{"id":"16108061001007","commune":"San Ignacio","code":"16108","gse":"D","quintil":"Q2","nse_score":644.2,"educ":9.2,"educ_score":413.3,"hacin":1.258,"hacin_class":"Hacinamiento Leve","hacin_score":796.2,"auto_score":133.3,"n_per":39,"n_hog":15,"source_year":2024,"crime_score":0.213,"crime_nivel":"Medio","crime_color":"#ff9800"},"geometry":{"type":"Polygon","coordinates":[[[-72.0979921509999,-36.878144570094],[-72.0966183309999,-36.8778959060939],[-72.0966503839999,-36.8789992810939],[-72.0980053549999,-36.8792586080939],[-72.0979921509999,-36.878144570094]]]}},{"type":"Feature","properties":{"id":"16108061001008","commune":"San Ignacio","code":"16108","gse":"D","quintil":"Q1","nse_score":628.0,"educ":10.3,"educ_score":486.7,"hacin":1.68,"hacin_class":"Hacinamiento Medio","hacin_score":706.4,"auto_score":71.4,"n_per":42,"n_hog":14,"source_year":2024,"crime_score":0.2152,"crime_nivel":"Medio","crime_color":"#ff9800"},"geometry":{"type":"Polygon","coordinates":[[[-72.0957699139999,-36.8800335040939],[-72.0957590609999,-36.8794808090939],[-72.0957857989999,-36.8800338930939],[-72.0966157129999,-36.8801611630939],[-72.0965960419999,-36.8790542250939],[-72.0952074799999,-36.8788270730939],[-72.0952530049999,-36.8799330470939],[-72.0957699139999,-36.8800335040939]]]}},{"type":"Feature","properties":{"id":"16108061001009","commune":"San Ignacio","code":"16108","gse":"D","quintil":"Q2","nse_score":655.7,"educ":9.9,"educ_score":460.0,"hacin":1.385,"hacin_class":"Hacinamiento Leve","hacin_score":769.2,"auto_score":90.9,"n_per":54,"n_hog":22,"source_year":2024,"crime_score":0.2133,"crime_nivel":"Medio","crime_color":"#ff9800"},"geometry":{"type":"Polygon","coordinates":[[[-72.0980030799999,-36.8793185340939],[-72.0966509739999,-36.8790731300939],[-72.0966805129999,-36.8801819060939],[-72.0980287879999,-36.8804240230939],[-72.0980030799999,-36.8793185340939]]]}},{"type":"Feature","properties":{"id":"16108061001010","commune":"San Ignacio","code":"16108","gse":"D","quintil":"Q1","nse_score":627.4,"educ":9.5,"educ_score":433.3,"hacin":1.3,"hacin_class":"Hacinamiento Leve","hacin_score":787.2,"auto_score":142.9,"n_per":78,"n_hog":28,"source_year":2024,"crime_score":0.2191,"crime_nivel":"Medio","crime_color":"#ff9800"},"geometry":{"type":"Polygon","coordinates":[[[-72.0980537389999,-36.8793453180939],[-72.098115129,-36.8804532760939],[-72.0984721749999,-36.8805242690939],[-72.0984921149999,-36.8803650950939],[-72.0984938959999,-36.8805279930939],[-72.0987621319999,-36.8805824460939],[-72.098755992,-36.8801671750939],[-72.0987740459999,-36.8805827370939],[-72.0998623419999,-36.8807625990939],[-72.0996952119999,-36.8796121430939],[-72.0980537389999,-36.8793453180939]]]}},{"type":"Feature","properties":{"id":"16108061001011","commune":"San Ignacio","code":"16108","gse":"D","quintil":"Q2","nse_score":652.8,"educ":10.0,"educ_score":466.7,"hacin":1.4,"hacin_class":"Hacinamiento Leve","hacin_score":766.0,"auto_score":136.4,"n_per":63,"n_hog":23,"source_year":2024,"crime_score":0.2145,"crime_nivel":"Medio","crime_color":"#ff9800"},"geometry":{"type":"Polygon","coordinates":[[[-72.0953027449999,-36.8799876190939],[-72.0953574479999,-36.8811224000939],[-72.0956390399999,-36.8811768240939],[-72.0956534569999,-36.8808480660939],[-72.0956502329999,-36.8811788560939],[-72.0959599679999,-36.8812376740939],[-72.0959927629999,-36.8806889700939],[-72.0959736169999,-36.8812393850939],[-72.096646259,-36.8813591250939],[-72.0965997869999,-36.8802328080939],[-72.0953027449999,-36.8799876190939]]]}},{"type":"Feature","properties":{"id":"16108061001012","commune":"San Ignacio","code":"16108","gse":"D","quintil":"Q2","nse_score":658.7,"educ":10.4,"educ_score":493.3,"hacin":1.167,"hacin_class":"Hacinamiento Leve","hacin_score":815.6,"auto_score":41.7,"n_per":28,"n_hog":10,"source_year":2024,"crime_score":0.2102,"crime_nivel":"Medio","crime_color":"#ff9800"},"geometry":{"type":"Polygon","coordinates":[[[-72.0967196999999,-36.8813664300939],[-72.0980502989999,-36.8816317050939],[-72.0980351059999,-36.8804937580939],[-72.096722429,-36.8802537110939],[-72.0967196999999,-36.8813664300939]]]}},{"type":"Feature","properties":{"id":"16108061001013","commune":"San Ignacio","code":"16108","gse":"C3","quintil":"Q3","nse_score":681.8,"educ":10.6,"educ_score":506.7,"hacin":1.177,"hacin_class":"Hacinamiento Leve","hacin_score":813.3,"auto_score":94.6,"n_per":199,"n_hog":74,"source_year":2024,"crime_score":0.2251,"crime_nivel":"Medio","crime_color":"#ff9800"},"geometry":{"type":"Polygon","coordinates":[[[-72.0935897189999,-36.8811219830939],[-72.0937253179999,-36.8825660750939],[-72.0949153129999,-36.8826674970939],[-72.0952261289999,-36.8828089000939],[-72.0981328789999,-36.8831658190939],[-72.0952073449999,-36.8828488480939],[-72.0948991999999,-36.8827039510939],[-72.0937287809999,-36.8826004210939],[-72.0937607959999,-36.8829154850939],[-72.1015400879999,-36.8837703280938],[-72.1013960859999,-36.8827289130939],[-72.0997536239999,-36.8826660550939],[-72.1013965489999,-36.8827166740939],[-72.1013438189999,-36.8823828670939],[-72.1011646239999,-36.8822822380939],[-72.0971906189999,-36.8815445340939],[-72.0970786169999,-36.8819230590939],[-72.0976486229999,-36.8820732560939],[-72.0976832569999,-36.8825159270939],[-72.0976318369999,-36.8826068880939],[-72.0976310369999,-36.8820852130939],[-72.0968193089999,-36.8818933200939],[-72.0968884049999,-36.8825116350939],[-72.0967848729999,-36.8818525620939],[-72.0970463529999,-36.8819153880939],[-72.0971397349999,-36.8815309030939],[-72.0966896269999,-36.8814436500939],[-72.0966319409999,-36.8816548670939],[-72.096667711,-36.8814394020939],[-72.0953996809999,-36.8811951760939],[-72.0935897189999,-36.8811219830939]]]}},{"type":"Feature","properties":{"id":"16108033115001","commune":"San Ignacio","code":"16108","gse":"D","quintil":"Q2","nse_score":648.8,"educ":11.0,"educ_score":533.3,"hacin":1.31,"hacin_class":"Hacinamiento Leve","hacin_score":785.0,"auto_score":66.7,"n_per":38,"n_hog":13,"source_year":2024,"crime_score":0.2124,"crime_nivel":"Medio","crime_color":"#ff9800"},"geometry":{"type":"Polygon","coordinates":[[[-71.9759534979999,-36.8114836030946],[-71.9740729099999,-36.8119264730945],[-71.9739197849999,-36.8115219110946],[-71.9716870909999,-36.8120338540945],[-71.9714427149999,-36.8114557200945],[-71.9692713019999,-36.8119798070945],[-71.9689219379999,-36.8109032110945],[-71.9687074709999,-36.8110582860945],[-71.9674127449999,-36.8111500240945],[-71.9677704649999,-36.8123618880945],[-71.9700334079999,-36.8119013110945],[-71.9702560219999,-36.8123011780945],[-71.9709341999999,-36.8121321970945],[-71.9712198809999,-36.8128731810945],[-71.9766459119999,-36.8116738280945],[-71.9765531259999,-36.8104617780945],[-71.9758730899999,-36.8105121910945],[-71.9759534979999,-36.8114836030946]]]}},{"type":"Feature","properties":{"id":"16108033115002","commune":"San Ignacio","code":"16108","gse":"D","quintil":"Q1","nse_score":637.9,"educ":10.7,"educ_score":513.3,"hacin":1.2,"hacin_class":"Hacinamiento Leve","hacin_score":808.5,"auto_score":0.0,"n_per":24,"n_hog":10,"source_year":2024,"crime_score":0.2122,"crime_nivel":"Medio","crime_color":"#ff9800"},"geometry":{"type":"Polygon","coordinates":[[[-71.9660343169999,-36.8118912300946],[-71.9649799349999,-36.8123928740945],[-71.9627885059999,-36.8123247480945],[-71.9631461069999,-36.8133714940946],[-71.9663113849999,-36.8127012360945],[-71.9661736509999,-36.8121774550945],[-71.9663561329999,-36.8126908580945],[-71.967705797,-36.8123769380945],[-71.9673480639999,-36.8111650240945],[-71.9666119139999,-36.8114553910945],[-71.9660343169999,-36.8118912300946]]]}},{"type":"Feature","properties":{"id":"16108033115003","commune":"San Ignacio","code":"16108","gse":"E","quintil":"Q1","nse_score":580.0,"educ":8.9,"educ_score":393.3,"hacin":0.923,"hacin_class":"Sin Hacinamiento","hacin_score":867.4,"auto_score":31.2,"n_per":36,"n_hog":14,"source_year":2024,"crime_score":0.2201,"crime_nivel":"Medio","crime_color":"#ff9800"},"geometry":{"type":"Polygon","coordinates":[[[-71.9745832919999,-36.8134175580945],[-71.9771077969999,-36.8128036800945],[-71.9788083399999,-36.8125162400945],[-71.9769156159999,-36.8117456370945],[-71.9742273479999,-36.8122813780946],[-71.9745832919999,-36.8134175580945]]]}},{"type":"Feature","properties":{"id":"16108033115007","commune":"San Ignacio","code":"16108","gse":"C2","quintil":"Q4","nse_score":717.1,"educ":11.7,"educ_score":580.0,"hacin":0.846,"hacin_class":"Sin Hacinamiento","hacin_score":883.8,"auto_score":100.0,"n_per":11,"n_hog":5,"source_year":2024,"crime_score":0.2018,"crime_nivel":"Medio","crime_color":"#ff9800"},"geometry":{"type":"Polygon","coordinates":[[[-71.9741673139999,-36.8122949320945],[-71.9712388709999,-36.8129744640945],[-71.9715838649999,-36.8140980660945],[-71.9745311649999,-36.8134356160945],[-71.9741673139999,-36.8122949320945]]]}},{"type":"Feature","properties":{"id":"16108033115008","commune":"San Ignacio","code":"16108","gse":"E","quintil":"Q1","nse_score":600.6,"educ":9.2,"educ_score":413.3,"hacin":1.471,"hacin_class":"Hacinamiento Leve","hacin_score":750.9,"auto_score":100.0,"n_per":25,"n_hog":11,"source_year":2024,"crime_score":0.2165,"crime_nivel":"Medio","crime_color":"#ff9800"},"geometry":{"type":"Polygon","coordinates":[[[-71.9667822649999,-36.8138709500945],[-71.9681346079999,-36.8135682320945],[-71.9677256809999,-36.8124285970945],[-71.9663764179999,-36.8127489350945],[-71.9667822649999,-36.8138709500945]]]}},{"type":"Feature","properties":{"id":"16108033115009","commune":"San Ignacio","code":"16108","gse":"D","quintil":"Q1","nse_score":610.0,"educ":9.6,"educ_score":440.0,"hacin":1.333,"hacin_class":"Hacinamiento Leve","hacin_score":780.1,"auto_score":0.0,"n_per":8,"n_hog":5,"source_year":2024,"crime_score":0.2136,"crime_nivel":"Medio","crime_color":"#ff9800"},"geometry":{"type":"Polygon","coordinates":[[[-71.9667174749999,-36.8138854530945],[-71.9663314309999,-36.8127530280945],[-71.964850296,-36.8130954900945],[-71.9652193559999,-36.8142208030945],[-71.9667174749999,-36.8138854530945]]]}},{"type":"Feature","properties":{"id":"16108033115010","commune":"San Ignacio","code":"16108","gse":"E","quintil":"Q1","nse_score":541.0,"educ":7.7,"educ_score":313.3,"hacin":1.286,"hacin_class":"Hacinamiento Leve","hacin_score":790.3,"auto_score":71.4,"n_per":27,"n_hog":12,"source_year":2024,"crime_score":0.2235,"crime_nivel":"Medio","crime_color":"#ff9800"},"geometry":{"type":"Polygon","coordinates":[[[-71.9715219849999,-36.8141130950945],[-71.9711754179999,-36.8129905530945],[-71.9697516519999,-36.8133144950945],[-71.9701346289999,-36.8144396110945],[-71.9715219849999,-36.8141130950945]]]}},{"type":"Feature","properties":{"id":"16108033115011","commune":"San Ignacio","code":"16108","gse":"D","quintil":"Q2","nse_score":641.0,"educ":10.9,"educ_score":526.7,"hacin":1.235,"hacin_class":"Hacinamiento Leve","hacin_score":801.0,"auto_score":100.0,"n_per":21,"n_hog":10,"source_year":2024,"crime_score":0.2115,"crime_nivel":"Medio","crime_color":"#ff9800"},"geometry":{"type":"Polygon","coordinates":[[[-71.9635514159999,-36.8145578880945],[-71.9651545689999,-36.8142353050945],[-71.9647849559999,-36.8131083010945],[-71.9631640779999,-36.8134240970945],[-71.9635514159999,-36.8145578880945]]]}},{"type":"Feature","properties":{"id":"16108033115012","commune":"San Ignacio","code":"16108","gse":"D","quintil":"Q1","nse_score":613.2,"educ":9.9,"educ_score":460.0,"hacin":1.095,"hacin_class":"Hacinamiento Leve","hacin_score":830.8,"auto_score":0.0,"n_per":23,"n_hog":10,"source_year":2024,"crime_score":0.2149,"crime_nivel":"Medio","crime_color":"#ff9800"},"geometry":{"type":"Polygon","coordinates":[[[-71.9682345769999,-36.8136517960945],[-71.9686131939999,-36.8147596820945],[-71.9700700799999,-36.8144547930945],[-71.9696869469999,-36.8133292170945],[-71.9682345769999,-36.8136517960945]]]}},{"type":"Feature","properties":{"id":"16108033115013","commune":"San Ignacio","code":"16108","gse":"E","quintil":"Q1","nse_score":593.3,"educ":8.7,"educ_score":380.0,"hacin":0.792,"hacin_class":"Sin Hacinamiento","hacin_score":895.2,"auto_score":45.5,"n_per":42,"n_hog":22,"source_year":2024,"crime_score":0.2192,"crime_nivel":"Medio","crime_color":"#ff9800"},"geometry":{"type":"Polygon","coordinates":[[[-71.9739563129999,-36.8135947550945],[-71.9686309829999,-36.8148118300945],[-71.9692147599999,-36.8165231720945],[-71.9699484799999,-36.8163745280945],[-71.9697889819999,-36.8149683240945],[-71.9716215089999,-36.8146602390945],[-71.9718315299999,-36.8153131340945],[-71.9721722129999,-36.8154046510945],[-71.9739870599999,-36.8148569580945],[-71.9739563129999,-36.8135947550945]]]}},{"type":"Feature","properties":{"id":"16108033115014","commune":"San Ignacio","code":"16108","gse":"C3","quintil":"Q2","nse_score":675.5,"educ":11.6,"educ_score":573.3,"hacin":1.143,"hacin_class":"Hacinamiento Leve","hacin_score":820.7,"auto_score":0.0,"n_per":24,"n_hog":9,"source_year":2024,"crime_score":0.2079,"crime_nivel":"Medio","crime_color":"#ff9800"},"geometry":{"type":"Polygon","coordinates":[[[-71.9668132299999,-36.8139667850945],[-71.9671785059999,-36.8150972640945],[-71.9685486489999,-36.8147748690945],[-71.9681697479999,-36.8136661630945],[-71.9668132299999,-36.8139667850945]]]}},{"type":"Feature","properties":{"id":"16108033115015","commune":"San Ignacio","code":"16108","gse":"D","quintil":"Q1","nse_score":619.5,"educ":9.5,"educ_score":433.3,"hacin":1.143,"hacin_class":"Hacinamiento Leve","hacin_score":820.7,"auto_score":0.0,"n_per":16,"n_hog":6,"source_year":2024,"crime_score":0.2134,"crime_nivel":"Medio","crime_color":"#ff9800"},"geometry":{"type":"Polygon","coordinates":[[[-71.9652496869999,-36.8143132860945],[-71.9656265699999,-36.8154624130945],[-71.9671139379999,-36.8151124560945],[-71.9667483959999,-36.8139811530945],[-71.9652496869999,-36.8143132860945]]]}},{"type":"Feature","properties":{"id":"16108033115016","commune":"San Ignacio","code":"16108","gse":"C3","quintil":"Q2","nse_score":673.1,"educ":10.4,"educ_score":493.3,"hacin":0.941,"hacin_class":"Sin Hacinamiento","hacin_score":863.6,"auto_score":333.3,"n_per":16,"n_hog":6,"source_year":2024,"crime_score":0.2073,"crime_nivel":"Medio","crime_color":"#ff9800"},"geometry":{"type":"Polygon","coordinates":[[[-71.9603725789999,-36.8154226420945],[-71.960854476,-36.8164060530945],[-71.9629205919999,-36.8161137130945],[-71.9655620079999,-36.8154776020945],[-71.9651718809999,-36.8143117400945],[-71.9603725789999,-36.8154226420945]]]}},{"type":"Feature","properties":{"id":"16108033115017","commune":"San Ignacio","code":"16108","gse":"D","quintil":"Q1","nse_score":628.3,"educ":9.8,"educ_score":453.3,"hacin":1.5,"hacin_class":"Hacinamiento Medio","hacin_score":744.7,"auto_score":29.4,"n_per":42,"n_hog":17,"source_year":2024,"crime_score":0.2152,"crime_nivel":"Medio","crime_color":"#ff9800"},"geometry":{"type":"Polygon","coordinates":[[[-71.9655604939999,-36.8166851810945],[-71.9651844179999,-36.8156225290945],[-71.9640934339999,-36.8158755900945],[-71.9645172149999,-36.8172500660945],[-71.9663565319999,-36.8174621520945],[-71.9660715439999,-36.8160721030945],[-71.968769387,-36.8154219750945],[-71.9685664379999,-36.8148270180945],[-71.96522748,-36.8156125400945],[-71.9655604939999,-36.8166851810945]]]}},{"type":"Feature","properties":{"id":"16108033115018","commune":"San Ignacio","code":"16108","gse":"E","quintil":"Q1","nse_score":523.6,"educ":7.5,"educ_score":300.0,"hacin":1.462,"hacin_class":"Hacinamiento Leve","hacin_score":752.9,"auto_score":0.0,"n_per":19,"n_hog":9,"source_year":2024,"crime_score":0.2246,"crime_nivel":"Medio","crime_color":"#ff9800"},"geometry":{"type":"Polygon","coordinates":[[[-71.9599493989999,-36.8173183460945],[-71.961226817,-36.8173170260945],[-71.9602991629999,-36.8154406980945],[-71.9594152439999,-36.8156340910945],[-71.9599493989999,-36.8173183460945]]]}},{"type":"Feature","properties":{"id":"16108033115019","commune":"San Ignacio","code":"16108","gse":"E","quintil":"Q1","nse_score":524.2,"educ":7.8,"educ_score":320.0,"hacin":1.143,"hacin_class":"Hacinamiento Leve","hacin_score":820.7,"auto_score":0.0,"n_per":8,"n_hog":5,"source_year":2024,"crime_score":0.2233,"crime_nivel":"Medio","crime_color":"#ff9800"},"geometry":{"type":"Polygon","coordinates":[[[-71.9608790769999,-36.8164574690945],[-71.9612980599999,-36.8173149260945],[-71.9644464309999,-36.8172451950945],[-71.9640287779999,-36.8158905870945],[-71.9608790769999,-36.8164574690945]]]}},{"type":"Feature","properties":{"id":"16108033115020","commune":"San Ignacio","code":"16108","gse":"D","quintil":"Q1","nse_score":615.2,"educ":9.1,"educ_score":406.7,"hacin":1.346,"hacin_class":"Hacinamiento Leve","hacin_score":777.5,"auto_score":78.9,"n_per":144,"n_hog":56,"source_year":2024,"crime_score":0.2275,"crime_nivel":"Medio","crime_color":"#ff9800"},"geometry":{"type":"Polygon","coordinates":[[[-71.9639260709999,-36.8173421520945],[-71.9639043569999,-36.8197353360945],[-71.9638588699999,-36.8173449280945],[-71.9596550379999,-36.8175082800945],[-71.959853,-36.8181396380945],[-71.9607550529999,-36.8180071950945],[-71.9607024739999,-36.8178208100945],[-71.9633530559999,-36.8177649870945],[-71.9634419749999,-36.8198114660944],[-71.964390352,-36.8198599480944],[-71.9643623989999,-36.8180267890945],[-71.9650759639999,-36.8180214030945],[-71.9649818919999,-36.8179557410945],[-71.964972987,-36.8178347690945],[-71.9651586019999,-36.8179983270945],[-71.9651920199999,-36.8173629540945],[-71.9639260709999,-36.8173421520945]]]}},{"type":"Feature","properties":{"id":"16108033115004","commune":"San Ignacio","code":"16108","gse":"D","quintil":"Q1","nse_score":619.8,"educ":11.6,"educ_score":573.3,"hacin":1.625,"hacin_class":"Hacinamiento Medio","hacin_score":718.1,"auto_score":0.0,"n_per":13,"n_hog":4,"source_year":2024,"crime_score":0.2131,"crime_nivel":"Medio","crime_color":"#ff9800"},"geometry":{"type":"MultiPolygon","coordinates":[[[[-71.9678131089999,-36.8124772100945],[-71.9681993889999,-36.8135537310945],[-71.9696525719999,-36.8132282240945],[-71.9692598589999,-36.8120744630945],[-71.9678131089999,-36.8124772100945]]],[[[-71.9693244989999,-36.8120595540945],[-71.9697173459999,-36.8132137070945],[-71.9704705749999,-36.8130448990945],[-71.9700093099999,-36.8119547690945],[-71.9693244989999,-36.8120595540945]]]]}},{"type":"Feature","properties":{"id":"16108053102001","commune":"San Ignacio","code":"16108","gse":"D","quintil":"Q1","nse_score":634.2,"educ":10.5,"educ_score":500.0,"hacin":1.571,"hacin_class":"Hacinamiento Medio","hacin_score":729.5,"auto_score":115.4,"n_per":44,"n_hog":13,"source_year":2024,"crime_score":0.2147,"crime_nivel":"Medio","crime_color":"#ff9800"},"geometry":{"type":"Polygon","coordinates":[[[-72.1013261159999,-36.8360986470943],[-72.1002337959999,-36.8362096810943],[-72.1009034499999,-36.8380549640943],[-72.1004051259999,-36.8382014860943],[-72.1005441999999,-36.8385602460943],[-72.1002060689999,-36.8387073530943],[-72.1003012649999,-36.8404117950943],[-72.1012974329999,-36.8400738980943],[-72.1013261159999,-36.8360986470943]]]}},{"type":"Feature","properties":{"id":"16108053102002","commune":"San Ignacio","code":"16108","gse":"D","quintil":"Q2","nse_score":645.0,"educ":10.0,"educ_score":466.7,"hacin":1.26,"hacin_class":"Hacinamiento Leve","hacin_score":795.7,"auto_score":68.6,"n_per":155,"n_hog":52,"source_year":2024,"crime_score":0.225,"crime_nivel":"Medio","crime_color":"#ff9800"},"geometry":{"type":"Polygon","coordinates":[[[-72.1012974329999,-36.8400738980943],[-72.0996954199999,-36.8406044480943],[-72.0994332469999,-36.8403655310942],[-72.0982910229999,-36.8414057500942],[-72.0957760149999,-36.8416930580942],[-72.095232215,-36.8414908430942],[-72.0946690019999,-36.8415377570942],[-72.0957541599999,-36.8441679440942],[-72.1020682519999,-36.8427880670943],[-72.1019690689999,-36.8420501680943],[-72.1015769999999,-36.8408294880943],[-72.1010170979999,-36.8409804840943],[-72.1011246409999,-36.8417986270943],[-72.1009430509999,-36.8409920580943],[-72.0996441269999,-36.8413493060942],[-72.0995493599999,-36.8417095450943],[-72.0996108169999,-36.8413205280943],[-72.1015566879999,-36.8407763450943],[-72.1012974329999,-36.8400738980943]]]}},{"type":"Feature","properties":{"id":"16108053102003","commune":"San Ignacio","code":"16108","gse":"D","quintil":"Q1","nse_score":633.4,"educ":9.9,"educ_score":460.0,"hacin":1.256,"hacin_class":"Hacinamiento Leve","hacin_score":796.7,"auto_score":137.9,"n_per":167,"n_hog":58,"source_year":2024,"crime_score":0.2277,"crime_nivel":"Medio","crime_color":"#ff9800"},"geometry":{"type":"Polygon","coordinates":[[[-72.0979439029999,-36.8448889320942],[-72.0978515199999,-36.8447635790942],[-72.0975970339999,-36.8438452830943],[-72.095596843,-36.8442589860942],[-72.0957493789999,-36.8457318170942],[-72.0958816689999,-36.8458397580942],[-72.0971053179999,-36.8455668650942],[-72.0974017069999,-36.8455675140942],[-72.0976005719999,-36.8465332180942],[-72.0973634169999,-36.8455969340942],[-72.0958682409999,-36.8458801380942],[-72.0957060549999,-36.8457478030942],[-72.0955574849999,-36.8442677410943],[-72.0948842099999,-36.8444175020943],[-72.0949276229999,-36.8450813460942],[-72.0948393929999,-36.8444274710942],[-72.09386602,-36.8446465070942],[-72.0941862569999,-36.8466879960942],[-72.0945493119999,-36.8480291580942],[-72.0970446859999,-36.8477939890942],[-72.0969808379999,-36.8474976150942],[-72.0972618689999,-36.8473567650942],[-72.0976697649999,-36.8472633300942],[-72.0980509239999,-36.8473908180942],[-72.0993786989999,-36.8467880590942],[-72.1002672879999,-36.8465386140942],[-72.1003496509999,-36.8464162410942],[-72.1001976709999,-36.8463207860942],[-72.0992908269999,-36.8465118610942],[-72.0990016819999,-36.8463800140942],[-72.0985592999999,-36.8464826920942],[-72.0982039129999,-36.8454694580943],[-72.0983317419999,-36.8456296660942],[-72.1000474509999,-36.8452405730943],[-72.1000306559999,-36.8450220940942],[-72.1001422459999,-36.8452282350942],[-72.1008955179999,-36.8450326680942],[-72.1001299949999,-36.8452863610942],[-72.1002756799999,-36.8457323180942],[-72.1007222509999,-36.8459150990942],[-72.1012160199999,-36.8450910710943],[-72.1020647419999,-36.8428678780943],[-72.0976390369999,-36.8438369380942],[-72.0979439029999,-36.8448889320942]]]}},{"type":"Feature","properties":{"id":"16108053102004","commune":"San Ignacio","code":"16108","gse":"D","quintil":"Q2","nse_score":653.5,"educ":9.3,"educ_score":420.0,"hacin":1.139,"hacin_class":"Hacinamiento Leve","hacin_score":821.4,"auto_score":130.4,"n_per":49,"n_hog":22,"source_year":2024,"crime_score":0.213,"crime_nivel":"Medio","crime_color":"#ff9800"},"geometry":{"type":"Polygon","coordinates":[[[-72.0983211649999,-36.8457132730942],[-72.0984737289999,-36.8461048260942],[-72.1002151109999,-36.8457009150942],[-72.1000487679999,-36.8452784580942],[-72.0983211649999,-36.8457132730942]]]}},{"type":"Feature","properties":{"id":"16108053102005","commune":"San Ignacio","code":"16108","gse":"D","quintil":"Q1","nse_score":619.1,"educ":8.7,"educ_score":380.0,"hacin":1.157,"hacin_class":"Hacinamiento Leve","hacin_score":817.7,"auto_score":152.2,"n_per":59,"n_hog":22,"source_year":2024,"crime_score":0.218,"crime_nivel":"Medio","crime_color":"#ff9800"},"geometry":{"type":"Polygon","coordinates":[[[-72.0984832219999,-36.8461407520942],[-72.0985741369999,-36.8464377260942],[-72.0990114419999,-36.8463385240942],[-72.0992470769999,-36.8464730760942],[-72.1001258589999,-36.8462845450942],[-72.100381335,-36.8463699220942],[-72.1006869919999,-36.8459698730942],[-72.1001605639999,-36.8457647190942],[-72.0984832219999,-36.8461407520942]]]}},{"type":"Feature","properties":{"id":"16108063102003","commune":"San Ignacio","code":"16108","gse":"D","quintil":"Q2","nse_score":659.0,"educ":11.3,"educ_score":553.3,"hacin":1.5,"hacin_class":"Hacinamiento Medio","hacin_score":744.7,"auto_score":71.4,"n_per":18,"n_hog":7,"source_year":2024,"crime_score":0.2091,"crime_nivel":"Medio","crime_color":"#ff9800"},"geometry":{"type":"Polygon","coordinates":[[[-72.1013639369999,-36.8400648850943],[-72.1017833379999,-36.8411106790943],[-72.1021999119999,-36.8427230660943],[-72.1031520059999,-36.8421985650942],[-72.1027189609999,-36.8406266000943],[-72.1024029959999,-36.8398669750943],[-72.1013639369999,-36.8400648850943]]]}},{"type":"Feature","properties":{"id":"16108063102004","commune":"San Ignacio","code":"16108","gse":"D","quintil":"Q1","nse_score":614.3,"educ":10.1,"educ_score":473.3,"hacin":1.149,"hacin_class":"Hacinamiento Leve","hacin_score":819.4,"auto_score":83.3,"n_per":54,"n_hog":23,"source_year":2024,"crime_score":0.218,"crime_nivel":"Medio","crime_color":"#ff9800"},"geometry":{"type":"Polygon","coordinates":[[[-72.1029966629999,-36.8441255520942],[-72.1025436069999,-36.8426053030942],[-72.1021408259999,-36.8428315820942],[-72.1011161699999,-36.8454670950942],[-72.1003241259999,-36.8465678690942],[-72.100621912,-36.8466241970942],[-72.1011644729999,-36.8456122040943],[-72.1013459039999,-36.8455212600942],[-72.1024128909999,-36.8455472930942],[-72.1027169219999,-36.8453520470942],[-72.1028974729999,-36.8448915170942],[-72.1036393319999,-36.8448857670942],[-72.1038512949999,-36.8447717210942],[-72.1040061409999,-36.8448708670942],[-72.1033928219999,-36.8432613570943],[-72.1033638139999,-36.8427258420943],[-72.1048980429999,-36.8421565440942],[-72.1043828929999,-36.8411199390943],[-72.1038392439999,-36.8414413810942],[-72.1038670499999,-36.8418404520942],[-72.1026469609999,-36.8425549290943],[-72.1029966629999,-36.8441255520942]]]}},{"type":"Feature","properties":{"id":"16108063102001","commune":"San Ignacio","code":"16108","gse":"C3","quintil":"Q2","nse_score":677.1,"educ":10.6,"educ_score":506.7,"hacin":1.233,"hacin_class":"Hacinamiento Leve","hacin_score":801.5,"auto_score":240.0,"n_per":143,"n_hog":50,"source_year":2024,"crime_score":0.2199,"crime_nivel":"Medio","crime_color":"#ff9800"},"geometry":{"type":"Polygon","coordinates":[[[-72.1014042529999,-36.8360940960943],[-72.1013571749999,-36.8385711940943],[-72.1020121989999,-36.8385369600943],[-72.1020247859999,-36.8381694040943],[-72.1020863539999,-36.8385307570943],[-72.1026456449999,-36.8385048930943],[-72.1026366149999,-36.8381250950943],[-72.1027251829999,-36.8384970660943],[-72.1033053859999,-36.8384702480943],[-72.1033197919999,-36.8380689990943],[-72.1033884799999,-36.8384615680943],[-72.103977632,-36.8384170350943],[-72.1039319249999,-36.8380563130943],[-72.1040415969999,-36.8384330720943],[-72.1031453549999,-36.8385170890943],[-72.1031345469999,-36.8388220140943],[-72.1030554379999,-36.8385207860943],[-72.1013535509999,-36.8386147630943],[-72.1013639369999,-36.8400648850943],[-72.1031415099999,-36.8395986230943],[-72.1037888469999,-36.8389591480943],[-72.1039441049999,-36.8385736280943],[-72.1042343839999,-36.8384263640943],[-72.1041389179999,-36.8380029470943],[-72.1014207819999,-36.8381505190943],[-72.1014275479999,-36.8371727530943],[-72.1023441569999,-36.8370676000943],[-72.1023866979999,-36.8359997470943],[-72.1014042529999,-36.8360940960943]]]}}]}