{"type":"FeatureCollection","features":[{"type":"Feature","properties":{"id":"13505013095001","commune":"San Pedro","code":"13505","gse":"D","quintil":"Q1","nse_score":671.6,"educ":10.9,"educ_score":526.7,"hacin":1.482,"hacin_class":"Hacinamiento Leve","hacin_score":748.6,"auto_score":500.0,"n_per":40,"n_hog":10,"source_year":2024,"crime_score":0.9325,"crime_nivel":"Muy Alto","crime_color":"#d32f2f"},"geometry":{"type":"Polygon","coordinates":[[[-71.4531957119999,-33.8866714381262],[-71.4548491109999,-33.8876152611262],[-71.4551314359999,-33.8872143531262],[-71.4553148639999,-33.8866197761262],[-71.4551743039999,-33.8872084221262],[-71.4556830509999,-33.8867490391262],[-71.4548853009999,-33.8876350651262],[-71.4557488029999,-33.8880723531262],[-71.456460251,-33.8870993821262],[-71.4542659279999,-33.8858903251262],[-71.4531957119999,-33.8866714381262]]]}},{"type":"Feature","properties":{"id":"13505013095002","commune":"San Pedro","code":"13505","gse":"D","quintil":"Q2","nse_score":689.4,"educ":11.4,"educ_score":560.0,"hacin":1.19,"hacin_class":"Hacinamiento Leve","hacin_score":810.5,"auto_score":74.1,"n_per":75,"n_hog":27,"source_year":2024,"crime_score":0.9392,"crime_nivel":"Muy Alto","crime_color":"#d32f2f"},"geometry":{"type":"Polygon","coordinates":[[[-71.4533265229999,-33.8874384661262],[-71.4523067259999,-33.8876244151262],[-71.4521500259999,-33.8878458071262],[-71.4513687719999,-33.8876824511262],[-71.4512157419999,-33.8886041151262],[-71.4516394979999,-33.8888817701262],[-71.4517476459999,-33.8886995581262],[-71.4516829249999,-33.8882503151262],[-71.4517798379999,-33.8883785921262],[-71.4517925459999,-33.8887211291262],[-71.4515597769999,-33.8890986961262],[-71.4521095889999,-33.8897820491262],[-71.4521892779999,-33.8908029501262],[-71.4520956899999,-33.8912922491262],[-71.4523424259999,-33.8915247171262],[-71.4531754369999,-33.8914632331262],[-71.4533864699999,-33.8911457931262],[-71.4545004829999,-33.8911404241262],[-71.4544906969999,-33.8909160371262],[-71.4529091489999,-33.8908325651262],[-71.4553780239999,-33.8908991271262],[-71.4553313169999,-33.8903219401262],[-71.4552733199999,-33.8903695251262],[-71.4544022129999,-33.8902867231262],[-71.454247844,-33.8900655081262],[-71.4533440099999,-33.8899308681262],[-71.4542234459999,-33.8900207281262],[-71.4544131059999,-33.8902515021262],[-71.4552526109999,-33.8903359551262],[-71.4554983519999,-33.8887468801262],[-71.4527420779999,-33.8881929721262],[-71.4544140079999,-33.8884718721262],[-71.4544978769999,-33.8883151541262],[-71.4544562749999,-33.8884802601262],[-71.4555106289999,-33.8887122981262],[-71.4557298629999,-33.8881049311262],[-71.4537846979999,-33.8870560611263],[-71.4533265229999,-33.8874384661262]]]}},{"type":"Feature","properties":{"id":"13505013095003","commune":"San Pedro","code":"13505","gse":"D","quintil":"Q1","nse_score":667.0,"educ":13.2,"educ_score":680.0,"hacin":1.273,"hacin_class":"Hacinamiento Leve","hacin_score":793.0,"auto_score":214.3,"n_per":14,"n_hog":4,"source_year":2024,"crime_score":0.9229,"crime_nivel":"Muy Alto","crime_color":"#d32f2f"},"geometry":{"type":"Polygon","coordinates":[[[-71.4562148649999,-33.8887056741262],[-71.4570403669999,-33.8873695151262],[-71.4565503939999,-33.8870925171262],[-71.4557754839999,-33.8881046671262],[-71.4556791559999,-33.8884394711262],[-71.4562148649999,-33.8887056741262]]]}},{"type":"Feature","properties":{"id":"13505013095004","commune":"San Pedro","code":"13505","gse":"E","quintil":"Q1","nse_score":589.6,"educ":10.0,"educ_score":466.7,"hacin":1.429,"hacin_class":"Hacinamiento Leve","hacin_score":759.9,"auto_score":250.0,"n_per":10,"n_hog":4,"source_year":2024,"crime_score":0.96,"crime_nivel":"Muy Alto","crime_color":"#d32f2f"},"geometry":{"type":"Polygon","coordinates":[[[-71.4557762429999,-33.8895720821262],[-71.4562028129999,-33.8887420941262],[-71.4556653899999,-33.8884736851262],[-71.4555144759999,-33.8888771481262],[-71.4558944659999,-33.8889687171262],[-71.4555026509999,-33.8889119201262],[-71.4553956139999,-33.8894426101262],[-71.4557762429999,-33.8895720821262]]]}},{"type":"Feature","properties":{"id":"13505013095008","commune":"San Pedro","code":"13505","gse":"D","quintil":"Q1","nse_score":677.4,"educ":10.3,"educ_score":486.7,"hacin":1.212,"hacin_class":"Hacinamiento Leve","hacin_score":806.1,"auto_score":318.2,"n_per":63,"n_hog":21,"source_year":2024,"crime_score":0.94,"crime_nivel":"Muy Alto","crime_color":"#d32f2f"},"geometry":{"type":"Polygon","coordinates":[[[-71.4502881849999,-33.8907531881262],[-71.4504565909999,-33.8922151121261],[-71.4518847499999,-33.8920626381261],[-71.4516965939999,-33.8931338821261],[-71.4528562689999,-33.8932646491262],[-71.4528267429999,-33.8933676351261],[-71.4539076099999,-33.8932401391262],[-71.4537893979999,-33.8930638471262],[-71.4551954959999,-33.8929430971262],[-71.4552642279999,-33.8930750711262],[-71.4556403539999,-33.8930330951262],[-71.4553825989999,-33.8909353271262],[-71.4545338929999,-33.8909169391262],[-71.4545520089999,-33.8913071661262],[-71.4545038209999,-33.8911765361262],[-71.4533994149999,-33.8911809061262],[-71.4532058159999,-33.8914899411262],[-71.4530082169999,-33.8915425041261],[-71.4523291319999,-33.8915611511262],[-71.4520626139999,-33.8913572551262],[-71.4521385199999,-33.8905851381262],[-71.4502881849999,-33.8907531881262]]]}},{"type":"Feature","properties":{"id":"13505013095012","commune":"San Pedro","code":"13505","gse":"D","quintil":"Q2","nse_score":694.4,"educ":11.4,"educ_score":560.0,"hacin":1.23,"hacin_class":"Hacinamiento Leve","hacin_score":802.1,"auto_score":180.9,"n_per":123,"n_hog":47,"source_year":2024,"crime_score":0.9583,"crime_nivel":"Muy Alto","crime_color":"#d32f2f"},"geometry":{"type":"Polygon","coordinates":[[[-71.4545933949999,-33.8933550301262],[-71.4545134959999,-33.8932108311261],[-71.4528185009999,-33.8934051091262],[-71.4527430039999,-33.8938642271261],[-71.4533636569999,-33.8938447221261],[-71.4532435319999,-33.8940728891261],[-71.4534557099999,-33.8947636111261],[-71.4532640149999,-33.8950518801261],[-71.4535344259999,-33.8953335451261],[-71.4535730929999,-33.8955655421261],[-71.4533062739999,-33.8959676811261],[-71.4522740469999,-33.8960701191261],[-71.4519628629999,-33.8970039861261],[-71.4526825209999,-33.8985397981261],[-71.4548635269999,-33.8964614961261],[-71.4545286629999,-33.8950425961261],[-71.4537211619999,-33.8952024321261],[-71.4545173169999,-33.8950078251261],[-71.4540755979999,-33.8939630251262],[-71.4543437559999,-33.8945274641262],[-71.4545153429999,-33.8943678721261],[-71.4557580929999,-33.8940811001261],[-71.4556523909999,-33.8930976741261],[-71.4552677259999,-33.8931238831261],[-71.4552533799999,-33.8933032871261],[-71.4545933949999,-33.8933550301262]]]}},{"type":"Feature","properties":{"id":"13505013095013","commune":"San Pedro","code":"13505","gse":"C3","quintil":"Q2","nse_score":710.6,"educ":10.7,"educ_score":513.3,"hacin":1.0,"hacin_class":"Hacinamiento Leve","hacin_score":851.1,"auto_score":125.0,"n_per":7,"n_hog":4,"source_year":2024,"crime_score":0.8978,"crime_nivel":"Muy Alto","crime_color":"#d32f2f"},"geometry":{"type":"Polygon","coordinates":[[[-71.458139479,-33.8937296471261],[-71.4583883379999,-33.8937276581261],[-71.4583828639999,-33.8931521761262],[-71.4581315929999,-33.8931793021262],[-71.458139479,-33.8937296471261]]]}},{"type":"Feature","properties":{"id":"13505013095014","commune":"San Pedro","code":"13505","gse":"D","quintil":"Q1","nse_score":669.3,"educ":10.1,"educ_score":473.3,"hacin":1.103,"hacin_class":"Hacinamiento Leve","hacin_score":829.1,"auto_score":281.2,"n_per":32,"n_hog":16,"source_year":2024,"crime_score":0.93,"crime_nivel":"Muy Alto","crime_color":"#d32f2f"},"geometry":{"type":"Polygon","coordinates":[[[-71.461502461,-33.8937623531261],[-71.4572680729999,-33.8938600301261],[-71.4558272559999,-33.8941731961261],[-71.4561850509999,-33.8953233151261],[-71.4561089089999,-33.8953537721261],[-71.4557315589999,-33.8941936301262],[-71.4545679149999,-33.8944490771261],[-71.4545164139999,-33.8946817641261],[-71.4550119639999,-33.8962360001261],[-71.4549217799999,-33.8966260181261],[-71.4556009929999,-33.8966141071261],[-71.4556771359999,-33.8965117901261],[-71.4556664279999,-33.8966081591261],[-71.4555914749999,-33.8966486091261],[-71.4548897879999,-33.8966563121261],[-71.4543465169999,-33.8971182241261],[-71.4524855599999,-33.8988964381261],[-71.4515546299999,-33.900119321126],[-71.4519497329999,-33.9000594931261],[-71.4567550459999,-33.8979008801261],[-71.4617280909999,-33.8947346611261],[-71.4618316559999,-33.8943665421261],[-71.461502461,-33.8937623531261]]]}},{"type":"Feature","properties":{"id":"13505013095015","commune":"San Pedro","code":"13505","gse":"D","quintil":"Q2","nse_score":684.4,"educ":12.0,"educ_score":600.0,"hacin":1.253,"hacin_class":"Hacinamiento Leve","hacin_score":797.2,"auto_score":302.6,"n_per":104,"n_hog":33,"source_year":2024,"crime_score":0.955,"crime_nivel":"Muy Alto","crime_color":"#d32f2f"},"geometry":{"type":"Polygon","coordinates":[[[-71.4522282709999,-33.8960754341261],[-71.4494028639999,-33.8963528061261],[-71.4494380119999,-33.8966645721261],[-71.449637133,-33.8969449541261],[-71.4496343459999,-33.8973059061261],[-71.4499689339999,-33.8975372281261],[-71.4482579329999,-33.8976891371261],[-71.4481247169999,-33.8985326641261],[-71.4501265789999,-33.8983438311261],[-71.4497811529999,-33.8988695281261],[-71.4444588349999,-33.8994260031261],[-71.4444392279999,-33.900399104126],[-71.4518629399999,-33.8994723661261],[-71.4526396089999,-33.8985677021261],[-71.4524048609999,-33.8981068021261],[-71.451786104,-33.8981135381261],[-71.451475479,-33.8980399371261],[-71.4523790179999,-33.8980725841261],[-71.4520441699999,-33.8973998691261],[-71.4517259609999,-33.8971821111261],[-71.4509325409999,-33.8976855281261],[-71.4507011379999,-33.8977633791261],[-71.4484916799999,-33.8980245621261],[-71.4485316669999,-33.8984333451261],[-71.4484338279999,-33.8980394971261],[-71.4485319219999,-33.8979759601261],[-71.4509105189999,-33.8976543251261],[-71.4518961669999,-33.8970136821261],[-71.4521303519999,-33.8964349291261],[-71.4502998249999,-33.8966400181261],[-71.4504730499999,-33.8965315151261],[-71.4521423349999,-33.8963909591261],[-71.4522282709999,-33.8960754341261]]]}},{"type":"Feature","properties":{"id":"13505013095018","commune":"San Pedro","code":"13505","gse":"C3","quintil":"Q2","nse_score":713.4,"educ":12.5,"educ_score":633.3,"hacin":1.135,"hacin_class":"Hacinamiento Leve","hacin_score":822.3,"auto_score":133.3,"n_per":42,"n_hog":15,"source_year":2024,"crime_score":0.9121,"crime_nivel":"Muy Alto","crime_color":"#d32f2f"},"geometry":{"type":"Polygon","coordinates":[[[-71.4444240969999,-33.9007618051261],[-71.4504251889999,-33.900083614126],[-71.4503175119999,-33.9003195331261],[-71.4510447059999,-33.9004852221261],[-71.4518075589999,-33.8995291201261],[-71.4444481959999,-33.900443841126],[-71.4444240969999,-33.9007618051261]]]}},{"type":"Feature","properties":{"id":"13505013095005","commune":"San Pedro","code":"13505","gse":"D","quintil":"Q1","nse_score":677.9,"educ":12.6,"educ_score":640.0,"hacin":1.21,"hacin_class":"Hacinamiento Leve","hacin_score":806.3,"auto_score":450.0,"n_per":23,"n_hog":8,"source_year":2024,"crime_score":0.9215,"crime_nivel":"Muy Alto","crime_color":"#d32f2f"},"geometry":{"type":"MultiPolygon","coordinates":[[[[-71.4567476589999,-33.8934676131261],[-71.4568319539999,-33.8938395641262],[-71.4574418669999,-33.8937534361261],[-71.4573998829999,-33.8927575081262],[-71.4575237409999,-33.8921771981262],[-71.4568975649999,-33.8922041191261],[-71.4569332569999,-33.8929560291262],[-71.4568856679999,-33.8932843951262],[-71.4567476589999,-33.8934676131261]]],[[[-71.455378617,-33.8905214051262],[-71.4558204969999,-33.8940738471262],[-71.4567699839999,-33.8938543161261],[-71.4566786549999,-33.8934652341262],[-71.4568809089999,-33.8929227171261],[-71.4568475959999,-33.8921684271262],[-71.4575195029999,-33.8921345531262],[-71.4575170459999,-33.8919282241262],[-71.4568083749999,-33.8911963381262],[-71.4566341979999,-33.8905752991262],[-71.4567520859999,-33.8899771241262],[-71.4554372559999,-33.8894957651262],[-71.455378617,-33.8905214051262]]]]}},{"type":"Feature","properties":{"id":"13505013095006","commune":"San Pedro","code":"13505","gse":"D","quintil":"Q1","nse_score":662.8,"educ":11.3,"educ_score":553.3,"hacin":1.217,"hacin_class":"Hacinamiento Leve","hacin_score":804.8,"auto_score":181.8,"n_per":28,"n_hog":10,"source_year":2024,"crime_score":0.9315,"crime_nivel":"Muy Alto","crime_color":"#d32f2f"},"geometry":{"type":"MultiPolygon","coordinates":[[[[-71.4595007769999,-33.8937365801261],[-71.4608848069999,-33.8937363491261],[-71.4606690939999,-33.8928396431262],[-71.4594018799999,-33.8929620911262],[-71.4595007769999,-33.8937365801261]]],[[[-71.4575701469999,-33.8925257251261],[-71.4574431549999,-33.8927594071261],[-71.4574955999999,-33.8937530621261],[-71.458099822,-33.8937370721262],[-71.4581073229999,-33.8931378991262],[-71.4583971409999,-33.8930807921261],[-71.4584670969999,-33.8927624201262],[-71.4586498399999,-33.8925539791262],[-71.4584642419999,-33.8928637851261],[-71.4584348189999,-33.8937352351261],[-71.4594435079999,-33.8937274061261],[-71.4592257269999,-33.8910449641262],[-71.4593268149999,-33.8908477601262],[-71.4566210999999,-33.8898092261262],[-71.4575574809999,-33.8902625051262],[-71.4574196109999,-33.8906525821262],[-71.4575598819999,-33.8908579791262],[-71.4575701469999,-33.8925257251261]]]]}},{"type":"Feature","properties":{"id":"13505063021001","commune":"San Pedro","code":"13505","gse":"E","quintil":"Q1","nse_score":624.3,"educ":10.7,"educ_score":513.3,"hacin":1.2,"hacin_class":"Hacinamiento Leve","hacin_score":808.5,"auto_score":382.4,"n_per":42,"n_hog":16,"source_year":2024,"crime_score":0.9575,"crime_nivel":"Muy Alto","crime_color":"#d32f2f"},"geometry":{"type":"Polygon","coordinates":[[[-71.5108460009999,-33.9165794681259],[-71.5066389439999,-33.9168408981258],[-71.5061587889999,-33.9180832571258],[-71.5099214359999,-33.9188451971258],[-71.5100440949999,-33.9182682911258],[-71.5103030069999,-33.9182522031258],[-71.5105564279999,-33.9168663431258],[-71.5108460009999,-33.9165794681259]]]}},{"type":"Feature","properties":{"id":"13505063021002","commune":"San Pedro","code":"13505","gse":"E","quintil":"Q1","nse_score":648.9,"educ":8.7,"educ_score":380.0,"hacin":1.132,"hacin_class":"Hacinamiento Leve","hacin_score":823.1,"auto_score":111.1,"n_per":43,"n_hog":18,"source_year":2024,"crime_score":0.9454,"crime_nivel":"Muy Alto","crime_color":"#d32f2f"},"geometry":{"type":"Polygon","coordinates":[[[-71.5050682179999,-33.9180493101259],[-71.5047618099999,-33.9194048461259],[-71.5066655459999,-33.9196631351258],[-71.5076359539999,-33.9200810831258],[-71.5082256519999,-33.9185177451258],[-71.5062949789999,-33.9181676591258],[-71.506209796,-33.9183338061259],[-71.5059237659999,-33.9184693441258],[-71.5062145439999,-33.9186907511258],[-71.5056578429999,-33.9188537121258],[-71.5054753739999,-33.9188434741258],[-71.5051927279999,-33.9193570011258],[-71.5054056409999,-33.9188458251258],[-71.5060725199999,-33.9186626321258],[-71.5058770059999,-33.9184619281258],[-71.5062524509999,-33.9181611031258],[-71.5050682179999,-33.9180493101259]]]}},{"type":"Feature","properties":{"id":"13505063021004","commune":"San Pedro","code":"13505","gse":"E","quintil":"Q1","nse_score":637.1,"educ":10.1,"educ_score":473.3,"hacin":1.184,"hacin_class":"Hacinamiento Leve","hacin_score":812.0,"auto_score":260.4,"n_per":116,"n_hog":47,"source_year":2024,"crime_score":0.9855,"crime_nivel":"Muy Alto","crime_color":"#d32f2f"},"geometry":{"type":"Polygon","coordinates":[[[-71.5076761359999,-33.9201015271258],[-71.5078377099999,-33.9202664381258],[-71.5076466399999,-33.9202003661258],[-71.5073893809999,-33.9210574981258],[-71.5077487249999,-33.9210284361258],[-71.5078135389999,-33.9206409251258],[-71.5085955839999,-33.9207924601258],[-71.5086136169999,-33.9206792751258],[-71.5085901489999,-33.9212139111258],[-71.5097450189999,-33.9214653261258],[-71.5103165199999,-33.9190145141259],[-71.5089854109999,-33.9187024691258],[-71.5086653229999,-33.9202850151258],[-71.5089356889999,-33.9203644911258],[-71.5081675579999,-33.9202186721258],[-71.5080242869999,-33.9201389121258],[-71.5084399589999,-33.9202381561258],[-71.5087897369999,-33.9186474141259],[-71.5082673839999,-33.9185272621258],[-71.5076761359999,-33.9201015271258]]]}},{"type":"Feature","properties":{"id":"13505063021011","commune":"San Pedro","code":"13505","gse":"E","quintil":"Q1","nse_score":596.6,"educ":9.8,"educ_score":453.3,"hacin":1.292,"hacin_class":"Hacinamiento Leve","hacin_score":789.0,"auto_score":178.6,"n_per":31,"n_hog":14,"source_year":2024,"crime_score":0.9665,"crime_nivel":"Muy Alto","crime_color":"#d32f2f"},"geometry":{"type":"Polygon","coordinates":[[[-71.5084667929999,-33.9222790041258],[-71.5086599879999,-33.9223139181258],[-71.5088918809999,-33.9221653271258],[-71.5080286199999,-33.9213666161258],[-71.5077714619999,-33.9215079741258],[-71.5084667929999,-33.9222790041258]]]}},{"type":"Feature","properties":{"id":"13505063021009","commune":"San Pedro","code":"13505","gse":"E","quintil":"Q1","nse_score":650.3,"educ":9.6,"educ_score":440.0,"hacin":1.458,"hacin_class":"Hacinamiento Leve","hacin_score":753.7,"auto_score":166.7,"n_per":86,"n_hog":27,"source_year":2024,"crime_score":0.9646,"crime_nivel":"Muy Alto","crime_color":"#d32f2f"},"geometry":{"type":"MultiPolygon","coordinates":[[[[-71.507420652,-33.9211732491258],[-71.5071880749999,-33.9218597321258],[-71.5073813759999,-33.9220938651258],[-71.5074132299999,-33.9222908821258],[-71.5071438869999,-33.9218616661258],[-71.5073893809999,-33.9210574981258],[-71.5067721209999,-33.9228237021258],[-71.5095653249999,-33.9225488591258],[-71.5095898999999,-33.9224111961258],[-71.5099595759999,-33.9224543471258],[-71.5099992319999,-33.9220988451258],[-71.5096688179999,-33.9220079581258],[-71.5097040509999,-33.9216635671258],[-71.5092832419999,-33.9219364871258],[-71.5094504029999,-33.9221048801258],[-71.5092496179999,-33.9219591411258],[-71.5089529969999,-33.9221682611258],[-71.5091007859999,-33.9223508661258],[-71.5089207019999,-33.9221922051258],[-71.5085523359999,-33.9223560451258],[-71.5077118729999,-33.9215558171258],[-71.5080485319999,-33.9213329661258],[-71.5089242629999,-33.9221413181258],[-71.5092216159999,-33.9219316531258],[-71.5086572009999,-33.9213579071258],[-71.5092554599999,-33.9219088511258],[-71.5095297929999,-33.9217294171258],[-71.5093606299999,-33.9215819631258],[-71.5095643959999,-33.9217073231258],[-71.509737276,-33.9215009011258],[-71.5076162059999,-33.9210398431258],[-71.507420652,-33.9211732491258]]],[[[-71.5078432629999,-33.9210487001258],[-71.5085477819999,-33.9212046001258],[-71.5085913919999,-33.9208286261258],[-71.5078497539999,-33.9206854631258],[-71.5078432629999,-33.9210487001258]]]]}},{"type":"Feature","properties":{"id":"13505063021003","commune":"San Pedro","code":"13505","gse":"E","quintil":"Q1","nse_score":619.1,"educ":9.8,"educ_score":453.3,"hacin":1.588,"hacin_class":"Hacinamiento Medio","hacin_score":725.9,"auto_score":166.7,"n_per":54,"n_hog":18,"source_year":2024,"crime_score":0.9658,"crime_nivel":"Muy Alto","crime_color":"#d32f2f"},"geometry":{"type":"MultiPolygon","coordinates":[[[[-71.5106510379999,-33.9203942151258],[-71.5105308049999,-33.9204048381258],[-71.5100661859999,-33.9202509391258],[-71.5097103079999,-33.9219924911258],[-71.5110842389999,-33.9222618171258],[-71.5114789459999,-33.9227882041258],[-71.5118744979999,-33.9193704871258],[-71.5117260459999,-33.9193342511258],[-71.5114721509999,-33.9207487801258],[-71.5116846529999,-33.9193210481258],[-71.5103609349999,-33.9190131551258],[-71.5100744739999,-33.9202149021258],[-71.5106510379999,-33.9203942151258]]],[[[-71.5103125319999,-33.9183091841258],[-71.5101068649999,-33.9182980081259],[-71.5100251009999,-33.9188719861259],[-71.5109684849999,-33.9190886801258],[-71.5110938479999,-33.9181354651258],[-71.5104231439999,-33.9181174021258],[-71.5103125319999,-33.9183091841258]]]]}}]}