{"type":"FeatureCollection","features":[{"type":"Feature","properties":{"id":"16304031001001","commune":"San Fabián","code":"16304","gse":"C2","quintil":"Q3","nse_score":713.3,"educ":13.7,"educ_score":713.3,"hacin":1.167,"hacin_class":"Hacinamiento Leve","hacin_score":815.6,"auto_score":83.3,"n_per":7,"n_hog":4,"source_year":2024},"geometry":{"type":"Polygon","coordinates":[[[-71.5503341589999,-36.548803979097],[-71.551333859,-36.548190435097],[-71.5509680519999,-36.547769566097],[-71.5513078159999,-36.547541721097],[-71.5507622569999,-36.546903606097],[-71.5494387499999,-36.547773319097],[-71.5503341589999,-36.548803979097]]]}},{"type":"Feature","properties":{"id":"16304031001002","commune":"San Fabián","code":"16304","gse":"C2","quintil":"Q4","nse_score":719.4,"educ":11.4,"educ_score":560.0,"hacin":1.2,"hacin_class":"Hacinamiento Leve","hacin_score":808.5,"auto_score":132.2,"n_per":240,"n_hog":89,"source_year":2024},"geometry":{"type":"Polygon","coordinates":[[[-71.548502863,-36.548665970097],[-71.5471226959999,-36.549296388097],[-71.5470098029999,-36.549098497097],[-71.5447463609999,-36.549906343097],[-71.5448368679999,-36.550636544097],[-71.5451054789999,-36.550958065097],[-71.5450881169999,-36.550482663097],[-71.5453315269999,-36.549993379097],[-71.5451271329999,-36.550482365097],[-71.5451371059999,-36.550991462097],[-71.5454891059999,-36.551358203097],[-71.5462988339999,-36.551007179097],[-71.5470993109999,-36.550708074097],[-71.5455062309999,-36.551375743097],[-71.5469890829999,-36.552820668097],[-71.5477948099999,-36.552270733097],[-71.5470535939999,-36.5528771340969],[-71.5473763379999,-36.553192012097],[-71.5478886589999,-36.552863539097],[-71.5473977109999,-36.553212842097],[-71.5480427449999,-36.553830495097],[-71.5490006589999,-36.5532025390969],[-71.5481777439999,-36.5523872440969],[-71.5490943549999,-36.553125244097],[-71.5504464529999,-36.552206951097],[-71.5499302809999,-36.551674498097],[-71.5505154649999,-36.552177239097],[-71.5509797219999,-36.551840262097],[-71.5504931539999,-36.5513212950969],[-71.5510572429999,-36.551803310097],[-71.5517613319999,-36.551310614097],[-71.5502828599999,-36.548837464097],[-71.5487917529999,-36.549684849097],[-71.5482515059999,-36.550371659097],[-71.54818746,-36.550641250097],[-71.5482356239999,-36.550332002097],[-71.5487480419999,-36.549685784097],[-71.5502466359999,-36.548779273097],[-71.5487976149999,-36.547110135097],[-71.5477364919999,-36.547738070097],[-71.548502863,-36.548665970097]]]}},{"type":"Feature","properties":{"id":"16304031001003","commune":"San Fabián","code":"16304","gse":"C3","quintil":"Q2","nse_score":675.7,"educ":10.4,"educ_score":493.3,"hacin":1.12,"hacin_class":"Hacinamiento Leve","hacin_score":825.5,"auto_score":0.0,"n_per":28,"n_hog":13,"source_year":2024},"geometry":{"type":"Polygon","coordinates":[[[-71.5504694139999,-36.549030457097],[-71.5526703559999,-36.552526370097],[-71.5552159579999,-36.5551008110969],[-71.5567152809999,-36.5542042630969],[-71.5552657449999,-36.552613852097],[-71.5547776869999,-36.552844562097],[-71.5537179689999,-36.551625515097],[-71.5532773449999,-36.551934819097],[-71.5507307189999,-36.548591848097],[-71.5504530929999,-36.548861112097],[-71.5504694139999,-36.549030457097]]]}},{"type":"Feature","properties":{"id":"16304031001004","commune":"San Fabián","code":"16304","gse":"D","quintil":"Q2","nse_score":652.1,"educ":10.4,"educ_score":493.3,"hacin":1.15,"hacin_class":"Hacinamiento Leve","hacin_score":819.1,"auto_score":181.8,"n_per":23,"n_hog":11,"source_year":2024},"geometry":{"type":"Polygon","coordinates":[[[-71.5597729839999,-36.550193464097],[-71.5602015559999,-36.550642092097],[-71.5587740479999,-36.551461380097],[-71.5594741389999,-36.5521759140969],[-71.5606561789999,-36.551533878097],[-71.5619321679999,-36.551077152097],[-71.5607546189999,-36.549848074097],[-71.5597729839999,-36.550193464097]]]}},{"type":"Feature","properties":{"id":"16304031001005","commune":"San Fabián","code":"16304","gse":"C3","quintil":"Q2","nse_score":662.5,"educ":11.2,"educ_score":546.7,"hacin":1.571,"hacin_class":"Hacinamiento Medio","hacin_score":729.5,"auto_score":187.5,"n_per":22,"n_hog":8,"source_year":2024},"geometry":{"type":"Polygon","coordinates":[[[-71.5570564159999,-36.551285584097],[-71.558516375,-36.552886549097],[-71.5594306069999,-36.552204123097],[-71.5578813829999,-36.550548844097],[-71.5570564159999,-36.551285584097]]]}},{"type":"Feature","properties":{"id":"16304031001006","commune":"San Fabián","code":"16304","gse":"C3","quintil":"Q2","nse_score":667.6,"educ":10.8,"educ_score":520.0,"hacin":1.146,"hacin_class":"Hacinamiento Leve","hacin_score":820.0,"auto_score":125.0,"n_per":110,"n_hog":43,"source_year":2024},"geometry":{"type":"Polygon","coordinates":[[[-71.5433375929999,-36.550943891097],[-71.5437304609999,-36.552800124097],[-71.5448515929999,-36.553564595097],[-71.543156387,-36.5546235860969],[-71.5423632869999,-36.5552782150969],[-71.5452270119999,-36.5574107920969],[-71.5479370539999,-36.555668608097],[-71.5469263939999,-36.554667627097],[-71.5466883619999,-36.554806788097],[-71.5479847569999,-36.5538616440969],[-71.5470506329999,-36.552946168097],[-71.5466047189999,-36.5532780920969],[-71.5467920139999,-36.5534184720969],[-71.5465200199999,-36.553633702097],[-71.5467384889999,-36.553420722097],[-71.5464254859999,-36.553180922097],[-71.5461796429999,-36.553341879097],[-71.5464024009999,-36.553158139097],[-71.5461665099999,-36.552962021097],[-71.5465801509999,-36.553259678097],[-71.5470263639999,-36.552922832097],[-71.5458848839999,-36.551813801097],[-71.5454995239999,-36.551988714097],[-71.5458707249999,-36.551799565097],[-71.5447867649999,-36.550551037097],[-71.5433375929999,-36.550943891097]]]}},{"type":"Feature","properties":{"id":"16304031001007","commune":"San Fabián","code":"16304","gse":"C3","quintil":"Q3","nse_score":698.0,"educ":10.7,"educ_score":513.3,"hacin":1.157,"hacin_class":"Hacinamiento Leve","hacin_score":817.6,"auto_score":144.7,"n_per":103,"n_hog":38,"source_year":2024},"geometry":{"type":"Polygon","coordinates":[[[-71.5639509349999,-36.5534999420969],[-71.5637317869999,-36.553328839097],[-71.5633572579999,-36.553555707097],[-71.5634625169999,-36.553828720097],[-71.5610893319999,-36.551463421097],[-71.5594849379999,-36.552252940097],[-71.5600512809999,-36.5528574610969],[-71.5594576839999,-36.5522712190969],[-71.5591387289999,-36.552509441097],[-71.5617611499999,-36.5550528970969],[-71.5642593789999,-36.553311422097],[-71.5620123669999,-36.551156537097],[-71.5618045719999,-36.551222178097],[-71.5639509349999,-36.5534999420969]]]}},{"type":"Feature","properties":{"id":"16304031001010","commune":"San Fabián","code":"16304","gse":"D","quintil":"Q2","nse_score":657.5,"educ":10.5,"educ_score":500.0,"hacin":1.488,"hacin_class":"Hacinamiento Leve","hacin_score":747.3,"auto_score":88.9,"n_per":122,"n_hog":45,"source_year":2024},"geometry":{"type":"Polygon","coordinates":[[[-71.5502497229999,-36.552507086097],[-71.5508665239999,-36.5531390920969],[-71.5516292919999,-36.552658472097],[-71.5508877119999,-36.553160036097],[-71.5521070969999,-36.5543240430969],[-71.5526573769999,-36.554016929097],[-71.5518020529999,-36.553174250097],[-71.5519900229999,-36.553252746097],[-71.5527570469999,-36.5527061210969],[-71.5518049519999,-36.551396894097],[-71.5502497229999,-36.552507086097]]]}},{"type":"Feature","properties":{"id":"16304031001011","commune":"San Fabián","code":"16304","gse":"C3","quintil":"Q2","nse_score":670.7,"educ":9.5,"educ_score":433.3,"hacin":1.125,"hacin_class":"Hacinamiento Leve","hacin_score":824.5,"auto_score":107.1,"n_per":36,"n_hog":14,"source_year":2024},"geometry":{"type":"Polygon","coordinates":[[[-71.5623782119999,-36.552627353097],[-71.5627715059999,-36.552357004097],[-71.5620106869999,-36.551584273097],[-71.5616072289999,-36.551812679097],[-71.5623782119999,-36.552627353097]]]}},{"type":"Feature","properties":{"id":"16304031001012","commune":"San Fabián","code":"16304","gse":"C3","quintil":"Q2","nse_score":671.5,"educ":10.7,"educ_score":513.3,"hacin":1.222,"hacin_class":"Hacinamiento Leve","hacin_score":803.8,"auto_score":125.0,"n_per":44,"n_hog":16,"source_year":2024},"geometry":{"type":"Polygon","coordinates":[[[-71.5632608589999,-36.5534988010969],[-71.5636514839999,-36.553233062097],[-71.5628942209999,-36.552483033097],[-71.5625181899999,-36.552677860097],[-71.5632608589999,-36.5534988010969]]]}},{"type":"Feature","properties":{"id":"16304031001013","commune":"San Fabián","code":"16304","gse":"C3","quintil":"Q3","nse_score":689.6,"educ":11.0,"educ_score":533.3,"hacin":1.194,"hacin_class":"Hacinamiento Leve","hacin_score":809.9,"auto_score":33.3,"n_per":37,"n_hog":15,"source_year":2024},"geometry":{"type":"Polygon","coordinates":[[[-71.5501693559999,-36.552507524097],[-71.5491343589999,-36.553206646097],[-71.5494296569999,-36.553508414097],[-71.5500403419999,-36.553152473097],[-71.5494509239999,-36.553529304097],[-71.5500923479999,-36.554154658097],[-71.5511374669999,-36.553506911097],[-71.5501693559999,-36.552507524097]]]}},{"type":"Feature","properties":{"id":"16304031001014","commune":"San Fabián","code":"16304","gse":"C3","quintil":"Q3","nse_score":698.5,"educ":10.4,"educ_score":493.3,"hacin":1.177,"hacin_class":"Hacinamiento Leve","hacin_score":813.5,"auto_score":0.0,"n_per":20,"n_hog":7,"source_year":2024},"geometry":{"type":"Polygon","coordinates":[[[-71.5591116489999,-36.552529610097],[-71.5578686379999,-36.5534694440969],[-71.5587916469999,-36.5542114490969],[-71.5578375169999,-36.553488447097],[-71.5572421959999,-36.5539632560969],[-71.5600897559999,-36.5564858220969],[-71.561677744,-36.5555602770969],[-71.5614323289999,-36.5552889440969],[-71.5617187979999,-36.5550832990969],[-71.5591116489999,-36.552529610097]]]}},{"type":"Feature","properties":{"id":"16304031001015","commune":"San Fabián","code":"16304","gse":"C3","quintil":"Q3","nse_score":688.8,"educ":10.6,"educ_score":506.7,"hacin":0.909,"hacin_class":"Sin Hacinamiento","hacin_score":870.4,"auto_score":0.0,"n_per":10,"n_hog":4,"source_year":2024},"geometry":{"type":"Polygon","coordinates":[[[-71.5523940139999,-36.553017375097],[-71.5526480689999,-36.553251429097],[-71.5530080049999,-36.5529503690969],[-71.5527793559999,-36.5527623750969],[-71.5523940139999,-36.553017375097]]]}},{"type":"Feature","properties":{"id":"16304031001016","commune":"San Fabián","code":"16304","gse":"C3","quintil":"Q2","nse_score":667.4,"educ":9.8,"educ_score":453.3,"hacin":1.105,"hacin_class":"Hacinamiento Leve","hacin_score":828.7,"auto_score":0.0,"n_per":42,"n_hog":16,"source_year":2024},"geometry":{"type":"Polygon","coordinates":[[[-71.5534842609999,-36.553451492097],[-71.5530347319999,-36.553021099097],[-71.5522996749999,-36.553556779097],[-71.5527306389999,-36.553961292097],[-71.5534842609999,-36.553451492097]]]}},{"type":"Feature","properties":{"id":"16304031001018","commune":"San Fabián","code":"16304","gse":"C1","quintil":"Q5","nse_score":779.9,"educ":12.6,"educ_score":640.0,"hacin":0.865,"hacin_class":"Sin Hacinamiento","hacin_score":879.8,"auto_score":33.3,"n_per":32,"n_hog":15,"source_year":2024},"geometry":{"type":"Polygon","coordinates":[[[-71.5490334469999,-36.554886505097],[-71.5500349189999,-36.554209131097],[-71.5490483879999,-36.553239795097],[-71.5480901509999,-36.553889170097],[-71.5490334469999,-36.554886505097]]]}},{"type":"Feature","properties":{"id":"16304031001019","commune":"San Fabián","code":"16304","gse":"D","quintil":"Q2","nse_score":646.3,"educ":11.9,"educ_score":593.3,"hacin":1.167,"hacin_class":"Hacinamiento Leve","hacin_score":815.6,"auto_score":71.4,"n_per":35,"n_hog":14,"source_year":2024},"geometry":{"type":"Polygon","coordinates":[[[-71.5529655019999,-36.5551611070969],[-71.5542691679999,-36.554279807097],[-71.5535500929999,-36.553496660097],[-71.5521811339999,-36.5543923990969],[-71.5529655019999,-36.5551611070969]]]}},{"type":"Feature","properties":{"id":"16304031001020","commune":"San Fabián","code":"16304","gse":"E","quintil":"Q1","nse_score":583.0,"educ":8.2,"educ_score":346.7,"hacin":0.545,"hacin_class":"Sin Hacinamiento","hacin_score":947.8,"auto_score":0.0,"n_per":6,"n_hog":5,"source_year":2024},"geometry":{"type":"Polygon","coordinates":[[[-71.55160466,-36.554658410097],[-71.5520475779999,-36.554370730097],[-71.5512103879999,-36.5535478650969],[-71.5507474819999,-36.5538217510969],[-71.55160466,-36.554658410097]]]}},{"type":"Feature","properties":{"id":"16304031001021","commune":"San Fabián","code":"16304","gse":"C2","quintil":"Q3","nse_score":708.2,"educ":11.2,"educ_score":546.7,"hacin":1.308,"hacin_class":"Hacinamiento Leve","hacin_score":785.6,"auto_score":0.0,"n_per":34,"n_hog":13,"source_year":2024},"geometry":{"type":"Polygon","coordinates":[[[-71.5509870769999,-36.555027422097],[-71.5515435739999,-36.554709176097],[-71.550678666,-36.5538666600969],[-71.5501902999999,-36.554238479097],[-71.5509870769999,-36.555027422097]]]}},{"type":"Feature","properties":{"id":"16304031001022","commune":"San Fabián","code":"16304","gse":"C2","quintil":"Q3","nse_score":707.1,"educ":11.5,"educ_score":566.7,"hacin":1.077,"hacin_class":"Hacinamiento Leve","hacin_score":834.7,"auto_score":125.0,"n_per":42,"n_hog":20,"source_year":2024},"geometry":{"type":"Polygon","coordinates":[[[-71.5479604399999,-36.5556035630969],[-71.5489799809999,-36.554931711097],[-71.548027971,-36.553936576097],[-71.5469975399999,-36.5546534340969],[-71.5479604399999,-36.5556035630969]]]}},{"type":"Feature","properties":{"id":"16304031001023","commune":"San Fabián","code":"16304","gse":"D","quintil":"Q1","nse_score":622.9,"educ":9.7,"educ_score":446.7,"hacin":1.487,"hacin_class":"Hacinamiento Leve","hacin_score":747.5,"auto_score":57.1,"n_per":113,"n_hog":36,"source_year":2024},"geometry":{"type":"Polygon","coordinates":[[[-71.53931553,-36.553983410097],[-71.5388344289999,-36.5543168170969],[-71.540251113,-36.5550264890969],[-71.5445854469999,-36.558332687097],[-71.5448812939999,-36.5580919770969],[-71.5456405999999,-36.5586936990969],[-71.5445472219999,-36.5595030960969],[-71.5448939099999,-36.5596700070969],[-71.546198048,-36.5609340020969],[-71.5467695399999,-36.5606273190969],[-71.5462984729999,-36.5604064610969],[-71.5461992349999,-36.5603112040969],[-71.5468066049999,-36.5606112290969],[-71.5474138819999,-36.5601052880969],[-71.548106517,-36.5599186140969],[-71.5484447969999,-36.5596906440969],[-71.5475701149999,-36.5588784430969],[-71.5463357259999,-36.5596317850969],[-71.5456574719999,-36.5599560550969],[-71.5454826679999,-36.5599730550969],[-71.5462138249999,-36.5596410420969],[-71.5460090469999,-36.5594633470969],[-71.5456716179999,-36.5596114030969],[-71.5455474879999,-36.5595738620969],[-71.5459861609999,-36.5594428520969],[-71.5458021739999,-36.5592271370969],[-71.5462514499999,-36.5596093860969],[-71.5464899929999,-36.5594902790969],[-71.5461832569999,-36.5592843030969],[-71.5459433149999,-36.5590488200969],[-71.5465195479999,-36.5594696030969],[-71.5472278199999,-36.5590318170969],[-71.5468309329999,-36.5586879800969],[-71.5466476529999,-36.5582966110969],[-71.5461689089999,-36.5580577350969],[-71.545887579,-36.5577404070969],[-71.5450601319999,-36.5574538850969],[-71.5410849469999,-36.5543370750969],[-71.5405303489999,-36.554475814097],[-71.5397576419999,-36.554061644097],[-71.53931553,-36.553983410097]]]}},{"type":"Feature","properties":{"id":"16304031001025","commune":"San Fabián","code":"16304","gse":"C2","quintil":"Q4","nse_score":723.3,"educ":11.7,"educ_score":580.0,"hacin":1.24,"hacin_class":"Hacinamiento Leve","hacin_score":800.0,"auto_score":108.1,"n_per":93,"n_hog":37,"source_year":2024},"geometry":{"type":"Polygon","coordinates":[[[-71.5539518589999,-36.5561081170969],[-71.5566337749999,-36.5586978760969],[-71.557084658,-36.5584293670969],[-71.5566894089999,-36.5587507280969],[-71.5584579509999,-36.5604308190969],[-71.5590665109999,-36.5601027560969],[-71.5584796899999,-36.5604514700969],[-71.5587015699999,-36.5607280890969],[-71.5584342609999,-36.5604849670969],[-71.5577133529999,-36.5610105870969],[-71.5595998849999,-36.5625902990969],[-71.5600092529999,-36.5623066670968],[-71.5613425079999,-36.5634783860968],[-71.5620930279999,-36.5628060960968],[-71.5559675959999,-36.5569711280969],[-71.5582351969999,-36.5551499400969],[-71.5569942979999,-36.5540947460969],[-71.5539518589999,-36.5561081170969]]]}},{"type":"Feature","properties":{"id":"16304031001026","commune":"San Fabián","code":"16304","gse":"C2","quintil":"Q4","nse_score":758.4,"educ":12.3,"educ_score":620.0,"hacin":0.875,"hacin_class":"Sin Hacinamiento","hacin_score":877.7,"auto_score":147.1,"n_per":42,"n_hog":17,"source_year":2024},"geometry":{"type":"Polygon","coordinates":[[[-71.5499010169999,-36.555742359097],[-71.5509251819999,-36.5550949200969],[-71.5501124919999,-36.5542679560969],[-71.5491197519999,-36.5549429830969],[-71.5499010169999,-36.555742359097]]]}},{"type":"Feature","properties":{"id":"16304031001027","commune":"San Fabián","code":"16304","gse":"C3","quintil":"Q3","nse_score":691.4,"educ":10.9,"educ_score":526.7,"hacin":1.091,"hacin_class":"Hacinamiento Leve","hacin_score":831.7,"auto_score":93.8,"n_per":36,"n_hog":16,"source_year":2024},"geometry":{"type":"Polygon","coordinates":[[[-71.5538497009999,-36.5560572370969],[-71.5551785019999,-36.555192088097],[-71.554365162,-36.554331825097],[-71.5530335739999,-36.555217544097],[-71.5538497009999,-36.5560572370969]]]}},{"type":"Feature","properties":{"id":"16304031001028","commune":"San Fabián","code":"16304","gse":"C1","quintil":"Q5","nse_score":774.0,"educ":13.6,"educ_score":706.7,"hacin":1.4,"hacin_class":"Hacinamiento Leve","hacin_score":766.0,"auto_score":269.2,"n_per":42,"n_hog":13,"source_year":2024},"geometry":{"type":"Polygon","coordinates":[[[-71.5524168419999,-36.5555683660969],[-71.5520137929999,-36.5551639800969],[-71.5524527349999,-36.5555386900969],[-71.5528871949999,-36.5552074740969],[-71.5521265089999,-36.5544426400969],[-71.5510955459999,-36.5550958780969],[-71.5518716369999,-36.5558819660969],[-71.5524168419999,-36.5555683660969]]]}},{"type":"Feature","properties":{"id":"16304031001030","commune":"San Fabián","code":"16304","gse":"C2","quintil":"Q4","nse_score":726.7,"educ":12.7,"educ_score":646.7,"hacin":0.931,"hacin_class":"Sin Hacinamiento","hacin_score":865.7,"auto_score":0.0,"n_per":27,"n_hog":12,"source_year":2024},"geometry":{"type":"Polygon","coordinates":[[[-71.5510281129999,-36.5551534700969],[-71.5499991389999,-36.5558305520969],[-71.5508649839999,-36.5566161960969],[-71.5518224799999,-36.5559233290969],[-71.5514373359999,-36.555542939097],[-71.5511113809999,-36.555761591097],[-71.5509311249999,-36.555599512097],[-71.5510557829999,-36.555515828097],[-71.5511945249999,-36.5556214430969],[-71.5513669499999,-36.555474994097],[-71.5510281129999,-36.5551534700969]]]}},{"type":"Feature","properties":{"id":"16304031001031","commune":"San Fabián","code":"16304","gse":"C2","quintil":"Q4","nse_score":732.6,"educ":12.6,"educ_score":640.0,"hacin":1.45,"hacin_class":"Hacinamiento Leve","hacin_score":755.3,"auto_score":125.0,"n_per":29,"n_hog":12,"source_year":2024},"geometry":{"type":"Polygon","coordinates":[[[-71.5529851729999,-36.555276245097],[-71.5519815799999,-36.5559686230969],[-71.5527810609999,-36.5567618620969],[-71.5538039209999,-36.5561166930969],[-71.5529851729999,-36.555276245097]]]}},{"type":"Feature","properties":{"id":"16304031001032","commune":"San Fabián","code":"16304","gse":"C1","quintil":"Q5","nse_score":800.8,"educ":14.6,"educ_score":773.3,"hacin":1.348,"hacin_class":"Hacinamiento Leve","hacin_score":777.1,"auto_score":333.3,"n_per":31,"n_hog":12,"source_year":2024},"geometry":{"type":"Polygon","coordinates":[[[-71.5479896159999,-36.5557136160969],[-71.5452943619999,-36.5574724810969],[-71.5458783029999,-36.5577041110969],[-71.5462327919999,-36.5580626950969],[-71.5466589429999,-36.5582528560969],[-71.5471592039999,-36.5589445880969],[-71.5474860809999,-36.5588695160969],[-71.5496777099999,-36.5574128110969],[-71.5488676189999,-36.5565633210969],[-71.5482386709999,-36.5569039070969],[-71.548812558,-36.556516341097],[-71.5479896159999,-36.5557136160969]]]}},{"type":"Feature","properties":{"id":"16304031001034","commune":"San Fabián","code":"16304","gse":"C2","quintil":"Q4","nse_score":754.2,"educ":12.5,"educ_score":633.3,"hacin":1.182,"hacin_class":"Hacinamiento Leve","hacin_score":812.4,"auto_score":107.1,"n_per":26,"n_hog":14,"source_year":2024},"geometry":{"type":"Polygon","coordinates":[[[-71.5516968079999,-36.5574899410969],[-71.5527097969999,-36.5568124330969],[-71.5518740239999,-36.5560063080969],[-71.5508989739999,-36.5566875130969],[-71.5516968079999,-36.5574899410969]]]}},{"type":"Feature","properties":{"id":"16304031001035","commune":"San Fabián","code":"16304","gse":"C2","quintil":"Q4","nse_score":725.3,"educ":12.6,"educ_score":640.0,"hacin":1.153,"hacin_class":"Hacinamiento Leve","hacin_score":818.5,"auto_score":228.6,"n_per":241,"n_hog":101,"source_year":2024},"geometry":{"type":"Polygon","coordinates":[[[-71.5514428829999,-36.5591248630969],[-71.5525188419999,-36.5584496040969],[-71.5580716289999,-36.5640246420969],[-71.5596016539999,-36.5628540150968],[-71.5610318419999,-36.5641652150969],[-71.5613425079999,-36.5634783860968],[-71.5600058049999,-36.5623565590969],[-71.5595968089999,-36.5626399350969],[-71.5576691829999,-36.5610262770969],[-71.5584134949999,-36.5604523240969],[-71.5574748249999,-36.5595537510969],[-71.5562648469999,-36.5604521960969],[-71.5583646309999,-36.5624433730969],[-71.5579106409999,-36.5620617350969],[-71.5571209279999,-36.5624603980969],[-71.557880898,-36.5620348470969],[-71.5571560399999,-36.5613614170969],[-71.5564399849999,-36.5617848730969],[-71.5571334519999,-36.5613406040969],[-71.5564035239999,-36.5606680240969],[-71.5556147119999,-36.5611214430969],[-71.5563813439999,-36.5606475860969],[-71.5562142889999,-36.5604561350969],[-71.5562840569999,-36.5603066310969],[-71.5574254339999,-36.5595161840969],[-71.5539099259999,-36.556163131097],[-71.5528715689999,-36.5568676960969],[-71.5536604349999,-36.5576201600969],[-71.5561084839999,-36.5603325410969],[-71.5552898739999,-36.5594901520969],[-71.5543888309999,-36.5600243870969],[-71.5550734579999,-36.5595737460969],[-71.5549414349999,-36.5594217840969],[-71.5551094619999,-36.5595523990969],[-71.5552635259999,-36.5594610510969],[-71.5544286259999,-36.5585389210969],[-71.5534330809999,-36.5591244080969],[-71.5544022619999,-36.5585098010969],[-71.5541730209999,-36.5582566070969],[-71.5530940099999,-36.5589169430969],[-71.5541466619999,-36.5582275070969],[-71.552830432,-36.5568991990969],[-71.5517813939999,-36.5575566930969],[-71.5523746419999,-36.5581392410969],[-71.5526610139999,-36.5580541220969],[-71.5523541479999,-36.5581757290969],[-71.5517438369999,-36.5575808290969],[-71.5506134939999,-36.5583293190969],[-71.5514428829999,-36.5591248630969]]]}},{"type":"Feature","properties":{"id":"16304031001036","commune":"San Fabián","code":"16304","gse":"C2","quintil":"Q4","nse_score":731.8,"educ":13.3,"educ_score":686.7,"hacin":1.286,"hacin_class":"Hacinamiento Leve","hacin_score":790.3,"auto_score":0.0,"n_per":9,"n_hog":5,"source_year":2024},"geometry":{"type":"Polygon","coordinates":[[[-71.5508349269999,-36.5567430510969],[-71.5498426039999,-36.5574274990969],[-71.5506547979999,-36.5581959070969],[-71.5516349999999,-36.5575565350969],[-71.5508349269999,-36.5567430510969]]]}},{"type":"Feature","properties":{"id":"16304031001037","commune":"San Fabián","code":"16304","gse":"D","quintil":"Q1","nse_score":621.0,"educ":9.3,"educ_score":420.0,"hacin":1.036,"hacin_class":"Hacinamiento Leve","hacin_score":843.5,"auto_score":71.4,"n_per":29,"n_hog":14,"source_year":2024},"geometry":{"type":"Polygon","coordinates":[[[-71.549777564,-36.5574474640969],[-71.5487474859999,-36.5581321000969],[-71.5495588899999,-36.5589261870969],[-71.5505668059999,-36.5582851810969],[-71.549777564,-36.5574474640969]]]}},{"type":"Feature","properties":{"id":"16304031001038","commune":"San Fabián","code":"16304","gse":"D","quintil":"Q2","nse_score":656.5,"educ":10.1,"educ_score":473.3,"hacin":1.116,"hacin_class":"Hacinamiento Leve","hacin_score":826.4,"auto_score":115.4,"n_per":77,"n_hog":26,"source_year":2024},"geometry":{"type":"Polygon","coordinates":[[[-71.5477012289999,-36.5587872970969],[-71.5479166969999,-36.5590971790969],[-71.548272246,-36.5589247440969],[-71.5479673559999,-36.5591473030969],[-71.548511028,-36.5596522810969],[-71.5495047149999,-36.5589772320969],[-71.5491311739999,-36.5585971630969],[-71.5487971689999,-36.5588272270969],[-71.5491040289999,-36.5585710650969],[-71.5486778039999,-36.5581748300969],[-71.5477012289999,-36.5587872970969]]]}},{"type":"Feature","properties":{"id":"16304031001039","commune":"San Fabián","code":"16304","gse":"C2","quintil":"Q4","nse_score":720.6,"educ":11.1,"educ_score":540.0,"hacin":0.9,"hacin_class":"Sin Hacinamiento","hacin_score":872.3,"auto_score":0.0,"n_per":9,"n_hog":7,"source_year":2024},"geometry":{"type":"Polygon","coordinates":[[[-71.5502826919999,-36.5602113820969],[-71.5509926489999,-36.5598416010969],[-71.5511394899999,-36.5600131180969],[-71.5518394109999,-36.5595424940969],[-71.5505877259999,-36.5583466040969],[-71.5496199499999,-36.5590007280969],[-71.5500118099999,-36.5593876150969],[-71.5498752169999,-36.5593347630969],[-71.5495830429999,-36.5595309600969],[-71.5502826919999,-36.5602113820969]]]}},{"type":"Feature","properties":{"id":"16304031001040","commune":"San Fabián","code":"16304","gse":"E","quintil":"Q1","nse_score":559.8,"educ":10.3,"educ_score":486.7,"hacin":1.368,"hacin_class":"Hacinamiento Leve","hacin_score":772.7,"auto_score":66.7,"n_per":26,"n_hog":12,"source_year":2024},"geometry":{"type":"Polygon","coordinates":[[[-71.5529010589999,-36.5658010420968],[-71.5541505409999,-36.5648045020969],[-71.5524428459999,-36.5634894680969],[-71.5523514379999,-36.5635530560969],[-71.5521111689999,-36.5634560640968],[-71.552041631,-36.5633369770969],[-71.5524114959999,-36.5635072340969],[-71.5519228269999,-36.5630207210968],[-71.551585009,-36.5629138640969],[-71.5512718339999,-36.5624524320969],[-71.5504438879999,-36.5619465930969],[-71.5501602599999,-36.5613164380969],[-71.5495575459999,-36.5607540160969],[-71.5502516689999,-36.5602233670969],[-71.5495486759999,-36.5595388190969],[-71.5498570819999,-36.5593047030969],[-71.5495771229999,-36.5590281180969],[-71.5485471499999,-36.5597001220969],[-71.5495503039999,-36.5606416570969],[-71.5485083399999,-36.5597171570969],[-71.5481177979999,-36.5599716320969],[-71.5473829189999,-36.5601756270969],[-71.5468591189999,-36.5606463660969],[-71.5460318189999,-36.5611072760969],[-71.5466642339999,-36.5615249340968],[-71.5484420299999,-36.5621399760968],[-71.5478330609999,-36.5615427060969],[-71.5484957079999,-36.5621579260969],[-71.550174265,-36.5628464510969],[-71.5503887199999,-36.5635500400969],[-71.5508634299999,-36.5642620530968],[-71.5512082209999,-36.5643582370969],[-71.5525802739999,-36.5652018750969],[-71.5529284819999,-36.5655177710968],[-71.5529010589999,-36.5658010420968]]]}},{"type":"Feature","properties":{"id":"16304031001041","commune":"San Fabián","code":"16304","gse":"D","quintil":"Q1","nse_score":631.7,"educ":11.0,"educ_score":533.3,"hacin":1.18,"hacin_class":"Hacinamiento Leve","hacin_score":812.8,"auto_score":245.1,"n_per":118,"n_hog":47,"source_year":2024},"geometry":{"type":"Polygon","coordinates":[[[-71.5528765369999,-36.5657358200968],[-71.5528799109999,-36.5655400980968],[-71.5525432859999,-36.5652334380969],[-71.5511861209999,-36.5643983570969],[-71.5508252229999,-36.5642929590969],[-71.5502917899999,-36.5634132900968],[-71.5499705359999,-36.5634034880969],[-71.5498204359999,-36.5633323520968],[-71.5502778359999,-36.5633677190969],[-71.550203097,-36.5630232370969],[-71.5499993429999,-36.5627864160969],[-71.5488057849999,-36.5623071630969],[-71.5486871509999,-36.5624676120969],[-71.5489386089999,-36.5627416010968],[-71.5491185049999,-36.5631129980969],[-71.5491166559999,-36.5632812540969],[-71.5489081879999,-36.5627534840969],[-71.5486538769999,-36.5624726320969],[-71.5487737699999,-36.5622963570969],[-71.5466287419999,-36.5615580910969],[-71.5459235699999,-36.5611616860969],[-71.5433865839999,-36.5637125200969],[-71.5440895099999,-36.5641956750969],[-71.5440534229999,-36.5643090590968],[-71.5433581899999,-36.5637408760969],[-71.5417588719999,-36.5653529430968],[-71.5421867289999,-36.5656054180969],[-71.5422056809999,-36.5658026860968],[-71.5419392049999,-36.5661151100968],[-71.5422568629999,-36.5663516280968],[-71.5418653849999,-36.5661472980968],[-71.5421097879999,-36.5656493530968],[-71.541698144,-36.5654258420969],[-71.5404315729999,-36.5665472890968],[-71.5420774689999,-36.5678066990968],[-71.5420911459999,-36.5680757930968],[-71.543218727,-36.5669048320968],[-71.5442105549999,-36.5663209010968],[-71.5468691009999,-36.5630915060969],[-71.5476544459999,-36.5633589490969],[-71.5491140659999,-36.5644133670968],[-71.5489003319999,-36.5645657820968],[-71.5497731179999,-36.5650383260968],[-71.5491227589999,-36.5655768440969],[-71.5496262849999,-36.5659666760969],[-71.5503542229999,-36.5655452970968],[-71.5519447549999,-36.5665473370968],[-71.5528765369999,-36.5657358200968]]]}},{"type":"Feature","properties":{"id":"16304031001042","commune":"San Fabián","code":"16304","gse":"D","quintil":"Q1","nse_score":619.6,"educ":9.4,"educ_score":426.7,"hacin":1.1,"hacin_class":"Hacinamiento Leve","hacin_score":829.8,"auto_score":250.0,"n_per":11,"n_hog":4,"source_year":2024},"geometry":{"type":"Polygon","coordinates":[[[-71.5403808469999,-36.5665902460968],[-71.5392224259999,-36.5675219440968],[-71.5396804729999,-36.5678257560968],[-71.5403089739999,-36.5673182040968],[-71.5405038029999,-36.5674322270968],[-71.5407270649999,-36.5672476310968],[-71.5420186199999,-36.5680897070968],[-71.5420806999999,-36.5679056470968],[-71.5403808469999,-36.5665902460968]]]}}]}