{"type":"FeatureCollection","features":[{"type":"Feature","properties":{"id":"10306023011002","commune":"San Juan De La Costa","code":"10306","gse":"E","quintil":"Q1","nse_score":497.8,"educ":8.2,"educ_score":346.7,"hacin":1.368,"hacin_class":"Hacinamiento Leve","hacin_score":772.7,"auto_score":0.0,"n_per":26,"n_hog":9,"source_year":2024},"geometry":{"type":"Polygon","coordinates":[[[-73.7354627349999,-40.5794480130676],[-73.7348822429999,-40.5786729400677],[-73.7351196629999,-40.5784454400677],[-73.7349101629999,-40.5783141070677],[-73.7344379979999,-40.5787329000676],[-73.7346567439999,-40.5777690160677],[-73.7343756499999,-40.5769811170677],[-73.7337727939999,-40.5769336120677],[-73.7340882919999,-40.5779411140677],[-73.7338818389999,-40.5786222040677],[-73.7336476119999,-40.5787188000677],[-73.7335229609999,-40.5790620320677],[-73.7339963989999,-40.5794414600677],[-73.7345611029999,-40.5794692340677],[-73.7346708089999,-40.5795998310677],[-73.7345541789999,-40.5800825450676],[-73.7333783269999,-40.5802063010676],[-73.7335669679999,-40.5805623430677],[-73.7350059209999,-40.5802358110677],[-73.7350989129999,-40.5799068740677],[-73.7354392319999,-40.5796338200676],[-73.7354627349999,-40.5794480130676]]]}},{"type":"Feature","properties":{"id":"10306023011007","commune":"San Juan De La Costa","code":"10306","gse":"E","quintil":"Q1","nse_score":557.6,"educ":8.7,"educ_score":380.0,"hacin":1.012,"hacin_class":"Hacinamiento Leve","hacin_score":848.6,"auto_score":68.6,"n_per":87,"n_hog":38,"source_year":2024},"geometry":{"type":"Polygon","coordinates":[[[-73.7331749729999,-40.5796052350676],[-73.7326210829999,-40.5794589570676],[-73.7323372589999,-40.5795797270677],[-73.7310667349999,-40.5794621010677],[-73.7306490089999,-40.5795353650676],[-73.7312656239999,-40.5798800380677],[-73.7312978829999,-40.5803570140677],[-73.7322693869999,-40.5801860580676],[-73.7324593109999,-40.5803092700677],[-73.7322676739999,-40.5802132280676],[-73.7313028829999,-40.5803803880676],[-73.7314925399999,-40.5805719810676],[-73.7315081009999,-40.5807132270676],[-73.7314559289999,-40.5813214370676],[-73.7314035869999,-40.5813941000677],[-73.7314528989999,-40.5805722970677],[-73.7305442099999,-40.5805729950677],[-73.7300733769999,-40.5803151740677],[-73.730022888,-40.5804711510677],[-73.7295216739999,-40.5807000870676],[-73.7293090839999,-40.5807130060677],[-73.7288851479999,-40.5806338350677],[-73.7295147829999,-40.5806827320677],[-73.7300068079999,-40.5804575680677],[-73.7299566299999,-40.5800188650677],[-73.7298541339999,-40.5801350180677],[-73.7297513199999,-40.5801809350676],[-73.729605149,-40.5801979200676],[-73.7295049239999,-40.5801769850676],[-73.7299147119999,-40.5800477540677],[-73.729869516,-40.5797848830677],[-73.7288626969999,-40.5799438180677],[-73.7279822769999,-40.5797218260677],[-73.7281161649999,-40.5799633540676],[-73.7280922919999,-40.5800469850677],[-73.7279106129999,-40.5801022930676],[-73.7276637389999,-40.5800666320677],[-73.7280284969999,-40.5800578910677],[-73.7280873849999,-40.5799310180677],[-73.7279562219999,-40.5797207280676],[-73.7277578619999,-40.5797123650676],[-73.7268331039999,-40.5799219430676],[-73.7265600029999,-40.5806535660677],[-73.7250706049999,-40.5814940310676],[-73.7263925819999,-40.5818593680676],[-73.7261065319999,-40.5816195780677],[-73.7261041969999,-40.5815148010676],[-73.7261770199999,-40.5814187440677],[-73.7261369739999,-40.5816138190676],[-73.7264246089999,-40.5818625600676],[-73.7271823649999,-40.5821232200676],[-73.7272175679999,-40.5818862120676],[-73.7272132369999,-40.5821324550677],[-73.7274613389999,-40.5822805050676],[-73.7279649519999,-40.5822283100676],[-73.7274975199999,-40.5823088990676],[-73.7282225729999,-40.5826850720677],[-73.7292329499999,-40.5827948330676],[-73.7296667539999,-40.5823925080676],[-73.730142768,-40.5822463140676],[-73.7314452819999,-40.5825135420677],[-73.7319748289999,-40.5822788970676],[-73.7315163799999,-40.5819684440676],[-73.7314982099999,-40.5816062290676],[-73.7311577009999,-40.5815350730676],[-73.7308353529999,-40.5816469320677],[-73.7304629899999,-40.5816240990677],[-73.7303207929999,-40.5815744310676],[-73.7308344919999,-40.5816233840677],[-73.7311543639999,-40.5815114740677],[-73.731504792,-40.5815825880677],[-73.7318956759999,-40.5813937760676],[-73.7316051689999,-40.5812852930677],[-73.7317645859999,-40.5812870440677],[-73.7317598769999,-40.5812228590676],[-73.7319255109999,-40.5810187740676],[-73.7317957329999,-40.5812912260677],[-73.7320377659999,-40.5813834890677],[-73.7321258919999,-40.5811377560676],[-73.7325681229999,-40.5810528680676],[-73.7335241829999,-40.5805827030677],[-73.7333381289999,-40.5802279770676],[-73.7337631279999,-40.5801523250676],[-73.7337369549999,-40.5799644860677],[-73.7332850689999,-40.5800624240677],[-73.7331704709999,-40.5800423110677],[-73.7337358819999,-40.5799410640677],[-73.7339657769999,-40.5795017850677],[-73.7335647089999,-40.5794438480676],[-73.7331749729999,-40.5796052350676]]]}},{"type":"Feature","properties":{"id":"10306023011008","commune":"San Juan De La Costa","code":"10306","gse":"E","quintil":"Q1","nse_score":438.9,"educ":4.5,"educ_score":100.0,"hacin":1.1,"hacin_class":"Hacinamiento Leve","hacin_score":829.8,"auto_score":0.0,"n_per":11,"n_hog":4,"source_year":2024},"geometry":{"type":"Polygon","coordinates":[[[-73.733793482,-40.5801485980677],[-73.7345491729999,-40.5800562120676],[-73.7346211299999,-40.5795412410677],[-73.7340072169999,-40.5794672110677],[-73.7343236469999,-40.5797312340677],[-73.7339859919999,-40.5795357270677],[-73.7337715449999,-40.5798425830677],[-73.733793482,-40.5801485980677]]]}},{"type":"Feature","properties":{"id":"10306023011010","commune":"San Juan De La Costa","code":"10306","gse":"E","quintil":"Q1","nse_score":512.0,"educ":9.0,"educ_score":400.0,"hacin":1.444,"hacin_class":"Hacinamiento Leve","hacin_score":756.5,"auto_score":125.0,"n_per":13,"n_hog":5,"source_year":2024},"geometry":{"type":"Polygon","coordinates":[[[-73.7233008899999,-40.5813070860676],[-73.7238007529999,-40.5815924950677],[-73.724922681,-40.5814898760676],[-73.7242051849999,-40.5800328990677],[-73.7233421269999,-40.5801165050676],[-73.7233008899999,-40.5813070860676]]]}},{"type":"Feature","properties":{"id":"10306023011011","commune":"San Juan De La Costa","code":"10306","gse":"E","quintil":"Q1","nse_score":466.8,"educ":8.0,"educ_score":333.3,"hacin":1.2,"hacin_class":"Hacinamiento Leve","hacin_score":808.5,"auto_score":0.0,"n_per":12,"n_hog":6,"source_year":2024},"geometry":{"type":"Polygon","coordinates":[[[-73.7258183509999,-40.5809905850676],[-73.7265346809999,-40.5806376430676],[-73.7266643309999,-40.5803199400676],[-73.725724769,-40.5803661040677],[-73.7258183509999,-40.5809905850676]]]}},{"type":"Feature","properties":{"id":"10306023011014","commune":"San Juan De La Costa","code":"10306","gse":"C3","quintil":"Q2","nse_score":685.0,"educ":11.7,"educ_score":580.0,"hacin":0.795,"hacin_class":"Sin Hacinamiento","hacin_score":894.7,"auto_score":153.8,"n_per":31,"n_hog":13,"source_year":2024},"geometry":{"type":"Polygon","coordinates":[[[-73.7315472349999,-40.5815575110676],[-73.731545992,-40.5819591440677],[-73.7320090059999,-40.5822706560676],[-73.7330071759999,-40.5820448540677],[-73.7317374459999,-40.5823609150676],[-73.7314569059999,-40.5825370790677],[-73.7312776499999,-40.5827472210676],[-73.7312853209999,-40.5829309470677],[-73.7313764029999,-40.5829579880676],[-73.7316862989999,-40.5833462980676],[-73.7325572669999,-40.5832826160677],[-73.7325266459999,-40.5829845250676],[-73.7326359209999,-40.5829191360676],[-73.7328834569999,-40.5828644970677],[-73.7325482289999,-40.5829932750676],[-73.7325698859999,-40.5832984150676],[-73.7317606259999,-40.5833704300677],[-73.7316756609999,-40.5833684320676],[-73.7315307509999,-40.5832903020677],[-73.7312970229999,-40.5829606060676],[-73.7315441679999,-40.5835373300676],[-73.7325140709999,-40.5835072120676],[-73.7334269219999,-40.5836607550676],[-73.7337685809999,-40.5835359670676],[-73.7337863959999,-40.5833303750676],[-73.7334479589999,-40.5825991530676],[-73.7335913579999,-40.5820865370677],[-73.7334157759999,-40.5820016300676],[-73.7324448029999,-40.5819970250677],[-73.732164441,-40.5819241040676],[-73.7325397999999,-40.5819636980676],[-73.7320482369999,-40.5814055500677],[-73.7315472349999,-40.5815575110676]]]}},{"type":"Feature","properties":{"id":"10306023011015","commune":"San Juan De La Costa","code":"10306","gse":"D","quintil":"Q2","nse_score":652.6,"educ":10.4,"educ_score":493.3,"hacin":1.0,"hacin_class":"Hacinamiento Leve","hacin_score":851.1,"auto_score":31.2,"n_per":40,"n_hog":16,"source_year":2024},"geometry":{"type":"Polygon","coordinates":[[[-73.7343023159999,-40.5829141590676],[-73.7342700459999,-40.5826815340677],[-73.7343335039999,-40.5829295510677],[-73.7337765659999,-40.5831417850677],[-73.7338715849999,-40.5833307130677],[-73.7345825549999,-40.5834459960677],[-73.7348968979999,-40.5836135880676],[-73.7340905759999,-40.5834418450676],[-73.7344190689999,-40.5836469990676],[-73.7346289499999,-40.5836516460677],[-73.7347646919999,-40.5836913590677],[-73.7348135239999,-40.5837554010677],[-73.7344434499999,-40.5836730360677],[-73.7344939629999,-40.5837592820677],[-73.7344677959999,-40.5838376470676],[-73.7344078069999,-40.5836714220677],[-73.7338825499999,-40.5833639950676],[-73.7336920809999,-40.5836857270676],[-73.7332887359999,-40.5837189190676],[-73.7335171649999,-40.5837588940676],[-73.7336210149999,-40.5840185850677],[-73.7345179509999,-40.5846545030677],[-73.7343940839999,-40.5851919940676],[-73.734822059,-40.5851072800676],[-73.7347839879999,-40.5847093770677],[-73.7348590759999,-40.5850999250676],[-73.7350784249999,-40.5849937290677],[-73.7350785439999,-40.5844657270677],[-73.73517634,-40.5841299850676],[-73.7353143489999,-40.5839681810676],[-73.7351005339999,-40.5845654260676],[-73.7362019569999,-40.5847327360676],[-73.7360719789999,-40.5845403330677],[-73.7362629109999,-40.5845997160677],[-73.7363486699999,-40.5844797000676],[-73.7363102829999,-40.5843010310676],[-73.7361280599999,-40.5842226450676],[-73.7362201299999,-40.5842109200676],[-73.7360996989999,-40.5839549620677],[-73.7362342289999,-40.5839055050677],[-73.7361371659999,-40.5837389260677],[-73.736222445,-40.5836443690676],[-73.7358530099999,-40.5833092930677],[-73.7358920349999,-40.5830105170676],[-73.7354078899999,-40.5825595950677],[-73.7352715639999,-40.5827045210676],[-73.7350815969999,-40.5825942180676],[-73.7346800739999,-40.5818879100676],[-73.7335969229999,-40.5814307270676],[-73.7330783319999,-40.5819293290676],[-73.733371798,-40.5819402600677],[-73.7335648089999,-40.5818009300676],[-73.7336965,-40.5817724840677],[-73.7337972359999,-40.5818050420676],[-73.7338832999999,-40.5820698930676],[-73.7336928189999,-40.5817963810677],[-73.7334104269999,-40.5819387040676],[-73.7336712689999,-40.5820669420676],[-73.733530518,-40.5825945710677],[-73.7336426779999,-40.5828916710676],[-73.7337649559999,-40.5831200950676],[-73.7343023159999,-40.5829141590676]]]}},{"type":"Feature","properties":{"id":"10306023011016","commune":"San Juan De La Costa","code":"10306","gse":"D","quintil":"Q1","nse_score":625.8,"educ":10.2,"educ_score":480.0,"hacin":1.01,"hacin_class":"Hacinamiento Leve","hacin_score":848.9,"auto_score":0.0,"n_per":98,"n_hog":43,"source_year":2024},"geometry":{"type":"Polygon","coordinates":[[[-73.7281983669999,-40.5831102210676],[-73.7278160329999,-40.5825862080677],[-73.7278642589999,-40.5827466560676],[-73.7278231159999,-40.5829562290676],[-73.7275828959999,-40.5831179780677],[-73.7277952499999,-40.5829413690676],[-73.7277796099999,-40.5825562070676],[-73.7272714179999,-40.5821749300677],[-73.7268669529999,-40.5820368230677],[-73.7266704419999,-40.5822326810676],[-73.7268191649999,-40.5824436620676],[-73.7266372549999,-40.5822350840676],[-73.7268338869999,-40.5820255320676],[-73.7253333029999,-40.5815487820676],[-73.723906182,-40.5816586300676],[-73.7252227499999,-40.5828926250677],[-73.7263478339999,-40.5829440720676],[-73.7274659579999,-40.5837453680676],[-73.7280466839999,-40.5839366350676],[-73.7283672759999,-40.5839650280677],[-73.7288184639999,-40.5835610510677],[-73.7289533279999,-40.5835375300676],[-73.7284063409999,-40.5839699600676],[-73.7287182849999,-40.5840038910677],[-73.7287016669999,-40.5839501570676],[-73.7288547899999,-40.5837385430676],[-73.7287511239999,-40.5840071500676],[-73.7296271839999,-40.5841043260676],[-73.7301896589999,-40.5844156230676],[-73.7307495319999,-40.5840206190676],[-73.7304688419999,-40.5837665720677],[-73.7307248839999,-40.5835541400676],[-73.7307559129999,-40.5836614760676],[-73.7305057099999,-40.5837688390677],[-73.7309257159999,-40.5840747720677],[-73.7310544039999,-40.5840429540676],[-73.7312501879999,-40.5836171460676],[-73.7309926429999,-40.5833238890676],[-73.7309143389999,-40.5831562500676],[-73.7303762369999,-40.5830571430677],[-73.7302604469999,-40.5833440040676],[-73.7303432489999,-40.5830527810676],[-73.7300099539999,-40.5830263460676],[-73.7300852849999,-40.5829963190677],[-73.7309338589999,-40.5831375840676],[-73.7312767379999,-40.5836016810677],[-73.7312882349999,-40.5836959340676],[-73.731517128,-40.5835492370677],[-73.7312456599999,-40.5827801530676],[-73.7311165989999,-40.5828736660677],[-73.7314251869999,-40.5825311060676],[-73.7310680389999,-40.5823900880677],[-73.7299191349999,-40.5822994300676],[-73.7299031979999,-40.5825360780676],[-73.7297862969999,-40.5825511370676],[-73.7298622719999,-40.5823208150677],[-73.7292596689999,-40.5828127500677],[-73.7284586469999,-40.5827341860676],[-73.7285226719999,-40.5828435560677],[-73.7284838889999,-40.5831538790677],[-73.7284225809999,-40.5827302960677],[-73.727857077,-40.5825871030676],[-73.7280674969999,-40.5827851870677],[-73.7282007469999,-40.5830050490677],[-73.7281983669999,-40.5831102210676]]]}},{"type":"Feature","properties":{"id":"10306023011018","commune":"San Juan De La Costa","code":"10306","gse":"E","quintil":"Q1","nse_score":536.7,"educ":7.0,"educ_score":266.7,"hacin":1.034,"hacin_class":"Hacinamiento Leve","hacin_score":843.7,"auto_score":0.0,"n_per":30,"n_hog":13,"source_year":2024},"geometry":{"type":"Polygon","coordinates":[[[-73.7234466899999,-40.5850965080676],[-73.7252636189999,-40.5849901790676],[-73.7253634249999,-40.5848412910676],[-73.7256851089999,-40.5848275790676],[-73.7256435399999,-40.5844559250676],[-73.7256785179999,-40.5843866830676],[-73.7258198579999,-40.5843017360676],[-73.7256663829999,-40.5845215980676],[-73.7257030729999,-40.5848054040676],[-73.7258528899999,-40.5848596720676],[-73.7261024499999,-40.5846509820676],[-73.7263419239999,-40.5840432930676],[-73.7255253089999,-40.5834655400677],[-73.7253009999999,-40.5836352450676],[-73.7251041079999,-40.5837013400676],[-73.7254873479999,-40.5834519420676],[-73.7248883259999,-40.5832208270676],[-73.7243602799999,-40.5836728500676],[-73.7241825259999,-40.5847333020677],[-73.7243238959999,-40.5836557640677],[-73.7248647009999,-40.5831737120677],[-73.724803774,-40.5826439420676],[-73.7242235559999,-40.5821223720677],[-73.724182143,-40.5823656810676],[-73.7233792549999,-40.5830928830677],[-73.7232388599999,-40.5835973420677],[-73.7234466899999,-40.5850965080676]]]}},{"type":"Feature","properties":{"id":"10306023011019","commune":"San Juan De La Costa","code":"10306","gse":"E","quintil":"Q1","nse_score":590.4,"educ":8.8,"educ_score":386.7,"hacin":0.737,"hacin_class":"Sin Hacinamiento","hacin_score":907.1,"auto_score":90.9,"n_per":14,"n_hog":9,"source_year":2024},"geometry":{"type":"Polygon","coordinates":[[[-73.7280627129999,-40.5846290810676],[-73.7289013299999,-40.5842924560677],[-73.7288985529999,-40.5840864380676],[-73.7276791909999,-40.5839054920676],[-73.7263140619999,-40.5830026290677],[-73.725334513,-40.5830027010676],[-73.7248277469999,-40.5827066760676],[-73.7248330859999,-40.5830363650676],[-73.7249694149999,-40.5832147430676],[-73.7255641939999,-40.5834558540677],[-73.7269138629999,-40.5844382880677],[-73.7279088469999,-40.5842447060676],[-73.7280627129999,-40.5846290810676]]]}},{"type":"Feature","properties":{"id":"10306023011020","commune":"San Juan De La Costa","code":"10306","gse":"E","quintil":"Q1","nse_score":605.8,"educ":9.8,"educ_score":453.3,"hacin":0.857,"hacin_class":"Sin Hacinamiento","hacin_score":881.5,"auto_score":0.0,"n_per":30,"n_hog":14,"source_year":2024},"geometry":{"type":"Polygon","coordinates":[[[-73.731437088,-40.5836531810676],[-73.7310826259999,-40.5842589210677],[-73.7312499439999,-40.5846658810676],[-73.7316773649999,-40.5845227670677],[-73.7323928799999,-40.5844995280676],[-73.7320193859999,-40.5841295980676],[-73.7319609659999,-40.5840464780677],[-73.7319834409999,-40.5839468560677],[-73.7324349239999,-40.5844287150676],[-73.7324712949999,-40.5841725070676],[-73.7325344679999,-40.5844598090676],[-73.7329889489999,-40.5841818320677],[-73.7330839919999,-40.5841726410676],[-73.733284249,-40.5842406700676],[-73.7330048139999,-40.5842030080676],[-73.7328732279999,-40.5843281140677],[-73.7341244749999,-40.5848576160677],[-73.7339349749999,-40.5851539330677],[-73.7343632949999,-40.5851927750676],[-73.7344870119999,-40.5846619000677],[-73.7336012529999,-40.5840366470676],[-73.7334986049999,-40.5837824510676],[-73.7329792959999,-40.5836498090677],[-73.7333170519999,-40.5839989820676],[-73.7329486239999,-40.5836444690676],[-73.7317083439999,-40.5835558160677],[-73.731437088,-40.5836531810676]]]}},{"type":"Feature","properties":{"id":"10306023011030","commune":"San Juan De La Costa","code":"10306","gse":"E","quintil":"Q1","nse_score":545.5,"educ":9.9,"educ_score":460.0,"hacin":1.294,"hacin_class":"Hacinamiento Leve","hacin_score":788.5,"auto_score":0.0,"n_per":22,"n_hog":7,"source_year":2024},"geometry":{"type":"Polygon","coordinates":[[[-73.7303743139999,-40.5850285660676],[-73.7296722179999,-40.5851883780676],[-73.7294098899999,-40.5849794020676],[-73.7290686619999,-40.5852577860676],[-73.7293959319999,-40.5849580830676],[-73.7292397359999,-40.5847339250677],[-73.7286820039999,-40.5851560550676],[-73.7289266329999,-40.5853747590676],[-73.7286595679999,-40.5851720330676],[-73.7283856259999,-40.5853561350676],[-73.7290324079999,-40.5858140970677],[-73.7290194569999,-40.5860309480676],[-73.7292304179999,-40.5860941970677],[-73.7294830379999,-40.5858726680676],[-73.7298786829999,-40.5857766190676],[-73.7305764709999,-40.5859849970676],[-73.7307918999999,-40.5857593720676],[-73.7304493489999,-40.5856237270676],[-73.7308117809999,-40.5857390330676],[-73.7313819419999,-40.5852944290676],[-73.7303743139999,-40.5850285660676]]]}},{"type":"Feature","properties":{"id":"10306023011032","commune":"San Juan De La Costa","code":"10306","gse":"E","quintil":"Q1","nse_score":528.0,"educ":8.2,"educ_score":346.7,"hacin":1.25,"hacin_class":"Hacinamiento Leve","hacin_score":797.9,"auto_score":62.5,"n_per":20,"n_hog":8,"source_year":2024},"geometry":{"type":"Polygon","coordinates":[[[-73.7321501229999,-40.5858784630676],[-73.7324470549999,-40.5859456480676],[-73.7329540659999,-40.5855764570676],[-73.7326947289999,-40.5851658950676],[-73.7328920389999,-40.5848337540676],[-73.7324663209999,-40.5848943400676],[-73.7317740479999,-40.5853041900676],[-73.7317467279999,-40.5854087330676],[-73.7321501229999,-40.5858784630676]]]}},{"type":"Feature","properties":{"id":"10306023011034","commune":"San Juan De La Costa","code":"10306","gse":"E","quintil":"Q1","nse_score":512.1,"educ":9.4,"educ_score":426.7,"hacin":1.28,"hacin_class":"Hacinamiento Leve","hacin_score":791.5,"auto_score":20.0,"n_per":32,"n_hog":14,"source_year":2024},"geometry":{"type":"Polygon","coordinates":[[[-73.728202742,-40.5877386300676],[-73.7297068939999,-40.5877765330676],[-73.7298461979999,-40.5884336130676],[-73.7302620449999,-40.5888829860676],[-73.7318467449999,-40.5882713530676],[-73.7317477709999,-40.5877621800676],[-73.7315995409999,-40.5878744270676],[-73.7304577709999,-40.5883176330676],[-73.7303758829999,-40.5881878610676],[-73.7304557809999,-40.5882921750676],[-73.7315856039999,-40.5878534010676],[-73.7317233999999,-40.5877476890676],[-73.7312774479999,-40.5876384380676],[-73.7312799269999,-40.5875073530676],[-73.7322308899999,-40.5868442920677],[-73.7316395789999,-40.5868289120676],[-73.7312338999999,-40.5870510030676],[-73.7312848249999,-40.5871829830676],[-73.7311925729999,-40.5870821660677],[-73.7313720619999,-40.5869453530676],[-73.7310462319999,-40.5867195400676],[-73.7310700339999,-40.5867050300676],[-73.7313965459999,-40.5869306400676],[-73.7316827739999,-40.5868102450676],[-73.7317077809999,-40.5861649860676],[-73.7313646709999,-40.5853272970676],[-73.7306783589999,-40.5859196180676],[-73.7308725059999,-40.5861987050677],[-73.7308942739999,-40.5863296350676],[-73.7308568639999,-40.5864069620676],[-73.7306765749999,-40.5865517080676],[-73.7304027239999,-40.5866420940676],[-73.7301476939999,-40.5866620050676],[-73.7302556969999,-40.5869142820676],[-73.7300937469999,-40.5866433290676],[-73.7299068299999,-40.5866927240676],[-73.7299832699999,-40.5869276220677],[-73.7298721069999,-40.5866833210676],[-73.7306579699999,-40.5865329740676],[-73.7308636689999,-40.5863269860677],[-73.7307951139999,-40.5861361940676],[-73.7300373819999,-40.5858019470676],[-73.7293279829999,-40.5860062290677],[-73.7292775259999,-40.5862518250676],[-73.7301553369999,-40.5865122160677],[-73.7297644869999,-40.5864281620676],[-73.7298144159999,-40.5865937620676],[-73.7297264169999,-40.5864319900676],[-73.7292571919999,-40.5862741260676],[-73.7292038399999,-40.5861770470676],[-73.7290056959999,-40.5863424350676],[-73.7294742569999,-40.5864322510676],[-73.7294883619999,-40.5868714700676],[-73.729449041,-40.5864503090676],[-73.728979293,-40.5863615580677],[-73.7282888539999,-40.5868693020676],[-73.7284690569999,-40.5871975370676],[-73.728202742,-40.5877386300676]]]}},{"type":"Feature","properties":{"id":"10306023011035","commune":"San Juan De La Costa","code":"10306","gse":"C3","quintil":"Q2","nse_score":678.8,"educ":10.9,"educ_score":526.7,"hacin":0.8,"hacin_class":"Sin Hacinamiento","hacin_score":893.6,"auto_score":0.0,"n_per":16,"n_hog":6,"source_year":2024},"geometry":{"type":"Polygon","coordinates":[[[-73.7315056569999,-40.5853517740676],[-73.7314576989999,-40.5854839490676],[-73.7317349149999,-40.5861517560676],[-73.7323052659999,-40.5867426910676],[-73.7327021699999,-40.5863072750677],[-73.7322704279999,-40.5860796140676],[-73.7315056569999,-40.5853517740676]]]}},{"type":"Feature","properties":{"id":"10306023011038","commune":"San Juan De La Costa","code":"10306","gse":"E","quintil":"Q1","nse_score":545.1,"educ":9.3,"educ_score":420.0,"hacin":1.182,"hacin_class":"Hacinamiento Leve","hacin_score":812.4,"auto_score":41.7,"n_per":52,"n_hog":21,"source_year":2024},"geometry":{"type":"Polygon","coordinates":[[[-73.7336454759999,-40.5892414770676],[-73.7336265259999,-40.5887117850676],[-73.7334388179999,-40.5884452410676],[-73.73247226,-40.5881558590676],[-73.7324874579999,-40.5878882420676],[-73.7326226399999,-40.5878112200676],[-73.7331587039999,-40.5879678830676],[-73.733680165,-40.5879178780676],[-73.7340888889999,-40.5881297950676],[-73.7350967149999,-40.5879311580676],[-73.7355582819999,-40.5879622220676],[-73.7359893349999,-40.5882965020676],[-73.7368094539999,-40.5883284960676],[-73.7370385509999,-40.5887083590676],[-73.7374334319999,-40.5887973670676],[-73.7382378039999,-40.5885987700676],[-73.7387078289999,-40.5882934200676],[-73.7397884969999,-40.5884188410676],[-73.7394987329999,-40.5877790820676],[-73.7376934789999,-40.5874982570676],[-73.7385571909999,-40.5877550150676],[-73.7388850129999,-40.5880219130676],[-73.7385399459999,-40.5877747220676],[-73.7367402099999,-40.5872878810676],[-73.7358322239999,-40.5873286260676],[-73.7359213119999,-40.5875004870676],[-73.7364711439999,-40.5875808980676],[-73.7366810639999,-40.5876594710676],[-73.7370485929999,-40.5879613390676],[-73.7366641859999,-40.5876792370676],[-73.7359015459999,-40.5875198500676],[-73.7353443659999,-40.5868454010676],[-73.7353186329999,-40.5864629370677],[-73.7347300789999,-40.5860292570676],[-73.7342550909999,-40.5865461510676],[-73.7336866169999,-40.5865939170677],[-73.7343564669999,-40.5867948150676],[-73.7346174539999,-40.5867523030676],[-73.7347790769999,-40.5870359220676],[-73.7345985749999,-40.5867751410676],[-73.7343521579999,-40.5868184950676],[-73.7340806369999,-40.5867358030676],[-73.7340420619999,-40.5869233640676],[-73.7340521099999,-40.5867271150676],[-73.73296955,-40.5864290150677],[-73.7327551699999,-40.5871857680676],[-73.73252586,-40.5874929120676],[-73.7328763969999,-40.5866419890676],[-73.7329259229999,-40.5864192660676],[-73.7327935319999,-40.5863446770676],[-73.7312751869999,-40.5875739600676],[-73.7318552159999,-40.5877899160676],[-73.7318362019999,-40.5885234950676],[-73.7329054189999,-40.5887239960676],[-73.7330543929999,-40.5888250130676],[-73.7331612759999,-40.5892649010676],[-73.7336454759999,-40.5892414770676]]]}},{"type":"Feature","properties":{"id":"10306023011040","commune":"San Juan De La Costa","code":"10306","gse":"E","quintil":"Q1","nse_score":542.1,"educ":10.0,"educ_score":466.7,"hacin":1.222,"hacin_class":"Hacinamiento Leve","hacin_score":803.8,"auto_score":71.4,"n_per":11,"n_hog":4,"source_year":2024},"geometry":{"type":"Polygon","coordinates":[[[-73.7263375239999,-40.5875270760676],[-73.7267994969999,-40.5877873670676],[-73.7273067149999,-40.5871603990676],[-73.7277368909999,-40.5873010410676],[-73.7275952339999,-40.5877233120676],[-73.7281667569999,-40.5877377220676],[-73.7284326229999,-40.5871979740676],[-73.7282368589999,-40.5868929340676],[-73.7271650869999,-40.5867207320676],[-73.7266311739999,-40.5869122760677],[-73.7266818479999,-40.5871764260676],[-73.7263375239999,-40.5875270760676]]]}},{"type":"Feature","properties":{"id":"10306023011012","commune":"San Juan De La Costa","code":"10306","gse":"E","quintil":"Q1","nse_score":530.0,"educ":9.1,"educ_score":406.7,"hacin":1.125,"hacin_class":"Hacinamiento Leve","hacin_score":824.5,"auto_score":100.0,"n_per":9,"n_hog":4,"source_year":2024},"geometry":{"type":"MultiPolygon","coordinates":[[[[-73.7336509249999,-40.5807697320677],[-73.7334489049999,-40.5806923530677],[-73.7326058189999,-40.5811089960677],[-73.7322052479999,-40.5811722370676],[-73.7321190209999,-40.5813717500677],[-73.7325548259999,-40.5818978610677],[-73.7330164989999,-40.5819278740676],[-73.7335875509999,-40.5813883910677],[-73.7336105189999,-40.5811748450677],[-73.7332414909999,-40.5811663540677],[-73.7336203159999,-40.5811523610677],[-73.7341345509999,-40.5804980190677],[-73.7334784049999,-40.5806784380677],[-73.7336509249999,-40.5807697320677]]],[[[-73.736615663,-40.5804570630676],[-73.7351919039999,-40.5809047570676],[-73.7344527179999,-40.5809178340676],[-73.7340800979999,-40.5811300740676],[-73.7344384579999,-40.5808968810677],[-73.7348154809999,-40.5808655300676],[-73.734178686,-40.5805241580677],[-73.7336412319999,-40.5811710050676],[-73.733626737,-40.5814285380677],[-73.7346800739999,-40.5818879100676],[-73.7345465829999,-40.5817416750676],[-73.7345924009999,-40.5815257320676],[-73.7350022139999,-40.5810464030677],[-73.7355525719999,-40.5810842590677],[-73.7361746249999,-40.5808618910676],[-73.7369125269999,-40.5808382820677],[-73.7368358329999,-40.5806835180677],[-73.7365894949999,-40.5807151420676],[-73.7367307149999,-40.5806732680677],[-73.736615663,-40.5804570630676]]]]}},{"type":"Feature","properties":{"id":"10306023011003","commune":"San Juan De La Costa","code":"10306","gse":"E","quintil":"Q1","nse_score":515.1,"educ":8.6,"educ_score":373.3,"hacin":1.083,"hacin_class":"Hacinamiento Leve","hacin_score":833.3,"auto_score":0.0,"n_per":26,"n_hog":11,"source_year":2024},"geometry":{"type":"MultiPolygon","coordinates":[[[[-73.7377046759999,-40.5793087310676],[-73.7366006049999,-40.5794070260677],[-73.7363371769999,-40.5795646480676],[-73.7366263709999,-40.5795058350677],[-73.7369265069999,-40.5795172970677],[-73.7361356719999,-40.5797077800676],[-73.7355189689999,-40.5797634630677],[-73.7355301859999,-40.5798467000677],[-73.7353938019999,-40.5800167250677],[-73.7354880979999,-40.5797637780676],[-73.7351745069999,-40.5798521660677],[-73.7349945519999,-40.5802748270676],[-73.7350725079999,-40.5803030230677],[-73.7350908399999,-40.5803773720677],[-73.7350328429999,-40.5806222320676],[-73.7349625369999,-40.5802919740676],[-73.7343000889999,-40.5804716600677],[-73.7351026629999,-40.5808468660677],[-73.7357377539999,-40.5806574350676],[-73.7355737809999,-40.5804257120677],[-73.7357663169999,-40.5806479100676],[-73.7361193639999,-40.5805475830676],[-73.7359969869999,-40.5802752290677],[-73.7361578489999,-40.5805562660676],[-73.7366387869999,-40.5804245480677],[-73.7367764599999,-40.5806673980677],[-73.7375567699999,-40.5804973670677],[-73.7368667359999,-40.5806795500677],[-73.7369424879999,-40.5808355690676],[-73.7378820079999,-40.5806450170677],[-73.7384068199999,-40.5811536670677],[-73.7390102829999,-40.5807369720677],[-73.7389265459999,-40.5804841680677],[-73.7388399619999,-40.5805540250676],[-73.7387399869999,-40.5805552800677],[-73.7390025129999,-40.5802797440677],[-73.7384310369999,-40.5795826700676],[-73.7377046759999,-40.5793087310676]]],[[[-73.7374021559999,-40.5792891570677],[-73.7377968029999,-40.5792755590677],[-73.7383605449999,-40.5789951650676],[-73.7381922739999,-40.5785301490677],[-73.737646277,-40.5786675200677],[-73.7378240789999,-40.5791634160676],[-73.7376275189999,-40.5792666680677],[-73.7374021559999,-40.5792891570677]]],[[[-73.737487799,-40.5786381080677],[-73.7360751589999,-40.5788498340677],[-73.7360710489999,-40.5796948370676],[-73.7365842389999,-40.5793870950677],[-73.7369875449999,-40.5793350340677],[-73.7370163859999,-40.5790391070676],[-73.7370187639999,-40.5793357730676],[-73.7377912419999,-40.5791561880677],[-73.7376124989999,-40.5786576940677],[-73.738184095,-40.5785075460676],[-73.7381196819999,-40.5783295420677],[-73.737487799,-40.5786381080677]]]]}},{"type":"Feature","properties":{"id":"10306023011001","commune":"San Juan De La Costa","code":"10306","gse":"E","quintil":"Q1","nse_score":533.5,"educ":8.6,"educ_score":373.3,"hacin":1.121,"hacin_class":"Hacinamiento Leve","hacin_score":825.4,"auto_score":61.0,"n_per":65,"n_hog":28,"source_year":2024},"geometry":{"type":"MultiPolygon","coordinates":[[[[-73.7299703229999,-40.5799896770677],[-73.7305216439999,-40.5800472030677],[-73.7300001869999,-40.5800698860676],[-73.730070828,-40.5802869400677],[-73.7305476439999,-40.5805490590677],[-73.7314084479999,-40.5805453720677],[-73.7312742779999,-40.5803891120676],[-73.7309303419999,-40.5804259020677],[-73.7312674139999,-40.5803604180677],[-73.7312585609999,-40.5799388670677],[-73.7306085799999,-40.5795608680677],[-73.7302382259999,-40.5797206130677],[-73.7298921209999,-40.5797796290676],[-73.7299703229999,-40.5799896770677]]],[[[-73.7333915819999,-40.5777218520677],[-73.7329966999999,-40.5780191480677],[-73.7292925509999,-40.5788985740677],[-73.7285510899999,-40.5778671540677],[-73.7275901169999,-40.5783882640677],[-73.7277139309999,-40.5785209830676],[-73.7277600579999,-40.5790253620676],[-73.7264759689999,-40.5792679320677],[-73.7261683309999,-40.5794449800677],[-73.7258783299999,-40.5798708090677],[-73.7242051849999,-40.5800328990677],[-73.7249506559999,-40.5814803630676],[-73.7256778709999,-40.5810714490676],[-73.7257545959999,-40.5808749660677],[-73.7256562119999,-40.5803995230676],[-73.7255046539999,-40.5803138180676],[-73.72666978,-40.5802698550676],[-73.7268064249999,-40.5799073010676],[-73.7280514489999,-40.5797013330677],[-73.7281679589999,-40.5795972510677],[-73.7281345349999,-40.5794010900676],[-73.728196367,-40.5796012790676],[-73.7280916389999,-40.5797030000677],[-73.7288633549999,-40.5799202700677],[-73.7292323199999,-40.5798801180677],[-73.7286022959999,-40.5788660590677],[-73.7282883909999,-40.5787352790677],[-73.7283033049999,-40.5783928160677],[-73.7281885889999,-40.5782339860677],[-73.7283344289999,-40.5783907790677],[-73.7283167409999,-40.5787221200677],[-73.7286287129999,-40.5788538820676],[-73.7292655689999,-40.5798754270676],[-73.7299359359999,-40.5797462510677],[-73.7297319419999,-40.5795261050677],[-73.7299668009999,-40.5797413600677],[-73.7306129949999,-40.5795374950677],[-73.7301914009999,-40.5792341720676],[-73.7306454389999,-40.5795016840676],[-73.7318203409999,-40.5787109050676],[-73.7307931869999,-40.5786507860676],[-73.7317523199999,-40.5786316480677],[-73.7318519969999,-40.5787034390676],[-73.7318112339999,-40.5787868730677],[-73.7319925409999,-40.5787908200677],[-73.7316237239999,-40.5788638190677],[-73.7307659449999,-40.5794560340676],[-73.7322590759999,-40.5795588490677],[-73.7326184659999,-40.5794354700677],[-73.7331263539999,-40.5795827870677],[-73.7335534729999,-40.5794212570676],[-73.7339239959999,-40.5794472290676],[-73.7334918829999,-40.5790605720677],[-73.7336192079999,-40.5787052010677],[-73.7338527859999,-40.5786138160677],[-73.7338871669999,-40.5783031480676],[-73.7335765889999,-40.5782815370677],[-73.7332223839999,-40.5784485290677],[-73.732984729,-40.5784805760677],[-73.733554781,-40.5782649330677],[-73.7334678529999,-40.5781219470677],[-73.7335871349999,-40.5782596530676],[-73.7339269519999,-40.5782346770677],[-73.7340551349999,-40.5778713060677],[-73.7337448329999,-40.5769333060677],[-73.7331704669999,-40.5769387380677],[-73.7333915819999,-40.5777218520677]]]]}},{"type":"Feature","properties":{"id":"10306023011023","commune":"San Juan De La Costa","code":"10306","gse":"E","quintil":"Q1","nse_score":592.3,"educ":9.9,"educ_score":460.0,"hacin":0.867,"hacin_class":"Sin Hacinamiento","hacin_score":879.4,"auto_score":0.0,"n_per":13,"n_hog":7,"source_year":2024},"geometry":{"type":"MultiPolygon","coordinates":[[[[-73.7291719719999,-40.5845219460677],[-73.7296653149999,-40.5851629170676],[-73.7298794609999,-40.5851404720676],[-73.7298430819999,-40.5847550580676],[-73.7299109069999,-40.5851348510677],[-73.7303560549999,-40.5850096360676],[-73.7301272269999,-40.5844574300676],[-73.7296003569999,-40.5841640600676],[-73.7291719719999,-40.5845219460677]]],[[[-73.7287119789999,-40.5844579610676],[-73.7275785379999,-40.5849918370677],[-73.7269512859999,-40.5844891130677],[-73.7264419899999,-40.5847418110677],[-73.7267835069999,-40.5850587600676],[-73.7269981579999,-40.5848304430676],[-73.7268070629999,-40.5850745340676],[-73.7278009509999,-40.5856598650676],[-73.7283401439999,-40.5853529580676],[-73.7280124999999,-40.5852243680676],[-73.727634614,-40.5852622570676],[-73.7274172569999,-40.5851976920676],[-73.7280154919999,-40.5852007420676],[-73.7283651539999,-40.5853386740676],[-73.7287363659999,-40.5850821230677],[-73.7284260639999,-40.5848837920676],[-73.7287584849999,-40.5850654430677],[-73.7292212679999,-40.5847150580676],[-73.7291420219999,-40.5845164420676],[-73.729486489,-40.5841497440676],[-73.7289308869999,-40.5840896890676],[-73.7289313229999,-40.5843047830676],[-73.7287119789999,-40.5844579610676]]]]}},{"type":"Feature","properties":{"id":"10306023011033","commune":"San Juan De La Costa","code":"10306","gse":"E","quintil":"Q1","nse_score":557.3,"educ":10.3,"educ_score":486.7,"hacin":0.765,"hacin_class":"Sin Hacinamiento","hacin_score":901.1,"auto_score":0.0,"n_per":13,"n_hog":7,"source_year":2024},"geometry":{"type":"MultiPolygon","coordinates":[[[[-73.7276403789999,-40.5857933800676],[-73.7275829879999,-40.5859538980677],[-73.7279322919999,-40.5858404360676],[-73.7275803659999,-40.5859734830676],[-73.7275517569999,-40.5867314570676],[-73.7280289909999,-40.5868936770676],[-73.7283289899999,-40.5868196290676],[-73.7288456279999,-40.5864303260676],[-73.7284018299999,-40.5863173730676],[-73.7283109559999,-40.5862169110676],[-73.7284827819999,-40.5859329190677],[-73.7283411519999,-40.5862092590676],[-73.7284768219999,-40.5863130970676],[-73.7285676619999,-40.5861402250676],[-73.7285405349999,-40.5863421370676],[-73.7288672679999,-40.5864106260676],[-73.7292152149999,-40.5861148710676],[-73.7289975469999,-40.5860478990676],[-73.729007351,-40.5858278800676],[-73.7283612389999,-40.5853702460677],[-73.7276403789999,-40.5857933800676]]],[[[-73.725184742,-40.5855859870677],[-73.7264443859999,-40.5864448880677],[-73.7261702949999,-40.5866130250676],[-73.7265748039999,-40.5869696870677],[-73.7268786359999,-40.5867608420676],[-73.7275222309999,-40.5867258990676],[-73.7275084679999,-40.5858956340676],[-73.726839906,-40.5861053690676],[-73.7264476419999,-40.5857463670676],[-73.7255912779999,-40.5852713760676],[-73.7253310279999,-40.5853644800677],[-73.725184742,-40.5855859870677]]]]}},{"type":"Feature","properties":{"id":"10306023011026","commune":"San Juan De La Costa","code":"10306","gse":"E","quintil":"Q1","nse_score":605.9,"educ":9.2,"educ_score":413.3,"hacin":1.231,"hacin_class":"Hacinamiento Leve","hacin_score":802.0,"auto_score":0.0,"n_per":16,"n_hog":8,"source_year":2024},"geometry":{"type":"MultiPolygon","coordinates":[[[[-73.731264903,-40.5850765930676],[-73.7316221509999,-40.5853052030677],[-73.7326783949999,-40.5847983200676],[-73.7325216609999,-40.5845390760676],[-73.7315469709999,-40.5846059780677],[-73.7313581969999,-40.5846995550676],[-73.731264903,-40.5850765930676]]],[[[-73.7326899759999,-40.5847583950676],[-73.7339055619999,-40.5851469210676],[-73.7340930959999,-40.5848751940676],[-73.7328398289999,-40.5843489840676],[-73.732575977,-40.5845180150677],[-73.7326899759999,-40.5847583950676]]]]}},{"type":"Feature","properties":{"id":"10306023011028","commune":"San Juan De La Costa","code":"10306","gse":"E","quintil":"Q1","nse_score":602.7,"educ":11.1,"educ_score":540.0,"hacin":1.111,"hacin_class":"Hacinamiento Leve","hacin_score":827.4,"auto_score":19.2,"n_per":60,"n_hog":25,"source_year":2024},"geometry":{"type":"Polygon","coordinates":[[[-73.7351005339999,-40.5845654260676],[-73.7351073369999,-40.5850018250676],[-73.7343933539999,-40.5852155410676],[-73.7343944109999,-40.5856542780676],[-73.7343626429999,-40.5852161210676],[-73.7329225209999,-40.5848404390676],[-73.7327261719999,-40.5851644360677],[-73.7329847699999,-40.5855830730676],[-73.7324307469999,-40.5860666720676],[-73.7329583339999,-40.5863376180677],[-73.7331516749999,-40.5860538490676],[-73.7329843519999,-40.5863491240676],[-73.7340587229999,-40.5865177810676],[-73.7343814109999,-40.5863542180676],[-73.7345594739999,-40.5860411360676],[-73.734873337,-40.5859697460676],[-73.7353940429999,-40.5864360880676],[-73.7354212699999,-40.5868218180676],[-73.7356958499999,-40.5872165990676],[-73.7367567249999,-40.5872260660676],[-73.7395241559999,-40.5877183440676],[-73.7396906459999,-40.5878358550676],[-73.7398771279999,-40.5884250550676],[-73.7403434099999,-40.5886506210676],[-73.7405491119999,-40.5885429430676],[-73.7405728529999,-40.5879784390676],[-73.7406372559999,-40.5877168930676],[-73.7407875659999,-40.5876040880676],[-73.7409430739999,-40.5875924970676],[-73.7409436289999,-40.5873433380676],[-73.7410553049999,-40.5874707980676],[-73.7409775379999,-40.5875900240676],[-73.7415823469999,-40.5876486770676],[-73.7423124069999,-40.5880826440676],[-73.7429103249999,-40.5878711570676],[-73.7435246579999,-40.5871937060676],[-73.7437093259999,-40.5870893190676],[-73.7438647149999,-40.5870762320676],[-73.7443593489999,-40.5872279150676],[-73.7458673219999,-40.5870471190676],[-73.746012591,-40.5870499600676],[-73.7460968419999,-40.5870968320676],[-73.7461171169999,-40.5871731280676],[-73.746070717,-40.5872477500676],[-73.7457821269999,-40.5873523360676],[-73.7451183599999,-40.5874762210676],[-73.7453955199999,-40.5874628130676],[-73.7455479809999,-40.5875009910676],[-73.7455403859999,-40.5875459540676],[-73.7451086599999,-40.5876984500676],[-73.7452394939999,-40.5877618350676],[-73.7450695699999,-40.5876997230676],[-73.7455179479999,-40.5875136000676],[-73.7451029859999,-40.5875214380676],[-73.745092929,-40.5874616310676],[-73.7459093119999,-40.5872833310676],[-73.7460696189999,-40.5871094310676],[-73.7443567239999,-40.5872514000676],[-73.7437176849999,-40.5871121360676],[-73.7429345489999,-40.5878857260677],[-73.7423128179999,-40.5881064040676],[-73.7415651589999,-40.5876684400676],[-73.7407994439999,-40.5876264160676],[-73.740603598,-40.5879791960676],[-73.7405776339999,-40.5885529480676],[-73.7403687529999,-40.5886647250676],[-73.740592036,-40.5890218850676],[-73.7404866559999,-40.5894287240676],[-73.7407699349999,-40.5896017110676],[-73.7409954749999,-40.5895978030676],[-73.741233184,-40.5893903160676],[-73.7413139329999,-40.5890919920676],[-73.7419700339999,-40.5892837560676],[-73.7420875149999,-40.5892532050676],[-73.7419406939999,-40.5890669910676],[-73.7420171459999,-40.5889977980676],[-73.7422253899999,-40.5890255300676],[-73.7422305189999,-40.5891974680676],[-73.7423716149999,-40.5892435670676],[-73.7425315559999,-40.5891752820676],[-73.742485874,-40.5889392420676],[-73.7428932989999,-40.5890328020676],[-73.7435150459999,-40.5888294880676],[-73.7437061159999,-40.5888824950676],[-73.7437038529999,-40.5890034250676],[-73.7448860409999,-40.5887489050676],[-73.7448136389999,-40.5886016990676],[-73.7453010819999,-40.5884351130676],[-73.7452787719999,-40.5882884520676],[-73.745520886,-40.5882910820676],[-73.7454224859999,-40.5881945230676],[-73.7456266619999,-40.5879930280676],[-73.7456996599999,-40.5881084090676],[-73.7459336629999,-40.5880982180676],[-73.7458133069999,-40.5878359040676],[-73.7459066889999,-40.5877541600676],[-73.7462151149999,-40.5877829720676],[-73.7464950209999,-40.5875504670676],[-73.7467692199999,-40.5876234690676],[-73.7467668129999,-40.5873051420676],[-73.7471971419999,-40.5875135230676],[-73.7476102649999,-40.5873015590676],[-73.747440406,-40.5870068790676],[-73.7476920519999,-40.5869459480676],[-73.7479055159999,-40.5866936210676],[-73.7476075799999,-40.5865503380676],[-73.7473553409999,-40.5866430930677],[-73.7472250899999,-40.5864634320677],[-73.7468822049999,-40.5864915420676],[-73.7465851039999,-40.5863037040676],[-73.7457835269999,-40.5863013680677],[-73.7456561579999,-40.5864145730676],[-73.7445547459999,-40.5863707760677],[-73.7449288649999,-40.5860119780676],[-73.7444357089999,-40.5860384480676],[-73.7444213919999,-40.5859109720677],[-73.7446324849999,-40.5857859460676],[-73.7445237169999,-40.5857974960676],[-73.7447450609999,-40.5855707250676],[-73.7446632429999,-40.5854807110676],[-73.7449932339999,-40.5852487540677],[-73.7448946,-40.5851649240676],[-73.7451939519999,-40.5852318370676],[-73.7452560789999,-40.5850351650677],[-73.7446929119999,-40.5847871360676],[-73.7446237449999,-40.5849137050677],[-73.7447463519999,-40.5850550900676],[-73.7445928679999,-40.5852253050676],[-73.7443908249999,-40.5848666110676],[-73.7438713219999,-40.5849628180676],[-73.7438671539999,-40.5851855840676],[-73.7435497959999,-40.5851884990676],[-73.7435631579999,-40.5853668930676],[-73.7433484819999,-40.5852372370676],[-73.7431867649999,-40.5854009940676],[-73.7431414399999,-40.5851458590677],[-73.7429988029999,-40.5851825030676],[-73.7431098349999,-40.5850500250676],[-73.7428084589999,-40.5850913070676],[-73.7427513359999,-40.5854662810676],[-73.7427200879999,-40.5853513520676],[-73.7425936699999,-40.5854136360676],[-73.7426999339999,-40.5855357480676],[-73.7424581879999,-40.5855140180676],[-73.7425055389999,-40.5861065740676],[-73.7422885989999,-40.5865434680676],[-73.7417799339999,-40.5865060980676],[-73.7415276879999,-40.5865988400677],[-73.7413815859999,-40.5868200590676],[-73.7408674369999,-40.5866298400676],[-73.7402392649999,-40.5867312130676],[-73.740168535,-40.5869405200676],[-73.7398338739999,-40.5869750650676],[-73.738858665,-40.5864360410676],[-73.7373323229999,-40.5863429720676],[-73.737095844,-40.5860411830677],[-73.7365017849999,-40.5861047120676],[-73.7364037599999,-40.5859890510676],[-73.7365672919999,-40.5857298330676],[-73.7362517289999,-40.5856372560676],[-73.7360893179999,-40.5847307990677],[-73.7351005339999,-40.5845654260676]]]}},{"type":"Feature","properties":{"id":"10306043110003","commune":"San Juan De La Costa","code":"10306","gse":"E","quintil":"Q1","nse_score":616.1,"educ":8.5,"educ_score":366.7,"hacin":0.9,"hacin_class":"Sin Hacinamiento","hacin_score":872.3,"auto_score":38.5,"n_per":27,"n_hog":14,"source_year":2024},"geometry":{"type":"Polygon","coordinates":[[[-73.4707991359999,-40.6032946600676],[-73.4714959329999,-40.6019482490675],[-73.4704146719999,-40.6017041240675],[-73.4696166689999,-40.6029969030676],[-73.4707991359999,-40.6032946600676]]]}},{"type":"Feature","properties":{"id":"10306043110004","commune":"San Juan De La Costa","code":"10306","gse":"E","quintil":"Q1","nse_score":618.7,"educ":9.5,"educ_score":433.3,"hacin":1.276,"hacin_class":"Hacinamiento Leve","hacin_score":792.4,"auto_score":269.2,"n_per":37,"n_hog":13,"source_year":2024},"geometry":{"type":"Polygon","coordinates":[[[-73.4712788729999,-40.6025496760676],[-73.4728440049999,-40.6028583640675],[-73.4729505019999,-40.6022491040676],[-73.4715410469999,-40.6019590110676],[-73.4712788729999,-40.6025496760676]]]}},{"type":"Feature","properties":{"id":"10306043110005","commune":"San Juan De La Costa","code":"10306","gse":"E","quintil":"Q1","nse_score":606.6,"educ":9.9,"educ_score":460.0,"hacin":1.051,"hacin_class":"Hacinamiento Leve","hacin_score":840.2,"auto_score":117.6,"n_per":41,"n_hog":16,"source_year":2024},"geometry":{"type":"Polygon","coordinates":[[[-73.4726616639999,-40.6034913440675],[-73.4716682299999,-40.6032673460675],[-73.4726741149999,-40.6034481220675],[-73.4728338629999,-40.6028935720675],[-73.4712636879999,-40.6025838880675],[-73.4709530909999,-40.6032836310676],[-73.4722937209999,-40.6044984570675],[-73.4726616639999,-40.6034913440675]]]}},{"type":"Feature","properties":{"id":"10306043110006","commune":"San Juan De La Costa","code":"10306","gse":"E","quintil":"Q1","nse_score":601.8,"educ":9.4,"educ_score":426.7,"hacin":1.214,"hacin_class":"Hacinamiento Leve","hacin_score":805.5,"auto_score":52.6,"n_per":51,"n_hog":19,"source_year":2024},"geometry":{"type":"Polygon","coordinates":[[[-73.4702655389999,-40.6046349950675],[-73.4708579339999,-40.6033602670675],[-73.4695943109999,-40.6030302510676],[-73.4686987919999,-40.6042453610675],[-73.4702655389999,-40.6046349950675]]]}},{"type":"Feature","properties":{"id":"10306043110007","commune":"San Juan De La Costa","code":"10306","gse":"E","quintil":"Q1","nse_score":608.5,"educ":10.4,"educ_score":493.3,"hacin":1.343,"hacin_class":"Hacinamiento Leve","hacin_score":778.1,"auto_score":194.4,"n_per":47,"n_hog":17,"source_year":2024},"geometry":{"type":"Polygon","coordinates":[[[-73.4709001399999,-40.6033778780675],[-73.4699114939999,-40.6056562100676],[-73.4713322539999,-40.6059859080675],[-73.4723021799999,-40.6045339520675],[-73.4719619619999,-40.6042433330676],[-73.4717004239999,-40.6047632630675],[-73.4719266419999,-40.6042086720675],[-73.4712596729999,-40.6035541530675],[-73.4709001399999,-40.6033778780675]]]}},{"type":"Feature","properties":{"id":"10306043110008","commune":"San Juan De La Costa","code":"10306","gse":"C3","quintil":"Q2","nse_score":682.0,"educ":11.5,"educ_score":566.7,"hacin":1.0,"hacin_class":"Hacinamiento Leve","hacin_score":851.1,"auto_score":38.5,"n_per":31,"n_hog":13,"source_year":2024},"geometry":{"type":"Polygon","coordinates":[[[-73.4702451709999,-40.6046844450675],[-73.4686423439999,-40.6042910480675],[-73.4684731899999,-40.6047406650675],[-73.4686152099999,-40.6054436180675],[-73.4698661909999,-40.6056459470675],[-73.4702451709999,-40.6046844450675]]]}},{"type":"Feature","properties":{"id":"10306043110009","commune":"San Juan De La Costa","code":"10306","gse":"C3","quintil":"Q2","nse_score":676.4,"educ":11.2,"educ_score":546.7,"hacin":0.962,"hacin_class":"Sin Hacinamiento","hacin_score":859.2,"auto_score":0.0,"n_per":25,"n_hog":11,"source_year":2024},"geometry":{"type":"Polygon","coordinates":[[[-73.4698344249999,-40.6057232640675],[-73.4685617669999,-40.6055142920676],[-73.4680380919999,-40.6066069260675],[-73.4686915569999,-40.6067964200676],[-73.4694761759999,-40.6067458170675],[-73.4698344249999,-40.6057232640675]]]}},{"type":"Feature","properties":{"id":"10306043110010","commune":"San Juan De La Costa","code":"10306","gse":"D","quintil":"Q1","nse_score":644.2,"educ":11.1,"educ_score":540.0,"hacin":1.229,"hacin_class":"Hacinamiento Leve","hacin_score":802.4,"auto_score":156.2,"n_per":43,"n_hog":16,"source_year":2024},"geometry":{"type":"Polygon","coordinates":[[[-73.4706199709999,-40.6059192080675],[-73.4698713489999,-40.6057639140676],[-73.4695046889999,-40.6067623910675],[-73.4695454559999,-40.6069413800676],[-73.4709583509999,-40.6071150670675],[-73.4711956319999,-40.6070121180675],[-73.4713198719999,-40.6060626280675],[-73.4706668899999,-40.6059236160675],[-73.4706002449999,-40.6062554050676],[-73.4706199709999,-40.6059192080675]]]}},{"type":"Feature","properties":{"id":"10306043110012","commune":"San Juan De La Costa","code":"10306","gse":"E","quintil":"Q1","nse_score":584.5,"educ":8.8,"educ_score":386.7,"hacin":1.4,"hacin_class":"Hacinamiento Leve","hacin_score":766.0,"auto_score":125.0,"n_per":7,"n_hog":4,"source_year":2024},"geometry":{"type":"Polygon","coordinates":[[[-73.4686419969999,-40.6091661840675],[-73.4691867409999,-40.6092850400675],[-73.4700985199999,-40.6070621090675],[-73.4695415699999,-40.6069784400675],[-73.4686419969999,-40.6091661840675]]]}},{"type":"Feature","properties":{"id":"10306043110013","commune":"San Juan De La Costa","code":"10306","gse":"D","quintil":"Q1","nse_score":626.8,"educ":9.8,"educ_score":453.3,"hacin":1.154,"hacin_class":"Hacinamiento Leve","hacin_score":818.3,"auto_score":0.0,"n_per":15,"n_hog":5,"source_year":2024},"geometry":{"type":"Polygon","coordinates":[[[-73.4684849049999,-40.6092653980675],[-73.4690379719999,-40.6079339650675],[-73.4680973519999,-40.6078375500675],[-73.4679280829999,-40.6073434170675],[-73.4675172929999,-40.6088050370675],[-73.4684849049999,-40.6092653980675]]]}},{"type":"Feature","properties":{"id":"10306043110001","commune":"San Juan De La Costa","code":"10306","gse":"E","quintil":"Q1","nse_score":612.7,"educ":9.1,"educ_score":406.7,"hacin":1.083,"hacin_class":"Hacinamiento Leve","hacin_score":833.3,"auto_score":0.0,"n_per":13,"n_hog":6,"source_year":2024},"geometry":{"type":"MultiPolygon","coordinates":[[[[-73.4706014539999,-40.6012578980675],[-73.4704290489999,-40.6016697800676],[-73.473664659,-40.6024405100676],[-73.4730384459999,-40.6023513340675],[-73.4727233639999,-40.6034451260676],[-73.4736046599999,-40.6032783520676],[-73.4727120109999,-40.6034845380675],[-73.4724050889999,-40.6045093390675],[-73.4729844409999,-40.6044579060675],[-73.4733574359999,-40.6040560160676],[-73.4733283459999,-40.6041852380676],[-73.4730129369999,-40.6044780020675],[-73.4723512899999,-40.6045335680676],[-73.4722079379999,-40.6048606980675],[-73.4726081389999,-40.6047809850675],[-73.4733115469999,-40.6042886600676],[-73.4741199279999,-40.6041696130676],[-73.4742363189999,-40.6040414190675],[-73.4738776999999,-40.6033447800675],[-73.4742937509999,-40.6030129770675],[-73.4743665339999,-40.6028063690676],[-73.4742126359999,-40.6025881170675],[-73.4746290729999,-40.6022390190676],[-73.4744767959999,-40.6014220500675],[-73.4728918169999,-40.6013049460675],[-73.4722057589999,-40.6011276640675],[-73.4721057809999,-40.6013778910675],[-73.4721632389999,-40.6011071630676],[-73.4706602789999,-40.6008244680675],[-73.4706014539999,-40.6012578980675]]],[[[-73.4661933549999,-40.6007939350676],[-73.4662957429999,-40.6022713480675],[-73.4656867909999,-40.6024362330676],[-73.4655000169999,-40.6026643850675],[-73.4654792789999,-40.6042324140676],[-73.4652755269999,-40.6045410610676],[-73.4652594379999,-40.6052442780675],[-73.4650034469999,-40.6058520530675],[-73.4649420649999,-40.6072119720675],[-73.4647301209999,-40.6078779900675],[-73.4648396989999,-40.6084692050675],[-73.4673950169999,-40.6089451670675],[-73.4678227399999,-40.6077716170675],[-73.4679234769999,-40.6067324250676],[-73.4685483669999,-40.6054372660676],[-73.4684257029999,-40.6047398470676],[-73.4684977069999,-40.6044521500675],[-73.4683229669999,-40.6043944820675],[-73.4676124999999,-40.6045150820675],[-73.4674617509999,-40.6044671810676],[-73.4683253169999,-40.6043576200675],[-73.4685127659999,-40.6044178690675],[-73.4694333289999,-40.6031732690676],[-73.4693496209999,-40.6030301260676],[-73.4691011719999,-40.6030078570676],[-73.4683621169999,-40.6035316940675],[-73.4690798099999,-40.6029732690676],[-73.4693775469999,-40.6029978370675],[-73.4694623259999,-40.6031343740675],[-73.4703401189999,-40.6017637270675],[-73.47061364,-40.6008173740675],[-73.4701060189999,-40.6007146250676],[-73.4696345509999,-40.6010336470676],[-73.4700520879999,-40.6007022700676],[-73.4679707239999,-40.6002529760675],[-73.4682054229999,-40.6006383360675],[-73.4681589299999,-40.6011492360675],[-73.4680728629999,-40.6007985080675],[-73.4681560409999,-40.6006424200675],[-73.4679138829999,-40.6002406700676],[-73.4669710329999,-40.6000478470676],[-73.466714969,-40.6004779750676],[-73.4661933549999,-40.6007939350676]]]]}}]}