{"type":"FeatureCollection","features":[{"type":"Feature","properties":{"id":"10307011001001","commune":"San Pablo","code":"10307","gse":"C3","quintil":"Q2","nse_score":684.6,"educ":10.9,"educ_score":526.7,"hacin":1.346,"hacin_class":"Hacinamiento Leve","hacin_score":777.5,"auto_score":231.2,"n_per":549,"n_hog":195,"source_year":2024},"geometry":{"type":"Polygon","coordinates":[[[-73.0086088199999,-40.4050270630685],[-73.0070301449999,-40.4066412190686],[-73.0079622849999,-40.4079561950685],[-73.0085713709999,-40.4077526160685],[-73.0080943879999,-40.4070885500685],[-73.008437624,-40.4063943330685],[-73.0086229249999,-40.4063030480685],[-73.0088278599999,-40.4063879370685],[-73.0092165359999,-40.4060015270686],[-73.0090601509999,-40.4058747450686],[-73.0091255859999,-40.4058093100685],[-73.0093330749999,-40.4059160290686],[-73.0098013529999,-40.4054801120686],[-73.0098717849999,-40.4055257970686],[-73.0094296599999,-40.4059944060686],[-73.0097665959999,-40.4061910240686],[-73.0101557129999,-40.4058385780685],[-73.0098053739999,-40.4062136530686],[-73.010195414,-40.4064412600686],[-73.0105946379999,-40.4061074040686],[-73.0102618679999,-40.4064800390685],[-73.0106697349999,-40.4067180490686],[-73.0110625049999,-40.4063788480685],[-73.0107368519999,-40.4067572150685],[-73.011132857,-40.4069883030685],[-73.0115983219999,-40.4065480140686],[-73.0116763679999,-40.4065936990685],[-73.0112398699999,-40.4070507500685],[-73.0115728619999,-40.4072207260685],[-73.0119993929999,-40.4067776440685],[-73.0120532089999,-40.4068056620686],[-73.0116012199999,-40.4072607250686],[-73.011870627,-40.4073895360685],[-73.012292397,-40.4069576580686],[-73.0123432589999,-40.4069856250686],[-73.0119017039999,-40.4074374830686],[-73.0122368339999,-40.4075911290686],[-73.0127050389999,-40.4071871420685],[-73.012257282,-40.4076490530685],[-73.0125576869999,-40.4078319540686],[-73.0130383539999,-40.4073843190686],[-73.0125960519999,-40.4078549290685],[-73.0129071769999,-40.4080412460685],[-73.0134352719999,-40.4076165900685],[-73.0129566459999,-40.4080708710685],[-73.0132919339999,-40.4082716550686],[-73.0137768039999,-40.4078079750685],[-73.0133616539999,-40.4083134060685],[-73.0137144169999,-40.4085246520685],[-73.01412468,-40.4081167680685],[-73.013742352,-40.4085413810686],[-73.0140601149999,-40.4087316660685],[-73.0144558149999,-40.4083287710686],[-73.0145243059999,-40.4083682150685],[-73.0140963569999,-40.4087533690685],[-73.0144242229999,-40.4089350800685],[-73.0149143189999,-40.4084888620686],[-73.014993478,-40.4085337350685],[-73.0148965969999,-40.4086911190685],[-73.0152624349999,-40.4089329720685],[-73.015255254,-40.4094445010685],[-73.0157006299999,-40.4095181690686],[-73.01574561,-40.4088635340685],[-73.0095620039999,-40.4052390340685],[-73.0086088199999,-40.4050270630685]]]}},{"type":"Feature","properties":{"id":"10307011001002","commune":"San Pablo","code":"10307","gse":"C2","quintil":"Q3","nse_score":723.7,"educ":11.6,"educ_score":573.3,"hacin":1.059,"hacin_class":"Hacinamiento Leve","hacin_score":838.5,"auto_score":178.6,"n_per":36,"n_hog":14,"source_year":2024},"geometry":{"type":"Polygon","coordinates":[[[-73.0092702979999,-40.4060078000686],[-73.0088661009999,-40.4064096400685],[-73.00917075,-40.4066187080685],[-73.0096056209999,-40.4062125780686],[-73.0092702979999,-40.4060078000686]]]}},{"type":"Feature","properties":{"id":"10307011001003","commune":"San Pablo","code":"10307","gse":"C3","quintil":"Q3","nse_score":704.6,"educ":11.0,"educ_score":533.3,"hacin":1.28,"hacin_class":"Hacinamiento Leve","hacin_score":791.5,"auto_score":192.3,"n_per":32,"n_hog":13,"source_year":2024},"geometry":{"type":"Polygon","coordinates":[[[-73.0096551119999,-40.4062230950685],[-73.0092389869999,-40.4066367940686],[-73.0095358999999,-40.4068378490685],[-73.0099802869999,-40.4064261780686],[-73.0096551119999,-40.4062230950685]]]}},{"type":"Feature","properties":{"id":"10307011001004","commune":"San Pablo","code":"10307","gse":"E","quintil":"Q1","nse_score":596.6,"educ":9.2,"educ_score":413.3,"hacin":1.512,"hacin_class":"Hacinamiento Medio","hacin_score":742.1,"auto_score":0.0,"n_per":62,"n_hog":24,"source_year":2024},"geometry":{"type":"Polygon","coordinates":[[[-73.0085080449999,-40.4064169820685],[-73.0083560219999,-40.4067013900686],[-73.0088237449999,-40.4069059360685],[-73.0089322189999,-40.4075858820685],[-73.0094070769999,-40.4074630690686],[-73.0092755339999,-40.4067962110685],[-73.0085080449999,-40.4064169820685]]]}},{"type":"Feature","properties":{"id":"10307011001005","commune":"San Pablo","code":"10307","gse":"C3","quintil":"Q3","nse_score":712.4,"educ":10.7,"educ_score":513.3,"hacin":1.308,"hacin_class":"Hacinamiento Leve","hacin_score":785.6,"auto_score":357.1,"n_per":17,"n_hog":7,"source_year":2024},"geometry":{"type":"Polygon","coordinates":[[[-73.0100253199999,-40.4064411290685],[-73.0096088539999,-40.4068551660686],[-73.0099094399999,-40.4070620250686],[-73.0103647109999,-40.4066380580686],[-73.0100253199999,-40.4064411290685]]]}},{"type":"Feature","properties":{"id":"10307011001006","commune":"San Pablo","code":"10307","gse":"D","quintil":"Q1","nse_score":647.1,"educ":10.0,"educ_score":466.7,"hacin":1.48,"hacin_class":"Hacinamiento Leve","hacin_score":748.9,"auto_score":178.6,"n_per":37,"n_hog":14,"source_year":2024},"geometry":{"type":"Polygon","coordinates":[[[-73.0104005439999,-40.4066621540685],[-73.0099769759999,-40.4070832530685],[-73.0102854249999,-40.4072876700686],[-73.0107468589999,-40.4068641140685],[-73.0104005439999,-40.4066621540685]]]}},{"type":"Feature","properties":{"id":"10307011001007","commune":"San Pablo","code":"10307","gse":"E","quintil":"Q1","nse_score":477.9,"educ":6.1,"educ_score":206.7,"hacin":1.296,"hacin_class":"Hacinamiento Leve","hacin_score":788.0,"auto_score":0.0,"n_per":35,"n_hog":19,"source_year":2024},"geometry":{"type":"Polygon","coordinates":[[[-73.0088698969999,-40.4076483780685],[-73.0087828779999,-40.4069244960685],[-73.0083064069999,-40.4067602520685],[-73.0081800439999,-40.4071144500685],[-73.0086390469999,-40.4077002650686],[-73.0088698969999,-40.4076483780685]]]}},{"type":"Feature","properties":{"id":"10307011001008","commune":"San Pablo","code":"10307","gse":"D","quintil":"Q1","nse_score":629.0,"educ":10.1,"educ_score":473.3,"hacin":1.692,"hacin_class":"Hacinamiento Medio","hacin_score":703.8,"auto_score":71.4,"n_per":22,"n_hog":7,"source_year":2024},"geometry":{"type":"Polygon","coordinates":[[[-73.0102015269999,-40.4073553880685],[-73.0094241579999,-40.4068835310686],[-73.0093836889999,-40.4068886130685],[-73.0095636229999,-40.4076237270685],[-73.0102015269999,-40.4073553880685]]]}},{"type":"Feature","properties":{"id":"10307011001009","commune":"San Pablo","code":"10307","gse":"D","quintil":"Q1","nse_score":623.1,"educ":8.2,"educ_score":346.7,"hacin":1.276,"hacin_class":"Hacinamiento Leve","hacin_score":792.4,"auto_score":233.3,"n_per":37,"n_hog":15,"source_year":2024},"geometry":{"type":"Polygon","coordinates":[[[-73.0107879019999,-40.4068830310686],[-73.0103593179999,-40.4073091170686],[-73.0106583489999,-40.4075114760686],[-73.0111265849999,-40.4070802610685],[-73.0107879019999,-40.4068830310686]]]}},{"type":"Feature","properties":{"id":"10307011001010","commune":"San Pablo","code":"10307","gse":"C3","quintil":"Q2","nse_score":681.6,"educ":11.2,"educ_score":546.7,"hacin":1.484,"hacin_class":"Hacinamiento Leve","hacin_score":748.1,"auto_score":192.3,"n_per":46,"n_hog":13,"source_year":2024},"geometry":{"type":"Polygon","coordinates":[[[-73.0111616309999,-40.4071027310686],[-73.0107368809999,-40.4075307250685],[-73.0110335979999,-40.4077307290685],[-73.0114803679999,-40.4073026720686],[-73.0111616309999,-40.4071027310686]]]}},{"type":"Feature","properties":{"id":"10307011001011","commune":"San Pablo","code":"10307","gse":"D","quintil":"Q1","nse_score":620.7,"educ":9.0,"educ_score":400.0,"hacin":1.333,"hacin_class":"Hacinamiento Leve","hacin_score":780.1,"auto_score":200.0,"n_per":48,"n_hog":15,"source_year":2024},"geometry":{"type":"Polygon","coordinates":[[[-73.0115206819999,-40.4073123200686],[-73.0111221999999,-40.4077367040685],[-73.0113836929999,-40.4079312900686],[-73.0118337739999,-40.4075191410686],[-73.0115206819999,-40.4073123200686]]]}},{"type":"Feature","properties":{"id":"10307011001012","commune":"San Pablo","code":"10307","gse":"D","quintil":"Q1","nse_score":626.9,"educ":8.5,"educ_score":366.7,"hacin":1.237,"hacin_class":"Hacinamiento Leve","hacin_score":800.7,"auto_score":166.7,"n_per":47,"n_hog":15,"source_year":2024},"geometry":{"type":"Polygon","coordinates":[[[-73.0102678879999,-40.4074123960685],[-73.0096351899999,-40.4076750440685],[-73.009622755,-40.4078404970685],[-73.0100242079999,-40.4080708660685],[-73.0105376629999,-40.4075788530686],[-73.0102678879999,-40.4074123960685]]]}},{"type":"Feature","properties":{"id":"10307011001013","commune":"San Pablo","code":"10307","gse":"C2","quintil":"Q3","nse_score":724.0,"educ":11.7,"educ_score":580.0,"hacin":1.137,"hacin_class":"Hacinamiento Leve","hacin_score":821.8,"auto_score":136.4,"n_per":91,"n_hog":33,"source_year":2024},"geometry":{"type":"Polygon","coordinates":[[[-73.0024141329999,-40.4100055640685],[-73.0026578599999,-40.4106050440686],[-73.0056287889999,-40.4112700170685],[-73.0062883759999,-40.4115428900685],[-73.0069301609999,-40.4109234200685],[-73.0063398329999,-40.4115754110685],[-73.0073459349999,-40.4121663620685],[-73.0081970549999,-40.4113712430686],[-73.0074014749999,-40.4108450840685],[-73.0082902269999,-40.4112990400685],[-73.0093563309999,-40.4102292510685],[-73.0075610929999,-40.4074726340685],[-73.0050578739999,-40.4096659010685],[-73.0044172479999,-40.4098342740685],[-73.0024141329999,-40.4100055640685]]]}},{"type":"Feature","properties":{"id":"10307011001014","commune":"San Pablo","code":"10307","gse":"C3","quintil":"Q3","nse_score":702.5,"educ":10.8,"educ_score":520.0,"hacin":1.118,"hacin_class":"Hacinamiento Leve","hacin_score":826.0,"auto_score":233.3,"n_per":38,"n_hog":15,"source_year":2024},"geometry":{"type":"Polygon","coordinates":[[[-73.0114672409999,-40.4079298900685],[-73.0117671439999,-40.4081435760685],[-73.0121850069999,-40.4076911530685],[-73.0118648879999,-40.4075338620685],[-73.0114672409999,-40.4079298900685]]]}},{"type":"Feature","properties":{"id":"10307011001015","commune":"San Pablo","code":"10307","gse":"E","quintil":"Q1","nse_score":609.8,"educ":8.3,"educ_score":353.3,"hacin":1.216,"hacin_class":"Hacinamiento Leve","hacin_score":805.2,"auto_score":76.9,"n_per":62,"n_hog":26,"source_year":2024},"geometry":{"type":"Polygon","coordinates":[[[-73.0095742899999,-40.4088009130685],[-73.0096923659999,-40.4087278180685],[-73.0095901559999,-40.4081770470685],[-73.0097164449999,-40.4079962190685],[-73.0095438799999,-40.4078661080686],[-73.0094455609999,-40.4075253760686],[-73.0089397609999,-40.4077574580685],[-73.0090692249999,-40.4085803150685],[-73.0095742899999,-40.4088009130685]]]}},{"type":"Feature","properties":{"id":"10307011001016","commune":"San Pablo","code":"10307","gse":"D","quintil":"Q2","nse_score":660.0,"educ":9.2,"educ_score":413.3,"hacin":1.212,"hacin_class":"Hacinamiento Leve","hacin_score":805.9,"auto_score":176.5,"n_per":40,"n_hog":17,"source_year":2024},"geometry":{"type":"Polygon","coordinates":[[[-73.0100501569999,-40.4081188640686],[-73.0105727929999,-40.4083814490685],[-73.0110907759999,-40.4078792520685],[-73.0105798009999,-40.4076026940685],[-73.0100501569999,-40.4081188640686]]]}},{"type":"Feature","properties":{"id":"10307011001017","commune":"San Pablo","code":"10307","gse":"D","quintil":"Q2","nse_score":660.8,"educ":10.9,"educ_score":526.7,"hacin":1.306,"hacin_class":"Hacinamiento Leve","hacin_score":786.0,"auto_score":107.1,"n_per":111,"n_hog":42,"source_year":2024},"geometry":{"type":"Polygon","coordinates":[[[-73.0080339519999,-40.4080208540685],[-73.0091415069999,-40.4097218060685],[-73.009548993,-40.4093640580685],[-73.0103120639999,-40.4098001200685],[-73.0106280589999,-40.4094809050685],[-73.0090355839999,-40.4086227460685],[-73.0088418959999,-40.4077284000685],[-73.0080339519999,-40.4080208540685]]]}},{"type":"Feature","properties":{"id":"10307011001018","commune":"San Pablo","code":"10307","gse":"C3","quintil":"Q3","nse_score":701.3,"educ":11.7,"educ_score":580.0,"hacin":1.242,"hacin_class":"Hacinamiento Leve","hacin_score":799.5,"auto_score":29.4,"n_per":41,"n_hog":17,"source_year":2024},"geometry":{"type":"Polygon","coordinates":[[[-73.0118215329999,-40.4081986310686],[-73.0120948029999,-40.4083661150685],[-73.0125666849999,-40.4079159890686],[-73.01224285,-40.4077379870686],[-73.0118215329999,-40.4081986310686]]]}},{"type":"Feature","properties":{"id":"10307011001019","commune":"San Pablo","code":"10307","gse":"D","quintil":"Q1","nse_score":633.3,"educ":8.9,"educ_score":393.3,"hacin":1.4,"hacin_class":"Hacinamiento Leve","hacin_score":766.0,"auto_score":115.4,"n_per":35,"n_hog":15,"source_year":2024},"geometry":{"type":"Polygon","coordinates":[[[-73.0106062999999,-40.4084141470685],[-73.0111137979999,-40.4087233920686],[-73.0116433839999,-40.4081969770685],[-73.0111322909999,-40.4079242730685],[-73.0106062999999,-40.4084141470685]]]}},{"type":"Feature","properties":{"id":"10307011001022","commune":"San Pablo","code":"10307","gse":"D","quintil":"Q2","nse_score":649.8,"educ":10.6,"educ_score":506.7,"hacin":1.546,"hacin_class":"Hacinamiento Medio","hacin_score":735.0,"auto_score":66.7,"n_per":51,"n_hog":14,"source_year":2024},"geometry":{"type":"Polygon","coordinates":[[[-73.013243412,-40.4083180560685],[-73.0129068759999,-40.4081181100685],[-73.0124294679999,-40.4085712250685],[-73.0127646619999,-40.4087758740686],[-73.013243412,-40.4083180560685]]]}},{"type":"Feature","properties":{"id":"10307011001023","commune":"San Pablo","code":"10307","gse":"C2","quintil":"Q4","nse_score":740.0,"educ":12.0,"educ_score":600.0,"hacin":1.214,"hacin_class":"Hacinamiento Leve","hacin_score":805.5,"auto_score":125.0,"n_per":34,"n_hog":12,"source_year":2024},"geometry":{"type":"Polygon","coordinates":[[[-73.0111648209999,-40.4087878400685],[-73.0121204029999,-40.4093706270685],[-73.0127052859999,-40.4088490110685],[-73.0117349899999,-40.4082524910685],[-73.0111648209999,-40.4087878400685]]]}},{"type":"Feature","properties":{"id":"10307011001024","commune":"San Pablo","code":"10307","gse":"D","quintil":"Q1","nse_score":635.7,"educ":8.9,"educ_score":393.3,"hacin":1.12,"hacin_class":"Hacinamiento Leve","hacin_score":825.5,"auto_score":115.4,"n_per":28,"n_hog":13,"source_year":2024},"geometry":{"type":"Polygon","coordinates":[[[-73.0101099049999,-40.4091026540685],[-73.0106619859999,-40.4085769180685],[-73.0102264559999,-40.4083055110685],[-73.0096844349999,-40.4088259260686],[-73.0101099049999,-40.4091026540685]]]}},{"type":"Feature","properties":{"id":"10307011001025","commune":"San Pablo","code":"10307","gse":"D","quintil":"Q1","nse_score":647.7,"educ":10.1,"educ_score":473.3,"hacin":1.441,"hacin_class":"Hacinamiento Leve","hacin_score":757.2,"auto_score":125.0,"n_per":49,"n_hog":16,"source_year":2024},"geometry":{"type":"Polygon","coordinates":[[[-73.0136671939999,-40.4085698350685],[-73.0133135999999,-40.4083597570685],[-73.0128374579999,-40.4088190220685],[-73.0131889869999,-40.4090273810685],[-73.0136671939999,-40.4085698350685]]]}},{"type":"Feature","properties":{"id":"10307011001026","commune":"San Pablo","code":"10307","gse":"C2","quintil":"Q4","nse_score":745.2,"educ":11.7,"educ_score":580.0,"hacin":1.212,"hacin_class":"Hacinamiento Leve","hacin_score":805.9,"auto_score":178.6,"n_per":40,"n_hog":14,"source_year":2024},"geometry":{"type":"Polygon","coordinates":[[[-73.0140140869999,-40.4087759310685],[-73.0136954359999,-40.4085866140685],[-73.0132195129999,-40.4090454740685],[-73.0135376989999,-40.4092340680685],[-73.0140140869999,-40.4087759310685]]]}},{"type":"Feature","properties":{"id":"10307011001027","commune":"San Pablo","code":"10307","gse":"D","quintil":"Q1","nse_score":647.1,"educ":10.3,"educ_score":486.7,"hacin":1.241,"hacin_class":"Hacinamiento Leve","hacin_score":799.7,"auto_score":250.0,"n_per":36,"n_hog":16,"source_year":2024},"geometry":{"type":"Polygon","coordinates":[[[-73.0112087439999,-40.4088990480686],[-73.0107373249999,-40.4086123020685],[-73.010184035,-40.4091465980685],[-73.0106847179999,-40.4094306850685],[-73.0112087439999,-40.4088990480686]]]}},{"type":"Feature","properties":{"id":"10307011001028","commune":"San Pablo","code":"10307","gse":"C2","quintil":"Q4","nse_score":727.4,"educ":12.0,"educ_score":600.0,"hacin":1.393,"hacin_class":"Hacinamiento Leve","hacin_score":767.5,"auto_score":285.7,"n_per":39,"n_hog":15,"source_year":2024},"geometry":{"type":"Polygon","coordinates":[[[-73.0148260349999,-40.4087159360686],[-73.0145622439999,-40.4090311810685],[-73.0152096859999,-40.4093813390685],[-73.0152155399999,-40.4089248930685],[-73.0148260349999,-40.4087159360686]]]}},{"type":"Feature","properties":{"id":"10307011001029","commune":"San Pablo","code":"10307","gse":"C3","quintil":"Q2","nse_score":682.3,"educ":11.2,"educ_score":546.7,"hacin":1.654,"hacin_class":"Hacinamiento Medio","hacin_score":711.9,"auto_score":250.0,"n_per":43,"n_hog":14,"source_year":2024},"geometry":{"type":"Polygon","coordinates":[[[-73.0140509679999,-40.4087978420686],[-73.0135800959999,-40.4092591970685],[-73.0138796949999,-40.4094298750685],[-73.0140327899999,-40.4093634850685],[-73.0143750659999,-40.4090047560685],[-73.0140509679999,-40.4087978420686]]]}},{"type":"Feature","properties":{"id":"10307011001031","commune":"San Pablo","code":"10307","gse":"C3","quintil":"Q2","nse_score":678.1,"educ":10.7,"educ_score":513.3,"hacin":1.509,"hacin_class":"Hacinamiento Medio","hacin_score":742.7,"auto_score":142.9,"n_per":83,"n_hog":28,"source_year":2024},"geometry":{"type":"Polygon","coordinates":[[[-73.0103825419999,-40.4098997070686],[-73.0111333359999,-40.4103629280685],[-73.0112482779999,-40.4102509770685],[-73.0108774489999,-40.4100050550685],[-73.0116797569999,-40.4091872270685],[-73.0112460039999,-40.4089549990685],[-73.0103825419999,-40.4098997070686]]]}},{"type":"Feature","properties":{"id":"10307011001034","commune":"San Pablo","code":"10307","gse":"C3","quintil":"Q2","nse_score":683.0,"educ":10.6,"educ_score":506.7,"hacin":1.154,"hacin_class":"Hacinamiento Leve","hacin_score":818.3,"auto_score":87.0,"n_per":60,"n_hog":23,"source_year":2024},"geometry":{"type":"Polygon","coordinates":[[[-73.0109325879999,-40.4100089710686],[-73.0112773769999,-40.4102226340685],[-73.012080969,-40.4094163580685],[-73.0117172839999,-40.4092090230685],[-73.0109325879999,-40.4100089710686]]]}},{"type":"Feature","properties":{"id":"10307011001035","commune":"San Pablo","code":"10307","gse":"D","quintil":"Q2","nse_score":657.4,"educ":11.4,"educ_score":560.0,"hacin":1.833,"hacin_class":"Hacinamiento Medio","hacin_score":673.8,"auto_score":281.2,"n_per":55,"n_hog":16,"source_year":2024},"geometry":{"type":"Polygon","coordinates":[[[-73.0148046749999,-40.4092568250685],[-73.0143458519999,-40.4097055410685],[-73.0146329959999,-40.4098819180685],[-73.0151150759999,-40.4094278730685],[-73.0148046749999,-40.4092568250685]]]}},{"type":"Feature","properties":{"id":"10307011001036","commune":"San Pablo","code":"10307","gse":"D","quintil":"Q2","nse_score":666.3,"educ":10.4,"educ_score":493.3,"hacin":1.345,"hacin_class":"Hacinamiento Leve","hacin_score":777.7,"auto_score":35.7,"n_per":39,"n_hog":14,"source_year":2024},"geometry":{"type":"Polygon","coordinates":[[[-73.0135804239999,-40.4093398650685],[-73.0131896079999,-40.4096895230685],[-73.0131053819999,-40.4098113620685],[-73.0134210799999,-40.4099593390685],[-73.0138536859999,-40.4095288780685],[-73.0135804239999,-40.4093398650685]]]}},{"type":"Feature","properties":{"id":"10307011001037","commune":"San Pablo","code":"10307","gse":"C2","quintil":"Q4","nse_score":738.9,"educ":12.4,"educ_score":626.7,"hacin":1.31,"hacin_class":"Hacinamiento Leve","hacin_score":785.2,"auto_score":131.6,"n_per":55,"n_hog":19,"source_year":2024},"geometry":{"type":"Polygon","coordinates":[[[-73.0100721629999,-40.4100374840685],[-73.0102786509999,-40.4098292070685],[-73.0095618199999,-40.4093990610685],[-73.0093601419999,-40.4095913590685],[-73.0100721629999,-40.4100374840685]]]}},{"type":"Feature","properties":{"id":"10307011001038","commune":"San Pablo","code":"10307","gse":"C3","quintil":"Q2","nse_score":679.5,"educ":10.8,"educ_score":520.0,"hacin":1.365,"hacin_class":"Hacinamiento Leve","hacin_score":773.4,"auto_score":92.1,"n_per":101,"n_hog":38,"source_year":2024},"geometry":{"type":"Polygon","coordinates":[[[-73.0125830089999,-40.4095873490685],[-73.0122223909999,-40.4094095730685],[-73.011332433,-40.4103123470685],[-73.0124098489999,-40.4109264640685],[-73.0133191129999,-40.4100393280685],[-73.0126496239999,-40.4096323100685],[-73.0122499239999,-40.4099402700685],[-73.0125830089999,-40.4095873490685]]]}},{"type":"Feature","properties":{"id":"10307011001039","commune":"San Pablo","code":"10307","gse":"C3","quintil":"Q2","nse_score":680.2,"educ":10.6,"educ_score":506.7,"hacin":1.375,"hacin_class":"Hacinamiento Leve","hacin_score":771.3,"auto_score":307.7,"n_per":33,"n_hog":14,"source_year":2024},"geometry":{"type":"Polygon","coordinates":[[[-73.0155500379999,-40.4096337570685],[-73.0151893389999,-40.4094734550686],[-73.0147420699999,-40.4099435100685],[-73.0150772989999,-40.4101130070685],[-73.0155500379999,-40.4096337570685]]]}},{"type":"Feature","properties":{"id":"10307011001040","commune":"San Pablo","code":"10307","gse":"C3","quintil":"Q3","nse_score":703.8,"educ":11.6,"educ_score":573.3,"hacin":1.148,"hacin_class":"Hacinamiento Leve","hacin_score":819.5,"auto_score":107.1,"n_per":31,"n_hog":14,"source_year":2024},"geometry":{"type":"Polygon","coordinates":[[[-73.0137637529999,-40.4097899290685],[-73.0147396359999,-40.4103691920685],[-73.0149991869999,-40.4101983520685],[-73.0139869379999,-40.4095703080686],[-73.0137637529999,-40.4097899290685]]]}},{"type":"Feature","properties":{"id":"10307011001041","commune":"San Pablo","code":"10307","gse":"C2","quintil":"Q4","nse_score":733.4,"educ":12.3,"educ_score":620.0,"hacin":1.312,"hacin_class":"Hacinamiento Leve","hacin_score":784.6,"auto_score":281.2,"n_per":42,"n_hog":15,"source_year":2024},"geometry":{"type":"Polygon","coordinates":[[[-73.0096652279999,-40.4104603570685],[-73.0100197239999,-40.4100902380685],[-73.0092875759999,-40.4096764480685],[-73.0091817879999,-40.4098045140685],[-73.0096652279999,-40.4104603570685]]]}},{"type":"Feature","properties":{"id":"10307011001042","commune":"San Pablo","code":"10307","gse":"C2","quintil":"Q4","nse_score":730.2,"educ":11.8,"educ_score":586.7,"hacin":1.442,"hacin_class":"Hacinamiento Leve","hacin_score":757.1,"auto_score":236.8,"n_per":62,"n_hog":19,"source_year":2024},"geometry":{"type":"Polygon","coordinates":[[[-73.0156798849999,-40.4096745130685],[-73.0145582519999,-40.4107956540685],[-73.0156478739999,-40.4114500630685],[-73.0163587519999,-40.4111001110685],[-73.0164811489999,-40.4107939950685],[-73.0156798849999,-40.4096745130685]]]}},{"type":"Feature","properties":{"id":"10307011001043","commune":"San Pablo","code":"10307","gse":"C3","quintil":"Q2","nse_score":670.0,"educ":10.1,"educ_score":473.3,"hacin":1.333,"hacin_class":"Hacinamiento Leve","hacin_score":780.1,"auto_score":266.7,"n_per":44,"n_hog":15,"source_year":2024},"geometry":{"type":"Polygon","coordinates":[[[-73.0135170119999,-40.4100567260685],[-73.0144920259999,-40.4106481130685],[-73.0147472209999,-40.4104540820685],[-73.0137477909999,-40.4098185510685],[-73.0135170119999,-40.4100567260685]]]}},{"type":"Feature","properties":{"id":"10307011001044","commune":"San Pablo","code":"10307","gse":"C2","quintil":"Q4","nse_score":747.7,"educ":12.6,"educ_score":640.0,"hacin":1.245,"hacin_class":"Hacinamiento Leve","hacin_score":799.0,"auto_score":240.0,"n_per":61,"n_hog":24,"source_year":2024},"geometry":{"type":"Polygon","coordinates":[[[-73.0110717489999,-40.4104083560685],[-73.0103470149999,-40.4099192270685],[-73.0101013209999,-40.4101231040685],[-73.0108694079999,-40.4105958540685],[-73.0110717489999,-40.4104083560685]]]}},{"type":"Feature","properties":{"id":"10307011001045","commune":"San Pablo","code":"10307","gse":"C3","quintil":"Q3","nse_score":706.0,"educ":10.1,"educ_score":473.3,"hacin":1.167,"hacin_class":"Hacinamiento Leve","hacin_score":815.6,"auto_score":80.0,"n_per":63,"n_hog":25,"source_year":2024},"geometry":{"type":"Polygon","coordinates":[[[-73.01342668,-40.4101116170685],[-73.0125353619999,-40.4110111830685],[-73.0135774239999,-40.4116113760685],[-73.0144423089999,-40.4107199340685],[-73.0138748749999,-40.4103585940685],[-73.0135075609999,-40.4106642630685],[-73.013836996,-40.4103360010686],[-73.01342668,-40.4101116170685]]]}},{"type":"Feature","properties":{"id":"10307011001046","commune":"San Pablo","code":"10307","gse":"C2","quintil":"Q4","nse_score":727.7,"educ":12.4,"educ_score":626.7,"hacin":1.546,"hacin_class":"Hacinamiento Medio","hacin_score":735.0,"auto_score":173.9,"n_per":68,"n_hog":23,"source_year":2024},"geometry":{"type":"Polygon","coordinates":[[[-73.0106164729999,-40.4108241060685],[-73.0108290019999,-40.4106083410685],[-73.0100725759999,-40.4101790360685],[-73.0098640419999,-40.4103481710685],[-73.0106164729999,-40.4108241060685]]]}},{"type":"Feature","properties":{"id":"10307011001047","commune":"San Pablo","code":"10307","gse":"C3","quintil":"Q3","nse_score":704.3,"educ":10.1,"educ_score":473.3,"hacin":1.074,"hacin_class":"Hacinamiento Leve","hacin_score":835.3,"auto_score":186.4,"n_per":159,"n_hog":58,"source_year":2024},"geometry":{"type":"Polygon","coordinates":[[[-73.016393665,-40.4104795930685],[-73.0164890809999,-40.4106090250685],[-73.0171509889999,-40.4107959350685],[-73.0174412609999,-40.4104364450685],[-73.017896129,-40.4106418140685],[-73.0173018039999,-40.4115805440685],[-73.0175523379999,-40.4110323880686],[-73.0166266619999,-40.4106699030685],[-73.0164310739999,-40.4111136810685],[-73.0157465789999,-40.4114950490685],[-73.0175458789999,-40.4126327800685],[-73.018140533,-40.4119922600685],[-73.0176175889999,-40.4126910830685],[-73.0180100959999,-40.4129510710685],[-73.0177109239999,-40.4128605720685],[-73.0162654189999,-40.4145946070685],[-73.0172787779999,-40.4149703280685],[-73.0200810529999,-40.4118108270685],[-73.0179168919999,-40.4105743020685],[-73.0172542469999,-40.4103084580685],[-73.016393665,-40.4104795930685]]]}},{"type":"Feature","properties":{"id":"10307011001049","commune":"San Pablo","code":"10307","gse":"C1","quintil":"Q5","nse_score":812.8,"educ":14.4,"educ_score":760.0,"hacin":0.833,"hacin_class":"Sin Hacinamiento","hacin_score":886.5,"auto_score":357.1,"n_per":15,"n_hog":7,"source_year":2024},"geometry":{"type":"Polygon","coordinates":[[[-73.0123422999999,-40.4109853470685],[-73.0112374429999,-40.4103658890685],[-73.0104434669999,-40.4111571560685],[-73.0114999189999,-40.4118104100685],[-73.0123422999999,-40.4109853470685]]]}},{"type":"Feature","properties":{"id":"10307011001050","commune":"San Pablo","code":"10307","gse":"C2","quintil":"Q4","nse_score":740.1,"educ":12.8,"educ_score":653.3,"hacin":1.59,"hacin_class":"Hacinamiento Medio","hacin_score":725.6,"auto_score":166.7,"n_per":62,"n_hog":18,"source_year":2024},"geometry":{"type":"Polygon","coordinates":[[[-73.0097019869999,-40.4105191280685],[-73.0098684029999,-40.4108351370685],[-73.0102868389999,-40.4110892790685],[-73.0105889299999,-40.4108871460685],[-73.0098284249999,-40.4104194830685],[-73.0097019869999,-40.4105191280685]]]}},{"type":"Feature","properties":{"id":"10307011001051","commune":"San Pablo","code":"10307","gse":"C3","quintil":"Q3","nse_score":699.4,"educ":10.7,"educ_score":513.3,"hacin":1.333,"hacin_class":"Hacinamiento Leve","hacin_score":780.1,"auto_score":100.0,"n_per":28,"n_hog":10,"source_year":2024},"geometry":{"type":"Polygon","coordinates":[[[-73.0174565989999,-40.4104714930685],[-73.0172251029999,-40.4108297020685],[-73.0176233469999,-40.4109800150685],[-73.0178417459999,-40.4106185270685],[-73.0174565989999,-40.4104714930685]]]}},{"type":"Feature","properties":{"id":"10307011001052","commune":"San Pablo","code":"10307","gse":"C3","quintil":"Q2","nse_score":668.2,"educ":10.0,"educ_score":466.7,"hacin":1.46,"hacin_class":"Hacinamiento Leve","hacin_score":753.3,"auto_score":27.8,"n_per":54,"n_hog":20,"source_year":2024},"geometry":{"type":"Polygon","coordinates":[[[-73.0094111159999,-40.4119799800685],[-73.01027554,-40.4111736240685],[-73.0091875509999,-40.4105483220685],[-73.0083625579999,-40.4113596730685],[-73.0094111159999,-40.4119799800685]]]}},{"type":"Feature","properties":{"id":"10307011001053","commune":"San Pablo","code":"10307","gse":"C3","quintil":"Q3","nse_score":689.5,"educ":10.9,"educ_score":526.7,"hacin":1.328,"hacin_class":"Hacinamiento Leve","hacin_score":781.3,"auto_score":203.7,"n_per":239,"n_hog":80,"source_year":2024},"geometry":{"type":"Polygon","coordinates":[[[-73.0025467279999,-40.4107690920685],[-73.0021063789999,-40.4124663920685],[-73.002070666,-40.4168517070685],[-73.002181258,-40.4168844890685],[-73.0021400339999,-40.4145956790685],[-73.0033213849999,-40.4145558770685],[-73.0033271279999,-40.4143085420685],[-73.0029096749999,-40.4142813700685],[-73.002940582,-40.4139553530685],[-73.0033932079999,-40.4139694960685],[-73.0033917749999,-40.4145695020685],[-73.0038648949999,-40.4146181820685],[-73.0040457169999,-40.4136708830685],[-73.0037997819999,-40.4134486750685],[-73.0041842569999,-40.4136233600685],[-73.0039999439999,-40.4140688910685],[-73.004549531,-40.4142512830685],[-73.0048318859999,-40.4140223760685],[-73.0052421009999,-40.4143297360685],[-73.0049402769999,-40.4146959250685],[-73.0059168839999,-40.4152966410685],[-73.0065799209999,-40.4146973720685],[-73.0045671679999,-40.4133573390685],[-73.0061667419999,-40.4115572850685],[-73.0048802839999,-40.4111805350685],[-73.0046380799999,-40.4116964360685],[-73.0048372669999,-40.4111701750685],[-73.0034739709999,-40.4110486390685],[-73.0039532859999,-40.4110092450685],[-73.0027736209999,-40.4107094540685],[-73.0025467279999,-40.4107690920685]]]}},{"type":"Feature","properties":{"id":"10307011001054","commune":"San Pablo","code":"10307","gse":"C3","quintil":"Q3","nse_score":710.4,"educ":11.4,"educ_score":560.0,"hacin":1.25,"hacin_class":"Hacinamiento Leve","hacin_score":797.9,"auto_score":117.6,"n_per":45,"n_hog":16,"source_year":2024},"geometry":{"type":"Polygon","coordinates":[[[-73.0144675969999,-40.4108616150685],[-73.0136731579999,-40.4116696330685],[-73.0147322629999,-40.4123000790685],[-73.015555822,-40.4114963870685],[-73.0144675969999,-40.4108616150685]]]}},{"type":"Feature","properties":{"id":"10307011001056","commune":"San Pablo","code":"10307","gse":"C3","quintil":"Q3","nse_score":690.5,"educ":10.2,"educ_score":480.0,"hacin":0.846,"hacin_class":"Sin Hacinamiento","hacin_score":883.8,"auto_score":0.0,"n_per":11,"n_hog":6,"source_year":2024},"geometry":{"type":"Polygon","coordinates":[[[-73.0114326069999,-40.4118790650685],[-73.0103558259999,-40.4112306680685],[-73.0095497129999,-40.4120319190685],[-73.0106111029999,-40.4126684130685],[-73.0114326069999,-40.4118790650685]]]}},{"type":"Feature","properties":{"id":"10307011001057","commune":"San Pablo","code":"10307","gse":"D","quintil":"Q1","nse_score":620.4,"educ":10.5,"educ_score":500.0,"hacin":1.12,"hacin_class":"Hacinamiento Leve","hacin_score":825.5,"auto_score":90.9,"n_per":28,"n_hog":11,"source_year":2024},"geometry":{"type":"Polygon","coordinates":[[[-73.0085049849999,-40.4128576510685],[-73.0093770939999,-40.4120471120685],[-73.0082664079999,-40.4114242920685],[-73.007484427,-40.4122464620685],[-73.0085049849999,-40.4128576510685]]]}},{"type":"Feature","properties":{"id":"10307011001058","commune":"San Pablo","code":"10307","gse":"C3","quintil":"Q2","nse_score":674.0,"educ":9.7,"educ_score":446.7,"hacin":1.0,"hacin_class":"Hacinamiento Leve","hacin_score":851.1,"auto_score":225.0,"n_per":42,"n_hog":20,"source_year":2024},"geometry":{"type":"Polygon","coordinates":[[[-73.0156503809999,-40.4115698870685],[-73.0148239529999,-40.4123566030685],[-73.0158168139999,-40.4129711940685],[-73.0166069009999,-40.4121323900685],[-73.0156503809999,-40.4115698870685]]]}},{"type":"Feature","properties":{"id":"10307011001059","commune":"San Pablo","code":"10307","gse":"C3","quintil":"Q3","nse_score":694.2,"educ":9.7,"educ_score":446.7,"hacin":1.071,"hacin_class":"Hacinamiento Leve","hacin_score":835.9,"auto_score":176.5,"n_per":45,"n_hog":17,"source_year":2024},"geometry":{"type":"Polygon","coordinates":[[[-73.0073108479999,-40.4122521150685],[-73.0062532689999,-40.4116186660685],[-73.0054884719999,-40.4124324750685],[-73.0065183069999,-40.4130481630685],[-73.0073108479999,-40.4122521150685]]]}},{"type":"Feature","properties":{"id":"10307011001060","commune":"San Pablo","code":"10307","gse":"C2","quintil":"Q4","nse_score":735.2,"educ":11.0,"educ_score":533.3,"hacin":1.177,"hacin_class":"Hacinamiento Leve","hacin_score":813.5,"auto_score":55.6,"n_per":20,"n_hog":9,"source_year":2024},"geometry":{"type":"Polygon","coordinates":[[[-73.0135739409999,-40.4117416330685],[-73.0127520129999,-40.4125571620685],[-73.0138108899999,-40.4131852840685],[-73.0146476599999,-40.4123542880685],[-73.0135739409999,-40.4117416330685]]]}},{"type":"Feature","properties":{"id":"10307011001062","commune":"San Pablo","code":"10307","gse":"C2","quintil":"Q3","nse_score":720.7,"educ":12.1,"educ_score":606.7,"hacin":1.036,"hacin_class":"Hacinamiento Leve","hacin_score":843.5,"auto_score":83.3,"n_per":58,"n_hog":23,"source_year":2024},"geometry":{"type":"Polygon","coordinates":[[[-73.0096449609999,-40.4135559750685],[-73.0105358269999,-40.4127442320685],[-73.0094740889999,-40.4121106240685],[-73.0086160889999,-40.4129129590685],[-73.0096449609999,-40.4135559750685]]]}},{"type":"Feature","properties":{"id":"10307011001063","commune":"San Pablo","code":"10307","gse":"D","quintil":"Q1","nse_score":634.7,"educ":8.8,"educ_score":386.7,"hacin":1.483,"hacin_class":"Hacinamiento Leve","hacin_score":748.3,"auto_score":138.9,"n_per":43,"n_hog":18,"source_year":2024},"geometry":{"type":"Polygon","coordinates":[[[-73.0169008989999,-40.4136120770685],[-73.0176556679999,-40.4127892930685],[-73.0166793569999,-40.4121929710685],[-73.0158731349999,-40.4130332850685],[-73.0169008989999,-40.4136120770685]]]}},{"type":"Feature","properties":{"id":"10307011001064","commune":"San Pablo","code":"10307","gse":"D","quintil":"Q2","nse_score":661.6,"educ":10.4,"educ_score":493.3,"hacin":1.419,"hacin_class":"Hacinamiento Leve","hacin_score":761.8,"auto_score":178.6,"n_per":44,"n_hog":13,"source_year":2024},"geometry":{"type":"Polygon","coordinates":[[[-73.0084406689999,-40.4129343000685],[-73.0073889199999,-40.4123122190685],[-73.0065985069999,-40.4131004830685],[-73.0076242649999,-40.4137191600685],[-73.0084406689999,-40.4129343000685]]]}},{"type":"Feature","properties":{"id":"10307011001065","commune":"San Pablo","code":"10307","gse":"E","quintil":"Q1","nse_score":546.7,"educ":7.8,"educ_score":320.0,"hacin":1.28,"hacin_class":"Hacinamiento Leve","hacin_score":791.5,"auto_score":125.0,"n_per":32,"n_hog":12,"source_year":2024},"geometry":{"type":"Polygon","coordinates":[[[-73.0149694509999,-40.4138803490685],[-73.0157420219999,-40.4130202100685],[-73.014737582,-40.4124114510685],[-73.0139034109999,-40.4132544680685],[-73.0149694509999,-40.4138803490685]]]}},{"type":"Feature","properties":{"id":"10307011001066","commune":"San Pablo","code":"10307","gse":"C2","quintil":"Q3","nse_score":718.7,"educ":12.1,"educ_score":606.7,"hacin":1.348,"hacin_class":"Hacinamiento Leve","hacin_score":777.1,"auto_score":285.7,"n_per":62,"n_hog":21,"source_year":2024},"geometry":{"type":"Polygon","coordinates":[[[-73.0064390239999,-40.4131159530685],[-73.0054036209999,-40.4124972860685],[-73.0046272449999,-40.4133195330685],[-73.0056061319999,-40.4139372320685],[-73.0064390239999,-40.4131159530685]]]}},{"type":"Feature","properties":{"id":"10307011001068","commune":"San Pablo","code":"10307","gse":"C3","quintil":"Q2","nse_score":684.9,"educ":10.2,"educ_score":480.0,"hacin":1.375,"hacin_class":"Hacinamiento Leve","hacin_score":771.3,"auto_score":153.8,"n_per":33,"n_hog":13,"source_year":2024},"geometry":{"type":"Polygon","coordinates":[[[-73.0106582059999,-40.4128061120685],[-73.0098014009999,-40.4136233350685],[-73.0108649279999,-40.4142516270685],[-73.0116998589999,-40.4134494850685],[-73.0106582059999,-40.4128061120685]]]}},{"type":"Feature","properties":{"id":"10307011001069","commune":"San Pablo","code":"10307","gse":"D","quintil":"Q1","nse_score":626.4,"educ":9.7,"educ_score":446.7,"hacin":1.314,"hacin_class":"Hacinamiento Leve","hacin_score":784.2,"auto_score":125.0,"n_per":46,"n_hog":16,"source_year":2024},"geometry":{"type":"Polygon","coordinates":[[[-73.0096154009999,-40.4136257060685],[-73.008560842,-40.4129925600685],[-73.0077096129999,-40.4137638180685],[-73.0087938359999,-40.4144404900685],[-73.0096154009999,-40.4136257060685]]]}},{"type":"Feature","properties":{"id":"10307011001070","commune":"San Pablo","code":"10307","gse":"C2","quintil":"Q3","nse_score":717.0,"educ":11.3,"educ_score":553.3,"hacin":1.412,"hacin_class":"Hacinamiento Leve","hacin_score":763.5,"auto_score":291.7,"n_per":48,"n_hog":12,"source_year":2024},"geometry":{"type":"Polygon","coordinates":[[[-73.0160985909999,-40.4145551210685],[-73.0168719239999,-40.4136755290685],[-73.0158083749999,-40.4130940290685],[-73.0150795269999,-40.4139498900685],[-73.0160985909999,-40.4145551210685]]]}},{"type":"Feature","properties":{"id":"10307011001071","commune":"San Pablo","code":"10307","gse":"E","quintil":"Q1","nse_score":616.1,"educ":9.5,"educ_score":433.3,"hacin":0.973,"hacin_class":"Sin Hacinamiento","hacin_score":856.8,"auto_score":47.6,"n_per":36,"n_hog":18,"source_year":2024},"geometry":{"type":"Polygon","coordinates":[[[-73.0075482739999,-40.4137877510685],[-73.0065094239999,-40.4131575090685],[-73.005676278,-40.4139874280685],[-73.0066735139999,-40.4146227240685],[-73.0075482739999,-40.4137877510685]]]}},{"type":"Feature","properties":{"id":"10307011001072","commune":"San Pablo","code":"10307","gse":"C2","quintil":"Q3","nse_score":717.4,"educ":12.7,"educ_score":646.7,"hacin":1.356,"hacin_class":"Hacinamiento Leve","hacin_score":775.4,"auto_score":108.7,"n_per":61,"n_hog":22,"source_year":2024},"geometry":{"type":"Polygon","coordinates":[[[-73.0141003079999,-40.4147991940685],[-73.0149270679999,-40.4139375440685],[-73.0138240039999,-40.4133060250685],[-73.0129983679999,-40.4141293190685],[-73.0141003079999,-40.4147991940685]]]}},{"type":"Feature","properties":{"id":"10307011001073","commune":"San Pablo","code":"10307","gse":"C3","quintil":"Q3","nse_score":699.8,"educ":10.3,"educ_score":486.7,"hacin":0.957,"hacin_class":"Sin Hacinamiento","hacin_score":860.1,"auto_score":117.6,"n_per":45,"n_hog":16,"source_year":2024},"geometry":{"type":"Polygon","coordinates":[[[-73.011950194,-40.4149273420685],[-73.0128024509999,-40.4141305870685],[-73.0117704969999,-40.4135011190685],[-73.0109704799999,-40.4143059770685],[-73.011950194,-40.4149273420685]]]}},{"type":"Feature","properties":{"id":"10307011001074","commune":"San Pablo","code":"10307","gse":"C2","quintil":"Q4","nse_score":746.6,"educ":13.2,"educ_score":680.0,"hacin":1.286,"hacin_class":"Hacinamiento Leve","hacin_score":790.3,"auto_score":375.0,"n_per":18,"n_hog":7,"source_year":2024},"geometry":{"type":"Polygon","coordinates":[[[-73.0099363029999,-40.4151360070685],[-73.010763246,-40.4143176070685],[-73.0097045209999,-40.4136915260685],[-73.0088955579999,-40.4144786270685],[-73.0099363029999,-40.4151360070685]]]}},{"type":"Feature","properties":{"id":"10307011001075","commune":"San Pablo","code":"10307","gse":"C2","quintil":"Q3","nse_score":717.8,"educ":11.3,"educ_score":553.3,"hacin":1.262,"hacin_class":"Hacinamiento Leve","hacin_score":795.3,"auto_score":315.8,"n_per":53,"n_hog":19,"source_year":2024},"geometry":{"type":"Polygon","coordinates":[[[-73.0087255539999,-40.4145130240685],[-73.0076260419999,-40.4138351960685],[-73.0067566369999,-40.4146803470685],[-73.0078572599999,-40.4153260600685],[-73.0087255539999,-40.4145130240685]]]}},{"type":"Feature","properties":{"id":"10307011001076","commune":"San Pablo","code":"10307","gse":"C2","quintil":"Q4","nse_score":751.4,"educ":13.9,"educ_score":726.7,"hacin":1.308,"hacin_class":"Hacinamiento Leve","hacin_score":785.6,"auto_score":312.5,"n_per":17,"n_hog":9,"source_year":2024},"geometry":{"type":"Polygon","coordinates":[[[-73.015122861,-40.4153923220685],[-73.0160406119999,-40.4146135130685],[-73.0150114829999,-40.4139965730685],[-73.0142143979999,-40.4148524660685],[-73.015122861,-40.4153923220685]]]}},{"type":"Feature","properties":{"id":"10307011001077","commune":"San Pablo","code":"10307","gse":"C2","quintil":"Q3","nse_score":716.3,"educ":10.8,"educ_score":520.0,"hacin":1.214,"hacin_class":"Hacinamiento Leve","hacin_score":805.5,"auto_score":166.7,"n_per":17,"n_hog":6,"source_year":2024},"geometry":{"type":"Polygon","coordinates":[[[-73.0032921569999,-40.4142532680685],[-73.0033207819999,-40.4140216570685],[-73.0029810039999,-40.4140237220685],[-73.0029882459999,-40.4142375270685],[-73.0032921569999,-40.4142532680685]]]}},{"type":"Feature","properties":{"id":"10307011001078","commune":"San Pablo","code":"10307","gse":"C3","quintil":"Q2","nse_score":676.7,"educ":9.5,"educ_score":433.3,"hacin":1.077,"hacin_class":"Hacinamiento Leve","hacin_score":834.7,"auto_score":88.2,"n_per":42,"n_hog":17,"source_year":2024},"geometry":{"type":"Polygon","coordinates":[[[-73.0048186969999,-40.4140626680685],[-73.0041892649999,-40.4147064470685],[-73.0045624189999,-40.4149293220685],[-73.0051845289999,-40.4143322230685],[-73.0048186969999,-40.4140626680685]]]}},{"type":"Feature","properties":{"id":"10307011001079","commune":"San Pablo","code":"10307","gse":"D","quintil":"Q2","nse_score":662.9,"educ":9.1,"educ_score":406.7,"hacin":1.167,"hacin_class":"Hacinamiento Leve","hacin_score":815.6,"auto_score":111.1,"n_per":21,"n_hog":9,"source_year":2024},"geometry":{"type":"Polygon","coordinates":[[[-73.0044983519999,-40.4143061610685],[-73.0040220419999,-40.4141405040685],[-73.0039707439999,-40.4145871870685],[-73.0041390239999,-40.4146629080685],[-73.0044983519999,-40.4143061610685]]]}},{"type":"Feature","properties":{"id":"10307011001080","commune":"San Pablo","code":"10307","gse":"C2","quintil":"Q3","nse_score":724.7,"educ":12.4,"educ_score":626.7,"hacin":1.333,"hacin_class":"Hacinamiento Leve","hacin_score":780.1,"auto_score":200.0,"n_per":44,"n_hog":14,"source_year":2024},"geometry":{"type":"Polygon","coordinates":[[[-73.012901483,-40.4141817280685],[-73.0120794569999,-40.4149798460685],[-73.0131842299999,-40.4156768880685],[-73.0140709289999,-40.4148659820685],[-73.012901483,-40.4141817280685]]]}},{"type":"Feature","properties":{"id":"10307011001081","commune":"San Pablo","code":"10307","gse":"C2","quintil":"Q4","nse_score":730.2,"educ":12.4,"educ_score":626.7,"hacin":1.273,"hacin_class":"Hacinamiento Leve","hacin_score":793.0,"auto_score":333.3,"n_per":28,"n_hog":12,"source_year":2024},"geometry":{"type":"Polygon","coordinates":[[[-73.0110486269999,-40.4158163780685],[-73.0118987279999,-40.4149989110685],[-73.0108753719999,-40.4143896180685],[-73.0100481889999,-40.4151947470685],[-73.0110486269999,-40.4158163780685]]]}},{"type":"Feature","properties":{"id":"10307011001082","commune":"San Pablo","code":"10307","gse":"C2","quintil":"Q4","nse_score":776.1,"educ":13.4,"educ_score":693.3,"hacin":1.2,"hacin_class":"Hacinamiento Leve","hacin_score":808.5,"auto_score":312.5,"n_per":36,"n_hog":15,"source_year":2024},"geometry":{"type":"Polygon","coordinates":[[[-73.0088092759999,-40.4145558030685],[-73.008387937,-40.4149328460685],[-73.0086509519999,-40.4151895030685],[-73.0088831859999,-40.4150768590685],[-73.0083277549999,-40.4156361260685],[-73.0089945499999,-40.4160180420685],[-73.009880559,-40.4151906320685],[-73.0088092759999,-40.4145558030685]]]}},{"type":"Feature","properties":{"id":"10307011001083","commune":"San Pablo","code":"10307","gse":"C3","quintil":"Q3","nse_score":708.8,"educ":11.7,"educ_score":580.0,"hacin":1.233,"hacin_class":"Hacinamiento Leve","hacin_score":801.6,"auto_score":113.6,"n_per":53,"n_hog":20,"source_year":2024},"geometry":{"type":"Polygon","coordinates":[[[-73.0022445369999,-40.4149439930685],[-73.0032899709999,-40.4149479490685],[-73.0033178739999,-40.4146632000685],[-73.0022307489999,-40.4146548480685],[-73.0022445369999,-40.4149439930685]]]}},{"type":"Feature","properties":{"id":"10307011001084","commune":"San Pablo","code":"10307","gse":"C3","quintil":"Q3","nse_score":689.6,"educ":10.9,"educ_score":526.7,"hacin":1.369,"hacin_class":"Hacinamiento Leve","hacin_score":772.5,"auto_score":141.5,"n_per":152,"n_hog":53,"source_year":2024},"geometry":{"type":"Polygon","coordinates":[[[-73.0035172599999,-40.4170244540685],[-73.0037824409999,-40.4168733940685],[-73.0038528889999,-40.4147314720685],[-73.0034293829999,-40.4146435740685],[-73.003337041,-40.4169283370685],[-73.0035172599999,-40.4170244540685]]]}},{"type":"Feature","properties":{"id":"10307011001085","commune":"San Pablo","code":"10307","gse":"D","quintil":"Q1","nse_score":645.2,"educ":9.3,"educ_score":420.0,"hacin":1.227,"hacin_class":"Hacinamiento Leve","hacin_score":802.7,"auto_score":136.4,"n_per":27,"n_hog":11,"source_year":2024},"geometry":{"type":"Polygon","coordinates":[[[-73.0097498629999,-40.4191726070685],[-73.0108790389999,-40.4193997800685],[-73.0112326349999,-40.4191395490685],[-73.011681946,-40.4191137330685],[-73.0117166159999,-40.4187346010685],[-73.0120423909999,-40.4185598050685],[-73.0122977189999,-40.4186549400685],[-73.0127005599999,-40.4185890960685],[-73.0129061339999,-40.4188922420685],[-73.0131428519999,-40.4188110060685],[-73.0135798219999,-40.4183431420685],[-73.0134891189999,-40.4181389220685],[-73.0135876489999,-40.4179887500685],[-73.0141668599999,-40.4179428480685],[-73.0144303519999,-40.4177481740685],[-73.0161410889999,-40.4159567700685],[-73.0172524079999,-40.4150031310685],[-73.0161135949999,-40.4146751800685],[-73.0133858419999,-40.4172966000685],[-73.0122197399999,-40.4166621010685],[-73.0113733949999,-40.4174710830685],[-73.0106053329999,-40.4179846820685],[-73.0097498629999,-40.4191726070685]]]}},{"type":"Feature","properties":{"id":"10307011001086","commune":"San Pablo","code":"10307","gse":"C3","quintil":"Q3","nse_score":695.9,"educ":10.3,"educ_score":486.7,"hacin":1.177,"hacin_class":"Hacinamiento Leve","hacin_score":813.5,"auto_score":142.9,"n_per":20,"n_hog":7,"source_year":2024},"geometry":{"type":"Polygon","coordinates":[[[-73.0044686399999,-40.4149830690685],[-73.0040331509999,-40.4147154960685],[-73.0039460189999,-40.4147517920685],[-73.0039202849999,-40.4151421950685],[-73.0041444919999,-40.4152814560685],[-73.0044686399999,-40.4149830690685]]]}},{"type":"Feature","properties":{"id":"10307011001087","commune":"San Pablo","code":"10307","gse":"C3","quintil":"Q3","nse_score":693.2,"educ":10.6,"educ_score":506.7,"hacin":1.232,"hacin_class":"Hacinamiento Leve","hacin_score":801.7,"auto_score":125.0,"n_per":69,"n_hog":23,"source_year":2024},"geometry":{"type":"Polygon","coordinates":[[[-73.0048629909999,-40.4147254060685],[-73.004614994,-40.4150085990685],[-73.0055939359999,-40.4156065100685],[-73.0058959789999,-40.4153739790685],[-73.0048629909999,-40.4147254060685]]]}},{"type":"Feature","properties":{"id":"10307011001088","commune":"San Pablo","code":"10307","gse":"D","quintil":"Q2","nse_score":666.4,"educ":9.6,"educ_score":440.0,"hacin":1.316,"hacin_class":"Hacinamiento Leve","hacin_score":783.9,"auto_score":263.2,"n_per":100,"n_hog":37,"source_year":2024},"geometry":{"type":"Polygon","coordinates":[[[-73.0022161029999,-40.4167462630685],[-73.002181258,-40.4168844890685],[-73.0036779479999,-40.4173281370685],[-73.0063252819999,-40.4158692960685],[-73.0080622309999,-40.4169428360685],[-73.0089342209999,-40.4160662170685],[-73.0078783459999,-40.4154404430685],[-73.0073647489999,-40.4158467520685],[-73.0077801009999,-40.4153894390685],[-73.0066682879999,-40.4147525850685],[-73.0050238569999,-40.4162890740685],[-73.0036146539999,-40.4170534530685],[-73.0033627479999,-40.4171495880685],[-73.0022161029999,-40.4167462630685]]]}},{"type":"Feature","properties":{"id":"10307011001089","commune":"San Pablo","code":"10307","gse":"D","quintil":"Q2","nse_score":656.1,"educ":8.8,"educ_score":386.7,"hacin":1.286,"hacin_class":"Hacinamiento Leve","hacin_score":790.3,"auto_score":214.3,"n_per":36,"n_hog":14,"source_year":2024},"geometry":{"type":"Polygon","coordinates":[[[-73.0151179349999,-40.4154451970685],[-73.0141444029999,-40.4149056440685],[-73.0132557809999,-40.4157256880685],[-73.0143186379999,-40.4163534220685],[-73.0151179349999,-40.4154451970685]]]}},{"type":"Feature","properties":{"id":"10307011001090","commune":"San Pablo","code":"10307","gse":"C3","quintil":"Q3","nse_score":707.8,"educ":11.1,"educ_score":540.0,"hacin":1.29,"hacin_class":"Hacinamiento Leve","hacin_score":789.5,"auto_score":75.0,"n_per":49,"n_hog":20,"source_year":2024},"geometry":{"type":"Polygon","coordinates":[[[-73.0022098419999,-40.4150250980685],[-73.0022347649999,-40.4152733670685],[-73.0033044859999,-40.4152667360685],[-73.0032859529999,-40.4150035950685],[-73.0022098419999,-40.4150250980685]]]}},{"type":"Feature","properties":{"id":"10307011001091","commune":"San Pablo","code":"10307","gse":"D","quintil":"Q2","nse_score":655.6,"educ":10.3,"educ_score":486.7,"hacin":1.304,"hacin_class":"Hacinamiento Leve","hacin_score":786.3,"auto_score":125.0,"n_per":60,"n_hog":23,"source_year":2024},"geometry":{"type":"Polygon","coordinates":[[[-73.0055555049999,-40.4156825970685],[-73.0045807899999,-40.4150504380685],[-73.0042482709999,-40.4153108230685],[-73.0052369109999,-40.4159599730685],[-73.0055555049999,-40.4156825970685]]]}},{"type":"Feature","properties":{"id":"10307011001092","commune":"San Pablo","code":"10307","gse":"C3","quintil":"Q3","nse_score":701.6,"educ":11.2,"educ_score":546.7,"hacin":1.286,"hacin_class":"Hacinamiento Leve","hacin_score":790.3,"auto_score":145.8,"n_per":72,"n_hog":23,"source_year":2024},"geometry":{"type":"Polygon","coordinates":[[[-73.0131001049999,-40.4157337930685],[-73.0119794539999,-40.4150574840685],[-73.0111657029999,-40.4158849130685],[-73.0122323129999,-40.4165299590685],[-73.0125424149999,-40.4162696690685],[-73.0120531459999,-40.4159419350685],[-73.0126040379999,-40.4162121480685],[-73.0131001049999,-40.4157337930685]]]}},{"type":"Feature","properties":{"id":"10307011001093","commune":"San Pablo","code":"10307","gse":"C3","quintil":"Q3","nse_score":699.9,"educ":12.3,"educ_score":620.0,"hacin":1.25,"hacin_class":"Hacinamiento Leve","hacin_score":797.9,"auto_score":62.5,"n_per":15,"n_hog":7,"source_year":2024},"geometry":{"type":"Polygon","coordinates":[[[-73.0082455899999,-40.4150721270685],[-73.0079438559999,-40.4153938280685],[-73.0082493589999,-40.4155892080685],[-73.0086212779999,-40.4152254430685],[-73.0082455899999,-40.4150721270685]]]}},{"type":"Feature","properties":{"id":"10307011001094","commune":"San Pablo","code":"10307","gse":"C3","quintil":"Q2","nse_score":677.8,"educ":10.5,"educ_score":500.0,"hacin":1.544,"hacin_class":"Hacinamiento Medio","hacin_score":735.4,"auto_score":214.3,"n_per":71,"n_hog":21,"source_year":2024},"geometry":{"type":"Polygon","coordinates":[[[-73.0039494739999,-40.4152183480685],[-73.0038837529999,-40.4156142730685],[-73.0049357699999,-40.4162498620685],[-73.0052025499999,-40.4160509240685],[-73.0039494739999,-40.4152183480685]]]}},{"type":"Feature","properties":{"id":"10307011001095","commune":"San Pablo","code":"10307","gse":"C3","quintil":"Q2","nse_score":668.2,"educ":10.2,"educ_score":480.0,"hacin":0.933,"hacin_class":"Sin Hacinamiento","hacin_score":865.2,"auto_score":41.7,"n_per":28,"n_hog":11,"source_year":2024},"geometry":{"type":"Polygon","coordinates":[[[-73.0101297149999,-40.4166979230685],[-73.0110118709999,-40.4158673740685],[-73.0099610519999,-40.4152525400685],[-73.0091110119999,-40.4160853390685],[-73.0101297149999,-40.4166979230685]]]}},{"type":"Feature","properties":{"id":"10307011001096","commune":"San Pablo","code":"10307","gse":"C3","quintil":"Q3","nse_score":697.3,"educ":10.8,"educ_score":520.0,"hacin":1.217,"hacin_class":"Hacinamiento Leve","hacin_score":804.8,"auto_score":87.0,"n_per":56,"n_hog":21,"source_year":2024},"geometry":{"type":"Polygon","coordinates":[[[-73.0022110429999,-40.4153552160685],[-73.0022363079999,-40.4156376400685],[-73.0032961839999,-40.4156245570685],[-73.0032784319999,-40.4153458760685],[-73.0022110429999,-40.4153552160685]]]}},{"type":"Feature","properties":{"id":"10307011001097","commune":"San Pablo","code":"10307","gse":"C3","quintil":"Q2","nse_score":680.5,"educ":11.5,"educ_score":566.7,"hacin":1.095,"hacin_class":"Hacinamiento Leve","hacin_score":830.8,"auto_score":136.4,"n_per":46,"n_hog":17,"source_year":2024},"geometry":{"type":"Polygon","coordinates":[[[-73.0042059379999,-40.4166368460685],[-73.0042285019999,-40.4158734780685],[-73.0038503369999,-40.4156535660685],[-73.0038629459999,-40.4168570560685],[-73.0042059379999,-40.4166368460685]]]}},{"type":"Feature","properties":{"id":"10307011001098","commune":"San Pablo","code":"10307","gse":"C3","quintil":"Q2","nse_score":682.0,"educ":11.2,"educ_score":546.7,"hacin":1.302,"hacin_class":"Hacinamiento Leve","hacin_score":786.7,"auto_score":181.8,"n_per":56,"n_hog":20,"source_year":2024},"geometry":{"type":"Polygon","coordinates":[[[-73.0022123679999,-40.4157194100685],[-73.0022376739999,-40.4159736940685],[-73.0032884749999,-40.4159567070685],[-73.0032699049999,-40.4157036470685],[-73.0022123679999,-40.4157194100685]]]}},{"type":"Feature","properties":{"id":"10307011001099","commune":"San Pablo","code":"10307","gse":"C3","quintil":"Q3","nse_score":701.9,"educ":11.6,"educ_score":573.3,"hacin":1.219,"hacin_class":"Hacinamiento Leve","hacin_score":804.5,"auto_score":312.5,"n_per":39,"n_hog":17,"source_year":2024},"geometry":{"type":"Polygon","coordinates":[[[-73.0142313929999,-40.4164126090685],[-73.0131918089999,-40.4157871420685],[-73.0123247679999,-40.4166050720685],[-73.0133553899999,-40.4172284800685],[-73.0142313929999,-40.4164126090685]]]}},{"type":"Feature","properties":{"id":"10307011001100","commune":"San Pablo","code":"10307","gse":"D","quintil":"Q2","nse_score":664.3,"educ":10.7,"educ_score":513.3,"hacin":1.227,"hacin_class":"Hacinamiento Leve","hacin_score":802.7,"auto_score":90.9,"n_per":27,"n_hog":9,"source_year":2024},"geometry":{"type":"Polygon","coordinates":[[[-73.0042590599999,-40.4166071450685],[-73.0046224669999,-40.4164396960685],[-73.0046459099999,-40.4161294790685],[-73.0042798239999,-40.4159046820685],[-73.0042590599999,-40.4166071450685]]]}},{"type":"Feature","properties":{"id":"10307011001101","commune":"San Pablo","code":"10307","gse":"C3","quintil":"Q3","nse_score":704.9,"educ":10.8,"educ_score":520.0,"hacin":1.337,"hacin_class":"Hacinamiento Leve","hacin_score":779.3,"auto_score":236.8,"n_per":107,"n_hog":38,"source_year":2024},"geometry":{"type":"Polygon","coordinates":[[[-73.0110857799999,-40.4172866140685],[-73.0101943929999,-40.4168082070685],[-73.0093568409999,-40.4175940770685],[-73.0101016339999,-40.4167529210685],[-73.0090020549999,-40.4161518000685],[-73.0081162079999,-40.4169783160685],[-73.0091835729999,-40.4177164830685],[-73.0080623669999,-40.4188330980685],[-73.0096697699999,-40.4191564990685],[-73.0103694259999,-40.4181685320685],[-73.0098252799999,-40.4178621980685],[-73.0103920589999,-40.4181454320685],[-73.0113369849999,-40.4174402570685],[-73.012142175,-40.4166307720685],[-73.0110715449999,-40.4159441570685],[-73.0102553609999,-40.4167505350685],[-73.0110857799999,-40.4172866140685]]]}},{"type":"Feature","properties":{"id":"10307011001102","commune":"San Pablo","code":"10307","gse":"C3","quintil":"Q3","nse_score":697.6,"educ":11.6,"educ_score":573.3,"hacin":1.366,"hacin_class":"Hacinamiento Leve","hacin_score":773.2,"auto_score":181.8,"n_per":56,"n_hog":20,"source_year":2024},"geometry":{"type":"Polygon","coordinates":[[[-73.0022504499999,-40.4163227270685],[-73.0032580109999,-40.4163072240685],[-73.0032856569999,-40.4160591750685],[-73.0022383539999,-40.4160287810685],[-73.0022504499999,-40.4163227270685]]]}},{"type":"Feature","properties":{"id":"10307011001104","commune":"San Pablo","code":"10307","gse":"D","quintil":"Q2","nse_score":649.2,"educ":10.0,"educ_score":466.7,"hacin":1.326,"hacin_class":"Hacinamiento Leve","hacin_score":781.8,"auto_score":140.0,"n_per":57,"n_hog":23,"source_year":2024},"geometry":{"type":"MultiPolygon","coordinates":[[[[-73.0032198259999,-40.4167263420685],[-73.0025509659999,-40.4167297690685],[-73.0025255969999,-40.4167573930685],[-73.0032130379999,-40.4169601350685],[-73.0032198259999,-40.4167263420685]]],[[[-73.0032255089999,-40.4163625150685],[-73.0022369779999,-40.4163780290685],[-73.0022167049999,-40.4166562310685],[-73.0032503509999,-40.4166710290685],[-73.0032255089999,-40.4163625150685]]]]}},{"type":"Feature","properties":{"id":"10307011001055","commune":"San Pablo","code":"10307","gse":"C1","quintil":"Q5","nse_score":796.7,"educ":13.8,"educ_score":720.0,"hacin":1.143,"hacin_class":"Hacinamiento Leve","hacin_score":820.7,"auto_score":125.0,"n_per":24,"n_hog":8,"source_year":2024},"geometry":{"type":"MultiPolygon","coordinates":[[[[-73.0128705989999,-40.4140596460685],[-73.0137478249999,-40.4132478250685],[-73.0126636199999,-40.4126232340685],[-73.0118529969999,-40.4134355400685],[-73.0128705989999,-40.4140596460685]]],[[[-73.0126410419999,-40.4124936450685],[-73.0134821819999,-40.4116688340685],[-73.0124329419999,-40.4110615890685],[-73.0116148089999,-40.4118707980685],[-73.0126410419999,-40.4124936450685]]]]}},{"type":"Feature","properties":{"id":"10307011001030","commune":"San Pablo","code":"10307","gse":"C3","quintil":"Q2","nse_score":680.2,"educ":9.9,"educ_score":460.0,"hacin":1.143,"hacin_class":"Hacinamiento Leve","hacin_score":820.7,"auto_score":62.5,"n_per":24,"n_hog":8,"source_year":2024},"geometry":{"type":"MultiPolygon","coordinates":[[[[-73.0127540569999,-40.4095895700685],[-73.0130692989999,-40.4097529510685],[-73.0135009559999,-40.4092999720685],[-73.0131933839999,-40.4091328710685],[-73.0127540569999,-40.4095895700685]]],[[[-73.0123221409999,-40.4093601540686],[-73.0126698909999,-40.4095380380685],[-73.0131273039999,-40.4090662390685],[-73.0127700939999,-40.4088732420685],[-73.0123221409999,-40.4093601540686]]]]}}]}