{"type":"FeatureCollection","features":[{"type":"Feature","properties":{"id":"7110011001001","commune":"San Rafael","code":"07110","gse":"C3","quintil":"Q3","nse_score":679.8,"educ":11.3,"educ_score":553.3,"hacin":1.821,"hacin_class":"Hacinamiento Medio","hacin_score":676.5,"auto_score":250.0,"n_per":71,"n_hog":18,"source_year":2024,"crime_score":0.9142,"crime_nivel":"Alto","crime_color":"#f44336"},"geometry":{"type":"Polygon","coordinates":[[[-71.5092814139999,-35.2940272901098],[-71.5091277729999,-35.2938055491098],[-71.5084777569999,-35.2941196241098],[-71.5086151929999,-35.2943503921098],[-71.5092814139999,-35.2940272901098]]]}},{"type":"Feature","properties":{"id":"7110011001002","commune":"San Rafael","code":"07110","gse":"D","quintil":"Q2","nse_score":639.0,"educ":9.8,"educ_score":453.3,"hacin":1.485,"hacin_class":"Hacinamiento Leve","hacin_score":747.9,"auto_score":111.1,"n_per":49,"n_hog":17,"source_year":2024,"crime_score":0.9248,"crime_nivel":"Alto","crime_color":"#f44336"},"geometry":{"type":"Polygon","coordinates":[[[-71.5094788829999,-35.2942734581098],[-71.5093184369999,-35.2940628441098],[-71.5086385939999,-35.2943994321098],[-71.5087751339999,-35.2946286981098],[-71.5094788829999,-35.2942734581098]]]}},{"type":"Feature","properties":{"id":"7110011001003","commune":"San Rafael","code":"07110","gse":"D","quintil":"Q1","nse_score":597.6,"educ":9.0,"educ_score":400.0,"hacin":1.34,"hacin_class":"Hacinamiento Leve","hacin_score":778.6,"auto_score":60.0,"n_per":63,"n_hog":23,"source_year":2024,"crime_score":0.9518,"crime_nivel":"Alto","crime_color":"#f44336"},"geometry":{"type":"Polygon","coordinates":[[[-71.5080075089999,-35.2944517761098],[-71.5089468859999,-35.2960109061098],[-71.5093647799999,-35.2957833241098],[-71.5084114789999,-35.2942597291098],[-71.5080075089999,-35.2944517761098]]]}},{"type":"Feature","properties":{"id":"7110011001004","commune":"San Rafael","code":"07110","gse":"D","quintil":"Q1","nse_score":623.7,"educ":8.9,"educ_score":393.3,"hacin":1.48,"hacin_class":"Hacinamiento Leve","hacin_score":748.9,"auto_score":83.3,"n_per":37,"n_hog":11,"source_year":2024,"crime_score":0.9269,"crime_nivel":"Alto","crime_color":"#f44336"},"geometry":{"type":"Polygon","coordinates":[[[-71.5096468279999,-35.2944920301098],[-71.5095208579999,-35.2943174451098],[-71.5088057159999,-35.2946739611098],[-71.5089429199999,-35.2948999251098],[-71.5096468279999,-35.2944920301098]]]}},{"type":"Feature","properties":{"id":"7110011001005","commune":"San Rafael","code":"07110","gse":"D","quintil":"Q2","nse_score":643.9,"educ":9.7,"educ_score":446.7,"hacin":1.281,"hacin_class":"Hacinamiento Leve","hacin_score":791.2,"auto_score":134.0,"n_per":296,"n_hog":98,"source_year":2024,"crime_score":1.0,"crime_nivel":"Alto","crime_color":"#f44336"},"geometry":{"type":"Polygon","coordinates":[[[-71.5100458019999,-35.2983326601098],[-71.5108484099999,-35.2994146771098],[-71.5095377829999,-35.3000212321098],[-71.5087956189999,-35.3014222131098],[-71.5083443169999,-35.3016682281097],[-71.5093214419999,-35.3030217121097],[-71.5094391,-35.3040680971097],[-71.5102770549999,-35.3056684651097],[-71.510222714,-35.3060845941097],[-71.5092562519999,-35.3069952631097],[-71.5090726909999,-35.3079586941097],[-71.5092976599999,-35.3087160751097],[-71.5094550729999,-35.3089567781096],[-71.5097521979999,-35.3087317861097],[-71.5104080239999,-35.3090621061097],[-71.5105169049999,-35.3089812861097],[-71.5101409759999,-35.3087759931096],[-71.5101811429999,-35.3087271141097],[-71.5112412139999,-35.3092389951096],[-71.5113606449999,-35.3091432181096],[-71.5111637669999,-35.3088788691097],[-71.5106170709999,-35.3081693711097],[-71.5103249879999,-35.3081795851097],[-71.5100358369999,-35.3076300521097],[-71.5102312729999,-35.3077696781097],[-71.5115962399999,-35.3070682381097],[-71.5116426099999,-35.3068822151097],[-71.5117970379999,-35.3070420561097],[-71.5124831109999,-35.3067060071097],[-71.5124428579999,-35.3066008561097],[-71.5128038079999,-35.3070130301097],[-71.5132939219999,-35.3066862641097],[-71.5126183639999,-35.3061834431097],[-71.5121123519999,-35.3064121931097],[-71.5125536729999,-35.3061539601097],[-71.5124421189999,-35.3060136761097],[-71.5133190419999,-35.3066345421097],[-71.5136090569999,-35.3063587191097],[-71.5129852179999,-35.3058635111097],[-71.5125239829999,-35.3052793491097],[-71.5124643689999,-35.3050104271097],[-71.5117395059999,-35.3044290571097],[-71.5119077209999,-35.3047577331097],[-71.5116500379999,-35.3049106591097],[-71.5117421079999,-35.3058261701097],[-71.5115458019999,-35.3063294261097],[-71.5107712869999,-35.3072395701097],[-71.5091937049999,-35.3078855931097],[-71.5092436729999,-35.3075429511097],[-71.5103394149999,-35.3062330581097],[-71.5105428589999,-35.3057833401097],[-71.5104412719999,-35.3049220811097],[-71.5098226119999,-35.3039303211097],[-71.5094924879999,-35.3012097491097],[-71.5095721339999,-35.3010792831097],[-71.5095537459999,-35.3012301411098],[-71.510322631,-35.3014101971097],[-71.5104470169999,-35.3011633411098],[-71.5109268499999,-35.3009902061097],[-71.5107928219999,-35.3008622521097],[-71.5109827219999,-35.3009729191098],[-71.5115855209999,-35.3008040021098],[-71.5117884939999,-35.3007332121098],[-71.5117267569999,-35.3005775231098],[-71.5122469109999,-35.3010789311098],[-71.5124225959999,-35.3009857991097],[-71.5102934909999,-35.2984403311098],[-71.5078759829999,-35.2943951371098],[-71.5076666069999,-35.2945016151098],[-71.5100458019999,-35.2983326601098]]]}},{"type":"Feature","properties":{"id":"7110011001006","commune":"San Rafael","code":"07110","gse":"D","quintil":"Q2","nse_score":641.0,"educ":9.7,"educ_score":446.7,"hacin":1.318,"hacin_class":"Hacinamiento Leve","hacin_score":783.4,"auto_score":181.8,"n_per":58,"n_hog":23,"source_year":2024,"crime_score":0.9278,"crime_nivel":"Alto","crime_color":"#f44336"},"geometry":{"type":"Polygon","coordinates":[[[-71.5098528409999,-35.2947674721098],[-71.5096991659999,-35.2945657441098],[-71.5089575439999,-35.2949458471098],[-71.5090837839999,-35.2951578161098],[-71.5098528409999,-35.2947674721098]]]}},{"type":"Feature","properties":{"id":"7110011001007","commune":"San Rafael","code":"07110","gse":"C3","quintil":"Q2","nse_score":659.4,"educ":11.1,"educ_score":540.0,"hacin":1.5,"hacin_class":"Hacinamiento Medio","hacin_score":744.7,"auto_score":150.0,"n_per":63,"n_hog":20,"source_year":2024,"crime_score":0.9209,"crime_nivel":"Alto","crime_color":"#f44336"},"geometry":{"type":"Polygon","coordinates":[[[-71.5100554869999,-35.2950262731098],[-71.5098840879999,-35.2948012801098],[-71.5091151109999,-35.2952038481098],[-71.5092635679999,-35.2954531231098],[-71.5100554869999,-35.2950262731098]]]}},{"type":"Feature","properties":{"id":"7110011001008","commune":"San Rafael","code":"07110","gse":"D","quintil":"Q2","nse_score":639.5,"educ":9.3,"educ_score":420.0,"hacin":1.269,"hacin_class":"Hacinamiento Leve","hacin_score":793.8,"auto_score":83.3,"n_per":66,"n_hog":17,"source_year":2024,"crime_score":0.9322,"crime_nivel":"Alto","crime_color":"#f44336"},"geometry":{"type":"Polygon","coordinates":[[[-71.5089593229999,-35.2960769401098],[-71.5096874919999,-35.2972551931098],[-71.5099657029999,-35.2971641561098],[-71.5093397499999,-35.2961237441098],[-71.5101700289999,-35.2957271631098],[-71.5099146389999,-35.2953490591098],[-71.510171855,-35.2952124451098],[-71.5100851999999,-35.2950944581098],[-71.5096770179999,-35.2953131261098],[-71.5098507109999,-35.2955805591098],[-71.5089593229999,-35.2960769401098]]]}},{"type":"Feature","properties":{"id":"7110011001009","commune":"San Rafael","code":"07110","gse":"C3","quintil":"Q2","nse_score":659.8,"educ":10.1,"educ_score":473.3,"hacin":1.546,"hacin_class":"Hacinamiento Medio","hacin_score":735.0,"auto_score":83.3,"n_per":17,"n_hog":6,"source_year":2024,"crime_score":0.9001,"crime_nivel":"Alto","crime_color":"#f44336"},"geometry":{"type":"Polygon","coordinates":[[[-71.5096468699999,-35.2953368131098],[-71.5092952809999,-35.2955198471098],[-71.5094473459999,-35.2957368361098],[-71.5097888599999,-35.2955521831098],[-71.5096468699999,-35.2953368131098]]]}},{"type":"Feature","properties":{"id":"7110011001010","commune":"San Rafael","code":"07110","gse":"D","quintil":"Q2","nse_score":633.4,"educ":9.0,"educ_score":400.0,"hacin":1.314,"hacin_class":"Hacinamiento Leve","hacin_score":784.3,"auto_score":47.6,"n_per":67,"n_hog":22,"source_year":2024,"crime_score":0.9357,"crime_nivel":"Alto","crime_color":"#f44336"},"geometry":{"type":"Polygon","coordinates":[[[-71.5128943559999,-35.2990103061098],[-71.512524401,-35.2983905431098],[-71.5111977079999,-35.2990456871098],[-71.5099735779999,-35.2971772471098],[-71.5096925509999,-35.2972926951098],[-71.5105633999999,-35.2987028041098],[-71.5115314809999,-35.2997191151098],[-71.5118277579999,-35.2995401581098],[-71.5114886949999,-35.2990309371098],[-71.5119265309999,-35.2994804971098],[-71.5128943559999,-35.2990103061098]]]}},{"type":"Feature","properties":{"id":"7110011001012","commune":"San Rafael","code":"07110","gse":"D","quintil":"Q1","nse_score":621.1,"educ":9.7,"educ_score":446.7,"hacin":1.168,"hacin_class":"Hacinamiento Leve","hacin_score":815.3,"auto_score":141.3,"n_per":125,"n_hog":46,"source_year":2024,"crime_score":0.9683,"crime_nivel":"Alto","crime_color":"#f44336"},"geometry":{"type":"Polygon","coordinates":[[[-71.519837778,-35.3025791411098],[-71.5199598519999,-35.3026618551097],[-71.5205066039999,-35.3021139371097],[-71.5206616129999,-35.3020101971098],[-71.5204488699999,-35.3022235801097],[-71.5206636059999,-35.3023755861097],[-71.5204224459999,-35.3022614491097],[-71.5197055499999,-35.3029570491097],[-71.5206715569999,-35.3037974801097],[-71.5221920539999,-35.3021360161098],[-71.5227271569999,-35.3023677771097],[-71.5237253029999,-35.3013222211098],[-71.5230763239999,-35.3009170371097],[-71.5237447229999,-35.3012890041098],[-71.5241541779999,-35.3008389451098],[-71.5233534779999,-35.3002441491097],[-71.5231439249999,-35.3004288961097],[-71.5235196239999,-35.3000425511097],[-71.5233785529999,-35.3002372261097],[-71.5241671549999,-35.3007717891098],[-71.5245948849999,-35.3003367611097],[-71.5240384399999,-35.2998825901097],[-71.524590928,-35.3003014181098],[-71.5247956569999,-35.3001224021097],[-71.5239784809999,-35.2995730811098],[-71.5234754019999,-35.2990648531098],[-71.5217241859999,-35.3006545371098],[-71.5219460479999,-35.3009975351098],[-71.5224344239999,-35.3010913481097],[-71.5220349119999,-35.3015714611097],[-71.5211822299999,-35.3022358501097],[-71.5209287939999,-35.3018691361097],[-71.520683103,-35.3017857221097],[-71.519837778,-35.3025791411098]]]}},{"type":"Feature","properties":{"id":"7110011001013","commune":"San Rafael","code":"07110","gse":"D","quintil":"Q2","nse_score":633.3,"educ":9.8,"educ_score":453.3,"hacin":1.5,"hacin_class":"Hacinamiento Medio","hacin_score":744.7,"auto_score":142.9,"n_per":57,"n_hog":20,"source_year":2024,"crime_score":0.9312,"crime_nivel":"Alto","crime_color":"#f44336"},"geometry":{"type":"Polygon","coordinates":[[[-71.5123368519999,-35.2998922341097],[-71.5131845859999,-35.2993291871098],[-71.5130437649999,-35.2991087441098],[-71.5121661719999,-35.2996797921098],[-71.5123368519999,-35.2998922341097]]]}},{"type":"Feature","properties":{"id":"7110011001014","commune":"San Rafael","code":"07110","gse":"C3","quintil":"Q3","nse_score":687.2,"educ":10.8,"educ_score":520.0,"hacin":1.488,"hacin_class":"Hacinamiento Leve","hacin_score":747.3,"auto_score":375.0,"n_per":61,"n_hog":20,"source_year":2024,"crime_score":0.9061,"crime_nivel":"Alto","crime_color":"#f44336"},"geometry":{"type":"Polygon","coordinates":[[[-71.5125508669999,-35.3001367251098],[-71.5133827209999,-35.2995703091097],[-71.5132367119999,-35.2993628341098],[-71.5123719329999,-35.2999218691098],[-71.5125508669999,-35.3001367251098]]]}},{"type":"Feature","properties":{"id":"7110011001015","commune":"San Rafael","code":"07110","gse":"C3","quintil":"Q2","nse_score":671.1,"educ":10.7,"educ_score":513.3,"hacin":1.395,"hacin_class":"Hacinamiento Leve","hacin_score":767.0,"auto_score":169.6,"n_per":173,"n_hog":57,"source_year":2024,"crime_score":0.9638,"crime_nivel":"Alto","crime_color":"#f44336"},"geometry":{"type":"Polygon","coordinates":[[[-71.5140002709999,-35.3022664431097],[-71.5143632139999,-35.3019826421097],[-71.5119325159999,-35.2995328121098],[-71.5114818659999,-35.2998050151098],[-71.5122466559999,-35.3006827501098],[-71.5140002709999,-35.3022664431097]]]}},{"type":"Feature","properties":{"id":"7110011001016","commune":"San Rafael","code":"07110","gse":"C3","quintil":"Q3","nse_score":687.5,"educ":10.3,"educ_score":486.7,"hacin":1.154,"hacin_class":"Hacinamiento Leve","hacin_score":818.3,"auto_score":131.6,"n_per":45,"n_hog":19,"source_year":2024,"crime_score":0.8989,"crime_nivel":"Alto","crime_color":"#f44336"},"geometry":{"type":"Polygon","coordinates":[[[-71.5127767289999,-35.3003848551097],[-71.513563642,-35.2998288811097],[-71.5134281959999,-35.2996149951098],[-71.5125793969999,-35.3001702281098],[-71.5127767289999,-35.3003848551097]]]}},{"type":"Feature","properties":{"id":"7110011001017","commune":"San Rafael","code":"07110","gse":"C3","quintil":"Q3","nse_score":695.2,"educ":11.1,"educ_score":540.0,"hacin":1.298,"hacin_class":"Hacinamiento Leve","hacin_score":787.7,"auto_score":261.9,"n_per":61,"n_hog":20,"source_year":2024,"crime_score":0.9021,"crime_nivel":"Alto","crime_color":"#f44336"},"geometry":{"type":"Polygon","coordinates":[[[-71.5130001889999,-35.3006075271098],[-71.5137649389999,-35.3000856511098],[-71.5136154209999,-35.2998615451098],[-71.5128141679999,-35.3004126471097],[-71.5130001889999,-35.3006075271098]]]}},{"type":"Feature","properties":{"id":"7110011001018","commune":"San Rafael","code":"07110","gse":"C3","quintil":"Q3","nse_score":684.1,"educ":11.1,"educ_score":540.0,"hacin":1.444,"hacin_class":"Hacinamiento Leve","hacin_score":756.5,"auto_score":117.6,"n_per":52,"n_hog":17,"source_year":2024,"crime_score":0.9037,"crime_nivel":"Alto","crime_color":"#f44336"},"geometry":{"type":"Polygon","coordinates":[[[-71.5132308829999,-35.3008337421097],[-71.5139611769999,-35.3003409221097],[-71.5138113799999,-35.3001195951098],[-71.5130443479999,-35.3006314531098],[-71.5132308829999,-35.3008337421097]]]}},{"type":"Feature","properties":{"id":"7110011001019","commune":"San Rafael","code":"07110","gse":"C3","quintil":"Q2","nse_score":658.7,"educ":10.0,"educ_score":466.7,"hacin":1.0,"hacin_class":"Hacinamiento Leve","hacin_score":851.1,"auto_score":250.0,"n_per":10,"n_hog":6,"source_year":2024,"crime_score":0.8975,"crime_nivel":"Alto","crime_color":"#f44336"},"geometry":{"type":"Polygon","coordinates":[[[-71.5243394509999,-35.3030928291097],[-71.5249555489999,-35.3024228401097],[-71.5244253519999,-35.3020623101097],[-71.5257575939999,-35.3008960591098],[-71.5253707259999,-35.3005796031098],[-71.5255067499999,-35.3004221081098],[-71.5248778049999,-35.3001252561098],[-71.5226602129999,-35.3025853521097],[-71.5239966819999,-35.3032449471097],[-71.5243394509999,-35.3030928291097]]]}},{"type":"Feature","properties":{"id":"7110011001020","commune":"San Rafael","code":"07110","gse":"C3","quintil":"Q3","nse_score":694.1,"educ":11.7,"educ_score":580.0,"hacin":1.765,"hacin_class":"Hacinamiento Medio","hacin_score":688.4,"auto_score":222.2,"n_per":60,"n_hog":19,"source_year":2024,"crime_score":0.9022,"crime_nivel":"Alto","crime_color":"#f44336"},"geometry":{"type":"Polygon","coordinates":[[[-71.5134649249999,-35.3010663261097],[-71.5141394969999,-35.3005917291098],[-71.5140080609999,-35.3003823681097],[-71.5132700889999,-35.3008626101098],[-71.5134649249999,-35.3010663261097]]]}},{"type":"Feature","properties":{"id":"7110011001021","commune":"San Rafael","code":"07110","gse":"C3","quintil":"Q3","nse_score":687.9,"educ":10.5,"educ_score":500.0,"hacin":1.273,"hacin_class":"Hacinamiento Leve","hacin_score":793.0,"auto_score":166.7,"n_per":42,"n_hog":12,"source_year":2024,"crime_score":0.8974,"crime_nivel":"Alto","crime_color":"#f44336"},"geometry":{"type":"Polygon","coordinates":[[[-71.5137016539999,-35.3012801431097],[-71.5143312669999,-35.3008516181098],[-71.5141906179999,-35.3006268521097],[-71.5135080249999,-35.3010892561098],[-71.5137016539999,-35.3012801431097]]]}},{"type":"Feature","properties":{"id":"7110011001022","commune":"San Rafael","code":"07110","gse":"D","quintil":"Q2","nse_score":649.8,"educ":10.6,"educ_score":506.7,"hacin":1.576,"hacin_class":"Hacinamiento Medio","hacin_score":728.6,"auto_score":142.9,"n_per":52,"n_hog":14,"source_year":2024,"crime_score":0.9207,"crime_nivel":"Alto","crime_color":"#f44336"},"geometry":{"type":"Polygon","coordinates":[[[-71.5112071129999,-35.3011854181097],[-71.5114090169999,-35.3013812221097],[-71.5120137459999,-35.3009511141097],[-71.5118254859999,-35.3007692451097],[-71.5116124899999,-35.3008435311097],[-71.5112071129999,-35.3011854181097]]]}},{"type":"Feature","properties":{"id":"7110011001024","commune":"San Rafael","code":"07110","gse":"C3","quintil":"Q3","nse_score":687.6,"educ":11.0,"educ_score":533.3,"hacin":1.226,"hacin_class":"Hacinamiento Leve","hacin_score":803.0,"auto_score":200.0,"n_per":38,"n_hog":15,"source_year":2024,"crime_score":0.8958,"crime_nivel":"Alto","crime_color":"#f44336"},"geometry":{"type":"Polygon","coordinates":[[[-71.5139441929999,-35.3015067721097],[-71.5145225599999,-35.3011037071097],[-71.514384215,-35.3008861271098],[-71.5137402079999,-35.3013102111097],[-71.5139441929999,-35.3015067721097]]]}},{"type":"Feature","properties":{"id":"7110011001025","commune":"San Rafael","code":"07110","gse":"C3","quintil":"Q3","nse_score":691.5,"educ":11.2,"educ_score":546.7,"hacin":1.448,"hacin_class":"Hacinamiento Leve","hacin_score":755.7,"auto_score":153.8,"n_per":42,"n_hog":13,"source_year":2024,"crime_score":0.8956,"crime_nivel":"Alto","crime_color":"#f44336"},"geometry":{"type":"Polygon","coordinates":[[[-71.5114372509999,-35.3014088321097],[-71.5116759419999,-35.3016264221097],[-71.5122689579999,-35.3011976621097],[-71.5120421789999,-35.3009785811097],[-71.5114372509999,-35.3014088321097]]]}},{"type":"Feature","properties":{"id":"7110011001028","commune":"San Rafael","code":"07110","gse":"C3","quintil":"Q3","nse_score":681.8,"educ":11.2,"educ_score":546.7,"hacin":1.438,"hacin_class":"Hacinamiento Leve","hacin_score":758.0,"auto_score":71.4,"n_per":46,"n_hog":14,"source_year":2024,"crime_score":0.9022,"crime_nivel":"Alto","crime_color":"#f44336"},"geometry":{"type":"Polygon","coordinates":[[[-71.5141805779999,-35.3017197161097],[-71.5147141269999,-35.3013613401097],[-71.5145712309999,-35.3011366051098],[-71.5139894409999,-35.3015302201098],[-71.5141805779999,-35.3017197161097]]]}},{"type":"Feature","properties":{"id":"7110011001029","commune":"San Rafael","code":"07110","gse":"C3","quintil":"Q3","nse_score":677.7,"educ":11.1,"educ_score":540.0,"hacin":1.361,"hacin_class":"Hacinamiento Leve","hacin_score":774.2,"auto_score":117.6,"n_per":49,"n_hog":17,"source_year":2024,"crime_score":0.9055,"crime_nivel":"Alto","crime_color":"#f44336"},"geometry":{"type":"Polygon","coordinates":[[[-71.5103657779999,-35.3014429241098],[-71.5115088349999,-35.3017415541097],[-71.5116342299999,-35.3016557391097],[-71.5113726139999,-35.3014161461098],[-71.5104888809999,-35.3011982001097],[-71.5103657779999,-35.3014429241098]]]}},{"type":"Feature","properties":{"id":"7110011001030","commune":"San Rafael","code":"07110","gse":"E","quintil":"Q1","nse_score":581.0,"educ":8.0,"educ_score":333.3,"hacin":1.773,"hacin_class":"Hacinamiento Medio","hacin_score":686.7,"auto_score":125.0,"n_per":39,"n_hog":12,"source_year":2024,"crime_score":0.9489,"crime_nivel":"Alto","crime_color":"#f44336"},"geometry":{"type":"Polygon","coordinates":[[[-71.5102774329999,-35.3014370771097],[-71.5101532639999,-35.3014079991097],[-71.5095471819999,-35.3012660681098],[-71.5095772169999,-35.3015760511097],[-71.51019973,-35.3017155821097],[-71.5102774329999,-35.3014370771097]]]}},{"type":"Feature","properties":{"id":"7110011001031","commune":"San Rafael","code":"07110","gse":"D","quintil":"Q2","nse_score":644.0,"educ":10.6,"educ_score":506.7,"hacin":1.611,"hacin_class":"Hacinamiento Medio","hacin_score":721.0,"auto_score":125.0,"n_per":29,"n_hog":10,"source_year":2024,"crime_score":0.9133,"crime_nivel":"Alto","crime_color":"#f44336"},"geometry":{"type":"Polygon","coordinates":[[[-71.514444206,-35.3019606171097],[-71.5149231159999,-35.3016355941098],[-71.5147659559999,-35.3013978081097],[-71.5142208099999,-35.3017480191097],[-71.514444206,-35.3019606171097]]]}},{"type":"Feature","properties":{"id":"7110011001032","commune":"San Rafael","code":"07110","gse":"C2","quintil":"Q3","nse_score":712.5,"educ":11.5,"educ_score":566.7,"hacin":1.417,"hacin_class":"Hacinamiento Leve","hacin_score":762.4,"auto_score":250.0,"n_per":51,"n_hog":14,"source_year":2024,"crime_score":0.8891,"crime_nivel":"Alto","crime_color":"#f44336"},"geometry":{"type":"Polygon","coordinates":[[[-71.511165349,-35.3019616281097],[-71.511468481,-35.3017688201097],[-71.5103521739999,-35.3014771781097],[-71.510252465,-35.3017282481098],[-71.511165349,-35.3019616281097]]]}},{"type":"Feature","properties":{"id":"7110011001033","commune":"San Rafael","code":"07110","gse":"D","quintil":"Q1","nse_score":620.5,"educ":9.2,"educ_score":413.3,"hacin":1.524,"hacin_class":"Hacinamiento Medio","hacin_score":739.6,"auto_score":55.6,"n_per":32,"n_hog":9,"source_year":2024,"crime_score":0.9262,"crime_nivel":"Alto","crime_color":"#f44336"},"geometry":{"type":"Polygon","coordinates":[[[-71.5096880949999,-35.3019213311097],[-71.5100974139999,-35.3020221061097],[-71.5101872109999,-35.3017501221097],[-71.5095810169999,-35.3016142481098],[-71.5096880949999,-35.3019213311097]]]}},{"type":"Feature","properties":{"id":"7110011001034","commune":"San Rafael","code":"07110","gse":"C2","quintil":"Q3","nse_score":713.5,"educ":11.8,"educ_score":586.7,"hacin":1.571,"hacin_class":"Hacinamiento Medio","hacin_score":729.5,"auto_score":200.0,"n_per":66,"n_hog":20,"source_year":2024,"crime_score":0.8951,"crime_nivel":"Alto","crime_color":"#f44336"},"geometry":{"type":"Polygon","coordinates":[[[-71.5143363099999,-35.3025454231097],[-71.5151654599999,-35.3019613051098],[-71.514984792,-35.3016913521097],[-71.5140719939999,-35.3023002031097],[-71.5143363099999,-35.3025454231097]]]}},{"type":"Feature","properties":{"id":"7110011001036","commune":"San Rafael","code":"07110","gse":"C3","quintil":"Q3","nse_score":688.4,"educ":10.3,"educ_score":486.7,"hacin":1.294,"hacin_class":"Hacinamiento Leve","hacin_score":788.5,"auto_score":107.1,"n_per":44,"n_hog":14,"source_year":2024,"crime_score":0.898,"crime_nivel":"Alto","crime_color":"#f44336"},"geometry":{"type":"Polygon","coordinates":[[[-71.510149957,-35.3020353161098],[-71.5108347079999,-35.3022113411097],[-71.5111388299999,-35.3019925821098],[-71.5102418269999,-35.3017632631097],[-71.510149957,-35.3020353161098]]]}},{"type":"Feature","properties":{"id":"7110011001037","commune":"San Rafael","code":"07110","gse":"D","quintil":"Q1","nse_score":601.9,"educ":9.6,"educ_score":440.0,"hacin":1.2,"hacin_class":"Hacinamiento Leve","hacin_score":808.5,"auto_score":83.3,"n_per":12,"n_hog":5,"source_year":2024,"crime_score":0.9262,"crime_nivel":"Alto","crime_color":"#f44336"},"geometry":{"type":"Polygon","coordinates":[[[-71.5114569089999,-35.3018583181097],[-71.5112139059999,-35.3020224461098],[-71.5108617749999,-35.3022758601098],[-71.51152873,-35.3022247121097],[-71.5114569089999,-35.3018583181097]]]}},{"type":"Feature","properties":{"id":"7110011001038","commune":"San Rafael","code":"07110","gse":"C3","quintil":"Q3","nse_score":676.4,"educ":11.4,"educ_score":560.0,"hacin":1.308,"hacin_class":"Hacinamiento Leve","hacin_score":785.6,"auto_score":0.0,"n_per":17,"n_hog":6,"source_year":2024,"crime_score":0.892,"crime_nivel":"Alto","crime_color":"#f44336"},"geometry":{"type":"Polygon","coordinates":[[[-71.5119320779999,-35.3019369811097],[-71.5115481389999,-35.3019493401098],[-71.5115853029999,-35.3022349471097],[-71.5121723219999,-35.3022036181098],[-71.5119320779999,-35.3019369811097]]]}},{"type":"Feature","properties":{"id":"7110011001040","commune":"San Rafael","code":"07110","gse":"C3","quintil":"Q3","nse_score":685.9,"educ":11.2,"educ_score":546.7,"hacin":1.643,"hacin_class":"Hacinamiento Medio","hacin_score":714.3,"auto_score":352.9,"n_per":69,"n_hog":17,"source_year":2024,"crime_score":0.9102,"crime_nivel":"Alto","crime_color":"#f44336"},"geometry":{"type":"Polygon","coordinates":[[[-71.5146219579999,-35.3028139651097],[-71.5153922689999,-35.3022754641097],[-71.5152129549999,-35.3019994601097],[-71.5143756584999,-35.3025725976097],[-71.5146219579999,-35.3028139651097]]]}},{"type":"Feature","properties":{"id":"7110011001041","commune":"San Rafael","code":"07110","gse":"D","quintil":"Q1","nse_score":601.0,"educ":9.7,"educ_score":446.7,"hacin":1.419,"hacin_class":"Hacinamiento Leve","hacin_score":761.8,"auto_score":62.5,"n_per":44,"n_hog":16,"source_year":2024,"crime_score":0.9413,"crime_nivel":"Alto","crime_color":"#f44336"},"geometry":{"type":"Polygon","coordinates":[[[-71.5226472959999,-35.3024199451097],[-71.5222219009999,-35.3021623451097],[-71.5208805489999,-35.3036721521097],[-71.5212742099999,-35.3039380581097],[-71.5226472959999,-35.3024199451097]]]}},{"type":"Feature","properties":{"id":"7110011001042","commune":"San Rafael","code":"07110","gse":"C3","quintil":"Q2","nse_score":665.2,"educ":10.8,"educ_score":520.0,"hacin":1.867,"hacin_class":"Hacinamiento Medio","hacin_score":666.7,"auto_score":71.4,"n_per":28,"n_hog":7,"source_year":2024,"crime_score":0.9024,"crime_nivel":"Alto","crime_color":"#f44336"},"geometry":{"type":"Polygon","coordinates":[[[-71.5122632009999,-35.3022735081097],[-71.5119891169999,-35.3022585211097],[-71.5120456849999,-35.3026299551097],[-71.5124724769999,-35.3025832861098],[-71.5122632009999,-35.3022735081097]]]}},{"type":"Feature","properties":{"id":"7110011001043","commune":"San Rafael","code":"07110","gse":"C3","quintil":"Q3","nse_score":695.9,"educ":9.9,"educ_score":460.0,"hacin":1.158,"hacin_class":"Hacinamiento Leve","hacin_score":817.5,"auto_score":0.0,"n_per":22,"n_hog":9,"source_year":2024,"crime_score":0.8847,"crime_nivel":"Alto","crime_color":"#f44336"},"geometry":{"type":"Polygon","coordinates":[[[-71.5108310819999,-35.3025609551097],[-71.5115732339999,-35.3025392661097],[-71.5115333909999,-35.3022605351097],[-71.5108092809999,-35.3023160661097],[-71.5108310819999,-35.3025609551097]]]}},{"type":"Feature","properties":{"id":"7110011001044","commune":"San Rafael","code":"07110","gse":"D","quintil":"Q2","nse_score":648.7,"educ":9.9,"educ_score":460.0,"hacin":1.375,"hacin_class":"Hacinamiento Leve","hacin_score":771.3,"auto_score":222.2,"n_per":22,"n_hog":9,"source_year":2024,"crime_score":0.9078,"crime_nivel":"Alto","crime_color":"#f44336"},"geometry":{"type":"Polygon","coordinates":[[[-71.5116373849999,-35.3026245261097],[-71.5119601839999,-35.3026358531097],[-71.5119200239999,-35.3022622081097],[-71.5115917159999,-35.3022797301097],[-71.5116373849999,-35.3026245261097]]]}},{"type":"Feature","properties":{"id":"7110011001045","commune":"San Rafael","code":"07110","gse":"C3","quintil":"Q3","nse_score":689.8,"educ":10.3,"educ_score":486.7,"hacin":1.39,"hacin_class":"Hacinamiento Leve","hacin_score":768.0,"auto_score":323.5,"n_per":57,"n_hog":18,"source_year":2024,"crime_score":0.903,"crime_nivel":"Alto","crime_color":"#f44336"},"geometry":{"type":"Polygon","coordinates":[[[-71.5149294779999,-35.3031121561097],[-71.5155284169999,-35.3026865481097],[-71.5154355969999,-35.3023178531097],[-71.5146616179999,-35.3028424991097],[-71.5149294779999,-35.3031121561097]]]}},{"type":"Feature","properties":{"id":"7110011001046","commune":"San Rafael","code":"07110","gse":"D","quintil":"Q2","nse_score":637.1,"educ":10.0,"educ_score":466.7,"hacin":1.077,"hacin_class":"Hacinamiento Leve","hacin_score":834.7,"auto_score":100.0,"n_per":14,"n_hog":5,"source_year":2024,"crime_score":0.9099,"crime_nivel":"Alto","crime_color":"#f44336"},"geometry":{"type":"Polygon","coordinates":[[[-71.5158571349999,-35.3024508361097],[-71.5149792049999,-35.3031673721097],[-71.5157630939999,-35.3039011911097],[-71.5164990749999,-35.3033343771097],[-71.5158571349999,-35.3024508361097]]]}},{"type":"Feature","properties":{"id":"7110011001049","commune":"San Rafael","code":"07110","gse":"C2","quintil":"Q4","nse_score":727.0,"educ":12.2,"educ_score":613.3,"hacin":1.283,"hacin_class":"Hacinamiento Leve","hacin_score":790.8,"auto_score":305.6,"n_per":68,"n_hog":18,"source_year":2024,"crime_score":0.8892,"crime_nivel":"Alto","crime_color":"#f44336"},"geometry":{"type":"Polygon","coordinates":[[[-71.5226006879999,-35.3026383601097],[-71.5215103719999,-35.3038839151097],[-71.5222572269999,-35.3049145931097],[-71.522838239,-35.3044749301097],[-71.5229969939999,-35.3044492611097],[-71.5222722749999,-35.3049352821097],[-71.5236916389999,-35.3068601791097],[-71.5243224119999,-35.3069372221097],[-71.5246665219999,-35.3066717781097],[-71.524522724,-35.3057957711097],[-71.5230372759999,-35.3050470911097],[-71.5229420969999,-35.3047034921097],[-71.5238544669999,-35.3040334311097],[-71.5235151539999,-35.3038067711097],[-71.5225888069999,-35.3043303041097],[-71.522178418,-35.3038636501097],[-71.5230685199999,-35.3029875311097],[-71.5239948809999,-35.3034649821097],[-71.5241012889999,-35.3033509731097],[-71.5226006879999,-35.3026383601097]]]}},{"type":"Feature","properties":{"id":"7110011001050","commune":"San Rafael","code":"07110","gse":"C3","quintil":"Q2","nse_score":652.6,"educ":11.2,"educ_score":546.7,"hacin":1.783,"hacin_class":"Hacinamiento Medio","hacin_score":684.6,"auto_score":71.4,"n_per":41,"n_hog":14,"source_year":2024,"crime_score":0.9144,"crime_nivel":"Alto","crime_color":"#f44336"},"geometry":{"type":"Polygon","coordinates":[[[-71.5107322009999,-35.3029363411097],[-71.5099840979999,-35.3026679381097],[-71.5097894379999,-35.3027287471097],[-71.5098665259999,-35.3030229371097],[-71.5107322009999,-35.3029363411097]]]}},{"type":"Feature","properties":{"id":"7110011001051","commune":"San Rafael","code":"07110","gse":"D","quintil":"Q1","nse_score":608.5,"educ":8.6,"educ_score":373.3,"hacin":1.409,"hacin_class":"Hacinamiento Leve","hacin_score":764.0,"auto_score":0.0,"n_per":31,"n_hog":10,"source_year":2024,"crime_score":0.9317,"crime_nivel":"Alto","crime_color":"#f44336"},"geometry":{"type":"Polygon","coordinates":[[[-71.5122117679999,-35.3029582611097],[-71.5121784149999,-35.3027030091097],[-71.5116494119999,-35.3027711591097],[-71.5116665439999,-35.3030024431097],[-71.5122117679999,-35.3029582611097]]]}},{"type":"Feature","properties":{"id":"7110011001052","commune":"San Rafael","code":"07110","gse":"E","quintil":"Q1","nse_score":593.9,"educ":8.8,"educ_score":386.7,"hacin":1.722,"hacin_class":"Hacinamiento Medio","hacin_score":697.4,"auto_score":100.0,"n_per":31,"n_hog":10,"source_year":2024,"crime_score":0.9388,"crime_nivel":"Alto","crime_color":"#f44336"},"geometry":{"type":"Polygon","coordinates":[[[-71.5110367719999,-35.3037634421097],[-71.5115853249999,-35.3037354841097],[-71.5114918349999,-35.3027334991097],[-71.510901326,-35.3028150421097],[-71.5110367719999,-35.3037634421097]]]}},{"type":"Feature","properties":{"id":"7110011001053","commune":"San Rafael","code":"07110","gse":"C3","quintil":"Q2","nse_score":657.9,"educ":10.7,"educ_score":513.3,"hacin":1.514,"hacin_class":"Hacinamiento Medio","hacin_score":741.8,"auto_score":175.0,"n_per":56,"n_hog":20,"source_year":2024,"crime_score":0.9185,"crime_nivel":"Alto","crime_color":"#f44336"},"geometry":{"type":"Polygon","coordinates":[[[-71.5098965339999,-35.3033360911097],[-71.5108181609999,-35.3032477391097],[-71.5108446669999,-35.3029969241097],[-71.5098559159999,-35.3030670641097],[-71.5098965339999,-35.3033360911097]]]}},{"type":"Feature","properties":{"id":"7110011001054","commune":"San Rafael","code":"07110","gse":"D","quintil":"Q1","nse_score":611.0,"educ":9.6,"educ_score":440.0,"hacin":1.318,"hacin_class":"Hacinamiento Leve","hacin_score":783.4,"auto_score":194.4,"n_per":58,"n_hog":18,"source_year":2024,"crime_score":0.9428,"crime_nivel":"Alto","crime_color":"#f44336"},"geometry":{"type":"Polygon","coordinates":[[[-71.5196381199999,-35.3030093841097],[-71.5191896589999,-35.3034360351097],[-71.5202055589999,-35.3042726841097],[-71.5206394379999,-35.3038219471097],[-71.5196381199999,-35.3030093841097]]]}},{"type":"Feature","properties":{"id":"7110011001055","commune":"San Rafael","code":"07110","gse":"C2","quintil":"Q3","nse_score":711.7,"educ":11.8,"educ_score":586.7,"hacin":1.6,"hacin_class":"Hacinamiento Medio","hacin_score":723.4,"auto_score":50.0,"n_per":32,"n_hog":10,"source_year":2024,"crime_score":0.8813,"crime_nivel":"Alto","crime_color":"#f44336"},"geometry":{"type":"Polygon","coordinates":[[[-71.5116687569999,-35.3030629291097],[-71.5116801779999,-35.3033027781097],[-71.5121609919999,-35.3032798111097],[-71.5122461809999,-35.3030367071097],[-71.5116687569999,-35.3030629291097]]]}},{"type":"Feature","properties":{"id":"7110011001057","commune":"San Rafael","code":"07110","gse":"C3","quintil":"Q2","nse_score":663.8,"educ":10.3,"educ_score":486.7,"hacin":1.41,"hacin_class":"Hacinamiento Leve","hacin_score":763.8,"auto_score":125.0,"n_per":55,"n_hog":20,"source_year":2024,"crime_score":0.9151,"crime_nivel":"Alto","crime_color":"#f44336"},"geometry":{"type":"Polygon","coordinates":[[[-71.5098603669999,-35.3034065231097],[-71.5099466459999,-35.3036177531097],[-71.5108947129999,-35.3034849491097],[-71.5108197779999,-35.3032786881097],[-71.5098603669999,-35.3034065231097]]]}},{"type":"Feature","properties":{"id":"7110011001059","commune":"San Rafael","code":"07110","gse":"C2","quintil":"Q4","nse_score":776.5,"educ":13.4,"educ_score":693.3,"hacin":1.357,"hacin_class":"Hacinamiento Leve","hacin_score":775.1,"auto_score":333.3,"n_per":19,"n_hog":6,"source_year":2024,"crime_score":0.8439,"crime_nivel":"Alto","crime_color":"#f44336"},"geometry":{"type":"Polygon","coordinates":[[[-71.5121577319999,-35.3033470531097],[-71.5116801779999,-35.3033760661097],[-71.5117116639999,-35.3037205441097],[-71.5120060149999,-35.3036298231097],[-71.5121577319999,-35.3033470531097]]]}},{"type":"Feature","properties":{"id":"7110011001061","commune":"San Rafael","code":"07110","gse":"D","quintil":"Q2","nse_score":639.1,"educ":10.2,"educ_score":480.0,"hacin":1.024,"hacin_class":"Hacinamiento Leve","hacin_score":846.0,"auto_score":160.0,"n_per":171,"n_hog":74,"source_year":2024,"crime_score":0.9798,"crime_nivel":"Alto","crime_color":"#f44336"},"geometry":{"type":"Polygon","coordinates":[[[-71.5158606209999,-35.3039861481097],[-71.5180296379999,-35.3060167391097],[-71.5195410439999,-35.3080115421096],[-71.5199941179999,-35.3080796531097],[-71.5222519189999,-35.3102385691096],[-71.5226219239999,-35.3104114561096],[-71.5252381439999,-35.3123858791096],[-71.5225831859999,-35.3104669681097],[-71.522273159,-35.3103165761096],[-71.5219205309999,-35.3106439831096],[-71.5223057579999,-35.3107115151096],[-71.5246911549999,-35.3125809771096],[-71.525499211,-35.3127184131096],[-71.5272075029999,-35.3141650601096],[-71.5273988359999,-35.3141873791096],[-71.5280419769999,-35.3147132741096],[-71.5290186329999,-35.3138553041096],[-71.5272855389999,-35.3124978131096],[-71.5252581549999,-35.3111334431097],[-71.5245834079999,-35.3116413161097],[-71.5243811419999,-35.3115079371096],[-71.5246062409999,-35.3115969471096],[-71.5251549449999,-35.3110653091097],[-71.5206493059999,-35.3080300481097],[-71.5193892149999,-35.3062512281097],[-71.519427247,-35.3060197931097],[-71.5179262359999,-35.3041611811097],[-71.5174014979999,-35.3045984571097],[-71.5165464119999,-35.3034006871098],[-71.5158606209999,-35.3039861481097]]]}},{"type":"Feature","properties":{"id":"7110011001062","commune":"San Rafael","code":"07110","gse":"C3","quintil":"Q3","nse_score":705.4,"educ":11.9,"educ_score":593.3,"hacin":1.41,"hacin_class":"Hacinamiento Leve","hacin_score":763.8,"auto_score":250.0,"n_per":55,"n_hog":18,"source_year":2024,"crime_score":0.8944,"crime_nivel":"Alto","crime_color":"#f44336"},"geometry":{"type":"Polygon","coordinates":[[[-71.5108501399999,-35.3035772871097],[-71.5099384319999,-35.3036693241097],[-71.5099356059999,-35.3038733981097],[-71.5108892469999,-35.3038301211097],[-71.5108501399999,-35.3035772871097]]]}},{"type":"Feature","properties":{"id":"7110011001064","commune":"San Rafael","code":"07110","gse":"E","quintil":"Q1","nse_score":569.2,"educ":8.4,"educ_score":360.0,"hacin":0.8,"hacin_class":"Sin Hacinamiento","hacin_score":893.6,"auto_score":0.0,"n_per":12,"n_hog":7,"source_year":2024,"crime_score":0.9421,"crime_nivel":"Alto","crime_color":"#f44336"},"geometry":{"type":"Polygon","coordinates":[[[-71.5202808899999,-35.3042868031097],[-71.5206629349999,-35.3045537391097],[-71.5212123159999,-35.3040049661097],[-71.5208308289999,-35.3037282651097],[-71.5202808899999,-35.3042868031097]]]}},{"type":"Feature","properties":{"id":"7110011001066","commune":"San Rafael","code":"07110","gse":"C3","quintil":"Q2","nse_score":672.2,"educ":11.1,"educ_score":540.0,"hacin":1.434,"hacin_class":"Hacinamiento Leve","hacin_score":758.7,"auto_score":185.7,"n_per":109,"n_hog":35,"source_year":2024,"crime_score":0.9348,"crime_nivel":"Alto","crime_color":"#f44336"},"geometry":{"type":"Polygon","coordinates":[[[-71.5101934909999,-35.3041984071097],[-71.5110234469999,-35.3041051331097],[-71.5110622319999,-35.3040442791097],[-71.5109040509999,-35.3038678361097],[-71.5100340409999,-35.3039506111097],[-71.5101934909999,-35.3041984071097]]]}},{"type":"Feature","properties":{"id":"7110011001067","commune":"San Rafael","code":"07110","gse":"E","quintil":"Q1","nse_score":566.0,"educ":10.9,"educ_score":526.7,"hacin":1.0,"hacin_class":"Hacinamiento Leve","hacin_score":851.1,"auto_score":125.0,"n_per":29,"n_hog":12,"source_year":2024,"crime_score":0.9516,"crime_nivel":"Alto","crime_color":"#f44336"},"geometry":{"type":"Polygon","coordinates":[[[-71.5205996509999,-35.3047828081097],[-71.5212427639999,-35.3053601111097],[-71.5221440869999,-35.3048759411097],[-71.5215163149999,-35.3040044891097],[-71.5213768099999,-35.3039701711097],[-71.5205996509999,-35.3047828081097]]]}},{"type":"Feature","properties":{"id":"7110011001070","commune":"San Rafael","code":"07110","gse":"D","quintil":"Q2","nse_score":647.0,"educ":10.5,"educ_score":500.0,"hacin":1.625,"hacin_class":"Hacinamiento Medio","hacin_score":718.1,"auto_score":289.5,"n_per":52,"n_hog":18,"source_year":2024,"crime_score":0.9221,"crime_nivel":"Alto","crime_color":"#f44336"},"geometry":{"type":"Polygon","coordinates":[[[-71.5103267409999,-35.3044858461097],[-71.5112442609999,-35.3043792461097],[-71.5112824459999,-35.3043213601097],[-71.5110826989999,-35.3041282821097],[-71.5101946439999,-35.3042335091097],[-71.5103267409999,-35.3044858461097]]]}},{"type":"Feature","properties":{"id":"7110011001071","commune":"San Rafael","code":"07110","gse":"C2","quintil":"Q4","nse_score":734.1,"educ":11.6,"educ_score":573.3,"hacin":1.4,"hacin_class":"Hacinamiento Leve","hacin_score":766.0,"auto_score":0.0,"n_per":14,"n_hog":4,"source_year":2024,"crime_score":0.8625,"crime_nivel":"Alto","crime_color":"#f44336"},"geometry":{"type":"Polygon","coordinates":[[[-71.5123310399999,-35.3041550221097],[-71.5117510359999,-35.3041610191097],[-71.5116915659999,-35.3042369041097],[-71.5119783409999,-35.3045019841097],[-71.5123310399999,-35.3041550221097]]]}},{"type":"Feature","properties":{"id":"7110011001072","commune":"San Rafael","code":"07110","gse":"C3","quintil":"Q3","nse_score":696.8,"educ":11.5,"educ_score":566.7,"hacin":1.25,"hacin_class":"Hacinamiento Leve","hacin_score":797.9,"auto_score":192.3,"n_per":35,"n_hog":13,"source_year":2024,"crime_score":0.8899,"crime_nivel":"Alto","crime_color":"#f44336"},"geometry":{"type":"Polygon","coordinates":[[[-71.5122940679999,-35.3046784411097],[-71.5126989049999,-35.3042973141097],[-71.5126874879999,-35.3042643301097],[-71.5124300259999,-35.3041712021097],[-71.5120255169999,-35.3045162241097],[-71.5122940679999,-35.3046784411097]]]}},{"type":"Feature","properties":{"id":"7110011001073","commune":"San Rafael","code":"07110","gse":"C3","quintil":"Q2","nse_score":669.6,"educ":11.0,"educ_score":533.3,"hacin":1.708,"hacin_class":"Hacinamiento Medio","hacin_score":700.4,"auto_score":307.7,"n_per":41,"n_hog":13,"source_year":2024,"crime_score":0.906,"crime_nivel":"Alto","crime_color":"#f44336"},"geometry":{"type":"Polygon","coordinates":[[[-71.5129575389999,-35.3045318571097],[-71.5127367489999,-35.3043391091097],[-71.5123110759999,-35.3047638031097],[-71.5125049719999,-35.3049010191097],[-71.5129575389999,-35.3045318571097]]]}},{"type":"Feature","properties":{"id":"7110011001075","commune":"San Rafael","code":"07110","gse":"D","quintil":"Q2","nse_score":648.6,"educ":10.2,"educ_score":480.0,"hacin":1.59,"hacin_class":"Hacinamiento Medio","hacin_score":725.6,"auto_score":138.9,"n_per":62,"n_hog":18,"source_year":2024,"crime_score":0.9258,"crime_nivel":"Alto","crime_color":"#f44336"},"geometry":{"type":"Polygon","coordinates":[[[-71.5105323259999,-35.3047961281097],[-71.5114783999999,-35.3046933351097],[-71.5115079869999,-35.3046333671097],[-71.5112776189999,-35.3044383491097],[-71.5103625579999,-35.3045511921097],[-71.5105323259999,-35.3047961281097]]]}},{"type":"Feature","properties":{"id":"7110011001076","commune":"San Rafael","code":"07110","gse":"D","quintil":"Q1","nse_score":614.5,"educ":9.9,"educ_score":460.0,"hacin":1.75,"hacin_class":"Hacinamiento Medio","hacin_score":691.5,"auto_score":192.3,"n_per":49,"n_hog":13,"source_year":2024,"crime_score":0.9369,"crime_nivel":"Alto","crime_color":"#f44336"},"geometry":{"type":"Polygon","coordinates":[[[-71.5129780849999,-35.3045658531097],[-71.512573072,-35.3049146171097],[-71.5126834189999,-35.3051685081097],[-71.5131854729999,-35.3047701441097],[-71.5129780849999,-35.3045658531097]]]}},{"type":"Feature","properties":{"id":"7110011001077","commune":"San Rafael","code":"07110","gse":"C3","quintil":"Q3","nse_score":692.2,"educ":12.2,"educ_score":613.3,"hacin":1.568,"hacin_class":"Hacinamiento Medio","hacin_score":730.3,"auto_score":250.0,"n_per":58,"n_hog":18,"source_year":2024,"crime_score":0.9023,"crime_nivel":"Alto","crime_color":"#f44336"},"geometry":{"type":"Polygon","coordinates":[[[-71.5105209049999,-35.3049084391097],[-71.5105895769999,-35.3051213041097],[-71.5115812619999,-35.3049804711097],[-71.5115088569999,-35.3047390211097],[-71.5105209049999,-35.3049084391097]]]}},{"type":"Feature","properties":{"id":"7110011001078","commune":"San Rafael","code":"07110","gse":"D","quintil":"Q2","nse_score":644.1,"educ":9.6,"educ_score":440.0,"hacin":1.227,"hacin_class":"Hacinamiento Leve","hacin_score":802.7,"auto_score":136.4,"n_per":27,"n_hog":11,"source_year":2024,"crime_score":0.9123,"crime_nivel":"Alto","crime_color":"#f44336"},"geometry":{"type":"Polygon","coordinates":[[[-71.5213431129999,-35.3054390951097],[-71.5222431759999,-35.3061529171097],[-71.5228513969999,-35.3058472261097],[-71.5221943219999,-35.3049816191097],[-71.5213431129999,-35.3054390951097]]]}},{"type":"Feature","properties":{"id":"7110011001080","commune":"San Rafael","code":"07110","gse":"D","quintil":"Q1","nse_score":618.8,"educ":9.7,"educ_score":446.7,"hacin":1.16,"hacin_class":"Hacinamiento Leve","hacin_score":817.0,"auto_score":75.0,"n_per":58,"n_hog":19,"source_year":2024,"crime_score":0.9389,"crime_nivel":"Alto","crime_color":"#f44336"},"geometry":{"type":"Polygon","coordinates":[[[-71.5162043689999,-35.3064675081096],[-71.5158768199999,-35.3058260351097],[-71.5150703649999,-35.3050806791097],[-71.5141174889999,-35.3059312421097],[-71.5155278869999,-35.3068548631097],[-71.5162043689999,-35.3064675081096]]]}},{"type":"Feature","properties":{"id":"7110011001081","commune":"San Rafael","code":"07110","gse":"C3","quintil":"Q3","nse_score":703.1,"educ":11.6,"educ_score":573.3,"hacin":1.651,"hacin_class":"Hacinamiento Medio","hacin_score":712.5,"auto_score":475.0,"n_per":71,"n_hog":20,"source_year":2024,"crime_score":0.9025,"crime_nivel":"Alto","crime_color":"#f44336"},"geometry":{"type":"Polygon","coordinates":[[[-71.5106526319999,-35.3054201181097],[-71.5115436679999,-35.3053161771097],[-71.5115711089999,-35.3051201021097],[-71.5105869019999,-35.3051693721097],[-71.5106526319999,-35.3054201181097]]]}},{"type":"Feature","properties":{"id":"7110011001085","commune":"San Rafael","code":"07110","gse":"D","quintil":"Q1","nse_score":617.1,"educ":9.9,"educ_score":460.0,"hacin":1.818,"hacin_class":"Hacinamiento Medio","hacin_score":677.0,"auto_score":225.0,"n_per":60,"n_hog":20,"source_year":2024,"crime_score":0.9407,"crime_nivel":"Alto","crime_color":"#f44336"},"geometry":{"type":"Polygon","coordinates":[[[-71.5106015109999,-35.3054920311097],[-71.5106231079999,-35.3057107001097],[-71.5116505149999,-35.3056101941097],[-71.5116163039999,-35.3053751651097],[-71.5106015109999,-35.3054920311097]]]}},{"type":"Feature","properties":{"id":"7110011001086","commune":"San Rafael","code":"07110","gse":"C3","quintil":"Q3","nse_score":708.3,"educ":12.4,"educ_score":626.7,"hacin":1.188,"hacin_class":"Hacinamiento Leve","hacin_score":811.2,"auto_score":142.9,"n_per":19,"n_hog":7,"source_year":2024,"crime_score":0.8773,"crime_nivel":"Alto","crime_color":"#f44336"},"geometry":{"type":"Polygon","coordinates":[[[-71.5211127689999,-35.3055114431097],[-71.5208528509999,-35.3056494241097],[-71.5215063339999,-35.3065058301097],[-71.5220654519999,-35.3062578411097],[-71.5211127689999,-35.3055114431097]]]}},{"type":"Feature","properties":{"id":"7110011001087","commune":"San Rafael","code":"07110","gse":"D","quintil":"Q2","nse_score":636.5,"educ":11.1,"educ_score":540.0,"hacin":0.9,"hacin_class":"Sin Hacinamiento","hacin_score":872.3,"auto_score":117.6,"n_per":36,"n_hog":17,"source_year":2024,"crime_score":0.9201,"crime_nivel":"Alto","crime_color":"#f44336"},"geometry":{"type":"Polygon","coordinates":[[[-71.5196998139999,-35.3062055511097],[-71.5203328039999,-35.3071116251097],[-71.5214336259999,-35.3065511551097],[-71.5207719579999,-35.3056719341097],[-71.5196998139999,-35.3062055511097]]]}},{"type":"Feature","properties":{"id":"7110011001088","commune":"San Rafael","code":"07110","gse":"C3","quintil":"Q3","nse_score":675.7,"educ":12.4,"educ_score":626.7,"hacin":2.12,"hacin_class":"Hacinamiento Medio","hacin_score":612.8,"auto_score":323.5,"n_per":53,"n_hog":17,"source_year":2024,"crime_score":0.9083,"crime_nivel":"Alto","crime_color":"#f44336"},"geometry":{"type":"Polygon","coordinates":[[[-71.5116333929999,-35.3059248281097],[-71.5116575059999,-35.3056735001097],[-71.5106269959999,-35.3057751391097],[-71.5105744529999,-35.3060197881097],[-71.5116333929999,-35.3059248281097]]]}},{"type":"Feature","properties":{"id":"7110011001089","commune":"San Rafael","code":"07110","gse":"E","quintil":"Q1","nse_score":562.7,"educ":8.0,"educ_score":333.3,"hacin":1.059,"hacin_class":"Hacinamiento Leve","hacin_score":838.5,"auto_score":111.1,"n_per":18,"n_hog":9,"source_year":2024,"crime_score":0.9481,"crime_nivel":"Alto","crime_color":"#f44336"},"geometry":{"type":"Polygon","coordinates":[[[-71.5234285969999,-35.3070940601097],[-71.5236703289999,-35.3068713781097],[-71.5229179829999,-35.3059092951097],[-71.5223833269999,-35.3061671661097],[-71.5234285969999,-35.3070940601097]]]}},{"type":"Feature","properties":{"id":"7110011001090","commune":"San Rafael","code":"07110","gse":"D","quintil":"Q1","nse_score":624.8,"educ":8.7,"educ_score":380.0,"hacin":1.19,"hacin_class":"Hacinamiento Leve","hacin_score":810.5,"auto_score":55.6,"n_per":75,"n_hog":27,"source_year":2024,"crime_score":0.9436,"crime_nivel":"Alto","crime_color":"#f44336"},"geometry":{"type":"Polygon","coordinates":[[[-71.5137183459999,-35.3063404911097],[-71.5148657299999,-35.3071155391097],[-71.5152508709999,-35.3067442571097],[-71.5140978809999,-35.3059621181097],[-71.5137183459999,-35.3063404911097]]]}},{"type":"Feature","properties":{"id":"7110011001091","commune":"San Rafael","code":"07110","gse":"D","quintil":"Q1","nse_score":622.1,"educ":12.1,"educ_score":606.7,"hacin":2.636,"hacin_class":"Hacinamiento Crítico","hacin_score":502.9,"auto_score":214.3,"n_per":29,"n_hog":7,"source_year":2024,"crime_score":0.924,"crime_nivel":"Alto","crime_color":"#f44336"},"geometry":{"type":"Polygon","coordinates":[[[-71.5114552419999,-35.3063390071097],[-71.5116106849999,-35.3059867621097],[-71.5109423809999,-35.3060496401097],[-71.5114552419999,-35.3063390071097]]]}},{"type":"Feature","properties":{"id":"7110011001092","commune":"San Rafael","code":"07110","gse":"D","quintil":"Q2","nse_score":646.1,"educ":10.2,"educ_score":480.0,"hacin":1.571,"hacin_class":"Hacinamiento Medio","hacin_score":729.5,"auto_score":88.2,"n_per":44,"n_hog":17,"source_year":2024,"crime_score":0.919,"crime_nivel":"Alto","crime_color":"#f44336"},"geometry":{"type":"Polygon","coordinates":[[[-71.5112401569999,-35.3065752741097],[-71.5114102439999,-35.3063741271096],[-71.5108541039999,-35.3060579461097],[-71.5104742509999,-35.3061673781097],[-71.5112401569999,-35.3065752741097]]]}},{"type":"Feature","properties":{"id":"7110011001094","commune":"San Rafael","code":"07110","gse":"D","quintil":"Q1","nse_score":627.5,"educ":11.1,"educ_score":540.0,"hacin":2.0,"hacin_class":"Hacinamiento Medio","hacin_score":638.3,"auto_score":133.3,"n_per":44,"n_hog":15,"source_year":2024,"crime_score":0.9282,"crime_nivel":"Alto","crime_color":"#f44336"},"geometry":{"type":"Polygon","coordinates":[[[-71.5110313469999,-35.3068222141097],[-71.5111998189999,-35.3066229781097],[-71.5104345849999,-35.3062171721097],[-71.5102830149999,-35.3064074411097],[-71.5110313469999,-35.3068222141097]]]}},{"type":"Feature","properties":{"id":"7110011001095","commune":"San Rafael","code":"07110","gse":"D","quintil":"Q1","nse_score":624.0,"educ":11.2,"educ_score":546.7,"hacin":0.966,"hacin_class":"Sin Hacinamiento","hacin_score":858.4,"auto_score":173.9,"n_per":56,"n_hog":23,"source_year":2024,"crime_score":0.9354,"crime_nivel":"Alto","crime_color":"#f44336"},"geometry":{"type":"Polygon","coordinates":[[[-71.5221103439999,-35.3062936831097],[-71.5216026019999,-35.3066278551097],[-71.5227220689999,-35.3079530861097],[-71.523937353,-35.3087259991097],[-71.5244223809999,-35.3081917931097],[-71.5221103439999,-35.3062936831097]]]}},{"type":"Feature","properties":{"id":"7110011001096","commune":"San Rafael","code":"07110","gse":"E","quintil":"Q1","nse_score":537.0,"educ":7.5,"educ_score":300.0,"hacin":1.174,"hacin_class":"Hacinamiento Leve","hacin_score":814.1,"auto_score":90.9,"n_per":27,"n_hog":11,"source_year":2024,"crime_score":0.965,"crime_nivel":"Alto","crime_color":"#f44336"},"geometry":{"type":"Polygon","coordinates":[[[-71.5133748739999,-35.3066818211097],[-71.5139470339999,-35.3070675871097],[-71.5142439559999,-35.3068018051097],[-71.5136701019999,-35.3063947671096],[-71.5133748739999,-35.3066818211097]]]}},{"type":"Feature","properties":{"id":"7110011001097","commune":"San Rafael","code":"07110","gse":"C3","quintil":"Q3","nse_score":678.0,"educ":12.0,"educ_score":600.0,"hacin":1.917,"hacin_class":"Hacinamiento Medio","hacin_score":656.0,"auto_score":58.8,"n_per":46,"n_hog":17,"source_year":2024,"crime_score":0.904,"crime_nivel":"Alto","crime_color":"#f44336"},"geometry":{"type":"Polygon","coordinates":[[[-71.5108142849999,-35.3070828931097],[-71.5109891349999,-35.3068725661097],[-71.5102404199999,-35.3064609111097],[-71.5100840299999,-35.3066414701097],[-71.5108142849999,-35.3070828931097]]]}},{"type":"Feature","properties":{"id":"7110011001098","commune":"San Rafael","code":"07110","gse":"C3","quintil":"Q2","nse_score":665.5,"educ":10.1,"educ_score":473.3,"hacin":1.195,"hacin_class":"Hacinamiento Leve","hacin_score":809.5,"auto_score":166.7,"n_per":49,"n_hog":15,"source_year":2024,"crime_score":0.9116,"crime_nivel":"Alto","crime_color":"#f44336"},"geometry":{"type":"Polygon","coordinates":[[[-71.5162494109999,-35.3065664921097],[-71.5157474599999,-35.3066819861097],[-71.5155387189999,-35.3068814991097],[-71.515292713,-35.3067602421097],[-71.5144154929999,-35.3077108221097],[-71.5153098479999,-35.3080626001096],[-71.5167618829999,-35.3076171831097],[-71.5162494109999,-35.3065664921097]]]}},{"type":"Feature","properties":{"id":"7110011001099","commune":"San Rafael","code":"07110","gse":"C3","quintil":"Q2","nse_score":663.4,"educ":11.4,"educ_score":560.0,"hacin":1.129,"hacin_class":"Hacinamiento Leve","hacin_score":823.7,"auto_score":128.2,"n_per":114,"n_hog":39,"source_year":2024,"crime_score":0.9416,"crime_nivel":"Alto","crime_color":"#f44336"},"geometry":{"type":"Polygon","coordinates":[[[-71.5206160089999,-35.3078040381096],[-71.5226147729999,-35.3092360721096],[-71.5234180439999,-35.3085088761097],[-71.5226495889999,-35.3079597371097],[-71.5214893079999,-35.3066091261097],[-71.520324447,-35.3072108641097],[-71.5206160089999,-35.3078040381096]]]}},{"type":"Feature","properties":{"id":"7110011001100","commune":"San Rafael","code":"07110","gse":"C3","quintil":"Q2","nse_score":674.2,"educ":11.1,"educ_score":540.0,"hacin":2.0,"hacin_class":"Hacinamiento Medio","hacin_score":638.3,"auto_score":250.0,"n_per":20,"n_hog":6,"source_year":2024,"crime_score":0.8944,"crime_nivel":"Alto","crime_color":"#f44336"},"geometry":{"type":"Polygon","coordinates":[[[-71.5098181889999,-35.3069340741096],[-71.509898431,-35.3071470241097],[-71.5104411899999,-35.3069242731097],[-71.5100410839999,-35.3066887391097],[-71.5098181889999,-35.3069340741096]]]}},{"type":"Feature","properties":{"id":"7110011001101","commune":"San Rafael","code":"07110","gse":"D","quintil":"Q2","nse_score":632.2,"educ":10.4,"educ_score":493.3,"hacin":1.32,"hacin_class":"Hacinamiento Leve","hacin_score":783.0,"auto_score":133.3,"n_per":33,"n_hog":15,"source_year":2024,"crime_score":0.9209,"crime_nivel":"Alto","crime_color":"#f44336"},"geometry":{"type":"Polygon","coordinates":[[[-71.5128676329999,-35.3070962551097],[-71.5130736049999,-35.3073449241097],[-71.5122939499999,-35.3076950521097],[-71.512633923,-35.3082146231096],[-71.5124388999999,-35.3087226311097],[-71.5125248949999,-35.3087859131097],[-71.5126962439999,-35.3085706221097],[-71.5127908079999,-35.3081006041097],[-71.5130829389999,-35.3077498361097],[-71.5136414859999,-35.3075627761097],[-71.5143116039999,-35.3076762061097],[-71.5148148639999,-35.3071596851097],[-71.5143183149999,-35.3068238751097],[-71.5139398909999,-35.3070926151097],[-71.5133573839999,-35.3067186571097],[-71.5128676329999,-35.3070962551097]]]}},{"type":"Feature","properties":{"id":"7110011001102","commune":"San Rafael","code":"07110","gse":"D","quintil":"Q2","nse_score":643.0,"educ":9.9,"educ_score":460.0,"hacin":0.943,"hacin_class":"Sin Hacinamiento","hacin_score":863.2,"auto_score":192.3,"n_per":33,"n_hog":13,"source_year":2024,"crime_score":0.9156,"crime_nivel":"Alto","crime_color":"#f44336"},"geometry":{"type":"Polygon","coordinates":[[[-71.5125135319999,-35.3067294471097],[-71.5118071229999,-35.3070833611097],[-71.5120189969999,-35.3073839951097],[-71.512743338,-35.3070311431097],[-71.5125135319999,-35.3067294471097]]]}},{"type":"Feature","properties":{"id":"7110011001103","commune":"San Rafael","code":"07110","gse":"C3","quintil":"Q2","nse_score":670.4,"educ":10.9,"educ_score":526.7,"hacin":1.714,"hacin_class":"Hacinamiento Medio","hacin_score":699.1,"auto_score":71.4,"n_per":48,"n_hog":14,"source_year":2024,"crime_score":0.9087,"crime_nivel":"Alto","crime_color":"#f44336"},"geometry":{"type":"Polygon","coordinates":[[[-71.5100224789999,-35.3074762291097],[-71.5107070419999,-35.3072003091097],[-71.5107783789999,-35.3071227691097],[-71.5105091659999,-35.3069642891097],[-71.5099227889999,-35.3072116671097],[-71.5100224789999,-35.3074762291097]]]}},{"type":"Feature","properties":{"id":"7110011001104","commune":"San Rafael","code":"07110","gse":"C3","quintil":"Q2","nse_score":673.7,"educ":10.6,"educ_score":506.7,"hacin":1.625,"hacin_class":"Hacinamiento Medio","hacin_score":718.1,"auto_score":333.3,"n_per":26,"n_hog":9,"source_year":2024,"crime_score":0.8973,"crime_nivel":"Alto","crime_color":"#f44336"},"geometry":{"type":"Polygon","coordinates":[[[-71.5092843439999,-35.3077861451097],[-71.5099561659999,-35.3074952221097],[-71.5097609239999,-35.3069971041097],[-71.5093293339999,-35.3075322431097],[-71.5092843439999,-35.3077861451097]]]}},{"type":"Feature","properties":{"id":"7110011001105","commune":"San Rafael","code":"07110","gse":"E","quintil":"Q1","nse_score":552.7,"educ":9.0,"educ_score":400.0,"hacin":1.111,"hacin_class":"Hacinamiento Leve","hacin_score":827.4,"auto_score":55.6,"n_per":20,"n_hog":9,"source_year":2024,"crime_score":0.9539,"crime_nivel":"Alto","crime_color":"#f44336"},"geometry":{"type":"Polygon","coordinates":[[[-71.5129283739999,-35.3072805931097],[-71.5127719819999,-35.3070612861097],[-71.5120592359999,-35.3074391131097],[-71.5122590459999,-35.3076344091097],[-71.5129283739999,-35.3072805931097]]]}},{"type":"Feature","properties":{"id":"7110011001106","commune":"San Rafael","code":"07110","gse":"D","quintil":"Q2","nse_score":636.0,"educ":9.1,"educ_score":406.7,"hacin":1.321,"hacin_class":"Hacinamiento Leve","hacin_score":782.7,"auto_score":76.9,"n_per":37,"n_hog":13,"source_year":2024,"crime_score":0.9208,"crime_nivel":"Alto","crime_color":"#f44336"},"geometry":{"type":"Polygon","coordinates":[[[-71.511921932,-35.3073653451097],[-71.5116930429999,-35.3070728961097],[-71.5109487889999,-35.3074884971097],[-71.5111832699999,-35.3077635121097],[-71.511921932,-35.3073653451097]]]}},{"type":"Feature","properties":{"id":"7110011001107","commune":"San Rafael","code":"07110","gse":"C3","quintil":"Q3","nse_score":686.8,"educ":12.0,"educ_score":600.0,"hacin":1.133,"hacin_class":"Hacinamiento Leve","hacin_score":822.7,"auto_score":136.4,"n_per":34,"n_hog":11,"source_year":2024,"crime_score":0.8944,"crime_nivel":"Alto","crime_color":"#f44336"},"geometry":{"type":"Polygon","coordinates":[[[-71.5177215609999,-35.3074231501097],[-71.5183050399999,-35.3082526201097],[-71.5193486759999,-35.3079320521097],[-71.5187110549999,-35.3070868421097],[-71.5177215609999,-35.3074231501097]]]}},{"type":"Feature","properties":{"id":"7110011001109","commune":"San Rafael","code":"07110","gse":"D","quintil":"Q2","nse_score":651.5,"educ":8.7,"educ_score":380.0,"hacin":1.151,"hacin_class":"Hacinamiento Leve","hacin_score":818.8,"auto_score":76.9,"n_per":38,"n_hog":14,"source_year":2024,"crime_score":0.9136,"crime_nivel":"Alto","crime_color":"#f44336"},"geometry":{"type":"Polygon","coordinates":[[[-71.5119802229999,-35.3074305601097],[-71.511591946,-35.3076582991097],[-71.5120149089999,-35.3081963021097],[-71.5124133449999,-35.3079769101097],[-71.5119802229999,-35.3074305601097]]]}},{"type":"Feature","properties":{"id":"7110011001110","commune":"San Rafael","code":"07110","gse":"C3","quintil":"Q2","nse_score":653.4,"educ":10.6,"educ_score":506.7,"hacin":1.071,"hacin_class":"Hacinamiento Leve","hacin_score":835.9,"auto_score":83.3,"n_per":15,"n_hog":6,"source_year":2024,"crime_score":0.9024,"crime_nivel":"Alto","crime_color":"#f44336"},"geometry":{"type":"Polygon","coordinates":[[[-71.5133597039999,-35.3098682891097],[-71.5137680059999,-35.3094893841097],[-71.5141506129999,-35.3093766741097],[-71.5158852999999,-35.3098756731097],[-71.5194503439999,-35.3087251041097],[-71.5196278689999,-35.3091828831097],[-71.5202058939999,-35.3097050041097],[-71.5203368459999,-35.3102818781097],[-71.5216725029999,-35.3106601891096],[-71.5219205309999,-35.3106439831096],[-71.5222933979999,-35.3103282361096],[-71.5199489339999,-35.3081217981097],[-71.5195679959999,-35.3080610801097],[-71.5202727029999,-35.3089415621096],[-71.5194527299999,-35.3079896461097],[-71.5182650369999,-35.3082711211097],[-71.5176279629999,-35.3074432911096],[-71.5164862049999,-35.3078053681097],[-71.5165970269999,-35.3081665981097],[-71.5163897119999,-35.3078355911097],[-71.5152521249999,-35.3081374461097],[-71.514075638,-35.3076767881097],[-71.5132863579999,-35.3077245731096],[-71.5128688039999,-35.3080865171097],[-71.5127446249999,-35.3086257981096],[-71.5125076249999,-35.3089378351097],[-71.5128552999999,-35.3095229211096],[-71.5133597039999,-35.3098682891097]]]}},{"type":"Feature","properties":{"id":"7110011001111","commune":"San Rafael","code":"07110","gse":"D","quintil":"Q2","nse_score":638.3,"educ":8.9,"educ_score":393.3,"hacin":1.321,"hacin_class":"Hacinamiento Leve","hacin_score":782.7,"auto_score":192.3,"n_per":37,"n_hog":14,"source_year":2024,"crime_score":0.9197,"crime_nivel":"Alto","crime_color":"#f44336"},"geometry":{"type":"Polygon","coordinates":[[[-71.5103755459999,-35.3081467151097],[-71.5111167359999,-35.3077882411096],[-71.5108899949999,-35.3074897181097],[-71.5102157889999,-35.3078379661097],[-71.5103755459999,-35.3081467151097]]]}},{"type":"Feature","properties":{"id":"7110011001112","commune":"San Rafael","code":"07110","gse":"C3","quintil":"Q3","nse_score":695.6,"educ":11.0,"educ_score":533.3,"hacin":1.222,"hacin_class":"Hacinamiento Leve","hacin_score":803.8,"auto_score":176.5,"n_per":55,"n_hog":17,"source_year":2024,"crime_score":0.8993,"crime_nivel":"Alto","crime_color":"#f44336"},"geometry":{"type":"Polygon","coordinates":[[[-71.5119446679999,-35.3082329681096],[-71.5115284459999,-35.3076851281097],[-71.5111329469999,-35.3078608281097],[-71.5115444709999,-35.3084344061097],[-71.5119446679999,-35.3082329681096]]]}},{"type":"Feature","properties":{"id":"7110011001113","commune":"San Rafael","code":"07110","gse":"C3","quintil":"Q2","nse_score":652.5,"educ":9.4,"educ_score":426.7,"hacin":1.421,"hacin_class":"Hacinamiento Leve","hacin_score":761.5,"auto_score":200.0,"n_per":54,"n_hog":15,"source_year":2024,"crime_score":0.9203,"crime_nivel":"Alto","crime_color":"#f44336"},"geometry":{"type":"Polygon","coordinates":[[[-71.5110872819999,-35.3079452471097],[-71.5106586869999,-35.3081246981096],[-71.5110778889999,-35.3086799101097],[-71.5114837099999,-35.3084609091097],[-71.5110872819999,-35.3079452471097]]]}},{"type":"Feature","properties":{"id":"7110011001114","commune":"San Rafael","code":"07110","gse":"D","quintil":"Q1","nse_score":606.6,"educ":7.9,"educ_score":326.7,"hacin":1.462,"hacin_class":"Hacinamiento Leve","hacin_score":752.9,"auto_score":166.7,"n_per":19,"n_hog":7,"source_year":2024,"crime_score":0.9271,"crime_nivel":"Alto","crime_color":"#f44336"},"geometry":{"type":"Polygon","coordinates":[[[-71.5123525789999,-35.3086430521096],[-71.5125770599999,-35.3082960311097],[-71.5124441139999,-35.3080224231097],[-71.5120439039999,-35.3082449171097],[-71.5123525789999,-35.3086430521096]]]}},{"type":"Feature","properties":{"id":"7110011001115","commune":"San Rafael","code":"07110","gse":"D","quintil":"Q1","nse_score":622.2,"educ":9.2,"educ_score":413.3,"hacin":1.261,"hacin_class":"Hacinamiento Leve","hacin_score":795.6,"auto_score":45.5,"n_per":29,"n_hog":11,"source_year":2024,"crime_score":0.924,"crime_nivel":"Alto","crime_color":"#f44336"},"geometry":{"type":"Polygon","coordinates":[[[-71.51191051,-35.3088988671096],[-71.5123031159999,-35.3086899621097],[-71.5119821909999,-35.3082690951097],[-71.5115734039999,-35.3084845541097],[-71.51191051,-35.3088988671096]]]}},{"type":"Feature","properties":{"id":"7110011001116","commune":"San Rafael","code":"07110","gse":"C2","quintil":"Q3","nse_score":709.3,"educ":11.7,"educ_score":580.0,"hacin":1.187,"hacin_class":"Hacinamiento Leve","hacin_score":811.3,"auto_score":264.2,"n_per":165,"n_hog":53,"source_year":2024,"crime_score":0.9402,"crime_nivel":"Alto","crime_color":"#f44336"},"geometry":{"type":"Polygon","coordinates":[[[-71.5245009619999,-35.3082826501097],[-71.5239852599999,-35.3088056331097],[-71.526527385,-35.3108744231096],[-71.5243935369999,-35.3092053021097],[-71.5244564919999,-35.3103074591097],[-71.5254630009999,-35.3109834641096],[-71.5243869509999,-35.3103337831096],[-71.5243031689999,-35.3091353471097],[-71.5234674189999,-35.3085301101096],[-71.5226282869999,-35.3092529431097],[-71.5275286929999,-35.3125337971096],[-71.5286021679999,-35.3115762311096],[-71.5245009619999,-35.3082826501097]]]}},{"type":"Feature","properties":{"id":"7110011001117","commune":"San Rafael","code":"07110","gse":"D","quintil":"Q2","nse_score":652.3,"educ":9.7,"educ_score":446.7,"hacin":1.409,"hacin_class":"Hacinamiento Leve","hacin_score":764.0,"auto_score":277.8,"n_per":31,"n_hog":9,"source_year":2024,"crime_score":0.9101,"crime_nivel":"Alto","crime_color":"#f44336"},"geometry":{"type":"Polygon","coordinates":[[[-71.5115132129999,-35.3085059111097],[-71.5111167619999,-35.3087314741097],[-71.511465831,-35.3091379671096],[-71.5118361099999,-35.3089252921096],[-71.5115132129999,-35.3085059111097]]]}},{"type":"Feature","properties":{"id":"7110011001119","commune":"San Rafael","code":"07110","gse":"E","quintil":"Q1","nse_score":524.8,"educ":8.2,"educ_score":346.7,"hacin":1.3,"hacin_class":"Hacinamiento Leve","hacin_score":787.2,"auto_score":0.0,"n_per":13,"n_hog":4,"source_year":2024,"crime_score":0.9643,"crime_nivel":"Alto","crime_color":"#f44336"},"geometry":{"type":"Polygon","coordinates":[[[-71.5094900119999,-35.3089941031096],[-71.5104830259999,-35.3096314461096],[-71.5126331939999,-35.3102097251096],[-71.5130983919999,-35.3105889711097],[-71.5132327259999,-35.3104076281097],[-71.5133393349999,-35.3099135331096],[-71.5128275419999,-35.3095391831096],[-71.5124801029999,-35.3089795111097],[-71.5116333219999,-35.3094227571097],[-71.5112097929999,-35.3095066461096],[-71.5098248759999,-35.3087884171097],[-71.5094900119999,-35.3089941031096]]]}},{"type":"Feature","properties":{"id":"7110011001127","commune":"San Rafael","code":"07110","gse":"C2","quintil":"Q3","nse_score":720.7,"educ":10.9,"educ_score":526.7,"hacin":0.926,"hacin_class":"Sin Hacinamiento","hacin_score":866.8,"auto_score":200.0,"n_per":25,"n_hog":10,"source_year":2024,"crime_score":0.8738,"crime_nivel":"Alto","crime_color":"#f44336"},"geometry":{"type":"Polygon","coordinates":[[[-71.5302615029999,-35.3128554141096],[-71.5297459749999,-35.3126406761096],[-71.5295725049999,-35.3127769041096],[-71.5294851609999,-35.3127054481096],[-71.5295346609999,-35.3128117691096],[-71.5291308409999,-35.3124867911096],[-71.5294231619999,-35.3121696891096],[-71.5287199969999,-35.3115958321097],[-71.5275934729999,-35.3125980111096],[-71.5291940739999,-35.3137612251096],[-71.5302615029999,-35.3128554141096]]]}},{"type":"Feature","properties":{"id":"7110011001132","commune":"San Rafael","code":"07110","gse":"E","quintil":"Q1","nse_score":577.6,"educ":8.6,"educ_score":373.3,"hacin":1.139,"hacin_class":"Hacinamiento Leve","hacin_score":821.4,"auto_score":136.4,"n_per":49,"n_hog":20,"source_year":2024,"crime_score":0.9553,"crime_nivel":"Alto","crime_color":"#f44336"},"geometry":{"type":"Polygon","coordinates":[[[-71.5335159509999,-35.3169361601096],[-71.533622008,-35.3168280061096],[-71.5332515729999,-35.3165885051095],[-71.5333645199999,-35.3164315951096],[-71.5319842709999,-35.3154019081096],[-71.5317439459999,-35.3155823111096],[-71.5304758539999,-35.3146519311096],[-71.5314019709999,-35.3136889221096],[-71.5303742329999,-35.3128980341096],[-71.529234948,-35.3137883131096],[-71.5335159509999,-35.3169361601096]]]}},{"type":"Feature","properties":{"id":"7110011001134","commune":"San Rafael","code":"07110","gse":"D","quintil":"Q1","nse_score":613.1,"educ":10.2,"educ_score":480.0,"hacin":1.129,"hacin_class":"Hacinamiento Leve","hacin_score":823.6,"auto_score":180.0,"n_per":131,"n_hog":50,"source_year":2024,"crime_score":0.9751,"crime_nivel":"Alto","crime_color":"#f44336"},"geometry":{"type":"Polygon","coordinates":[[[-71.5280816279999,-35.3147421771096],[-71.532986149,-35.3185298541096],[-71.5344207279999,-35.3179668261095],[-71.533932622,-35.3173001991096],[-71.532840856,-35.3165472221096],[-71.5323000429999,-35.3171185851096],[-71.5327974349999,-35.3165194681096],[-71.5320617819999,-35.3159951531096],[-71.5319265929999,-35.3160929941095],[-71.5324531999999,-35.3165597021096],[-71.5315950579999,-35.3159285831096],[-71.5318848919999,-35.3160958511096],[-71.532014596,-35.3159632401096],[-71.5307933799999,-35.3150692111096],[-71.5306608509999,-35.3151782621096],[-71.5309776789999,-35.3154778331096],[-71.530408571,-35.3150480211096],[-71.5299415019999,-35.3154809401096],[-71.5303656019999,-35.3150324801096],[-71.5304778629999,-35.3150303881096],[-71.5306236899999,-35.3151468601096],[-71.5307344989999,-35.3150324951096],[-71.5291197069999,-35.3138486851096],[-71.5280816279999,-35.3147421771096]]]}},{"type":"Feature","properties":{"id":"7110011001135","commune":"San Rafael","code":"07110","gse":"D","quintil":"Q1","nse_score":597.3,"educ":9.0,"educ_score":400.0,"hacin":1.219,"hacin_class":"Hacinamiento Leve","hacin_score":804.5,"auto_score":173.5,"n_per":128,"n_hog":49,"source_year":2024,"crime_score":0.9819,"crime_nivel":"Alto","crime_color":"#f44336"},"geometry":{"type":"Polygon","coordinates":[[[-71.5410133589999,-35.3249607931095],[-71.5411642349999,-35.3249020831095],[-71.5393593119999,-35.3234583201095],[-71.5358516169999,-35.3199088931095],[-71.534471101,-35.3180303101095],[-71.5330209879999,-35.3185563471095],[-71.5410133589999,-35.3249607931095]]]}},{"type":"Feature","properties":{"id":"7110011001058","commune":"San Rafael","code":"07110","gse":"C3","quintil":"Q3","nse_score":697.1,"educ":14.2,"educ_score":746.7,"hacin":1.5,"hacin_class":"Hacinamiento Medio","hacin_score":744.7,"auto_score":625.0,"n_per":15,"n_hog":4,"source_year":2024,"crime_score":0.881,"crime_nivel":"Alto","crime_color":"#f44336"},"geometry":{"type":"MultiPolygon","coordinates":[[[[-71.5196526119999,-35.3061348911097],[-71.5207135579999,-35.3056149211097],[-71.5204131359999,-35.3052107761097],[-71.5196181909999,-35.3059682181097],[-71.5196526119999,-35.3061348911097]]],[[[-71.5194635149999,-35.3059695491097],[-71.5203603839999,-35.3050558431097],[-71.5203506799999,-35.3049002091097],[-71.5183212939999,-35.3033287791097],[-71.51788296,-35.3037010141097],[-71.5178399899999,-35.3039287941097],[-71.5194635149999,-35.3059695491097]]]]}},{"type":"Feature","properties":{"id":"7110011001074","commune":"San Rafael","code":"07110","gse":"D","quintil":"Q2","nse_score":636.2,"educ":9.3,"educ_score":420.0,"hacin":0.902,"hacin_class":"Sin Hacinamiento","hacin_score":871.8,"auto_score":33.3,"n_per":37,"n_hog":16,"source_year":2024,"crime_score":0.9207,"crime_nivel":"Alto","crime_color":"#f44336"},"geometry":{"type":"MultiPolygon","coordinates":[[[[-71.5167696399999,-35.3058608541097],[-71.5164491429999,-35.3055943561097],[-71.5160245299999,-35.3059583511097],[-71.5168381379999,-35.3075762031097],[-71.5186240119999,-35.3069926571097],[-71.5179153549999,-35.3060440891097],[-71.5169994149999,-35.3052118781097],[-71.5164946189999,-35.3055608681097],[-71.5167696399999,-35.3058608541097]]],[[[-71.5159980479999,-35.3058489311097],[-71.5169558279999,-35.3051750171097],[-71.5161442169999,-35.3044247271097],[-71.5152284509999,-35.3050652201097],[-71.5159980479999,-35.3058489311097]]]]}},{"type":"Feature","properties":{"id":"7110011001120","commune":"San Rafael","code":"07110","gse":"D","quintil":"Q1","nse_score":617.2,"educ":10.3,"educ_score":486.7,"hacin":1.044,"hacin_class":"Hacinamiento Leve","hacin_score":841.8,"auto_score":150.0,"n_per":24,"n_hog":9,"source_year":2024,"crime_score":0.9242,"crime_nivel":"Alto","crime_color":"#f44336"},"geometry":{"type":"MultiPolygon","coordinates":[[[[-71.5325405579999,-35.3109362431097],[-71.5306658629999,-35.3125629031096],[-71.531014147,-35.3129038071096],[-71.5311851069999,-35.3126076871097],[-71.5319261839999,-35.3131423431096],[-71.5317337739999,-35.3133237541096],[-71.5318283549999,-35.3131585191096],[-71.5313223569999,-35.3127746761096],[-71.5310700739999,-35.3129317911096],[-71.5315581809999,-35.3135506281096],[-71.5340893799999,-35.3114407901096],[-71.5334793399999,-35.3110915721096],[-71.5325405579999,-35.3109362431097]]],[[[-71.5305117609999,-35.3099936571096],[-71.529057496,-35.3112549501096],[-71.5306640309999,-35.3125177031096],[-71.532510053,-35.3109221991096],[-71.5318857489999,-35.3103821091096],[-71.5312351199999,-35.3103908701097],[-71.5305117609999,-35.3099936571096]]],[[[-71.5287053489999,-35.3098707631097],[-71.5283605089999,-35.3102283101097],[-71.5287293599999,-35.3099509931096],[-71.5285949359999,-35.3101200561097],[-71.5280301149999,-35.3105369746096],[-71.5283380699999,-35.3107399751096],[-71.5288788629999,-35.3102484891096],[-71.5283551109999,-35.3107678911097],[-71.5290424839999,-35.3112227781096],[-71.5305049239999,-35.3099596671096],[-71.5298851609999,-35.3096268451097],[-71.5287053489999,-35.3098707631097]]]]}},{"type":"Feature","properties":{"id":"7110011001027","commune":"San Rafael","code":"07110","gse":"D","quintil":"Q1","nse_score":619.3,"educ":8.9,"educ_score":393.3,"hacin":1.202,"hacin_class":"Hacinamiento Leve","hacin_score":808.2,"auto_score":117.9,"n_per":328,"n_hog":128,"source_year":2024,"crime_score":1.0,"crime_nivel":"Alto","crime_color":"#f44336"},"geometry":{"type":"MultiPolygon","coordinates":[[[[-71.5143171959999,-35.3042942771097],[-71.5147802129999,-35.3039667171097],[-71.5143593059999,-35.3035908431097],[-71.5139161279999,-35.3039198821097],[-71.5143171959999,-35.3042942771097]]],[[[-71.5125757189999,-35.3010882111097],[-71.511748543,-35.3017192521097],[-71.5130916989999,-35.3030958511098],[-71.5133068739999,-35.3022741071097],[-71.5125609539999,-35.3014760881098],[-71.5133072129999,-35.3021566151097],[-71.5133878739999,-35.3024255511097],[-71.512937856,-35.3039965161097],[-71.513099027,-35.3032055351097],[-71.5125075719999,-35.3026759091097],[-71.5123204199999,-35.3026912091097],[-71.5123318409999,-35.3030509841097],[-71.5121187919999,-35.3036362991097],[-71.5117294029999,-35.3038186281097],[-71.5117304639999,-35.3040703131097],[-71.5126204189999,-35.3041301471097],[-71.5132259239999,-35.3046083411097],[-71.513259236,-35.3047915591097],[-71.5126326099999,-35.3053532941097],[-71.5128095349999,-35.3055703871097],[-71.5133834649999,-35.3052162781097],[-71.5128728299999,-35.3055654651097],[-71.5131024749999,-35.3058653661097],[-71.5138377999999,-35.3054534541097],[-71.5131361339999,-35.3059012631097],[-71.5136467059999,-35.3062925841097],[-71.5150078349999,-35.3050179801097],[-71.5146985539999,-35.3047600331097],[-71.5141188949999,-35.3051454551097],[-71.5146904439999,-35.3047182861097],[-71.51429572,-35.3043535861097],[-71.5136688189999,-35.3047509861097],[-71.5142463479999,-35.3043145001097],[-71.5138650839999,-35.3039617771097],[-71.5133960449999,-35.3042938761097],[-71.5138301479999,-35.3039343801097],[-71.5133686849999,-35.3035021071097],[-71.5138845539999,-35.3038909721097],[-71.5143255229999,-35.3035651351097],[-71.5136380129999,-35.3029348381097],[-71.5151791279999,-35.3042821121097],[-71.5156727209999,-35.3039300251097],[-71.5125757189999,-35.3010882111097]]]]}},{"type":"Feature","properties":{"id":"7110011001136","commune":"San Rafael","code":"07110","gse":"E","quintil":"Q1","nse_score":547.7,"educ":8.4,"educ_score":360.0,"hacin":1.196,"hacin_class":"Hacinamiento Leve","hacin_score":809.4,"auto_score":65.2,"n_per":55,"n_hog":23,"source_year":2024,"crime_score":0.973,"crime_nivel":"Alto","crime_color":"#f44336"},"geometry":{"type":"MultiPolygon","coordinates":[[[[-71.5392621829999,-35.3233102781095],[-71.5412358629999,-35.3248559471095],[-71.5410662349999,-35.3245575141095],[-71.5400116989999,-35.3236749731095],[-71.5396751959999,-35.3231405061095],[-71.5390783039999,-35.3227460901095],[-71.5375024379999,-35.3212704791095],[-71.5377680759999,-35.3206196881096],[-71.5373992789999,-35.3203581351095],[-71.5367175149999,-35.3206801661095],[-71.5392621829999,-35.3233102781095]]],[[[-71.5363317249999,-35.3203396031095],[-71.5366521109999,-35.3206496291095],[-71.5373627899999,-35.3203320281095],[-71.537241321,-35.3202311941095],[-71.5367483649999,-35.3203709731096],[-71.5362748649999,-35.3202283021095],[-71.5361343319999,-35.3200303471095],[-71.5362284979999,-35.3198004211096],[-71.536139966,-35.3196071701095],[-71.5354000729999,-35.3192365751095],[-71.5363317249999,-35.3203396031095]]]]}},{"type":"Feature","properties":{"id":"7110013001001","commune":"San Rafael","code":"07110","gse":"C3","quintil":"Q3","nse_score":697.1,"educ":11.4,"educ_score":560.0,"hacin":1.034,"hacin_class":"Hacinamiento Leve","hacin_score":843.7,"auto_score":400.0,"n_per":30,"n_hog":11,"source_year":2024,"crime_score":0.8876,"crime_nivel":"Alto","crime_color":"#f44336"},"geometry":{"type":"Polygon","coordinates":[[[-71.5810962689999,-35.3464189111092],[-71.5801905909999,-35.3467822461092],[-71.5778747619999,-35.3477024711092],[-71.5784332939999,-35.3484484551092],[-71.5821186399999,-35.3469806031093],[-71.5816481439999,-35.3465772401092],[-71.5812439559999,-35.3467388841092],[-71.5810962689999,-35.3464189111092]]]}},{"type":"Feature","properties":{"id":"7110013001002","commune":"San Rafael","code":"07110","gse":"E","quintil":"Q1","nse_score":561.7,"educ":9.3,"educ_score":420.0,"hacin":1.149,"hacin_class":"Hacinamiento Leve","hacin_score":819.4,"auto_score":152.2,"n_per":54,"n_hog":22,"source_year":2024,"crime_score":0.9655,"crime_nivel":"Alto","crime_color":"#f44336"},"geometry":{"type":"Polygon","coordinates":[[[-71.5784036269999,-35.3484602651092],[-71.5778747619999,-35.3477024711092],[-71.5774688389999,-35.3474208271093],[-71.5769661419999,-35.3473757251092],[-71.5763555999999,-35.3465186841092],[-71.5741429259999,-35.3475648751092],[-71.5763615689999,-35.3497457741092],[-71.5775572229999,-35.3488307181092],[-71.5769712849999,-35.3481536721093],[-71.5776149049999,-35.3488088881092],[-71.5781078319999,-35.3485763301092],[-71.5774466039999,-35.3477660501092],[-71.5781470589999,-35.3485592981092],[-71.5784036269999,-35.3484602651092]]]}},{"type":"Feature","properties":{"id":"7110013001003","commune":"San Rafael","code":"07110","gse":"E","quintil":"Q1","nse_score":589.6,"educ":9.0,"educ_score":400.0,"hacin":1.29,"hacin_class":"Hacinamiento Leve","hacin_score":789.3,"auto_score":71.4,"n_per":40,"n_hog":14,"source_year":2024,"crime_score":0.9451,"crime_nivel":"Alto","crime_color":"#f44336"},"geometry":{"type":"Polygon","coordinates":[[[-71.5760376999999,-35.3497576191092],[-71.5762957689999,-35.3497618371092],[-71.5759304869999,-35.3492951061092],[-71.5740116149999,-35.3476213231092],[-71.5750769449999,-35.3492260231092],[-71.5760376999999,-35.3497576191092]]]}},{"type":"Feature","properties":{"id":"7110013001006","commune":"San Rafael","code":"07110","gse":"E","quintil":"Q1","nse_score":588.0,"educ":10.5,"educ_score":500.0,"hacin":1.219,"hacin_class":"Hacinamiento Leve","hacin_score":804.5,"auto_score":266.7,"n_per":39,"n_hog":15,"source_year":2024,"crime_score":0.9455,"crime_nivel":"Alto","crime_color":"#f44336"},"geometry":{"type":"Polygon","coordinates":[[[-71.5779136049999,-35.3519116731092],[-71.5785006709999,-35.3517795421092],[-71.5768934319999,-35.3494693981092],[-71.5764005959999,-35.3497946521092],[-71.5779136049999,-35.3519116731092]]]}},{"type":"Feature","properties":{"id":"7110013001007","commune":"San Rafael","code":"07110","gse":"D","quintil":"Q1","nse_score":619.8,"educ":7.9,"educ_score":326.7,"hacin":1.143,"hacin_class":"Hacinamiento Leve","hacin_score":820.7,"auto_score":142.9,"n_per":16,"n_hog":7,"source_year":2024,"crime_score":0.9192,"crime_nivel":"Alto","crime_color":"#f44336"},"geometry":{"type":"Polygon","coordinates":[[[-71.5766336049999,-35.3514838041092],[-71.5763921769999,-35.3508345091092],[-71.5768767369999,-35.3505326121092],[-71.5764507069999,-35.3499549071092],[-71.5763326339999,-35.3498083921092],[-71.5755174309999,-35.3500312551092],[-71.5756441629999,-35.3504618801092],[-71.5761219119999,-35.3508502451092],[-71.576145547,-35.3512207221092],[-71.5762761849999,-35.3513317211092],[-71.5761806599999,-35.3514642021092],[-71.5763949259999,-35.3515589751092],[-71.5766336049999,-35.3514838041092]]]}},{"type":"Feature","properties":{"id":"7110013001010","commune":"San Rafael","code":"07110","gse":"D","quintil":"Q2","nse_score":640.9,"educ":10.1,"educ_score":473.3,"hacin":1.059,"hacin_class":"Hacinamiento Leve","hacin_score":838.5,"auto_score":125.0,"n_per":36,"n_hog":12,"source_year":2024,"crime_score":0.9179,"crime_nivel":"Alto","crime_color":"#f44336"},"geometry":{"type":"Polygon","coordinates":[[[-71.5764598849999,-35.3508413481092],[-71.5767520069999,-35.3514266521092],[-71.5770300839999,-35.3513004631092],[-71.5766701919999,-35.3507091201092],[-71.5764598849999,-35.3508413481092]]]}},{"type":"Feature","properties":{"id":"7110013001011","commune":"San Rafael","code":"07110","gse":"E","quintil":"Q1","nse_score":584.1,"educ":9.9,"educ_score":460.0,"hacin":1.517,"hacin_class":"Hacinamiento Medio","hacin_score":741.0,"auto_score":240.7,"n_per":88,"n_hog":27,"source_year":2024,"crime_score":0.9702,"crime_nivel":"Alto","crime_color":"#f44336"},"geometry":{"type":"Polygon","coordinates":[[[-71.5771184789999,-35.3513219911092],[-71.5778501919999,-35.3524525801092],[-71.57740057,-35.3519156301092],[-71.5769544949999,-35.3520764031092],[-71.5766313389999,-35.3515423361092],[-71.5762919359999,-35.3516619541092],[-71.5764178879999,-35.3520885711092],[-71.5762941589999,-35.3522633391092],[-71.5764904459999,-35.3527302581092],[-71.5770043829999,-35.3525049561092],[-71.579726461,-35.3534373191092],[-71.5787796729999,-35.3517500161092],[-71.5784810419999,-35.3518435621092],[-71.5786084829999,-35.3524760151092],[-71.5785701459999,-35.3525498601092],[-71.5787535629999,-35.3526123581092],[-71.5790184399999,-35.3525023281092],[-71.5788625469999,-35.3522184261092],[-71.5788931109999,-35.3520812911092],[-71.5790593309999,-35.3525043881092],[-71.5789115109999,-35.3526272671092],[-71.578748001,-35.3526450681092],[-71.5785250309999,-35.3525642741092],[-71.5784432969999,-35.3518554021092],[-71.5778849029999,-35.3519604231092],[-71.5785064109999,-35.3528320191092],[-71.5794519539999,-35.3531292701092],[-71.5787504759999,-35.3530241441092],[-71.5784681439999,-35.3528594571092],[-71.5773698019999,-35.3512005161092],[-71.5771184789999,-35.3513219911092]]]}},{"type":"Feature","properties":{"id":"7110013001009","commune":"San Rafael","code":"07110","gse":"D","quintil":"Q2","nse_score":633.2,"educ":11.9,"educ_score":593.3,"hacin":1.235,"hacin_class":"Hacinamiento Leve","hacin_score":801.0,"auto_score":55.6,"n_per":21,"n_hog":8,"source_year":2024,"crime_score":0.915,"crime_nivel":"Alto","crime_color":"#f44336"},"geometry":{"type":"MultiPolygon","coordinates":[[[[-71.5769834869999,-35.3520251601092],[-71.5773706369999,-35.3518674651092],[-71.5770606329999,-35.3513483691092],[-71.576690675,-35.3515187331092],[-71.5769834869999,-35.3520251601092]]],[[[-71.5767241749999,-35.3506780581092],[-71.5770883229999,-35.3512738981092],[-71.577333629,-35.3511553181092],[-71.5769109489999,-35.3505791381092],[-71.5767241749999,-35.3506780581092]]]]}}]}