{"type":"FeatureCollection","features":[{"type":"Feature","properties":{"id":"8109011001001","commune":"Santa Juana","code":"08109","gse":"C2","quintil":"Q4","nse_score":763.7,"educ":13.7,"educ_score":713.3,"hacin":1.37,"hacin_class":"Hacinamiento Leve","hacin_score":772.3,"auto_score":233.3,"n_per":37,"n_hog":14,"source_year":2024},"geometry":{"type":"Polygon","coordinates":[[[-72.9535229029999,-37.1721081210913],[-72.9531590639999,-37.1732003190913],[-72.9534987099999,-37.1731890640913],[-72.9531089849999,-37.1732614600913],[-72.9530327519999,-37.1735321430913],[-72.9540245419999,-37.1734295670913],[-72.9548083919999,-37.1731453580913],[-72.9557609939999,-37.1734825180913],[-72.9566429089999,-37.1721016290913],[-72.9566452909999,-37.1715115250913],[-72.9563882239999,-37.1706316960913],[-72.9536774289999,-37.1711608910913],[-72.9538302319999,-37.1719909190913],[-72.9535229029999,-37.1721081210913]]]}},{"type":"Feature","properties":{"id":"8109011001002","commune":"Santa Juana","code":"08109","gse":"C2","quintil":"Q3","nse_score":740.6,"educ":12.3,"educ_score":620.0,"hacin":1.435,"hacin_class":"Hacinamiento Leve","hacin_score":758.6,"auto_score":275.0,"n_per":66,"n_hog":21,"source_year":2024},"geometry":{"type":"Polygon","coordinates":[[[-72.9530808249999,-37.1713334480913],[-72.9531462239999,-37.1724198760913],[-72.9527708239999,-37.1724957630913],[-72.9529179609999,-37.1731700160912],[-72.9530989199999,-37.1731419590913],[-72.9534933369999,-37.1720931910913],[-72.9537967839999,-37.1719843080913],[-72.9536398039999,-37.1711700790913],[-72.9530808249999,-37.1713334480913]]]}},{"type":"Feature","properties":{"id":"8109011001003","commune":"Santa Juana","code":"08109","gse":"C3","quintil":"Q2","nse_score":690.2,"educ":10.7,"educ_score":513.3,"hacin":1.298,"hacin_class":"Hacinamiento Leve","hacin_score":787.7,"auto_score":214.3,"n_per":196,"n_hog":68,"source_year":2024},"geometry":{"type":"Polygon","coordinates":[[[-72.9526366649999,-37.1718665280913],[-72.9525637349999,-37.1714807900913],[-72.9521358379999,-37.1715907370913],[-72.9522155519999,-37.1724593070913],[-72.9526369099999,-37.1724290990913],[-72.9526082719999,-37.1720171790913],[-72.9526981789999,-37.1724290760913],[-72.953118388,-37.1723829840913],[-72.9530266009999,-37.1713520690913],[-72.9526182729999,-37.1714630770913],[-72.9526366649999,-37.1718665280913]]]}},{"type":"Feature","properties":{"id":"8109011001005","commune":"Santa Juana","code":"08109","gse":"C3","quintil":"Q2","nse_score":691.6,"educ":11.4,"educ_score":560.0,"hacin":1.562,"hacin_class":"Hacinamiento Medio","hacin_score":731.4,"auto_score":37.0,"n_per":75,"n_hog":27,"source_year":2024},"geometry":{"type":"Polygon","coordinates":[[[-72.9512273379999,-37.1725442410912],[-72.9516263799999,-37.1725146420913],[-72.9515566999999,-37.1717168130913],[-72.9511457179999,-37.1718300230913],[-72.9512273379999,-37.1725442410912]]]}},{"type":"Feature","properties":{"id":"8109011001006","commune":"Santa Juana","code":"08109","gse":"D","quintil":"Q2","nse_score":675.5,"educ":11.5,"educ_score":566.7,"hacin":1.461,"hacin_class":"Hacinamiento Leve","hacin_score":753.0,"auto_score":208.3,"n_per":130,"n_hog":45,"source_year":2024},"geometry":{"type":"Polygon","coordinates":[[[-72.9507060429999,-37.1723465900913],[-72.9506165529999,-37.1719447020913],[-72.9501427109999,-37.1720708800913],[-72.9501938729999,-37.1725948570913],[-72.9511435729999,-37.1725473890913],[-72.9510878699999,-37.1718368630913],[-72.9506878589999,-37.1719274600913],[-72.9507060429999,-37.1723465900913]]]}},{"type":"Feature","properties":{"id":"8109011001009","commune":"Santa Juana","code":"08109","gse":"C3","quintil":"Q2","nse_score":701.2,"educ":11.2,"educ_score":546.7,"hacin":1.454,"hacin_class":"Hacinamiento Leve","hacin_score":754.4,"auto_score":203.1,"n_per":96,"n_hog":32,"source_year":2024},"geometry":{"type":"Polygon","coordinates":[[[-72.9522383449999,-37.1728039830913],[-72.9525366049999,-37.1728488840913],[-72.9522397049999,-37.1728871020913],[-72.9522692739999,-37.1732018830913],[-72.9528686879999,-37.1731553750913],[-72.9527185599999,-37.1724917960913],[-72.9522393489999,-37.1725290260913],[-72.9522383449999,-37.1728039830913]]]}},{"type":"Feature","properties":{"id":"8109011001010","commune":"Santa Juana","code":"08109","gse":"E","quintil":"Q1","nse_score":575.8,"educ":9.5,"educ_score":433.3,"hacin":1.224,"hacin_class":"Hacinamiento Leve","hacin_score":803.3,"auto_score":19.2,"n_per":60,"n_hog":19,"source_year":2024},"geometry":{"type":"Polygon","coordinates":[[[-72.9513041299999,-37.1728743490913],[-72.9521226109999,-37.1728231620913],[-72.9521275369999,-37.1725531390913],[-72.9512650959999,-37.1725849100913],[-72.9513041299999,-37.1728743490913]]]}},{"type":"Feature","properties":{"id":"8109011001011","commune":"Santa Juana","code":"08109","gse":"D","quintil":"Q1","nse_score":655.8,"educ":10.4,"educ_score":493.3,"hacin":1.408,"hacin_class":"Hacinamiento Leve","hacin_score":764.2,"auto_score":145.8,"n_per":69,"n_hog":22,"source_year":2024},"geometry":{"type":"Polygon","coordinates":[[[-72.9502486309999,-37.1729316140913],[-72.9512203169999,-37.1728750620913],[-72.9512020079999,-37.1725980590913],[-72.9502034969999,-37.1726388250913],[-72.9502486309999,-37.1729316140913]]]}},{"type":"Feature","properties":{"id":"8109011001012","commune":"Santa Juana","code":"08109","gse":"E","quintil":"Q1","nse_score":581.8,"educ":8.1,"educ_score":340.0,"hacin":1.314,"hacin_class":"Hacinamiento Leve","hacin_score":784.2,"auto_score":131.6,"n_per":46,"n_hog":21,"source_year":2024},"geometry":{"type":"Polygon","coordinates":[[[-72.9453493229999,-37.1737397590913],[-72.9456364369999,-37.1740307700913],[-72.9461064579999,-37.1737726560913],[-72.9453874629999,-37.1742377630913],[-72.9456140979999,-37.1744862050913],[-72.9463057789999,-37.1740316190913],[-72.9463457219999,-37.1740788160913],[-72.9456582809999,-37.1745182450912],[-72.9458900629999,-37.1747472190912],[-72.9478938269999,-37.1734279010913],[-72.9473829109999,-37.1728218740913],[-72.9453493229999,-37.1737397590913]]]}},{"type":"Feature","properties":{"id":"8109011001013","commune":"Santa Juana","code":"08109","gse":"D","quintil":"Q1","nse_score":658.4,"educ":9.9,"educ_score":460.0,"hacin":1.254,"hacin_class":"Hacinamiento Leve","hacin_score":797.1,"auto_score":73.5,"n_per":84,"n_hog":32,"source_year":2024},"geometry":{"type":"Polygon","coordinates":[[[-72.9513550979999,-37.1732473610913],[-72.9521734649999,-37.1732005870913],[-72.9521532519999,-37.1728729900912],[-72.9513113969999,-37.1729138600913],[-72.9513550979999,-37.1732473610913]]]}},{"type":"Feature","properties":{"id":"8109011001014","commune":"Santa Juana","code":"08109","gse":"D","quintil":"Q1","nse_score":658.9,"educ":10.3,"educ_score":486.7,"hacin":1.414,"hacin_class":"Hacinamiento Leve","hacin_score":763.0,"auto_score":117.6,"n_per":82,"n_hog":33,"source_year":2024},"geometry":{"type":"Polygon","coordinates":[[[-72.9502604939999,-37.1733011550913],[-72.951242008,-37.1732436920912],[-72.951238439,-37.1729380130913],[-72.9502363139999,-37.1729831330913],[-72.9502604939999,-37.1733011550913]]]}},{"type":"Feature","properties":{"id":"8109011001016","commune":"Santa Juana","code":"08109","gse":"C1","quintil":"Q5","nse_score":800.2,"educ":13.3,"educ_score":686.7,"hacin":1.154,"hacin_class":"Hacinamiento Leve","hacin_score":818.3,"auto_score":100.0,"n_per":15,"n_hog":5,"source_year":2024},"geometry":{"type":"Polygon","coordinates":[[[-72.9522974479999,-37.1736267730913],[-72.9529268549999,-37.1735498700913],[-72.9530668109999,-37.1732049430913],[-72.9522718489999,-37.1732441970913],[-72.9522974479999,-37.1736267730913]]]}},{"type":"Feature","properties":{"id":"8109011001017","commune":"Santa Juana","code":"08109","gse":"C3","quintil":"Q3","nse_score":723.4,"educ":11.8,"educ_score":586.7,"hacin":1.522,"hacin_class":"Hacinamiento Medio","hacin_score":740.1,"auto_score":0.0,"n_per":35,"n_hog":9,"source_year":2024},"geometry":{"type":"Polygon","coordinates":[[[-72.9545920569999,-37.1732201320913],[-72.9536938129999,-37.1734658100913],[-72.9529200209999,-37.1735944220913],[-72.9529895909999,-37.1737143870913],[-72.9539721799999,-37.1738906210913],[-72.9544183189999,-37.1736933230913],[-72.9545920569999,-37.1732201320913]]]}},{"type":"Feature","properties":{"id":"8109011001018","commune":"Santa Juana","code":"08109","gse":"D","quintil":"Q2","nse_score":671.2,"educ":10.2,"educ_score":480.0,"hacin":1.277,"hacin_class":"Hacinamiento Leve","hacin_score":792.1,"auto_score":175.3,"n_per":189,"n_hog":75,"source_year":2024},"geometry":{"type":"Polygon","coordinates":[[[-72.9502641649999,-37.1733903530913],[-72.9503170329999,-37.1736970660913],[-72.9519485779999,-37.1736083040912],[-72.9515835369999,-37.1736798610912],[-72.9516233749999,-37.1740397010912],[-72.9522619259999,-37.1739913500913],[-72.9521995839999,-37.1732468230913],[-72.9502641649999,-37.1733903530913]]]}},{"type":"Feature","properties":{"id":"8109011001021","commune":"Santa Juana","code":"08109","gse":"D","quintil":"Q1","nse_score":649.7,"educ":9.1,"educ_score":406.7,"hacin":1.091,"hacin_class":"Hacinamiento Leve","hacin_score":831.7,"auto_score":31.2,"n_per":36,"n_hog":16,"source_year":2024},"geometry":{"type":"Polygon","coordinates":[[[-72.9485441859999,-37.1745918770913],[-72.9488470009999,-37.1743768530913],[-72.9479892359999,-37.1735356320913],[-72.9475720699999,-37.1737685890913],[-72.9485441859999,-37.1745918770913]]]}},{"type":"Feature","properties":{"id":"8109011001023","commune":"Santa Juana","code":"08109","gse":"C2","quintil":"Q4","nse_score":754.3,"educ":12.8,"educ_score":653.3,"hacin":1.35,"hacin_class":"Hacinamiento Leve","hacin_score":776.6,"auto_score":300.0,"n_per":27,"n_hog":10,"source_year":2024},"geometry":{"type":"Polygon","coordinates":[[[-72.9527366699999,-37.1739780080913],[-72.9521397599999,-37.1741027060912],[-72.9521392409999,-37.1749895370912],[-72.9527242939999,-37.1750916690912],[-72.9532648479999,-37.1755772680912],[-72.9534803759999,-37.1755339910913],[-72.9534247789999,-37.1743875870913],[-72.9539376899999,-37.1739118180913],[-72.952975664,-37.1737391980913],[-72.9528873959999,-37.1736018040912],[-72.9527366699999,-37.1739780080913]]]}},{"type":"Feature","properties":{"id":"8109011001024","commune":"Santa Juana","code":"08109","gse":"E","quintil":"Q1","nse_score":593.4,"educ":8.1,"educ_score":340.0,"hacin":1.151,"hacin_class":"Hacinamiento Leve","hacin_score":818.8,"auto_score":88.2,"n_per":38,"n_hog":17,"source_year":2024},"geometry":{"type":"Polygon","coordinates":[[[-72.9493236139999,-37.1747528200912],[-72.9502501099999,-37.1741938530913],[-72.9502102839999,-37.1736129330913],[-72.9489987709999,-37.1743912880912],[-72.9493236139999,-37.1747528200912]]]}},{"type":"Feature","properties":{"id":"8109011001025","commune":"Santa Juana","code":"08109","gse":"D","quintil":"Q2","nse_score":679.7,"educ":10.2,"educ_score":480.0,"hacin":1.348,"hacin_class":"Hacinamiento Leve","hacin_score":777.1,"auto_score":0.0,"n_per":31,"n_hog":11,"source_year":2024},"geometry":{"type":"Polygon","coordinates":[[[-72.9523493669999,-37.1740023250913],[-72.9526836669999,-37.1740070230913],[-72.9528101439999,-37.1736260820913],[-72.9522989949999,-37.1736737560912],[-72.9523493669999,-37.1740023250913]]]}},{"type":"Feature","properties":{"id":"8109011001026","commune":"Santa Juana","code":"08109","gse":"D","quintil":"Q1","nse_score":665.6,"educ":11.0,"educ_score":533.3,"hacin":1.456,"hacin_class":"Hacinamiento Leve","hacin_score":753.9,"auto_score":217.4,"n_per":67,"n_hog":21,"source_year":2024},"geometry":{"type":"Polygon","coordinates":[[[-72.9503467209999,-37.1741113480913],[-72.9515037299999,-37.1740576400913],[-72.9515113399999,-37.1736799640912],[-72.9503256639999,-37.1737444410913],[-72.9503467209999,-37.1741113480913]]]}},{"type":"Feature","properties":{"id":"8109011001029","commune":"Santa Juana","code":"08109","gse":"E","quintil":"Q1","nse_score":617.2,"educ":9.2,"educ_score":413.3,"hacin":1.75,"hacin_class":"Hacinamiento Medio","hacin_score":691.5,"auto_score":277.8,"n_per":28,"n_hog":10,"source_year":2024},"geometry":{"type":"Polygon","coordinates":[[[-72.9482505409999,-37.1747884020912],[-72.9485054769999,-37.1746113950913],[-72.9475305039999,-37.1738187900912],[-72.9472820209999,-37.1739571540913],[-72.9482505409999,-37.1747884020912]]]}},{"type":"Feature","properties":{"id":"8109011001030","commune":"Santa Juana","code":"08109","gse":"D","quintil":"Q1","nse_score":665.7,"educ":10.1,"educ_score":473.3,"hacin":1.296,"hacin_class":"Hacinamiento Leve","hacin_score":788.0,"auto_score":144.4,"n_per":140,"n_hog":47,"source_year":2024},"geometry":{"type":"Polygon","coordinates":[[[-72.9474359739999,-37.1746482930913],[-72.9469823039999,-37.1749063920913],[-72.9473739989999,-37.1746285630913],[-72.9468935659999,-37.1742110650913],[-72.9459583759999,-37.1748240200913],[-72.9468320849999,-37.1756792310912],[-72.9473871049999,-37.1753428580913],[-72.9473434909999,-37.1751191300912],[-72.9474408009999,-37.1753106220912],[-72.9482113309999,-37.1748180950912],[-72.947226381,-37.1739988190913],[-72.9469497219999,-37.1741960860913],[-72.9474359739999,-37.1746482930913]]]}},{"type":"Feature","properties":{"id":"8109011001031","commune":"Santa Juana","code":"08109","gse":"D","quintil":"Q1","nse_score":660.8,"educ":10.1,"educ_score":473.3,"hacin":1.323,"hacin_class":"Hacinamiento Leve","hacin_score":782.3,"auto_score":235.6,"n_per":217,"n_hog":88,"source_year":2024},"geometry":{"type":"Polygon","coordinates":[[[-72.9508541589999,-37.1741803320913],[-72.9509646649999,-37.1754595080913],[-72.9508804049999,-37.1751390050913],[-72.9504266359999,-37.1751593630912],[-72.9504641279999,-37.1756141560913],[-72.9516037029999,-37.1759148820912],[-72.9515203369999,-37.1753401490913],[-72.951640026,-37.1753289710912],[-72.951717787,-37.1758985600913],[-72.9523868759999,-37.1758419030912],[-72.9523083559999,-37.1752751860913],[-72.9524175219999,-37.1752658070913],[-72.9524853389999,-37.1758076450913],[-72.952772879,-37.1757869290912],[-72.9529402519999,-37.1753747050913],[-72.9527442239999,-37.1751252700913],[-72.9524178779999,-37.1750231940913],[-72.9512979459999,-37.1750797140912],[-72.9512840769999,-37.1743672990912],[-72.9520560529999,-37.1743121540913],[-72.9520711729999,-37.1740942200912],[-72.9508541589999,-37.1741803320913]]]}},{"type":"Feature","properties":{"id":"8109011001032","commune":"Santa Juana","code":"08109","gse":"E","quintil":"Q1","nse_score":627.8,"educ":10.2,"educ_score":480.0,"hacin":1.238,"hacin_class":"Hacinamiento Leve","hacin_score":800.4,"auto_score":195.7,"n_per":52,"n_hog":21,"source_year":2024},"geometry":{"type":"Polygon","coordinates":[[[-72.9504118809999,-37.1751093580912],[-72.9508832559999,-37.1750710090913],[-72.9507984059999,-37.1741512480912],[-72.9503335139999,-37.1741999830913],[-72.9504118809999,-37.1751093580912]]]}},{"type":"Feature","properties":{"id":"8109011001033","commune":"Santa Juana","code":"08109","gse":"E","quintil":"Q1","nse_score":595.9,"educ":8.2,"educ_score":346.7,"hacin":1.395,"hacin_class":"Hacinamiento Leve","hacin_score":767.1,"auto_score":144.1,"n_per":159,"n_hog":58,"source_year":2024},"geometry":{"type":"Polygon","coordinates":[[[-72.9502568519999,-37.1742986060912],[-72.9480801879999,-37.1755815330913],[-72.9480544819999,-37.1756283140912],[-72.9485077259999,-37.1760272210912],[-72.9487679049999,-37.1758480510913],[-72.9485194109999,-37.1755411040912],[-72.9488212909999,-37.1758064360913],[-72.9490657279999,-37.1756387080913],[-72.948797323,-37.1753725150912],[-72.9491058239999,-37.1756054250913],[-72.9493512339999,-37.1754558290912],[-72.9491005159999,-37.1751811110912],[-72.9494012999999,-37.1754245210913],[-72.9496243369999,-37.1752900390913],[-72.9493814439999,-37.1750216750912],[-72.9496589829999,-37.1752666650912],[-72.9499128329999,-37.1751255960912],[-72.9496714399999,-37.1748433790912],[-72.9499554959999,-37.1751014600913],[-72.9503037579999,-37.1748967730913],[-72.9502568519999,-37.1742986060912]]]}},{"type":"Feature","properties":{"id":"8109011001034","commune":"Santa Juana","code":"08109","gse":"E","quintil":"Q1","nse_score":596.8,"educ":8.4,"educ_score":360.0,"hacin":1.353,"hacin_class":"Hacinamiento Leve","hacin_score":776.0,"auto_score":100.0,"n_per":23,"n_hog":10,"source_year":2024},"geometry":{"type":"Polygon","coordinates":[[[-72.9513876039999,-37.1746958870912],[-72.9520830569999,-37.1746551890913],[-72.9520825789999,-37.1743684000913],[-72.9513499309999,-37.1744018750913],[-72.9513876039999,-37.1746958870912]]]}},{"type":"Feature","properties":{"id":"8109011001036","commune":"Santa Juana","code":"08109","gse":"E","quintil":"Q1","nse_score":615.4,"educ":7.7,"educ_score":313.3,"hacin":1.29,"hacin_class":"Hacinamiento Leve","hacin_score":789.3,"auto_score":166.7,"n_per":40,"n_hog":15,"source_year":2024},"geometry":{"type":"Polygon","coordinates":[[[-72.9480087179999,-37.1755755180913],[-72.9489032459999,-37.1750457500912],[-72.9489128229999,-37.1749914800913],[-72.9485473239999,-37.1746840400913],[-72.9476629999999,-37.1752488610912],[-72.9480087179999,-37.1755755180913]]]}},{"type":"Feature","properties":{"id":"8109011001037","commune":"Santa Juana","code":"08109","gse":"D","quintil":"Q2","nse_score":672.6,"educ":10.0,"educ_score":466.7,"hacin":1.091,"hacin_class":"Hacinamiento Leve","hacin_score":831.7,"auto_score":227.3,"n_per":24,"n_hog":11,"source_year":2024},"geometry":{"type":"Polygon","coordinates":[[[-72.9514140139999,-37.1750316120913],[-72.9520635519999,-37.1749938160912],[-72.9520870399999,-37.1747037460912],[-72.9513792109999,-37.1747355770912],[-72.9514140139999,-37.1750316120913]]]}},{"type":"Feature","properties":{"id":"8109011001038","commune":"Santa Juana","code":"08109","gse":"D","quintil":"Q1","nse_score":644.8,"educ":10.6,"educ_score":506.7,"hacin":1.372,"hacin_class":"Hacinamiento Leve","hacin_score":772.0,"auto_score":32.9,"n_per":214,"n_hog":68,"source_year":2024},"geometry":{"type":"Polygon","coordinates":[[[-72.9503029539999,-37.1749579710912],[-72.9483628949999,-37.1761747890913],[-72.9467143599999,-37.1773465180912],[-72.947517048,-37.1780412960912],[-72.9478164329999,-37.1777183470912],[-72.9474936419999,-37.1774501800912],[-72.9494376879999,-37.1756604390913],[-72.9502464829999,-37.1757762740912],[-72.9504153729999,-37.1756689000913],[-72.9503332659999,-37.1752991710913],[-72.9498631999999,-37.1755057160912],[-72.9503333639999,-37.1752455480913],[-72.9503029539999,-37.1749579710912]]]}},{"type":"Feature","properties":{"id":"8109011001039","commune":"Santa Juana","code":"08109","gse":"D","quintil":"Q1","nse_score":657.8,"educ":9.9,"educ_score":460.0,"hacin":1.263,"hacin_class":"Hacinamiento Leve","hacin_score":795.1,"auto_score":88.2,"n_per":48,"n_hog":18,"source_year":2024},"geometry":{"type":"Polygon","coordinates":[[[-72.9477314189999,-37.1765288420912],[-72.9484480429999,-37.1760517830912],[-72.9475870869999,-37.1752946810913],[-72.9469021329999,-37.1757460570912],[-72.9477314189999,-37.1765288420912]]]}},{"type":"Feature","properties":{"id":"8109011001040","commune":"Santa Juana","code":"08109","gse":"C3","quintil":"Q3","nse_score":715.9,"educ":11.3,"educ_score":553.3,"hacin":1.056,"hacin_class":"Hacinamiento Leve","hacin_score":839.2,"auto_score":0.0,"n_per":19,"n_hog":7,"source_year":2024},"geometry":{"type":"Polygon","coordinates":[[[-72.9528163269999,-37.1756811710912],[-72.9529629349999,-37.1763675530912],[-72.9532860609999,-37.1764793750912],[-72.9537747019999,-37.1761008450913],[-72.9543198469999,-37.1754322440912],[-72.9541749299999,-37.1754392050912],[-72.9541225719999,-37.1755639360913],[-72.9538777539999,-37.1758505430913],[-72.9536962859999,-37.1759807050912],[-72.9534677699999,-37.1759510710912],[-72.953727436,-37.1759449220912],[-72.9541039279999,-37.1755410820913],[-72.953560121,-37.1757551100913],[-72.9529690279999,-37.1753894640912],[-72.9528163269999,-37.1756811710912]]]}},{"type":"Feature","properties":{"id":"8109011001042","commune":"Santa Juana","code":"08109","gse":"C3","quintil":"Q2","nse_score":705.6,"educ":11.4,"educ_score":560.0,"hacin":1.247,"hacin_class":"Hacinamiento Leve","hacin_score":798.5,"auto_score":29.0,"n_per":197,"n_hog":69,"source_year":2024},"geometry":{"type":"Polygon","coordinates":[[[-72.9504467109999,-37.1759778520913],[-72.9493270319999,-37.1770431890913],[-72.9493633799999,-37.1772283430913],[-72.9491903559999,-37.1771771000912],[-72.9482980579999,-37.1779980140913],[-72.9483485979999,-37.1781552960912],[-72.9478733239999,-37.1778659540912],[-72.9475894859999,-37.1781029930912],[-72.9485496419999,-37.1784521690912],[-72.9493171499999,-37.1788970730912],[-72.9532860609999,-37.1764793750912],[-72.9528562049999,-37.1763240950912],[-72.9527540579999,-37.1758647600913],[-72.9515558019999,-37.1759684160912],[-72.9504790739999,-37.1756897470912],[-72.9503577749999,-37.1758004030912],[-72.9504467109999,-37.1759778520913]]]}},{"type":"Feature","properties":{"id":"8109011001043","commune":"Santa Juana","code":"08109","gse":"C2","quintil":"Q4","nse_score":745.5,"educ":12.6,"educ_score":640.0,"hacin":1.484,"hacin_class":"Hacinamiento Leve","hacin_score":748.0,"auto_score":372.1,"n_per":141,"n_hog":44,"source_year":2024},"geometry":{"type":"Polygon","coordinates":[[[-72.9492795849999,-37.1769986400912],[-72.9503306039999,-37.1759978140912],[-72.9503260459999,-37.1758885640912],[-72.9500103079999,-37.1758789610913],[-72.9490154649999,-37.1768059040912],[-72.9490154649999,-37.1769272570912],[-72.9492795849999,-37.1769986400912]]]}},{"type":"Feature","properties":{"id":"8109011001044","commune":"Santa Juana","code":"08109","gse":"C2","quintil":"Q3","nse_score":741.1,"educ":12.4,"educ_score":626.7,"hacin":1.364,"hacin_class":"Hacinamiento Leve","hacin_score":773.7,"auto_score":270.8,"n_per":75,"n_hog":24,"source_year":2024},"geometry":{"type":"Polygon","coordinates":[[[-72.9487299299999,-37.1764525540912],[-72.9489371249999,-37.1765930660913],[-72.9494913699999,-37.1760575530913],[-72.9492490009999,-37.1759140660913],[-72.9487299299999,-37.1764525540912]]]}},{"type":"Feature","properties":{"id":"8109011001045","commune":"Santa Juana","code":"08109","gse":"D","quintil":"Q2","nse_score":678.3,"educ":10.6,"educ_score":506.7,"hacin":1.544,"hacin_class":"Hacinamiento Medio","hacin_score":735.4,"auto_score":175.0,"n_per":71,"n_hog":20,"source_year":2024},"geometry":{"type":"Polygon","coordinates":[[[-72.9482695039999,-37.1769415330912],[-72.9484233899999,-37.1770651920912],[-72.9488819949999,-37.1766439150912],[-72.9486183669999,-37.1765135080912],[-72.9482695039999,-37.1769415330912]]]}},{"type":"Feature","properties":{"id":"8109011001046","commune":"Santa Juana","code":"08109","gse":"C3","quintil":"Q3","nse_score":712.5,"educ":11.6,"educ_score":573.3,"hacin":1.39,"hacin_class":"Hacinamiento Leve","hacin_score":768.0,"auto_score":277.8,"n_per":114,"n_hog":35,"source_year":2024},"geometry":{"type":"Polygon","coordinates":[[[-72.9491130609999,-37.1771601230912],[-72.9488597609999,-37.1769480120913],[-72.9479992049999,-37.1777743470913],[-72.9482770139999,-37.1779273410912],[-72.9491130609999,-37.1771601230912]]]}},{"type":"Feature","properties":{"id":"8109011001047","commune":"Santa Juana","code":"08109","gse":"C3","quintil":"Q2","nse_score":692.3,"educ":10.7,"educ_score":513.3,"hacin":1.25,"hacin_class":"Hacinamiento Leve","hacin_score":797.9,"auto_score":214.3,"n_per":60,"n_hog":21,"source_year":2024},"geometry":{"type":"Polygon","coordinates":[[[-72.9475913579999,-37.1774947580913],[-72.9478139229999,-37.1776250400912],[-72.9483645299999,-37.1771192600912],[-72.9480976019999,-37.1769918360913],[-72.9475913579999,-37.1774947580913]]]}},{"type":"Feature","properties":{"id":"8109011001007","commune":"Santa Juana","code":"08109","gse":"E","quintil":"Q1","nse_score":503.4,"educ":5.4,"educ_score":160.0,"hacin":1.25,"hacin_class":"Hacinamiento Leve","hacin_score":797.9,"auto_score":45.5,"n_per":20,"n_hog":11,"source_year":2024},"geometry":{"type":"MultiPolygon","coordinates":[[[[-72.9494520869999,-37.1740084410913],[-72.9497326369999,-37.1738211490913],[-72.9494484759999,-37.1735629760912],[-72.9491577669999,-37.1737219720913],[-72.9494520869999,-37.1740084410913]]],[[[-72.9497625949999,-37.1737961620912],[-72.9500404549999,-37.1736208090913],[-72.9498493739999,-37.1734107530913],[-72.9495045609999,-37.1735422270912],[-72.9497625949999,-37.1737961620912]]],[[[-72.9500630189999,-37.1736027240912],[-72.9502010269999,-37.1735178700913],[-72.9501768459999,-37.1733124150913],[-72.9498861469999,-37.1734003040913],[-72.9500630189999,-37.1736027240912]]],[[[-72.9475522919999,-37.1727430640913],[-72.9485712299999,-37.1740239010913],[-72.9494149219999,-37.1735334650913],[-72.9501526299999,-37.1732749550913],[-72.9500534999999,-37.1720838470913],[-72.9484178549999,-37.1724169330913],[-72.9475522919999,-37.1727430640913]]]]}},{"type":"Feature","properties":{"id":"8109011001027","commune":"Santa Juana","code":"08109","gse":"E","quintil":"Q1","nse_score":542.7,"educ":6.1,"educ_score":206.7,"hacin":1.21,"hacin_class":"Hacinamiento Leve","hacin_score":806.3,"auto_score":181.8,"n_per":23,"n_hog":11,"source_year":2024},"geometry":{"type":"MultiPolygon","coordinates":[[[[-72.9489722479999,-37.1749847580912],[-72.9492922999999,-37.1747862550913],[-72.9489057739999,-37.1744442040913],[-72.9486098919999,-37.1746485320913],[-72.9489722479999,-37.1749847580912]]],[[[-72.9491049899999,-37.1737453020913],[-72.9486009739999,-37.1740548340913],[-72.9489134699999,-37.1743428550913],[-72.9494090269999,-37.1740389690912],[-72.9491049899999,-37.1737453020913]]]]}},{"type":"Feature","properties":{"id":"8109011002001","commune":"Santa Juana","code":"08109","gse":"C2","quintil":"Q4","nse_score":750.0,"educ":12.6,"educ_score":640.0,"hacin":1.065,"hacin_class":"Hacinamiento Leve","hacin_score":837.3,"auto_score":238.1,"n_per":66,"n_hog":21,"source_year":2024},"geometry":{"type":"Polygon","coordinates":[[[-72.9542620009999,-37.1610961210914],[-72.9534630449999,-37.1614692630914],[-72.9515980529999,-37.1613720480914],[-72.9507862299999,-37.1614481330914],[-72.9498130889999,-37.1617014930914],[-72.9491938779999,-37.1621130160914],[-72.9482938059999,-37.1624538790914],[-72.9481047379999,-37.1627244070913],[-72.9470771899999,-37.1634144540914],[-72.9472470019999,-37.1634146930913],[-72.9463161149999,-37.1639695060914],[-72.9461347429999,-37.1642839650913],[-72.946322946,-37.1643370680913],[-72.9461775809999,-37.1645319240913],[-72.9455794159999,-37.1648716010914],[-72.9466227689999,-37.1667711090914],[-72.9492679729999,-37.1659337510914],[-72.9484843919999,-37.1654382790913],[-72.9478055199999,-37.1657933320914],[-72.9472441429999,-37.1659261850913],[-72.9471679569999,-37.1659199980913],[-72.9467169389999,-37.1653788150914],[-72.9466845269999,-37.1648495740914],[-72.9465608129999,-37.1647770410913],[-72.9467062999999,-37.1648481490914],[-72.9467372509999,-37.1653731290913],[-72.9471934539999,-37.1659099850913],[-72.9477859099999,-37.1657772210913],[-72.9484808149999,-37.1654164960913],[-72.9484064719999,-37.1648923880913],[-72.9485042079999,-37.1646263160914],[-72.9485180219999,-37.1654273250913],[-72.9493114349999,-37.1659215250913],[-72.9513731469999,-37.1654562780914],[-72.9522319119999,-37.1663713060913],[-72.9525146379999,-37.1662866970913],[-72.9518829419999,-37.1667123490914],[-72.9546500599999,-37.1650405720914],[-72.9544257919999,-37.1647562680914],[-72.9544059349999,-37.1646916410913],[-72.9544880799999,-37.1644989510913],[-72.9541874359999,-37.1641390630913],[-72.9541783139999,-37.1639892150914],[-72.9545212989999,-37.1644911330914],[-72.9544398389999,-37.1646939840913],[-72.9546768149999,-37.1650238570913],[-72.9551709109999,-37.1647151800913],[-72.9540396819999,-37.1633800260913],[-72.9551979419999,-37.1646989190913],[-72.956168826,-37.1640783550914],[-72.9542620009999,-37.1610961210914]]]}},{"type":"Feature","properties":{"id":"8109011002002","commune":"Santa Juana","code":"08109","gse":"D","quintil":"Q1","nse_score":652.7,"educ":9.6,"educ_score":440.0,"hacin":1.26,"hacin_class":"Hacinamiento Leve","hacin_score":795.7,"auto_score":63.4,"n_per":213,"n_hog":70,"source_year":2024},"geometry":{"type":"Polygon","coordinates":[[[-72.9466227689999,-37.1667711090914],[-72.9456502599999,-37.1650677010913],[-72.9452536559999,-37.1654525800914],[-72.9442722039999,-37.1657191780914],[-72.9440769619999,-37.1662582580913],[-72.9433080859999,-37.1667585380913],[-72.9416288689999,-37.1672438990913],[-72.9410875319999,-37.1675421810913],[-72.9408309109999,-37.1677441990913],[-72.9406783029999,-37.1681304390913],[-72.9400733749999,-37.1685803730913],[-72.9396834009999,-37.1692179910913],[-72.9390823979999,-37.1697633420913],[-72.9387110619999,-37.1705641370913],[-72.938141002,-37.1710370400913],[-72.9388759849999,-37.1714020390913],[-72.9400833359999,-37.1703660300913],[-72.940512065,-37.1698939260913],[-72.9404345559999,-37.1687998020913],[-72.9411283709999,-37.1684317130913],[-72.9430509339999,-37.1682888280913],[-72.9462079929999,-37.1673314040913],[-72.9476158489999,-37.1692744070913],[-72.9490922439999,-37.1684142210913],[-72.9476212049999,-37.1664747360913],[-72.947336978,-37.1665865240914],[-72.9475431459999,-37.1669540260913],[-72.9472835129999,-37.1665896540913],[-72.9470230729999,-37.1666796820913],[-72.9472227429999,-37.1670750110913],[-72.9469584489999,-37.1667039780913],[-72.9466841469999,-37.1668026880914],[-72.9468473159999,-37.1671984660913],[-72.9466311539999,-37.1668299790913],[-72.9465035299999,-37.1668643580913],[-72.9466227689999,-37.1667711090914]]]}},{"type":"Feature","properties":{"id":"8109011002003","commune":"Santa Juana","code":"08109","gse":"D","quintil":"Q1","nse_score":663.3,"educ":10.7,"educ_score":513.3,"hacin":1.489,"hacin_class":"Hacinamiento Leve","hacin_score":747.0,"auto_score":209.7,"n_per":201,"n_hog":62,"source_year":2024},"geometry":{"type":"Polygon","coordinates":[[[-72.948901712,-37.1665867710913],[-72.9486763549999,-37.1666407050913],[-72.9483921179999,-37.1662186140913],[-72.9481268399999,-37.1663002700914],[-72.9484385199999,-37.1667848680913],[-72.9480822329999,-37.1669460610913],[-72.9484841259999,-37.1674513290913],[-72.9496659699999,-37.1668749770913],[-72.9499942389999,-37.1668783670913],[-72.9499171059999,-37.1665722050914],[-72.9500236519999,-37.1668819690913],[-72.9501697649999,-37.1668810820913],[-72.9517139589999,-37.1658969400913],[-72.951244717,-37.1654914600913],[-72.9487382999999,-37.1661186210913],[-72.948901712,-37.1665867710913]]]}},{"type":"Feature","properties":{"id":"8109011002004","commune":"Santa Juana","code":"08109","gse":"ABC1","quintil":"Q5","nse_score":836.9,"educ":15.0,"educ_score":800.0,"hacin":0.879,"hacin_class":"Sin Hacinamiento","hacin_score":876.9,"auto_score":346.2,"n_per":29,"n_hog":12,"source_year":2024},"geometry":{"type":"Polygon","coordinates":[[[-72.9518199319999,-37.1666310470913],[-72.95218546,-37.1664024980914],[-72.9517547929999,-37.1659737130913],[-72.9514047869999,-37.1661988330913],[-72.9518199319999,-37.1666310470913]]]}},{"type":"Feature","properties":{"id":"8109011002005","commune":"Santa Juana","code":"08109","gse":"E","quintil":"Q1","nse_score":557.4,"educ":6.5,"educ_score":233.3,"hacin":2.429,"hacin_class":"Hacinamiento Medio","hacin_score":547.1,"auto_score":125.0,"n_per":17,"n_hog":6,"source_year":2024},"geometry":{"type":"Polygon","coordinates":[[[-72.9487855019999,-37.1663413260913],[-72.9486921609999,-37.1661340450913],[-72.9484464209999,-37.1662053150914],[-72.9485645339999,-37.1664097500913],[-72.9487855019999,-37.1663413260913]]]}},{"type":"Feature","properties":{"id":"8109011002006","commune":"Santa Juana","code":"08109","gse":"C1","quintil":"Q5","nse_score":821.4,"educ":14.4,"educ_score":760.0,"hacin":1.333,"hacin_class":"Hacinamiento Leve","hacin_score":780.1,"auto_score":375.0,"n_per":32,"n_hog":12,"source_year":2024},"geometry":{"type":"Polygon","coordinates":[[[-72.9513824479999,-37.1668968340913],[-72.9517534569999,-37.1666655870913],[-72.9513351429999,-37.1662339500913],[-72.9509711649999,-37.1664675700913],[-72.9513824479999,-37.1668968340913]]]}},{"type":"Feature","properties":{"id":"8109011002007","commune":"Santa Juana","code":"08109","gse":"D","quintil":"Q2","nse_score":686.0,"educ":10.8,"educ_score":520.0,"hacin":1.5,"hacin_class":"Hacinamiento Medio","hacin_score":744.7,"auto_score":318.2,"n_per":33,"n_hog":11,"source_year":2024},"geometry":{"type":"Polygon","coordinates":[[[-72.947936609,-37.1668964930914],[-72.9483234279999,-37.1667598030913],[-72.9480334419999,-37.1663225350913],[-72.9476665469999,-37.1664638050913],[-72.947936609,-37.1668964930914]]]}},{"type":"Feature","properties":{"id":"8109011002009","commune":"Santa Juana","code":"08109","gse":"C1","quintil":"Q5","nse_score":807.1,"educ":13.3,"educ_score":686.7,"hacin":1.074,"hacin_class":"Hacinamiento Leve","hacin_score":835.3,"auto_score":409.1,"n_per":29,"n_hog":11,"source_year":2024},"geometry":{"type":"Polygon","coordinates":[[[-72.9504531439999,-37.1674675690913],[-72.9513059279999,-37.1669404830913],[-72.950918467,-37.1665007260913],[-72.9502160519999,-37.1669185650913],[-72.9504531439999,-37.1674675690913]]]}},{"type":"Feature","properties":{"id":"8109011002011","commune":"Santa Juana","code":"08109","gse":"D","quintil":"Q1","nse_score":639.7,"educ":9.6,"educ_score":440.0,"hacin":1.391,"hacin_class":"Hacinamiento Leve","hacin_score":767.8,"auto_score":166.7,"n_per":32,"n_hog":12,"source_year":2024},"geometry":{"type":"Polygon","coordinates":[[[-72.9485719689999,-37.1675762330913],[-72.9492040459999,-37.1683486520913],[-72.9498804099999,-37.1679411840913],[-72.949913852,-37.1677705230913],[-72.9500248109999,-37.1678486000913],[-72.9503443259999,-37.1676562130913],[-72.9502331829999,-37.1676058020913],[-72.9503969799999,-37.1674788540913],[-72.9501627749999,-37.1669730700913],[-72.9497715699999,-37.1669096100913],[-72.9485719689999,-37.1675762330913]]]}},{"type":"Feature","properties":{"id":"8109011002013","commune":"Santa Juana","code":"08109","gse":"D","quintil":"Q2","nse_score":676.0,"educ":10.4,"educ_score":493.3,"hacin":1.217,"hacin_class":"Hacinamiento Leve","hacin_score":804.8,"auto_score":0.0,"n_per":112,"n_hog":42,"source_year":2024},"geometry":{"type":"Polygon","coordinates":[[[-72.9431428959999,-37.1683118500913],[-72.9425252859999,-37.1690438760913],[-72.9422995129999,-37.1695908350913],[-72.943633959,-37.1708937650913],[-72.9448972559999,-37.1699872130913],[-72.9445995789999,-37.1696678690913],[-72.9449177559999,-37.1699538620913],[-72.9451862079999,-37.1697806110913],[-72.9437242139999,-37.1709544550913],[-72.9441730879999,-37.1714172020913],[-72.9465597249999,-37.1699306960913],[-72.9460252679999,-37.1689308550913],[-72.9463178529999,-37.1692470430913],[-72.9466170519999,-37.1698806780913],[-72.9475150379999,-37.1693457520913],[-72.9469053849999,-37.1684608750913],[-72.9467249439999,-37.1684118730913],[-72.9468465939999,-37.1682945650913],[-72.9462007029999,-37.1673802160913],[-72.9431428959999,-37.1683118500913]]]}},{"type":"Feature","properties":{"id":"8109011002014","commune":"Santa Juana","code":"08109","gse":"C3","quintil":"Q3","nse_score":726.5,"educ":12.6,"educ_score":640.0,"hacin":1.274,"hacin_class":"Hacinamiento Leve","hacin_score":792.7,"auto_score":51.0,"n_per":130,"n_hog":46,"source_year":2024},"geometry":{"type":"Polygon","coordinates":[[[-72.9404859209999,-37.1688201620913],[-72.9405295669999,-37.1695894240913],[-72.9407612979999,-37.1692756690913],[-72.9405514849999,-37.1696615460913],[-72.9405414539999,-37.1699729360913],[-72.9396177909999,-37.1708348050913],[-72.9401156769999,-37.1713172790913],[-72.9404750689999,-37.1713302930913],[-72.9406343449999,-37.1714959860913],[-72.9404370479999,-37.1713576820913],[-72.9400859749999,-37.1713447350913],[-72.9395867709999,-37.1708613460913],[-72.9389565259999,-37.1714282090913],[-72.9399987139999,-37.1725945420913],[-72.9408684249999,-37.1720619180913],[-72.9406357169999,-37.1717790040912],[-72.9409029089999,-37.1720387260913],[-72.9411596309999,-37.1719397740913],[-72.9415569949999,-37.1723123210913],[-72.9417537609999,-37.1721915470913],[-72.9415837289999,-37.1723398230913],[-72.9417826119999,-37.1725353370913],[-72.9420920019999,-37.1723482040913],[-72.9418189939999,-37.1725684150913],[-72.9420716419999,-37.1727748670913],[-72.9441002229999,-37.1714586570913],[-72.9436885609999,-37.1710274690913],[-72.9435094209999,-37.1710798760913],[-72.9436427179999,-37.1709902620913],[-72.9422995129999,-37.1695908350913],[-72.9425252859999,-37.1690438760913],[-72.9431428959999,-37.1683118500913],[-72.9410660229999,-37.1684965110913],[-72.9404859209999,-37.1688201620913]]]}},{"type":"Feature","properties":{"id":"8109011002015","commune":"Santa Juana","code":"08109","gse":"C1","quintil":"Q5","nse_score":810.8,"educ":13.7,"educ_score":713.3,"hacin":1.154,"hacin_class":"Hacinamiento Leve","hacin_score":818.3,"auto_score":0.0,"n_per":15,"n_hog":5,"source_year":2024},"geometry":{"type":"Polygon","coordinates":[[[-72.9367560449999,-37.1715183170913],[-72.9380076329999,-37.1725110490913],[-72.9382558219999,-37.1719985880913],[-72.9388462669999,-37.1714292180913],[-72.9381135059999,-37.1710661060913],[-72.9377902169999,-37.1712866900913],[-72.9367560449999,-37.1715183170913]]]}},{"type":"Feature","properties":{"id":"8109011002016","commune":"Santa Juana","code":"08109","gse":"C2","quintil":"Q4","nse_score":760.0,"educ":13.4,"educ_score":693.3,"hacin":1.13,"hacin_class":"Hacinamiento Leve","hacin_score":823.3,"auto_score":178.6,"n_per":26,"n_hog":13,"source_year":2024},"geometry":{"type":"Polygon","coordinates":[[[-72.9388959739999,-37.1733664820913],[-72.9399551929999,-37.1726419120913],[-72.9388524739999,-37.1714940830913],[-72.9383027029999,-37.1720223860913],[-72.9380719669999,-37.1725681370913],[-72.9388959739999,-37.1733664820913]]]}},{"type":"Feature","properties":{"id":"8109011002017","commune":"Santa Juana","code":"08109","gse":"E","quintil":"Q1","nse_score":610.0,"educ":9.9,"educ_score":460.0,"hacin":1.348,"hacin_class":"Hacinamiento Leve","hacin_score":777.1,"auto_score":35.7,"n_per":31,"n_hog":13,"source_year":2024},"geometry":{"type":"Polygon","coordinates":[[[-72.9379274369999,-37.1725693160913],[-72.9367560449999,-37.1715183170913],[-72.9365518459999,-37.1716995290913],[-72.9354330109999,-37.1718598350913],[-72.9343306149999,-37.1725745980913],[-72.933590535,-37.1727076920913],[-72.9336155109999,-37.1728699040913],[-72.933413174,-37.1730953830912],[-72.933091353,-37.1731343800913],[-72.9330499349999,-37.1732986770913],[-72.9327275909999,-37.1733694850913],[-72.9327227189999,-37.1736049300913],[-72.9335657429999,-37.1734771140913],[-72.9341417049999,-37.1735518710912],[-72.934938428,-37.1733117900913],[-72.935743666,-37.1739587790912],[-72.9368041339999,-37.1732849100913],[-72.9365232739999,-37.1729278060913],[-72.9368980119999,-37.1732288650913],[-72.9379274369999,-37.1725693160913]]]}},{"type":"Feature","properties":{"id":"8109011002018","commune":"Santa Juana","code":"08109","gse":"C3","quintil":"Q3","nse_score":720.9,"educ":11.7,"educ_score":580.0,"hacin":1.303,"hacin_class":"Hacinamiento Leve","hacin_score":786.6,"auto_score":88.2,"n_per":43,"n_hog":17,"source_year":2024},"geometry":{"type":"Polygon","coordinates":[[[-72.9409466139999,-37.1735013760913],[-72.9419829629999,-37.1728262300913],[-72.9411067629999,-37.1719830170913],[-72.9400886719999,-37.1726619880913],[-72.9409466139999,-37.1735013760913]]]}},{"type":"Feature","properties":{"id":"8109011002019","commune":"Santa Juana","code":"08109","gse":"C3","quintil":"Q3","nse_score":707.2,"educ":11.2,"educ_score":546.7,"hacin":1.387,"hacin_class":"Hacinamiento Leve","hacin_score":768.7,"auto_score":78.9,"n_per":43,"n_hog":19,"source_year":2024},"geometry":{"type":"Polygon","coordinates":[[[-72.942120127,-37.1728765600913],[-72.9429995079999,-37.1737071130912],[-72.9440361089999,-37.1730262750913],[-72.9431368219999,-37.1721696080913],[-72.942120127,-37.1728765600913]]]}},{"type":"Feature","properties":{"id":"8109011002020","commune":"Santa Juana","code":"08109","gse":"C1","quintil":"Q5","nse_score":822.8,"educ":14.8,"educ_score":786.7,"hacin":0.87,"hacin_class":"Sin Hacinamiento","hacin_score":878.8,"auto_score":166.7,"n_per":20,"n_hog":9,"source_year":2024},"geometry":{"type":"Polygon","coordinates":[[[-72.9369417389999,-37.1733065040913],[-72.9377958059999,-37.1740968190913],[-72.938272374,-37.1737969750913],[-72.9380301369999,-37.1734273890913],[-72.9383104209999,-37.1737769990912],[-72.9388231749999,-37.1734094670913],[-72.9379795519999,-37.1726201530913],[-72.9369417389999,-37.1733065040913]]]}},{"type":"Feature","properties":{"id":"8109011002021","commune":"Santa Juana","code":"08109","gse":"C3","quintil":"Q3","nse_score":725.9,"educ":12.7,"educ_score":646.7,"hacin":1.359,"hacin_class":"Hacinamiento Leve","hacin_score":774.7,"auto_score":65.2,"n_per":53,"n_hog":21,"source_year":2024},"geometry":{"type":"Polygon","coordinates":[[[-72.9398307539999,-37.1742544410913],[-72.9408732409999,-37.1735530950913],[-72.9400158059999,-37.1727157880913],[-72.9389620149999,-37.1734188230913],[-72.9398307539999,-37.1742544410913]]]}},{"type":"Feature","properties":{"id":"8109011002022","commune":"Santa Juana","code":"08109","gse":"C2","quintil":"Q4","nse_score":755.6,"educ":13.3,"educ_score":686.7,"hacin":1.383,"hacin_class":"Hacinamiento Leve","hacin_score":769.6,"auto_score":38.5,"n_per":65,"n_hog":26,"source_year":2024},"geometry":{"type":"Polygon","coordinates":[[[-72.9418840629999,-37.1744330770913],[-72.9429286269999,-37.1737417520913],[-72.9420451739999,-37.1728869740913],[-72.9410153019999,-37.1735807100913],[-72.9418840629999,-37.1744330770913]]]}},{"type":"Feature","properties":{"id":"8109011002023","commune":"Santa Juana","code":"08109","gse":"D","quintil":"Q2","nse_score":667.7,"educ":11.0,"educ_score":533.3,"hacin":1.554,"hacin_class":"Hacinamiento Medio","hacin_score":733.2,"auto_score":140.6,"n_per":115,"n_hog":33,"source_year":2024},"geometry":{"type":"Polygon","coordinates":[[[-72.9438959659999,-37.1745897790912],[-72.9449434269999,-37.1739281380913],[-72.9440907149999,-37.1730850840913],[-72.9430598939999,-37.1737562890913],[-72.9438959659999,-37.1745897790912]]]}},{"type":"Feature","properties":{"id":"8109011002024","commune":"Santa Juana","code":"08109","gse":"C2","quintil":"Q4","nse_score":766.1,"educ":12.7,"educ_score":646.7,"hacin":0.967,"hacin_class":"Sin Hacinamiento","hacin_score":858.2,"auto_score":0.0,"n_per":29,"n_hog":14,"source_year":2024},"geometry":{"type":"Polygon","coordinates":[[[-72.9366793039999,-37.1748389370913],[-72.9377230109999,-37.1741396230912],[-72.9368752739999,-37.1733153500913],[-72.9358094869999,-37.1739984100913],[-72.9366793039999,-37.1748389370913]]]}},{"type":"Feature","properties":{"id":"8109011002025","commune":"Santa Juana","code":"08109","gse":"C3","quintil":"Q2","nse_score":699.7,"educ":12.0,"educ_score":600.0,"hacin":1.147,"hacin_class":"Hacinamiento Leve","hacin_score":819.7,"auto_score":120.7,"n_per":70,"n_hog":29,"source_year":2024},"geometry":{"type":"Polygon","coordinates":[[[-72.9349574689999,-37.1733735880913],[-72.9327308879999,-37.1740255470912],[-72.9327152729999,-37.1747745840912],[-72.9324874709999,-37.1751954160913],[-72.9327810809999,-37.1753749130912],[-72.9339752239999,-37.1773780060912],[-72.9344684259999,-37.1776521230912],[-72.9343722919999,-37.1790130020912],[-72.9352761289999,-37.1774065680912],[-72.9364800579999,-37.1765156800913],[-72.9346074849999,-37.1747693910912],[-72.9351286989999,-37.1743567800912],[-72.9350066229999,-37.1742198240912],[-72.9351824429999,-37.1743270750913],[-72.9356519729999,-37.1739841290913],[-72.9349574689999,-37.1733735880913]]]}},{"type":"Feature","properties":{"id":"8109011002026","commune":"Santa Juana","code":"08109","gse":"C2","quintil":"Q4","nse_score":762.1,"educ":12.8,"educ_score":653.3,"hacin":1.0,"hacin_class":"Hacinamiento Leve","hacin_score":851.1,"auto_score":45.5,"n_per":26,"n_hog":13,"source_year":2024},"geometry":{"type":"Polygon","coordinates":[[[-72.9387351149999,-37.1749672010913],[-72.9397541479999,-37.1743049310913],[-72.9388974709999,-37.1734771830913],[-72.9378785149999,-37.1741699090913],[-72.9387351149999,-37.1749672010913]]]}},{"type":"Feature","properties":{"id":"8109011002028","commune":"Santa Juana","code":"08109","gse":"C3","quintil":"Q3","nse_score":715.8,"educ":12.4,"educ_score":626.7,"hacin":1.474,"hacin_class":"Hacinamiento Leve","hacin_score":750.3,"auto_score":0.0,"n_per":28,"n_hog":11,"source_year":2024},"geometry":{"type":"Polygon","coordinates":[[[-72.9407688509999,-37.1751662440913],[-72.9418185749999,-37.1744847530913],[-72.9409406519999,-37.1736255560913],[-72.9398978879999,-37.1743205000913],[-72.9407688509999,-37.1751662440913]]]}},{"type":"Feature","properties":{"id":"8109011002029","commune":"Santa Juana","code":"08109","gse":"C3","quintil":"Q3","nse_score":731.8,"educ":12.2,"educ_score":613.3,"hacin":1.208,"hacin_class":"Hacinamiento Leve","hacin_score":806.7,"auto_score":222.2,"n_per":58,"n_hog":19,"source_year":2024},"geometry":{"type":"Polygon","coordinates":[[[-72.9427833129999,-37.1753205760912],[-72.9438342409999,-37.1746356630913],[-72.9429859839999,-37.1738112440912],[-72.9419512449999,-37.1744891310912],[-72.9427833129999,-37.1753205760912]]]}},{"type":"Feature","properties":{"id":"8109011002030","commune":"Santa Juana","code":"08109","gse":"C3","quintil":"Q3","nse_score":726.3,"educ":11.8,"educ_score":586.7,"hacin":1.255,"hacin_class":"Hacinamiento Leve","hacin_score":796.7,"auto_score":394.7,"n_per":59,"n_hog":19,"source_year":2024},"geometry":{"type":"Polygon","coordinates":[[[-72.9439866339999,-37.1747018470912],[-72.9443384709999,-37.1750431320912],[-72.9446155019999,-37.1748615590913],[-72.944367757,-37.1750804110913],[-72.9445588469999,-37.1752564990912],[-72.9448302159999,-37.1750802350913],[-72.9445925949999,-37.1752870960912],[-72.9447961099999,-37.1754701590912],[-72.9458045659999,-37.1748017050913],[-72.9449944559999,-37.1739735450913],[-72.9439866339999,-37.1747018470912]]]}},{"type":"Feature","properties":{"id":"8109011002031","commune":"Santa Juana","code":"08109","gse":"C2","quintil":"Q4","nse_score":777.8,"educ":13.3,"educ_score":686.7,"hacin":1.106,"hacin_class":"Hacinamiento Leve","hacin_score":828.4,"auto_score":68.2,"n_per":52,"n_hog":22,"source_year":2024},"geometry":{"type":"Polygon","coordinates":[[[-72.9355563779999,-37.1755679540912],[-72.936595296,-37.1748922700912],[-72.9357354919999,-37.1740521870912],[-72.9346836289999,-37.1747401660913],[-72.9355563779999,-37.1755679540912]]]}},{"type":"Feature","properties":{"id":"8109011002033","commune":"Santa Juana","code":"08109","gse":"C2","quintil":"Q4","nse_score":787.5,"educ":13.8,"educ_score":720.0,"hacin":1.875,"hacin_class":"Hacinamiento Medio","hacin_score":664.9,"auto_score":0.0,"n_per":15,"n_hog":4,"source_year":2024},"geometry":{"type":"Polygon","coordinates":[[[-72.9397022339999,-37.1758677100912],[-72.9406932599999,-37.1752166620913],[-72.9398181099999,-37.1743716550913],[-72.9388242519999,-37.1750400410912],[-72.9397022339999,-37.1758677100912]]]}},{"type":"Feature","properties":{"id":"8109011002034","commune":"Santa Juana","code":"08109","gse":"C3","quintil":"Q3","nse_score":722.7,"educ":12.7,"educ_score":646.7,"hacin":1.212,"hacin_class":"Hacinamiento Leve","hacin_score":805.9,"auto_score":194.4,"n_per":40,"n_hog":17,"source_year":2024},"geometry":{"type":"Polygon","coordinates":[[[-72.9416585829999,-37.1760556590912],[-72.9427250489999,-37.1753633650913],[-72.9418856029999,-37.1745340450912],[-72.9408247259999,-37.1752321960913],[-72.9416585829999,-37.1760556590912]]]}},{"type":"Feature","properties":{"id":"8109011002035","commune":"Santa Juana","code":"08109","gse":"C3","quintil":"Q2","nse_score":705.5,"educ":11.3,"educ_score":553.3,"hacin":1.229,"hacin_class":"Hacinamiento Leve","hacin_score":802.3,"auto_score":130.4,"n_per":59,"n_hog":22,"source_year":2024},"geometry":{"type":"Polygon","coordinates":[[[-72.9436893049999,-37.1762177390912],[-72.9447380549999,-37.1755302570912],[-72.9439074579999,-37.1747059700912],[-72.942863654,-37.1753856910912],[-72.9436893049999,-37.1762177390912]]]}},{"type":"Feature","properties":{"id":"8109011002036","commune":"Santa Juana","code":"08109","gse":"C3","quintil":"Q2","nse_score":701.0,"educ":11.6,"educ_score":573.3,"hacin":1.308,"hacin_class":"Hacinamiento Leve","hacin_score":785.6,"auto_score":240.0,"n_per":68,"n_hog":25,"source_year":2024},"geometry":{"type":"Polygon","coordinates":[[[-72.9457494789999,-37.1763905690912],[-72.9467534199999,-37.1757309520912],[-72.9458890519999,-37.1748885190912],[-72.9448815469999,-37.1755550980913],[-72.9457494789999,-37.1763905690912]]]}},{"type":"Feature","properties":{"id":"8109011002037","commune":"Santa Juana","code":"08109","gse":"C2","quintil":"Q4","nse_score":781.1,"educ":13.7,"educ_score":713.3,"hacin":0.976,"hacin_class":"Sin Hacinamiento","hacin_score":856.3,"auto_score":27.8,"n_per":40,"n_hog":19,"source_year":2024},"geometry":{"type":"Polygon","coordinates":[[[-72.9356601129999,-37.1756795350912],[-72.9360620459999,-37.1760328930913],[-72.9364575309999,-37.1757830160913],[-72.9360995689999,-37.1760653610912],[-72.9365438889999,-37.1764671320912],[-72.9375545669999,-37.1757697680913],[-72.9366663409999,-37.1749593900912],[-72.9356601129999,-37.1756795350912]]]}},{"type":"Feature","properties":{"id":"8109011002038","commune":"Santa Juana","code":"08109","gse":"C2","quintil":"Q4","nse_score":776.2,"educ":12.6,"educ_score":640.0,"hacin":0.839,"hacin_class":"Sin Hacinamiento","hacin_score":885.4,"auto_score":45.5,"n_per":26,"n_hog":11,"source_year":2024},"geometry":{"type":"Polygon","coordinates":[[[-72.9385730569999,-37.1766158440913],[-72.939616972,-37.1759216540912],[-72.9387337619999,-37.1750874050913],[-72.9376980209999,-37.1757793860912],[-72.9385730569999,-37.1766158440913]]]}},{"type":"Feature","properties":{"id":"8109011002039","commune":"Santa Juana","code":"08109","gse":"C2","quintil":"Q3","nse_score":739.5,"educ":11.5,"educ_score":566.7,"hacin":1.079,"hacin_class":"Hacinamiento Leve","hacin_score":834.3,"auto_score":93.8,"n_per":41,"n_hog":16,"source_year":2024},"geometry":{"type":"Polygon","coordinates":[[[-72.9406239109999,-37.1767502080912],[-72.9416002969999,-37.1760992580913],[-72.9407493969999,-37.1752729750912],[-72.9397598319999,-37.1759241390913],[-72.9406239109999,-37.1767502080912]]]}},{"type":"Feature","properties":{"id":"8109011002040","commune":"Santa Juana","code":"08109","gse":"D","quintil":"Q2","nse_score":687.1,"educ":11.4,"educ_score":560.0,"hacin":1.163,"hacin_class":"Hacinamiento Leve","hacin_score":816.4,"auto_score":113.6,"n_per":50,"n_hog":22,"source_year":2024},"geometry":{"type":"Polygon","coordinates":[[[-72.9425932779999,-37.1769616210912],[-72.9436324659999,-37.1762619950912],[-72.9428048319999,-37.1754407270913],[-72.9417433849999,-37.1761182380913],[-72.9425932779999,-37.1769616210912]]]}},{"type":"Feature","properties":{"id":"8109011002041","commune":"Santa Juana","code":"08109","gse":"C3","quintil":"Q2","nse_score":691.8,"educ":10.8,"educ_score":520.0,"hacin":1.031,"hacin_class":"Hacinamiento Leve","hacin_score":844.4,"auto_score":87.0,"n_per":66,"n_hog":23,"source_year":2024},"geometry":{"type":"Polygon","coordinates":[[[-72.9446225949999,-37.1771224890912],[-72.945681782,-37.1764365310912],[-72.9448018309999,-37.1755915670912],[-72.9437670899999,-37.1762774910912],[-72.9446225949999,-37.1771224890912]]]}},{"type":"Feature","properties":{"id":"8109011002042","commune":"Santa Juana","code":"08109","gse":"E","quintil":"Q1","nse_score":600.6,"educ":9.9,"educ_score":460.0,"hacin":1.278,"hacin_class":"Hacinamiento Leve","hacin_score":792.0,"auto_score":105.3,"n_per":46,"n_hog":18,"source_year":2024},"geometry":{"type":"Polygon","coordinates":[[[-72.9466573979999,-37.1772682760912],[-72.9476744989999,-37.1765803090912],[-72.9468309719999,-37.1757869120912],[-72.9458208489999,-37.1764502090912],[-72.9466573979999,-37.1772682760912]]]}},{"type":"Feature","properties":{"id":"8109011002043","commune":"Santa Juana","code":"08109","gse":"D","quintil":"Q1","nse_score":637.3,"educ":13.5,"educ_score":700.0,"hacin":1.417,"hacin_class":"Hacinamiento Leve","hacin_score":762.4,"auto_score":0.0,"n_per":17,"n_hog":6,"source_year":2024},"geometry":{"type":"Polygon","coordinates":[[[-72.9375064929999,-37.1773055750912],[-72.9384823039999,-37.1766687010912],[-72.9376098499999,-37.1758491400913],[-72.9366083659999,-37.1765231420912],[-72.9375064929999,-37.1773055750912]]]}},{"type":"Feature","properties":{"id":"8109011002044","commune":"Santa Juana","code":"08109","gse":"C2","quintil":"Q4","nse_score":768.4,"educ":13.2,"educ_score":680.0,"hacin":1.053,"hacin_class":"Hacinamiento Leve","hacin_score":839.9,"auto_score":222.2,"n_per":40,"n_hog":19,"source_year":2024},"geometry":{"type":"Polygon","coordinates":[[[-72.9394995799999,-37.1774897830912],[-72.940539268,-37.1768062370912],[-72.9396755189999,-37.1759804440913],[-72.9386366799999,-37.1766619240912],[-72.9394995799999,-37.1774897830912]]]}},{"type":"Feature","properties":{"id":"8109011002045","commune":"Santa Juana","code":"08109","gse":"D","quintil":"Q1","nse_score":659.7,"educ":10.2,"educ_score":480.0,"hacin":1.458,"hacin_class":"Hacinamiento Leve","hacin_score":753.5,"auto_score":0.0,"n_per":35,"n_hog":12,"source_year":2024},"geometry":{"type":"Polygon","coordinates":[[[-72.9415595799999,-37.1776408730912],[-72.9425415229999,-37.1770010980912],[-72.9416621789999,-37.1761638730912],[-72.9407003359999,-37.1768143550912],[-72.9415595799999,-37.1776408730912]]]}},{"type":"Feature","properties":{"id":"8109011002046","commune":"Santa Juana","code":"08109","gse":"C3","quintil":"Q3","nse_score":722.1,"educ":11.5,"educ_score":566.7,"hacin":1.118,"hacin_class":"Hacinamiento Leve","hacin_score":826.0,"auto_score":95.2,"n_per":57,"n_hog":21,"source_year":2024},"geometry":{"type":"Polygon","coordinates":[[[-72.9437213319999,-37.1763284290913],[-72.9426512709999,-37.1770368010912],[-72.9434955149999,-37.1778566470912],[-72.9445696539999,-37.1771766370912],[-72.9440869699999,-37.1766759920912],[-72.943861835,-37.1767876260913],[-72.9440611829999,-37.1766508500912],[-72.9437213319999,-37.1763284290913]]]}},{"type":"Feature","properties":{"id":"8109011002047","commune":"Santa Juana","code":"08109","gse":"C3","quintil":"Q3","nse_score":732.4,"educ":11.9,"educ_score":593.3,"hacin":1.022,"hacin_class":"Hacinamiento Leve","hacin_score":846.3,"auto_score":117.6,"n_per":46,"n_hog":17,"source_year":2024},"geometry":{"type":"Polygon","coordinates":[[[-72.9462258609999,-37.1775461260912],[-72.9465595999999,-37.1772861380912],[-72.9457433219999,-37.1765097890913],[-72.9446994289999,-37.1771799700912],[-72.945230868,-37.1776938960912],[-72.9461842859999,-37.1775710820912],[-72.9459143259999,-37.1772347420912],[-72.9462258609999,-37.1775461260912]]]}},{"type":"Feature","properties":{"id":"8109011002048","commune":"Santa Juana","code":"08109","gse":"C3","quintil":"Q3","nse_score":712.4,"educ":11.2,"educ_score":546.7,"hacin":1.165,"hacin_class":"Hacinamiento Leve","hacin_score":815.9,"auto_score":234.0,"n_per":120,"n_hog":49,"source_year":2024},"geometry":{"type":"Polygon","coordinates":[[[-72.9353239099999,-37.1774710520912],[-72.9340443549999,-37.1799588650912],[-72.9346329589999,-37.1805780010912],[-72.9352113509999,-37.1809249210912],[-72.9352904989999,-37.1812114700912],[-72.9363627039999,-37.1812879790912],[-72.9372904949999,-37.1817136410912],[-72.9377003989999,-37.1817626390912],[-72.9388140979999,-37.1812193340912],[-72.9385615469999,-37.1807020330912],[-72.938722734,-37.1804781730912],[-72.9400939399999,-37.1797911170912],[-72.9389014519999,-37.1786644390912],[-72.9385667119999,-37.1788796020912],[-72.9388397269999,-37.1785899120912],[-72.938468096,-37.1782727810912],[-72.9382486529999,-37.1783858550912],[-72.9384242249999,-37.1782168610912],[-72.9374021609999,-37.1773399880912],[-72.9370277009999,-37.1775661710913],[-72.9373520109999,-37.1772872020912],[-72.9365632369999,-37.1765880580912],[-72.9353239099999,-37.1774710520912]]]}},{"type":"Feature","properties":{"id":"8109011002049","commune":"Santa Juana","code":"08109","gse":"C3","quintil":"Q3","nse_score":734.4,"educ":12.9,"educ_score":660.0,"hacin":1.323,"hacin_class":"Hacinamiento Leve","hacin_score":782.2,"auto_score":71.4,"n_per":45,"n_hog":14,"source_year":2024},"geometry":{"type":"Polygon","coordinates":[[[-72.9376062959999,-37.1774128500912],[-72.9384830929999,-37.1781520030912],[-72.9394111569999,-37.1775439420912],[-72.9390944929999,-37.1772392150912],[-72.9386691429999,-37.1775017180912],[-72.9390673909999,-37.1772044960912],[-72.9385382369999,-37.1767242000913],[-72.9376062959999,-37.1774128500912]]]}},{"type":"Feature","properties":{"id":"8109011002050","commune":"Santa Juana","code":"08109","gse":"C3","quintil":"Q2","nse_score":693.0,"educ":10.8,"educ_score":520.0,"hacin":1.188,"hacin_class":"Hacinamiento Leve","hacin_score":811.2,"auto_score":125.0,"n_per":38,"n_hog":16,"source_year":2024},"geometry":{"type":"Polygon","coordinates":[[[-72.9404386259999,-37.1783761890912],[-72.9414794149999,-37.1776937360912],[-72.9406085389999,-37.1768725120912],[-72.9395610749999,-37.1775479020912],[-72.9404386259999,-37.1783761890912]]]}},{"type":"Feature","properties":{"id":"8109011002051","commune":"Santa Juana","code":"08109","gse":"D","quintil":"Q2","nse_score":666.8,"educ":11.3,"educ_score":553.3,"hacin":1.237,"hacin_class":"Hacinamiento Leve","hacin_score":800.7,"auto_score":78.9,"n_per":47,"n_hog":19,"source_year":2024},"geometry":{"type":"Polygon","coordinates":[[[-72.9424767519999,-37.1785124630912],[-72.9434308149999,-37.1778958100912],[-72.9425881689999,-37.1770668890912],[-72.9416301119999,-37.1777022130912],[-72.9424767519999,-37.1785124630912]]]}},{"type":"Feature","properties":{"id":"8109011002052","commune":"Santa Juana","code":"08109","gse":"C3","quintil":"Q3","nse_score":729.2,"educ":11.6,"educ_score":573.3,"hacin":1.106,"hacin_class":"Hacinamiento Leve","hacin_score":828.5,"auto_score":184.2,"n_per":198,"n_hog":76,"source_year":2024},"geometry":{"type":"Polygon","coordinates":[[[-72.9446337709999,-37.1772254260912],[-72.9428018669999,-37.1784108610912],[-72.9434507209999,-37.1790722970912],[-72.9427573939999,-37.1784309980913],[-72.9414301239999,-37.1793020740912],[-72.9416150129999,-37.1796402850912],[-72.9423141219999,-37.1795206690912],[-72.942696753,-37.1801887490912],[-72.9430820729999,-37.1800894530912],[-72.9427203139999,-37.1802212430912],[-72.9429320629999,-37.1805702820912],[-72.9428704339999,-37.1805916530912],[-72.9422845799999,-37.1795467430912],[-72.9416213489999,-37.1796932090912],[-72.9418484439999,-37.1805680400912],[-72.9420114749999,-37.1805622210912],[-72.9418587619999,-37.1806360840912],[-72.9419844479999,-37.1810973690912],[-72.9426728339999,-37.1809582770912],[-72.9419781399999,-37.1811471890912],[-72.9421219249999,-37.1816347440912],[-72.9425582829999,-37.1815476930912],[-72.9421189549999,-37.1816860640912],[-72.9426494889999,-37.1834459730912],[-72.9428587029999,-37.1834071570912],[-72.9440834459999,-37.1821444930912],[-72.9468618079999,-37.1803349260912],[-72.946565646,-37.1798788920912],[-72.9469091079999,-37.1802769840912],[-72.9473327229999,-37.1800235930912],[-72.9459124379999,-37.1777302320912],[-72.9451644279999,-37.1777848520912],[-72.9446337709999,-37.1772254260912]]]}},{"type":"Feature","properties":{"id":"8109011002054","commune":"Santa Juana","code":"08109","gse":"C3","quintil":"Q2","nse_score":700.8,"educ":11.4,"educ_score":560.0,"hacin":1.186,"hacin_class":"Hacinamiento Leve","hacin_score":811.5,"auto_score":277.8,"n_per":51,"n_hog":20,"source_year":2024},"geometry":{"type":"Polygon","coordinates":[[[-72.9394439459999,-37.1790523160912],[-72.940366546,-37.1784257670912],[-72.9394716259999,-37.1775983490912],[-72.9385378959999,-37.1782159550912],[-72.9394439459999,-37.1790523160912]]]}},{"type":"Feature","properties":{"id":"8109011002056","commune":"Santa Juana","code":"08109","gse":"C2","quintil":"Q4","nse_score":748.4,"educ":11.8,"educ_score":586.7,"hacin":0.98,"hacin_class":"Sin Hacinamiento","hacin_score":855.3,"auto_score":142.9,"n_per":49,"n_hog":21,"source_year":2024},"geometry":{"type":"Polygon","coordinates":[[[-72.9413512419999,-37.1792453660912],[-72.9424186089999,-37.1785590400912],[-72.9415427369999,-37.1777509840912],[-72.9404979129999,-37.1784493210912],[-72.9413512419999,-37.1792453660912]]]}},{"type":"Feature","properties":{"id":"8109011002057","commune":"Santa Juana","code":"08109","gse":"C2","quintil":"Q4","nse_score":761.1,"educ":12.2,"educ_score":613.3,"hacin":1.266,"hacin_class":"Hacinamiento Leve","hacin_score":794.5,"auto_score":64.5,"n_per":100,"n_hog":31,"source_year":2024},"geometry":{"type":"Polygon","coordinates":[[[-72.9418258109999,-37.1811736520912],[-72.9414624269999,-37.1795064030912],[-72.9407622979999,-37.1787923400912],[-72.9404061059999,-37.1784994570912],[-72.9395357459999,-37.1790812210912],[-72.9418258109999,-37.1811736520912]]]}},{"type":"Feature","properties":{"id":"8109011002059","commune":"Santa Juana","code":"08109","gse":"D","quintil":"Q2","nse_score":672.1,"educ":10.2,"educ_score":480.0,"hacin":1.256,"hacin_class":"Hacinamiento Leve","hacin_score":796.5,"auto_score":147.1,"n_per":49,"n_hog":17,"source_year":2024},"geometry":{"type":"Polygon","coordinates":[[[-72.9382793569999,-37.1814556970912],[-72.9409793609999,-37.1837835570911],[-72.9409253089999,-37.1858802070912],[-72.9413444959999,-37.1857541260912],[-72.9422135759999,-37.1848111030912],[-72.9425951569999,-37.1841323270912],[-72.9421292769999,-37.1820527840912],[-72.9419207579999,-37.1820619590912],[-72.9421243829999,-37.1820048420912],[-72.9419626609999,-37.1813896280912],[-72.94144904,-37.1809951440912],[-72.941309224,-37.1812328090912],[-72.9414270539999,-37.1816929660912],[-72.941275361,-37.1817955060912],[-72.9404834689999,-37.1815357850912],[-72.9400779499999,-37.1810182610912],[-72.9398536529999,-37.1809200880912],[-72.9382793569999,-37.1814556970912]]]}},{"type":"Feature","properties":{"id":"8109011002053","commune":"Santa Juana","code":"08109","gse":"C3","quintil":"Q3","nse_score":716.2,"educ":12.0,"educ_score":600.0,"hacin":1.034,"hacin_class":"Hacinamiento Leve","hacin_score":843.7,"auto_score":115.4,"n_per":30,"n_hog":13,"source_year":2024},"geometry":{"type":"MultiPolygon","coordinates":[[[[-72.9459787329999,-37.1777393770913],[-72.9473840199999,-37.1799885210912],[-72.9490891489999,-37.1789250140912],[-72.9484373159999,-37.1784634560912],[-72.9464933809999,-37.1778712850912],[-72.9467562639999,-37.1783412950912],[-72.9464479809999,-37.1778597480912],[-72.9459787329999,-37.1777393770913]]],[[[-72.9460226909999,-37.1777173510912],[-72.9473682409999,-37.1780465330912],[-72.9466381839999,-37.1773830340912],[-72.9460226909999,-37.1777173510912]]]]}},{"type":"Feature","properties":{"id":"8109011003003","commune":"Santa Juana","code":"08109","gse":"C1","quintil":"Q5","nse_score":808.4,"educ":14.1,"educ_score":740.0,"hacin":1.343,"hacin_class":"Hacinamiento Leve","hacin_score":778.1,"auto_score":157.9,"n_per":47,"n_hog":18,"source_year":2024},"geometry":{"type":"Polygon","coordinates":[[[-72.9552310679999,-37.1664573710913],[-72.9554251539999,-37.1664669870913],[-72.9552416139999,-37.1664938550913],[-72.9554882319999,-37.1671693420913],[-72.9556870659999,-37.1671008570913],[-72.9557965209999,-37.1672816960913],[-72.9560766469999,-37.1705218140913],[-72.9562711639999,-37.1705246790913],[-72.9563492929999,-37.1704422100913],[-72.9559663329999,-37.1653236490914],[-72.9558099389999,-37.1645284710913],[-72.9554772469999,-37.1646090700913],[-72.9538248719999,-37.1656153320913],[-72.9542132189999,-37.1669683270913],[-72.9552310679999,-37.1664573710913]]]}},{"type":"Feature","properties":{"id":"8109011003004","commune":"Santa Juana","code":"08109","gse":"C2","quintil":"Q4","nse_score":765.2,"educ":13.4,"educ_score":693.3,"hacin":1.367,"hacin_class":"Hacinamiento Leve","hacin_score":773.0,"auto_score":420.0,"n_per":82,"n_hog":25,"source_year":2024},"geometry":{"type":"Polygon","coordinates":[[[-72.952589713,-37.1663654650913],[-72.9533018139999,-37.1683291270913],[-72.9535434939999,-37.1681666790913],[-72.9532964289999,-37.1674555220913],[-72.9541990719999,-37.1672004520913],[-72.9537559809999,-37.1656567310913],[-72.952589713,-37.1663654650913]]]}},{"type":"Feature","properties":{"id":"8109011003006","commune":"Santa Juana","code":"08109","gse":"C1","quintil":"Q5","nse_score":826.8,"educ":15.0,"educ_score":800.0,"hacin":1.447,"hacin_class":"Hacinamiento Leve","hacin_score":755.9,"auto_score":100.0,"n_per":55,"n_hog":20,"source_year":2024},"geometry":{"type":"Polygon","coordinates":[[[-72.9542256049999,-37.1670114760913],[-72.9543170129999,-37.1673299300913],[-72.9553144629999,-37.1668216850913],[-72.955199079,-37.1665056440913],[-72.9542256049999,-37.1670114760913]]]}},{"type":"Feature","properties":{"id":"8109011003007","commune":"Santa Juana","code":"08109","gse":"C2","quintil":"Q3","nse_score":743.2,"educ":12.3,"educ_score":620.0,"hacin":1.261,"hacin_class":"Hacinamiento Leve","hacin_score":795.6,"auto_score":65.2,"n_per":58,"n_hog":23,"source_year":2024},"geometry":{"type":"Polygon","coordinates":[[[-72.9543293799999,-37.1673730110913],[-72.9544236989999,-37.1677016070913],[-72.9554486219999,-37.1671891460913],[-72.9553296649999,-37.1668633220913],[-72.9543293799999,-37.1673730110913]]]}},{"type":"Feature","properties":{"id":"8109011003008","commune":"Santa Juana","code":"08109","gse":"D","quintil":"Q2","nse_score":684.0,"educ":10.8,"educ_score":520.0,"hacin":1.409,"hacin_class":"Hacinamiento Leve","hacin_score":764.0,"auto_score":138.3,"n_per":155,"n_hog":47,"source_year":2024},"geometry":{"type":"Polygon","coordinates":[[[-72.9554860969999,-37.1689106750913],[-72.9558299089999,-37.1687900480913],[-72.9556394769999,-37.1672245890913],[-72.9553069569999,-37.1674242990913],[-72.9554860969999,-37.1689106750913]]]}},{"type":"Feature","properties":{"id":"8109011003010","commune":"Santa Juana","code":"08109","gse":"C2","quintil":"Q4","nse_score":774.1,"educ":13.0,"educ_score":666.7,"hacin":1.229,"hacin_class":"Hacinamiento Leve","hacin_score":802.4,"auto_score":83.3,"n_per":43,"n_hog":18,"source_year":2024},"geometry":{"type":"Polygon","coordinates":[[[-72.9542586779999,-37.1674081090913],[-72.9534560869999,-37.1677980160913],[-72.9535823299999,-37.1681447370913],[-72.9543530609999,-37.1677369260913],[-72.9542586779999,-37.1674081090913]]]}},{"type":"Feature","properties":{"id":"8109011003011","commune":"Santa Juana","code":"08109","gse":"C2","quintil":"Q3","nse_score":740.7,"educ":12.5,"educ_score":633.3,"hacin":1.387,"hacin_class":"Hacinamiento Leve","hacin_score":768.8,"auto_score":108.1,"n_per":104,"n_hog":37,"source_year":2024},"geometry":{"type":"Polygon","coordinates":[[[-72.9550469909999,-37.1690005230913],[-72.9553793809999,-37.1689015170913],[-72.9551629869999,-37.1674393190913],[-72.9548728749999,-37.1676327050913],[-72.9550469909999,-37.1690005230913]]]}},{"type":"Feature","properties":{"id":"8109011003012","commune":"Santa Juana","code":"08109","gse":"C3","quintil":"Q2","nse_score":700.0,"educ":12.4,"educ_score":626.7,"hacin":1.438,"hacin_class":"Hacinamiento Leve","hacin_score":757.8,"auto_score":48.8,"n_per":105,"n_hog":37,"source_year":2024},"geometry":{"type":"Polygon","coordinates":[[[-72.9545889749999,-37.1690955030913],[-72.9549618319999,-37.1690085960913],[-72.9547638349999,-37.1676332850913],[-72.9544497459999,-37.1677950880913],[-72.9545889749999,-37.1690955030913]]]}},{"type":"Feature","properties":{"id":"8109011003013","commune":"Santa Juana","code":"08109","gse":"D","quintil":"Q1","nse_score":654.8,"educ":10.0,"educ_score":466.7,"hacin":1.583,"hacin_class":"Hacinamiento Medio","hacin_score":727.0,"auto_score":50.0,"n_per":38,"n_hog":10,"source_year":2024},"geometry":{"type":"Polygon","coordinates":[[[-72.9533729139999,-37.1683735770913],[-72.9543989849999,-37.1681615450913],[-72.9543654499999,-37.1678382420913],[-72.9542940669999,-37.1678382420913],[-72.9533729139999,-37.1683735770913]]]}},{"type":"Feature","properties":{"id":"8109011003014","commune":"Santa Juana","code":"08109","gse":"D","quintil":"Q2","nse_score":671.8,"educ":10.7,"educ_score":513.3,"hacin":1.464,"hacin_class":"Hacinamiento Leve","hacin_score":752.4,"auto_score":74.1,"n_per":101,"n_hog":27,"source_year":2024},"geometry":{"type":"Polygon","coordinates":[[[-72.9534105419999,-37.1684778230913],[-72.9535024269999,-37.1687323800913],[-72.9544280409999,-37.1684820670913],[-72.9544033189999,-37.1682093480913],[-72.9534105419999,-37.1684778230913]]]}},{"type":"Feature","properties":{"id":"8109011003015","commune":"Santa Juana","code":"08109","gse":"D","quintil":"Q2","nse_score":678.8,"educ":12.1,"educ_score":606.7,"hacin":1.3,"hacin_class":"Hacinamiento Leve","hacin_score":787.2,"auto_score":0.0,"n_per":26,"n_hog":10,"source_year":2024},"geometry":{"type":"Polygon","coordinates":[[[-72.9495223299999,-37.1690102790913],[-72.9494085519999,-37.1689614440913],[-72.9488842139999,-37.1692980890913],[-72.9491094689999,-37.1694850360913],[-72.9497008649999,-37.1691257570913],[-72.9495277769999,-37.1682337580913],[-72.9491163759999,-37.1684963830913],[-72.9495223299999,-37.1690102790913]]]}},{"type":"Feature","properties":{"id":"8109011003017","commune":"Santa Juana","code":"08109","gse":"D","quintil":"Q1","nse_score":654.9,"educ":9.3,"educ_score":420.0,"hacin":1.213,"hacin_class":"Hacinamiento Leve","hacin_score":805.7,"auto_score":32.3,"n_per":74,"n_hog":31,"source_year":2024},"geometry":{"type":"Polygon","coordinates":[[[-72.9490719529999,-37.1685107550913],[-72.9480218059999,-37.1691467920913],[-72.9486320419999,-37.1697776090913],[-72.9490238529999,-37.1695150970913],[-72.9486403859999,-37.1691400220913],[-72.9488272909999,-37.1692541140913],[-72.9493906369999,-37.1689075990913],[-72.9490719529999,-37.1685107550913]]]}},{"type":"Feature","properties":{"id":"8109011003018","commune":"Santa Juana","code":"08109","gse":"C3","quintil":"Q3","nse_score":722.1,"educ":11.0,"educ_score":533.3,"hacin":1.381,"hacin_class":"Hacinamiento Leve","hacin_score":770.0,"auto_score":388.9,"n_per":58,"n_hog":19,"source_year":2024},"geometry":{"type":"Polygon","coordinates":[[[-72.9535185319999,-37.1687769990913],[-72.9536073849999,-37.1690231570913],[-72.9544563539999,-37.1687944020913],[-72.9544323739999,-37.1685298700913],[-72.9535185319999,-37.1687769990913]]]}},{"type":"Feature","properties":{"id":"8109011003019","commune":"Santa Juana","code":"08109","gse":"C3","quintil":"Q2","nse_score":699.1,"educ":11.1,"educ_score":540.0,"hacin":1.487,"hacin_class":"Hacinamiento Leve","hacin_score":747.4,"auto_score":29.4,"n_per":174,"n_hog":50,"source_year":2024},"geometry":{"type":"Polygon","coordinates":[[[-72.9533955799999,-37.1688036620913],[-72.9528197749999,-37.1689426790913],[-72.9530429629999,-37.1688486280913],[-72.9529521949999,-37.1685675430913],[-72.9525159089999,-37.1687714060913],[-72.9525952359999,-37.1696043700913],[-72.9536277379999,-37.1693541000913],[-72.9535174259999,-37.1690994810913],[-72.9527606159999,-37.1692845650913],[-72.9534989299999,-37.1690524270913],[-72.9533955799999,-37.1688036620913]]]}},{"type":"Feature","properties":{"id":"8109011003020","commune":"Santa Juana","code":"08109","gse":"C3","quintil":"Q2","nse_score":698.6,"educ":10.6,"educ_score":506.7,"hacin":1.126,"hacin_class":"Hacinamiento Leve","hacin_score":824.2,"auto_score":216.2,"n_per":98,"n_hog":37,"source_year":2024},"geometry":{"type":"Polygon","coordinates":[[[-72.9510649519999,-37.1697735480913],[-72.952469833,-37.1691270900913],[-72.9524420299999,-37.1688358920913],[-72.9510141889999,-37.1694945660913],[-72.9510649519999,-37.1697735480913]]]}},{"type":"Feature","properties":{"id":"8109011003021","commune":"Santa Juana","code":"08109","gse":"D","quintil":"Q2","nse_score":679.8,"educ":10.8,"educ_score":520.0,"hacin":1.447,"hacin_class":"Hacinamiento Leve","hacin_score":755.9,"auto_score":25.0,"n_per":55,"n_hog":19,"source_year":2024},"geometry":{"type":"Polygon","coordinates":[[[-72.9536234919999,-37.1690677790913],[-72.9537192889999,-37.1693331760913],[-72.9544618189999,-37.1691588430913],[-72.9544606869999,-37.1688421980913],[-72.9536234919999,-37.1690677790913]]]}},{"type":"Feature","properties":{"id":"8109011003022","commune":"Santa Juana","code":"08109","gse":"C3","quintil":"Q3","nse_score":721.3,"educ":11.8,"educ_score":586.7,"hacin":1.442,"hacin_class":"Hacinamiento Leve","hacin_score":757.0,"auto_score":11.9,"n_per":137,"n_hog":42,"source_year":2024},"geometry":{"type":"Polygon","coordinates":[[[-72.9556392149999,-37.1705491120913],[-72.9559840539999,-37.1705229370913],[-72.9557751979999,-37.1689312820913],[-72.955473605,-37.1690537400913],[-72.9556392149999,-37.1705491120913]]]}},{"type":"Feature","properties":{"id":"8109011003023","commune":"Santa Juana","code":"08109","gse":"C3","quintil":"Q2","nse_score":691.6,"educ":10.6,"educ_score":506.7,"hacin":1.375,"hacin_class":"Hacinamiento Leve","hacin_score":771.3,"auto_score":137.5,"n_per":121,"n_hog":40,"source_year":2024},"geometry":{"type":"Polygon","coordinates":[[[-72.9552071049999,-37.1706620180913],[-72.9555545059999,-37.1705544660913],[-72.9553320269999,-37.1690287560913],[-72.9550591679999,-37.1691322360913],[-72.9552071049999,-37.1706620180913]]]}},{"type":"Feature","properties":{"id":"8109011003024","commune":"Santa Juana","code":"08109","gse":"C3","quintil":"Q3","nse_score":722.4,"educ":11.7,"educ_score":580.0,"hacin":1.495,"hacin_class":"Hacinamiento Leve","hacin_score":745.7,"auto_score":322.9,"n_per":163,"n_hog":49,"source_year":2024},"geometry":{"type":"Polygon","coordinates":[[[-72.9547626219999,-37.1707676660913],[-72.9551052639999,-37.1706439340913],[-72.9549213809999,-37.1691153200913],[-72.9545886619999,-37.1692330650913],[-72.9547626219999,-37.1707676660913]]]}},{"type":"Feature","properties":{"id":"8109011003025","commune":"Santa Juana","code":"08109","gse":"C3","quintil":"Q3","nse_score":731.6,"educ":11.2,"educ_score":546.7,"hacin":1.273,"hacin_class":"Hacinamiento Leve","hacin_score":793.0,"auto_score":437.5,"n_per":28,"n_hog":8,"source_year":2024},"geometry":{"type":"Polygon","coordinates":[[[-72.9522427889999,-37.1696982270913],[-72.9525173759999,-37.1696254350913],[-72.9524662019999,-37.1691745810913],[-72.9521028439999,-37.1693462090913],[-72.9522427889999,-37.1696982270913]]]}},{"type":"Feature","properties":{"id":"8109011003026","commune":"Santa Juana","code":"08109","gse":"E","quintil":"Q1","nse_score":580.1,"educ":7.5,"educ_score":300.0,"hacin":1.238,"hacin_class":"Hacinamiento Leve","hacin_score":800.4,"auto_score":200.0,"n_per":26,"n_hog":10,"source_year":2024},"geometry":{"type":"Polygon","coordinates":[[[-72.9475035209999,-37.1699503880913],[-72.9482479249999,-37.1695098610913],[-72.9479839539999,-37.1692096750913],[-72.9472548039999,-37.1695943170913],[-72.9475035209999,-37.1699503880913]]]}},{"type":"Feature","properties":{"id":"8109011003027","commune":"Santa Juana","code":"08109","gse":"D","quintil":"Q2","nse_score":687.0,"educ":11.5,"educ_score":566.7,"hacin":1.444,"hacin_class":"Hacinamiento Leve","hacin_score":756.5,"auto_score":66.7,"n_per":39,"n_hog":15,"source_year":2024},"geometry":{"type":"Polygon","coordinates":[[[-72.9537432579999,-37.1693995810913],[-72.9538346399999,-37.1696527470913],[-72.9545189579999,-37.1694683580913],[-72.954493941,-37.1692230880913],[-72.9537432579999,-37.1693995810913]]]}},{"type":"Feature","properties":{"id":"8109011003028","commune":"Santa Juana","code":"08109","gse":"E","quintil":"Q1","nse_score":505.9,"educ":9.2,"educ_score":413.3,"hacin":1.8,"hacin_class":"Hacinamiento Medio","hacin_score":680.9,"auto_score":45.5,"n_per":36,"n_hog":12,"source_year":2024},"geometry":{"type":"Polygon","coordinates":[[[-72.9495449689999,-37.1701018270913],[-72.949826104,-37.1699631220913],[-72.9496977609999,-37.1692239410913],[-72.9491599699999,-37.1695416080913],[-72.9495449689999,-37.1701018270913]]]}},{"type":"Feature","properties":{"id":"8109011003030","commune":"Santa Juana","code":"08109","gse":"C3","quintil":"Q3","nse_score":729.7,"educ":12.0,"educ_score":600.0,"hacin":1.375,"hacin_class":"Hacinamiento Leve","hacin_score":771.3,"auto_score":83.3,"n_per":33,"n_hog":12,"source_year":2024},"geometry":{"type":"Polygon","coordinates":[[[-72.9530070479999,-37.1698496380913],[-72.9537266869999,-37.1697020290913],[-72.9536519199999,-37.1694199470913],[-72.9530060359999,-37.1695723000913],[-72.9530070479999,-37.1698496380913]]]}},{"type":"Feature","properties":{"id":"8109011003031","commune":"Santa Juana","code":"08109","gse":"C2","quintil":"Q4","nse_score":755.5,"educ":12.2,"educ_score":613.3,"hacin":1.371,"hacin_class":"Hacinamiento Leve","hacin_score":772.0,"auto_score":142.9,"n_per":48,"n_hog":14,"source_year":2024},"geometry":{"type":"Polygon","coordinates":[[[-72.9538507469999,-37.1696973700913],[-72.9539468829999,-37.1699637050913],[-72.9545528289999,-37.1698004340913],[-72.9545238179999,-37.1695160110913],[-72.9538507469999,-37.1696973700913]]]}},{"type":"Feature","properties":{"id":"8109011003032","commune":"Santa Juana","code":"08109","gse":"E","quintil":"Q1","nse_score":557.6,"educ":6.0,"educ_score":200.0,"hacin":1.0,"hacin_class":"Hacinamiento Leve","hacin_score":851.1,"auto_score":111.1,"n_per":22,"n_hog":9,"source_year":2024},"geometry":{"type":"Polygon","coordinates":[[[-72.9477818799999,-37.1702766000913],[-72.9485281539999,-37.1698378160913],[-72.9483030419999,-37.1695505830913],[-72.9475435709999,-37.1699894760913],[-72.9477818799999,-37.1702766000913]]]}},{"type":"Feature","properties":{"id":"8109011003033","commune":"Santa Juana","code":"08109","gse":"D","quintil":"Q1","nse_score":660.5,"educ":10.7,"educ_score":513.3,"hacin":1.237,"hacin_class":"Hacinamiento Leve","hacin_score":800.7,"auto_score":100.0,"n_per":47,"n_hog":19,"source_year":2024},"geometry":{"type":"Polygon","coordinates":[[[-72.9499679119999,-37.1702666880913],[-72.951002463,-37.1700204290913],[-72.9509119409999,-37.1695900430913],[-72.9499264589999,-37.1700169520913],[-72.9499679119999,-37.1702666880913]]]}},{"type":"Feature","properties":{"id":"8109011003034","commune":"Santa Juana","code":"08109","gse":"D","quintil":"Q2","nse_score":678.2,"educ":10.6,"educ_score":506.7,"hacin":1.467,"hacin_class":"Hacinamiento Leve","hacin_score":751.8,"auto_score":285.7,"n_per":44,"n_hog":14,"source_year":2024},"geometry":{"type":"Polygon","coordinates":[[[-72.948957876,-37.1704224250913],[-72.9494772719999,-37.1701313880913],[-72.9490917219999,-37.1695957630913],[-72.948646988,-37.1698496080913],[-72.948957876,-37.1704224250913]]]}},{"type":"Feature","properties":{"id":"8109011003035","commune":"Santa Juana","code":"08109","gse":"D","quintil":"Q2","nse_score":670.7,"educ":10.7,"educ_score":513.3,"hacin":1.528,"hacin_class":"Hacinamiento Medio","hacin_score":738.8,"auto_score":156.2,"n_per":139,"n_hog":46,"source_year":2024},"geometry":{"type":"Polygon","coordinates":[[[-72.952585155,-37.1696941410913],[-72.9526816789999,-37.1706077050913],[-72.9528630559999,-37.1705722660913],[-72.9526720819999,-37.1706711680913],[-72.9527665289999,-37.1712706060913],[-72.9530570679999,-37.1711996020913],[-72.9529271449999,-37.1696152350913],[-72.952585155,-37.1696941410913]]]}},{"type":"Feature","properties":{"id":"8109011003036","commune":"Santa Juana","code":"08109","gse":"C3","quintil":"Q3","nse_score":719.0,"educ":12.3,"educ_score":620.0,"hacin":1.167,"hacin_class":"Hacinamiento Leve","hacin_score":815.6,"auto_score":78.9,"n_per":56,"n_hog":19,"source_year":2024},"geometry":{"type":"Polygon","coordinates":[[[-72.9475732969999,-37.1711718120913],[-72.9481485979999,-37.1708503860913],[-72.9471445699999,-37.1696600910913],[-72.9466512959999,-37.1700218680913],[-72.947252493,-37.1710191570913],[-72.9475732969999,-37.1711718120913]]]}},{"type":"Feature","properties":{"id":"8109011003037","commune":"Santa Juana","code":"08109","gse":"C3","quintil":"Q3","nse_score":725.8,"educ":11.5,"educ_score":566.7,"hacin":1.298,"hacin_class":"Hacinamiento Leve","hacin_score":787.7,"auto_score":171.4,"n_per":109,"n_hog":34,"source_year":2024},"geometry":{"type":"Polygon","coordinates":[[[-72.9512857459999,-37.1702941750913],[-72.9525458559999,-37.1699860110913],[-72.9525318619999,-37.1696991690913],[-72.9512062419999,-37.1700228720913],[-72.9512857459999,-37.1702941750913]]]}},{"type":"Feature","properties":{"id":"8109011003038","commune":"Santa Juana","code":"08109","gse":"C3","quintil":"Q2","nse_score":691.5,"educ":10.6,"educ_score":506.7,"hacin":1.489,"hacin_class":"Hacinamiento Leve","hacin_score":747.0,"auto_score":0.0,"n_per":67,"n_hog":17,"source_year":2024},"geometry":{"type":"Polygon","coordinates":[[[-72.9530488729999,-37.1701652230913],[-72.9538305549999,-37.1699982570913],[-72.9537773229999,-37.1697614160913],[-72.9530373369999,-37.1699101350913],[-72.9530488729999,-37.1701652230913]]]}},{"type":"Feature","properties":{"id":"8109011003039","commune":"Santa Juana","code":"08109","gse":"D","quintil":"Q2","nse_score":677.0,"educ":10.8,"educ_score":520.0,"hacin":1.64,"hacin_class":"Hacinamiento Medio","hacin_score":714.9,"auto_score":45.5,"n_per":41,"n_hog":11,"source_year":2024},"geometry":{"type":"Polygon","coordinates":[[[-72.9539629899999,-37.1700083280913],[-72.9540572599999,-37.1702694960913],[-72.9545861359999,-37.1701269910913],[-72.9545576889999,-37.1698480870913],[-72.9539629899999,-37.1700083280913]]]}},{"type":"Feature","properties":{"id":"8109011003040","commune":"Santa Juana","code":"08109","gse":"D","quintil":"Q1","nse_score":654.8,"educ":9.9,"educ_score":460.0,"hacin":0.879,"hacin_class":"Sin Hacinamiento","hacin_score":876.9,"auto_score":115.4,"n_per":29,"n_hog":13,"source_year":2024},"geometry":{"type":"Polygon","coordinates":[[[-72.9482330219999,-37.1708186820913],[-72.9488878069999,-37.1704605960913],[-72.9485746369999,-37.1698972030913],[-72.9478472899999,-37.1703399210913],[-72.9482330219999,-37.1708186820913]]]}},{"type":"Feature","properties":{"id":"8109011003041","commune":"Santa Juana","code":"08109","gse":"C3","quintil":"Q2","nse_score":705.3,"educ":11.3,"educ_score":553.3,"hacin":1.36,"hacin_class":"Hacinamiento Leve","hacin_score":774.5,"auto_score":161.3,"n_per":102,"n_hog":31,"source_year":2024},"geometry":{"type":"Polygon","coordinates":[[[-72.9514013979999,-37.1706031440913],[-72.9525798909999,-37.1703106030913],[-72.9525666839999,-37.1700321550913],[-72.9512951029999,-37.1703355240913],[-72.9514013979999,-37.1706031440913]]]}},{"type":"Feature","properties":{"id":"8109011003042","commune":"Santa Juana","code":"08109","gse":"D","quintil":"Q2","nse_score":668.0,"educ":10.5,"educ_score":500.0,"hacin":1.442,"hacin_class":"Hacinamiento Leve","hacin_score":757.1,"auto_score":113.6,"n_per":62,"n_hog":22,"source_year":2024},"geometry":{"type":"Polygon","coordinates":[[[-72.9463237229999,-37.1715011940913],[-72.9471688279999,-37.1710608880913],[-72.9465592669999,-37.1700308180913],[-72.9454476289999,-37.1707068630913],[-72.9463237229999,-37.1715011940913]]]}},{"type":"Feature","properties":{"id":"8109011003043","commune":"Santa Juana","code":"08109","gse":"C3","quintil":"Q3","nse_score":716.7,"educ":11.8,"educ_score":586.7,"hacin":1.571,"hacin_class":"Hacinamiento Medio","hacin_score":729.5,"auto_score":210.5,"n_per":66,"n_hog":20,"source_year":2024},"geometry":{"type":"Polygon","coordinates":[[[-72.9530673389999,-37.1704847750913],[-72.9539341409999,-37.1702883690913],[-72.9538792409999,-37.1700449200913],[-72.9530527669999,-37.1702206530913],[-72.9530673389999,-37.1704847750913]]]}},{"type":"Feature","properties":{"id":"8109011003044","commune":"Santa Juana","code":"08109","gse":"E","quintil":"Q1","nse_score":618.3,"educ":9.0,"educ_score":400.0,"hacin":1.238,"hacin_class":"Hacinamiento Leve","hacin_score":800.4,"auto_score":0.0,"n_per":26,"n_hog":11,"source_year":2024},"geometry":{"type":"Polygon","coordinates":[[[-72.9492763629999,-37.1709226400913],[-72.9499036389999,-37.1705946250913],[-72.9498250629999,-37.1700599900913],[-72.9490040139999,-37.1704946030913],[-72.9492763629999,-37.1709226400913]]]}},{"type":"Feature","properties":{"id":"8109011003045","commune":"Santa Juana","code":"08109","gse":"C3","quintil":"Q2","nse_score":706.0,"educ":11.3,"educ_score":553.3,"hacin":1.491,"hacin_class":"Hacinamiento Leve","hacin_score":746.6,"auto_score":89.3,"n_per":82,"n_hog":28,"source_year":2024},"geometry":{"type":"Polygon","coordinates":[[[-72.9500195819999,-37.1706176310913],[-72.9511604569999,-37.1703295000913],[-72.9511923059999,-37.1702949950913],[-72.9510523589999,-37.1700619390913],[-72.949991973,-37.1703264970913],[-72.9500195819999,-37.1706176310913]]]}},{"type":"Feature","properties":{"id":"8109011003046","commune":"Santa Juana","code":"08109","gse":"D","quintil":"Q1","nse_score":664.8,"educ":9.8,"educ_score":453.3,"hacin":1.429,"hacin_class":"Hacinamiento Leve","hacin_score":759.9,"auto_score":277.8,"n_per":30,"n_hog":9,"source_year":2024},"geometry":{"type":"Polygon","coordinates":[[[-72.9540733669999,-37.1703141180913],[-72.9541668829999,-37.1705731950913],[-72.9546192159999,-37.1704513140913],[-72.9545909959999,-37.1701746430913],[-72.9540733669999,-37.1703141180913]]]}},{"type":"Feature","properties":{"id":"8109011003047","commune":"Santa Juana","code":"08109","gse":"E","quintil":"Q1","nse_score":634.9,"educ":10.7,"educ_score":513.3,"hacin":1.475,"hacin_class":"Hacinamiento Leve","hacin_score":750.0,"auto_score":90.9,"n_per":59,"n_hog":19,"source_year":2024},"geometry":{"type":"Polygon","coordinates":[[[-72.9531068229999,-37.1707978720913],[-72.9540534529999,-37.1705783920913],[-72.9539815099999,-37.1703433770913],[-72.9530915799999,-37.1705470350913],[-72.9531068229999,-37.1707978720913]]]}},{"type":"Feature","properties":{"id":"8109011003048","commune":"Santa Juana","code":"08109","gse":"C3","quintil":"Q3","nse_score":715.6,"educ":12.1,"educ_score":606.7,"hacin":1.448,"hacin_class":"Hacinamiento Leve","hacin_score":755.7,"auto_score":153.8,"n_per":84,"n_hog":24,"source_year":2024},"geometry":{"type":"Polygon","coordinates":[[[-72.9515134299999,-37.1708960980913],[-72.9526074939999,-37.1706273320913],[-72.952602495,-37.1703660600913],[-72.9514446499999,-37.1706363370913],[-72.9515134299999,-37.1708960980913]]]}},{"type":"Feature","properties":{"id":"8109011003049","commune":"Santa Juana","code":"08109","gse":"D","quintil":"Q2","nse_score":670.5,"educ":10.4,"educ_score":493.3,"hacin":1.333,"hacin_class":"Hacinamiento Leve","hacin_score":780.1,"auto_score":21.7,"n_per":76,"n_hog":23,"source_year":2024},"geometry":{"type":"Polygon","coordinates":[[[-72.9500514519999,-37.1709219070913],[-72.9512953349999,-37.1706271760913],[-72.9513143249999,-37.1705787460913],[-72.9511844119999,-37.1703599260913],[-72.9500237669999,-37.1706544750913],[-72.9500514519999,-37.1709219070913]]]}},{"type":"Feature","properties":{"id":"8109011003050","commune":"Santa Juana","code":"08109","gse":"C2","quintil":"Q4","nse_score":754.2,"educ":13.6,"educ_score":706.7,"hacin":2.0,"hacin_class":"Hacinamiento Medio","hacin_score":638.3,"auto_score":300.0,"n_per":22,"n_hog":5,"source_year":2024},"geometry":{"type":"Polygon","coordinates":[[[-72.9541829899999,-37.1706178170913],[-72.9542817729999,-37.1708914870913],[-72.9546549419999,-37.1708015900913],[-72.9546240759999,-37.1704989670913],[-72.9541829899999,-37.1706178170913]]]}},{"type":"Feature","properties":{"id":"8109011003051","commune":"Santa Juana","code":"08109","gse":"D","quintil":"Q2","nse_score":684.1,"educ":10.2,"educ_score":480.0,"hacin":1.364,"hacin_class":"Hacinamiento Leve","hacin_score":773.7,"auto_score":100.0,"n_per":15,"n_hog":5,"source_year":2024},"geometry":{"type":"Polygon","coordinates":[[[-72.9479967819999,-37.1715748030913],[-72.9491913189999,-37.1709814620913],[-72.9489413019999,-37.1705438980913],[-72.9477306049999,-37.1712019360913],[-72.9479967819999,-37.1715748030913]]]}},{"type":"Feature","properties":{"id":"8109011003052","commune":"Santa Juana","code":"08109","gse":"C3","quintil":"Q2","nse_score":692.0,"educ":11.2,"educ_score":546.7,"hacin":1.415,"hacin_class":"Hacinamiento Leve","hacin_score":762.8,"auto_score":277.8,"n_per":58,"n_hog":18,"source_year":2024},"geometry":{"type":"Polygon","coordinates":[[[-72.9530981879999,-37.1708708770913],[-72.9531206499999,-37.1711840630913],[-72.9541793139999,-37.1709206330913],[-72.9540537379999,-37.1706344800913],[-72.9530981879999,-37.1708708770913]]]}},{"type":"Feature","properties":{"id":"8109011003053","commune":"Santa Juana","code":"08109","gse":"D","quintil":"Q2","nse_score":683.6,"educ":10.2,"educ_score":480.0,"hacin":1.182,"hacin_class":"Hacinamiento Leve","hacin_score":812.4,"auto_score":65.2,"n_per":65,"n_hog":23,"source_year":2024},"geometry":{"type":"Polygon","coordinates":[[[-72.9516241869999,-37.1711862370913],[-72.9526513959999,-37.1709327170913],[-72.9526176329999,-37.1706731110913],[-72.9515446979999,-37.1709309770913],[-72.9516241869999,-37.1711862370913]]]}},{"type":"Feature","properties":{"id":"8109011003055","commune":"Santa Juana","code":"08109","gse":"D","quintil":"Q2","nse_score":678.6,"educ":10.0,"educ_score":466.7,"hacin":0.818,"hacin_class":"Sin Hacinamiento","hacin_score":889.7,"auto_score":0.0,"n_per":9,"n_hog":4,"source_year":2024},"geometry":{"type":"Polygon","coordinates":[[[-72.9495264049999,-37.1712927000913],[-72.9499648839999,-37.1710663230913],[-72.9499162739999,-37.1706980380913],[-72.9493196409999,-37.1709798090913],[-72.9495264049999,-37.1712927000913]]]}},{"type":"Feature","properties":{"id":"8109011003056","commune":"Santa Juana","code":"08109","gse":"C3","quintil":"Q2","nse_score":701.4,"educ":11.1,"educ_score":540.0,"hacin":1.263,"hacin_class":"Hacinamiento Leve","hacin_score":795.0,"auto_score":130.2,"n_per":259,"n_hog":97,"source_year":2024},"geometry":{"type":"Polygon","coordinates":[[[-72.9442541859999,-37.1714750280913],[-72.9448809769999,-37.1720970480913],[-72.9451139809999,-37.1719479670913],[-72.9449361909999,-37.1717260570913],[-72.9460102179999,-37.1727890650913],[-72.9455600659999,-37.1724351750913],[-72.9443951359999,-37.1732183460913],[-72.9447381889999,-37.1736050810913],[-72.9451102899999,-37.1733812650913],[-72.9447697019999,-37.1736350080913],[-72.9450147179999,-37.1738616900913],[-72.9457277859999,-37.1734669140913],[-72.9453526159999,-37.1729602970913],[-72.9457838449999,-37.1734404560913],[-72.9466460749999,-37.1730677460913],[-72.9464557829999,-37.1727187360913],[-72.946696733,-37.1730461670913],[-72.9473495999999,-37.1727584780913],[-72.9472589409999,-37.1722422880913],[-72.9476908139999,-37.1719441550913],[-72.9478970449999,-37.1716188590913],[-72.9476924939999,-37.1712868060913],[-72.9473409009999,-37.1711696780913],[-72.9462449439999,-37.1715323640913],[-72.9453639739999,-37.1707600280913],[-72.9442541859999,-37.1714750280913]]]}},{"type":"Feature","properties":{"id":"8109011003057","commune":"Santa Juana","code":"08109","gse":"C3","quintil":"Q3","nse_score":727.5,"educ":12.2,"educ_score":613.3,"hacin":1.543,"hacin_class":"Hacinamiento Medio","hacin_score":735.6,"auto_score":192.3,"n_per":54,"n_hog":13,"source_year":2024},"geometry":{"type":"Polygon","coordinates":[[[-72.9500877979999,-37.1712356340913],[-72.9509720719999,-37.1710246280913],[-72.9509987039999,-37.1709767810913],[-72.950877896,-37.1707753320913],[-72.9500711769999,-37.1709755130913],[-72.9500877979999,-37.1712356340913]]]}},{"type":"Feature","properties":{"id":"8109011003058","commune":"Santa Juana","code":"08109","gse":"D","quintil":"Q2","nse_score":682.2,"educ":11.4,"educ_score":560.0,"hacin":1.477,"hacin_class":"Hacinamiento Leve","hacin_score":749.5,"auto_score":47.6,"n_per":65,"n_hog":21,"source_year":2024},"geometry":{"type":"Polygon","coordinates":[[[-72.9517312589999,-37.1715044310913],[-72.9527212909999,-37.1712816620913],[-72.9526673839999,-37.1709787770913],[-72.9516533849999,-37.1712227020913],[-72.9517312589999,-37.1715044310913]]]}},{"type":"Feature","properties":{"id":"8109011003059","commune":"Santa Juana","code":"08109","gse":"E","quintil":"Q1","nse_score":615.6,"educ":8.5,"educ_score":366.7,"hacin":1.153,"hacin_class":"Hacinamiento Leve","hacin_score":818.6,"auto_score":150.0,"n_per":68,"n_hog":30,"source_year":2024},"geometry":{"type":"Polygon","coordinates":[[[-72.9474853329999,-37.1726911630913],[-72.9483939249999,-37.1723606400913],[-72.94987047,-37.1719760430913],[-72.9492228079999,-37.1710331090913],[-72.9479743619999,-37.1716708490913],[-72.9473241509999,-37.1722422470913],[-72.9472933329999,-37.1724238570913],[-72.9474853329999,-37.1726911630913]]]}},{"type":"Feature","properties":{"id":"8109011003060","commune":"Santa Juana","code":"08109","gse":"D","quintil":"Q1","nse_score":654.6,"educ":10.0,"educ_score":466.7,"hacin":1.3,"hacin_class":"Hacinamiento Leve","hacin_score":787.2,"auto_score":22.7,"n_per":65,"n_hog":21,"source_year":2024},"geometry":{"type":"Polygon","coordinates":[[[-72.9501176249999,-37.1715530330913],[-72.9510899869999,-37.1713123670913],[-72.9511211519999,-37.1712801900913],[-72.9509868519999,-37.1710653500913],[-72.9501329789999,-37.1712766120913],[-72.9501176249999,-37.1715530330913]]]}},{"type":"Feature","properties":{"id":"8109011003061","commune":"Santa Juana","code":"08109","gse":"E","quintil":"Q1","nse_score":590.1,"educ":8.4,"educ_score":360.0,"hacin":1.667,"hacin_class":"Hacinamiento Medio","hacin_score":709.2,"auto_score":166.7,"n_per":20,"n_hog":6,"source_year":2024},"geometry":{"type":"Polygon","coordinates":[[[-72.9499829299999,-37.1719779890912],[-72.9500587299999,-37.1719319850913],[-72.9499529809999,-37.1711192010913],[-72.9495509969999,-37.1713453990913],[-72.9499829299999,-37.1719779890912]]]}},{"type":"Feature","properties":{"id":"8109011003062","commune":"Santa Juana","code":"08109","gse":"D","quintil":"Q1","nse_score":659.3,"educ":9.8,"educ_score":453.3,"hacin":1.362,"hacin_class":"Hacinamiento Leve","hacin_score":774.1,"auto_score":242.9,"n_per":128,"n_hog":35,"source_year":2024},"geometry":{"type":"Polygon","coordinates":[[[-72.9515519419999,-37.1712507790913],[-72.9501380159999,-37.1716153030913],[-72.9501282459999,-37.1718810050913],[-72.9516676979999,-37.1715391380913],[-72.9515519419999,-37.1712507790913]]]}},{"type":"Feature","properties":{"id":"8109011003063","commune":"Santa Juana","code":"08109","gse":"C3","quintil":"Q3","nse_score":710.2,"educ":11.5,"educ_score":566.7,"hacin":1.184,"hacin_class":"Hacinamiento Leve","hacin_score":811.9,"auto_score":233.3,"n_per":45,"n_hog":17,"source_year":2024},"geometry":{"type":"Polygon","coordinates":[[[-72.9438715599999,-37.1727397020913],[-72.9447963759999,-37.1721476730913],[-72.9442017929999,-37.1714925050913],[-72.9432239349999,-37.1721136200913],[-72.9438715599999,-37.1727397020913]]]}},{"type":"Feature","properties":{"id":"8109011003065","commune":"Santa Juana","code":"08109","gse":"E","quintil":"Q1","nse_score":633.8,"educ":8.9,"educ_score":393.3,"hacin":1.41,"hacin_class":"Hacinamiento Leve","hacin_score":763.8,"auto_score":52.6,"n_per":55,"n_hog":19,"source_year":2024},"geometry":{"type":"Polygon","coordinates":[[[-72.9443179049999,-37.1731714920913],[-72.9452150739999,-37.1726106140913],[-72.9452286309999,-37.1725383880913],[-72.9448246579999,-37.1722095400913],[-72.9439531529999,-37.1727793320913],[-72.9443179049999,-37.1731714920913]]]}},{"type":"Feature","properties":{"id":"8109011003005","commune":"Santa Juana","code":"08109","gse":"E","quintil":"Q1","nse_score":578.5,"educ":8.9,"educ_score":393.3,"hacin":1.222,"hacin_class":"Hacinamiento Leve","hacin_score":803.8,"auto_score":300.0,"n_per":11,"n_hog":4,"source_year":2024},"geometry":{"type":"MultiPolygon","coordinates":[[[[-72.9529994009999,-37.1685454850913],[-72.9530930939999,-37.1688367530913],[-72.9534121519999,-37.1687530770913],[-72.9532996739999,-37.1684156520913],[-72.9529994009999,-37.1685454850913]]],[[[-72.9524743949999,-37.1670256670913],[-72.9523348789999,-37.1665201720913],[-72.9496539119999,-37.1681587030913],[-72.949906284,-37.1699383740913],[-72.9532998979999,-37.1683339810913],[-72.952589713,-37.1663654650913],[-72.9523686369999,-37.1665002970913],[-72.9524743949999,-37.1670256670913]]]]}}]}