{"type":"FeatureCollection","features":[{"type":"Feature","properties":{"id":"8311011001003","commune":"Santa Bárbara","code":"08311","gse":"D","quintil":"Q2","nse_score":681.9,"educ":11.6,"educ_score":573.3,"hacin":1.457,"hacin_class":"Hacinamiento Leve","hacin_score":753.8,"auto_score":132.4,"n_per":102,"n_hog":34,"source_year":2024,"crime_score":0.4537,"crime_nivel":"Medio","crime_color":"#ff9800"},"geometry":{"type":"Polygon","coordinates":[[[-72.0215354789999,-37.6593122450871],[-72.0202795029999,-37.6607056920871],[-72.0204619799999,-37.6609024740871],[-72.0224464689999,-37.6603509980871],[-72.0225525339999,-37.6605656600871],[-72.0228718609999,-37.6604532280871],[-72.0221641629999,-37.6590137960871],[-72.0215354789999,-37.6593122450871]]]}},{"type":"Feature","properties":{"id":"8311011001004","commune":"Santa Bárbara","code":"08311","gse":"D","quintil":"Q1","nse_score":658.8,"educ":10.8,"educ_score":520.0,"hacin":1.483,"hacin_class":"Hacinamiento Leve","hacin_score":748.2,"auto_score":152.8,"n_per":626,"n_hog":208,"source_year":2024,"crime_score":0.5027,"crime_nivel":"Medio","crime_color":"#ff9800"},"geometry":{"type":"Polygon","coordinates":[[[-72.0199810919999,-37.6604175950871],[-72.0158475919999,-37.6627480290871],[-72.0154035469999,-37.6631915670871],[-72.0153701839999,-37.6635376180871],[-72.0164588149999,-37.6653293100871],[-72.0180105589999,-37.665155762087],[-72.0190813559999,-37.664889116087],[-72.018414935,-37.6638035460871],[-72.018436946,-37.6635906490871],[-72.0189839489999,-37.6634545550871],[-72.0187414799999,-37.6628040050871],[-72.0189356539999,-37.6626024910871],[-72.0188131569999,-37.6623753060871],[-72.0195985129999,-37.663312509087],[-72.0204877739999,-37.6629704380871],[-72.0202620869999,-37.6626480200871],[-72.0197273709999,-37.6629503100871],[-72.0196813679999,-37.6629046360871],[-72.0202090079999,-37.6626262230871],[-72.0200651009999,-37.6624043560871],[-72.0195371839999,-37.6627236660871],[-72.0194877479999,-37.6626703370871],[-72.0200119229999,-37.6623878740871],[-72.0198931409999,-37.6621725880871],[-72.0193360369999,-37.6624877350871],[-72.0198206729999,-37.6621651680871],[-72.0196939389999,-37.6619475190871],[-72.0190469419999,-37.6622290360871],[-72.0192446489999,-37.6620864480871],[-72.0188842419999,-37.6617150270871],[-72.0192941469999,-37.6620872490871],[-72.0195266179999,-37.6619539190871],[-72.0191640829999,-37.6615450530871],[-72.0195711039999,-37.6619270220871],[-72.0198094439999,-37.6617942910871],[-72.0194306749999,-37.6613633900871],[-72.0198459839999,-37.6617507040871],[-72.0201316769999,-37.6616128620871],[-72.0197378079999,-37.6611825720871],[-72.0197948879999,-37.6611496860871],[-72.0201595689999,-37.6615984300871],[-72.0204191369999,-37.6614563230871],[-72.0200088629999,-37.6610224650871],[-72.0204657039999,-37.6614372410871],[-72.0207198539999,-37.6612842570871],[-72.0199810919999,-37.6604175950871]]]}},{"type":"Feature","properties":{"id":"8311011001005","commune":"Santa Bárbara","code":"08311","gse":"C3","quintil":"Q2","nse_score":690.0,"educ":11.0,"educ_score":533.3,"hacin":1.337,"hacin_class":"Hacinamiento Leve","hacin_score":779.4,"auto_score":226.2,"n_per":131,"n_hog":44,"source_year":2024,"crime_score":0.4579,"crime_nivel":"Medio","crime_color":"#ff9800"},"geometry":{"type":"Polygon","coordinates":[[[-72.0207560229999,-37.6612278880871],[-72.0221875229999,-37.6607709830871],[-72.0225000909999,-37.6605369670871],[-72.0223619839999,-37.6604589780871],[-72.0204990039999,-37.6609535970871],[-72.0207560229999,-37.6612278880871]]]}},{"type":"Feature","properties":{"id":"8311011001006","commune":"Santa Bárbara","code":"08311","gse":"E","quintil":"Q1","nse_score":603.4,"educ":11.3,"educ_score":553.3,"hacin":1.625,"hacin_class":"Hacinamiento Medio","hacin_score":718.1,"auto_score":83.3,"n_per":13,"n_hog":4,"source_year":2024,"crime_score":0.4532,"crime_nivel":"Medio","crime_color":"#ff9800"},"geometry":{"type":"Polygon","coordinates":[[[-72.0230257379999,-37.6615959900871],[-72.0233656709999,-37.6614550230871],[-72.0229071889999,-37.6605261090871],[-72.0223018829999,-37.6608253170871],[-72.0230257379999,-37.6615959900871]]]}},{"type":"Feature","properties":{"id":"8311011001007","commune":"Santa Bárbara","code":"08311","gse":"D","quintil":"Q1","nse_score":660.0,"educ":10.1,"educ_score":473.3,"hacin":1.604,"hacin_class":"Hacinamiento Medio","hacin_score":722.6,"auto_score":96.2,"n_per":85,"n_hog":26,"source_year":2024,"crime_score":0.4554,"crime_nivel":"Medio","crime_color":"#ff9800"},"geometry":{"type":"Polygon","coordinates":[[[-72.0226737799999,-37.6617188650871],[-72.0229212659999,-37.6616046670871],[-72.0222793899999,-37.6608611650871],[-72.0219501369999,-37.6609173140871],[-72.0226737799999,-37.6617188650871]]]}},{"type":"Feature","properties":{"id":"8311011001008","commune":"Santa Bárbara","code":"08311","gse":"E","quintil":"Q1","nse_score":621.8,"educ":10.1,"educ_score":473.3,"hacin":1.448,"hacin_class":"Hacinamiento Leve","hacin_score":755.8,"auto_score":57.1,"n_per":97,"n_hog":34,"source_year":2024,"crime_score":0.4676,"crime_nivel":"Medio","crime_color":"#ff9800"},"geometry":{"type":"Polygon","coordinates":[[[-72.0222395889999,-37.6618240400871],[-72.0225327609999,-37.6616798940871],[-72.0218587339999,-37.6609469230871],[-72.0215887999999,-37.6610015100871],[-72.0222395889999,-37.6618240400871]]]}},{"type":"Feature","properties":{"id":"8311011001009","commune":"Santa Bárbara","code":"08311","gse":"D","quintil":"Q1","nse_score":659.5,"educ":10.7,"educ_score":513.3,"hacin":1.493,"hacin_class":"Hacinamiento Leve","hacin_score":746.2,"auto_score":106.1,"n_per":103,"n_hog":32,"source_year":2024,"crime_score":0.4595,"crime_nivel":"Medio","crime_color":"#ff9800"},"geometry":{"type":"Polygon","coordinates":[[[-72.0219406259999,-37.6619979650871],[-72.022203568,-37.6618445490871],[-72.0215277699999,-37.6610563850871],[-72.0212245259999,-37.6611262650871],[-72.0219406259999,-37.6619979650871]]]}},{"type":"Feature","properties":{"id":"8311011001010","commune":"Santa Bárbara","code":"08311","gse":"C3","quintil":"Q3","nse_score":720.9,"educ":11.8,"educ_score":586.7,"hacin":1.367,"hacin_class":"Hacinamiento Leve","hacin_score":773.0,"auto_score":257.1,"n_per":108,"n_hog":34,"source_year":2024,"crime_score":0.4452,"crime_nivel":"Medio","crime_color":"#ff9800"},"geometry":{"type":"Polygon","coordinates":[[[-72.0210908559999,-37.6611840230871],[-72.0208596809999,-37.6613427300871],[-72.0216032909999,-37.6621744780871],[-72.0218783609999,-37.6620431270871],[-72.0210908559999,-37.6611840230871]]]}},{"type":"Feature","properties":{"id":"8311011001011","commune":"Santa Bárbara","code":"08311","gse":"C3","quintil":"Q2","nse_score":697.3,"educ":10.9,"educ_score":526.7,"hacin":1.327,"hacin_class":"Hacinamiento Leve","hacin_score":781.5,"auto_score":217.4,"n_per":69,"n_hog":23,"source_year":2024,"crime_score":0.4428,"crime_nivel":"Medio","crime_color":"#ff9800"},"geometry":{"type":"Polygon","coordinates":[[[-72.020202019,-37.6619517850871],[-72.0209338089999,-37.6615556520871],[-72.0209516589999,-37.6615385740871],[-72.0207651869999,-37.6613366820871],[-72.0200293309999,-37.6617375000871],[-72.020202019,-37.6619517850871]]]}},{"type":"Feature","properties":{"id":"8311011001012","commune":"Santa Bárbara","code":"08311","gse":"D","quintil":"Q1","nse_score":646.4,"educ":10.9,"educ_score":526.7,"hacin":1.306,"hacin_class":"Hacinamiento Leve","hacin_score":785.9,"auto_score":93.8,"n_per":128,"n_hog":45,"source_year":2024,"crime_score":0.4683,"crime_nivel":"Medio","crime_color":"#ff9800"},"geometry":{"type":"Polygon","coordinates":[[[-72.0216842439999,-37.6622877100871],[-72.023016218,-37.663979968087],[-72.0237143149999,-37.663911641087],[-72.0243801469999,-37.6640806400871],[-72.0239620899999,-37.6626918660871],[-72.0234182579999,-37.6615599560871],[-72.0220622269999,-37.6620242000871],[-72.0216842439999,-37.6622877100871]]]}},{"type":"Feature","properties":{"id":"8311011001013","commune":"Santa Bárbara","code":"08311","gse":"D","quintil":"Q2","nse_score":681.7,"educ":11.0,"educ_score":533.3,"hacin":1.579,"hacin_class":"Hacinamiento Medio","hacin_score":727.9,"auto_score":204.5,"n_per":60,"n_hog":22,"source_year":2024,"crime_score":0.4447,"crime_nivel":"Medio","crime_color":"#ff9800"},"geometry":{"type":"Polygon","coordinates":[[[-72.0203905389999,-37.6621655220871],[-72.0205005909999,-37.6621287490871],[-72.0211498659999,-37.6617641730871],[-72.0209605439999,-37.6615729970871],[-72.0202331589999,-37.6619716050871],[-72.0203905389999,-37.6621655220871]]]}},{"type":"Feature","properties":{"id":"8311011001014","commune":"Santa Bárbara","code":"08311","gse":"D","quintil":"Q1","nse_score":661.5,"educ":10.0,"educ_score":466.7,"hacin":1.104,"hacin_class":"Hacinamiento Leve","hacin_score":829.0,"auto_score":146.2,"n_per":170,"n_hog":66,"source_year":2024,"crime_score":0.4736,"crime_nivel":"Medio","crime_color":"#ff9800"},"geometry":{"type":"Polygon","coordinates":[[[-72.0275981009999,-37.6622899510871],[-72.0274188479999,-37.6619864700871],[-72.0271601159999,-37.6620511250871],[-72.0272785259999,-37.6623784830871],[-72.027105822,-37.6620654330871],[-72.0268513739999,-37.6621306460871],[-72.0269870639999,-37.6625106110871],[-72.0256947479999,-37.6630609700871],[-72.0257203029999,-37.6631901920871],[-72.0256028359999,-37.6631174880871],[-72.0242844659999,-37.6634882290871],[-72.0244593629999,-37.6641093100871],[-72.0247564249999,-37.6641295150871],[-72.0261319079999,-37.6636344260871],[-72.0288902689999,-37.6616790200871],[-72.0274992789999,-37.6619648010871],[-72.0275981009999,-37.6622899510871]]]}},{"type":"Feature","properties":{"id":"8311011001016","commune":"Santa Bárbara","code":"08311","gse":"D","quintil":"Q1","nse_score":646.7,"educ":10.4,"educ_score":493.3,"hacin":1.42,"hacin_class":"Hacinamiento Leve","hacin_score":761.7,"auto_score":83.3,"n_per":71,"n_hog":22,"source_year":2024,"crime_score":0.4556,"crime_nivel":"Medio","crime_color":"#ff9800"},"geometry":{"type":"Polygon","coordinates":[[[-72.0202942019999,-37.6625563860871],[-72.0205410169999,-37.6624044950871],[-72.0200133689999,-37.6617681820871],[-72.0197412899999,-37.6618971770871],[-72.0202942019999,-37.6625563860871]]]}},{"type":"Feature","properties":{"id":"8311011001017","commune":"Santa Bárbara","code":"08311","gse":"D","quintil":"Q2","nse_score":673.6,"educ":10.5,"educ_score":500.0,"hacin":1.327,"hacin_class":"Hacinamiento Leve","hacin_score":781.5,"auto_score":108.7,"n_per":69,"n_hog":23,"source_year":2024,"crime_score":0.4486,"crime_nivel":"Medio","crime_color":"#ff9800"},"geometry":{"type":"Polygon","coordinates":[[[-72.0213425989999,-37.6620041570871],[-72.0211741819999,-37.6618027540871],[-72.0204306319999,-37.6622172640871],[-72.0206039479999,-37.6623981570871],[-72.0213425989999,-37.6620041570871]]]}},{"type":"Feature","properties":{"id":"8311011001019","commune":"Santa Bárbara","code":"08311","gse":"C2","quintil":"Q4","nse_score":756.6,"educ":12.8,"educ_score":653.3,"hacin":1.158,"hacin_class":"Hacinamiento Leve","hacin_score":817.5,"auto_score":125.0,"n_per":22,"n_hog":8,"source_year":2024,"crime_score":0.4185,"crime_nivel":"Medio","crime_color":"#ff9800"},"geometry":{"type":"Polygon","coordinates":[[[-72.0205219099999,-37.6628112780871],[-72.0215250359999,-37.6622943040871],[-72.0215724479999,-37.6622353600871],[-72.0213795459999,-37.6620268950871],[-72.0206568139999,-37.6624054400871],[-72.0203373319999,-37.6625973920871],[-72.0205219099999,-37.6628112780871]]]}},{"type":"Feature","properties":{"id":"8311011001020","commune":"Santa Bárbara","code":"08311","gse":"D","quintil":"Q2","nse_score":673.4,"educ":9.8,"educ_score":453.3,"hacin":1.294,"hacin_class":"Hacinamiento Leve","hacin_score":788.5,"auto_score":55.6,"n_per":22,"n_hog":9,"source_year":2024,"crime_score":0.4384,"crime_nivel":"Medio","crime_color":"#ff9800"},"geometry":{"type":"Polygon","coordinates":[[[-72.0265406209999,-37.6622093960871],[-72.0266673269999,-37.6625758880871],[-72.0269321349999,-37.6624612900871],[-72.0267869799999,-37.6621452400871],[-72.0265406209999,-37.6622093960871]]]}},{"type":"Feature","properties":{"id":"8311011001021","commune":"Santa Bárbara","code":"08311","gse":"C3","quintil":"Q2","nse_score":698.9,"educ":12.8,"educ_score":653.3,"hacin":1.706,"hacin_class":"Hacinamiento Medio","hacin_score":700.9,"auto_score":227.3,"n_per":29,"n_hog":10,"source_year":2024,"crime_score":0.4338,"crime_nivel":"Medio","crime_color":"#ff9800"},"geometry":{"type":"Polygon","coordinates":[[[-72.0262367639999,-37.6622829120871],[-72.0263850609999,-37.6627047320871],[-72.0266346219999,-37.6626143480871],[-72.0265060129999,-37.6622472670871],[-72.0262367639999,-37.6622829120871]]]}},{"type":"Feature","properties":{"id":"8311011001022","commune":"Santa Bárbara","code":"08311","gse":"D","quintil":"Q2","nse_score":685.3,"educ":9.9,"educ_score":460.0,"hacin":1.062,"hacin_class":"Hacinamiento Leve","hacin_score":837.8,"auto_score":83.3,"n_per":17,"n_hog":6,"source_year":2024,"crime_score":0.4345,"crime_nivel":"Medio","crime_color":"#ff9800"},"geometry":{"type":"Polygon","coordinates":[[[-72.025669821,-37.6630352020871],[-72.0263471569999,-37.6627513500871],[-72.0261706429999,-37.6622981830871],[-72.0254643619999,-37.6624923710871],[-72.025669821,-37.6630352020871]]]}},{"type":"Feature","properties":{"id":"8311011001023","commune":"Santa Bárbara","code":"08311","gse":"C3","quintil":"Q3","nse_score":720.0,"educ":12.3,"educ_score":620.0,"hacin":1.548,"hacin_class":"Hacinamiento Medio","hacin_score":734.4,"auto_score":224.1,"n_per":96,"n_hog":30,"source_year":2024,"crime_score":0.4429,"crime_nivel":"Medio","crime_color":"#ff9800"},"geometry":{"type":"Polygon","coordinates":[[[-72.0216271279999,-37.6623176980871],[-72.0206121809999,-37.6628496920871],[-72.0205704779999,-37.6629146830871],[-72.0207320819999,-37.6630880720871],[-72.0218023659999,-37.6624988180871],[-72.0216271279999,-37.6623176980871]]]}},{"type":"Feature","properties":{"id":"8311011001026","commune":"Santa Bárbara","code":"08311","gse":"D","quintil":"Q2","nse_score":678.8,"educ":10.5,"educ_score":500.0,"hacin":1.093,"hacin_class":"Hacinamiento Leve","hacin_score":831.3,"auto_score":88.2,"n_per":47,"n_hog":17,"source_year":2024,"crime_score":0.4426,"crime_nivel":"Medio","crime_color":"#ff9800"},"geometry":{"type":"Polygon","coordinates":[[[-72.0254121909999,-37.6625386290871],[-72.025117442,-37.6625628150871],[-72.0253523519999,-37.6631571180871],[-72.0256098219999,-37.6630589170871],[-72.0254121909999,-37.6625386290871]]]}},{"type":"Feature","properties":{"id":"8311011001027","commune":"Santa Bárbara","code":"08311","gse":"C3","quintil":"Q2","nse_score":705.8,"educ":12.1,"educ_score":606.7,"hacin":1.232,"hacin_class":"Hacinamiento Leve","hacin_score":801.7,"auto_score":225.8,"n_per":69,"n_hog":28,"source_year":2024,"crime_score":0.4407,"crime_nivel":"Medio","crime_color":"#ff9800"},"geometry":{"type":"Polygon","coordinates":[[[-72.022004981,-37.6627322600871],[-72.0218146329999,-37.6625406670871],[-72.0207548299999,-37.663120093087],[-72.0209469179999,-37.6633049750871],[-72.022004981,-37.6627322600871]]]}},{"type":"Feature","properties":{"id":"8311011001028","commune":"Santa Bárbara","code":"08311","gse":"C3","quintil":"Q2","nse_score":702.2,"educ":10.8,"educ_score":520.0,"hacin":1.122,"hacin_class":"Hacinamiento Leve","hacin_score":825.1,"auto_score":66.7,"n_per":46,"n_hog":15,"source_year":2024,"crime_score":0.4367,"crime_nivel":"Medio","crime_color":"#ff9800"},"geometry":{"type":"Polygon","coordinates":[[[-72.0250822239999,-37.6626074280871],[-72.0247971559999,-37.6626758280871],[-72.0250395019999,-37.663242838087],[-72.0252900109999,-37.6631741960871],[-72.0250822239999,-37.6626074280871]]]}},{"type":"Feature","properties":{"id":"8311011001029","commune":"Santa Bárbara","code":"08311","gse":"D","quintil":"Q1","nse_score":661.9,"educ":9.1,"educ_score":406.7,"hacin":0.9,"hacin_class":"Sin Hacinamiento","hacin_score":872.3,"auto_score":0.0,"n_per":18,"n_hog":9,"source_year":2024,"crime_score":0.4403,"crime_nivel":"Medio","crime_color":"#ff9800"},"geometry":{"type":"Polygon","coordinates":[[[-72.0190231979999,-37.6634480700871],[-72.0194940889999,-37.6632935590871],[-72.0189405469999,-37.6626529820871],[-72.0187694219999,-37.6627996660871],[-72.0190231979999,-37.6634480700871]]]}},{"type":"Feature","properties":{"id":"8311011001030","commune":"Santa Bárbara","code":"08311","gse":"E","quintil":"Q1","nse_score":598.8,"educ":9.3,"educ_score":420.0,"hacin":0.895,"hacin_class":"Sin Hacinamiento","hacin_score":873.5,"auto_score":0.0,"n_per":34,"n_hog":15,"source_year":2024,"crime_score":0.4591,"crime_nivel":"Medio","crime_color":"#ff9800"},"geometry":{"type":"Polygon","coordinates":[[[-72.0247647569999,-37.6626839300871],[-72.0244865899999,-37.6627611540871],[-72.0247314599999,-37.6633273270871],[-72.0249811709999,-37.6632588460871],[-72.0247647569999,-37.6626839300871]]]}},{"type":"Feature","properties":{"id":"8311011001032","commune":"Santa Bárbara","code":"08311","gse":"D","quintil":"Q1","nse_score":656.2,"educ":9.0,"educ_score":400.0,"hacin":0.881,"hacin_class":"Sin Hacinamiento","hacin_score":876.4,"auto_score":166.7,"n_per":37,"n_hog":15,"source_year":2024,"crime_score":0.4459,"crime_nivel":"Medio","crime_color":"#ff9800"},"geometry":{"type":"Polygon","coordinates":[[[-72.0240855349999,-37.6628446450871],[-72.0242702609999,-37.6634409260871],[-72.024667512,-37.6633449050871],[-72.0244217659999,-37.6627382530871],[-72.0240855349999,-37.6628446450871]]]}},{"type":"Feature","properties":{"id":"8311011001033","commune":"Santa Bárbara","code":"08311","gse":"C2","quintil":"Q3","nse_score":736.9,"educ":12.4,"educ_score":626.7,"hacin":1.403,"hacin_class":"Hacinamiento Leve","hacin_score":765.2,"auto_score":133.3,"n_per":80,"n_hog":29,"source_year":2024,"crime_score":0.4353,"crime_nivel":"Medio","crime_color":"#ff9800"},"geometry":{"type":"Polygon","coordinates":[[[-72.0221931239999,-37.6629733540871],[-72.0219882229999,-37.6627800420871],[-72.0209509949999,-37.6633390470871],[-72.0211617449999,-37.6635362930871],[-72.0221931239999,-37.6629733540871]]]}},{"type":"Feature","properties":{"id":"8311011001035","commune":"Santa Bárbara","code":"08311","gse":"C3","quintil":"Q3","nse_score":733.4,"educ":12.7,"educ_score":646.7,"hacin":1.439,"hacin_class":"Hacinamiento Leve","hacin_score":757.7,"auto_score":315.8,"n_per":59,"n_hog":18,"source_year":2024,"crime_score":0.4318,"crime_nivel":"Medio","crime_color":"#ff9800"},"geometry":{"type":"Polygon","coordinates":[[[-72.0213605709999,-37.6637653150871],[-72.0225589959999,-37.6634864550871],[-72.0225738389999,-37.663461060087],[-72.0222098179999,-37.6629952210871],[-72.0211858479999,-37.6635486160871],[-72.0213605709999,-37.6637653150871]]]}},{"type":"Feature","properties":{"id":"8311011001036","commune":"Santa Bárbara","code":"08311","gse":"E","quintil":"Q1","nse_score":613.9,"educ":9.3,"educ_score":420.0,"hacin":1.449,"hacin_class":"Hacinamiento Leve","hacin_score":755.5,"auto_score":230.8,"n_per":71,"n_hog":25,"source_year":2024,"crime_score":0.4637,"crime_nivel":"Medio","crime_color":"#ff9800"},"geometry":{"type":"Polygon","coordinates":[[[-72.0205411979999,-37.6630147680871],[-72.0203287069999,-37.6631472530871],[-72.0206310999999,-37.6634930550871],[-72.0209494529999,-37.6638366470871],[-72.0212203019999,-37.6637696990871],[-72.0205411979999,-37.6630147680871]]]}},{"type":"Feature","properties":{"id":"8311011001037","commune":"Santa Bárbara","code":"08311","gse":"D","quintil":"Q2","nse_score":676.6,"educ":10.6,"educ_score":506.7,"hacin":1.508,"hacin_class":"Hacinamiento Medio","hacin_score":743.0,"auto_score":163.3,"n_per":294,"n_hog":97,"source_year":2024,"crime_score":0.4966,"crime_nivel":"Medio","crime_color":"#ff9800"},"geometry":{"type":"Polygon","coordinates":[[[-72.0202900529999,-37.6631728560871],[-72.0184757309999,-37.6636835350871],[-72.0191893099999,-37.6648878820871],[-72.0196585059999,-37.6647363020871],[-72.0189246189999,-37.663821125087],[-72.0193554569999,-37.6637753480871],[-72.0190842739999,-37.6639213940871],[-72.0193757979999,-37.6641705140871],[-72.019878521,-37.6640533890871],[-72.0195508319999,-37.6636939710871],[-72.0195895629999,-37.6636749470871],[-72.0199388659999,-37.6640578880871],[-72.020221407,-37.6639877240871],[-72.0198807739999,-37.6636316740871],[-72.0199316289999,-37.6636071000871],[-72.0202718749999,-37.6639898110871],[-72.0205560569999,-37.6639154530871],[-72.0202186519999,-37.6635608370871],[-72.0202694649999,-37.6635344600871],[-72.0206091829999,-37.6639219320871],[-72.0208872329999,-37.663844985087],[-72.0202900529999,-37.6631728560871]]]}},{"type":"Feature","properties":{"id":"8311011001041","commune":"Santa Bárbara","code":"08311","gse":"C2","quintil":"Q4","nse_score":745.0,"educ":12.2,"educ_score":613.3,"hacin":1.088,"hacin_class":"Hacinamiento Leve","hacin_score":832.4,"auto_score":229.2,"n_per":62,"n_hog":22,"source_year":2024,"crime_score":0.4296,"crime_nivel":"Medio","crime_color":"#ff9800"},"geometry":{"type":"Polygon","coordinates":[[[-72.0226048579999,-37.6635243760871],[-72.0213779869999,-37.6638116180871],[-72.0213726199999,-37.6638267990871],[-72.0215653289999,-37.664024581087],[-72.0227429559999,-37.6637443820871],[-72.0226048579999,-37.6635243760871]]]}},{"type":"Feature","properties":{"id":"8311011001043","commune":"Santa Bárbara","code":"08311","gse":"C3","quintil":"Q2","nse_score":697.7,"educ":11.2,"educ_score":546.7,"hacin":1.3,"hacin_class":"Hacinamiento Leve","hacin_score":787.2,"auto_score":71.4,"n_per":65,"n_hog":27,"source_year":2024,"crime_score":0.4418,"crime_nivel":"Medio","crime_color":"#ff9800"},"geometry":{"type":"Polygon","coordinates":[[[-72.0374678289999,-37.6644095080871],[-72.0371316199999,-37.663631863087],[-72.0368144629999,-37.6637296420871],[-72.0371540919999,-37.6645396070871],[-72.0374678289999,-37.6644095080871]]]}},{"type":"Feature","properties":{"id":"8311011001044","commune":"Santa Bárbara","code":"08311","gse":"D","quintil":"Q2","nse_score":670.1,"educ":10.7,"educ_score":513.3,"hacin":1.3,"hacin_class":"Hacinamiento Leve","hacin_score":787.2,"auto_score":160.7,"n_per":78,"n_hog":27,"source_year":2024,"crime_score":0.4514,"crime_nivel":"Medio","crime_color":"#ff9800"},"geometry":{"type":"Polygon","coordinates":[[[-72.0371138799999,-37.664577879087],[-72.0367740169999,-37.6637657110871],[-72.0364713929999,-37.6638604550871],[-72.036808516,-37.6646758640871],[-72.0371138799999,-37.664577879087]]]}},{"type":"Feature","properties":{"id":"8311011001045","commune":"Santa Bárbara","code":"08311","gse":"C1","quintil":"Q5","nse_score":793.2,"educ":13.2,"educ_score":680.0,"hacin":1.088,"hacin_class":"Hacinamiento Leve","hacin_score":832.4,"auto_score":238.1,"n_per":62,"n_hog":21,"source_year":2024,"crime_score":0.4178,"crime_nivel":"Medio","crime_color":"#ff9800"},"geometry":{"type":"Polygon","coordinates":[[[-72.0217520289999,-37.6642819480871],[-72.022845979,-37.6640365760871],[-72.0229244489999,-37.6639619710871],[-72.0227523759999,-37.663763902087],[-72.0216420639999,-37.6640245380871],[-72.0217520289999,-37.6642819480871]]]}},{"type":"Feature","properties":{"id":"8311011001046","commune":"Santa Bárbara","code":"08311","gse":"C3","quintil":"Q3","nse_score":714.5,"educ":11.6,"educ_score":573.3,"hacin":1.295,"hacin_class":"Hacinamiento Leve","hacin_score":788.3,"auto_score":121.6,"n_per":101,"n_hog":37,"source_year":2024,"crime_score":0.4453,"crime_nivel":"Medio","crime_color":"#ff9800"},"geometry":{"type":"Polygon","coordinates":[[[-72.021468566,-37.6640379030871],[-72.0212949279999,-37.663822403087],[-72.0197571979999,-37.6641762850871],[-72.0199446059999,-37.664378981087],[-72.021468566,-37.6640379030871]]]}},{"type":"Feature","properties":{"id":"8311011001047","commune":"Santa Bárbara","code":"08311","gse":"C3","quintil":"Q2","nse_score":697.8,"educ":10.6,"educ_score":506.7,"hacin":1.302,"hacin_class":"Hacinamiento Leve","hacin_score":786.7,"auto_score":136.4,"n_per":56,"n_hog":22,"source_year":2024,"crime_score":0.4399,"crime_nivel":"Medio","crime_color":"#ff9800"},"geometry":{"type":"Polygon","coordinates":[[[-72.0363831849999,-37.6638918830871],[-72.0361108899999,-37.6640153520871],[-72.0364832409999,-37.664822416087],[-72.0367750999999,-37.6646916340871],[-72.0363831849999,-37.6638918830871]]]}},{"type":"Feature","properties":{"id":"8311011001049","commune":"Santa Bárbara","code":"08311","gse":"E","quintil":"Q1","nse_score":618.2,"educ":10.1,"educ_score":473.3,"hacin":1.391,"hacin_class":"Hacinamiento Leve","hacin_score":767.8,"auto_score":88.2,"n_per":160,"n_hog":57,"source_year":2024,"crime_score":0.4825,"crime_nivel":"Medio","crime_color":"#ff9800"},"geometry":{"type":"Polygon","coordinates":[[[-72.0245249159999,-37.6642813500871],[-72.0248469839999,-37.666138307087],[-72.0260513799999,-37.665954712087],[-72.0258478459999,-37.664869600087],[-72.0260016439999,-37.6654517630871],[-72.0266045549999,-37.665349032087],[-72.0260118919999,-37.6654846390871],[-72.0261555739999,-37.665942655087],[-72.0298567339999,-37.6651973140871],[-72.0263163899999,-37.6640527450871],[-72.0245249159999,-37.6642813500871]]]}},{"type":"Feature","properties":{"id":"8311011001050","commune":"Santa Bárbara","code":"08311","gse":"C3","quintil":"Q3","nse_score":707.6,"educ":12.0,"educ_score":600.0,"hacin":1.256,"hacin_class":"Hacinamiento Leve","hacin_score":796.6,"auto_score":95.2,"n_per":103,"n_hog":41,"source_year":2024,"crime_score":0.4475,"crime_nivel":"Medio","crime_color":"#ff9800"},"geometry":{"type":"Polygon","coordinates":[[[-72.0199436249999,-37.6644006710871],[-72.0197071769999,-37.6641630360871],[-72.0194267489999,-37.664239830087],[-72.0198013069999,-37.664745140087],[-72.0216406949999,-37.664262826087],[-72.0214791169999,-37.664066012087],[-72.0199436249999,-37.6644006710871]]]}},{"type":"Feature","properties":{"id":"8311011001051","commune":"Santa Bárbara","code":"08311","gse":"D","quintil":"Q1","nse_score":664.3,"educ":10.3,"educ_score":486.7,"hacin":1.324,"hacin_class":"Hacinamiento Leve","hacin_score":782.1,"auto_score":125.0,"n_per":49,"n_hog":20,"source_year":2024,"crime_score":0.4465,"crime_nivel":"Medio","crime_color":"#ff9800"},"geometry":{"type":"Polygon","coordinates":[[[-72.0352530589999,-37.664340662087],[-72.0357372389999,-37.665104543087],[-72.0360317539999,-37.6649895050871],[-72.0355330249999,-37.6642182030871],[-72.0352530589999,-37.664340662087]]]}},{"type":"Feature","properties":{"id":"8311011001052","commune":"Santa Bárbara","code":"08311","gse":"D","quintil":"Q2","nse_score":679.7,"educ":11.5,"educ_score":566.7,"hacin":1.442,"hacin_class":"Hacinamiento Leve","hacin_score":757.0,"auto_score":222.2,"n_per":75,"n_hog":26,"source_year":2024,"crime_score":0.4484,"crime_nivel":"Medio","crime_color":"#ff9800"},"geometry":{"type":"Polygon","coordinates":[[[-72.0356908729999,-37.665112187087],[-72.0352035469999,-37.664348874087],[-72.0349186969999,-37.664461605087],[-72.0354158469999,-37.6652370560871],[-72.0356908729999,-37.665112187087]]]}},{"type":"Feature","properties":{"id":"8311011001053","commune":"Santa Bárbara","code":"08311","gse":"C3","quintil":"Q3","nse_score":719.8,"educ":12.3,"educ_score":620.0,"hacin":1.246,"hacin_class":"Hacinamiento Leve","hacin_score":798.8,"auto_score":71.4,"n_per":71,"n_hog":27,"source_year":2024,"crime_score":0.4377,"crime_nivel":"Medio","crime_color":"#ff9800"},"geometry":{"type":"Polygon","coordinates":[[[-72.0374926249999,-37.6644922900871],[-72.0365017889999,-37.6648685230871],[-72.0366301529999,-37.665111032087],[-72.0376142189999,-37.6647458010871],[-72.0374926249999,-37.6644922900871]]]}},{"type":"Feature","properties":{"id":"8311011001056","commune":"Santa Bárbara","code":"08311","gse":"D","quintil":"Q1","nse_score":660.7,"educ":10.0,"educ_score":466.7,"hacin":1.215,"hacin_class":"Hacinamiento Leve","hacin_score":805.3,"auto_score":108.1,"n_per":96,"n_hog":37,"source_year":2024,"crime_score":0.4577,"crime_nivel":"Medio","crime_color":"#ff9800"},"geometry":{"type":"Polygon","coordinates":[[[-72.0298308549999,-37.6652806380871],[-72.0300423209999,-37.6657704520871],[-72.0306201209999,-37.665649317087],[-72.0300456829999,-37.6657884680871],[-72.0301558669999,-37.666194637087],[-72.0308710599999,-37.666067502087],[-72.0301714329999,-37.666244856087],[-72.0303221209999,-37.666627357087],[-72.0310530209999,-37.6664645750871],[-72.0303382279999,-37.666678221087],[-72.0306886789999,-37.667557178087],[-72.0336349919999,-37.666302085087],[-72.0335197699999,-37.666161326087],[-72.0327712249999,-37.6660417460871],[-72.0301122309999,-37.6652140250871],[-72.0298308549999,-37.6652806380871]]]}},{"type":"Feature","properties":{"id":"8311011001057","commune":"Santa Bárbara","code":"08311","gse":"D","quintil":"Q2","nse_score":669.4,"educ":10.3,"educ_score":486.7,"hacin":1.087,"hacin_class":"Hacinamiento Leve","hacin_score":832.4,"auto_score":111.1,"n_per":87,"n_hog":37,"source_year":2024,"crime_score":0.4535,"crime_nivel":"Medio","crime_color":"#ff9800"},"geometry":{"type":"Polygon","coordinates":[[[-72.0300705559999,-37.6678193000871],[-72.0306040289999,-37.667570813087],[-72.0297287399999,-37.6652860830871],[-72.0291709789999,-37.6654589880871],[-72.0300705559999,-37.6678193000871]]]}},{"type":"Feature","properties":{"id":"8311011001058","commune":"Santa Bárbara","code":"08311","gse":"D","quintil":"Q1","nse_score":664.4,"educ":10.6,"educ_score":506.7,"hacin":1.212,"hacin_class":"Hacinamiento Leve","hacin_score":805.9,"auto_score":116.7,"n_per":80,"n_hog":29,"source_year":2024,"crime_score":0.4532,"crime_nivel":"Medio","crime_color":"#ff9800"},"geometry":{"type":"Polygon","coordinates":[[[-72.0293424609999,-37.668152891087],[-72.0299774779999,-37.667836777087],[-72.0290592789999,-37.6654546410871],[-72.0284005449999,-37.665641215087],[-72.0293424609999,-37.668152891087]]]}},{"type":"Feature","properties":{"id":"8311011001059","commune":"Santa Bárbara","code":"08311","gse":"C3","quintil":"Q2","nse_score":705.5,"educ":11.1,"educ_score":540.0,"hacin":1.0,"hacin_class":"Hacinamiento Leve","hacin_score":851.1,"auto_score":207.3,"n_per":106,"n_hog":40,"source_year":2024,"crime_score":0.4486,"crime_nivel":"Medio","crime_color":"#ff9800"},"geometry":{"type":"Polygon","coordinates":[[[-72.0284601949999,-37.668702532087],[-72.0292486949999,-37.6681421480871],[-72.0283370789999,-37.665666555087],[-72.0275194249999,-37.665785054087],[-72.02808418,-37.668217576087],[-72.0284601949999,-37.668702532087]]]}},{"type":"Feature","properties":{"id":"8311011001060","commune":"Santa Bárbara","code":"08311","gse":"C2","quintil":"Q3","nse_score":743.1,"educ":12.3,"educ_score":620.0,"hacin":1.092,"hacin_class":"Hacinamiento Leve","hacin_score":831.4,"auto_score":152.2,"n_per":130,"n_hog":45,"source_year":2024,"crime_score":0.4442,"crime_nivel":"Medio","crime_color":"#ff9800"},"geometry":{"type":"Polygon","coordinates":[[[-72.0268626099999,-37.6684529280871],[-72.0279936719999,-37.668227457087],[-72.0273725089999,-37.6658110820871],[-72.0261595209999,-37.666019793087],[-72.0268626099999,-37.6684529280871]]]}},{"type":"Feature","properties":{"id":"8311011001061","commune":"Santa Bárbara","code":"08311","gse":"C3","quintil":"Q2","nse_score":696.4,"educ":12.0,"educ_score":600.0,"hacin":1.281,"hacin_class":"Hacinamiento Leve","hacin_score":791.2,"auto_score":119.0,"n_per":164,"n_hog":62,"source_year":2024,"crime_score":0.4633,"crime_nivel":"Medio","crime_color":"#ff9800"},"geometry":{"type":"Polygon","coordinates":[[[-72.024858547,-37.666195004087],[-72.0250088749999,-37.668810167087],[-72.0260023699999,-37.668470416087],[-72.0257911679999,-37.667738945087],[-72.026068473,-37.668441539087],[-72.0267404019999,-37.668450475087],[-72.0264284809999,-37.667257749087],[-72.025911043,-37.667334344087],[-72.026413665,-37.667200159087],[-72.0260758289999,-37.666037864087],[-72.024858547,-37.666195004087]]]}},{"type":"Feature","properties":{"id":"8311011001062","commune":"Santa Bárbara","code":"08311","gse":"C3","quintil":"Q3","nse_score":723.8,"educ":12.7,"educ_score":646.7,"hacin":1.294,"hacin_class":"Hacinamiento Leve","hacin_score":788.5,"auto_score":428.6,"n_per":22,"n_hog":6,"source_year":2024,"crime_score":0.4263,"crime_nivel":"Medio","crime_color":"#ff9800"},"geometry":{"type":"Polygon","coordinates":[[[-72.0268177679999,-37.668525591087],[-72.0261744389999,-37.668504402087],[-72.0263463939999,-37.668992595087],[-72.0277690589999,-37.668839630087],[-72.0282315929999,-37.668548458087],[-72.0280167509999,-37.668310934087],[-72.0268177679999,-37.668525591087]]]}},{"type":"Feature","properties":{"id":"8311011001063","commune":"Santa Bárbara","code":"08311","gse":"C3","quintil":"Q3","nse_score":722.5,"educ":12.3,"educ_score":620.0,"hacin":1.287,"hacin_class":"Hacinamiento Leve","hacin_score":789.9,"auto_score":137.5,"n_per":112,"n_hog":38,"source_year":2024,"crime_score":0.4457,"crime_nivel":"Medio","crime_color":"#ff9800"},"geometry":{"type":"Polygon","coordinates":[[[-72.0283734729999,-37.6687919330871],[-72.0282614829999,-37.668580568087],[-72.0277779929999,-37.668865715087],[-72.0263777679999,-37.669038619087],[-72.0260487929999,-37.6685170900871],[-72.0249851959999,-37.668900663087],[-72.0250376269999,-37.669761570087],[-72.0271322509999,-37.669682790087],[-72.0283734729999,-37.6687919330871]]]}},{"type":"Feature","properties":{"id":"8311011001025","commune":"Santa Bárbara","code":"08311","gse":"D","quintil":"Q1","nse_score":658.8,"educ":10.2,"educ_score":480.0,"hacin":1.51,"hacin_class":"Hacinamiento Medio","hacin_score":742.5,"auto_score":60.0,"n_per":74,"n_hog":26,"source_year":2024,"crime_score":0.4533,"crime_nivel":"Medio","crime_color":"#ff9800"},"geometry":{"type":"MultiPolygon","coordinates":[[[[-72.0356166439999,-37.6655233820871],[-72.0365624289999,-37.665162294087],[-72.0365777129999,-37.6651298410871],[-72.0364095449999,-37.6649039580871],[-72.0354411149999,-37.6652795630871],[-72.0356166439999,-37.6655233820871]]],[[[-72.0313391529999,-37.6635612610871],[-72.0316309149999,-37.665633536087],[-72.0328916009999,-37.6660161240871],[-72.0336157529999,-37.6661049950871],[-72.0345908279999,-37.666027216087],[-72.0366437279999,-37.665264538087],[-72.0356491759999,-37.6655659360871],[-72.0354959129999,-37.665517875087],[-72.0343793659999,-37.6637015910871],[-72.0354686949999,-37.6632832160871],[-72.0357078669999,-37.6626933750871],[-72.0345680129999,-37.6623732420871],[-72.0313391529999,-37.6635612610871]]]]}},{"type":"Feature","properties":{"id":"8311011001001","commune":"Santa Bárbara","code":"08311","gse":"E","quintil":"Q1","nse_score":624.8,"educ":11.0,"educ_score":533.3,"hacin":1.28,"hacin_class":"Hacinamiento Leve","hacin_score":791.5,"auto_score":55.6,"n_per":64,"n_hog":25,"source_year":2024,"crime_score":0.4595,"crime_nivel":"Medio","crime_color":"#ff9800"},"geometry":{"type":"MultiPolygon","coordinates":[[[[-72.0306576479999,-37.6596448800871],[-72.030964175,-37.6604195620871],[-72.0334004989999,-37.6587148910871],[-72.0325240069999,-37.6578802130871],[-72.0314869579999,-37.6592434580871],[-72.0306576479999,-37.6596448800871]]],[[[-72.0290449209999,-37.6584543860871],[-72.0257645969999,-37.6598617480871],[-72.0250363399999,-37.6587647520871],[-72.0226905169999,-37.6599342790871],[-72.0240614929999,-37.6627769110871],[-72.0291169069999,-37.6614755130871],[-72.0306170609999,-37.6604383880871],[-72.0307302449999,-37.6602404000871],[-72.0304875139999,-37.6595400380871],[-72.030558605,-37.6596047220871],[-72.0314540689999,-37.6592183910871],[-72.032483855,-37.6578659120871],[-72.0300739449999,-37.6576555320871],[-72.0290449209999,-37.6584543860871]]]]}},{"type":"Feature","properties":{"id":"8311011002001","commune":"Santa Bárbara","code":"08311","gse":"D","quintil":"Q2","nse_score":672.9,"educ":10.0,"educ_score":466.7,"hacin":1.143,"hacin_class":"Hacinamiento Leve","hacin_score":820.7,"auto_score":266.7,"n_per":40,"n_hog":15,"source_year":2024,"crime_score":0.4425,"crime_nivel":"Medio","crime_color":"#ff9800"},"geometry":{"type":"Polygon","coordinates":[[[-72.0072975419999,-37.666543279087],[-72.0080338479999,-37.668692206087],[-72.0092914539999,-37.667302739087],[-72.0082391209999,-37.667481275087],[-72.0093151369999,-37.667276664087],[-72.009918077,-37.666681317087],[-72.0107115569999,-37.6662086750871],[-72.0117389719999,-37.665930996087],[-72.0164182759999,-37.6653453130871],[-72.0152854059999,-37.6633656280871],[-72.0146358039999,-37.6635941960871],[-72.0149383679999,-37.664044464087],[-72.0121565629999,-37.664629769087],[-72.0111854649999,-37.6649728900871],[-72.0072975419999,-37.666543279087]]]}},{"type":"Feature","properties":{"id":"8311011002002","commune":"Santa Bárbara","code":"08311","gse":"E","quintil":"Q1","nse_score":619.4,"educ":8.5,"educ_score":366.7,"hacin":1.058,"hacin_class":"Hacinamiento Leve","hacin_score":838.8,"auto_score":131.6,"n_per":92,"n_hog":39,"source_year":2024,"crime_score":0.467,"crime_nivel":"Medio","crime_color":"#ff9800"},"geometry":{"type":"Polygon","coordinates":[[[-72.0237547099999,-37.6639729400871],[-72.0226374229999,-37.6641612810871],[-72.0227269789999,-37.664314491087],[-72.0239474789999,-37.6640502520871],[-72.0216036029999,-37.6645922960871],[-72.0217148449999,-37.6649226320871],[-72.0244540029999,-37.6643172230871],[-72.0243625099999,-37.6641646210871],[-72.0237547099999,-37.6639729400871]]]}},{"type":"Feature","properties":{"id":"8311011002003","commune":"Santa Bárbara","code":"08311","gse":"C3","quintil":"Q2","nse_score":706.7,"educ":11.2,"educ_score":546.7,"hacin":1.2,"hacin_class":"Hacinamiento Leve","hacin_score":808.5,"auto_score":136.4,"n_per":36,"n_hog":12,"source_year":2024,"crime_score":0.4334,"crime_nivel":"Medio","crime_color":"#ff9800"},"geometry":{"type":"Polygon","coordinates":[[[-72.0225860399999,-37.6641621050871],[-72.0215388649999,-37.6644036350871],[-72.0215286669999,-37.6644226300871],[-72.0216069689999,-37.6645704860871],[-72.0226691079999,-37.6643278660871],[-72.0225860399999,-37.6641621050871]]]}},{"type":"Feature","properties":{"id":"8311011002004","commune":"Santa Bárbara","code":"08311","gse":"D","quintil":"Q1","nse_score":636.9,"educ":9.5,"educ_score":433.3,"hacin":0.983,"hacin_class":"Sin Hacinamiento","hacin_score":854.7,"auto_score":89.3,"n_per":57,"n_hog":30,"source_year":2024,"crime_score":0.4549,"crime_nivel":"Medio","crime_color":"#ff9800"},"geometry":{"type":"Polygon","coordinates":[[[-72.0232213589999,-37.6650152980871],[-72.0245287649999,-37.6647070050871],[-72.0244855419999,-37.664432811087],[-72.0231448129999,-37.664709987087],[-72.0232213589999,-37.6650152980871]]]}},{"type":"Feature","properties":{"id":"8311011002005","commune":"Santa Bárbara","code":"08311","gse":"C3","quintil":"Q3","nse_score":723.6,"educ":11.9,"educ_score":593.3,"hacin":0.959,"hacin_class":"Sin Hacinamiento","hacin_score":859.9,"auto_score":179.2,"n_per":116,"n_hog":48,"source_year":2024,"crime_score":0.4462,"crime_nivel":"Medio","crime_color":"#ff9800"},"geometry":{"type":"Polygon","coordinates":[[[-72.0214285499999,-37.6644227880871],[-72.018364275,-37.6651338950871],[-72.0184329929999,-37.665298776087],[-72.0203616809999,-37.6648584280871],[-72.0184472299999,-37.665324040087],[-72.0186967499999,-37.6660363990871],[-72.0202955519999,-37.6656912660871],[-72.0202181989999,-37.6653278210871],[-72.0216552989999,-37.6649569730871],[-72.0214285499999,-37.6644227880871]]]}},{"type":"Feature","properties":{"id":"8311011002006","commune":"Santa Bárbara","code":"08311","gse":"C3","quintil":"Q2","nse_score":692.4,"educ":11.2,"educ_score":546.7,"hacin":1.074,"hacin_class":"Hacinamiento Leve","hacin_score":835.3,"auto_score":76.9,"n_per":58,"n_hog":27,"source_year":2024,"crime_score":0.4416,"crime_nivel":"Medio","crime_color":"#ff9800"},"geometry":{"type":"Polygon","coordinates":[[[-72.0218646459999,-37.6653289980871],[-72.0231586459999,-37.665035969087],[-72.0230854419999,-37.6647661540871],[-72.0217746739999,-37.6650336190871],[-72.0218646459999,-37.6653289980871]]]}},{"type":"Feature","properties":{"id":"8311011002007","commune":"Santa Bárbara","code":"08311","gse":"D","quintil":"Q2","nse_score":683.2,"educ":11.1,"educ_score":540.0,"hacin":1.179,"hacin_class":"Hacinamiento Leve","hacin_score":813.1,"auto_score":107.1,"n_per":132,"n_hog":57,"source_year":2024,"crime_score":0.4598,"crime_nivel":"Medio","crime_color":"#ff9800"},"geometry":{"type":"Polygon","coordinates":[[[-72.0214503509999,-37.666652774087],[-72.0247340129999,-37.666145907087],[-72.0245696779999,-37.6647950770871],[-72.0212608709999,-37.6655325090871],[-72.0214503509999,-37.666652774087]]]}},{"type":"Feature","properties":{"id":"8311011002008","commune":"Santa Bárbara","code":"08311","gse":"D","quintil":"Q2","nse_score":671.8,"educ":11.0,"educ_score":533.3,"hacin":1.304,"hacin_class":"Hacinamiento Leve","hacin_score":786.5,"auto_score":145.2,"n_per":73,"n_hog":29,"source_year":2024,"crime_score":0.4499,"crime_nivel":"Medio","crime_color":"#ff9800"},"geometry":{"type":"Polygon","coordinates":[[[-72.0217870699999,-37.6653500140871],[-72.0216784379999,-37.665056416087],[-72.0202604589999,-37.6653969320871],[-72.0203570909999,-37.6656790750871],[-72.0217870699999,-37.6653500140871]]]}},{"type":"Feature","properties":{"id":"8311011002009","commune":"Santa Bárbara","code":"08311","gse":"C2","quintil":"Q4","nse_score":786.9,"educ":13.3,"educ_score":686.7,"hacin":1.167,"hacin_class":"Hacinamiento Leve","hacin_score":815.6,"auto_score":250.0,"n_per":98,"n_hog":40,"source_year":2024,"crime_score":0.4267,"crime_nivel":"Medio","crime_color":"#ff9800"},"geometry":{"type":"Polygon","coordinates":[[[-72.0183618389999,-37.665342063087],[-72.0173952399999,-37.665539632087],[-72.0183590039999,-37.665313789087],[-72.0182756099999,-37.6651545390871],[-72.0165763659999,-37.6654280650871],[-72.0172342859999,-37.6664000810871],[-72.0186566929999,-37.666071517087],[-72.0183618389999,-37.665342063087]]]}},{"type":"Feature","properties":{"id":"8311011002010","commune":"Santa Bárbara","code":"08311","gse":"E","quintil":"Q1","nse_score":568.5,"educ":8.0,"educ_score":333.3,"hacin":1.458,"hacin_class":"Hacinamiento Leve","hacin_score":753.5,"auto_score":0.0,"n_per":35,"n_hog":11,"source_year":2024,"crime_score":0.4666,"crime_nivel":"Medio","crime_color":"#ff9800"},"geometry":{"type":"Polygon","coordinates":[[[-72.0107429579999,-37.666256595087],[-72.0099647849999,-37.6667206160871],[-72.0094261629999,-37.667245402087],[-72.0108376389999,-37.666611479087],[-72.0126889719999,-37.666681580087],[-72.0152473179999,-37.666065948087],[-72.0152348139999,-37.6659254310871],[-72.0165124139999,-37.6654505930871],[-72.011750892,-37.665984188087],[-72.0107429579999,-37.666256595087]]]}},{"type":"Feature","properties":{"id":"8311011002011","commune":"Santa Bárbara","code":"08311","gse":"E","quintil":"Q1","nse_score":583.4,"educ":8.6,"educ_score":373.3,"hacin":1.333,"hacin_class":"Hacinamiento Leve","hacin_score":780.1,"auto_score":0.0,"n_per":36,"n_hog":15,"source_year":2024,"crime_score":0.4632,"crime_nivel":"Medio","crime_color":"#ff9800"},"geometry":{"type":"Polygon","coordinates":[[[-72.0155625029999,-37.6658235350871],[-72.0156432509999,-37.665952534087],[-72.0164317679999,-37.665769589087],[-72.0166445319999,-37.6661088060871],[-72.0168860819999,-37.666009591087],[-72.0165177989999,-37.665458497087],[-72.0155625029999,-37.6658235350871]]]}},{"type":"Feature","properties":{"id":"8311011002012","commune":"Santa Bárbara","code":"08311","gse":"C2","quintil":"Q3","nse_score":744.3,"educ":11.6,"educ_score":573.3,"hacin":1.24,"hacin_class":"Hacinamiento Leve","hacin_score":800.0,"auto_score":150.0,"n_per":62,"n_hog":20,"source_year":2024,"crime_score":0.4298,"crime_nivel":"Medio","crime_color":"#ff9800"},"geometry":{"type":"Polygon","coordinates":[[[-72.0203596109999,-37.666907493087],[-72.0213293749999,-37.666650797087],[-72.0211455549999,-37.665570411087],[-72.0200877149999,-37.665819112087],[-72.0203596109999,-37.666907493087]]]}},{"type":"Feature","properties":{"id":"8311011002013","commune":"Santa Bárbara","code":"08311","gse":"C3","quintil":"Q2","nse_score":701.9,"educ":11.5,"educ_score":566.7,"hacin":1.333,"hacin_class":"Hacinamiento Leve","hacin_score":780.1,"auto_score":205.9,"n_per":48,"n_hog":17,"source_year":2024,"crime_score":0.4372,"crime_nivel":"Medio","crime_color":"#ff9800"},"geometry":{"type":"Polygon","coordinates":[[[-72.0157899909999,-37.6663298170871],[-72.0165996919999,-37.666121817087],[-72.0166009349999,-37.666096440087],[-72.016417799,-37.6657957250871],[-72.0156553669999,-37.6659754570871],[-72.0157899909999,-37.6663298170871]]]}},{"type":"Feature","properties":{"id":"8311011002014","commune":"Santa Bárbara","code":"08311","gse":"C3","quintil":"Q3","nse_score":727.9,"educ":12.2,"educ_score":613.3,"hacin":1.0,"hacin_class":"Hacinamiento Leve","hacin_score":851.1,"auto_score":227.3,"n_per":28,"n_hog":10,"source_year":2024,"crime_score":0.4266,"crime_nivel":"Medio","crime_color":"#ff9800"},"geometry":{"type":"Polygon","coordinates":[[[-72.0193083599999,-37.6671694180871],[-72.0202580899999,-37.6669291640871],[-72.0199889289999,-37.6658432840871],[-72.0190885879999,-37.6660506370871],[-72.0193083599999,-37.6671694180871]]]}},{"type":"Feature","properties":{"id":"8311011002015","commune":"Santa Bárbara","code":"08311","gse":"D","quintil":"Q1","nse_score":642.9,"educ":8.7,"educ_score":380.0,"hacin":1.02,"hacin_class":"Hacinamiento Leve","hacin_score":846.8,"auto_score":131.6,"n_per":51,"n_hog":18,"source_year":2024,"crime_score":0.4522,"crime_nivel":"Medio","crime_color":"#ff9800"},"geometry":{"type":"Polygon","coordinates":[[[-72.0155185319999,-37.665894053087],[-72.0152366869999,-37.665952239087],[-72.0152811459999,-37.666090142087],[-72.014151421,-37.666372649087],[-72.0142433689999,-37.6666830400871],[-72.015674439,-37.666356535087],[-72.0155185319999,-37.665894053087]]]}},{"type":"Feature","properties":{"id":"8311011002016","commune":"Santa Bárbara","code":"08311","gse":"E","quintil":"Q1","nse_score":632.0,"educ":9.6,"educ_score":440.0,"hacin":1.191,"hacin_class":"Hacinamiento Leve","hacin_score":810.4,"auto_score":112.9,"n_per":81,"n_hog":28,"source_year":2024,"crime_score":0.4615,"crime_nivel":"Medio","crime_color":"#ff9800"},"geometry":{"type":"Polygon","coordinates":[[[-72.0184499619999,-37.6673479120871],[-72.0191979959999,-37.6671854580871],[-72.0189993629999,-37.666065319087],[-72.0172696839999,-37.6664699950871],[-72.0177967179999,-37.667285971087],[-72.0184499619999,-37.6673479120871]]]}},{"type":"Feature","properties":{"id":"8311011002017","commune":"Santa Bárbara","code":"08311","gse":"D","quintil":"Q1","nse_score":655.4,"educ":11.4,"educ_score":560.0,"hacin":0.983,"hacin_class":"Sin Hacinamiento","hacin_score":854.7,"auto_score":20.8,"n_per":58,"n_hog":22,"source_year":2024,"crime_score":0.4507,"crime_nivel":"Medio","crime_color":"#ff9800"},"geometry":{"type":"Polygon","coordinates":[[[-72.0157646069999,-37.6667595960871],[-72.0170637699999,-37.666435049087],[-72.0171063059999,-37.666360710087],[-72.0168969399999,-37.6660978960871],[-72.0156275329999,-37.666415446087],[-72.0157646069999,-37.6667595960871]]]}},{"type":"Feature","properties":{"id":"8311011002018","commune":"Santa Bárbara","code":"08311","gse":"D","quintil":"Q2","nse_score":680.9,"educ":11.9,"educ_score":593.3,"hacin":1.241,"hacin_class":"Hacinamiento Leve","hacin_score":799.7,"auto_score":111.1,"n_per":72,"n_hog":25,"source_year":2024,"crime_score":0.4474,"crime_nivel":"Medio","crime_color":"#ff9800"},"geometry":{"type":"Polygon","coordinates":[[[-72.0235175159999,-37.667508362087],[-72.0248265299999,-37.667311294087],[-72.024748428,-37.666224841087],[-72.0233491519999,-37.6664346760871],[-72.0235175159999,-37.667508362087]]]}},{"type":"Feature","properties":{"id":"8311011002019","commune":"Santa Bárbara","code":"08311","gse":"E","quintil":"Q1","nse_score":615.5,"educ":9.5,"educ_score":433.3,"hacin":1.205,"hacin_class":"Hacinamiento Leve","hacin_score":807.4,"auto_score":71.4,"n_per":47,"n_hog":19,"source_year":2024,"crime_score":0.4579,"crime_nivel":"Medio","crime_color":"#ff9800"},"geometry":{"type":"Polygon","coordinates":[[[-72.012771901,-37.666688278087],[-72.0116009919999,-37.6666888660871],[-72.0121265379999,-37.667735311087],[-72.0143554619999,-37.667090352087],[-72.0140602669999,-37.6663279910871],[-72.012771901,-37.666688278087]]]}},{"type":"Feature","properties":{"id":"8311011002020","commune":"Santa Bárbara","code":"08311","gse":"D","quintil":"Q2","nse_score":684.6,"educ":11.0,"educ_score":533.3,"hacin":1.391,"hacin_class":"Hacinamiento Leve","hacin_score":767.8,"auto_score":159.1,"n_per":64,"n_hog":21,"source_year":2024,"crime_score":0.4448,"crime_nivel":"Medio","crime_color":"#ff9800"},"geometry":{"type":"Polygon","coordinates":[[[-72.022573184,-37.667653360087],[-72.0234168629999,-37.6675083420871],[-72.0232395799999,-37.666447947087],[-72.0224268429999,-37.666579148087],[-72.022573184,-37.667653360087]]]}},{"type":"Feature","properties":{"id":"8311011002021","commune":"Santa Bárbara","code":"08311","gse":"E","quintil":"Q1","nse_score":569.4,"educ":7.3,"educ_score":286.7,"hacin":1.333,"hacin_class":"Hacinamiento Leve","hacin_score":780.1,"auto_score":51.7,"n_per":72,"n_hog":30,"source_year":2024,"crime_score":0.4749,"crime_nivel":"Medio","crime_color":"#ff9800"},"geometry":{"type":"Polygon","coordinates":[[[-72.0144387219999,-37.667100120087],[-72.0156278989999,-37.666802267087],[-72.0155445569999,-37.666489121087],[-72.0142915899999,-37.666755353087],[-72.0144387219999,-37.667100120087]]]}},{"type":"Feature","properties":{"id":"8311011002022","commune":"Santa Bárbara","code":"08311","gse":"D","quintil":"Q1","nse_score":638.1,"educ":11.1,"educ_score":540.0,"hacin":1.241,"hacin_class":"Hacinamiento Leve","hacin_score":799.8,"auto_score":53.6,"n_per":67,"n_hog":27,"source_year":2024,"crime_score":0.4569,"crime_nivel":"Medio","crime_color":"#ff9800"},"geometry":{"type":"Polygon","coordinates":[[[-72.0159623669999,-37.6676146340871],[-72.0176110619999,-37.667214957087],[-72.0176275949999,-37.667175730087],[-72.0171435429999,-37.6664752720871],[-72.0159833279999,-37.6667690990871],[-72.0157689779999,-37.6668654870871],[-72.0159623669999,-37.6676146340871]]]}},{"type":"Feature","properties":{"id":"8311011002023","commune":"Santa Bárbara","code":"08311","gse":"C2","quintil":"Q4","nse_score":752.8,"educ":12.5,"educ_score":633.3,"hacin":1.353,"hacin_class":"Hacinamiento Leve","hacin_score":776.0,"auto_score":333.3,"n_per":23,"n_hog":9,"source_year":2024,"crime_score":0.4196,"crime_nivel":"Medio","crime_color":"#ff9800"},"geometry":{"type":"Polygon","coordinates":[[[-72.0216115799999,-37.667788002087],[-72.0224560749999,-37.667653825087],[-72.0223319639999,-37.666593510087],[-72.0214265739999,-37.6667428160871],[-72.0216115799999,-37.667788002087]]]}},{"type":"Feature","properties":{"id":"8311011002024","commune":"Santa Bárbara","code":"08311","gse":"D","quintil":"Q1","nse_score":654.1,"educ":10.5,"educ_score":500.0,"hacin":1.345,"hacin_class":"Hacinamiento Leve","hacin_score":777.7,"auto_score":187.5,"n_per":117,"n_hog":44,"source_year":2024,"crime_score":0.4639,"crime_nivel":"Medio","crime_color":"#ff9800"},"geometry":{"type":"Polygon","coordinates":[[[-72.0073882709999,-37.669511232087],[-72.0078606119999,-37.670670459087],[-72.0107869269999,-37.671479916087],[-72.0097967269999,-37.668922941087],[-72.0097121939999,-37.668898241087],[-72.0095118269999,-37.668555601087],[-72.0098596489999,-37.668942858087],[-72.0108374889999,-37.671482859087],[-72.0139403519999,-37.670969033087],[-72.0136101239999,-37.670226417087],[-72.0124240879999,-37.669998038087],[-72.0115003609999,-37.6679366700871],[-72.0120213429999,-37.667741113087],[-72.0114657099999,-37.666647589087],[-72.0107330839999,-37.666655050087],[-72.0102744029999,-37.666971455087],[-72.0097359849999,-37.6670665720871],[-72.009604539,-37.667251911087],[-72.0094136549999,-37.6672604930871],[-72.008503157,-37.668281043087],[-72.0092901419999,-37.670496552087],[-72.0084823009999,-37.6683205190871],[-72.0073882709999,-37.669511232087]]]}},{"type":"Feature","properties":{"id":"8311011002025","commune":"Santa Bárbara","code":"08311","gse":"C3","quintil":"Q2","nse_score":705.7,"educ":11.7,"educ_score":580.0,"hacin":1.147,"hacin_class":"Hacinamiento Leve","hacin_score":819.8,"auto_score":111.1,"n_per":39,"n_hog":17,"source_year":2024,"crime_score":0.4343,"crime_nivel":"Medio","crime_color":"#ff9800"},"geometry":{"type":"Polygon","coordinates":[[[-72.0205666939999,-37.667947291087],[-72.0215080389999,-37.667792143087],[-72.0213441669999,-37.666757042087],[-72.0203599949999,-37.666985712087],[-72.0205666939999,-37.667947291087]]]}},{"type":"Feature","properties":{"id":"8311011002026","commune":"Santa Bárbara","code":"08311","gse":"C3","quintil":"Q2","nse_score":697.7,"educ":11.3,"educ_score":553.3,"hacin":1.28,"hacin_class":"Hacinamiento Leve","hacin_score":791.6,"auto_score":138.9,"n_per":119,"n_hog":54,"source_year":2024,"crime_score":0.4534,"crime_nivel":"Medio","crime_color":"#ff9800"},"geometry":{"type":"Polygon","coordinates":[[[-72.0164142079999,-37.670148596087],[-72.0156737959999,-37.666870375087],[-72.0144353699999,-37.667169594087],[-72.014493194,-37.670188514087],[-72.0164142079999,-37.670148596087]]]}},{"type":"Feature","properties":{"id":"8311011002027","commune":"Santa Bárbara","code":"08311","gse":"C3","quintil":"Q3","nse_score":728.5,"educ":11.5,"educ_score":566.7,"hacin":1.167,"hacin_class":"Hacinamiento Leve","hacin_score":815.6,"auto_score":119.0,"n_per":56,"n_hog":20,"source_year":2024,"crime_score":0.4324,"crime_nivel":"Medio","crime_color":"#ff9800"},"geometry":{"type":"Polygon","coordinates":[[[-72.0194634249999,-37.6681095100871],[-72.0204712419999,-37.6679419050871],[-72.0202710589999,-37.6670101340871],[-72.0192866329999,-37.667247799087],[-72.0194634249999,-37.6681095100871]]]}},{"type":"Feature","properties":{"id":"8311011002028","commune":"Santa Bárbara","code":"08311","gse":"C3","quintil":"Q3","nse_score":709.9,"educ":11.4,"educ_score":560.0,"hacin":1.405,"hacin_class":"Hacinamiento Leve","hacin_score":764.8,"auto_score":250.0,"n_per":156,"n_hog":61,"source_year":2024,"crime_score":0.4582,"crime_nivel":"Medio","crime_color":"#ff9800"},"geometry":{"type":"Polygon","coordinates":[[[-72.0143655299999,-37.668196288087],[-72.0142904939999,-37.667192594087],[-72.0121317479999,-37.667817346087],[-72.0132844879999,-37.670157885087],[-72.0136790999999,-37.670196719087],[-72.0140232459999,-37.670962574087],[-72.0143630289999,-37.670890451087],[-72.0143663079999,-37.6682323140871],[-72.0132594239999,-37.668231133087],[-72.0143655299999,-37.668196288087]]]}},{"type":"Feature","properties":{"id":"8311011002029","commune":"Santa Bárbara","code":"08311","gse":"E","quintil":"Q1","nse_score":630.6,"educ":10.6,"educ_score":506.7,"hacin":1.206,"hacin_class":"Hacinamiento Leve","hacin_score":807.2,"auto_score":89.3,"n_per":117,"n_hog":49,"source_year":2024,"crime_score":0.4698,"crime_nivel":"Medio","crime_color":"#ff9800"},"geometry":{"type":"Polygon","coordinates":[[[-72.0193684129999,-37.668107287087],[-72.0191888269999,-37.667264426087],[-72.0184606899999,-37.6674083720871],[-72.0176145139999,-37.6672702770871],[-72.015963585,-37.667683234087],[-72.0163015569999,-37.669047660087],[-72.0194884889999,-37.668893589087],[-72.0193732479999,-37.668179041087],[-72.0189175179999,-37.668200401087],[-72.0193684129999,-37.668107287087]]]}},{"type":"Feature","properties":{"id":"8311011002030","commune":"Santa Bárbara","code":"08311","gse":"C3","quintil":"Q2","nse_score":692.8,"educ":11.4,"educ_score":560.0,"hacin":1.377,"hacin_class":"Hacinamiento Leve","hacin_score":770.9,"auto_score":203.1,"n_per":95,"n_hog":38,"source_year":2024,"crime_score":0.4495,"crime_nivel":"Medio","crime_color":"#ff9800"},"geometry":{"type":"Polygon","coordinates":[[[-72.0237231999999,-37.668831044087],[-72.0249064329999,-37.668809473087],[-72.0248255139999,-37.667384972087],[-72.0235159649999,-37.667581216087],[-72.0237231999999,-37.668831044087]]]}},{"type":"Feature","properties":{"id":"8311011002031","commune":"Santa Bárbara","code":"08311","gse":"D","quintil":"Q1","nse_score":661.7,"educ":10.9,"educ_score":526.7,"hacin":1.46,"hacin_class":"Hacinamiento Leve","hacin_score":753.3,"auto_score":62.5,"n_per":54,"n_hog":16,"source_year":2024,"crime_score":0.4482,"crime_nivel":"Medio","crime_color":"#ff9800"},"geometry":{"type":"Polygon","coordinates":[[[-72.0226816359999,-37.668847442087],[-72.0235520939999,-37.6688013130871],[-72.0234162679999,-37.6675997820871],[-72.0225471879999,-37.667733705087],[-72.0226816359999,-37.668847442087]]]}},{"type":"Feature","properties":{"id":"8311011002032","commune":"Santa Bárbara","code":"08311","gse":"C3","quintil":"Q2","nse_score":692.9,"educ":11.4,"educ_score":560.0,"hacin":1.252,"hacin_class":"Hacinamiento Leve","hacin_score":797.5,"auto_score":70.3,"n_per":164,"n_hog":63,"source_year":2024,"crime_score":0.4642,"crime_nivel":"Medio","crime_color":"#ff9800"},"geometry":{"type":"Polygon","coordinates":[[[-72.0286155059999,-37.670112091087],[-72.0277877929999,-37.669296068087],[-72.027111369,-37.669745876087],[-72.0250624119999,-37.669861850087],[-72.0249973059999,-37.670512552087],[-72.0212253529999,-37.670747224087],[-72.0210514109999,-37.6706069510871],[-72.0209075529999,-37.670627140087],[-72.0209465489999,-37.670951476087],[-72.0208849889999,-37.670630282087],[-72.0205635179999,-37.670675349087],[-72.0205738129999,-37.671083776087],[-72.0205197459999,-37.670681451087],[-72.0198763099999,-37.670716359087],[-72.01970997,-37.670103056087],[-72.0182603879999,-37.670233708087],[-72.018431302,-37.671219024087],[-72.0215799119999,-37.671363002087],[-72.0231368639999,-37.671821590087],[-72.0244933459999,-37.671665791087],[-72.0260289189999,-37.670899600087],[-72.0274876399999,-37.670824605087],[-72.0291768479999,-37.670436775087],[-72.0314236409999,-37.670439846087],[-72.0305342999999,-37.667696288087],[-72.0290135499999,-37.6683992310871],[-72.0278223699999,-37.669270682087],[-72.0286155059999,-37.670112091087]]]}},{"type":"Feature","properties":{"id":"8311011002033","commune":"Santa Bárbara","code":"08311","gse":"D","quintil":"Q2","nse_score":677.5,"educ":10.4,"educ_score":493.3,"hacin":0.971,"hacin_class":"Sin Hacinamiento","hacin_score":857.1,"auto_score":76.9,"n_per":34,"n_hog":13,"source_year":2024,"crime_score":0.4401,"crime_nivel":"Medio","crime_color":"#ff9800"},"geometry":{"type":"Polygon","coordinates":[[[-72.0217625759999,-37.668864585087],[-72.0225713659999,-37.668821409087],[-72.0224574079999,-37.667739546087],[-72.0215958499999,-37.667866715087],[-72.0217625759999,-37.668864585087]]]}},{"type":"Feature","properties":{"id":"8311011002034","commune":"Santa Bárbara","code":"08311","gse":"D","quintil":"Q2","nse_score":675.5,"educ":10.1,"educ_score":473.3,"hacin":1.109,"hacin_class":"Hacinamiento Leve","hacin_score":827.9,"auto_score":111.1,"n_per":122,"n_hog":45,"source_year":2024,"crime_score":0.4596,"crime_nivel":"Medio","crime_color":"#ff9800"},"geometry":{"type":"Polygon","coordinates":[[[-72.0124431079999,-37.6699816710871],[-72.0132325179999,-37.670170534087],[-72.0120749739999,-37.667825457087],[-72.0115573099999,-37.667943971087],[-72.0124431079999,-37.6699816710871]]]}},{"type":"Feature","properties":{"id":"8311011002035","commune":"Santa Bárbara","code":"08311","gse":"D","quintil":"Q2","nse_score":667.4,"educ":10.3,"educ_score":486.7,"hacin":1.381,"hacin_class":"Hacinamiento Leve","hacin_score":770.0,"auto_score":83.3,"n_per":29,"n_hog":12,"source_year":2024,"crime_score":0.4414,"crime_nivel":"Medio","crime_color":"#ff9800"},"geometry":{"type":"Polygon","coordinates":[[[-72.0207663929999,-37.668871481087],[-72.0216416799999,-37.668837832087],[-72.0215074309999,-37.667889529087],[-72.0205751139999,-37.6680258040871],[-72.0207663929999,-37.668871481087]]]}},{"type":"Feature","properties":{"id":"8311011002036","commune":"Santa Bárbara","code":"08311","gse":"C3","quintil":"Q2","nse_score":689.8,"educ":11.3,"educ_score":553.3,"hacin":1.034,"hacin_class":"Hacinamiento Leve","hacin_score":843.7,"auto_score":0.0,"n_per":30,"n_hog":12,"source_year":2024,"crime_score":0.4362,"crime_nivel":"Medio","crime_color":"#ff9800"},"geometry":{"type":"Polygon","coordinates":[[[-72.0196183099999,-37.668884258087],[-72.0206552269999,-37.668862183087],[-72.0204908719999,-37.668026377087],[-72.0194667309999,-37.668176990087],[-72.0196183099999,-37.668884258087]]]}},{"type":"Feature","properties":{"id":"8311011002037","commune":"Santa Bárbara","code":"08311","gse":"D","quintil":"Q1","nse_score":639.8,"educ":9.0,"educ_score":400.0,"hacin":1.4,"hacin_class":"Hacinamiento Leve","hacin_score":766.0,"auto_score":0.0,"n_per":7,"n_hog":4,"source_year":2024,"crime_score":0.4432,"crime_nivel":"Medio","crime_color":"#ff9800"},"geometry":{"type":"Polygon","coordinates":[[[-72.0237549499999,-37.669861410087],[-72.024942946,-37.669802069087],[-72.0249146809999,-37.668898072087],[-72.0236359079999,-37.668905066087],[-72.0237549499999,-37.669861410087]]]}},{"type":"Feature","properties":{"id":"8311011002038","commune":"Santa Bárbara","code":"08311","gse":"C2","quintil":"Q4","nse_score":763.1,"educ":13.3,"educ_score":686.7,"hacin":0.844,"hacin_class":"Sin Hacinamiento","hacin_score":884.3,"auto_score":0.0,"n_per":27,"n_hog":12,"source_year":2024,"crime_score":0.4179,"crime_nivel":"Medio","crime_color":"#ff9800"},"geometry":{"type":"Polygon","coordinates":[[[-72.0236029819999,-37.669867706087],[-72.0235509879999,-37.668911211087],[-72.0226730789999,-37.668928228087],[-72.0227545509999,-37.669898444087],[-72.0236029819999,-37.669867706087]]]}},{"type":"Feature","properties":{"id":"8311011002039","commune":"Santa Bárbara","code":"08311","gse":"C2","quintil":"Q4","nse_score":766.0,"educ":13.6,"educ_score":706.7,"hacin":1.083,"hacin_class":"Hacinamiento Leve","hacin_score":833.3,"auto_score":83.3,"n_per":13,"n_hog":5,"source_year":2024,"crime_score":0.4144,"crime_nivel":"Medio","crime_color":"#ff9800"},"geometry":{"type":"Polygon","coordinates":[[[-72.0226247299999,-37.669927601087],[-72.02256424,-37.668925929087],[-72.0217333339999,-37.668943857087],[-72.0218431479999,-37.669939207087],[-72.0226247299999,-37.669927601087]]]}},{"type":"Feature","properties":{"id":"8311011002040","commune":"Santa Bárbara","code":"08311","gse":"C2","quintil":"Q4","nse_score":765.4,"educ":12.4,"educ_score":626.7,"hacin":1.167,"hacin_class":"Hacinamiento Leve","hacin_score":815.6,"auto_score":100.0,"n_per":28,"n_hog":10,"source_year":2024,"crime_score":0.4176,"crime_nivel":"Medio","crime_color":"#ff9800"},"geometry":{"type":"Polygon","coordinates":[[[-72.0210033389999,-37.669972582087],[-72.0217835259999,-37.669944818087],[-72.0216455209999,-37.668928843087],[-72.0207870449999,-37.668941743087],[-72.0210033389999,-37.669972582087]]]}},{"type":"Feature","properties":{"id":"8311011002041","commune":"Santa Bárbara","code":"08311","gse":"C3","quintil":"Q2","nse_score":690.8,"educ":11.6,"educ_score":573.3,"hacin":1.393,"hacin_class":"Hacinamiento Leve","hacin_score":767.5,"auto_score":125.0,"n_per":39,"n_hog":15,"source_year":2024,"crime_score":0.4379,"crime_nivel":"Medio","crime_color":"#ff9800"},"geometry":{"type":"Polygon","coordinates":[[[-72.0197904649999,-37.670034721087],[-72.020903486,-37.669966634087],[-72.0206886079999,-37.668942948087],[-72.0196119759999,-37.668963208087],[-72.0197904649999,-37.670034721087]]]}},{"type":"Feature","properties":{"id":"8311011002042","commune":"Santa Bárbara","code":"08311","gse":"D","quintil":"Q2","nse_score":674.4,"educ":11.6,"educ_score":573.3,"hacin":1.16,"hacin_class":"Hacinamiento Leve","hacin_score":817.0,"auto_score":0.0,"n_per":58,"n_hog":21,"source_year":2024,"crime_score":0.446,"crime_nivel":"Medio","crime_color":"#ff9800"},"geometry":{"type":"Polygon","coordinates":[[[-72.0182879479999,-37.670131417087],[-72.0196887289999,-37.670038996087],[-72.019527981,-37.668957570087],[-72.0180658379999,-37.669026001087],[-72.0182879479999,-37.670131417087]]]}},{"type":"Feature","properties":{"id":"8311011002043","commune":"Santa Bárbara","code":"08311","gse":"E","quintil":"Q1","nse_score":549.0,"educ":7.6,"educ_score":306.7,"hacin":2.1,"hacin_class":"Hacinamiento Medio","hacin_score":617.0,"auto_score":88.2,"n_per":84,"n_hog":24,"source_year":2024,"crime_score":0.4827,"crime_nivel":"Medio","crime_color":"#ff9800"},"geometry":{"type":"Polygon","coordinates":[[[-72.0166029709999,-37.670184640087],[-72.0181466919999,-37.670120545087],[-72.0179733229999,-37.669043482087],[-72.0162849079999,-37.669120852087],[-72.0166029709999,-37.670184640087]]]}},{"type":"Feature","properties":{"id":"8311011002044","commune":"Santa Bárbara","code":"08311","gse":"C2","quintil":"Q4","nse_score":755.6,"educ":11.8,"educ_score":586.7,"hacin":0.969,"hacin_class":"Sin Hacinamiento","hacin_score":857.7,"auto_score":90.9,"n_per":31,"n_hog":11,"source_year":2024,"crime_score":0.4206,"crime_nivel":"Medio","crime_color":"#ff9800"},"geometry":{"type":"Polygon","coordinates":[[[-72.0249204479999,-37.669865834087],[-72.0237447679999,-37.669919222087],[-72.0237961309999,-37.670525742087],[-72.0249681179999,-37.670457213087],[-72.0249204479999,-37.669865834087]]]}},{"type":"Feature","properties":{"id":"8311011002045","commune":"Santa Bárbara","code":"08311","gse":"C2","quintil":"Q3","nse_score":736.1,"educ":12.1,"educ_score":606.7,"hacin":1.074,"hacin_class":"Hacinamiento Leve","hacin_score":835.3,"auto_score":35.7,"n_per":29,"n_hog":13,"source_year":2024,"crime_score":0.4249,"crime_nivel":"Medio","crime_color":"#ff9800"},"geometry":{"type":"Polygon","coordinates":[[[-72.0236078549999,-37.669921621087],[-72.0227561819999,-37.669973901087],[-72.0227751299999,-37.670588612087],[-72.0236970419999,-37.670546035087],[-72.0236078549999,-37.669921621087]]]}},{"type":"Feature","properties":{"id":"8311011002046","commune":"Santa Bárbara","code":"08311","gse":"D","quintil":"Q1","nse_score":662.8,"educ":11.0,"educ_score":533.3,"hacin":1.091,"hacin_class":"Hacinamiento Leve","hacin_score":831.7,"auto_score":0.0,"n_per":24,"n_hog":9,"source_year":2024,"crime_score":0.4414,"crime_nivel":"Medio","crime_color":"#ff9800"},"geometry":{"type":"Polygon","coordinates":[[[-72.0226310809999,-37.669981373087],[-72.0218668909999,-37.670020089087],[-72.0219141609999,-37.670637858087],[-72.02268634,-37.670595109087],[-72.0226310809999,-37.669981373087]]]}},{"type":"Feature","properties":{"id":"8311011002048","commune":"Santa Bárbara","code":"08311","gse":"C3","quintil":"Q3","nse_score":730.9,"educ":13.1,"educ_score":673.3,"hacin":1.25,"hacin_class":"Hacinamiento Leve","hacin_score":797.9,"auto_score":55.6,"n_per":25,"n_hog":9,"source_year":2024,"crime_score":0.4253,"crime_nivel":"Medio","crime_color":"#ff9800"},"geometry":{"type":"Polygon","coordinates":[[[-72.0208847099999,-37.670030763087],[-72.0197833519999,-37.670099145087],[-72.0198911439999,-37.670677089087],[-72.0210384609999,-37.670553824087],[-72.0208847099999,-37.670030763087]]]}},{"type":"Feature","properties":{"id":"8311011002049","commune":"Santa Bárbara","code":"08311","gse":"C3","quintil":"Q3","nse_score":716.5,"educ":11.1,"educ_score":540.0,"hacin":0.908,"hacin_class":"Sin Hacinamiento","hacin_score":870.7,"auto_score":142.9,"n_per":69,"n_hog":26,"source_year":2024,"crime_score":0.4381,"crime_nivel":"Medio","crime_color":"#ff9800"},"geometry":{"type":"Polygon","coordinates":[[[-72.0078701129999,-37.670732318087],[-72.0078064369999,-37.671191781087],[-72.0139884579999,-37.672478939087],[-72.0143935079999,-37.672465385087],[-72.0174879899999,-37.671337767087],[-72.018431302,-37.671219024087],[-72.0181445069999,-37.670194915087],[-72.0145168749999,-37.670256601087],[-72.0144477879999,-37.670925126087],[-72.0150592559999,-37.670927100087],[-72.0108644779999,-37.671542134087],[-72.0078701129999,-37.670732318087]]]}}]}