{"type":"FeatureCollection","features":[{"type":"Feature","properties":{"id":"2103013004006","commune":"Sierra Gorda","code":"02103","gse":"D","quintil":"Q1","nse_score":666.3,"educ":11.0,"educ_score":533.3,"hacin":1.385,"hacin_class":"Hacinamiento Leve","hacin_score":769.2,"auto_score":0.0,"n_per":36,"n_hog":8,"source_year":2024,"crime_score":0.9334,"crime_nivel":"Muy Alto","crime_color":"#d32f2f"},"geometry":{"type":"Polygon","coordinates":[[[-69.3185686059999,-22.8900588673232],[-69.3179764659999,-22.8895345313232],[-69.3172362379999,-22.8902668413231],[-69.3178086149999,-22.8907933813231],[-69.3185686059999,-22.8900588673232]]]}},{"type":"Feature","properties":{"id":"2103013004010","commune":"Sierra Gorda","code":"02103","gse":"E","quintil":"Q1","nse_score":537.5,"educ":9.9,"educ_score":460.0,"hacin":1.812,"hacin_class":"Hacinamiento Medio","hacin_score":678.2,"auto_score":0.0,"n_per":29,"n_hog":11,"source_year":2024,"crime_score":0.9955,"crime_nivel":"Muy Alto","crime_color":"#d32f2f"},"geometry":{"type":"Polygon","coordinates":[[[-69.3190217629999,-22.8904456093231],[-69.3186117999999,-22.8901065133231],[-69.3178894319999,-22.8908516473231],[-69.3182902429999,-22.8911858803231],[-69.3190217629999,-22.8904456093231]]]}},{"type":"Feature","properties":{"id":"2103013004011","commune":"Sierra Gorda","code":"02103","gse":"E","quintil":"Q1","nse_score":545.8,"educ":9.7,"educ_score":446.7,"hacin":1.286,"hacin_class":"Hacinamiento Leve","hacin_score":790.3,"auto_score":50.0,"n_per":18,"n_hog":6,"source_year":2024,"crime_score":0.9859,"crime_nivel":"Muy Alto","crime_color":"#d32f2f"},"geometry":{"type":"Polygon","coordinates":[[[-69.3206179879999,-22.8908583603231],[-69.3219029109999,-22.8919541123231],[-69.3221805769999,-22.8916563683231],[-69.3220494999999,-22.8913007753231],[-69.3211822179999,-22.8905662393232],[-69.3203867349999,-22.8901779153231],[-69.3201522649999,-22.8904612023231],[-69.320556656,-22.8908060573232],[-69.3208294009999,-22.8906346373232],[-69.3206179879999,-22.8908583603231]]]}},{"type":"Feature","properties":{"id":"2103013004016","commune":"Sierra Gorda","code":"02103","gse":"E","quintil":"Q1","nse_score":570.5,"educ":11.4,"educ_score":560.0,"hacin":1.333,"hacin_class":"Hacinamiento Leve","hacin_score":780.1,"auto_score":0.0,"n_per":12,"n_hog":4,"source_year":2024,"crime_score":0.9705,"crime_nivel":"Muy Alto","crime_color":"#d32f2f"},"geometry":{"type":"Polygon","coordinates":[[[-69.3200284429999,-22.8913483083231],[-69.3196011159999,-22.8909689973232],[-69.3192378099999,-22.8913261483231],[-69.3196641779999,-22.8916893033231],[-69.3200284429999,-22.8913483083231]]]}},{"type":"Feature","properties":{"id":"2103013004017","commune":"Sierra Gorda","code":"02103","gse":"D","quintil":"Q1","nse_score":669.7,"educ":11.9,"educ_score":593.3,"hacin":2.143,"hacin_class":"Hacinamiento Medio","hacin_score":607.9,"auto_score":0.0,"n_per":30,"n_hog":11,"source_year":2024,"crime_score":0.9289,"crime_nivel":"Muy Alto","crime_color":"#d32f2f"},"geometry":{"type":"Polygon","coordinates":[[[-69.3216912489999,-22.8919111373231],[-69.3210905459999,-22.8913719183231],[-69.3206280109999,-22.8917719463231],[-69.3212404409999,-22.8923399193231],[-69.3216912489999,-22.8919111373231]]]}},{"type":"Feature","properties":{"id":"2103013004020","commune":"Sierra Gorda","code":"02103","gse":"D","quintil":"Q1","nse_score":664.1,"educ":11.1,"educ_score":540.0,"hacin":1.2,"hacin_class":"Hacinamiento Leve","hacin_score":808.5,"auto_score":0.0,"n_per":48,"n_hog":15,"source_year":2024,"crime_score":0.94,"crime_nivel":"Muy Alto","crime_color":"#d32f2f"},"geometry":{"type":"Polygon","coordinates":[[[-69.3200031939999,-22.8923978533231],[-69.3190059889999,-22.8915491483231],[-69.3186106179999,-22.8918900223231],[-69.3198384559999,-22.8929307293231],[-69.3200031939999,-22.8923978533231]]]}},{"type":"Feature","properties":{"id":"2103013004023","commune":"Sierra Gorda","code":"02103","gse":"C3","quintil":"Q3","nse_score":736.8,"educ":11.7,"educ_score":580.0,"hacin":1.55,"hacin_class":"Hacinamiento Medio","hacin_score":734.0,"auto_score":0.0,"n_per":62,"n_hog":16,"source_year":2024,"crime_score":0.9089,"crime_nivel":"Muy Alto","crime_color":"#d32f2f"},"geometry":{"type":"Polygon","coordinates":[[[-69.3208204379999,-22.8927310923231],[-69.3211873229999,-22.8923714233231],[-69.3205878659999,-22.8918447783231],[-69.3202092609999,-22.8921637873231],[-69.3208204379999,-22.8927310923231]]]}},{"type":"Feature","properties":{"id":"2103013004024","commune":"Sierra Gorda","code":"02103","gse":"D","quintil":"Q1","nse_score":676.5,"educ":11.9,"educ_score":593.3,"hacin":1.253,"hacin_class":"Hacinamiento Leve","hacin_score":797.3,"auto_score":87.5,"n_per":109,"n_hog":31,"source_year":2024,"crime_score":0.9614,"crime_nivel":"Muy Alto","crime_color":"#d32f2f"},"geometry":{"type":"Polygon","coordinates":[[[-69.3194745069999,-22.8933699503231],[-69.3198092559999,-22.8929810493231],[-69.3185385729999,-22.8919875503231],[-69.318232684,-22.8923275043231],[-69.3194745069999,-22.8933699503231]]]}},{"type":"Feature","properties":{"id":"2103013004025","commune":"Sierra Gorda","code":"02103","gse":"D","quintil":"Q1","nse_score":652.2,"educ":10.2,"educ_score":480.0,"hacin":0.923,"hacin_class":"Sin Hacinamiento","hacin_score":867.4,"auto_score":0.0,"n_per":24,"n_hog":13,"source_year":2024,"crime_score":0.935,"crime_nivel":"Muy Alto","crime_color":"#d32f2f"},"geometry":{"type":"Polygon","coordinates":[[[-69.3207781939999,-22.8927967753231],[-69.3201484519999,-22.8922312373231],[-69.3199193629999,-22.8929387393231],[-69.3204503449999,-22.8930769623231],[-69.3207781939999,-22.8927967753231]]]}},{"type":"Feature","properties":{"id":"2103013004013","commune":"Sierra Gorda","code":"02103","gse":"C3","quintil":"Q2","nse_score":722.1,"educ":10.9,"educ_score":526.7,"hacin":1.375,"hacin_class":"Hacinamiento Leve","hacin_score":771.3,"auto_score":0.0,"n_per":11,"n_hog":5,"source_year":2024,"crime_score":0.8938,"crime_nivel":"Muy Alto","crime_color":"#d32f2f"},"geometry":{"type":"MultiPolygon","coordinates":[[[[-69.3201071199999,-22.8921082573231],[-69.3205133999999,-22.8917781063231],[-69.3200773369999,-22.8914067803231],[-69.319736712,-22.8917525503231],[-69.3201071199999,-22.8921082573231]]],[[[-69.3200444649999,-22.8912799613231],[-69.3205138719999,-22.8908885903231],[-69.3200890399999,-22.8905097223231],[-69.3196548189999,-22.8909084933231],[-69.3200444649999,-22.8912799613231]]]]}},{"type":"Feature","properties":{"id":"2103013004002","commune":"Sierra Gorda","code":"02103","gse":"C1","quintil":"Q5","nse_score":818.0,"educ":15.6,"educ_score":840.0,"hacin":1.105,"hacin_class":"Hacinamiento Leve","hacin_score":828.7,"auto_score":0.0,"n_per":21,"n_hog":13,"source_year":2024,"crime_score":0.8498,"crime_nivel":"Muy Alto","crime_color":"#d32f2f"},"geometry":{"type":"MultiPolygon","coordinates":[[[[-69.3185934959999,-22.8899896303232],[-69.3190214319999,-22.8895810163232],[-69.318461651,-22.8890524353232],[-69.3180402789999,-22.8894828623232],[-69.3185934959999,-22.8899896303232]]],[[[-69.3190721289999,-22.8895102283232],[-69.3194136609999,-22.8891655363232],[-69.3187797219999,-22.8887211203232],[-69.3185498459999,-22.8890150693232],[-69.3190721289999,-22.8895102283232]]]]}},{"type":"Feature","properties":{"id":"2103013004005","commune":"Sierra Gorda","code":"02103","gse":"D","quintil":"Q1","nse_score":643.4,"educ":11.4,"educ_score":560.0,"hacin":1.389,"hacin_class":"Hacinamiento Leve","hacin_score":768.3,"auto_score":55.6,"n_per":25,"n_hog":8,"source_year":2024,"crime_score":0.9399,"crime_nivel":"Muy Alto","crime_color":"#d32f2f"},"geometry":{"type":"MultiPolygon","coordinates":[[[[-69.3195633459999,-22.8908521083231],[-69.3200237099999,-22.8904545953231],[-69.3195753069999,-22.8900603213232],[-69.3191505219999,-22.8904754253231],[-69.3195633459999,-22.8908521083231]]],[[[-69.3195592339999,-22.8899364253231],[-69.3198657699999,-22.8896474463232],[-69.3194725149999,-22.8892548753232],[-69.3191591099999,-22.8895771073231],[-69.3195592339999,-22.8899364253231]]]]}},{"type":"Feature","properties":{"id":"2103013004007","commune":"Sierra Gorda","code":"02103","gse":"D","quintil":"Q1","nse_score":683.2,"educ":13.3,"educ_score":686.7,"hacin":2.125,"hacin_class":"Hacinamiento Medio","hacin_score":611.7,"auto_score":0.0,"n_per":17,"n_hog":7,"source_year":2024,"crime_score":0.9161,"crime_nivel":"Muy Alto","crime_color":"#d32f2f"},"geometry":{"type":"MultiPolygon","coordinates":[[[[-69.3187720239999,-22.8916377173231],[-69.3195410829999,-22.8909230903231],[-69.3191009779999,-22.8905251183231],[-69.3183466709999,-22.8912299463231],[-69.3187720239999,-22.8916377173231]]],[[[-69.3190475929999,-22.8903934533231],[-69.3195142169999,-22.8900163013232],[-69.3191015009999,-22.8896481043232],[-69.3186783369999,-22.8900410533232],[-69.3190475929999,-22.8903934533231]]]]}},{"type":"Feature","properties":{"id":"2103013004026","commune":"Sierra Gorda","code":"02103","gse":"D","quintil":"Q2","nse_score":702.3,"educ":11.8,"educ_score":586.7,"hacin":1.467,"hacin_class":"Hacinamiento Leve","hacin_score":751.8,"auto_score":26.3,"n_per":66,"n_hog":18,"source_year":2024,"crime_score":0.9285,"crime_nivel":"Muy Alto","crime_color":"#d32f2f"},"geometry":{"type":"MultiPolygon","coordinates":[[[[-69.3196902689999,-22.8938395563231],[-69.3201754429999,-22.8934322093231],[-69.3204059369999,-22.8931637543231],[-69.3198742469999,-22.8930185183231],[-69.3194074649999,-22.8935567733231],[-69.3196902689999,-22.8938395563231]]],[[[-69.3195160189999,-22.8940904043231],[-69.3197411889999,-22.8938960253231],[-69.3193919289999,-22.8936361803231],[-69.3194086499999,-22.8934173513231],[-69.3181652259999,-22.8923652803231],[-69.3179925109999,-22.8925259013231],[-69.3190962599999,-22.8934795553231],[-69.3191688899999,-22.8937638153231],[-69.3195160189999,-22.8940904043231]]]]}},{"type":"Feature","properties":{"id":"2103033001007","commune":"Sierra Gorda","code":"02103","gse":"E","quintil":"Q1","nse_score":579.9,"educ":8.5,"educ_score":366.7,"hacin":1.242,"hacin_class":"Hacinamiento Leve","hacin_score":799.5,"auto_score":100.0,"n_per":41,"n_hog":15,"source_year":2024,"crime_score":0.9797,"crime_nivel":"Muy Alto","crime_color":"#d32f2f"},"geometry":{"type":"Polygon","coordinates":[[[-69.8401993599999,-23.3316135853131],[-69.8400479359999,-23.3319350743131],[-69.8402428879999,-23.3321516853131],[-69.8422220589999,-23.3332589623131],[-69.8423890379999,-23.3329013383131],[-69.8412008419999,-23.3320741753131],[-69.8401993599999,-23.3316135853131]]]}},{"type":"Feature","properties":{"id":"2103033001010","commune":"Sierra Gorda","code":"02103","gse":"E","quintil":"Q1","nse_score":562.4,"educ":10.2,"educ_score":480.0,"hacin":1.845,"hacin_class":"Hacinamiento Medio","hacin_score":671.3,"auto_score":0.0,"n_per":107,"n_hog":29,"source_year":2024,"crime_score":1.0,"crime_nivel":"Muy Alto","crime_color":"#d32f2f"},"geometry":{"type":"Polygon","coordinates":[[[-69.8423439689999,-23.3328154023131],[-69.8445703249999,-23.3338970563131],[-69.8447488469999,-23.3336075293131],[-69.842618377,-23.3325026743131],[-69.8423439689999,-23.3328154023131]]]}},{"type":"Feature","properties":{"id":"2103033001011","commune":"Sierra Gorda","code":"02103","gse":"D","quintil":"Q1","nse_score":675.5,"educ":11.9,"educ_score":593.3,"hacin":0.955,"hacin_class":"Sin Hacinamiento","hacin_score":860.7,"auto_score":150.0,"n_per":21,"n_hog":10,"source_year":2024,"crime_score":0.9218,"crime_nivel":"Muy Alto","crime_color":"#d32f2f"},"geometry":{"type":"Polygon","coordinates":[[[-69.8405888469999,-23.332974962313],[-69.8418142069999,-23.333787208313],[-69.8421678959999,-23.3333395723131],[-69.8409542649999,-23.332574682313],[-69.8405888469999,-23.332974962313]]]}},{"type":"Feature","properties":{"id":"2103033001013","commune":"Sierra Gorda","code":"02103","gse":"E","quintil":"Q1","nse_score":583.4,"educ":10.9,"educ_score":526.7,"hacin":1.667,"hacin_class":"Hacinamiento Medio","hacin_score":709.2,"auto_score":0.0,"n_per":20,"n_hog":6,"source_year":2024,"crime_score":0.9679,"crime_nivel":"Muy Alto","crime_color":"#d32f2f"},"geometry":{"type":"Polygon","coordinates":[[[-69.8424723529999,-23.3329775143131],[-69.8422565349999,-23.333337354313],[-69.8430996379999,-23.333800758313],[-69.8432522599999,-23.3335164043131],[-69.8424723529999,-23.3329775143131]]]}},{"type":"Feature","properties":{"id":"2103033001015","commune":"Sierra Gorda","code":"02103","gse":"E","quintil":"Q1","nse_score":588.7,"educ":11.5,"educ_score":566.7,"hacin":1.909,"hacin_class":"Hacinamiento Medio","hacin_score":657.6,"auto_score":0.0,"n_per":63,"n_hog":16,"source_year":2024,"crime_score":0.9858,"crime_nivel":"Muy Alto","crime_color":"#d32f2f"},"geometry":{"type":"Polygon","coordinates":[[[-69.8418700169999,-23.3338176393131],[-69.8432487009999,-23.334704191313],[-69.8436081089999,-23.3341548433131],[-69.8422214979999,-23.333364922313],[-69.8418700169999,-23.3338176393131]]]}},{"type":"Feature","properties":{"id":"2103033001016","commune":"Sierra Gorda","code":"02103","gse":"E","quintil":"Q1","nse_score":449.6,"educ":8.8,"educ_score":386.7,"hacin":2.143,"hacin_class":"Hacinamiento Medio","hacin_score":607.9,"auto_score":0.0,"n_per":30,"n_hog":8,"source_year":2024,"crime_score":1.0,"crime_nivel":"Muy Alto","crime_color":"#d32f2f"},"geometry":{"type":"Polygon","coordinates":[[[-69.8438177279999,-23.333821997313],[-69.8433161949999,-23.333552206313],[-69.8431478369999,-23.3338176933131],[-69.8436229229999,-23.3340892083131],[-69.8438177279999,-23.333821997313]]]}},{"type":"Feature","properties":{"id":"2103033001017","commune":"Sierra Gorda","code":"02103","gse":"D","quintil":"Q1","nse_score":646.7,"educ":12.2,"educ_score":613.3,"hacin":1.375,"hacin_class":"Hacinamiento Leve","hacin_score":771.3,"auto_score":100.0,"n_per":55,"n_hog":17,"source_year":2024,"crime_score":0.9521,"crime_nivel":"Muy Alto","crime_color":"#d32f2f"},"geometry":{"type":"Polygon","coordinates":[[[-69.8446043499999,-23.3339146483131],[-69.8455007349999,-23.334378062313],[-69.8456849859999,-23.334055482313],[-69.8447834959999,-23.333624109313],[-69.8446043499999,-23.3339146483131]]]}},{"type":"Feature","properties":{"id":"2103033001018","commune":"Sierra Gorda","code":"02103","gse":"E","quintil":"Q1","nse_score":590.1,"educ":11.1,"educ_score":540.0,"hacin":1.429,"hacin_class":"Hacinamiento Leve","hacin_score":759.9,"auto_score":115.4,"n_per":40,"n_hog":12,"source_year":2024,"crime_score":0.974,"crime_nivel":"Muy Alto","crime_color":"#d32f2f"},"geometry":{"type":"Polygon","coordinates":[[[-69.8436941659999,-23.334131555313],[-69.845158824,-23.334937643313],[-69.8453854039999,-23.3345708463131],[-69.8438524059999,-23.333838760313],[-69.8436941659999,-23.334131555313]]]}},{"type":"Feature","properties":{"id":"2103033001019","commune":"Sierra Gorda","code":"02103","gse":"D","quintil":"Q1","nse_score":662.0,"educ":12.2,"educ_score":613.3,"hacin":1.32,"hacin_class":"Hacinamiento Leve","hacin_score":783.0,"auto_score":90.9,"n_per":33,"n_hog":9,"source_year":2024,"crime_score":0.9342,"crime_nivel":"Muy Alto","crime_color":"#d32f2f"},"geometry":{"type":"Polygon","coordinates":[[[-69.8456261739999,-23.3342356313131],[-69.8464443979999,-23.334638500313],[-69.8465780439999,-23.334414611313],[-69.8457408289999,-23.334034895313],[-69.8456261739999,-23.3342356313131]]]}},{"type":"Feature","properties":{"id":"2103033001020","commune":"Sierra Gorda","code":"02103","gse":"C3","quintil":"Q3","nse_score":731.1,"educ":13.3,"educ_score":686.7,"hacin":1.375,"hacin_class":"Hacinamiento Leve","hacin_score":771.3,"auto_score":0.0,"n_per":11,"n_hog":4,"source_year":2024,"crime_score":0.8893,"crime_nivel":"Muy Alto","crime_color":"#d32f2f"},"geometry":{"type":"Polygon","coordinates":[[[-69.8441303129999,-23.335175413313],[-69.8444835539999,-23.334654174313],[-69.8436524399999,-23.334175864313],[-69.8433100539999,-23.334737072313],[-69.8441303129999,-23.335175413313]]]}},{"type":"Feature","properties":{"id":"2103033001021","commune":"Sierra Gorda","code":"02103","gse":"E","quintil":"Q1","nse_score":539.9,"educ":12.1,"educ_score":606.7,"hacin":1.188,"hacin_class":"Hacinamiento Leve","hacin_score":811.2,"auto_score":192.3,"n_per":38,"n_hog":16,"source_year":2024,"crime_score":0.9987,"crime_nivel":"Muy Alto","crime_color":"#d32f2f"},"geometry":{"type":"Polygon","coordinates":[[[-69.8381758859999,-23.337681380313],[-69.8422198529999,-23.3388698983129],[-69.8435109769999,-23.336476060313],[-69.8427210529999,-23.335779288313],[-69.8404628909999,-23.334220020313],[-69.8404951569999,-23.334618179313],[-69.840076871,-23.334834228313],[-69.8397738439999,-23.335402743313],[-69.8392789119999,-23.335726313313],[-69.8381758859999,-23.337681380313]]]}},{"type":"Feature","properties":{"id":"2103033001023","commune":"Sierra Gorda","code":"02103","gse":"D","quintil":"Q1","nse_score":684.7,"educ":12.8,"educ_score":653.3,"hacin":1.5,"hacin_class":"Hacinamiento Medio","hacin_score":744.7,"auto_score":218.8,"n_per":45,"n_hog":15,"source_year":2024,"crime_score":0.9281,"crime_nivel":"Muy Alto","crime_color":"#d32f2f"},"geometry":{"type":"Polygon","coordinates":[[[-69.8463742109999,-23.334830674313],[-69.8471812149999,-23.335244639313],[-69.8473168309999,-23.3349956153131],[-69.8465818779999,-23.334482780313],[-69.8463742109999,-23.334830674313]]]}},{"type":"Feature","properties":{"id":"2103033001024","commune":"Sierra Gorda","code":"02103","gse":"E","quintil":"Q1","nse_score":602.6,"educ":10.2,"educ_score":480.0,"hacin":1.449,"hacin_class":"Hacinamiento Leve","hacin_score":755.5,"auto_score":140.0,"n_per":100,"n_hog":33,"source_year":2024,"crime_score":0.9961,"crime_nivel":"Muy Alto","crime_color":"#d32f2f"},"geometry":{"type":"Polygon","coordinates":[[[-69.8470764159999,-23.335469645313],[-69.8454706679999,-23.334591438313],[-69.8452334679999,-23.334926056313],[-69.8468197549999,-23.335814186313],[-69.8470764159999,-23.335469645313]]]}},{"type":"Feature","properties":{"id":"2103033001025","commune":"Sierra Gorda","code":"02103","gse":"C3","quintil":"Q2","nse_score":718.4,"educ":13.4,"educ_score":693.3,"hacin":1.0,"hacin_class":"Hacinamiento Leve","hacin_score":851.1,"auto_score":71.4,"n_per":10,"n_hog":6,"source_year":2024,"crime_score":0.8953,"crime_nivel":"Muy Alto","crime_color":"#d32f2f"},"geometry":{"type":"Polygon","coordinates":[[[-69.844233459,-23.335197860313],[-69.8463155139999,-23.336166861313],[-69.8465739399999,-23.335749704313],[-69.8445363389999,-23.334690237313],[-69.844233459,-23.335197860313]]]}},{"type":"Feature","properties":{"id":"2103033001027","commune":"Sierra Gorda","code":"02103","gse":"E","quintil":"Q1","nse_score":622.6,"educ":11.7,"educ_score":580.0,"hacin":1.333,"hacin_class":"Hacinamiento Leve","hacin_score":780.1,"auto_score":43.5,"n_per":48,"n_hog":18,"source_year":2024,"crime_score":0.9612,"crime_nivel":"Muy Alto","crime_color":"#d32f2f"},"geometry":{"type":"Polygon","coordinates":[[[-69.8480191039999,-23.336425914313],[-69.8482453319999,-23.336020182313],[-69.8471173529999,-23.335476726313],[-69.8468958829999,-23.335847678313],[-69.8480191039999,-23.336425914313]]]}},{"type":"Feature","properties":{"id":"2103033001033","commune":"Sierra Gorda","code":"02103","gse":"D","quintil":"Q1","nse_score":665.3,"educ":11.8,"educ_score":586.7,"hacin":1.387,"hacin_class":"Hacinamiento Leve","hacin_score":768.7,"auto_score":38.5,"n_per":43,"n_hog":12,"source_year":2024,"crime_score":0.9371,"crime_nivel":"Muy Alto","crime_color":"#d32f2f"},"geometry":{"type":"Polygon","coordinates":[[[-69.8503872319999,-23.337165004313],[-69.8500451529999,-23.337027569313],[-69.8497291869999,-23.337569296313],[-69.8500518999999,-23.3377286013129],[-69.8503872319999,-23.337165004313]]]}},{"type":"Feature","properties":{"id":"2103033001034","commune":"Sierra Gorda","code":"02103","gse":"E","quintil":"Q1","nse_score":631.7,"educ":11.0,"educ_score":533.3,"hacin":1.579,"hacin_class":"Hacinamiento Medio","hacin_score":727.9,"auto_score":0.0,"n_per":30,"n_hog":11,"source_year":2024,"crime_score":0.9482,"crime_nivel":"Muy Alto","crime_color":"#d32f2f"},"geometry":{"type":"Polygon","coordinates":[[[-69.8507552789999,-23.3373614103129],[-69.8504193779999,-23.337195215313],[-69.8500982019999,-23.337768179313],[-69.8504616619999,-23.337906463313],[-69.8507552789999,-23.3373614103129]]]}},{"type":"Feature","properties":{"id":"2103033001001","commune":"Sierra Gorda","code":"02103","gse":"E","quintil":"Q1","nse_score":541.8,"educ":8.8,"educ_score":386.7,"hacin":1.546,"hacin_class":"Hacinamiento Medio","hacin_score":735.0,"auto_score":0.0,"n_per":17,"n_hog":5,"source_year":2024,"crime_score":0.9874,"crime_nivel":"Muy Alto","crime_color":"#d32f2f"},"geometry":{"type":"MultiPolygon","coordinates":[[[[-69.8405156239999,-23.3329431413131],[-69.8408532259999,-23.3325119103131],[-69.8403389939999,-23.3322227493131],[-69.8394870619999,-23.3320073923131],[-69.8394931939999,-23.3321830063131],[-69.8405156239999,-23.3329431413131]]],[[[-69.8384971529999,-23.3314102823131],[-69.8394298059999,-23.3321233983131],[-69.8394539439999,-23.3319875983131],[-69.8395420919999,-23.3319413943131],[-69.8401102269999,-23.3321024293131],[-69.8400085639999,-23.3319349103131],[-69.840136405,-23.3316028323131],[-69.8391510889999,-23.3310814933131],[-69.8389302879999,-23.3307994393131],[-69.8388299199999,-23.3292042133132],[-69.8381952769999,-23.3302490463131],[-69.838098193,-23.3307853443131],[-69.8384971529999,-23.3314102823131]]]]}},{"type":"Feature","properties":{"id":"2103033001002","commune":"Sierra Gorda","code":"02103","gse":"E","quintil":"Q1","nse_score":626.7,"educ":11.3,"educ_score":553.3,"hacin":1.0,"hacin_class":"Hacinamiento Leve","hacin_score":851.1,"auto_score":250.0,"n_per":9,"n_hog":6,"source_year":2024,"crime_score":0.9409,"crime_nivel":"Muy Alto","crime_color":"#d32f2f"},"geometry":{"type":"MultiPolygon","coordinates":[[[[-69.8352677189999,-23.3305916143131],[-69.8350834059999,-23.3306278553131],[-69.8343676309999,-23.3305239573131],[-69.8341099739999,-23.3307162723131],[-69.8339067019999,-23.3314020453131],[-69.8341217899999,-23.3319239843131],[-69.8351520449999,-23.3321872083131],[-69.8350279349999,-23.3318736843131],[-69.8352888849999,-23.3310646343131],[-69.8359865499999,-23.3304588873132],[-69.8356321819999,-23.3303005853131],[-69.8355825519999,-23.3304197323131],[-69.8352677189999,-23.3305916143131]]],[[[-69.8329157679999,-23.3310076413131],[-69.8331425979999,-23.3318694673131],[-69.8339949369999,-23.3318355623131],[-69.8338773079999,-23.3314018693131],[-69.8339434149999,-23.3307276483131],[-69.8337054599999,-23.3303454413131],[-69.8332528529999,-23.3302972433131],[-69.8329461509999,-23.3305677513131],[-69.8329157679999,-23.3310076413131]]],[[[-69.8335449509999,-23.3300237993131],[-69.8339116969999,-23.3305748873131],[-69.8340029149999,-23.3308935953131],[-69.8340846299999,-23.3307017463131],[-69.834360193,-23.3304968993131],[-69.8350820139999,-23.3306004253131],[-69.8356056759999,-23.3302887443131],[-69.8351915229999,-23.3301424043132],[-69.8335449509999,-23.3300237993131]]]]}},{"type":"Feature","properties":{"id":"2103033001005","commune":"Sierra Gorda","code":"02103","gse":"E","quintil":"Q1","nse_score":566.4,"educ":11.7,"educ_score":580.0,"hacin":2.0,"hacin_class":"Hacinamiento Medio","hacin_score":638.3,"auto_score":178.6,"n_per":36,"n_hog":13,"source_year":2024,"crime_score":0.9842,"crime_nivel":"Muy Alto","crime_color":"#d32f2f"},"geometry":{"type":"MultiPolygon","coordinates":[[[[-69.8377871869999,-23.334016454313],[-69.8373157209999,-23.333916152313],[-69.8368773449999,-23.3342246283131],[-69.8366560349999,-23.334660886313],[-69.8366716399999,-23.334982336313],[-69.8365675969999,-23.335170669313],[-69.8362179449999,-23.335457278313],[-69.8361499199999,-23.335614953313],[-69.8363525039999,-23.336378728313],[-69.8362037479999,-23.338093844313],[-69.8364103059999,-23.338380167313],[-69.8366924719999,-23.3385065863129],[-69.8367405469999,-23.3381923243129],[-69.8371199999999,-23.3377436353129],[-69.8375014039999,-23.337604947313],[-69.8381362889999,-23.337673790313],[-69.8392559209999,-23.335696316313],[-69.8377592219999,-23.335563276313],[-69.8374579239999,-23.335636572313],[-69.8371142189999,-23.336361799313],[-69.8373414019999,-23.336972788313],[-69.8370750509999,-23.336362076313],[-69.8372762739999,-23.335759262313],[-69.8375240239999,-23.335553970313],[-69.8376655169999,-23.335527268313],[-69.839446828,-23.335624481313],[-69.8397432269999,-23.335380285313],[-69.8400493529999,-23.334808253313],[-69.8403871109999,-23.3346727573131],[-69.8405216859999,-23.334469165313],[-69.840400745,-23.334167951313],[-69.8398891519999,-23.3339108643131],[-69.8392627829999,-23.3332984853131],[-69.8379781089999,-23.3339728503131],[-69.8377871869999,-23.334016454313]]],[[[-69.8354830629999,-23.3325178083131],[-69.8357992879999,-23.334445085313],[-69.835733548,-23.335368771313],[-69.8359253429999,-23.335514797313],[-69.8365370089999,-23.335148135313],[-69.8366837639999,-23.334432064313],[-69.8368479709999,-23.334200715313],[-69.8371895319999,-23.333918990313],[-69.8373152429999,-23.333879503313],[-69.8377825269999,-23.3339805323131],[-69.8379618249999,-23.3339400453131],[-69.8392664009999,-23.3332608433131],[-69.8396356819999,-23.3335034133131],[-69.8399168399999,-23.3338849953131],[-69.8403587049999,-23.3340844903131],[-69.8422087299999,-23.335476348313],[-69.8427468269999,-23.335752002313],[-69.8435283609999,-23.336443828313],[-69.8441685209999,-23.335256898313],[-69.8426411999999,-23.334420137313],[-69.8385977829999,-23.3317680083131],[-69.8360282189999,-23.3304775023131],[-69.8353246109999,-23.3310797163131],[-69.8350668869999,-23.3318770473131],[-69.8351154679999,-23.3321149203131],[-69.8354830629999,-23.3325178083131]]]]}},{"type":"Feature","properties":{"id":"2103033001022","commune":"Sierra Gorda","code":"02103","gse":"E","quintil":"Q1","nse_score":576.9,"educ":10.9,"educ_score":526.7,"hacin":1.684,"hacin_class":"Hacinamiento Medio","hacin_score":705.5,"auto_score":90.9,"n_per":32,"n_hog":8,"source_year":2024,"crime_score":0.9769,"crime_nivel":"Muy Alto","crime_color":"#d32f2f"},"geometry":{"type":"MultiPolygon","coordinates":[[[[-69.8476928239999,-23.335507105313],[-69.8471977979999,-23.335294337313],[-69.8471346929999,-23.335410212313],[-69.8482520629999,-23.335981618313],[-69.8473661609999,-23.334945107313],[-69.847215333,-23.335262140313],[-69.8476928239999,-23.335507105313]]],[[[-69.8454521739999,-23.334540263313],[-69.847100355,-23.335393118313],[-69.8471636809999,-23.335276836313],[-69.8463346969999,-23.334851068313],[-69.8464255719999,-23.3346700383131],[-69.8456079819999,-23.334267481313],[-69.8454521739999,-23.334540263313]]]]}},{"type":"Feature","properties":{"id":"2103033001029","commune":"Sierra Gorda","code":"02103","gse":"E","quintil":"Q1","nse_score":640.5,"educ":10.5,"educ_score":500.0,"hacin":1.111,"hacin_class":"Hacinamiento Leve","hacin_score":827.4,"auto_score":192.3,"n_per":40,"n_hog":12,"source_year":2024,"crime_score":0.9483,"crime_nivel":"Muy Alto","crime_color":"#d32f2f"},"geometry":{"type":"MultiPolygon","coordinates":[[[[-69.8492575739999,-23.337755861313],[-69.8493610989999,-23.337589684313],[-69.8486871929999,-23.3368127613129],[-69.8480474939999,-23.336497905313],[-69.8478054689999,-23.336973736313],[-69.8492575739999,-23.337755861313]]],[[[-69.8463976349999,-23.336215315313],[-69.847714735,-23.336924866313],[-69.8480002419999,-23.336458651313],[-69.8466081669999,-23.335767266313],[-69.8463976349999,-23.336215315313]]]]}}]}