{"type":"FeatureCollection","features":[{"type":"Feature","properties":{"id":"9117051001001","commune":"Teodoro Schmidt","code":"09117","gse":"C3","quintil":"Q2","nse_score":665.7,"educ":10.5,"educ_score":500.0,"hacin":1.363,"hacin_class":"Hacinamiento Leve","hacin_score":773.8,"auto_score":167.9,"n_per":379,"n_hog":132,"source_year":2024,"crime_score":0.0501,"crime_nivel":"Bajo","crime_color":"#cddc39"},"geometry":{"type":"Polygon","coordinates":[[[-73.0784642309999,-38.9884259850771],[-73.0786971179999,-38.9893493620771],[-73.0795801819999,-38.9891583010771],[-73.0797040219999,-38.9894427830771],[-73.0800071869999,-38.989426345077],[-73.0788318769999,-38.9896963740771],[-73.0792225749999,-38.9907647150771],[-73.079678483,-38.9906506350771],[-73.0794322089999,-38.9900172150771],[-73.079731234,-38.990648005077],[-73.0801861389999,-38.990529533077],[-73.0799702129999,-38.9899342270771],[-73.0800074439999,-38.9899252170771],[-73.0802333239999,-38.9905254990771],[-73.0807058569999,-38.9904182490771],[-73.0805666609999,-38.9898867480771],[-73.0807634669999,-38.990401702077],[-73.0812211739999,-38.990303827077],[-73.0811542819999,-38.990000072077],[-73.0815379729999,-38.9905508250771],[-73.0829396939999,-38.990345163077],[-73.0830273359999,-38.9905741770771],[-73.0841924729999,-38.9907160110771],[-73.0842626689999,-38.990839856077],[-73.0849565819999,-38.9907019290771],[-73.0842410049999,-38.9908909530771],[-73.0846020529999,-38.991983299077],[-73.0857279839999,-38.991699012077],[-73.0854466219999,-38.9907715950771],[-73.0858575169999,-38.9916912420771],[-73.0870071019999,-38.991375668077],[-73.0868161199999,-38.9906522140771],[-73.0868592229999,-38.989887697077],[-73.0855826389999,-38.9898640270771],[-73.0843304829999,-38.9895847060771],[-73.0821459309999,-38.9893510470771],[-73.0810604159999,-38.9890818740771],[-73.0802780779999,-38.9887290980771],[-73.0794044049999,-38.9888259550771],[-73.0784642309999,-38.9884259850771]]]}},{"type":"Feature","properties":{"id":"9117051001002","commune":"Teodoro Schmidt","code":"09117","gse":"C3","quintil":"Q2","nse_score":679.2,"educ":10.3,"educ_score":486.7,"hacin":1.482,"hacin_class":"Hacinamiento Leve","hacin_score":748.6,"auto_score":133.3,"n_per":40,"n_hog":15,"source_year":2024,"crime_score":0.0441,"crime_nivel":"Bajo","crime_color":"#cddc39"},"geometry":{"type":"Polygon","coordinates":[[[-73.0796538109999,-38.9894616990771],[-73.0795572809999,-38.9891848400771],[-73.0787087829999,-38.9893823150771],[-73.0788094209999,-38.9896456870771],[-73.0796538109999,-38.9894616990771]]]}},{"type":"Feature","properties":{"id":"9117051001003","commune":"Teodoro Schmidt","code":"09117","gse":"D","quintil":"Q1","nse_score":637.4,"educ":9.5,"educ_score":433.3,"hacin":1.123,"hacin_class":"Hacinamiento Leve","hacin_score":824.8,"auto_score":83.3,"n_per":91,"n_hog":34,"source_year":2024,"crime_score":0.0463,"crime_nivel":"Bajo","crime_color":"#cddc39"},"geometry":{"type":"Polygon","coordinates":[[[-73.0918939669999,-38.9894074070771],[-73.0884283019999,-38.990113675077],[-73.087796797,-38.9901142000771],[-73.0869055699999,-38.989891115077],[-73.0868579309999,-38.9906054190771],[-73.0870740999999,-38.991335222077],[-73.0882396079999,-38.991087179077],[-73.0881117349999,-38.9907506480771],[-73.0873303649999,-38.990858551077],[-73.0881716809999,-38.990690284077],[-73.0883454219999,-38.991112660077],[-73.0915291339999,-38.990400938077],[-73.091392788,-38.989812951077],[-73.0916208049999,-38.9903866060771],[-73.0927883289999,-38.990166184077],[-73.092760316,-38.9897646410771],[-73.0918939669999,-38.9894074070771]]]}},{"type":"Feature","properties":{"id":"9117051001004","commune":"Teodoro Schmidt","code":"09117","gse":"D","quintil":"Q1","nse_score":631.0,"educ":9.7,"educ_score":446.7,"hacin":1.191,"hacin_class":"Hacinamiento Leve","hacin_score":810.4,"auto_score":131.6,"n_per":187,"n_hog":69,"source_year":2024,"crime_score":0.0485,"crime_nivel":"Bajo","crime_color":"#cddc39"},"geometry":{"type":"Polygon","coordinates":[[[-73.0927883289999,-38.990166184077],[-73.0916135009999,-38.9904696140771],[-73.0919090739999,-38.991266011077],[-73.0918503519999,-38.9912808820771],[-73.0915357259999,-38.9904386580771],[-73.0891471749999,-38.991001140077],[-73.08987106,-38.991616561077],[-73.0908115809999,-38.990965069077],[-73.0899400609999,-38.991690911077],[-73.0908083649999,-38.992405659077],[-73.0916943859999,-38.991800761077],[-73.0908728309999,-38.992460145077],[-73.0917406209999,-38.993194667077],[-73.0921732659999,-38.992896574077],[-73.0947885159999,-38.992218229077],[-73.0922009669999,-38.992947762077],[-73.0918330879999,-38.993250009077],[-73.0934957369999,-38.994853428077],[-73.0944778319999,-38.994182964077],[-73.0954918759999,-38.994951135077],[-73.0959965929999,-38.994705062077],[-73.0994286424999,-38.993736227577],[-73.0991726859999,-38.9932873860771],[-73.098552218,-38.992555845077],[-73.0982790259999,-38.992437851077],[-73.0977170929999,-38.9916946220771],[-73.0980869979999,-38.991942845077],[-73.0982350489999,-38.9918468540771],[-73.0978945409999,-38.991525981077],[-73.0975583949999,-38.9914044610771],[-73.0973556869999,-38.9910076350771],[-73.0965551549999,-38.990966826077],[-73.0958748029999,-38.991265996077],[-73.0959074179999,-38.9913750250771],[-73.0957573289999,-38.9914280460771],[-73.0943098419999,-38.991525488077],[-73.0934429979999,-38.991064829077],[-73.0927023369999,-38.9908408250771],[-73.0927883289999,-38.990166184077]]]}},{"type":"Feature","properties":{"id":"9117051001005","commune":"Teodoro Schmidt","code":"09117","gse":"C3","quintil":"Q3","nse_score":684.6,"educ":10.7,"educ_score":513.3,"hacin":1.268,"hacin_class":"Hacinamiento Leve","hacin_score":794.0,"auto_score":64.1,"n_per":104,"n_hog":37,"source_year":2024,"crime_score":0.0454,"crime_nivel":"Bajo","crime_color":"#cddc39"},"geometry":{"type":"Polygon","coordinates":[[[-73.0814636069999,-38.9906693070771],[-73.0813152279999,-38.990351843077],[-73.0792362699999,-38.9908651650771],[-73.0794201329999,-38.991189643077],[-73.0814636069999,-38.9906693070771]]]}},{"type":"Feature","properties":{"id":"9117051001006","commune":"Teodoro Schmidt","code":"09117","gse":"E","quintil":"Q1","nse_score":611.8,"educ":9.1,"educ_score":406.7,"hacin":1.359,"hacin_class":"Hacinamiento Leve","hacin_score":774.7,"auto_score":166.7,"n_per":53,"n_hog":24,"source_year":2024,"crime_score":0.046,"crime_nivel":"Bajo","crime_color":"#cddc39"},"geometry":{"type":"Polygon","coordinates":[[[-73.0828912039999,-38.9904198670771],[-73.0815618259999,-38.990578789077],[-73.0815710039999,-38.9909269600771],[-73.0829248779999,-38.990775210077],[-73.0828912039999,-38.9904198670771]]]}},{"type":"Feature","properties":{"id":"9117051001007","commune":"Teodoro Schmidt","code":"09117","gse":"D","quintil":"Q2","nse_score":649.4,"educ":10.1,"educ_score":473.3,"hacin":1.194,"hacin_class":"Hacinamiento Leve","hacin_score":809.8,"auto_score":28.6,"n_per":80,"n_hog":35,"source_year":2024,"crime_score":0.0457,"crime_nivel":"Bajo","crime_color":"#cddc39"},"geometry":{"type":"Polygon","coordinates":[[[-73.0834498359999,-38.9910151660771],[-73.0841557909999,-38.990775141077],[-73.0829972249999,-38.9906271830771],[-73.0833746039999,-38.992603934077],[-73.0846432629999,-38.9926796280771],[-73.0841886259999,-38.9909017680771],[-73.0834498359999,-38.9910151660771]]]}},{"type":"Feature","properties":{"id":"9117051001008","commune":"Teodoro Schmidt","code":"09117","gse":"C3","quintil":"Q2","nse_score":681.6,"educ":10.4,"educ_score":493.3,"hacin":0.938,"hacin_class":"Sin Hacinamiento","hacin_score":864.4,"auto_score":83.3,"n_per":30,"n_hog":11,"source_year":2024,"crime_score":0.0438,"crime_nivel":"Bajo","crime_color":"#cddc39"},"geometry":{"type":"Polygon","coordinates":[[[-73.0815315439999,-38.991404854077],[-73.0814716489999,-38.990791734077],[-73.0810450449999,-38.9908529040771],[-73.0811598009999,-38.9914932710771],[-73.0815315439999,-38.991404854077]]]}},{"type":"Feature","properties":{"id":"9117051001009","commune":"Teodoro Schmidt","code":"09117","gse":"D","quintil":"Q1","nse_score":619.6,"educ":9.5,"educ_score":433.3,"hacin":1.382,"hacin_class":"Hacinamiento Leve","hacin_score":769.8,"auto_score":115.4,"n_per":76,"n_hog":25,"source_year":2024,"crime_score":0.0464,"crime_nivel":"Bajo","crime_color":"#cddc39"},"geometry":{"type":"Polygon","coordinates":[[[-73.0829751089999,-38.9908319670771],[-73.0816159539999,-38.990982595077],[-73.0816306289999,-38.991331635077],[-73.0830121819999,-38.991179560077],[-73.0829751089999,-38.9908319670771]]]}},{"type":"Feature","properties":{"id":"9117051001011","commune":"Teodoro Schmidt","code":"09117","gse":"C3","quintil":"Q3","nse_score":709.8,"educ":11.5,"educ_score":566.7,"hacin":0.788,"hacin_class":"Sin Hacinamiento","hacin_score":896.1,"auto_score":190.5,"n_per":41,"n_hog":20,"source_year":2024,"crime_score":0.0434,"crime_nivel":"Bajo","crime_color":"#cddc39"},"geometry":{"type":"Polygon","coordinates":[[[-73.0876382679999,-38.991304654077],[-73.0888129339999,-38.992318004077],[-73.0897980969999,-38.9916559910771],[-73.0890449039999,-38.991008810077],[-73.0876382679999,-38.991304654077]]]}},{"type":"Feature","properties":{"id":"9117051001012","commune":"Teodoro Schmidt","code":"09117","gse":"D","quintil":"Q1","nse_score":638.2,"educ":10.5,"educ_score":500.0,"hacin":1.615,"hacin_class":"Hacinamiento Medio","hacin_score":720.1,"auto_score":222.2,"n_per":21,"n_hog":9,"source_year":2024,"crime_score":0.0447,"crime_nivel":"Bajo","crime_color":"#cddc39"},"geometry":{"type":"Polygon","coordinates":[[[-73.0800923659999,-38.9917166860771],[-73.0805252019999,-38.9916455480771],[-73.0802952339999,-38.9910435780771],[-73.079894523,-38.991138488077],[-73.0800923659999,-38.9917166860771]]]}},{"type":"Feature","properties":{"id":"9117051001013","commune":"Teodoro Schmidt","code":"09117","gse":"C2","quintil":"Q4","nse_score":768.7,"educ":12.4,"educ_score":626.7,"hacin":1.222,"hacin_class":"Hacinamiento Leve","hacin_score":803.8,"auto_score":115.4,"n_per":33,"n_hog":13,"source_year":2024,"crime_score":0.0418,"crime_nivel":"Bajo","crime_color":"#cddc39"},"geometry":{"type":"Polygon","coordinates":[[[-73.0794506119999,-38.9912520560771],[-73.0796047629999,-38.9918303100771],[-73.0800457499999,-38.9917515610771],[-73.0798144579999,-38.991161965077],[-73.0794506119999,-38.9912520560771]]]}},{"type":"Feature","properties":{"id":"9117051001014","commune":"Teodoro Schmidt","code":"09117","gse":"D","quintil":"Q2","nse_score":660.1,"educ":10.0,"educ_score":466.7,"hacin":1.224,"hacin_class":"Hacinamiento Leve","hacin_score":803.5,"auto_score":161.8,"n_per":93,"n_hog":34,"source_year":2024,"crime_score":0.0457,"crime_nivel":"Bajo","crime_color":"#cddc39"},"geometry":{"type":"Polygon","coordinates":[[[-73.0822265889999,-38.9912733310771],[-73.0796412219999,-38.9919092260771],[-73.0796611099999,-38.992351828077],[-73.083291201,-38.992610943077],[-73.0830580959999,-38.991248676077],[-73.0822265889999,-38.9912733310771]]]}},{"type":"Feature","properties":{"id":"9117051001015","commune":"Teodoro Schmidt","code":"09117","gse":"D","quintil":"Q1","nse_score":636.2,"educ":9.7,"educ_score":446.7,"hacin":1.203,"hacin_class":"Hacinamiento Leve","hacin_score":807.8,"auto_score":121.2,"n_per":71,"n_hog":33,"source_year":2024,"crime_score":0.0458,"crime_nivel":"Bajo","crime_color":"#cddc39"},"geometry":{"type":"Polygon","coordinates":[[[-73.0859809019999,-38.9923706710771],[-73.0858089709999,-38.993056413077],[-73.0867775089999,-38.9938687530771],[-73.0887447209999,-38.992390951077],[-73.0874285429999,-38.991351943077],[-73.0858612009999,-38.9917408110771],[-73.0859497019999,-38.992337699077],[-73.0867899659999,-38.9921604250771],[-73.0859809019999,-38.9923706710771]]]}},{"type":"Feature","properties":{"id":"9117051001016","commune":"Teodoro Schmidt","code":"09117","gse":"C3","quintil":"Q3","nse_score":697.6,"educ":10.6,"educ_score":506.7,"hacin":1.103,"hacin_class":"Hacinamiento Leve","hacin_score":829.1,"auto_score":38.5,"n_per":32,"n_hog":13,"source_year":2024,"crime_score":0.0435,"crime_nivel":"Bajo","crime_color":"#cddc39"},"geometry":{"type":"Polygon","coordinates":[[[-73.0899027959999,-38.9917146220771],[-73.0889232829999,-38.9924154650771],[-73.0897838739999,-38.993104690077],[-73.0907444389999,-38.992445290077],[-73.0899027959999,-38.9917146220771]]]}},{"type":"Feature","properties":{"id":"9117051001017","commune":"Teodoro Schmidt","code":"09117","gse":"C2","quintil":"Q3","nse_score":721.1,"educ":11.9,"educ_score":593.3,"hacin":0.867,"hacin_class":"Sin Hacinamiento","hacin_score":879.4,"auto_score":0.0,"n_per":13,"n_hog":5,"source_year":2024,"crime_score":0.0425,"crime_nivel":"Bajo","crime_color":"#cddc39"},"geometry":{"type":"Polygon","coordinates":[[[-73.0858044389999,-38.991759150077],[-73.0845823609999,-38.9920501280771],[-73.0847611479999,-38.992687544077],[-73.0857557949999,-38.9929746110771],[-73.0859155269999,-38.992452288077],[-73.0858044389999,-38.991759150077]]]}},{"type":"Feature","properties":{"id":"9117051001018","commune":"Teodoro Schmidt","code":"09117","gse":"D","quintil":"Q1","nse_score":622.2,"educ":10.2,"educ_score":480.0,"hacin":1.393,"hacin_class":"Hacinamiento Leve","hacin_score":767.5,"auto_score":0.0,"n_per":39,"n_hog":12,"source_year":2024,"crime_score":0.0455,"crime_nivel":"Bajo","crime_color":"#cddc39"},"geometry":{"type":"Polygon","coordinates":[[[-73.0784926899999,-38.992669246077],[-73.0801575999999,-38.993269736077],[-73.0819187559999,-38.993582639077],[-73.0817127379999,-38.992586875077],[-73.079710341,-38.9924609180771],[-73.0784610109999,-38.992213925077],[-73.0784926899999,-38.992669246077]]]}},{"type":"Feature","properties":{"id":"9117051001019","commune":"Teodoro Schmidt","code":"09117","gse":"D","quintil":"Q1","nse_score":630.7,"educ":10.5,"educ_score":500.0,"hacin":1.286,"hacin_class":"Hacinamiento Leve","hacin_score":790.3,"auto_score":79.4,"n_per":135,"n_hog":53,"source_year":2024,"crime_score":0.0474,"crime_nivel":"Bajo","crime_color":"#cddc39"},"geometry":{"type":"Polygon","coordinates":[[[-73.0764516799999,-38.994640038077],[-73.0770390839999,-38.994979323077],[-73.0787792959999,-38.994820149077],[-73.07996929,-38.995128392077],[-73.0843194979999,-38.995846161077],[-73.0846386679999,-38.996372870077],[-73.0857318039999,-38.997348070077],[-73.0873387359999,-38.996104748077],[-73.0864832819999,-38.995289261077],[-73.0854609099999,-38.995963121077],[-73.0850340009999,-38.995995690077],[-73.0855784939999,-38.995834443077],[-73.084837321,-38.995483883077],[-73.0840426869999,-38.995423339077],[-73.0816982899999,-38.994905911077],[-73.0815350349999,-38.994659821077],[-73.0817723319999,-38.994887339077],[-73.0841343639999,-38.995409014077],[-73.0848583989999,-38.995454546077],[-73.0856403419999,-38.995797859077],[-73.0864497129999,-38.995217470077],[-73.0863523829999,-38.994594498077],[-73.0861830059999,-38.994480900077],[-73.0844907039999,-38.994052362077],[-73.0838815539999,-38.994534144077],[-73.0844551189999,-38.994046861077],[-73.0840662139999,-38.993987042077],[-73.0831148659999,-38.994660070077],[-73.0840308879999,-38.993980526077],[-73.0800884689999,-38.993294323077],[-73.0774217929999,-38.992260074077],[-73.0756859029999,-38.992828858077],[-73.0751539049999,-38.993385719077],[-73.0764516799999,-38.994640038077]]]}},{"type":"Feature","properties":{"id":"9117051001021","commune":"Teodoro Schmidt","code":"09117","gse":"C3","quintil":"Q3","nse_score":686.6,"educ":11.3,"educ_score":553.3,"hacin":1.212,"hacin_class":"Hacinamiento Leve","hacin_score":805.9,"auto_score":205.9,"n_per":40,"n_hog":16,"source_year":2024,"crime_score":0.0439,"crime_nivel":"Bajo","crime_color":"#cddc39"},"geometry":{"type":"Polygon","coordinates":[[[-73.0908311249999,-38.992502436077],[-73.0898883989999,-38.993191248077],[-73.0906424109999,-38.993965806077],[-73.0916482229999,-38.993221212077],[-73.0908311249999,-38.992502436077]]]}},{"type":"Feature","properties":{"id":"9117051001022","commune":"Teodoro Schmidt","code":"09117","gse":"C3","quintil":"Q2","nse_score":677.0,"educ":10.9,"educ_score":526.7,"hacin":1.35,"hacin_class":"Hacinamiento Leve","hacin_score":776.6,"auto_score":222.2,"n_per":27,"n_hog":9,"source_year":2024,"crime_score":0.0439,"crime_nivel":"Bajo","crime_color":"#cddc39"},"geometry":{"type":"Polygon","coordinates":[[[-73.0819511109999,-38.9931558100771],[-73.0823158879999,-38.993132718077],[-73.0830346819999,-38.993219495077],[-73.0828979969999,-38.992658947077],[-73.0818272059999,-38.992594364077],[-73.0819511109999,-38.9931558100771]]]}},{"type":"Feature","properties":{"id":"9117051001023","commune":"Teodoro Schmidt","code":"09117","gse":"D","quintil":"Q2","nse_score":661.2,"educ":10.9,"educ_score":526.7,"hacin":1.167,"hacin_class":"Hacinamiento Leve","hacin_score":815.6,"auto_score":176.5,"n_per":35,"n_hog":17,"source_year":2024,"crime_score":0.0444,"crime_nivel":"Bajo","crime_color":"#cddc39"},"geometry":{"type":"Polygon","coordinates":[[[-73.0847353579999,-38.9927958110771],[-73.082997153,-38.992684876077],[-73.0831699519999,-38.993786730077],[-73.0850534399999,-38.994062290077],[-73.0847353579999,-38.9927958110771]]]}},{"type":"Feature","properties":{"id":"9117051001024","commune":"Teodoro Schmidt","code":"09117","gse":"C3","quintil":"Q2","nse_score":670.3,"educ":10.9,"educ_score":526.7,"hacin":1.276,"hacin_class":"Hacinamiento Leve","hacin_score":792.4,"auto_score":125.0,"n_per":74,"n_hog":32,"source_year":2024,"crime_score":0.0451,"crime_nivel":"Bajo","crime_color":"#cddc39"},"geometry":{"type":"Polygon","coordinates":[[[-73.0847964089999,-38.992844160077],[-73.0849586309999,-38.993328179077],[-73.0857839439999,-38.993533743077],[-73.0849735619999,-38.993399444077],[-73.0851563239999,-38.994121848077],[-73.0863286749999,-38.994458046077],[-73.0862419549999,-38.993735905077],[-73.0860297239999,-38.993356282077],[-73.0855543859999,-38.992984176077],[-73.0849160639999,-38.992781681077],[-73.0847964089999,-38.992844160077]]]}},{"type":"Feature","properties":{"id":"9117051001025","commune":"Teodoro Schmidt","code":"09117","gse":"D","quintil":"Q2","nse_score":651.9,"educ":11.1,"educ_score":540.0,"hacin":1.5,"hacin_class":"Hacinamiento Medio","hacin_score":744.7,"auto_score":125.0,"n_per":18,"n_hog":6,"source_year":2024,"crime_score":0.0443,"crime_nivel":"Bajo","crime_color":"#cddc39"},"geometry":{"type":"Polygon","coordinates":[[[-73.0819170689999,-38.993189843077],[-73.0819778179999,-38.993594582077],[-73.0825679139999,-38.993691312077],[-73.0824976169999,-38.993195431077],[-73.0819170689999,-38.993189843077]]]}},{"type":"Feature","properties":{"id":"9117051001026","commune":"Teodoro Schmidt","code":"09117","gse":"E","quintil":"Q1","nse_score":569.7,"educ":10.4,"educ_score":493.3,"hacin":1.778,"hacin_class":"Hacinamiento Medio","hacin_score":685.6,"auto_score":166.7,"n_per":16,"n_hog":7,"source_year":2024,"crime_score":0.0462,"crime_nivel":"Bajo","crime_color":"#cddc39"},"geometry":{"type":"Polygon","coordinates":[[[-73.0826273449999,-38.993703960077],[-73.0831095869999,-38.993737620077],[-73.0830453459999,-38.9933024630771],[-73.0825427279999,-38.9932270730771],[-73.0826273449999,-38.993703960077]]]}},{"type":"Feature","properties":{"id":"9117051001027","commune":"Teodoro Schmidt","code":"09117","gse":"E","quintil":"Q1","nse_score":609.5,"educ":9.3,"educ_score":420.0,"hacin":1.515,"hacin_class":"Hacinamiento Medio","hacin_score":741.5,"auto_score":166.7,"n_per":50,"n_hog":21,"source_year":2024,"crime_score":0.046,"crime_nivel":"Bajo","crime_color":"#cddc39"},"geometry":{"type":"Polygon","coordinates":[[[-73.0887730959999,-38.994010361077],[-73.0896354199999,-38.994728642077],[-73.0905656819999,-38.994022685077],[-73.0903446309999,-38.9936810880771],[-73.0898251699999,-38.9939590480771],[-73.090280473,-38.993612191077],[-73.0898111659999,-38.993222551077],[-73.0887730959999,-38.994010361077]]]}},{"type":"Feature","properties":{"id":"9117051001030","commune":"Teodoro Schmidt","code":"09117","gse":"C3","quintil":"Q3","nse_score":692.7,"educ":10.7,"educ_score":513.3,"hacin":1.209,"hacin_class":"Hacinamiento Leve","hacin_score":806.5,"auto_score":136.4,"n_per":52,"n_hog":20,"source_year":2024,"crime_score":0.044,"crime_nivel":"Bajo","crime_color":"#cddc39"},"geometry":{"type":"Polygon","coordinates":[[[-73.0907550409999,-38.994045888077],[-73.0915911909999,-38.994804634077],[-73.0925686459999,-38.9940793310771],[-73.0917583439999,-38.9933172450771],[-73.0907550409999,-38.994045888077]]]}},{"type":"Feature","properties":{"id":"9117051001031","commune":"Teodoro Schmidt","code":"09117","gse":"C3","quintil":"Q3","nse_score":707.7,"educ":11.5,"educ_score":566.7,"hacin":1.2,"hacin_class":"Hacinamiento Leve","hacin_score":808.5,"auto_score":153.8,"n_per":24,"n_hog":12,"source_year":2024,"crime_score":0.0431,"crime_nivel":"Bajo","crime_color":"#cddc39"},"geometry":{"type":"Polygon","coordinates":[[[-73.0864453709999,-38.9945243860771],[-73.0878746679999,-38.995405533077],[-73.0881729829999,-38.995170297077],[-73.0863149759999,-38.993635387077],[-73.0864453709999,-38.9945243860771]]]}},{"type":"Feature","properties":{"id":"9117051001032","commune":"Teodoro Schmidt","code":"09117","gse":"E","quintil":"Q1","nse_score":582.8,"educ":9.4,"educ_score":426.7,"hacin":1.286,"hacin_class":"Hacinamiento Leve","hacin_score":790.3,"auto_score":0.0,"n_per":18,"n_hog":6,"source_year":2024,"crime_score":0.0459,"crime_nivel":"Bajo","crime_color":"#cddc39"},"geometry":{"type":"Polygon","coordinates":[[[-73.0977616419999,-38.995187077077],[-73.0996479499999,-38.9946538610771],[-73.0998805849999,-38.994012805077],[-73.0997766579999,-38.9939102100771],[-73.099653869,-38.994029292077],[-73.0996197509999,-38.993854679077],[-73.0994453979999,-38.993766435077],[-73.0969902609999,-38.994486706077],[-73.0977616419999,-38.995187077077]]]}},{"type":"Feature","properties":{"id":"9117051001033","commune":"Teodoro Schmidt","code":"09117","gse":"E","quintil":"Q1","nse_score":590.6,"educ":9.3,"educ_score":420.0,"hacin":1.304,"hacin_class":"Hacinamiento Leve","hacin_score":786.3,"auto_score":33.3,"n_per":30,"n_hog":13,"source_year":2024,"crime_score":0.046,"crime_nivel":"Bajo","crime_color":"#cddc39"},"geometry":{"type":"Polygon","coordinates":[[[-73.0886258179999,-38.995427240077],[-73.0895449989999,-38.994769982077],[-73.0886934069999,-38.994029149077],[-73.0877490829999,-38.994692809077],[-73.0886258179999,-38.995427240077]]]}},{"type":"Feature","properties":{"id":"9117051001035","commune":"Teodoro Schmidt","code":"09117","gse":"C3","quintil":"Q2","nse_score":682.3,"educ":12.5,"educ_score":633.3,"hacin":1.556,"hacin_class":"Hacinamiento Medio","hacin_score":732.9,"auto_score":181.8,"n_per":28,"n_hog":10,"source_year":2024,"crime_score":0.0438,"crime_nivel":"Bajo","crime_color":"#cddc39"},"geometry":{"type":"Polygon","coordinates":[[[-73.0906700979999,-38.994134761077],[-73.0897507879999,-38.994833545077],[-73.0906173089999,-38.995525508077],[-73.0915212899999,-38.994868076077],[-73.0906700979999,-38.994134761077]]]}},{"type":"Feature","properties":{"id":"9117051001036","commune":"Teodoro Schmidt","code":"09117","gse":"D","quintil":"Q2","nse_score":648.4,"educ":11.1,"educ_score":540.0,"hacin":1.273,"hacin_class":"Hacinamiento Leve","hacin_score":793.0,"auto_score":83.3,"n_per":42,"n_hog":15,"source_year":2024,"crime_score":0.0449,"crime_nivel":"Bajo","crime_color":"#cddc39"},"geometry":{"type":"Polygon","coordinates":[[[-73.0926544019999,-38.994225896077],[-73.091672909,-38.994884090077],[-73.0925038959999,-38.995583057077],[-73.0934542779999,-38.994915448077],[-73.0926544019999,-38.994225896077]]]}},{"type":"Feature","properties":{"id":"9117051001038","commune":"Teodoro Schmidt","code":"09117","gse":"C3","quintil":"Q3","nse_score":691.1,"educ":11.5,"educ_score":566.7,"hacin":1.143,"hacin_class":"Hacinamiento Leve","hacin_score":820.7,"auto_score":272.7,"n_per":24,"n_hog":10,"source_year":2024,"crime_score":0.0435,"crime_nivel":"Bajo","crime_color":"#cddc39"},"geometry":{"type":"Polygon","coordinates":[[[-73.0945636589999,-38.994322486077],[-73.0936785209999,-38.995015693077],[-73.0944910609999,-38.995687217077],[-73.0954145969999,-38.995011479077],[-73.0945636589999,-38.994322486077]]]}},{"type":"Feature","properties":{"id":"9117051001039","commune":"Teodoro Schmidt","code":"09117","gse":"E","quintil":"Q1","nse_score":580.0,"educ":7.5,"educ_score":300.0,"hacin":1.069,"hacin_class":"Hacinamiento Leve","hacin_score":836.4,"auto_score":0.0,"n_per":31,"n_hog":11,"source_year":2024,"crime_score":0.0463,"crime_nivel":"Bajo","crime_color":"#cddc39"},"geometry":{"type":"Polygon","coordinates":[[[-73.0962975169999,-38.995653007077],[-73.0964293849999,-38.995569964077],[-73.0977239059999,-38.995197586077],[-73.0969201939999,-38.994504775077],[-73.0955594079999,-38.995009577077],[-73.0962975169999,-38.995653007077]]]}},{"type":"Feature","properties":{"id":"9117051001040","commune":"Teodoro Schmidt","code":"09117","gse":"D","quintil":"Q1","nse_score":613.3,"educ":8.3,"educ_score":353.3,"hacin":1.0,"hacin_class":"Hacinamiento Leve","hacin_score":851.1,"auto_score":83.3,"n_per":13,"n_hog":6,"source_year":2024,"crime_score":0.0451,"crime_nivel":"Bajo","crime_color":"#cddc39"},"geometry":{"type":"Polygon","coordinates":[[[-73.086502821,-38.9951634110771],[-73.0872367619999,-38.995863656077],[-73.0877988109999,-38.995460568077],[-73.0864951309999,-38.994637829077],[-73.086502821,-38.9951634110771]]]}},{"type":"Feature","properties":{"id":"9117051001042","commune":"Teodoro Schmidt","code":"09117","gse":"D","quintil":"Q2","nse_score":658.6,"educ":11.4,"educ_score":560.0,"hacin":1.242,"hacin_class":"Hacinamiento Leve","hacin_score":799.5,"auto_score":131.6,"n_per":41,"n_hog":17,"source_year":2024,"crime_score":0.0446,"crime_nivel":"Bajo","crime_color":"#cddc39"},"geometry":{"type":"Polygon","coordinates":[[[-73.0897036419999,-38.994865350077],[-73.0887622229999,-38.995532432077],[-73.0896241809999,-38.996269958077],[-73.0905415649999,-38.995589598077],[-73.0897036419999,-38.994865350077]]]}},{"type":"Feature","properties":{"id":"9117051001043","commune":"Teodoro Schmidt","code":"09117","gse":"C3","quintil":"Q2","nse_score":678.8,"educ":11.8,"educ_score":586.7,"hacin":1.417,"hacin_class":"Hacinamiento Leve","hacin_score":762.4,"auto_score":269.2,"n_per":34,"n_hog":12,"source_year":2024,"crime_score":0.044,"crime_nivel":"Bajo","crime_color":"#cddc39"},"geometry":{"type":"Polygon","coordinates":[[[-73.0916226649999,-38.994924458077],[-73.0907104299999,-38.995627169077],[-73.0915258429999,-38.996292737077],[-73.0924440109999,-38.995648699077],[-73.0916226649999,-38.994924458077]]]}},{"type":"Feature","properties":{"id":"9117051001045","commune":"Teodoro Schmidt","code":"09117","gse":"C2","quintil":"Q4","nse_score":755.8,"educ":14.1,"educ_score":740.0,"hacin":1.5,"hacin_class":"Hacinamiento Medio","hacin_score":744.7,"auto_score":409.1,"n_per":36,"n_hog":11,"source_year":2024,"crime_score":0.0422,"crime_nivel":"Bajo","crime_color":"#cddc39"},"geometry":{"type":"Polygon","coordinates":[[[-73.0935974659999,-38.995032341077],[-73.092659496,-38.995708950077],[-73.0935133989999,-38.996394636077],[-73.0944155729999,-38.995764613077],[-73.0935974659999,-38.995032341077]]]}},{"type":"Feature","properties":{"id":"9117051001046","commune":"Teodoro Schmidt","code":"09117","gse":"C2","quintil":"Q4","nse_score":730.0,"educ":13.0,"educ_score":666.7,"hacin":0.875,"hacin_class":"Sin Hacinamiento","hacin_score":877.7,"auto_score":93.8,"n_per":21,"n_hog":14,"source_year":2024,"crime_score":0.0425,"crime_nivel":"Bajo","crime_color":"#cddc39"},"geometry":{"type":"Polygon","coordinates":[[[-73.0955027779999,-38.995068510077],[-73.0945935739999,-38.995773925077],[-73.0953956919999,-38.996442068077],[-73.0963087519999,-38.995773574077],[-73.0955027779999,-38.995068510077]]]}},{"type":"Feature","properties":{"id":"9117051001047","commune":"Teodoro Schmidt","code":"09117","gse":"D","quintil":"Q2","nse_score":661.7,"educ":10.3,"educ_score":486.7,"hacin":1.271,"hacin_class":"Hacinamiento Leve","hacin_score":793.4,"auto_score":96.8,"n_per":75,"n_hog":31,"source_year":2024,"crime_score":0.0453,"crime_nivel":"Bajo","crime_color":"#cddc39"},"geometry":{"type":"Polygon","coordinates":[[[-73.0971875309999,-38.997958661077],[-73.0963259479999,-38.997333837077],[-73.0954513659999,-38.997986954077],[-73.0960251849999,-38.998524324077],[-73.0953343139999,-38.998045587077],[-73.0938432649999,-38.999099765077],[-73.0945083229999,-38.999749491077],[-73.0937925609999,-38.999123290077],[-73.0930940629999,-38.999360667077],[-73.0934086739999,-38.999672755077],[-73.0930555459999,-38.999383973077],[-73.0928153689999,-38.999592655077],[-73.0949190579999,-39.001342039077],[-73.0993010089999,-38.998226615077],[-73.0991711709999,-38.997935620077],[-73.0996471149999,-38.997313400077],[-73.0989015729999,-38.996901948077],[-73.0988080589999,-38.996557853077],[-73.0979734769999,-38.995778909077],[-73.0980312589999,-38.995463943077],[-73.0977251609999,-38.995197237077],[-73.0964293849999,-38.995569964077],[-73.0962975169999,-38.995653007077],[-73.0963367359999,-38.995854198077],[-73.0954989619999,-38.996481164077],[-73.0971875309999,-38.997958661077]]]}},{"type":"Feature","properties":{"id":"9117051001048","commune":"Teodoro Schmidt","code":"09117","gse":"C2","quintil":"Q4","nse_score":743.4,"educ":12.1,"educ_score":606.7,"hacin":1.385,"hacin_class":"Hacinamiento Leve","hacin_score":769.2,"auto_score":150.0,"n_per":18,"n_hog":10,"source_year":2024,"crime_score":0.0421,"crime_nivel":"Bajo","crime_color":"#cddc39"},"geometry":{"type":"Polygon","coordinates":[[[-73.0885706189999,-38.997026247077],[-73.0895535799999,-38.996306303077],[-73.0883040659999,-38.995269128077],[-73.0873279749999,-38.995922984077],[-73.0885706189999,-38.997026247077]]]}},{"type":"Feature","properties":{"id":"9117051001049","commune":"Teodoro Schmidt","code":"09117","gse":"C3","quintil":"Q2","nse_score":666.3,"educ":12.0,"educ_score":600.0,"hacin":1.35,"hacin_class":"Hacinamiento Leve","hacin_score":776.6,"auto_score":66.7,"n_per":27,"n_hog":13,"source_year":2024,"crime_score":0.0441,"crime_nivel":"Bajo","crime_color":"#cddc39"},"geometry":{"type":"Polygon","coordinates":[[[-73.0914586489999,-38.996358290077],[-73.0905952319999,-38.995668932077],[-73.0897350299999,-38.996347410077],[-73.090569952,-38.997022439077],[-73.0914586489999,-38.996358290077]]]}},{"type":"Feature","properties":{"id":"9117051001051","commune":"Teodoro Schmidt","code":"09117","gse":"C3","quintil":"Q3","nse_score":704.1,"educ":11.9,"educ_score":593.3,"hacin":0.821,"hacin_class":"Sin Hacinamiento","hacin_score":889.3,"auto_score":0.0,"n_per":32,"n_hog":17,"source_year":2024,"crime_score":0.0433,"crime_nivel":"Bajo","crime_color":"#cddc39"},"geometry":{"type":"Polygon","coordinates":[[[-73.0934266989999,-38.996464467077],[-73.0925398269999,-38.995754492077],[-73.0916840879999,-38.996412139077],[-73.0925158949999,-38.997108864077],[-73.0934266989999,-38.996464467077]]]}},{"type":"Feature","properties":{"id":"9117051001052","commune":"Teodoro Schmidt","code":"09117","gse":"D","quintil":"Q2","nse_score":657.7,"educ":10.8,"educ_score":520.0,"hacin":1.167,"hacin_class":"Hacinamiento Leve","hacin_score":815.6,"auto_score":25.0,"n_per":42,"n_hog":20,"source_year":2024,"crime_score":0.0447,"crime_nivel":"Bajo","crime_color":"#cddc39"},"geometry":{"type":"Polygon","coordinates":[[[-73.0945190849999,-38.995796338077],[-73.0935964489999,-38.996459935077],[-73.0944024699999,-38.997163122077],[-73.0953490699999,-38.996509363077],[-73.0945190849999,-38.995796338077]]]}},{"type":"Feature","properties":{"id":"9117051001053","commune":"Teodoro Schmidt","code":"09117","gse":"C3","quintil":"Q2","nse_score":666.5,"educ":11.0,"educ_score":533.3,"hacin":1.442,"hacin_class":"Hacinamiento Leve","hacin_score":757.1,"auto_score":21.7,"n_per":62,"n_hog":23,"source_year":2024,"crime_score":0.0449,"crime_nivel":"Bajo","crime_color":"#cddc39"},"geometry":{"type":"Polygon","coordinates":[[[-73.0874254299999,-38.996181368077],[-73.0857318039999,-38.997348070077],[-73.0876112789999,-38.998927302077],[-73.0879496669999,-38.998938963077],[-73.0886518469999,-38.998667184077],[-73.0895587239999,-38.998044835077],[-73.0874254299999,-38.996181368077]]]}},{"type":"Feature","properties":{"id":"9117051001054","commune":"Teodoro Schmidt","code":"09117","gse":"C2","quintil":"Q4","nse_score":737.8,"educ":13.0,"educ_score":666.7,"hacin":1.2,"hacin_class":"Hacinamiento Leve","hacin_score":808.5,"auto_score":142.9,"n_per":18,"n_hog":7,"source_year":2024,"crime_score":0.0422,"crime_nivel":"Bajo","crime_color":"#cddc39"},"geometry":{"type":"Polygon","coordinates":[[[-73.0891623339999,-38.996739006077],[-73.0909161839999,-38.998269079077],[-73.091441803,-38.997908633077],[-73.0902808859999,-38.997045295077],[-73.0902893009999,-38.996932203077],[-73.0896855209999,-38.996402293077],[-73.0891623339999,-38.996739006077]]]}},{"type":"Feature","properties":{"id":"9117051001056","commune":"Teodoro Schmidt","code":"09117","gse":"C3","quintil":"Q3","nse_score":684.6,"educ":12.7,"educ_score":646.7,"hacin":1.0,"hacin_class":"Hacinamiento Leve","hacin_score":851.1,"auto_score":176.5,"n_per":31,"n_hog":14,"source_year":2024,"crime_score":0.0438,"crime_nivel":"Bajo","crime_color":"#cddc39"},"geometry":{"type":"Polygon","coordinates":[[[-73.0924526389999,-38.997159091077],[-73.0915527149999,-38.996490810077],[-73.0907140759999,-38.997140209077],[-73.0915030239999,-38.997833249077],[-73.0924526389999,-38.997159091077]]]}},{"type":"Feature","properties":{"id":"9117051001057","commune":"Teodoro Schmidt","code":"09117","gse":"D","quintil":"Q2","nse_score":657.1,"educ":12.3,"educ_score":620.0,"hacin":1.5,"hacin_class":"Hacinamiento Medio","hacin_score":744.7,"auto_score":107.1,"n_per":33,"n_hog":12,"source_year":2024,"crime_score":0.0445,"crime_nivel":"Bajo","crime_color":"#cddc39"},"geometry":{"type":"Polygon","coordinates":[[[-73.0935370269999,-38.996516254077],[-73.0925911269999,-38.997186466077],[-73.0934110959999,-38.997879859077],[-73.0943653079999,-38.997239650077],[-73.0935370269999,-38.996516254077]]]}},{"type":"Feature","properties":{"id":"9117051001058","commune":"Teodoro Schmidt","code":"09117","gse":"E","quintil":"Q1","nse_score":582.7,"educ":10.1,"educ_score":473.3,"hacin":1.412,"hacin_class":"Hacinamiento Leve","hacin_score":763.5,"auto_score":71.4,"n_per":24,"n_hog":12,"source_year":2024,"crime_score":0.0461,"crime_nivel":"Bajo","crime_color":"#cddc39"},"geometry":{"type":"Polygon","coordinates":[[[-73.0954633289999,-38.996562271077],[-73.0945097879999,-38.997249000077],[-73.0953477389999,-38.997936634077],[-73.0962817769999,-38.997299677077],[-73.0954633289999,-38.996562271077]]]}},{"type":"Feature","properties":{"id":"9117051001060","commune":"Teodoro Schmidt","code":"09117","gse":"C3","quintil":"Q3","nse_score":692.5,"educ":13.9,"educ_score":726.7,"hacin":1.476,"hacin_class":"Hacinamiento Leve","hacin_score":749.7,"auto_score":153.8,"n_per":31,"n_hog":11,"source_year":2024,"crime_score":0.0436,"crime_nivel":"Bajo","crime_color":"#cddc39"},"geometry":{"type":"Polygon","coordinates":[[[-73.0933560909999,-38.997960837077],[-73.0925104859999,-38.997217692077],[-73.0915914039999,-38.997896048077],[-73.0924607259999,-38.998613242077],[-73.0933560909999,-38.997960837077]]]}},{"type":"Feature","properties":{"id":"9117051001061","commune":"Teodoro Schmidt","code":"09117","gse":"C2","quintil":"Q4","nse_score":729.0,"educ":12.3,"educ_score":620.0,"hacin":1.059,"hacin_class":"Hacinamiento Leve","hacin_score":838.5,"auto_score":235.3,"n_per":36,"n_hog":17,"source_year":2024,"crime_score":0.0428,"crime_nivel":"Bajo","crime_color":"#cddc39"},"geometry":{"type":"Polygon","coordinates":[[[-73.0952609239999,-38.998026344077],[-73.0944285779999,-38.997268517077],[-73.0935175889999,-38.997964541077],[-73.0943579309999,-38.998657252077],[-73.0952609239999,-38.998026344077]]]}},{"type":"Feature","properties":{"id":"9117051001062","commune":"Teodoro Schmidt","code":"09117","gse":"E","quintil":"Q1","nse_score":608.4,"educ":11.0,"educ_score":533.3,"hacin":1.16,"hacin_class":"Hacinamiento Leve","hacin_score":817.0,"auto_score":35.7,"n_per":29,"n_hog":11,"source_year":2024,"crime_score":0.0456,"crime_nivel":"Bajo","crime_color":"#cddc39"},"geometry":{"type":"Polygon","coordinates":[[[-73.0915007759999,-38.999433500077],[-73.092255152,-38.999837468077],[-73.0930493469999,-38.999256315077],[-73.0914947159999,-38.997954749077],[-73.0910192789999,-38.998352211077],[-73.0917657179999,-38.998947929077],[-73.0909755019999,-38.998389638077],[-73.0905783409999,-38.998679821077],[-73.0915007759999,-38.999433500077]]]}},{"type":"Feature","properties":{"id":"9117051001063","commune":"Teodoro Schmidt","code":"09117","gse":"C2","quintil":"Q3","nse_score":711.3,"educ":11.2,"educ_score":546.7,"hacin":1.297,"hacin_class":"Hacinamiento Leve","hacin_score":787.8,"auto_score":187.5,"n_per":48,"n_hog":16,"source_year":2024,"crime_score":0.0435,"crime_nivel":"Bajo","crime_color":"#cddc39"},"geometry":{"type":"Polygon","coordinates":[[[-73.0925141409999,-38.998641410077],[-73.0932474999999,-38.999219510077],[-73.0937411669999,-38.999079051077],[-73.0942866519999,-38.998693517077],[-73.0934049949999,-38.998002213077],[-73.0925141409999,-38.998641410077]]]}},{"type":"Feature","properties":{"id":"9117051001066","commune":"Teodoro Schmidt","code":"09117","gse":"C3","quintil":"Q3","nse_score":694.9,"educ":12.5,"educ_score":633.3,"hacin":1.5,"hacin_class":"Hacinamiento Medio","hacin_score":744.7,"auto_score":45.5,"n_per":30,"n_hog":10,"source_year":2024,"crime_score":0.0435,"crime_nivel":"Bajo","crime_color":"#cddc39"},"geometry":{"type":"Polygon","coordinates":[[[-73.0892217389999,-39.001146032077],[-73.0923510669999,-39.0031491050769],[-73.0946220429999,-39.001551047077],[-73.0911883669999,-38.999308331077],[-73.0892217389999,-39.001146032077]]]}},{"type":"Feature","properties":{"id":"9117051001067","commune":"Teodoro Schmidt","code":"09117","gse":"E","quintil":"Q1","nse_score":589.1,"educ":8.5,"educ_score":366.7,"hacin":0.889,"hacin_class":"Sin Hacinamiento","hacin_score":874.7,"auto_score":0.0,"n_per":8,"n_hog":8,"source_year":2024,"crime_score":0.0456,"crime_nivel":"Bajo","crime_color":"#cddc39"},"geometry":{"type":"Polygon","coordinates":[[[-73.0947085519999,-39.001490172077],[-73.0948563599999,-39.001386159077],[-73.0927633179999,-38.999649532077],[-73.0923909829999,-38.999874355077],[-73.0947085519999,-39.001490172077]]]}},{"type":"Feature","properties":{"id":"9117051001020","commune":"Teodoro Schmidt","code":"09117","gse":"C3","quintil":"Q3","nse_score":684.3,"educ":10.0,"educ_score":466.7,"hacin":1.192,"hacin_class":"Hacinamiento Leve","hacin_score":810.1,"auto_score":90.9,"n_per":31,"n_hog":11,"source_year":2024,"crime_score":0.0438,"crime_nivel":"Bajo","crime_color":"#cddc39"},"geometry":{"type":"MultiPolygon","coordinates":[[[[-73.0868588979999,-38.993907452077],[-73.0877469749999,-38.994626037077],[-73.0886108299999,-38.993953185077],[-73.0877360329999,-38.993265142077],[-73.0868588979999,-38.993907452077]]],[[[-73.0886660019999,-38.993919437077],[-73.0897338089999,-38.993191652077],[-73.0888482559999,-38.992444359077],[-73.0878229549999,-38.993210777077],[-73.0886660019999,-38.993919437077]]]]}},{"type":"Feature","properties":{"id":"9117071001001","commune":"Teodoro Schmidt","code":"09117","gse":"D","quintil":"Q1","nse_score":630.7,"educ":10.6,"educ_score":506.7,"hacin":1.443,"hacin_class":"Hacinamiento Leve","hacin_score":756.9,"auto_score":157.1,"n_per":290,"n_hog":99,"source_year":2024,"crime_score":0.0508,"crime_nivel":"Bajo","crime_color":"#cddc39"},"geometry":{"type":"Polygon","coordinates":[[[-73.1762883579999,-39.0799251770765],[-73.1787612009999,-39.0857774820764],[-73.1812105239999,-39.0857972310764],[-73.1816379249999,-39.0843246070764],[-73.1827749229999,-39.0822568860764],[-73.1796022839999,-39.0827615160764],[-73.1801114779999,-39.0826568380764],[-73.1801471729999,-39.0822519320765],[-73.1797782469999,-39.0822686980764],[-73.1828558159999,-39.0815823750764],[-73.1822601939999,-39.0817893360764],[-73.1821847289999,-39.0822521890764],[-73.1828700699999,-39.0821413010764],[-73.1831520069999,-39.0813407240764],[-73.1829797849999,-39.0807023740764],[-73.1792410559999,-39.0815628060765],[-73.1829554289999,-39.0806582930764],[-73.1825602609999,-39.0795363580764],[-73.1808055059999,-39.0798680970764],[-73.1819255059999,-39.0795333130765],[-73.181749093,-39.0792012880764],[-73.1807749919999,-39.0794204920764],[-73.1817402289999,-39.0791495030765],[-73.1815752559999,-39.0786264780765],[-73.1805396119999,-39.0788606110764],[-73.1820556689999,-39.0783675480765],[-73.1819170289999,-39.0778055470764],[-73.1789056699999,-39.0788033960765],[-73.1762883579999,-39.0799251770765]]]}},{"type":"Feature","properties":{"id":"9117071001002","commune":"Teodoro Schmidt","code":"09117","gse":"E","quintil":"Q1","nse_score":556.9,"educ":7.8,"educ_score":320.0,"hacin":0.944,"hacin_class":"Sin Hacinamiento","hacin_score":862.9,"auto_score":0.0,"n_per":17,"n_hog":8,"source_year":2024,"crime_score":0.0465,"crime_nivel":"Bajo","crime_color":"#cddc39"},"geometry":{"type":"Polygon","coordinates":[[[-73.1819981039999,-39.0795138850764],[-73.1825178279999,-39.0794082260765],[-73.1820841439999,-39.0784228180764],[-73.1816609659999,-39.0786039970765],[-73.1819981039999,-39.0795138850764]]]}},{"type":"Feature","properties":{"id":"9117071001003","commune":"Teodoro Schmidt","code":"09117","gse":"D","quintil":"Q1","nse_score":628.2,"educ":10.1,"educ_score":473.3,"hacin":1.349,"hacin_class":"Hacinamiento Leve","hacin_score":776.8,"auto_score":220.6,"n_per":116,"n_hog":33,"source_year":2024,"crime_score":0.047,"crime_nivel":"Bajo","crime_color":"#cddc39"},"geometry":{"type":"Polygon","coordinates":[[[-73.1844056499999,-39.0799130360764],[-73.1829612759999,-39.0802497290765],[-73.1832021309999,-39.0806893320765],[-73.1832045099999,-39.0804274270765],[-73.1832966799999,-39.0806687490764],[-73.1837785199999,-39.0805638510765],[-73.1836315379999,-39.0801788830764],[-73.1838431019999,-39.0805533040764],[-73.1842807069999,-39.0804604330764],[-73.1841745139999,-39.0800297050765],[-73.1845719659999,-39.0810291220765],[-73.1843066899999,-39.0805361900764],[-73.1838750939999,-39.0806247820764],[-73.1840827089999,-39.0811532700765],[-73.1838095509999,-39.0806440420765],[-73.1833198419999,-39.0807444080764],[-73.1835452969999,-39.0813543330764],[-73.1848302879999,-39.0810286870765],[-73.1844056499999,-39.0799130360764]]]}},{"type":"Feature","properties":{"id":"9117071001005","commune":"Teodoro Schmidt","code":"09117","gse":"D","quintil":"Q1","nse_score":613.4,"educ":9.6,"educ_score":440.0,"hacin":1.301,"hacin_class":"Hacinamiento Leve","hacin_score":787.1,"auto_score":177.2,"n_per":212,"n_hog":74,"source_year":2024,"crime_score":0.0496,"crime_nivel":"Bajo","crime_color":"#cddc39"},"geometry":{"type":"Polygon","coordinates":[[[-73.1848485699999,-39.0810767210764],[-73.1834852459999,-39.0814217070764],[-73.1843818159999,-39.0812883730764],[-73.1846438339999,-39.0820036050765],[-73.1841031149999,-39.0822176660765],[-73.1842584059999,-39.0827236530764],[-73.185059668,-39.0826286470764],[-73.1843023569999,-39.0827968410764],[-73.1845790469999,-39.0831388480764],[-73.1842616989999,-39.0829908800764],[-73.1837106599999,-39.0814209420765],[-73.1832226289999,-39.0815682810764],[-73.1817474729999,-39.0843434190764],[-73.1811695919999,-39.0868193760764],[-73.1874374609999,-39.0853660220764],[-73.1870551519999,-39.0843643500764],[-73.1861708899999,-39.0845507480764],[-73.1848485699999,-39.0810767210764]]]}},{"type":"Feature","properties":{"id":"9117071001006","commune":"Teodoro Schmidt","code":"09117","gse":"C3","quintil":"Q2","nse_score":665.8,"educ":11.6,"educ_score":573.3,"hacin":1.393,"hacin_class":"Hacinamiento Leve","hacin_score":767.5,"auto_score":187.5,"n_per":39,"n_hog":16,"source_year":2024,"crime_score":0.0444,"crime_nivel":"Bajo","crime_color":"#cddc39"},"geometry":{"type":"Polygon","coordinates":[[[-73.1837848509999,-39.0814041580764],[-73.1840406899999,-39.0821191870764],[-73.1845069429999,-39.0820623390765],[-73.1843213079999,-39.0813451030764],[-73.1837848509999,-39.0814041580764]]]}},{"type":"Feature","properties":{"id":"9117071001007","commune":"Teodoro Schmidt","code":"09117","gse":"E","quintil":"Q1","nse_score":609.2,"educ":11.1,"educ_score":540.0,"hacin":1.625,"hacin_class":"Hacinamiento Medio","hacin_score":718.1,"auto_score":166.7,"n_per":26,"n_hog":7,"source_year":2024,"crime_score":0.0455,"crime_nivel":"Bajo","crime_color":"#cddc39"},"geometry":{"type":"Polygon","coordinates":[[[-73.1821520009999,-39.0818101740764],[-73.1812814299999,-39.0820038310764],[-73.181225922,-39.0824489750764],[-73.1821119249999,-39.0822735790764],[-73.1821520009999,-39.0818101740764]]]}},{"type":"Feature","properties":{"id":"9117071001008","commune":"Teodoro Schmidt","code":"09117","gse":"D","quintil":"Q1","nse_score":624.3,"educ":10.6,"educ_score":506.7,"hacin":1.267,"hacin_class":"Hacinamiento Leve","hacin_score":794.3,"auto_score":0.0,"n_per":19,"n_hog":6,"source_year":2024,"crime_score":0.045,"crime_nivel":"Bajo","crime_color":"#cddc39"},"geometry":{"type":"Polygon","coordinates":[[[-73.1802371949999,-39.0822353170764],[-73.1802194409999,-39.0826450080764],[-73.181089213,-39.0824828830764],[-73.1811886639999,-39.0820429300764],[-73.1802371949999,-39.0822353170764]]]}},{"type":"Feature","properties":{"id":"9117071001009","commune":"Teodoro Schmidt","code":"09117","gse":"D","quintil":"Q1","nse_score":628.3,"educ":9.9,"educ_score":460.0,"hacin":1.41,"hacin_class":"Hacinamiento Leve","hacin_score":763.9,"auto_score":121.2,"n_per":86,"n_hog":33,"source_year":2024,"crime_score":0.0464,"crime_nivel":"Bajo","crime_color":"#cddc39"},"geometry":{"type":"Polygon","coordinates":[[[-73.1758151409999,-39.0886579920764],[-73.1766096239999,-39.0886375590764],[-73.177698216,-39.0883656060764],[-73.1773556839999,-39.0874232940764],[-73.1767582729999,-39.0875308910764],[-73.176595372,-39.0877300740764],[-73.1767241709999,-39.0874885180764],[-73.1773092779999,-39.0873035920764],[-73.1769017529999,-39.0863244850764],[-73.1774176139999,-39.0873203170764],[-73.1784830039999,-39.0870372170764],[-73.178284931,-39.0865409330764],[-73.1785157869999,-39.0870283870764],[-73.1788043309999,-39.0869491720764],[-73.1785832619999,-39.0864051510764],[-73.1788561709999,-39.0861670490764],[-73.1784556129999,-39.0852557540764],[-73.1783393669999,-39.0853678650764],[-73.1783779989999,-39.0859050240764],[-73.1781898839999,-39.0860809350764],[-73.1768406729999,-39.0857685670764],[-73.176423601,-39.0854145610764],[-73.1763609309999,-39.0855566610764],[-73.1759178849999,-39.0854475280764],[-73.1757681669999,-39.0856598070764],[-73.1752771249999,-39.0858531530764],[-73.1752735699999,-39.0863148840764],[-73.1756583419999,-39.0875761840764],[-73.1758151409999,-39.0886579920764]]]}},{"type":"Feature","properties":{"id":"9117071001014","commune":"Teodoro Schmidt","code":"09117","gse":"C3","quintil":"Q2","nse_score":676.8,"educ":11.9,"educ_score":593.3,"hacin":1.091,"hacin_class":"Hacinamiento Leve","hacin_score":831.7,"auto_score":250.0,"n_per":24,"n_hog":8,"source_year":2024,"crime_score":0.0438,"crime_nivel":"Bajo","crime_color":"#cddc39"},"geometry":{"type":"Polygon","coordinates":[[[-73.1828068389999,-39.0890530690764],[-73.1839548729999,-39.0894582280764],[-73.1844984639999,-39.0894450370764],[-73.1846745239999,-39.0891900480764],[-73.1835131569999,-39.0863404340764],[-73.1821878809999,-39.0866501240764],[-73.1823232559999,-39.0871135970764],[-73.1820304309999,-39.0876086530764],[-73.1822546009999,-39.0879879900764],[-73.1823617349999,-39.0886807290764],[-73.1828068389999,-39.0890530690764]]]}},{"type":"Feature","properties":{"id":"9117071001015","commune":"Teodoro Schmidt","code":"09117","gse":"D","quintil":"Q2","nse_score":649.3,"educ":10.3,"educ_score":486.7,"hacin":1.368,"hacin_class":"Hacinamiento Leve","hacin_score":772.8,"auto_score":140.4,"n_per":145,"n_hog":54,"source_year":2024,"crime_score":0.0471,"crime_nivel":"Bajo","crime_color":"#cddc39"},"geometry":{"type":"Polygon","coordinates":[[[-73.1810063919999,-39.0875670770764],[-73.1805251449999,-39.0878092780764],[-73.1813539669999,-39.0898522440764],[-73.1817962689999,-39.0897554890764],[-73.1813673329999,-39.0898842400764],[-73.1817256739999,-39.0907317380764],[-73.1830357009999,-39.0905947020764],[-73.1832535349999,-39.0902478200764],[-73.1827189029999,-39.0901549780764],[-73.1831090459999,-39.0901470190764],[-73.1831088929999,-39.0891818850764],[-73.1827582299999,-39.0890786090764],[-73.1822840819999,-39.0886615240764],[-73.1822104689999,-39.0880031880764],[-73.1819754629999,-39.0876158700764],[-73.182278945,-39.0870960930764],[-73.1821354149999,-39.0866657210764],[-73.1811644209999,-39.0869088940764],[-73.1810063919999,-39.0875670770764]]]}},{"type":"Feature","properties":{"id":"9117071001017","commune":"Teodoro Schmidt","code":"09117","gse":"D","quintil":"Q1","nse_score":618.9,"educ":10.0,"educ_score":466.7,"hacin":1.571,"hacin_class":"Hacinamiento Medio","hacin_score":729.5,"auto_score":33.3,"n_per":33,"n_hog":13,"source_year":2024,"crime_score":0.0454,"crime_nivel":"Bajo","crime_color":"#cddc39"},"geometry":{"type":"Polygon","coordinates":[[[-73.1792754169999,-39.0879013050764],[-73.1788331509999,-39.0869922480764],[-73.1774134969999,-39.0874083170764],[-73.177864284,-39.0883191170764],[-73.1792754169999,-39.0879013050764]]]}},{"type":"Feature","properties":{"id":"9117071001024","commune":"Teodoro Schmidt","code":"09117","gse":"D","quintil":"Q2","nse_score":654.8,"educ":11.9,"educ_score":593.3,"hacin":1.45,"hacin_class":"Hacinamiento Leve","hacin_score":755.3,"auto_score":45.5,"n_per":29,"n_hog":9,"source_year":2024,"crime_score":0.0445,"crime_nivel":"Bajo","crime_color":"#cddc39"},"geometry":{"type":"Polygon","coordinates":[[[-73.179432431,-39.0890425870764],[-73.1790149799999,-39.0880868070764],[-73.1778627659999,-39.0884460580764],[-73.1782337879999,-39.0892936090764],[-73.179432431,-39.0890425870764]]]}},{"type":"Feature","properties":{"id":"9117071001025","commune":"Teodoro Schmidt","code":"09117","gse":"E","quintil":"Q1","nse_score":604.8,"educ":9.1,"educ_score":406.7,"hacin":1.5,"hacin_class":"Hacinamiento Medio","hacin_score":744.7,"auto_score":0.0,"n_per":42,"n_hog":16,"source_year":2024,"crime_score":0.046,"crime_nivel":"Bajo","crime_color":"#cddc39"},"geometry":{"type":"Polygon","coordinates":[[[-73.1768152879999,-39.0896310070764],[-73.1781216409999,-39.0893758130764],[-73.177794763,-39.0884698720764],[-73.1765155519999,-39.0887286180764],[-73.1768152879999,-39.0896310070764]]]}},{"type":"Feature","properties":{"id":"9117071001027","commune":"Teodoro Schmidt","code":"09117","gse":"D","quintil":"Q1","nse_score":634.5,"educ":10.3,"educ_score":486.7,"hacin":1.242,"hacin_class":"Hacinamiento Leve","hacin_score":799.5,"auto_score":111.1,"n_per":41,"n_hog":16,"source_year":2024,"crime_score":0.0452,"crime_nivel":"Bajo","crime_color":"#cddc39"},"geometry":{"type":"Polygon","coordinates":[[[-73.1807383679999,-39.0887563320764],[-73.1802713929999,-39.0889162730764],[-73.1807838959999,-39.0899357780764],[-73.1812312949999,-39.0897950470764],[-73.1807383679999,-39.0887563320764]]]}},{"type":"Feature","properties":{"id":"9117071001030","commune":"Teodoro Schmidt","code":"09117","gse":"C2","quintil":"Q4","nse_score":722.1,"educ":12.7,"educ_score":646.7,"hacin":1.3,"hacin_class":"Hacinamiento Leve","hacin_score":787.2,"auto_score":318.2,"n_per":26,"n_hog":11,"source_year":2024,"crime_score":0.0428,"crime_nivel":"Bajo","crime_color":"#cddc39"},"geometry":{"type":"Polygon","coordinates":[[[-73.1796166299999,-39.0894547800764],[-73.1794530299999,-39.0890897960764],[-73.1782947049999,-39.0894409880764],[-73.1787161249999,-39.0903850400764],[-73.1796166299999,-39.0894547800764]]]}},{"type":"Feature","properties":{"id":"9117071001031","commune":"Teodoro Schmidt","code":"09117","gse":"E","quintil":"Q1","nse_score":594.8,"educ":8.8,"educ_score":386.7,"hacin":1.133,"hacin_class":"Hacinamiento Leve","hacin_score":822.7,"auto_score":66.7,"n_per":34,"n_hog":13,"source_year":2024,"crime_score":0.046,"crime_nivel":"Bajo","crime_color":"#cddc39"},"geometry":{"type":"Polygon","coordinates":[[[-73.1831637169999,-39.0897060600764],[-73.1840764589999,-39.0900562120764],[-73.1844687569999,-39.0894880600764],[-73.1836994009999,-39.0894452370764],[-73.1831528779999,-39.0891889900764],[-73.1831637169999,-39.0897060600764]]]}},{"type":"Feature","properties":{"id":"9117071001037","commune":"Teodoro Schmidt","code":"09117","gse":"D","quintil":"Q1","nse_score":634.8,"educ":10.4,"educ_score":493.3,"hacin":1.347,"hacin_class":"Hacinamiento Leve","hacin_score":777.2,"auto_score":206.5,"n_per":128,"n_hog":42,"source_year":2024,"crime_score":0.0471,"crime_nivel":"Bajo","crime_color":"#cddc39"},"geometry":{"type":"Polygon","coordinates":[[[-73.185090139,-39.0933221040763],[-73.1869498629999,-39.0929272520763],[-73.1862358419999,-39.0912570120763],[-73.184506483,-39.0916680200764],[-73.1839207879999,-39.0902816660764],[-73.1840542369999,-39.0900883950764],[-73.1835522389999,-39.0899096960764],[-73.1830750119999,-39.0906298870764],[-73.1826141859999,-39.0906299070764],[-73.1826450039999,-39.0910081250763],[-73.1825590879999,-39.0906344040764],[-73.1817658509999,-39.0908222040764],[-73.1825949569999,-39.0926533480764],[-73.1845155189999,-39.0922427480764],[-73.1845213189999,-39.0920166010764],[-73.1847508029999,-39.0925300530764],[-73.1863769469999,-39.0921434120764],[-73.1847627579999,-39.0925707590764],[-73.1849263369999,-39.0929461760764],[-73.1859448249999,-39.0927148350763],[-73.1849424359999,-39.0929831240764],[-73.185090139,-39.0933221040763]]]}},{"type":"Feature","properties":{"id":"9117071001039","commune":"Teodoro Schmidt","code":"09117","gse":"E","quintil":"Q1","nse_score":605.8,"educ":9.8,"educ_score":453.3,"hacin":1.484,"hacin_class":"Hacinamiento Leve","hacin_score":748.1,"auto_score":88.2,"n_per":46,"n_hog":17,"source_year":2024,"crime_score":0.046,"crime_nivel":"Bajo","crime_color":"#cddc39"},"geometry":{"type":"Polygon","coordinates":[[[-73.1776031199999,-39.0914200310764],[-73.1778869049999,-39.0912860050764],[-73.1785968249999,-39.0905494030764],[-73.1784702659999,-39.0900888470764],[-73.1771367649999,-39.0903676760763],[-73.1776031199999,-39.0914200310764]]]}},{"type":"Feature","properties":{"id":"9117071001041","commune":"Teodoro Schmidt","code":"09117","gse":"E","quintil":"Q1","nse_score":575.3,"educ":9.0,"educ_score":400.0,"hacin":1.485,"hacin_class":"Hacinamiento Leve","hacin_score":747.9,"auto_score":136.4,"n_per":49,"n_hog":23,"source_year":2024,"crime_score":0.0468,"crime_nivel":"Bajo","crime_color":"#cddc39"},"geometry":{"type":"Polygon","coordinates":[[[-73.1756094699999,-39.0963806370763],[-73.1760982209999,-39.0963090380764],[-73.1762923519999,-39.0931602610763],[-73.1764280429999,-39.0928405790764],[-73.1769920139999,-39.0922351940764],[-73.1762852889999,-39.0905887610764],[-73.1754278769999,-39.0910134470764],[-73.1755067139999,-39.0918404510764],[-73.1756371819999,-39.0919595660764],[-73.1755758979999,-39.0923943760764],[-73.1760333789999,-39.0927787690764],[-73.1758826709999,-39.0931211240763],[-73.176009958,-39.0933637650764],[-73.1759558109999,-39.0941694160763],[-73.1757286349999,-39.0948878070764],[-73.1760245289999,-39.0960371460763],[-73.1756869439999,-39.0961814550764],[-73.1756094699999,-39.0963806370763]]]}},{"type":"Feature","properties":{"id":"9117071001043","commune":"Teodoro Schmidt","code":"09117","gse":"D","quintil":"Q1","nse_score":630.9,"educ":11.0,"educ_score":533.3,"hacin":1.514,"hacin_class":"Hacinamiento Medio","hacin_score":741.8,"auto_score":150.0,"n_per":56,"n_hog":20,"source_year":2024,"crime_score":0.0456,"crime_nivel":"Bajo","crime_color":"#cddc39"},"geometry":{"type":"Polygon","coordinates":[[[-73.1811840569999,-39.0909997510764],[-73.1815170369999,-39.0918267640764],[-73.1820255569999,-39.0917632360764],[-73.1816953909999,-39.0908659930764],[-73.1811840569999,-39.0909997510764]]]}},{"type":"Feature","properties":{"id":"9117071001044","commune":"Teodoro Schmidt","code":"09117","gse":"D","quintil":"Q2","nse_score":659.8,"educ":10.4,"educ_score":493.3,"hacin":1.0,"hacin_class":"Hacinamiento Leve","hacin_score":851.1,"auto_score":71.4,"n_per":30,"n_hog":12,"source_year":2024,"crime_score":0.0444,"crime_nivel":"Bajo","crime_color":"#cddc39"},"geometry":{"type":"Polygon","coordinates":[[[-73.179051651,-39.0911507780764],[-73.1794798829999,-39.0923244500763],[-73.1806733489999,-39.0920784410764],[-73.1801581599999,-39.0908888950764],[-73.179051651,-39.0911507780764]]]}},{"type":"Feature","properties":{"id":"9117071001047","commune":"Teodoro Schmidt","code":"09117","gse":"D","quintil":"Q1","nse_score":627.4,"educ":10.5,"educ_score":500.0,"hacin":1.333,"hacin_class":"Hacinamiento Leve","hacin_score":780.1,"auto_score":66.7,"n_per":28,"n_hog":13,"source_year":2024,"crime_score":0.0451,"crime_nivel":"Bajo","crime_color":"#cddc39"},"geometry":{"type":"Polygon","coordinates":[[[-73.1781516359999,-39.0927268940764],[-73.179397993,-39.0924050090764],[-73.1788844239999,-39.0911877470764],[-73.1778545279999,-39.0914434260764],[-73.1776723279999,-39.0916457300764],[-73.1781516359999,-39.0927268940764]]]}},{"type":"Feature","properties":{"id":"9117071001049","commune":"Teodoro Schmidt","code":"09117","gse":"E","quintil":"Q1","nse_score":592.1,"educ":8.7,"educ_score":380.0,"hacin":1.5,"hacin_class":"Hacinamiento Medio","hacin_score":744.7,"auto_score":0.0,"n_per":12,"n_hog":6,"source_year":2024,"crime_score":0.0456,"crime_nivel":"Bajo","crime_color":"#cddc39"},"geometry":{"type":"Polygon","coordinates":[[[-73.1770829659999,-39.0922760820764],[-73.1773343109999,-39.0928926640763],[-73.1780218829999,-39.0927608240763],[-73.1776365489999,-39.0917674240764],[-73.1770829659999,-39.0922760820764]]]}},{"type":"Feature","properties":{"id":"9117071001050","commune":"Teodoro Schmidt","code":"09117","gse":"E","quintil":"Q1","nse_score":609.3,"educ":9.6,"educ_score":440.0,"hacin":1.288,"hacin_class":"Hacinamiento Leve","hacin_score":789.7,"auto_score":107.1,"n_per":67,"n_hog":26,"source_year":2024,"crime_score":0.0464,"crime_nivel":"Bajo","crime_color":"#cddc39"},"geometry":{"type":"Polygon","coordinates":[[[-73.1815854499999,-39.0919607360764],[-73.1820238419999,-39.0930260830763],[-73.1824799009999,-39.0929625420764],[-73.1821044229999,-39.0918407420764],[-73.1815854499999,-39.0919607360764]]]}},{"type":"Feature","properties":{"id":"9117071001051","commune":"Teodoro Schmidt","code":"09117","gse":"D","quintil":"Q2","nse_score":659.8,"educ":10.8,"educ_score":520.0,"hacin":1.056,"hacin_class":"Hacinamiento Leve","hacin_score":839.2,"auto_score":115.4,"n_per":19,"n_hog":11,"source_year":2024,"crime_score":0.0441,"crime_nivel":"Bajo","crime_color":"#cddc39"},"geometry":{"type":"Polygon","coordinates":[[[-73.1808781679999,-39.0920742960764],[-73.1813086649999,-39.0932024970764],[-73.1819185029999,-39.0931227120764],[-73.1815175169999,-39.0919765410764],[-73.1808781679999,-39.0920742960764]]]}},{"type":"Feature","properties":{"id":"9117071001052","commune":"Teodoro Schmidt","code":"09117","gse":"D","quintil":"Q2","nse_score":647.5,"educ":11.0,"educ_score":533.3,"hacin":1.429,"hacin_class":"Hacinamiento Leve","hacin_score":759.9,"auto_score":31.2,"n_per":40,"n_hog":15,"source_year":2024,"crime_score":0.0449,"crime_nivel":"Bajo","crime_color":"#cddc39"},"geometry":{"type":"Polygon","coordinates":[[[-73.1795495029999,-39.0924807140763],[-73.1800831379999,-39.0936249050764],[-73.1812024529999,-39.0933389720763],[-73.1806909339999,-39.0921217870764],[-73.1795495029999,-39.0924807140763]]]}},{"type":"Feature","properties":{"id":"9117071001054","commune":"Teodoro Schmidt","code":"09117","gse":"D","quintil":"Q1","nse_score":623.6,"educ":10.5,"educ_score":500.0,"hacin":1.415,"hacin_class":"Hacinamiento Leve","hacin_score":762.8,"auto_score":0.0,"n_per":58,"n_hog":18,"source_year":2024,"crime_score":0.0459,"crime_nivel":"Bajo","crime_color":"#cddc39"},"geometry":{"type":"Polygon","coordinates":[[[-73.1845605279999,-39.0934496380763],[-73.1850109839999,-39.0933201800763],[-73.1845748469999,-39.0923134130764],[-73.1841027039999,-39.0923771680764],[-73.1845605279999,-39.0934496380763]]]}},{"type":"Feature","properties":{"id":"9117071001055","commune":"Teodoro Schmidt","code":"09117","gse":"D","quintil":"Q1","nse_score":624.4,"educ":10.4,"educ_score":493.3,"hacin":1.182,"hacin_class":"Hacinamiento Leve","hacin_score":812.4,"auto_score":0.0,"n_per":13,"n_hog":5,"source_year":2024,"crime_score":0.0448,"crime_nivel":"Bajo","crime_color":"#cddc39"},"geometry":{"type":"Polygon","coordinates":[[[-73.1763571639999,-39.0932014890764],[-73.1772422489999,-39.0929532200763],[-73.1770407239999,-39.0923488250764],[-73.1766151569999,-39.0926759760764],[-73.1763571639999,-39.0932014890764]]]}},{"type":"Feature","properties":{"id":"9117071001056","commune":"Teodoro Schmidt","code":"09117","gse":"D","quintil":"Q1","nse_score":620.8,"educ":9.9,"educ_score":460.0,"hacin":1.567,"hacin_class":"Hacinamiento Medio","hacin_score":730.5,"auto_score":117.6,"n_per":47,"n_hog":17,"source_year":2024,"crime_score":0.0457,"crime_nivel":"Bajo","crime_color":"#cddc39"},"geometry":{"type":"Polygon","coordinates":[[[-73.1826125279999,-39.0928919760763],[-73.1831502869999,-39.0930147560764],[-73.1836579369999,-39.0929268590763],[-73.1840218239999,-39.0935640530764],[-73.1844933919999,-39.0934611590764],[-73.1840335379999,-39.0923916510764],[-73.1826128249999,-39.0926969740763],[-73.1826125279999,-39.0928919760763]]]}},{"type":"Feature","properties":{"id":"9117071001057","commune":"Teodoro Schmidt","code":"09117","gse":"D","quintil":"Q2","nse_score":664.1,"educ":11.4,"educ_score":560.0,"hacin":1.343,"hacin_class":"Hacinamiento Leve","hacin_score":778.1,"auto_score":100.0,"n_per":47,"n_hog":14,"source_year":2024,"crime_score":0.0446,"crime_nivel":"Bajo","crime_color":"#cddc39"},"geometry":{"type":"Polygon","coordinates":[[[-73.1781397339999,-39.0928184620763],[-73.1786662179999,-39.0939905120764],[-73.1799262579999,-39.0936655760763],[-73.1794203019999,-39.0924517790764],[-73.1781397339999,-39.0928184620763]]]}},{"type":"Feature","properties":{"id":"9117071001058","commune":"Teodoro Schmidt","code":"09117","gse":"E","quintil":"Q1","nse_score":546.7,"educ":8.7,"educ_score":380.0,"hacin":1.167,"hacin_class":"Hacinamiento Leve","hacin_score":815.6,"auto_score":0.0,"n_per":14,"n_hog":7,"source_year":2024,"crime_score":0.0467,"crime_nivel":"Bajo","crime_color":"#cddc39"},"geometry":{"type":"Polygon","coordinates":[[[-73.1774074979999,-39.0929550510764],[-73.1778722639999,-39.0941555400763],[-73.1785441219999,-39.0940296290763],[-73.1780852749999,-39.0928324890763],[-73.1774074979999,-39.0929550510764]]]}},{"type":"Feature","properties":{"id":"9117071001059","commune":"Teodoro Schmidt","code":"09117","gse":"E","quintil":"Q1","nse_score":540.5,"educ":8.4,"educ_score":360.0,"hacin":1.25,"hacin_class":"Hacinamiento Leve","hacin_score":797.9,"auto_score":142.9,"n_per":15,"n_hog":5,"source_year":2024,"crime_score":0.0469,"crime_nivel":"Bajo","crime_color":"#cddc39"},"geometry":{"type":"Polygon","coordinates":[[[-73.1830081929999,-39.0929976870763],[-73.1820852479999,-39.0931633190763],[-73.1824174589999,-39.0938802440763],[-73.1833370079999,-39.0937135500764],[-73.1830081929999,-39.0929976870763]]]}},{"type":"Feature","properties":{"id":"9117071001060","commune":"Teodoro Schmidt","code":"09117","gse":"C3","quintil":"Q3","nse_score":701.9,"educ":11.7,"educ_score":580.0,"hacin":1.294,"hacin_class":"Hacinamiento Leve","hacin_score":788.5,"auto_score":166.7,"n_per":22,"n_hog":6,"source_year":2024,"crime_score":0.0432,"crime_nivel":"Bajo","crime_color":"#cddc39"},"geometry":{"type":"Polygon","coordinates":[[[-73.1830434409999,-39.0930010980764],[-73.1834042789999,-39.0936988730763],[-73.1839735329999,-39.0935746680763],[-73.1836887189999,-39.0929834110763],[-73.1830434409999,-39.0930010980764]]]}},{"type":"Feature","properties":{"id":"9117071001061","commune":"Teodoro Schmidt","code":"09117","gse":"E","quintil":"Q1","nse_score":602.3,"educ":8.5,"educ_score":366.7,"hacin":1.28,"hacin_class":"Hacinamiento Leve","hacin_score":791.5,"auto_score":45.5,"n_per":32,"n_hog":11,"source_year":2024,"crime_score":0.0458,"crime_nivel":"Bajo","crime_color":"#cddc39"},"geometry":{"type":"Polygon","coordinates":[[[-73.1762832079999,-39.0945783170764],[-73.1778214399999,-39.0942232720764],[-73.1773197949999,-39.0930199690764],[-73.1763559939999,-39.0932469100764],[-73.1762832079999,-39.0945783170764]]]}},{"type":"Feature","properties":{"id":"9117071001062","commune":"Teodoro Schmidt","code":"09117","gse":"D","quintil":"Q1","nse_score":617.6,"educ":10.7,"educ_score":513.3,"hacin":1.185,"hacin_class":"Hacinamiento Leve","hacin_score":811.7,"auto_score":187.5,"n_per":32,"n_hog":14,"source_year":2024,"crime_score":0.0454,"crime_nivel":"Bajo","crime_color":"#cddc39"},"geometry":{"type":"Polygon","coordinates":[[[-73.1761481489999,-39.0963017240763],[-73.178576974,-39.0959458840764],[-73.1799465139999,-39.0961701600763],[-73.1830087019999,-39.0955091080763],[-73.1820600969999,-39.0932940650764],[-73.1818966269999,-39.0932264910764],[-73.1813459949999,-39.0933641110763],[-73.181527979,-39.0939196380763],[-73.1812927589999,-39.0933774160764],[-73.1763407189999,-39.0946468820764],[-73.1761481489999,-39.0963017240763]]]}},{"type":"Feature","properties":{"id":"9117071001011","commune":"Teodoro Schmidt","code":"09117","gse":"D","quintil":"Q2","nse_score":657.7,"educ":10.2,"educ_score":480.0,"hacin":1.033,"hacin_class":"Hacinamiento Leve","hacin_score":844.0,"auto_score":31.2,"n_per":31,"n_hog":15,"source_year":2024,"crime_score":0.0444,"crime_nivel":"Bajo","crime_color":"#cddc39"},"geometry":{"type":"MultiPolygon","coordinates":[[[[-73.1786718659999,-39.0863283450764],[-73.1788782919999,-39.0869234920764],[-73.1791324109999,-39.0868043170764],[-73.1788824319999,-39.0862267030764],[-73.1786718659999,-39.0863283450764]]],[[[-73.1788542199999,-39.0859871440764],[-73.1791306419999,-39.0866279130764],[-73.1801048419999,-39.0864732450764],[-73.1791443749999,-39.0866583730764],[-73.1797030899999,-39.0878319590764],[-73.1808591589999,-39.0874719450764],[-73.1812052779999,-39.0858423950764],[-73.1789769799999,-39.0858689560764],[-73.1788542199999,-39.0859871440764]]]]}},{"type":"Feature","properties":{"id":"9117071001020","commune":"Teodoro Schmidt","code":"09117","gse":"E","quintil":"Q1","nse_score":604.9,"educ":9.3,"educ_score":420.0,"hacin":1.387,"hacin_class":"Hacinamiento Leve","hacin_score":768.7,"auto_score":0.0,"n_per":43,"n_hog":14,"source_year":2024,"crime_score":0.046,"crime_nivel":"Bajo","crime_color":"#cddc39"},"geometry":{"type":"MultiPolygon","coordinates":[[[[-73.1795744449999,-39.0889458950764],[-73.1801517739999,-39.0888093680764],[-73.1797155179999,-39.0879125050764],[-73.1791983369999,-39.0880993310764],[-73.1795744449999,-39.0889458950764]]],[[[-73.1802070479999,-39.0887977920764],[-73.1807648999999,-39.0886560630764],[-73.1803947769999,-39.0877679560764],[-73.1798410229999,-39.0879282850764],[-73.1802070479999,-39.0887977920764]]]]}},{"type":"Feature","properties":{"id":"9117071001026","commune":"Teodoro Schmidt","code":"09117","gse":"D","quintil":"Q1","nse_score":615.2,"educ":11.2,"educ_score":546.7,"hacin":1.4,"hacin_class":"Hacinamiento Leve","hacin_score":766.0,"auto_score":55.6,"n_per":28,"n_hog":9,"source_year":2024,"crime_score":0.0454,"crime_nivel":"Bajo","crime_color":"#cddc39"},"geometry":{"type":"MultiPolygon","coordinates":[[[[-73.1768258549999,-39.0916307220764],[-73.177495641,-39.0914469640764],[-73.1770151659999,-39.0903954410764],[-73.1764094829999,-39.0906063050764],[-73.1768258549999,-39.0916307220764]]],[[[-73.1754292939999,-39.0909584780764],[-73.1758264179999,-39.0906659350764],[-73.1770025579999,-39.0903619430764],[-73.1763655179999,-39.0887189170764],[-73.1758193619999,-39.0887044240764],[-73.1754292939999,-39.0909584780764]]]]}},{"type":"Feature","properties":{"id":"9117071001034","commune":"Teodoro Schmidt","code":"09117","gse":"C3","quintil":"Q3","nse_score":686.5,"educ":10.7,"educ_score":513.3,"hacin":0.957,"hacin_class":"Sin Hacinamiento","hacin_score":860.3,"auto_score":76.9,"n_per":22,"n_hog":13,"source_year":2024,"crime_score":0.0435,"crime_nivel":"Bajo","crime_color":"#cddc39"},"geometry":{"type":"MultiPolygon","coordinates":[[[[-73.1779889669999,-39.0913091380764],[-73.1788627879999,-39.0911419100764],[-73.1786902009999,-39.0906031700764],[-73.1786350259999,-39.0905992310764],[-73.1779889669999,-39.0913091380764]]],[[[-73.1789582569999,-39.0910505830764],[-73.1801317669999,-39.0908262090764],[-73.1796689639999,-39.0895546000764],[-73.1787622559999,-39.0905041040764],[-73.1789582569999,-39.0910505830764]]]]}},{"type":"Feature","properties":{"id":"9117043005003","commune":"Teodoro Schmidt","code":"09117","gse":"E","quintil":"Q1","nse_score":578.7,"educ":10.4,"educ_score":493.3,"hacin":1.049,"hacin_class":"Hacinamiento Leve","hacin_score":840.7,"auto_score":41.7,"n_per":43,"n_hog":19,"source_year":2024,"crime_score":0.0466,"crime_nivel":"Bajo","crime_color":"#cddc39"},"geometry":{"type":"Polygon","coordinates":[[[-72.9146471749999,-38.9851227420771],[-72.9149492869999,-38.9851785050771],[-72.9145747789999,-38.9852835870771],[-72.9139147569999,-38.9863220090771],[-72.9139780189999,-38.9860971280771],[-72.9130275129999,-38.9847007070771],[-72.9124826739999,-38.9847863630771],[-72.9133134229999,-38.9861689090771],[-72.9140158159999,-38.9867081760771],[-72.9139628529999,-38.9868833940771],[-72.9141801529999,-38.9872103440771],[-72.9144621089999,-38.9870945340771],[-72.9149431129999,-38.9866224190771],[-72.9156894879999,-38.9857148400771],[-72.9157288739999,-38.9854125160771],[-72.9172111309999,-38.9850088720771],[-72.915968173,-38.9839769800771],[-72.9143355749999,-38.9843715730771],[-72.9146471749999,-38.9851227420771]]]}},{"type":"Feature","properties":{"id":"9117043005004","commune":"Teodoro Schmidt","code":"09117","gse":"E","quintil":"Q1","nse_score":500.3,"educ":7.5,"educ_score":300.0,"hacin":1.0,"hacin_class":"Hacinamiento Leve","hacin_score":851.1,"auto_score":62.5,"n_per":25,"n_hog":14,"source_year":2024,"crime_score":0.0481,"crime_nivel":"Bajo","crime_color":"#cddc39"},"geometry":{"type":"Polygon","coordinates":[[[-72.9254789389999,-38.9843854370771],[-72.9241249759999,-38.9846174550771],[-72.9244365419999,-38.9855350370771],[-72.9257122479999,-38.9852887260771],[-72.9254789389999,-38.9843854370771]]]}},{"type":"Feature","properties":{"id":"9117043005005","commune":"Teodoro Schmidt","code":"09117","gse":"D","quintil":"Q1","nse_score":630.7,"educ":10.5,"educ_score":500.0,"hacin":1.269,"hacin_class":"Hacinamiento Leve","hacin_score":793.8,"auto_score":166.7,"n_per":66,"n_hog":26,"source_year":2024,"crime_score":0.0459,"crime_nivel":"Bajo","crime_color":"#cddc39"},"geometry":{"type":"Polygon","coordinates":[[[-72.9142339669999,-38.9844016930771],[-72.9137631839999,-38.9845161070771],[-72.9140794599999,-38.9854295010771],[-72.9136886769999,-38.9845344270771],[-72.9130658059999,-38.9846829680771],[-72.914004196,-38.9860632020771],[-72.9145686919999,-38.9851692440771],[-72.9142339669999,-38.9844016930771]]]}},{"type":"Feature","properties":{"id":"9117043005007","commune":"Teodoro Schmidt","code":"09117","gse":"E","quintil":"Q1","nse_score":559.9,"educ":8.4,"educ_score":360.0,"hacin":0.905,"hacin_class":"Sin Hacinamiento","hacin_score":871.3,"auto_score":45.5,"n_per":19,"n_hog":11,"source_year":2024,"crime_score":0.0465,"crime_nivel":"Bajo","crime_color":"#cddc39"},"geometry":{"type":"Polygon","coordinates":[[[-72.9240596889999,-38.9846973630771],[-72.9228262869999,-38.9848965040771],[-72.9231378369999,-38.9858140900771],[-72.9243439789999,-38.9855788390771],[-72.9240596889999,-38.9846973630771]]]}},{"type":"Feature","properties":{"id":"9117043005009","commune":"Teodoro Schmidt","code":"09117","gse":"E","quintil":"Q1","nse_score":599.4,"educ":9.0,"educ_score":400.0,"hacin":1.379,"hacin_class":"Hacinamiento Leve","hacin_score":770.4,"auto_score":0.0,"n_per":40,"n_hog":12,"source_year":2024,"crime_score":0.046,"crime_nivel":"Bajo","crime_color":"#cddc39"},"geometry":{"type":"Polygon","coordinates":[[[-72.9227737249999,-38.9849717250771],[-72.9215403159999,-38.9851708520771],[-72.9218518499999,-38.9860884410771],[-72.9230580019999,-38.9858532030771],[-72.9227737249999,-38.9849717250771]]]}},{"type":"Feature","properties":{"id":"9117043005011","commune":"Teodoro Schmidt","code":"09117","gse":"D","quintil":"Q1","nse_score":612.7,"educ":9.3,"educ_score":420.0,"hacin":1.167,"hacin_class":"Hacinamiento Leve","hacin_score":815.6,"auto_score":0.0,"n_per":28,"n_hog":11,"source_year":2024,"crime_score":0.0455,"crime_nivel":"Bajo","crime_color":"#cddc39"},"geometry":{"type":"Polygon","coordinates":[[[-72.9188447339999,-38.9856411430771],[-72.9186167029999,-38.9851113480771],[-72.9174374299999,-38.9853826400771],[-72.9176572969999,-38.9859356310771],[-72.9188447339999,-38.9856411430771]]]}},{"type":"Feature","properties":{"id":"9117043005013","commune":"Teodoro Schmidt","code":"09117","gse":"E","quintil":"Q1","nse_score":603.9,"educ":10.0,"educ_score":466.7,"hacin":1.179,"hacin_class":"Hacinamiento Leve","hacin_score":813.1,"auto_score":33.3,"n_per":33,"n_hog":13,"source_year":2024,"crime_score":0.0458,"crime_nivel":"Bajo","crime_color":"#cddc39"},"geometry":{"type":"Polygon","coordinates":[[[-72.9258037589999,-38.9854156430771],[-72.924498561,-38.9856208960771],[-72.9248070429999,-38.9865365800771],[-72.9260407579999,-38.9863005730771],[-72.9258037589999,-38.9854156430771]]]}},{"type":"Feature","properties":{"id":"9117043005014","commune":"Teodoro Schmidt","code":"09117","gse":"D","quintil":"Q1","nse_score":615.9,"educ":9.8,"educ_score":453.3,"hacin":1.438,"hacin_class":"Hacinamiento Leve","hacin_score":758.0,"auto_score":142.9,"n_per":46,"n_hog":13,"source_year":2024,"crime_score":0.0458,"crime_nivel":"Bajo","crime_color":"#cddc39"},"geometry":{"type":"Polygon","coordinates":[[[-72.9202106349999,-38.9855402160771],[-72.9189772089999,-38.9857393170771],[-72.919294626,-38.9866699140771],[-72.9204874279999,-38.9864074420771],[-72.9202106349999,-38.9855402160771]]]}},{"type":"Feature","properties":{"id":"9117043005015","commune":"Teodoro Schmidt","code":"09117","gse":"C3","quintil":"Q2","nse_score":679.6,"educ":10.6,"educ_score":506.7,"hacin":0.818,"hacin_class":"Sin Hacinamiento","hacin_score":889.7,"auto_score":0.0,"n_per":18,"n_hog":10,"source_year":2024,"crime_score":0.0436,"crime_nivel":"Bajo","crime_color":"#cddc39"},"geometry":{"type":"Polygon","coordinates":[[[-72.9244298219999,-38.9857111840771],[-72.9231994959999,-38.9859122260771],[-72.9235079619999,-38.9868279130771],[-72.9247141219999,-38.9865926590771],[-72.9244298219999,-38.9857111840771]]]}},{"type":"Feature","properties":{"id":"9117043005016","commune":"Teodoro Schmidt","code":"09117","gse":"E","quintil":"Q1","nse_score":593.7,"educ":9.1,"educ_score":406.7,"hacin":1.261,"hacin_class":"Hacinamiento Leve","hacin_score":795.6,"auto_score":76.9,"n_per":29,"n_hog":11,"source_year":2024,"crime_score":0.0459,"crime_nivel":"Bajo","crime_color":"#cddc39"},"geometry":{"type":"Polygon","coordinates":[[[-72.9189182789999,-38.9858168790771],[-72.9176938749999,-38.9860032290771],[-72.9180128809999,-38.9869596530771],[-72.9191933039999,-38.9866902170771],[-72.9189182789999,-38.9858168790771]]]}},{"type":"Feature","properties":{"id":"9117043005017","commune":"Teodoro Schmidt","code":"09117","gse":"D","quintil":"Q1","nse_score":620.1,"educ":9.7,"educ_score":446.7,"hacin":1.348,"hacin_class":"Hacinamiento Leve","hacin_score":777.1,"auto_score":125.0,"n_per":31,"n_hog":12,"source_year":2024,"crime_score":0.0453,"crime_nivel":"Bajo","crime_color":"#cddc39"},"geometry":{"type":"Polygon","coordinates":[[[-72.9231342599999,-38.9859902920771],[-72.9219039259999,-38.9861913200771],[-72.9222123769999,-38.9871070110771],[-72.9234185429999,-38.9868717700771],[-72.9231342599999,-38.9859902920771]]]}},{"type":"Feature","properties":{"id":"9117043005018","commune":"Teodoro Schmidt","code":"09117","gse":"D","quintil":"Q2","nse_score":659.2,"educ":9.4,"educ_score":426.7,"hacin":0.793,"hacin_class":"Sin Hacinamiento","hacin_score":895.1,"auto_score":100.0,"n_per":23,"n_hog":10,"source_year":2024,"crime_score":0.0442,"crime_nivel":"Bajo","crime_color":"#cddc39"},"geometry":{"type":"Polygon","coordinates":[[[-72.9166731639999,-38.9871998220771],[-72.9179188199999,-38.9869604300771],[-72.9175916199999,-38.9860419380771],[-72.9164019379999,-38.9862516180771],[-72.9166731639999,-38.9871998220771]]]}},{"type":"Feature","properties":{"id":"9117043005021","commune":"Teodoro Schmidt","code":"09117","gse":"E","quintil":"Q1","nse_score":599.2,"educ":9.8,"educ_score":453.3,"hacin":1.273,"hacin_class":"Hacinamiento Leve","hacin_score":793.0,"auto_score":33.3,"n_per":42,"n_hog":14,"source_year":2024,"crime_score":0.0461,"crime_nivel":"Bajo","crime_color":"#cddc39"},"geometry":{"type":"Polygon","coordinates":[[[-72.920560528,-38.986553386077],[-72.9193270849999,-38.9867524900771],[-72.9196445109999,-38.9876830870771],[-72.9208392659999,-38.9874264750771],[-72.920560528,-38.986553386077]]]}},{"type":"Feature","properties":{"id":"9117043005023","commune":"Teodoro Schmidt","code":"09117","gse":"D","quintil":"Q2","nse_score":650.0,"educ":11.4,"educ_score":560.0,"hacin":1.458,"hacin_class":"Hacinamiento Leve","hacin_score":753.5,"auto_score":156.2,"n_per":35,"n_hog":15,"source_year":2024,"crime_score":0.0447,"crime_nivel":"Bajo","crime_color":"#cddc39"},"geometry":{"type":"Polygon","coordinates":[[[-72.9192741589999,-38.9868399860771],[-72.9180407079999,-38.9870390750771],[-72.9183581179999,-38.9879696750771],[-72.9195528819999,-38.987713076077],[-72.9192741589999,-38.9868399860771]]]}},{"type":"Feature","properties":{"id":"9117043005029","commune":"Teodoro Schmidt","code":"09117","gse":"E","quintil":"Q1","nse_score":588.3,"educ":11.6,"educ_score":573.3,"hacin":1.333,"hacin_class":"Hacinamiento Leve","hacin_score":780.1,"auto_score":41.7,"n_per":16,"n_hog":9,"source_year":2024,"crime_score":0.0458,"crime_nivel":"Bajo","crime_color":"#cddc39"},"geometry":{"type":"Polygon","coordinates":[[[-72.9252328779999,-38.9872821820771],[-72.9244706699999,-38.9874625420771],[-72.9245914659999,-38.9877986280771],[-72.9252156749999,-38.9875850710771],[-72.9252328779999,-38.9872821820771]]]}},{"type":"Feature","properties":{"id":"9117043005031","commune":"Teodoro Schmidt","code":"09117","gse":"D","quintil":"Q2","nse_score":646.4,"educ":10.0,"educ_score":466.7,"hacin":1.207,"hacin_class":"Hacinamiento Leve","hacin_score":807.0,"auto_score":88.2,"n_per":35,"n_hog":17,"source_year":2024,"crime_score":0.0448,"crime_nivel":"Bajo","crime_color":"#cddc39"},"geometry":{"type":"Polygon","coordinates":[[[-72.9239182919999,-38.987942866077],[-72.9237614259999,-38.9874009290771],[-72.9227285369999,-38.987608526077],[-72.9229227299999,-38.9881499500771],[-72.9239182919999,-38.987942866077]]]}},{"type":"Feature","properties":{"id":"9117043005032","commune":"Teodoro Schmidt","code":"09117","gse":"D","quintil":"Q1","nse_score":634.3,"educ":10.5,"educ_score":500.0,"hacin":1.133,"hacin_class":"Hacinamiento Leve","hacin_score":822.7,"auto_score":0.0,"n_per":17,"n_hog":8,"source_year":2024,"crime_score":0.0447,"crime_nivel":"Bajo","crime_color":"#cddc39"},"geometry":{"type":"Polygon","coordinates":[[[-72.9238982059999,-38.9875980000771],[-72.9240314049999,-38.9879136340771],[-72.9245582059999,-38.987806146077],[-72.924437527,-38.9874703850771],[-72.9238982059999,-38.9875980000771]]]}},{"type":"Feature","properties":{"id":"9117043005035","commune":"Teodoro Schmidt","code":"09117","gse":"E","quintil":"Q1","nse_score":587.0,"educ":9.3,"educ_score":420.0,"hacin":1.0,"hacin_class":"Hacinamiento Leve","hacin_score":851.1,"auto_score":45.5,"n_per":67,"n_hog":30,"source_year":2024,"crime_score":0.047,"crime_nivel":"Bajo","crime_color":"#cddc39"},"geometry":{"type":"Polygon","coordinates":[[[-72.9245536639999,-38.988146263077],[-72.9244301249999,-38.9878795440771],[-72.9241773909999,-38.9879330500771],[-72.9242701509999,-38.9882216470771],[-72.9241437929999,-38.987940006077],[-72.9209048219999,-38.9886148270771],[-72.9190993719999,-38.9884597970771],[-72.9170594589999,-38.989035969077],[-72.9174589599999,-38.9898604320771],[-72.9182954219999,-38.989500724077],[-72.9185218739999,-38.9897338070771],[-72.9190802039999,-38.9893870650771],[-72.9192726359999,-38.9895421170771],[-72.9196918899999,-38.989486916077],[-72.9208313189999,-38.9900713530771],[-72.9223709959999,-38.989603619077],[-72.9227370219999,-38.989171379077],[-72.9231834679999,-38.989010094077],[-72.9240965619999,-38.9890952960771],[-72.9240932949999,-38.9889322700771],[-72.9242308569999,-38.988897111077],[-72.9249197369999,-38.9889595130771],[-72.9259628579999,-38.988704372077],[-72.9253844229999,-38.9876357690771],[-72.9244633209999,-38.9878718530771],[-72.9245536639999,-38.988146263077]]]}},{"type":"Feature","properties":{"id":"9117043005022","commune":"Teodoro Schmidt","code":"09117","gse":"E","quintil":"Q1","nse_score":584.3,"educ":9.7,"educ_score":446.7,"hacin":1.583,"hacin_class":"Hacinamiento Medio","hacin_score":727.0,"auto_score":0.0,"n_per":19,"n_hog":7,"source_year":2024,"crime_score":0.0459,"crime_nivel":"Bajo","crime_color":"#cddc39"},"geometry":{"type":"MultiPolygon","coordinates":[[[[-72.9238773379999,-38.9873564300771],[-72.9238883579999,-38.9875720940771],[-72.9252294539999,-38.9872548590771],[-72.925144697,-38.9870366640771],[-72.9238773379999,-38.9873564300771]]],[[[-72.9224000269999,-38.9876059860771],[-72.9235984439999,-38.9873669200771],[-72.9234764689999,-38.9869630840771],[-72.9222735889999,-38.9871934700771],[-72.9224000269999,-38.9876059860771]]],[[[-72.9252865259999,-38.9874326410771],[-72.9251526429999,-38.9876560280771],[-72.9256683149999,-38.9873711410771],[-72.9260846249999,-38.9868246940771],[-72.9251776289999,-38.987028299077],[-72.9252865259999,-38.9874326410771]]],[[[-72.9235757559999,-38.9869046630771],[-72.9238152459999,-38.9873265590771],[-72.9251286069999,-38.9869952430771],[-72.9249992769999,-38.9867170160771],[-72.9248046109999,-38.9866373480771],[-72.9235757559999,-38.9869046630771]]]]}},{"type":"Feature","properties":{"id":"9117043005019","commune":"Teodoro Schmidt","code":"09117","gse":"D","quintil":"Q1","nse_score":626.1,"educ":11.1,"educ_score":540.0,"hacin":1.348,"hacin_class":"Hacinamiento Leve","hacin_score":777.1,"auto_score":0.0,"n_per":31,"n_hog":11,"source_year":2024,"crime_score":0.0452,"crime_nivel":"Bajo","crime_color":"#cddc39"},"geometry":{"type":"MultiPolygon","coordinates":[[[[-72.9211548509999,-38.9878828990771],[-72.9222761969999,-38.9876424720771],[-72.9221680979999,-38.987248709077],[-72.9209873419999,-38.9874757910771],[-72.9211548509999,-38.9878828990771]]],[[[-72.9209552629999,-38.9874156450771],[-72.9221310909999,-38.9871417980771],[-72.9218197109999,-38.9862186850771],[-72.9206208409999,-38.9864736940771],[-72.9209552629999,-38.9874156450771]]]]}},{"type":"Feature","properties":{"id":"9117043005027","commune":"Teodoro Schmidt","code":"09117","gse":"E","quintil":"Q1","nse_score":592.4,"educ":8.3,"educ_score":353.3,"hacin":1.263,"hacin_class":"Hacinamiento Leve","hacin_score":795.1,"auto_score":250.0,"n_per":24,"n_hog":8,"source_year":2024,"crime_score":0.0459,"crime_nivel":"Bajo","crime_color":"#cddc39"},"geometry":{"type":"MultiPolygon","coordinates":[[[[-72.9158226799999,-38.987687776077],[-72.9162944719999,-38.988848434077],[-72.9171326919999,-38.9886507060771],[-72.9170580949999,-38.9884301810771],[-72.9167829069999,-38.9884780180771],[-72.9170299049999,-38.988362314077],[-72.9166389259999,-38.9873879610771],[-72.9158226799999,-38.987687776077]]],[[[-72.9167114349999,-38.9872901730771],[-72.9171336519999,-38.9884420170771],[-72.9183648359999,-38.9881805160771],[-72.9179309749999,-38.9870558420771],[-72.9167114349999,-38.9872901730771]]]]}},{"type":"Feature","properties":{"id":"9117043005001","commune":"Teodoro Schmidt","code":"09117","gse":"D","quintil":"Q2","nse_score":646.0,"educ":10.9,"educ_score":526.7,"hacin":1.0,"hacin_class":"Hacinamiento Leve","hacin_score":851.1,"auto_score":50.0,"n_per":27,"n_hog":9,"source_year":2024,"crime_score":0.0446,"crime_nivel":"Bajo","crime_color":"#cddc39"},"geometry":{"type":"MultiPolygon","coordinates":[[[[-72.9226785779999,-38.9842165080771],[-72.9229180469999,-38.9848245770771],[-72.9254083229999,-38.9842840710771],[-72.9254588299999,-38.9836342010771],[-72.9226785779999,-38.9842165080771]]],[[[-72.9193926089999,-38.9835209840771],[-72.9198554349999,-38.9843006360771],[-72.9202276369999,-38.9854029470771],[-72.9228630819999,-38.9848365760771],[-72.9224642689999,-38.9838189640771],[-72.9203691359999,-38.9842623880771],[-72.9200343559999,-38.9833745460771],[-72.9193926089999,-38.9835209840771]]]]}},{"type":"Feature","properties":{"id":"9117043005036","commune":"Teodoro Schmidt","code":"09117","gse":"E","quintil":"Q1","nse_score":574.6,"educ":10.1,"educ_score":473.3,"hacin":1.158,"hacin_class":"Hacinamiento Leve","hacin_score":817.5,"auto_score":133.3,"n_per":44,"n_hog":14,"source_year":2024,"crime_score":0.0467,"crime_nivel":"Bajo","crime_color":"#cddc39"},"geometry":{"type":"MultiPolygon","coordinates":[[[[-72.9210012809999,-38.987994396077],[-72.9189222809999,-38.9884204010771],[-72.9206494359999,-38.9885617560771],[-72.9212229079999,-38.9884884520771],[-72.9210012809999,-38.987994396077]]],[[[-72.9185689939999,-38.9884454200771],[-72.9197163659999,-38.9882036410771],[-72.9196082819999,-38.9878098740771],[-72.9184275089999,-38.9880369310771],[-72.9185689939999,-38.9884454200771]]]]}},{"type":"Feature","properties":{"id":"9117043005006","commune":"Teodoro Schmidt","code":"09117","gse":"E","quintil":"Q1","nse_score":588.6,"educ":8.0,"educ_score":333.3,"hacin":1.0,"hacin_class":"Hacinamiento Leve","hacin_score":851.1,"auto_score":0.0,"n_per":27,"n_hog":11,"source_year":2024,"crime_score":0.046,"crime_nivel":"Bajo","crime_color":"#cddc39"},"geometry":{"type":"MultiPolygon","coordinates":[[[[-72.9163264789999,-38.9861949950771],[-72.9175484499999,-38.9859576400771],[-72.9172461659999,-38.9851022370771],[-72.9160594999999,-38.9853168810771],[-72.9163264789999,-38.9861949950771]]],[[[-72.9174403059999,-38.9852979370771],[-72.919815206,-38.9848145890771],[-72.9199130989999,-38.9847500050771],[-72.91979613,-38.9843992090771],[-72.9172449989999,-38.9849615400771],[-72.9174403059999,-38.9852979370771]]]]}},{"type":"Feature","properties":{"id":"9117043005033","commune":"Teodoro Schmidt","code":"09117","gse":"E","quintil":"Q1","nse_score":559.8,"educ":10.3,"educ_score":486.7,"hacin":1.294,"hacin_class":"Hacinamiento Leve","hacin_score":788.5,"auto_score":142.9,"n_per":44,"n_hog":14,"source_year":2024,"crime_score":0.0471,"crime_nivel":"Bajo","crime_color":"#cddc39"},"geometry":{"type":"MultiPolygon","coordinates":[[[[-72.9213244589999,-38.9884836010771],[-72.9228781369999,-38.9881592880771],[-72.922683994,-38.9876179990771],[-72.9211718889999,-38.9879564410771],[-72.9213244589999,-38.9884836010771]]],[[[-72.9198488869999,-38.9881660830771],[-72.9209962509999,-38.9879242920771],[-72.9208881579999,-38.9875305260771],[-72.919707393,-38.9877575960771],[-72.9198488869999,-38.9881660830771]]]]}},{"type":"Feature","properties":{"id":"9117043005008","commune":"Teodoro Schmidt","code":"09117","gse":"E","quintil":"Q1","nse_score":544.2,"educ":7.7,"educ_score":313.3,"hacin":1.348,"hacin_class":"Hacinamiento Leve","hacin_score":777.1,"auto_score":71.4,"n_per":31,"n_hog":13,"source_year":2024,"crime_score":0.0472,"crime_nivel":"Bajo","crime_color":"#cddc39"},"geometry":{"type":"MultiPolygon","coordinates":[[[[-72.9205979709999,-38.9863946730771],[-72.9217737839999,-38.9861208290771],[-72.9214624129999,-38.9851977160771],[-72.9202635589999,-38.9854527200771],[-72.9205979709999,-38.9863946730771]]],[[[-72.9189589529999,-38.9856640620771],[-72.9201285619999,-38.9854137700771],[-72.9199585739999,-38.9848632090771],[-72.9187556689999,-38.9850818900771],[-72.9189589529999,-38.9856640620771]]]]}},{"type":"Feature","properties":{"id":"9117073024001","commune":"Teodoro Schmidt","code":"09117","gse":"E","quintil":"Q1","nse_score":605.8,"educ":9.3,"educ_score":420.0,"hacin":1.242,"hacin_class":"Hacinamiento Leve","hacin_score":799.6,"auto_score":101.1,"n_per":226,"n_hog":88,"source_year":2024,"crime_score":0.0501,"crime_nivel":"Bajo","crime_color":"#cddc39"},"geometry":{"type":"Polygon","coordinates":[[[-73.1911013479999,-39.0807439900764],[-73.1925718819999,-39.0842285380764],[-73.1932196759999,-39.0840817570764],[-73.1930324569999,-39.0835813980764],[-73.1924027269999,-39.0837139850764],[-73.1930177659999,-39.0835466060764],[-73.1928455859999,-39.0831264650764],[-73.1921968539999,-39.0832112170764],[-73.1928271329999,-39.0830816320764],[-73.1926419619999,-39.0826587440764],[-73.1920287559999,-39.0827993750764],[-73.1926281139999,-39.0826254370764],[-73.1924457879999,-39.0822101130764],[-73.1918574339999,-39.0823282420764],[-73.1924278699999,-39.0821635640764],[-73.1922366029999,-39.0817358610764],[-73.1916051349999,-39.0818734330764],[-73.1922172139999,-39.0816912220765],[-73.1920461549999,-39.0812761630764],[-73.1914130889999,-39.0814215130764],[-73.1920268349999,-39.0812321070765],[-73.1919177429999,-39.0809731770764],[-73.1914214029999,-39.0810839450764],[-73.1919058889999,-39.0809361370764],[-73.1917462589999,-39.0805539800764],[-73.1920867369999,-39.0812206660764],[-73.192790537,-39.0810609370765],[-73.1929938669999,-39.0815247710764],[-73.1933741829999,-39.0814451130764],[-73.1933011769999,-39.0811289870764],[-73.1934247209999,-39.0814331480764],[-73.1941791279999,-39.0812816430765],[-73.19355042,-39.0814514860764],[-73.1937262549999,-39.0818857910764],[-73.1943906659999,-39.0817815340764],[-73.1937397019999,-39.0819224200765],[-73.1939223219999,-39.0823513650765],[-73.1945253149999,-39.0822523570765],[-73.1939425539999,-39.0823826360764],[-73.1941275619999,-39.0828052290764],[-73.1947566009999,-39.0826647840764],[-73.1941444209999,-39.0828424600764],[-73.1943276359999,-39.0832699720764],[-73.1948823159999,-39.0831783880765],[-73.1943402129999,-39.0833036340764],[-73.1945438519999,-39.0837703640764],[-73.1966611199999,-39.0832679880764],[-73.1962304729999,-39.0818741470764],[-73.1957496659999,-39.0812449370764],[-73.1945415009999,-39.0812355190765],[-73.192121761,-39.0804826090764],[-73.1915856629999,-39.0804231920765],[-73.1911013479999,-39.0807439900764]]]}},{"type":"Feature","properties":{"id":"9117073024002","commune":"Teodoro Schmidt","code":"09117","gse":"E","quintil":"Q1","nse_score":591.4,"educ":9.3,"educ_score":420.0,"hacin":1.5,"hacin_class":"Hacinamiento Medio","hacin_score":744.7,"auto_score":250.0,"n_per":18,"n_hog":6,"source_year":2024,"crime_score":0.0457,"crime_nivel":"Bajo","crime_color":"#cddc39"},"geometry":{"type":"Polygon","coordinates":[[[-73.1921030169999,-39.0812628580764],[-73.1922782849999,-39.0816785120764],[-73.1929382589999,-39.0815374500764],[-73.192755325,-39.0811132010764],[-73.1921030169999,-39.0812628580764]]]}},{"type":"Feature","properties":{"id":"9117073024003","commune":"Teodoro Schmidt","code":"09117","gse":"E","quintil":"Q1","nse_score":602.4,"educ":9.2,"educ_score":413.3,"hacin":1.286,"hacin_class":"Hacinamiento Leve","hacin_score":790.3,"auto_score":0.0,"n_per":27,"n_hog":9,"source_year":2024,"crime_score":0.0457,"crime_nivel":"Bajo","crime_color":"#cddc39"},"geometry":{"type":"Polygon","coordinates":[[[-73.1922938219999,-39.0817219760764],[-73.1924883429999,-39.0821460350764],[-73.1936746369999,-39.0818972710764],[-73.1934984869999,-39.0814635130765],[-73.1922938219999,-39.0817219760764]]]}},{"type":"Feature","properties":{"id":"9117073024004","commune":"Teodoro Schmidt","code":"09117","gse":"D","quintil":"Q1","nse_score":613.0,"educ":10.0,"educ_score":466.7,"hacin":1.333,"hacin_class":"Hacinamiento Leve","hacin_score":780.1,"auto_score":192.3,"n_per":28,"n_hog":11,"source_year":2024,"crime_score":0.0454,"crime_nivel":"Bajo","crime_color":"#cddc39"},"geometry":{"type":"Polygon","coordinates":[[[-73.1925092659999,-39.0821947090765],[-73.192690534,-39.0826111320764],[-73.1938660819999,-39.0823646140764],[-73.19368406,-39.0819370350765],[-73.1925092659999,-39.0821947090765]]]}},{"type":"Feature","properties":{"id":"9117073024005","commune":"Teodoro Schmidt","code":"09117","gse":"E","quintil":"Q1","nse_score":581.5,"educ":9.5,"educ_score":433.3,"hacin":1.346,"hacin_class":"Hacinamiento Leve","hacin_score":777.4,"auto_score":125.0,"n_per":35,"n_hog":12,"source_year":2024,"crime_score":0.0464,"crime_nivel":"Bajo","crime_color":"#cddc39"},"geometry":{"type":"Polygon","coordinates":[[[-73.1927043829999,-39.0826444390764],[-73.1928881369999,-39.0830681870764],[-73.194065109,-39.0828208070765],[-73.1938799629999,-39.0823966490764],[-73.1927043829999,-39.0826444390764]]]}},{"type":"Feature","properties":{"id":"9117073024006","commune":"Teodoro Schmidt","code":"09117","gse":"E","quintil":"Q1","nse_score":558.2,"educ":8.3,"educ_score":353.3,"hacin":1.08,"hacin_class":"Hacinamiento Leve","hacin_score":834.0,"auto_score":0.0,"n_per":27,"n_hog":10,"source_year":2024,"crime_score":0.0467,"crime_nivel":"Bajo","crime_color":"#cddc39"},"geometry":{"type":"Polygon","coordinates":[[[-73.1929081039999,-39.0831083430764],[-73.1930817879999,-39.0835335970764],[-73.1942639359999,-39.0832827830764],[-73.1940805249999,-39.0828566830764],[-73.1929081039999,-39.0831083430764]]]}},{"type":"Feature","properties":{"id":"9117073024007","commune":"Teodoro Schmidt","code":"09117","gse":"C3","quintil":"Q2","nse_score":671.8,"educ":10.5,"educ_score":500.0,"hacin":1.454,"hacin_class":"Hacinamiento Leve","hacin_score":754.4,"auto_score":45.5,"n_per":32,"n_hog":11,"source_year":2024,"crime_score":0.0441,"crime_nivel":"Bajo","crime_color":"#cddc39"},"geometry":{"type":"Polygon","coordinates":[[[-73.1942811819999,-39.0833224560764],[-73.1930905819999,-39.0835690470764],[-73.1932820649999,-39.0840687230764],[-73.1944794069999,-39.0837874870764],[-73.1942811819999,-39.0833224560764]]]}}]}