{"type":"FeatureCollection","features":[{"type":"Feature","properties":{"id":"9118011001001","commune":"Toltén","code":"09118","gse":"C3","quintil":"Q3","nse_score":692.3,"educ":12.1,"educ_score":606.7,"hacin":1.383,"hacin_class":"Hacinamiento Leve","hacin_score":769.6,"auto_score":140.6,"n_per":260,"n_hog":90,"source_year":2024},"geometry":{"type":"Polygon","coordinates":[[[-73.1541345379999,-39.1741392500758],[-73.1545938439999,-39.1744795870758],[-73.1554300079999,-39.1743940110758],[-73.1565038689999,-39.1751819330758],[-73.1567710369999,-39.1749134790758],[-73.1563379919999,-39.1745821930758],[-73.156840439,-39.1748817170758],[-73.1573571159999,-39.1744351880759],[-73.1571816309999,-39.1741615500758],[-73.1574136279999,-39.1744619570758],[-73.156087382,-39.1756692540758],[-73.1572750429999,-39.1765716930758],[-73.1581194789999,-39.1759696960758],[-73.1576421949999,-39.1756743900758],[-73.1580050229999,-39.1754851030758],[-73.157811309,-39.1756996880758],[-73.1581811329999,-39.1759449490758],[-73.1573370199999,-39.1766320320758],[-73.1587529339999,-39.1777050680758],[-73.1590764429999,-39.1777198840758],[-73.1590954009999,-39.1768557160758],[-73.1591211349999,-39.1777207810758],[-73.1602127809999,-39.1777458880758],[-73.1602381119999,-39.1771825000758],[-73.1602470449999,-39.1777501710758],[-73.1606005519999,-39.1777340630758],[-73.1606817729999,-39.1765038290758],[-73.1603453229999,-39.1764929760758],[-73.1602358669999,-39.1764382480758],[-73.1602453849999,-39.1760456370758],[-73.1603453229999,-39.1764572840758],[-73.1608134789999,-39.1764338800758],[-73.1608338359999,-39.1759951740758],[-73.1609080439999,-39.1761042720758],[-73.1619717159999,-39.1761230610758],[-73.1608934629999,-39.1761505720758],[-73.1608762689999,-39.1764344070758],[-73.1624065229999,-39.1764153190758],[-73.1624857389999,-39.1756498520758],[-73.1587493009999,-39.1755616300758],[-73.1587721909999,-39.1745205840758],[-73.1577665789999,-39.1737512810758],[-73.1541345379999,-39.1741392500758]]]}},{"type":"Feature","properties":{"id":"9118011001002","commune":"Toltén","code":"09118","gse":"C2","quintil":"Q4","nse_score":740.7,"educ":12.8,"educ_score":653.3,"hacin":1.218,"hacin_class":"Hacinamiento Leve","hacin_score":804.7,"auto_score":336.2,"n_per":162,"n_hog":58,"source_year":2024},"geometry":{"type":"Polygon","coordinates":[[[-73.1538652179999,-39.1740189290758],[-73.1519551349999,-39.1756251680758],[-73.1524966259999,-39.1766794020758],[-73.1527631629999,-39.1778923750758],[-73.1518575869999,-39.1791529430758],[-73.1518196059999,-39.1794428350758],[-73.1521578109999,-39.1794047100758],[-73.1520701229999,-39.1791476190758],[-73.1523230179999,-39.1787721660758],[-73.1526374409999,-39.1784472270758],[-73.1529555989999,-39.1782472220758],[-73.1521069989999,-39.1791510030758],[-73.1521929049999,-39.1794021490758],[-73.1533508119999,-39.1794110440758],[-73.1535416589999,-39.1787189680758],[-73.1533857879999,-39.1794111800758],[-73.1553698109999,-39.1794335680758],[-73.1546157879999,-39.1786267810758],[-73.1554159329999,-39.1794359560758],[-73.1560812299999,-39.1794703980758],[-73.1561098329999,-39.1788589030758],[-73.1561158549999,-39.1794732050758],[-73.1587509119999,-39.1797311450758],[-73.1587434619999,-39.1792959150758],[-73.1580701599999,-39.1791464500758],[-73.1580835219999,-39.1784094300758],[-73.1579696639999,-39.1783647450758],[-73.1580843949999,-39.1783644370758],[-73.1581038399999,-39.1776173500758],[-73.1582176079999,-39.1774119270758],[-73.1549657889999,-39.1748814340758],[-73.1541930479999,-39.1755309900758],[-73.1555076999999,-39.1765452350758],[-73.1556871919999,-39.1764857480758],[-73.1560722269999,-39.1767843710758],[-73.15559572,-39.1771194980758],[-73.1562845739999,-39.1776727230758],[-73.1559669159999,-39.1775049710758],[-73.1555493209999,-39.1771091850758],[-73.156011986,-39.1767778030758],[-73.1556816379999,-39.1765307200758],[-73.1555072589999,-39.1766008510758],[-73.1541591399999,-39.1755422920758],[-73.1549295519999,-39.1748530990758],[-73.1543626279999,-39.1744093790758],[-73.153173191,-39.1752390100758],[-73.1543265829999,-39.1743810850758],[-73.1538652179999,-39.1740189290758]]]}},{"type":"Feature","properties":{"id":"9118011001003","commune":"Toltén","code":"09118","gse":"E","quintil":"Q1","nse_score":584.2,"educ":9.9,"educ_score":460.0,"hacin":1.377,"hacin_class":"Hacinamiento Leve","hacin_score":770.8,"auto_score":172.4,"n_per":84,"n_hog":29,"source_year":2024},"geometry":{"type":"Polygon","coordinates":[[[-73.1548287969999,-39.1744973800758],[-73.1560997059999,-39.1755184280758],[-73.1564159479999,-39.1752603550758],[-73.1553958439999,-39.1744413570758],[-73.1548287969999,-39.1744973800758]]]}},{"type":"Feature","properties":{"id":"9118011001005","commune":"Toltén","code":"09118","gse":"C3","quintil":"Q3","nse_score":696.0,"educ":12.0,"educ_score":600.0,"hacin":1.344,"hacin_class":"Hacinamiento Leve","hacin_score":777.9,"auto_score":185.5,"n_per":172,"n_hog":63,"source_year":2024},"geometry":{"type":"Polygon","coordinates":[[[-73.1624857389999,-39.1756498520758],[-73.1625074449999,-39.1764446110758],[-73.1632444009999,-39.1764542560758],[-73.163370503,-39.1761020710758],[-73.1648999509999,-39.1761360680758],[-73.1648828959999,-39.1771633090758],[-73.1660393059999,-39.1771927890758],[-73.1674109869999,-39.1764506270758],[-73.1679892419999,-39.1769919730758],[-73.1683124199999,-39.1767833640758],[-73.1678590359999,-39.1762301340758],[-73.1683508449999,-39.1767720960758],[-73.1688065159999,-39.1765517180758],[-73.1681195439999,-39.1757683460758],[-73.1624857389999,-39.1756498520758]]]}},{"type":"Feature","properties":{"id":"9118011001007","commune":"Toltén","code":"09118","gse":"C2","quintil":"Q3","nse_score":714.8,"educ":12.1,"educ_score":606.7,"hacin":1.128,"hacin_class":"Hacinamiento Leve","hacin_score":823.9,"auto_score":0.0,"n_per":53,"n_hog":19,"source_year":2024},"geometry":{"type":"Polygon","coordinates":[[[-73.1648040499999,-39.1761776540758],[-73.1644080409999,-39.1761630980758],[-73.1643783819999,-39.1763996390758],[-73.1643044449999,-39.1761614650758],[-73.1639093309999,-39.1761535750758],[-73.1638775989999,-39.1763875890758],[-73.1637982799999,-39.1761509930758],[-73.1633752029999,-39.1761501450758],[-73.163326374,-39.1771231910758],[-73.1647741829999,-39.1771618110758],[-73.1648040499999,-39.1761776540758]]]}},{"type":"Feature","properties":{"id":"9118011001008","commune":"Toltén","code":"09118","gse":"C3","quintil":"Q2","nse_score":681.6,"educ":11.1,"educ_score":540.0,"hacin":1.34,"hacin_class":"Hacinamiento Leve","hacin_score":778.6,"auto_score":100.0,"n_per":63,"n_hog":25,"source_year":2024},"geometry":{"type":"Polygon","coordinates":[[[-73.1623662609999,-39.1764912410758],[-73.1607246379999,-39.1765517890758],[-73.1607402939999,-39.1770792570758],[-73.1623767209999,-39.1770932160758],[-73.1623662609999,-39.1764912410758]]]}},{"type":"Feature","properties":{"id":"9118011001009","commune":"Toltén","code":"09118","gse":"C1","quintil":"Q5","nse_score":801.9,"educ":15.9,"educ_score":860.0,"hacin":1.08,"hacin_class":"Hacinamiento Leve","hacin_score":834.0,"auto_score":230.8,"n_per":27,"n_hog":11,"source_year":2024},"geometry":{"type":"Polygon","coordinates":[[[-73.1625133269999,-39.1764893220758],[-73.162464542,-39.1771081640758],[-73.1632439809999,-39.1771196090758],[-73.1632803869999,-39.1765158290758],[-73.1625133269999,-39.1764893220758]]]}},{"type":"Feature","properties":{"id":"9118011001010","commune":"Toltén","code":"09118","gse":"E","quintil":"Q1","nse_score":573.4,"educ":8.6,"educ_score":373.3,"hacin":1.385,"hacin_class":"Hacinamiento Leve","hacin_score":769.2,"auto_score":0.0,"n_per":36,"n_hog":16,"source_year":2024},"geometry":{"type":"Polygon","coordinates":[[[-73.1668539429999,-39.1768044990758],[-73.1669787139999,-39.1770044810758],[-73.1667022809999,-39.1771852900758],[-73.1669877179999,-39.1774903400758],[-73.1678700879999,-39.1770116900758],[-73.1674245359999,-39.1765111290758],[-73.1668539429999,-39.1768044990758]]]}},{"type":"Feature","properties":{"id":"9118011001016","commune":"Toltén","code":"09118","gse":"C2","quintil":"Q3","nse_score":720.8,"educ":11.5,"educ_score":566.7,"hacin":0.875,"hacin_class":"Sin Hacinamiento","hacin_score":877.7,"auto_score":38.5,"n_per":28,"n_hog":13,"source_year":2024},"geometry":{"type":"Polygon","coordinates":[[[-73.1656698739999,-39.1772319200758],[-73.1655823329999,-39.1778611170758],[-73.1663130809999,-39.1778735020758],[-73.166902493,-39.1775415470758],[-73.1664805049999,-39.1770397670758],[-73.1660632469999,-39.1772258010758],[-73.1656698739999,-39.1772319200758]]]}},{"type":"Feature","properties":{"id":"9118011001018","commune":"Toltén","code":"09118","gse":"E","quintil":"Q1","nse_score":586.5,"educ":9.4,"educ_score":426.7,"hacin":1.706,"hacin_class":"Hacinamiento Medio","hacin_score":700.9,"auto_score":55.6,"n_per":58,"n_hog":17,"source_year":2024},"geometry":{"type":"Polygon","coordinates":[[[-73.1623542169999,-39.1771710660758],[-73.1607149739999,-39.1771360370758],[-73.1606735189999,-39.1777333840758],[-73.1623406459999,-39.1777825900758],[-73.1623542169999,-39.1771710660758]]]}},{"type":"Feature","properties":{"id":"9118011001020","commune":"Toltén","code":"09118","gse":"E","quintil":"Q1","nse_score":604.7,"educ":10.1,"educ_score":473.3,"hacin":1.312,"hacin_class":"Hacinamiento Leve","hacin_score":784.6,"auto_score":0.0,"n_per":21,"n_hog":7,"source_year":2024},"geometry":{"type":"Polygon","coordinates":[[[-73.1632348299999,-39.1771959440758],[-73.1624498229999,-39.1772046260758],[-73.1624428239999,-39.1777896970758],[-73.163204849,-39.1778053780758],[-73.1632348299999,-39.1771959440758]]]}},{"type":"Feature","properties":{"id":"9118011001022","commune":"Toltén","code":"09118","gse":"D","quintil":"Q2","nse_score":655.0,"educ":10.6,"educ_score":506.7,"hacin":1.409,"hacin_class":"Hacinamiento Leve","hacin_score":764.0,"auto_score":115.4,"n_per":31,"n_hog":13,"source_year":2024},"geometry":{"type":"Polygon","coordinates":[[[-73.1654975549999,-39.1772352630758],[-73.1640295169999,-39.1772222080758],[-73.1640278169999,-39.1778302570758],[-73.1654804819999,-39.1778467330758],[-73.1654975549999,-39.1772352630758]]]}},{"type":"Feature","properties":{"id":"9118011001025","commune":"Toltén","code":"09118","gse":"C3","quintil":"Q2","nse_score":671.2,"educ":11.1,"educ_score":540.0,"hacin":1.364,"hacin_class":"Hacinamiento Leve","hacin_score":773.7,"auto_score":153.8,"n_per":45,"n_hog":13,"source_year":2024},"geometry":{"type":"Polygon","coordinates":[[[-73.1587788849999,-39.1783634400758],[-73.1587555519999,-39.1778970360758],[-73.1582528189999,-39.1774977260758],[-73.1581516919999,-39.1783426120758],[-73.1587788849999,-39.1783634400758]]]}},{"type":"Feature","properties":{"id":"9118011001026","commune":"Toltén","code":"09118","gse":"E","quintil":"Q1","nse_score":536.5,"educ":10.8,"educ_score":520.0,"hacin":1.278,"hacin_class":"Hacinamiento Leve","hacin_score":792.0,"auto_score":45.5,"n_per":23,"n_hog":11,"source_year":2024},"geometry":{"type":"Polygon","coordinates":[[[-73.1664713789999,-39.1778501150758],[-73.1655798649999,-39.1779271970758],[-73.1655438829999,-39.1785116630758],[-73.1665538819999,-39.1785488540758],[-73.1673848929999,-39.1781054860758],[-73.1669579519999,-39.1776091120758],[-73.1664713789999,-39.1778501150758]]]}},{"type":"Feature","properties":{"id":"9118011001029","commune":"Toltén","code":"09118","gse":"C2","quintil":"Q4","nse_score":729.2,"educ":11.4,"educ_score":560.0,"hacin":0.667,"hacin_class":"Sin Hacinamiento","hacin_score":922.0,"auto_score":71.4,"n_per":16,"n_hog":7,"source_year":2024},"geometry":{"type":"Polygon","coordinates":[[[-73.1676234289999,-39.1781783500758],[-73.1680701129999,-39.1786894620758],[-73.1689415859999,-39.1781890470758],[-73.1685037279999,-39.1777069960758],[-73.1676234289999,-39.1781783500758]]]}},{"type":"Feature","properties":{"id":"9118011001030","commune":"Toltén","code":"09118","gse":"D","quintil":"Q2","nse_score":662.8,"educ":11.1,"educ_score":540.0,"hacin":1.394,"hacin_class":"Hacinamiento Leve","hacin_score":767.2,"auto_score":0.0,"n_per":46,"n_hog":18,"source_year":2024},"geometry":{"type":"Polygon","coordinates":[[[-73.1589089169999,-39.1783798730758],[-73.1605720629999,-39.1784197240758],[-73.1606124739999,-39.1778171310758],[-73.158799842,-39.1777566750758],[-73.1589089169999,-39.1783798730758]]]}},{"type":"Feature","properties":{"id":"9118011001031","commune":"Toltén","code":"09118","gse":"C3","quintil":"Q2","nse_score":673.4,"educ":10.9,"educ_score":526.7,"hacin":1.208,"hacin_class":"Hacinamiento Leve","hacin_score":806.9,"auto_score":34.5,"n_per":64,"n_hog":28,"source_year":2024},"geometry":{"type":"Polygon","coordinates":[[[-73.160712799,-39.1784193340758],[-73.1623158639999,-39.1784592550758],[-73.1623483919999,-39.1778736890758],[-73.1606997319999,-39.1777995360758],[-73.160712799,-39.1784193340758]]]}},{"type":"Feature","properties":{"id":"9118011001036","commune":"Toltén","code":"09118","gse":"D","quintil":"Q1","nse_score":642.1,"educ":10.1,"educ_score":473.3,"hacin":1.316,"hacin_class":"Hacinamiento Leve","hacin_score":783.9,"auto_score":117.6,"n_per":50,"n_hog":17,"source_year":2024},"geometry":{"type":"Polygon","coordinates":[[[-73.163986829,-39.1784910090758],[-73.1654278949999,-39.1785284370758],[-73.1654788659999,-39.1779364330758],[-73.1640332569999,-39.1778846840758],[-73.163986829,-39.1784910090758]]]}},{"type":"Feature","properties":{"id":"9118011001040","commune":"Toltén","code":"09118","gse":"C2","quintil":"Q4","nse_score":732.4,"educ":13.9,"educ_score":726.7,"hacin":1.318,"hacin_class":"Hacinamiento Leve","hacin_score":783.4,"auto_score":166.7,"n_per":29,"n_hog":13,"source_year":2024},"geometry":{"type":"Polygon","coordinates":[[[-73.1664806199999,-39.1795073740758],[-73.1679336049999,-39.1787701790758],[-73.1679474229999,-39.1787151680758],[-73.1674981469999,-39.1782329560758],[-73.1660518879999,-39.1790149610758],[-73.1664806199999,-39.1795073740758]]]}},{"type":"Feature","properties":{"id":"9118011001043","commune":"Toltén","code":"09118","gse":"C3","quintil":"Q3","nse_score":688.1,"educ":11.1,"educ_score":540.0,"hacin":1.219,"hacin_class":"Hacinamiento Leve","hacin_score":804.5,"auto_score":0.0,"n_per":39,"n_hog":13,"source_year":2024},"geometry":{"type":"Polygon","coordinates":[[[-73.1587625399999,-39.1792235380758],[-73.1587340599999,-39.1784294170758],[-73.1581590609999,-39.1784363470758],[-73.1581461039999,-39.1791209210758],[-73.1587625399999,-39.1792235380758]]]}},{"type":"Feature","properties":{"id":"9118011001051","commune":"Toltén","code":"09118","gse":"C3","quintil":"Q3","nse_score":704.3,"educ":10.8,"educ_score":520.0,"hacin":0.911,"hacin_class":"Sin Hacinamiento","hacin_score":870.0,"auto_score":205.9,"n_per":41,"n_hog":16,"source_year":2024},"geometry":{"type":"Polygon","coordinates":[[[-73.1589002829999,-39.1785522420758],[-73.1588532479999,-39.1797687930758],[-73.1596543229999,-39.1798305770758],[-73.159723761,-39.1785886080758],[-73.1589002829999,-39.1785522420758]]]}},{"type":"Feature","properties":{"id":"9118011001053","commune":"Toltén","code":"09118","gse":"D","quintil":"Q1","nse_score":633.6,"educ":8.9,"educ_score":393.3,"hacin":0.949,"hacin_class":"Sin Hacinamiento","hacin_score":862.0,"auto_score":29.4,"n_per":37,"n_hog":17,"source_year":2024},"geometry":{"type":"Polygon","coordinates":[[[-73.1598137039999,-39.1785604860758],[-73.1597653629999,-39.1798344660758],[-73.1605168049999,-39.1798527430757],[-73.1605721149999,-39.1785731740758],[-73.1598137039999,-39.1785604860758]]]}},{"type":"Feature","properties":{"id":"9118011001054","commune":"Toltén","code":"09118","gse":"C3","quintil":"Q3","nse_score":692.5,"educ":11.4,"educ_score":560.0,"hacin":0.636,"hacin_class":"Sin Hacinamiento","hacin_score":928.4,"auto_score":50.0,"n_per":14,"n_hog":8,"source_year":2024},"geometry":{"type":"Polygon","coordinates":[[[-73.1606959549999,-39.1785751000758],[-73.1606415039999,-39.1798589840758],[-73.1613861459999,-39.1798750110758],[-73.1614521339999,-39.1786062890758],[-73.1606959549999,-39.1785751000758]]]}},{"type":"Feature","properties":{"id":"9118011001057","commune":"Toltén","code":"09118","gse":"C3","quintil":"Q2","nse_score":665.2,"educ":10.5,"educ_score":500.0,"hacin":0.917,"hacin_class":"Sin Hacinamiento","hacin_score":868.8,"auto_score":113.6,"n_per":44,"n_hog":21,"source_year":2024},"geometry":{"type":"Polygon","coordinates":[[[-73.1615361699999,-39.1785990150758],[-73.1615012449999,-39.1798811000758],[-73.1622554319999,-39.1798994080758],[-73.1623186339999,-39.1786317100758],[-73.1615361699999,-39.1785990150758]]]}},{"type":"Feature","properties":{"id":"9118011001062","commune":"Toltén","code":"09118","gse":"C3","quintil":"Q3","nse_score":710.5,"educ":12.7,"educ_score":646.7,"hacin":1.296,"hacin_class":"Hacinamiento Leve","hacin_score":788.0,"auto_score":115.4,"n_per":35,"n_hog":13,"source_year":2024},"geometry":{"type":"Polygon","coordinates":[[[-73.1678132309999,-39.1795448000758],[-73.1684440349999,-39.1792869570758],[-73.1680348029999,-39.1788170040758],[-73.1667143159999,-39.1795022770758],[-73.1678132309999,-39.1795448000758]]]}},{"type":"Feature","properties":{"id":"9118011001066","commune":"Toltén","code":"09118","gse":"D","quintil":"Q2","nse_score":648.1,"educ":10.1,"educ_score":473.3,"hacin":1.103,"hacin_class":"Hacinamiento Leve","hacin_score":829.2,"auto_score":66.7,"n_per":75,"n_hog":28,"source_year":2024},"geometry":{"type":"Polygon","coordinates":[[[-73.1709464849999,-39.1790318820758],[-73.1697953389999,-39.1796245740758],[-73.1693446559999,-39.1796584320758],[-73.1693215219999,-39.1802604850758],[-73.1700194429999,-39.1802555760758],[-73.1713748569999,-39.1795273930758],[-73.1709464849999,-39.1790318820758]]]}},{"type":"Feature","properties":{"id":"9118011001067","commune":"Toltén","code":"09118","gse":"C2","quintil":"Q3","nse_score":712.8,"educ":10.7,"educ_score":513.3,"hacin":1.027,"hacin_class":"Hacinamiento Leve","hacin_score":845.3,"auto_score":115.4,"n_per":38,"n_hog":16,"source_year":2024},"geometry":{"type":"Polygon","coordinates":[[[-73.1648924579999,-39.1803690130758],[-73.1663015859999,-39.1796259870758],[-73.1663594039999,-39.1795418730758],[-73.1659128979999,-39.1790916160758],[-73.1645132459999,-39.1798206170758],[-73.1648924579999,-39.1803690130758]]]}},{"type":"Feature","properties":{"id":"9118011001069","commune":"Toltén","code":"09118","gse":"C3","quintil":"Q2","nse_score":665.8,"educ":11.1,"educ_score":540.0,"hacin":1.059,"hacin_class":"Hacinamiento Leve","hacin_score":838.5,"auto_score":35.1,"n_per":144,"n_hog":56,"source_year":2024},"geometry":{"type":"Polygon","coordinates":[[[-73.1717481899999,-39.1799575230758],[-73.1697895719999,-39.1809366500758],[-73.1697370109999,-39.1803348840758],[-73.1693263529999,-39.1803307420758],[-73.1692460289999,-39.1809087900758],[-73.1692433439999,-39.1803255860758],[-73.1668465049999,-39.1802701730758],[-73.1658347879999,-39.1807326400758],[-73.1652729119999,-39.1802631170758],[-73.1643223479999,-39.1807334670758],[-73.1629513729999,-39.1807372760758],[-73.1629406269999,-39.1811500190758],[-73.1636400209999,-39.1812034160758],[-73.1629181849999,-39.1812136050758],[-73.1629003189999,-39.1815607260758],[-73.1619896019999,-39.1815598870758],[-73.1622204499999,-39.1824965830758],[-73.1692189189999,-39.1825977440758],[-73.1731090579999,-39.1809133440758],[-73.1727010919999,-39.1800136850758],[-73.1720848799999,-39.1792624320758],[-73.171563079,-39.1795369650758],[-73.1717481899999,-39.1799575230758]]]}},{"type":"Feature","properties":{"id":"9118011001072","commune":"Toltén","code":"09118","gse":"C3","quintil":"Q2","nse_score":673.8,"educ":10.7,"educ_score":513.3,"hacin":1.293,"hacin_class":"Hacinamiento Leve","hacin_score":788.8,"auto_score":159.1,"n_per":159,"n_hog":66,"source_year":2024},"geometry":{"type":"Polygon","coordinates":[[[-73.1560974209999,-39.1795262600758],[-73.156038797,-39.1823722880758],[-73.1622204499999,-39.1824965830758],[-73.1619896019999,-39.1815598870758],[-73.1628563599999,-39.1815606860758],[-73.1628331559999,-39.1812099530758],[-73.1623103699999,-39.1812163430758],[-73.1622579309999,-39.1815497610758],[-73.1622391529999,-39.1812144490758],[-73.1619809389999,-39.1812096050758],[-73.1628555169999,-39.1811494470758],[-73.1628455859999,-39.1807325260758],[-73.1610734389999,-39.1807099560758],[-73.1609708589999,-39.1809240370758],[-73.1609291479999,-39.1807015150758],[-73.158793838,-39.1806657580758],[-73.1587073879999,-39.1809537600758],[-73.1586970579999,-39.1799110040758],[-73.157216978,-39.1795897020758],[-73.1560974209999,-39.1795262600758]]]}},{"type":"Feature","properties":{"id":"9118011001073","commune":"Toltén","code":"09118","gse":"D","quintil":"Q1","nse_score":639.8,"educ":10.0,"educ_score":466.7,"hacin":1.395,"hacin_class":"Hacinamiento Leve","hacin_score":766.9,"auto_score":173.1,"n_per":60,"n_hog":25,"source_year":2024},"geometry":{"type":"Polygon","coordinates":[[[-73.1670531389999,-39.1802198000758],[-73.1692467299999,-39.1802467770758],[-73.1692430599999,-39.1796434670758],[-73.1665421379999,-39.1796001510758],[-73.1670531389999,-39.1802198000758]]]}},{"type":"Feature","properties":{"id":"9118011001074","commune":"Toltén","code":"09118","gse":"E","quintil":"Q1","nse_score":474.6,"educ":8.3,"educ_score":353.3,"hacin":1.427,"hacin_class":"Hacinamiento Leve","hacin_score":760.2,"auto_score":65.8,"n_per":117,"n_hog":39,"source_year":2024},"geometry":{"type":"Polygon","coordinates":[[[-73.1717229689999,-39.1799248920758],[-73.1713991429999,-39.1795991020758],[-73.1698279749999,-39.1803386250758],[-73.1698292539999,-39.1809132440758],[-73.1717229689999,-39.1799248920758]]]}},{"type":"Feature","properties":{"id":"9118011001075","commune":"Toltén","code":"09118","gse":"C2","quintil":"Q4","nse_score":740.5,"educ":12.0,"educ_score":600.0,"hacin":0.977,"hacin_class":"Sin Hacinamiento","hacin_score":855.9,"auto_score":375.0,"n_per":43,"n_hog":16,"source_year":2024},"geometry":{"type":"Polygon","coordinates":[[[-73.1664611939999,-39.1796396810757],[-73.1653836589999,-39.1802238270758],[-73.1658111789999,-39.1806925180758],[-73.1669318509999,-39.1802085570758],[-73.1664611939999,-39.1796396810757]]]}},{"type":"Feature","properties":{"id":"9118011001080","commune":"Toltén","code":"09118","gse":"C2","quintil":"Q4","nse_score":754.9,"educ":12.4,"educ_score":626.7,"hacin":1.077,"hacin_class":"Hacinamiento Leve","hacin_score":834.7,"auto_score":0.0,"n_per":28,"n_hog":13,"source_year":2024},"geometry":{"type":"Polygon","coordinates":[[[-73.1629815759999,-39.1800647460758],[-73.1629938739999,-39.1806795210758],[-73.1642570129999,-39.1806925330758],[-73.1648264919999,-39.1804102940758],[-73.1644004309999,-39.1799170750758],[-73.1640159999999,-39.1800731850758],[-73.1629815759999,-39.1800647460758]]]}},{"type":"Feature","properties":{"id":"9118011001082","commune":"Toltén","code":"09118","gse":"C3","quintil":"Q2","nse_score":669.0,"educ":11.5,"educ_score":566.7,"hacin":1.15,"hacin_class":"Hacinamiento Leve","hacin_score":819.1,"auto_score":103.4,"n_per":69,"n_hog":27,"source_year":2024},"geometry":{"type":"Polygon","coordinates":[[[-73.1587873499999,-39.1799265740758],[-73.1588387999999,-39.1806062860758],[-73.1609752659999,-39.1806125840758],[-73.160969152,-39.1800025710758],[-73.1587873499999,-39.1799265740758]]]}},{"type":"Feature","properties":{"id":"9118011001084","commune":"Toltén","code":"09118","gse":"C3","quintil":"Q2","nse_score":672.8,"educ":10.6,"educ_score":506.7,"hacin":1.267,"hacin_class":"Hacinamiento Leve","hacin_score":794.3,"auto_score":0.0,"n_per":57,"n_hog":22,"source_year":2024},"geometry":{"type":"Polygon","coordinates":[[[-73.1610503789999,-39.1806454450758],[-73.1628703969999,-39.1806657160758],[-73.1628996469999,-39.1800632980758],[-73.1610422539999,-39.1800202640758],[-73.1610503789999,-39.1806454450758]]]}},{"type":"Feature","properties":{"id":"9118011001021","commune":"Toltén","code":"09118","gse":"C3","quintil":"Q3","nse_score":694.5,"educ":11.0,"educ_score":533.3,"hacin":1.182,"hacin_class":"Hacinamiento Leve","hacin_score":812.4,"auto_score":0.0,"n_per":26,"n_hog":8,"source_year":2024},"geometry":{"type":"MultiPolygon","coordinates":[[[[-73.1624521299999,-39.1784649440758],[-73.1631858999999,-39.1784701470758],[-73.1632103869999,-39.1778787900758],[-73.1624406839999,-39.1778567410758],[-73.1624521299999,-39.1784649440758]]],[[[-73.163353905,-39.1778196340758],[-73.1639196629999,-39.1778267210758],[-73.1639582039999,-39.1772046000758],[-73.1633278849999,-39.1771919160758],[-73.163353905,-39.1778196340758]]]]}},{"type":"Feature","properties":{"id":"9118011001023","commune":"Toltén","code":"09118","gse":"C3","quintil":"Q3","nse_score":694.9,"educ":11.7,"educ_score":580.0,"hacin":1.161,"hacin_class":"Hacinamiento Leve","hacin_score":816.9,"auto_score":53.6,"n_per":65,"n_hog":27,"source_year":2024},"geometry":{"type":"MultiPolygon","coordinates":[[[[-73.1702309199999,-39.1792934120758],[-73.1708871609999,-39.1789424890758],[-73.1698441639999,-39.1778161260758],[-73.1692590179999,-39.1781787520758],[-73.1702309199999,-39.1792934120758]]],[[[-73.1691714599999,-39.1780760040758],[-73.1698054829999,-39.1777422550758],[-73.1693890039999,-39.1772492370758],[-73.1687553829999,-39.1775844500758],[-73.1691714599999,-39.1780760040758]]]]}},{"type":"Feature","properties":{"id":"9118011001041","commune":"Toltén","code":"09118","gse":"C2","quintil":"Q4","nse_score":765.5,"educ":13.5,"educ_score":700.0,"hacin":0.889,"hacin_class":"Sin Hacinamiento","hacin_score":874.7,"auto_score":76.9,"n_per":32,"n_hog":13,"source_year":2024},"geometry":{"type":"MultiPolygon","coordinates":[[[[-73.1681837129999,-39.1795263590758],[-73.1697027389999,-39.1795862560758],[-73.1699703619999,-39.1794022100758],[-73.1694556089999,-39.1788336930758],[-73.1681837129999,-39.1795263590758]]],[[[-73.168524482,-39.1792447440758],[-73.1694125019999,-39.1787814410758],[-73.1690237399999,-39.1782680700758],[-73.1681229179999,-39.1787523050758],[-73.168524482,-39.1792447440758]]]]}},{"type":"Feature","properties":{"id":"9118011001058","commune":"Toltén","code":"09118","gse":"C2","quintil":"Q3","nse_score":720.3,"educ":11.8,"educ_score":586.7,"hacin":1.047,"hacin_class":"Hacinamiento Leve","hacin_score":841.1,"auto_score":55.6,"n_per":67,"n_hog":27,"source_year":2024},"geometry":{"type":"MultiPolygon","coordinates":[[[[-73.1632770749999,-39.1799201930758],[-73.1640581359999,-39.1798884110758],[-73.1662156759999,-39.1787141770758],[-73.1632814189999,-39.1786339310758],[-73.1632770749999,-39.1799201930758]]],[[[-73.1623510979999,-39.1798614040758],[-73.1631488419999,-39.1798932090758],[-73.1631748279999,-39.1786313310758],[-73.1624023529999,-39.1786308940758],[-73.1623510979999,-39.1798614040758]]]]}},{"type":"Feature","properties":{"id":"9118011001011","commune":"Toltén","code":"09118","gse":"C3","quintil":"Q3","nse_score":685.2,"educ":12.1,"educ_score":606.7,"hacin":1.2,"hacin_class":"Hacinamiento Leve","hacin_score":808.5,"auto_score":41.7,"n_per":24,"n_hog":12,"source_year":2024},"geometry":{"type":"MultiPolygon","coordinates":[[[[-73.1674649559999,-39.1780467330758],[-73.1683806509999,-39.1775673790758],[-73.1679658119999,-39.1770841540758],[-73.1670479939999,-39.1775515950758],[-73.1674649559999,-39.1780467330758]]],[[[-73.1684605749999,-39.1775142080758],[-73.1692564299999,-39.1770974090758],[-73.1688937599999,-39.1766273480758],[-73.1680490259999,-39.1770312180758],[-73.1684605749999,-39.1775142080758]]]]}},{"type":"Feature","properties":{"id":"9118023089001","commune":"Toltén","code":"09118","gse":"E","quintil":"Q1","nse_score":599.2,"educ":10.9,"educ_score":526.7,"hacin":1.375,"hacin_class":"Hacinamiento Leve","hacin_score":771.3,"auto_score":0.0,"n_per":22,"n_hog":6,"source_year":2024},"geometry":{"type":"Polygon","coordinates":[[[-73.1954204779999,-39.3916146760744],[-73.1936183699999,-39.3914920320744],[-73.1931483389999,-39.3916717090744],[-73.1932464769999,-39.3920792070744],[-73.1940950669999,-39.3927360190744],[-73.1940371479999,-39.3932551880744],[-73.1936735659999,-39.3935423440744],[-73.1915039809999,-39.3941329750744],[-73.1905039659999,-39.3937031550744],[-73.1904304909999,-39.3938428190744],[-73.1910777479999,-39.3941769580744],[-73.1933321719999,-39.3946202340744],[-73.1937767619999,-39.3937568980744],[-73.1942912809999,-39.3932924350744],[-73.196166994,-39.3931054510744],[-73.1970335979999,-39.3907986380744],[-73.1969384329999,-39.3907666100744],[-73.1968811379999,-39.3910078930744],[-73.1964950629999,-39.3913292300744],[-73.1954204779999,-39.3916146760744]]]}},{"type":"Feature","properties":{"id":"9118023089002","commune":"Toltén","code":"09118","gse":"E","quintil":"Q1","nse_score":602.2,"educ":9.5,"educ_score":433.3,"hacin":1.414,"hacin_class":"Hacinamiento Leve","hacin_score":762.9,"auto_score":0.0,"n_per":99,"n_hog":35,"source_year":2024},"geometry":{"type":"Polygon","coordinates":[[[-73.1962766269999,-39.3930312660744],[-73.1983345289999,-39.3949695440744],[-73.1991626649999,-39.3955362150744],[-73.1992723479999,-39.3953935180744],[-73.1998712559999,-39.3951584740743],[-73.1999057529999,-39.3949896560744],[-73.1998976249999,-39.3951770200744],[-73.1992949099999,-39.3954147990744],[-73.199191761,-39.3955510720744],[-73.1993512219999,-39.3956324970744],[-73.1993548729999,-39.3954905420744],[-73.1995272869999,-39.3953975410744],[-73.2008093069999,-39.3952253830744],[-73.2009063049999,-39.3950241220744],[-73.2019350589999,-39.3947809240744],[-73.2012504119999,-39.3942713760744],[-73.2010340769999,-39.3937505450744],[-73.2007104129999,-39.3935201830744],[-73.2013427199999,-39.3935066990744],[-73.2013254839999,-39.3929865250744],[-73.2008414709999,-39.3925127490744],[-73.1994492519999,-39.3920329100744],[-73.1977198609999,-39.3916566760744],[-73.1970455989999,-39.3912851680744],[-73.1970890929999,-39.3908173140744],[-73.1962766269999,-39.3930312660744]]]}},{"type":"Feature","properties":{"id":"9118023089003","commune":"Toltén","code":"09118","gse":"E","quintil":"Q1","nse_score":595.1,"educ":9.0,"educ_score":400.0,"hacin":1.196,"hacin_class":"Hacinamiento Leve","hacin_score":809.3,"auto_score":0.0,"n_per":61,"n_hog":24,"source_year":2024},"geometry":{"type":"Polygon","coordinates":[[[-73.1970464319999,-39.3939090070744],[-73.1962520779999,-39.3932365230744],[-73.1956508339999,-39.3932628380744],[-73.1949941439999,-39.3948651380744],[-73.195349286,-39.3956248580744],[-73.1963085169999,-39.3953672940744],[-73.1960141879999,-39.3946687280744],[-73.1957602789999,-39.3945570260744],[-73.1960051449999,-39.3937583720744],[-73.1970464319999,-39.3939090070744]]]}},{"type":"Feature","properties":{"id":"9118023089004","commune":"Toltén","code":"09118","gse":"C3","quintil":"Q2","nse_score":667.2,"educ":10.9,"educ_score":526.7,"hacin":1.242,"hacin_class":"Hacinamiento Leve","hacin_score":799.5,"auto_score":83.3,"n_per":41,"n_hog":19,"source_year":2024},"geometry":{"type":"Polygon","coordinates":[[[-73.193639501,-39.3941845870744],[-73.1939592009999,-39.3951180610744],[-73.1949439759999,-39.3948569270744],[-73.1955966609999,-39.3932644020744],[-73.1943329779999,-39.3933657220744],[-73.1939672589999,-39.3936478300744],[-73.193639501,-39.3941845870744]]]}},{"type":"Feature","properties":{"id":"9118023089005","commune":"Toltén","code":"09118","gse":"D","quintil":"Q1","nse_score":613.3,"educ":11.0,"educ_score":533.3,"hacin":1.344,"hacin_class":"Hacinamiento Leve","hacin_score":777.9,"auto_score":83.3,"n_per":43,"n_hog":17,"source_year":2024},"geometry":{"type":"Polygon","coordinates":[[[-73.1970848729999,-39.3939444620744],[-73.1960384989999,-39.3938024410744],[-73.1958135519999,-39.3945432600744],[-73.19606841,-39.3946256680744],[-73.1963687059999,-39.3953438730744],[-73.1980877299999,-39.3948693660744],[-73.1970848729999,-39.3939444620744]]]}},{"type":"Feature","properties":{"id":"9118023089006","commune":"Toltén","code":"09118","gse":"D","quintil":"Q1","nse_score":623.9,"educ":11.2,"educ_score":546.7,"hacin":1.654,"hacin_class":"Hacinamiento Medio","hacin_score":711.9,"auto_score":83.3,"n_per":86,"n_hog":23,"source_year":2024},"geometry":{"type":"Polygon","coordinates":[[[-73.1907555759999,-39.3952245200744],[-73.1896758869999,-39.3982978360744],[-73.1920274689999,-39.3986767040744],[-73.1919205059999,-39.3971910370743],[-73.1920144289999,-39.3971023510744],[-73.1918010349999,-39.3963033210744],[-73.1909513139999,-39.3960655750744],[-73.1908776429999,-39.3962915260744],[-73.1911739879999,-39.3952223030744],[-73.1916440619999,-39.3943888260744],[-73.1910719859999,-39.3942513650744],[-73.1903991289999,-39.3939024310744],[-73.1900138809999,-39.3946347180744],[-73.1901478599999,-39.3946924340744],[-73.1899684409999,-39.3950295280744],[-73.1907555759999,-39.3952245200744]]]}},{"type":"Feature","properties":{"id":"9118023089008","commune":"Toltén","code":"09118","gse":"D","quintil":"Q1","nse_score":612.7,"educ":10.4,"educ_score":493.3,"hacin":1.452,"hacin_class":"Hacinamiento Leve","hacin_score":755.0,"auto_score":0.0,"n_per":45,"n_hog":17,"source_year":2024},"geometry":{"type":"Polygon","coordinates":[[[-73.1937206029999,-39.3947379390744],[-73.1917703149999,-39.3944025080744],[-73.1912939549999,-39.3952445270744],[-73.1923542429999,-39.3955357960744],[-73.1938789669999,-39.3951599630744],[-73.1937206029999,-39.3947379390744]]]}},{"type":"Feature","properties":{"id":"9118023089012","commune":"Toltén","code":"09118","gse":"E","quintil":"Q1","nse_score":585.4,"educ":8.3,"educ_score":353.3,"hacin":1.281,"hacin_class":"Hacinamiento Leve","hacin_score":791.2,"auto_score":0.0,"n_per":41,"n_hog":15,"source_year":2024},"geometry":{"type":"Polygon","coordinates":[[[-73.1939232999999,-39.3952317640744],[-73.1921845709999,-39.3955711220744],[-73.1918771049999,-39.3958520420744],[-73.1918878269999,-39.3966191920744],[-73.192047924,-39.3970818740744],[-73.1944325969999,-39.3964540850744],[-73.1941427079999,-39.3958471340744],[-73.1933202279999,-39.3960042390744],[-73.1941228729999,-39.3957877790744],[-73.1939232999999,-39.3952317640744]]]}},{"type":"Feature","properties":{"id":"9118023089013","commune":"Toltén","code":"09118","gse":"D","quintil":"Q1","nse_score":627.7,"educ":10.2,"educ_score":480.0,"hacin":1.308,"hacin_class":"Hacinamiento Leve","hacin_score":785.6,"auto_score":83.3,"n_per":17,"n_hog":6,"source_year":2024},"geometry":{"type":"Polygon","coordinates":[[[-73.1920946069999,-39.3955463420744],[-73.1912640189999,-39.3953175560744],[-73.1909979329999,-39.3959918370744],[-73.1917485669999,-39.3961788570744],[-73.191820688,-39.3958492820744],[-73.1920946069999,-39.3955463420744]]]}},{"type":"Feature","properties":{"id":"9118023089014","commune":"Toltén","code":"09118","gse":"E","quintil":"Q1","nse_score":603.1,"educ":9.4,"educ_score":426.7,"hacin":1.175,"hacin_class":"Hacinamiento Leve","hacin_score":813.8,"auto_score":29.4,"n_per":47,"n_hog":16,"source_year":2024},"geometry":{"type":"Polygon","coordinates":[[[-73.1966176939999,-39.3953851130744],[-73.1953660799999,-39.3957179530744],[-73.1955622439999,-39.3961852920744],[-73.1968312269999,-39.3958496780744],[-73.1966176939999,-39.3953851130744]]]}},{"type":"Feature","properties":{"id":"9118023089015","commune":"Toltén","code":"09118","gse":"E","quintil":"Q1","nse_score":576.0,"educ":6.9,"educ_score":260.0,"hacin":1.0,"hacin_class":"Hacinamiento Leve","hacin_score":851.1,"auto_score":0.0,"n_per":10,"n_hog":6,"source_year":2024},"geometry":{"type":"Polygon","coordinates":[[[-73.1980554609999,-39.3963175820744],[-73.1983315069999,-39.3962208830744],[-73.1988744759999,-39.3963198210744],[-73.1992196319999,-39.3969603530744],[-73.1982649439999,-39.3973002860744],[-73.1984347709999,-39.3981305040744],[-73.2010731929999,-39.3971749410744],[-73.2011304919999,-39.3970134660744],[-73.2008490269999,-39.3959911340744],[-73.1999461599999,-39.3958708300744],[-73.1999448519999,-39.3962409010744],[-73.2001884439999,-39.3969133480744],[-73.1998929779999,-39.3962654000744],[-73.1998849139999,-39.3958648370744],[-73.1987590659999,-39.3954326090744],[-73.1978342149999,-39.3956610470744],[-73.1980554609999,-39.3963175820744]]]}},{"type":"Feature","properties":{"id":"9118023089016","commune":"Toltén","code":"09118","gse":"E","quintil":"Q1","nse_score":584.8,"educ":9.0,"educ_score":400.0,"hacin":1.347,"hacin_class":"Hacinamiento Leve","hacin_score":777.2,"auto_score":41.7,"n_per":66,"n_hog":23,"source_year":2024},"geometry":{"type":"Polygon","coordinates":[[[-73.1947413419999,-39.3968603760744],[-73.1965388969999,-39.3968170750744],[-73.1979685109999,-39.3963084370744],[-73.1977580619999,-39.3956698900744],[-73.1947013629999,-39.3964640290744],[-73.1947413419999,-39.3968603760744]]]}},{"type":"Feature","properties":{"id":"9118023089020","commune":"Toltén","code":"09118","gse":"C3","quintil":"Q3","nse_score":692.6,"educ":10.4,"educ_score":493.3,"hacin":0.688,"hacin_class":"Sin Hacinamiento","hacin_score":917.6,"auto_score":100.0,"n_per":11,"n_hog":5,"source_year":2024},"geometry":{"type":"MultiPolygon","coordinates":[[[[-73.1939825689999,-39.3966420460744],[-73.1919672749999,-39.3971979300744],[-73.1920068669999,-39.3980145810744],[-73.1940454169999,-39.3975349930744],[-73.1939825689999,-39.3966420460744]]],[[[-73.1940730839999,-39.3966108370744],[-73.1940925619999,-39.3975225870743],[-73.1955713869999,-39.3971583860744],[-73.1955843129999,-39.3986718430744],[-73.1970941579999,-39.3986160380744],[-73.1983740769999,-39.3981524860744],[-73.1982003099999,-39.3973230280744],[-73.1969463899999,-39.3977675690744],[-73.1967297929999,-39.3968191380744],[-73.1948039009999,-39.3969313400744],[-73.1946763609999,-39.3968379940744],[-73.1946446859999,-39.3964725860744],[-73.1940730839999,-39.3966108370744]]]]}},{"type":"Feature","properties":{"id":"9118023089009","commune":"Toltén","code":"09118","gse":"E","quintil":"Q1","nse_score":549.6,"educ":10.7,"educ_score":513.3,"hacin":1.565,"hacin_class":"Hacinamiento Medio","hacin_score":730.8,"auto_score":208.3,"n_per":36,"n_hog":12,"source_year":2024},"geometry":{"type":"MultiPolygon","coordinates":[[[[-73.1945001949999,-39.3963910370744],[-73.1954824119999,-39.3962035000744],[-73.1952923739999,-39.3957509180744],[-73.1943115619999,-39.3959872370744],[-73.1945001949999,-39.3963910370744]]],[[[-73.1939832259999,-39.3951917350744],[-73.1942701439999,-39.3959146080744],[-73.1952626979999,-39.3956478390744],[-73.1949490539999,-39.3949342930744],[-73.1939832259999,-39.3951917350744]]]]}},{"type":"Feature","properties":{"id":"9118023091001","commune":"Toltén","code":"09118","gse":"D","quintil":"Q1","nse_score":615.9,"educ":10.2,"educ_score":480.0,"hacin":1.077,"hacin_class":"Hacinamiento Leve","hacin_score":834.6,"auto_score":42.2,"n_per":195,"n_hog":83,"source_year":2024},"geometry":{"type":"Polygon","coordinates":[[[-73.2196654639999,-39.3959050960744],[-73.2195365379999,-39.3957532620744],[-73.2194277089999,-39.3954450890744],[-73.2181217519999,-39.3960801460744],[-73.2182952669999,-39.3961390620744],[-73.2183215269999,-39.3962663070744],[-73.2180745239999,-39.3961041980744],[-73.2173082049999,-39.3962088180744],[-73.2175117509999,-39.3965706630744],[-73.2175839169999,-39.3969190010744],[-73.2173876269999,-39.3965092050744],[-73.2171249079999,-39.3967743400744],[-73.2166045359999,-39.3977899810744],[-73.2159689489999,-39.3983088530744],[-73.2155218769999,-39.3984907050744],[-73.2159680459999,-39.3988668260744],[-73.2154753199999,-39.3985059110743],[-73.2148717849999,-39.3986117340744],[-73.2148905529999,-39.3988440570744],[-73.2150131509999,-39.3988615400744],[-73.2150176779999,-39.3989270080743],[-73.2148652369999,-39.3988576600743],[-73.2148440859999,-39.3986149700743],[-73.2146371719999,-39.3986391370743],[-73.2149180409999,-39.3994007850744],[-73.2145781039999,-39.3986433130743],[-73.2136887339999,-39.3985879540744],[-73.213614376,-39.3991263070744],[-73.2142207829999,-39.3993571690744],[-73.2144908109999,-39.4001375780744],[-73.2149146219999,-39.4004591530744],[-73.2144580929999,-39.4001673210743],[-73.2141963529999,-39.3993999450743],[-73.2135816589999,-39.3991590250744],[-73.2136291529999,-39.3985866000744],[-73.2122951459999,-39.3982752560743],[-73.2123992279999,-39.3987868770744],[-73.2122084799999,-39.3990815020744],[-73.2128067949999,-39.3992799490744],[-73.2125105519999,-39.3992585340744],[-73.212172312,-39.3990986340744],[-73.2123606459999,-39.3987647960744],[-73.2122559499999,-39.3982579700743],[-73.2118543679999,-39.3980614640744],[-73.2118514949999,-39.3984153450744],[-73.2117705519999,-39.3984731860743],[-73.2113693059999,-39.3983026060744],[-73.2117756,-39.3984051870743],[-73.211791478,-39.3980291650744],[-73.2109916999999,-39.3977291990743],[-73.2102171919999,-39.3976678050743],[-73.2102393129999,-39.3980227590744],[-73.2112122029999,-39.3981617410744],[-73.2107022289999,-39.3981082030744],[-73.2107946079999,-39.3982581090744],[-73.2107196549999,-39.3984222920744],[-73.2099173069999,-39.3985671240744],[-73.2105589679999,-39.3988690290744],[-73.2114007119999,-39.3988003090744],[-73.2106222959999,-39.3989244430744],[-73.2107473469999,-39.3990876510744],[-73.2107190559999,-39.3996819120744],[-73.2108874239999,-39.3998384740743],[-73.2132361619999,-39.4003574310743],[-73.2134033979999,-39.4002809320744],[-73.2137356789999,-39.4002562790744],[-73.2142698939999,-39.4003034320743],[-73.2132904379999,-39.4003785700743],[-73.2147790449999,-39.4008764480744],[-73.2152106729999,-39.4002319840744],[-73.2150919019999,-39.3999207510744],[-73.2163242049999,-39.3996693590743],[-73.2173125759999,-39.3991349090744],[-73.2180342869999,-39.3984972570743],[-73.2187530029999,-39.3972350810744],[-73.2202348069999,-39.3965933130744],[-73.2213765919999,-39.3966313670744],[-73.2217338959999,-39.3965473100744],[-73.221792778,-39.3964264020744],[-73.2209906189999,-39.3954500040744],[-73.2205996709999,-39.3952865300744],[-73.219462899,-39.3954379130744],[-73.2196654639999,-39.3959050960744]]]}},{"type":"Feature","properties":{"id":"9118023091003","commune":"Toltén","code":"09118","gse":"D","quintil":"Q2","nse_score":648.3,"educ":11.2,"educ_score":546.7,"hacin":1.233,"hacin_class":"Hacinamiento Leve","hacin_score":801.6,"auto_score":0.0,"n_per":249,"n_hog":83,"source_year":2024},"geometry":{"type":"Polygon","coordinates":[[[-73.2055904309999,-39.3984764650744],[-73.2064120449999,-39.3991385140744],[-73.2068826889999,-39.4003100070743],[-73.2070543049999,-39.4004105210743],[-73.2071144569999,-39.4005798900744],[-73.2074975479999,-39.4007511260743],[-73.2072091829999,-39.4006833300744],[-73.2068959459999,-39.4003430550744],[-73.2072278119999,-39.4011703260743],[-73.2074621429999,-39.4014320190743],[-73.2080582119999,-39.4017297670744],[-73.2103286829999,-39.4024103780744],[-73.2119020939999,-39.4022158570743],[-73.2125118229999,-39.4002849530743],[-73.2111828729999,-39.4000554420744],[-73.2111101419999,-39.4002864900744],[-73.2111131589999,-39.4000362140744],[-73.2105612349999,-39.3997048980743],[-73.2100473759999,-39.3998512780744],[-73.2103874669999,-39.4008455330744],[-73.2100048209999,-39.3998571880744],[-73.2095266619999,-39.3999379380744],[-73.2097491479999,-39.4008120870744],[-73.2094780169999,-39.3999602770743],[-73.2090403139999,-39.3999991830743],[-73.2093432049999,-39.4010856520744],[-73.2089280909999,-39.4000416310744],[-73.2085804689999,-39.4001179590744],[-73.2085606279999,-39.4008622870744],[-73.2087933089999,-39.4009346710744],[-73.2085594609999,-39.4008813140744],[-73.2085379089999,-39.4012494190744],[-73.2088906019999,-39.4013968140744],[-73.2085210639999,-39.4013106770743],[-73.2080052989999,-39.4011414640743],[-73.2079598759999,-39.4009558820744],[-73.2080112779999,-39.4002250420743],[-73.2088984759999,-39.3999527480743],[-73.2085464069999,-39.3984527760744],[-73.2081873069999,-39.3981162530744],[-73.2076226009999,-39.3979679690744],[-73.2068017139999,-39.3974432570744],[-73.2063432729999,-39.3972966750744],[-73.2055904309999,-39.3984764650744]]]}},{"type":"Feature","properties":{"id":"9118023091007","commune":"Toltén","code":"09118","gse":"E","quintil":"Q1","nse_score":610.6,"educ":9.1,"educ_score":406.7,"hacin":1.29,"hacin_class":"Hacinamiento Leve","hacin_score":789.3,"auto_score":55.6,"n_per":40,"n_hog":18,"source_year":2024},"geometry":{"type":"Polygon","coordinates":[[[-73.2085928549999,-39.3984538440744],[-73.2089550319999,-39.3999442110744],[-73.2094525709999,-39.3998813220744],[-73.2090284209999,-39.3984898590744],[-73.2085928549999,-39.3984538440744]]]}},{"type":"Feature","properties":{"id":"9118023091008","commune":"Toltén","code":"09118","gse":"D","quintil":"Q2","nse_score":645.6,"educ":10.8,"educ_score":520.0,"hacin":1.278,"hacin_class":"Hacinamiento Leve","hacin_score":792.0,"auto_score":200.0,"n_per":23,"n_hog":11,"source_year":2024},"geometry":{"type":"Polygon","coordinates":[[[-73.2094916699999,-39.3998545370744],[-73.2099131869999,-39.3998114890744],[-73.209773304,-39.3995825190743],[-73.2098599169999,-39.3993407150744],[-73.2095933909999,-39.3985578590744],[-73.2090746729999,-39.3984865750744],[-73.2094916699999,-39.3998545370744]]]}},{"type":"Feature","properties":{"id":"9118023091010","commune":"Toltén","code":"09118","gse":"D","quintil":"Q2","nse_score":656.2,"educ":12.0,"educ_score":600.0,"hacin":1.091,"hacin_class":"Hacinamiento Leve","hacin_score":831.7,"auto_score":166.7,"n_per":12,"n_hog":6,"source_year":2024},"geometry":{"type":"Polygon","coordinates":[[[-73.2085489919999,-39.4001260200744],[-73.2080409249999,-39.4002777880743],[-73.2080273249999,-39.4006170410743],[-73.2085281899999,-39.4007530930743],[-73.2085489919999,-39.4001260200744]]]}},{"type":"Feature","properties":{"id":"9118023091011","commune":"Toltén","code":"09118","gse":"E","quintil":"Q1","nse_score":569.7,"educ":11.2,"educ_score":546.7,"hacin":1.458,"hacin_class":"Hacinamiento Leve","hacin_score":753.5,"auto_score":0.0,"n_per":35,"n_hog":8,"source_year":2024},"geometry":{"type":"Polygon","coordinates":[[[-73.2085239889999,-39.4007976050743],[-73.2080355689999,-39.4006479630743],[-73.2080143009999,-39.4010643350744],[-73.2084971479999,-39.4012507360744],[-73.2085239889999,-39.4007976050743]]]}},{"type":"Feature","properties":{"id":"9118023091002","commune":"Toltén","code":"09118","gse":"D","quintil":"Q1","nse_score":635.1,"educ":10.6,"educ_score":506.7,"hacin":1.583,"hacin_class":"Hacinamiento Medio","hacin_score":727.0,"auto_score":71.4,"n_per":19,"n_hog":8,"source_year":2024},"geometry":{"type":"MultiPolygon","coordinates":[[[[-73.2090100119999,-39.3980225430744],[-73.2100937929999,-39.3980079490743],[-73.2101437619999,-39.3976581680744],[-73.2088829909999,-39.3977598130744],[-73.2090100119999,-39.3980225430744]]],[[[-73.2072012199999,-39.3976250900744],[-73.2076656959999,-39.3979067230744],[-73.2080770899999,-39.3979588080744],[-73.2085706749999,-39.3983832070744],[-73.2090158969999,-39.3983862830744],[-73.2088060529999,-39.3977692130744],[-73.2077735959999,-39.3977863970744],[-73.2072012199999,-39.3976250900744]]],[[[-73.2178629389999,-39.3955995060744],[-73.2168228299999,-39.3956596640744],[-73.2166570889999,-39.3959505940744],[-73.216762119,-39.3966619940744],[-73.2166744689999,-39.3969950700744],[-73.2159477409999,-39.3978984610744],[-73.2157147759999,-39.3980655100744],[-73.2154882429999,-39.3979801360744],[-73.2153694119999,-39.3981557600744],[-73.214592664,-39.3982598630744],[-73.2126919879999,-39.3977805950743],[-73.2125168409999,-39.3978533260744],[-73.2124481139999,-39.3977309370744],[-73.2123395609999,-39.3978440430744],[-73.2119760489999,-39.3978450140744],[-73.211529675,-39.3976151600744],[-73.2116074819999,-39.3975474920744],[-73.2109591059999,-39.3974489800744],[-73.2093548989999,-39.3973751050744],[-73.2091028629999,-39.3974794410744],[-73.2090946319999,-39.3973055130744],[-73.2089095739999,-39.3972698700744],[-73.2079034389999,-39.3976085340743],[-73.2068995329999,-39.3971995490744],[-73.206448571,-39.3971316580744],[-73.2063946889999,-39.3972160990744],[-73.2077687369999,-39.3977202450744],[-73.2100581039999,-39.3976030120744],[-73.2109740019999,-39.3976526840744],[-73.2128296599999,-39.3983572340744],[-73.2135334199999,-39.3985052830744],[-73.2151251459999,-39.3985144710744],[-73.2158185879999,-39.3982963810744],[-73.2163727439999,-39.3978880850743],[-73.2168520649999,-39.3972885660744],[-73.217065998,-39.3967440060744],[-73.2172905259999,-39.3965626490744],[-73.2172139389999,-39.3961697920744],[-73.2181497999999,-39.3960012960744],[-73.2178629389999,-39.3955995060744]]]]}},{"type":"Feature","properties":{"id":"9118023091006","commune":"Toltén","code":"09118","gse":"D","quintil":"Q2","nse_score":663.2,"educ":10.9,"educ_score":526.7,"hacin":1.357,"hacin_class":"Hacinamiento Leve","hacin_score":775.1,"auto_score":0.0,"n_per":19,"n_hog":10,"source_year":2024},"geometry":{"type":"MultiPolygon","coordinates":[[[[-73.2098977789999,-39.3997249130744],[-73.2101644339999,-39.3997824190744],[-73.2105187759999,-39.3996515160744],[-73.2106442129999,-39.3991255710744],[-73.2104554089999,-39.3989105010744],[-73.2096423969999,-39.3985619550744],[-73.2099060979999,-39.3993346960744],[-73.2098977789999,-39.3997249130744]]],[[[-73.2105812659999,-39.3981273240744],[-73.2089730669999,-39.3980555380744],[-73.2090560269999,-39.3983939740744],[-73.2098305449999,-39.3985403470744],[-73.2107243569999,-39.3983393150744],[-73.2105812659999,-39.3981273240744]]]]}},{"type":"Feature","properties":{"id":"9118033112001","commune":"Toltén","code":"09118","gse":"D","quintil":"Q1","nse_score":615.8,"educ":9.5,"educ_score":433.3,"hacin":1.375,"hacin_class":"Hacinamiento Leve","hacin_score":771.3,"auto_score":0.0,"n_per":22,"n_hog":9,"source_year":2024},"geometry":{"type":"Polygon","coordinates":[[[-73.0932324769999,-39.153913685076],[-73.0935059469999,-39.154034706076],[-73.0941244829999,-39.1532064270759],[-73.0938522529999,-39.153079005076],[-73.0932324769999,-39.153913685076]]]}},{"type":"Feature","properties":{"id":"9118033112002","commune":"Toltén","code":"09118","gse":"E","quintil":"Q1","nse_score":575.4,"educ":8.7,"educ_score":380.0,"hacin":1.5,"hacin_class":"Hacinamiento Medio","hacin_score":744.7,"auto_score":50.0,"n_per":24,"n_hog":10,"source_year":2024},"geometry":{"type":"Polygon","coordinates":[[[-73.0945505979999,-39.1539564940759],[-73.0949012109999,-39.153601513076],[-73.0941275859999,-39.153256381076],[-73.0938488799999,-39.1536380180759],[-73.0945505979999,-39.1539564940759]]]}},{"type":"Feature","properties":{"id":"9118033112004","commune":"Toltén","code":"09118","gse":"C3","quintil":"Q3","nse_score":685.5,"educ":11.6,"educ_score":573.3,"hacin":1.143,"hacin_class":"Hacinamiento Leve","hacin_score":820.7,"auto_score":100.0,"n_per":24,"n_hog":10,"source_year":2024},"geometry":{"type":"Polygon","coordinates":[[[-73.0935460329999,-39.1540527080759],[-73.0943080829999,-39.1543990660759],[-73.0945921719999,-39.1540170670759],[-73.0938260049999,-39.153669341076],[-73.0935460329999,-39.1540527080759]]]}},{"type":"Feature","properties":{"id":"9118033112005","commune":"Toltén","code":"09118","gse":"E","quintil":"Q1","nse_score":536.2,"educ":8.3,"educ_score":353.3,"hacin":1.204,"hacin_class":"Hacinamiento Leve","hacin_score":807.5,"auto_score":78.9,"n_per":53,"n_hog":19,"source_year":2024},"geometry":{"type":"Polygon","coordinates":[[[-73.0943484119999,-39.1549321870759],[-73.0952184289999,-39.155335071076],[-73.0961087769999,-39.1541493160759],[-73.0952376389999,-39.1537494750759],[-73.0943484119999,-39.1549321870759]]]}},{"type":"Feature","properties":{"id":"9118033112007","commune":"Toltén","code":"09118","gse":"E","quintil":"Q1","nse_score":579.7,"educ":8.7,"educ_score":380.0,"hacin":1.171,"hacin_class":"Hacinamiento Leve","hacin_score":814.6,"auto_score":55.6,"n_per":41,"n_hog":18,"source_year":2024},"geometry":{"type":"Polygon","coordinates":[[[-73.0952781159999,-39.1553626640759],[-73.096127195,-39.1557551840759],[-73.0969722719999,-39.154548960076],[-73.0961684469999,-39.1541769320759],[-73.0952781159999,-39.1553626640759]]]}},{"type":"Feature","properties":{"id":"9118033112009","commune":"Toltén","code":"09118","gse":"D","quintil":"Q2","nse_score":662.4,"educ":11.0,"educ_score":533.3,"hacin":1.412,"hacin_class":"Hacinamiento Leve","hacin_score":763.5,"auto_score":300.0,"n_per":24,"n_hog":10,"source_year":2024},"geometry":{"type":"Polygon","coordinates":[[[-73.0961869219999,-39.1557827950759],[-73.0966655259999,-39.1559946960759],[-73.0975059179999,-39.154795938076],[-73.0970319809999,-39.154576594076],[-73.0961869219999,-39.1557827950759]]]}},{"type":"Feature","properties":{"id":"9118033112012","commune":"Toltén","code":"09118","gse":"D","quintil":"Q1","nse_score":625.2,"educ":9.7,"educ_score":446.7,"hacin":1.491,"hacin_class":"Hacinamiento Leve","hacin_score":746.5,"auto_score":0.0,"n_per":85,"n_hog":30,"source_year":2024},"geometry":{"type":"Polygon","coordinates":[[[-73.0990941229999,-39.1555780700759],[-73.0982769839999,-39.1567512810759],[-73.0988940029999,-39.1570380290759],[-73.0991870189999,-39.1563601200759],[-73.0990628629999,-39.1562447780759],[-73.1005789499999,-39.1569022080759],[-73.1010347049999,-39.1569690940759],[-73.1011454489999,-39.1564678070759],[-73.0990941229999,-39.1555780700759]]]}},{"type":"Feature","properties":{"id":"9118033112013","commune":"Toltén","code":"09118","gse":"E","quintil":"Q1","nse_score":594.6,"educ":8.7,"educ_score":380.0,"hacin":1.2,"hacin_class":"Hacinamiento Leve","hacin_score":808.5,"auto_score":0.0,"n_per":12,"n_hog":8,"source_year":2024},"geometry":{"type":"Polygon","coordinates":[[[-73.0970414419999,-39.156567552076],[-73.0978043369999,-39.156692306076],[-73.0988657239999,-39.1575297020759],[-73.0991455349999,-39.1575406830759],[-73.0993444349999,-39.1573241460759],[-73.0972013009999,-39.1563355390759],[-73.0970414419999,-39.156567552076]]]}},{"type":"Feature","properties":{"id":"9118033112014","commune":"Toltén","code":"09118","gse":"E","quintil":"Q1","nse_score":589.0,"educ":8.8,"educ_score":386.7,"hacin":1.423,"hacin_class":"Hacinamiento Leve","hacin_score":761.0,"auto_score":30.3,"n_per":74,"n_hog":33,"source_year":2024},"geometry":{"type":"Polygon","coordinates":[[[-73.1027191009999,-39.1566094250759],[-73.1026930699999,-39.1569538870759],[-73.1034046319999,-39.156893516076],[-73.1026902779999,-39.1569908450759],[-73.1026618109999,-39.157367538076],[-73.1034434219999,-39.1572994260759],[-73.1026590199999,-39.1574044710759],[-73.1026265469999,-39.1578341770759],[-73.1037279339999,-39.1576736940759],[-73.1034693999999,-39.156626134076],[-73.1029552409999,-39.156388906076],[-73.1021838709999,-39.156371567076],[-73.102164436,-39.1565225610759],[-73.1027191009999,-39.1566094250759]]]}},{"type":"Feature","properties":{"id":"9118033112016","commune":"Toltén","code":"09118","gse":"D","quintil":"Q2","nse_score":648.0,"educ":10.8,"educ_score":520.0,"hacin":1.553,"hacin_class":"Hacinamiento Medio","hacin_score":733.5,"auto_score":175.0,"n_per":59,"n_hog":20,"source_year":2024},"geometry":{"type":"Polygon","coordinates":[[[-73.1012466129999,-39.1579106670759],[-73.101987672,-39.1578685270759],[-73.1020970539999,-39.156589164076],[-73.1012075249999,-39.156505647076],[-73.1009196619999,-39.1578086610759],[-73.1012466129999,-39.1579106670759]]]}},{"type":"Feature","properties":{"id":"9118033112017","commune":"Toltén","code":"09118","gse":"E","quintil":"Q1","nse_score":565.0,"educ":8.3,"educ_score":353.3,"hacin":1.3,"hacin_class":"Hacinamiento Leve","hacin_score":787.2,"auto_score":156.2,"n_per":39,"n_hog":17,"source_year":2024},"geometry":{"type":"Polygon","coordinates":[[[-73.1020569019999,-39.1578725150759],[-73.1025577229999,-39.1578247360759],[-73.1026131259999,-39.1565850120759],[-73.1021675539999,-39.1565782930759],[-73.1020569019999,-39.1578725150759]]]}},{"type":"Feature","properties":{"id":"9118033112018","commune":"Toltén","code":"09118","gse":"E","quintil":"Q1","nse_score":540.7,"educ":7.4,"educ_score":293.3,"hacin":1.5,"hacin_class":"Hacinamiento Medio","hacin_score":744.7,"auto_score":38.5,"n_per":33,"n_hog":13,"source_year":2024},"geometry":{"type":"Polygon","coordinates":[[[-73.1004620659999,-39.1569414800759],[-73.0997002939999,-39.1566220660759],[-73.0993746889999,-39.1572552600759],[-73.1003221229999,-39.1576088870759],[-73.1004620659999,-39.1569414800759]]]}},{"type":"Feature","properties":{"id":"9118033112019","commune":"Toltén","code":"09118","gse":"E","quintil":"Q1","nse_score":607.3,"educ":9.0,"educ_score":400.0,"hacin":1.321,"hacin_class":"Hacinamiento Leve","hacin_score":782.7,"auto_score":31.2,"n_per":37,"n_hog":16,"source_year":2024},"geometry":{"type":"Polygon","coordinates":[[[-73.1008140189999,-39.1578000650759],[-73.1010188299999,-39.1570409550759],[-73.1005282989999,-39.156961049076],[-73.1003868719999,-39.157635538076],[-73.1008140189999,-39.1578000650759]]]}},{"type":"Feature","properties":{"id":"9118033112020","commune":"Toltén","code":"09118","gse":"C3","quintil":"Q2","nse_score":683.1,"educ":11.7,"educ_score":580.0,"hacin":1.588,"hacin_class":"Hacinamiento Medio","hacin_score":725.9,"auto_score":55.6,"n_per":27,"n_hog":9,"source_year":2024},"geometry":{"type":"Polygon","coordinates":[[[-73.0992325659999,-39.1575607590759],[-73.1011475949999,-39.1583011660759],[-73.1018313949999,-39.1583790590759],[-73.1030924219999,-39.1581707420759],[-73.1039148319999,-39.1582475710759],[-73.1037579889999,-39.1577447890759],[-73.1014504009999,-39.1579982410759],[-73.1005253819999,-39.1577934940759],[-73.0994212519999,-39.1573594520759],[-73.0992325659999,-39.1575607590759]]]}},{"type":"Feature","properties":{"id":"9118033112008","commune":"Toltén","code":"09118","gse":"D","quintil":"Q1","nse_score":643.4,"educ":10.1,"educ_score":473.3,"hacin":1.333,"hacin_class":"Hacinamiento Leve","hacin_score":780.1,"auto_score":100.0,"n_per":12,"n_hog":5,"source_year":2024},"geometry":{"type":"MultiPolygon","coordinates":[[[[-73.0967350619999,-39.156036200076],[-73.0972152439999,-39.156258179076],[-73.0980356089999,-39.1550570910759],[-73.0975656269999,-39.1548235720759],[-73.0967350619999,-39.156036200076]]],[[[-73.0985226619999,-39.154501497076],[-73.0978792929999,-39.1554097880759],[-73.0982667529999,-39.155593770076],[-73.0986238159999,-39.1551667240759],[-73.0991825249999,-39.155169881076],[-73.0992804339999,-39.154945005076],[-73.0985226619999,-39.154501497076]]]]}},{"type":"Feature","properties":{"id":"9118033112003","commune":"Toltén","code":"09118","gse":"C3","quintil":"Q3","nse_score":686.8,"educ":11.1,"educ_score":540.0,"hacin":1.429,"hacin_class":"Hacinamiento Leve","hacin_score":759.9,"auto_score":0.0,"n_per":20,"n_hog":7,"source_year":2024},"geometry":{"type":"MultiPolygon","coordinates":[[[[-73.0929578449999,-39.1542835420759],[-73.0942888619999,-39.154904411076],[-73.0945529569999,-39.1545531580759],[-73.0932094569999,-39.1539446870759],[-73.0929578449999,-39.1542835420759]]],[[[-73.0943479999999,-39.1544172940759],[-73.0945763349999,-39.1545220640759],[-73.0951764039999,-39.153723942076],[-73.0949408789999,-39.1536200770759],[-73.0943479999999,-39.1544172940759]]]]}}]}