{"type":"FeatureCollection","features":[{"type":"Feature","properties":{"id":"11303013048001","commune":"Tortel","code":"11303","gse":"C2","quintil":"Q4","nse_score":712.6,"educ":12.9,"educ_score":660.0,"hacin":1.29,"hacin_class":"Hacinamiento Leve","hacin_score":789.3,"auto_score":147.1,"n_per":40,"n_hog":17,"source_year":2024,"crime_score":0.6383,"crime_nivel":"Muy Bajo","crime_color":"#4caf50"},"geometry":{"type":"Polygon","coordinates":[[[-73.5305403419999,-47.7935720660613],[-73.5306471299999,-47.7937693830613],[-73.5299546959999,-47.7942547390613],[-73.5290033539999,-47.7942946280613],[-73.528991474,-47.7941362520613],[-73.5283709139999,-47.7941573860613],[-73.5284333089999,-47.7945810150613],[-73.5287953949999,-47.7947243850613],[-73.530489799,-47.7947139720614],[-73.5305886239999,-47.7943916930614],[-73.5312860489999,-47.7940341790613],[-73.5316427849999,-47.7943341470613],[-73.5311009149999,-47.7933354210613],[-73.5305403419999,-47.7935720660613]]]}},{"type":"Feature","properties":{"id":"11303013048002","commune":"Tortel","code":"11303","gse":"C3","quintil":"Q3","nse_score":680.4,"educ":11.8,"educ_score":586.7,"hacin":1.15,"hacin_class":"Hacinamiento Leve","hacin_score":819.1,"auto_score":111.1,"n_per":69,"n_hog":36,"source_year":2024,"crime_score":0.659,"crime_nivel":"Muy Bajo","crime_color":"#4caf50"},"geometry":{"type":"Polygon","coordinates":[[[-73.5320254029999,-47.7939132140613],[-73.5331075889999,-47.7949486840614],[-73.532177584,-47.7952896650613],[-73.5322868079999,-47.7954893970613],[-73.5327163979999,-47.7954167280614],[-73.5332078689999,-47.7960045560614],[-73.5337632749999,-47.7964213510613],[-73.5334076169999,-47.7965515360613],[-73.5338238889999,-47.7967591080613],[-73.5342827549999,-47.7972160400614],[-73.5352047439999,-47.7976738450614],[-73.5358668829999,-47.7982354060613],[-73.5358769769999,-47.7988625130614],[-73.5355775099999,-47.7994755900613],[-73.535477624,-47.8000240200614],[-73.5356158529999,-47.8005455870613],[-73.5357958099999,-47.8007496650614],[-73.5367177279999,-47.8005903500613],[-73.5365366009999,-47.8001673160614],[-73.5362371459999,-47.8002285570613],[-73.5361358839999,-47.8000180420613],[-73.5365245669999,-47.7989476880613],[-73.5365187019999,-47.7980804650613],[-73.5356621509999,-47.7973540310613],[-73.5348208749999,-47.7969369190614],[-73.5343444109999,-47.7964929370613],[-73.5344490399999,-47.7954533370613],[-73.5335655319999,-47.7952373470614],[-73.5327526959999,-47.7936658370613],[-73.5320254029999,-47.7939132140613]]]}},{"type":"Feature","properties":{"id":"11303013048005","commune":"Tortel","code":"11303","gse":"C3","quintil":"Q3","nse_score":697.2,"educ":12.7,"educ_score":646.7,"hacin":1.263,"hacin_class":"Hacinamiento Leve","hacin_score":795.1,"auto_score":90.9,"n_per":24,"n_hog":11,"source_year":2024,"crime_score":0.6387,"crime_nivel":"Muy Bajo","crime_color":"#4caf50"},"geometry":{"type":"Polygon","coordinates":[[[-73.5323032279999,-47.7945426350613],[-73.5321815809999,-47.7945910640613],[-73.5322616629999,-47.7948624660613],[-73.5319819229999,-47.7949205840614],[-73.5320479929999,-47.7950472710613],[-73.5327275579999,-47.7950618780614],[-73.5330761089999,-47.7949457670613],[-73.5323000319999,-47.7941470920613],[-73.5319058329999,-47.7942869370613],[-73.5321093289999,-47.7945745530614],[-73.5323032279999,-47.7945426350613]]]}},{"type":"Feature","properties":{"id":"11303013048014","commune":"Tortel","code":"11303","gse":"D","quintil":"Q1","nse_score":615.0,"educ":11.6,"educ_score":573.3,"hacin":2.091,"hacin_class":"Hacinamiento Medio","hacin_score":619.0,"auto_score":0.0,"n_per":23,"n_hog":6,"source_year":2024,"crime_score":0.6675,"crime_nivel":"Muy Bajo","crime_color":"#4caf50"},"geometry":{"type":"Polygon","coordinates":[[[-73.5305528669999,-47.7957161060613],[-73.5296506599999,-47.7956851830613],[-73.5296476019999,-47.7960092720613],[-73.530444885,-47.7960980680613],[-73.5305528669999,-47.7957161060613]]]}},{"type":"Feature","properties":{"id":"11303013048018","commune":"Tortel","code":"11303","gse":"C3","quintil":"Q2","nse_score":668.3,"educ":10.9,"educ_score":526.7,"hacin":0.964,"hacin_class":"Sin Hacinamiento","hacin_score":858.7,"auto_score":38.5,"n_per":27,"n_hog":13,"source_year":2024,"crime_score":0.6499,"crime_nivel":"Muy Bajo","crime_color":"#4caf50"},"geometry":{"type":"Polygon","coordinates":[[[-73.5309515979999,-47.7961121520613],[-73.5311631759999,-47.7965122150614],[-73.5314993709999,-47.7964016450613],[-73.5324712919999,-47.7971553590613],[-73.5331892789999,-47.7970400370613],[-73.5342532589999,-47.7972115690614],[-73.5329848779999,-47.7962271580614],[-73.5321462089999,-47.7963630700613],[-73.5319674009999,-47.7960928640614],[-73.5309515979999,-47.7961121520613]]]}},{"type":"Feature","properties":{"id":"11303013048019","commune":"Tortel","code":"11303","gse":"C3","quintil":"Q2","nse_score":662.3,"educ":11.0,"educ_score":533.3,"hacin":1.1,"hacin_class":"Hacinamiento Leve","hacin_score":829.8,"auto_score":0.0,"n_per":11,"n_hog":4,"source_year":2024,"crime_score":0.6469,"crime_nivel":"Muy Bajo","crime_color":"#4caf50"},"geometry":{"type":"Polygon","coordinates":[[[-73.5311733759999,-47.7965292890613],[-73.5320592529999,-47.7975460060613],[-73.5327160239999,-47.7971596650613],[-73.5323572759999,-47.7971223200613],[-73.5314847409999,-47.7964179650613],[-73.5311733759999,-47.7965292890613]]]}},{"type":"Feature","properties":{"id":"11303013048026","commune":"Tortel","code":"11303","gse":"C2","quintil":"Q3","nse_score":703.4,"educ":13.8,"educ_score":720.0,"hacin":1.625,"hacin_class":"Hacinamiento Medio","hacin_score":718.1,"auto_score":0.0,"n_per":26,"n_hog":9,"source_year":2024,"crime_score":0.6371,"crime_nivel":"Muy Bajo","crime_color":"#4caf50"},"geometry":{"type":"Polygon","coordinates":[[[-73.5382901309999,-47.8019891130613],[-73.5372118769999,-47.8009500500613],[-73.5368748029999,-47.8009657530614],[-73.5367251299999,-47.8006076380613],[-73.5364188619999,-47.8006702730613],[-73.5366568739999,-47.8012551070613],[-73.5366243939999,-47.8015072400613],[-73.5367917719999,-47.8016681400614],[-73.5368915969999,-47.8016225220614],[-73.5374556489999,-47.8021328690613],[-73.5380478159999,-47.8019024170614],[-73.5381631649999,-47.8020425630613],[-73.5382901309999,-47.8019891130613]]]}},{"type":"Feature","properties":{"id":"11303013048029","commune":"Tortel","code":"11303","gse":"D","quintil":"Q2","nse_score":651.5,"educ":13.5,"educ_score":700.0,"hacin":2.0,"hacin_class":"Hacinamiento Medio","hacin_score":638.3,"auto_score":0.0,"n_per":4,"n_hog":0,"source_year":2024,"crime_score":0.6484,"crime_nivel":"Muy Bajo","crime_color":"#4caf50"},"geometry":{"type":"Polygon","coordinates":[[[-73.5366441809999,-47.8016564090613],[-73.5357282299999,-47.8013776570613],[-73.535274065,-47.8015213240614],[-73.535367774,-47.8017391660613],[-73.5352484549999,-47.8015265460614],[-73.5345978379999,-47.8016674140614],[-73.5354434139999,-47.8021000430614],[-73.5361549849999,-47.8016412040614],[-73.5365538249999,-47.8017690980614],[-73.5366441809999,-47.8016564090613]]]}},{"type":"Feature","properties":{"id":"11303013048034","commune":"Tortel","code":"11303","gse":"C3","quintil":"Q2","nse_score":665.3,"educ":13.7,"educ_score":713.3,"hacin":1.286,"hacin_class":"Hacinamiento Leve","hacin_score":790.3,"auto_score":0.0,"n_per":9,"n_hog":6,"source_year":2024,"crime_score":0.6452,"crime_nivel":"Muy Bajo","crime_color":"#4caf50"},"geometry":{"type":"Polygon","coordinates":[[[-73.5470480029999,-47.8023084010614],[-73.5473579759999,-47.8031192260613],[-73.5459668119999,-47.8036116320614],[-73.5455934149999,-47.8042149810613],[-73.5431883139999,-47.8047607720614],[-73.5435197749999,-47.8050558490614],[-73.5440098639999,-47.8050803110613],[-73.5449923669999,-47.8047483050613],[-73.5459113899999,-47.8047689690614],[-73.5459203269999,-47.8041558760614],[-73.5462214989999,-47.8037502530613],[-73.5467061819999,-47.8035145900614],[-73.5469862939999,-47.8035556130614],[-73.5471015609999,-47.8033993970614],[-73.5477484259999,-47.8032760670614],[-73.5475555559999,-47.8026994830613],[-73.5479621599999,-47.8036491800613],[-73.5477919949999,-47.8039897870613],[-73.5463177709999,-47.8049742680614],[-73.5468894409999,-47.8053203980614],[-73.5484706799999,-47.8042837760613],[-73.5486202149999,-47.8040060650614],[-73.5490804909999,-47.8038337220613],[-73.5489330939999,-47.8036013940614],[-73.5485419039999,-47.8037090880614],[-73.5478345059999,-47.8021388280614],[-73.5470480029999,-47.8023084010614]]]}},{"type":"Feature","properties":{"id":"11303013048044","commune":"Tortel","code":"11303","gse":"E","quintil":"Q1","nse_score":551.1,"educ":9.0,"educ_score":400.0,"hacin":1.111,"hacin_class":"Hacinamiento Leve","hacin_score":827.4,"auto_score":71.4,"n_per":10,"n_hog":6,"source_year":2024,"crime_score":0.6857,"crime_nivel":"Muy Bajo","crime_color":"#4caf50"},"geometry":{"type":"Polygon","coordinates":[[[-73.5424590909999,-47.8047874680613],[-73.5427541029999,-47.8049837930614],[-73.5428523609999,-47.8047925190614],[-73.5429169039999,-47.8048704250614],[-73.5427732429999,-47.8049965300613],[-73.5434557379999,-47.8053647520614],[-73.5436635589999,-47.8050852880613],[-73.5433810669999,-47.8049977650614],[-73.542801961,-47.8044041470614],[-73.5426227049999,-47.8044710260613],[-73.5424590909999,-47.8047874680613]]]}},{"type":"Feature","properties":{"id":"11303013048047","commune":"Tortel","code":"11303","gse":"C3","quintil":"Q2","nse_score":671.3,"educ":11.1,"educ_score":540.0,"hacin":1.0,"hacin_class":"Hacinamiento Leve","hacin_score":851.1,"auto_score":0.0,"n_per":9,"n_hog":6,"source_year":2024,"crime_score":0.6431,"crime_nivel":"Muy Bajo","crime_color":"#4caf50"},"geometry":{"type":"Polygon","coordinates":[[[-73.5449549529999,-47.8047844840614],[-73.5441144709999,-47.8050875870614],[-73.5436926749999,-47.8050863840614],[-73.5434765969999,-47.8053760420613],[-73.5436007699999,-47.8054432510614],[-73.5436672909999,-47.8053752770614],[-73.5437789519999,-47.8053385550614],[-73.5436216889999,-47.8054545730614],[-73.5438471579999,-47.8055518810614],[-73.5455840179999,-47.8051875090614],[-73.5458934589999,-47.8052408410614],[-73.5461755799999,-47.8051631140614],[-73.5462835089999,-47.8049809110613],[-73.5459436199999,-47.8047740690614],[-73.5449549529999,-47.8047844840614]]]}},{"type":"Feature","properties":{"id":"11303013048015","commune":"Tortel","code":"11303","gse":"D","quintil":"Q2","nse_score":661.4,"educ":13.0,"educ_score":666.7,"hacin":1.167,"hacin_class":"Hacinamiento Leve","hacin_score":815.6,"auto_score":0.0,"n_per":7,"n_hog":4,"source_year":2024,"crime_score":0.6459,"crime_nivel":"Muy Bajo","crime_color":"#4caf50"},"geometry":{"type":"MultiPolygon","coordinates":[[[[-73.5333701909999,-47.7965292400613],[-73.5337150599999,-47.7964119080613],[-73.5332110599999,-47.7960229780613],[-73.5329314399999,-47.7961378490613],[-73.5333701909999,-47.7965292400613]]],[[[-73.5313073719999,-47.7956796380613],[-73.5318150339999,-47.7958756860613],[-73.5321552269999,-47.7963435100613],[-73.5329692429999,-47.7962111910613],[-73.5323505439999,-47.7956498960613],[-73.5313073719999,-47.7956796380613]]]]}},{"type":"Feature","properties":{"id":"11303013048025","commune":"Tortel","code":"11303","gse":"C3","quintil":"Q3","nse_score":686.7,"educ":13.0,"educ_score":666.7,"hacin":1.083,"hacin_class":"Hacinamiento Leve","hacin_score":833.3,"auto_score":0.0,"n_per":13,"n_hog":8,"source_year":2024,"crime_score":0.6389,"crime_nivel":"Muy Bajo","crime_color":"#4caf50"},"geometry":{"type":"MultiPolygon","coordinates":[[[[-73.5346210249999,-47.8016005050614],[-73.5355491099999,-47.8014464500614],[-73.5356974379999,-47.8013707980613],[-73.5354990119999,-47.8013115630614],[-73.5353591619999,-47.8010592950614],[-73.5353035099999,-47.8008483260613],[-73.535189752,-47.8008563060614],[-73.5345899419999,-47.8012048270613],[-73.5346210249999,-47.8016005050614]]],[[[-73.5359325589999,-47.8013655700613],[-73.5361770689999,-47.8015441370614],[-73.5367249989999,-47.8016391800614],[-73.5363930659999,-47.8006749300614],[-73.53580016,-47.8007674550613],[-73.5359084899999,-47.8009024050613],[-73.5360148749999,-47.8011526880614],[-73.5359325589999,-47.8013655700613]]],[[[-73.5355204849999,-47.8012996780614],[-73.5359070029999,-47.8013597560614],[-73.5359873429999,-47.8011551190614],[-73.5357881349999,-47.8008281000614],[-73.535739137,-47.8006111420613],[-73.5356013669999,-47.8005626010613],[-73.5353286669999,-47.8008405270613],[-73.5355204849999,-47.8012996780614]]]]}},{"type":"Feature","properties":{"id":"11303013048031","commune":"Tortel","code":"11303","gse":"C1","quintil":"Q5","nse_score":768.3,"educ":14.2,"educ_score":746.7,"hacin":1.0,"hacin_class":"Hacinamiento Leve","hacin_score":851.1,"auto_score":0.0,"n_per":13,"n_hog":7,"source_year":2024,"crime_score":0.6102,"crime_nivel":"Muy Bajo","crime_color":"#4caf50"},"geometry":{"type":"MultiPolygon","coordinates":[[[[-73.5383809049999,-47.8035160260614],[-73.5376199809999,-47.8036104680614],[-73.5380063199999,-47.8037337180614],[-73.5383809049999,-47.8035160260614]]],[[[-73.5369343859999,-47.8034948590614],[-73.5368586279999,-47.8037262460614],[-73.5369241919999,-47.8039584830613],[-73.537305553,-47.8040185750614],[-73.5375185979999,-47.8042841160614],[-73.5378089249999,-47.8042640090614],[-73.5381777919999,-47.8039900790614],[-73.5379919069999,-47.8037515310613],[-73.5376632719999,-47.8037031630614],[-73.5372259609999,-47.8031086280614],[-73.5372726659999,-47.8030395980614],[-73.5369343859999,-47.8034948590614]]],[[[-73.5367869799999,-47.8020658100613],[-73.5376073989999,-47.8035945950614],[-73.5380523749999,-47.8034421740614],[-73.537300823,-47.8021886100613],[-73.5367869799999,-47.8020658100613]]],[[[-73.5367684839999,-47.8020423630614],[-73.5372747099999,-47.8021632380613],[-73.536672215,-47.8016596750614],[-73.5365691149999,-47.8017887450614],[-73.5367684839999,-47.8020423630614]]]]}},{"type":"Feature","properties":{"id":"11303013048020","commune":"Tortel","code":"11303","gse":"E","quintil":"Q1","nse_score":572.5,"educ":8.7,"educ_score":380.0,"hacin":1.546,"hacin_class":"Hacinamiento Medio","hacin_score":735.0,"auto_score":0.0,"n_per":17,"n_hog":7,"source_year":2024,"crime_score":0.6805,"crime_nivel":"Muy Bajo","crime_color":"#4caf50"},"geometry":{"type":"MultiPolygon","coordinates":[[[[-73.5304397009999,-47.7993724350614],[-73.5310925469999,-47.7994092300613],[-73.5311396539999,-47.7988938800613],[-73.5313591529999,-47.7985442760613],[-73.5313959729999,-47.7982277460614],[-73.5312540599999,-47.7981196230613],[-73.5307620649999,-47.7981354950613],[-73.5305021039999,-47.7987729600614],[-73.5304397009999,-47.7993724350614]]],[[[-73.5327455469999,-47.7971661700613],[-73.5315510689999,-47.7978486080613],[-73.5316119819999,-47.7981050670613],[-73.5314227139999,-47.7982281280614],[-73.5313851349999,-47.7985486550613],[-73.5311657569999,-47.7988981080614],[-73.5311192099999,-47.7994041160614],[-73.5315319669999,-47.7991599840613],[-73.5315634439999,-47.7988391660613],[-73.5319729279999,-47.7984395040613],[-73.5318238429999,-47.7979580150614],[-73.5318917709999,-47.7977729090613],[-73.5327997039999,-47.7973622440613],[-73.5340633479999,-47.7974836470613],[-73.5341680499999,-47.7972234110613],[-73.5331887579999,-47.7970580750613],[-73.5327455469999,-47.7971661700613]]],[[[-73.5307838049999,-47.7967142070613],[-73.5316317189999,-47.7977920040613],[-73.5320388899999,-47.7975577220614],[-73.531151141,-47.7965396740613],[-73.5307838049999,-47.7967142070613]]]]}},{"type":"Feature","properties":{"id":"11303013048011","commune":"Tortel","code":"11303","gse":"D","quintil":"Q1","nse_score":640.1,"educ":10.3,"educ_score":486.7,"hacin":1.417,"hacin_class":"Hacinamiento Leve","hacin_score":762.4,"auto_score":83.3,"n_per":34,"n_hog":12,"source_year":2024,"crime_score":0.6622,"crime_nivel":"Muy Bajo","crime_color":"#4caf50"},"geometry":{"type":"MultiPolygon","coordinates":[[[[-73.530519937,-47.7968232000614],[-73.5310099189999,-47.7974453410613],[-73.5311267809999,-47.7976765270614],[-73.5313903209999,-47.7976501830613],[-73.5312368739999,-47.7972623100613],[-73.5307614929999,-47.7967241270613],[-73.530519937,-47.7968232000614]]],[[[-73.5289140749999,-47.7956599080614],[-73.5296013679999,-47.7963399780613],[-73.5297169049999,-47.7969192440613],[-73.5296668479999,-47.7972526490613],[-73.5289075819999,-47.7982305780614],[-73.5312594729999,-47.7981014380613],[-73.5314092689999,-47.7982107180614],[-73.5315843239999,-47.7980992590613],[-73.531524595,-47.7978432530613],[-73.5316100309999,-47.7978025880613],[-73.5314020799999,-47.7976671890613],[-73.531110914,-47.7976962900613],[-73.5304903639999,-47.7968204090614],[-73.5311404109999,-47.7965227700614],[-73.5309250379999,-47.7961145500613],[-73.5311195079999,-47.7960221250613],[-73.5310580759999,-47.7956772830613],[-73.5307305459999,-47.7951140070613],[-73.5304947719999,-47.7961129670613],[-73.5299337769999,-47.7960621490614],[-73.5299161639999,-47.7961863490613],[-73.5299083229999,-47.7960716300613],[-73.5296119099999,-47.7960449640613],[-73.5296186229999,-47.7956892030613],[-73.5294382099999,-47.7957118400614],[-73.529200263,-47.7954048890613],[-73.5292954419999,-47.7951621840613],[-73.5291491969999,-47.7949782710613],[-73.5288712449999,-47.7951644120614],[-73.5289140749999,-47.7956599080614]]]]}},{"type":"Feature","properties":{"id":"11303013048042","commune":"Tortel","code":"11303","gse":"C3","quintil":"Q2","nse_score":665.0,"educ":11.6,"educ_score":573.3,"hacin":1.308,"hacin_class":"Hacinamiento Leve","hacin_score":785.6,"auto_score":0.0,"n_per":17,"n_hog":8,"source_year":2024,"crime_score":0.6479,"crime_nivel":"Muy Bajo","crime_color":"#4caf50"},"geometry":{"type":"MultiPolygon","coordinates":[[[[-73.5410077579999,-47.8046348160613],[-73.5413679209999,-47.8046643470613],[-73.5407830169999,-47.8047261500614],[-73.5410233869999,-47.8050551690614],[-73.5420307139999,-47.8048145740613],[-73.5419994959999,-47.8047073360613],[-73.5413754429999,-47.8044964080614],[-73.5410077579999,-47.8046348160613]]],[[[-73.5396006939999,-47.8039728440614],[-73.5399462979999,-47.8043619090614],[-73.5398725759999,-47.8046403560614],[-73.5406221799999,-47.8051048750614],[-73.5409999679999,-47.8050640850613],[-73.5405117829999,-47.8045269830614],[-73.5402725019999,-47.8045226510614],[-73.5405259869999,-47.8045107190614],[-73.5407635439999,-47.8047130200614],[-73.5412896079999,-47.8044794110613],[-73.5407462939999,-47.8041681050613],[-73.5402581639999,-47.8041468890614],[-73.5398503869999,-47.8039283750614],[-73.5396006939999,-47.8039728440614]]]]}},{"type":"Feature","properties":{"id":"11303013048003","commune":"Tortel","code":"11303","gse":"ABC1","quintil":"Q5","nse_score":795.3,"educ":15.6,"educ_score":840.0,"hacin":0.938,"hacin_class":"Sin Hacinamiento","hacin_score":864.4,"auto_score":0.0,"n_per":15,"n_hog":7,"source_year":2024,"crime_score":0.6013,"crime_nivel":"Muy Bajo","crime_color":"#4caf50"},"geometry":{"type":"MultiPolygon","coordinates":[[[[-73.5305153289999,-47.7947192440614],[-73.5312665389999,-47.7957085160613],[-73.5313004949999,-47.7956207120614],[-73.5323364919999,-47.7956331000613],[-73.5316538979999,-47.7943552980613],[-73.5312842259999,-47.7940526650613],[-73.5306087859999,-47.7944038340613],[-73.5305153289999,-47.7947192440614]]],[[[-73.5314929999999,-47.7939951710613],[-73.5316882259999,-47.7943667220613],[-73.5322824629999,-47.7941329930613],[-73.5320111619999,-47.7939292800613],[-73.5314929999999,-47.7939951710613]]]]}},{"type":"Feature","properties":{"id":"11303013048008","commune":"Tortel","code":"11303","gse":"D","quintil":"Q1","nse_score":640.1,"educ":10.5,"educ_score":500.0,"hacin":1.5,"hacin_class":"Hacinamiento Medio","hacin_score":744.7,"auto_score":0.0,"n_per":36,"n_hog":12,"source_year":2024,"crime_score":0.6628,"crime_nivel":"Muy Bajo","crime_color":"#4caf50"},"geometry":{"type":"MultiPolygon","coordinates":[[[[-73.5292311959999,-47.7953977510613],[-73.5294524859999,-47.7956856660613],[-73.5300259359999,-47.7956119020614],[-73.5298474769999,-47.7953549210614],[-73.5299497939999,-47.7950646260613],[-73.5298378819999,-47.7947324850613],[-73.5292360459999,-47.7947521300613],[-73.5291645719999,-47.7949504120613],[-73.5293287539999,-47.7951598050613],[-73.5292311959999,-47.7953977510613]]],[[[-73.5292131229999,-47.7947539460614],[-73.5283190349999,-47.7947995560613],[-73.5281781209999,-47.7951772080613],[-73.5284446449999,-47.7951710620614],[-73.5285007129999,-47.7957405990613],[-73.5288678819999,-47.7962065940614],[-73.5291472659999,-47.7960397090614],[-73.5288624049999,-47.7956699940613],[-73.5288176169999,-47.7951592740613],[-73.5292131229999,-47.7947539460614]]]]}},{"type":"Feature","properties":{"id":"11303013048036","commune":"Tortel","code":"11303","gse":"D","quintil":"Q1","nse_score":615.1,"educ":9.6,"educ_score":440.0,"hacin":0.941,"hacin_class":"Sin Hacinamiento","hacin_score":863.6,"auto_score":50.0,"n_per":16,"n_hog":9,"source_year":2024,"crime_score":0.6652,"crime_nivel":"Muy Bajo","crime_color":"#4caf50"},"geometry":{"type":"MultiPolygon","coordinates":[[[[-73.5462427159999,-47.8049491840614],[-73.5464180399999,-47.8045479790614],[-73.5463458209999,-47.8042050710614],[-73.5465002669999,-47.8040737690614],[-73.5461681419999,-47.8038591250613],[-73.5459464469999,-47.8041601850614],[-73.5459615479999,-47.8047605970613],[-73.5462427159999,-47.8049491840614]]],[[[-73.5477554239999,-47.8032935790614],[-73.5471152779999,-47.8034148700613],[-73.5469941709999,-47.8035728090614],[-73.5467167129999,-47.8035313110613],[-73.5461808609999,-47.8038424120614],[-73.5465164419999,-47.8040592940614],[-73.5465896889999,-47.8038250260613],[-73.546732259,-47.8037895150614],[-73.5475320669999,-47.8039157140613],[-73.5474755529999,-47.8037136120614],[-73.5473034039999,-47.8036510720613],[-73.5474995479999,-47.8037026640614],[-73.5476555949999,-47.8040570930613],[-73.5479354929999,-47.8036514790614],[-73.5477554239999,-47.8032935790614]]]]}},{"type":"Feature","properties":{"id":"11303013048032","commune":"Tortel","code":"11303","gse":"C2","quintil":"Q4","nse_score":730.4,"educ":14.8,"educ_score":786.7,"hacin":1.308,"hacin_class":"Hacinamiento Leve","hacin_score":785.6,"auto_score":0.0,"n_per":17,"n_hog":10,"source_year":2024,"crime_score":0.6248,"crime_nivel":"Muy Bajo","crime_color":"#4caf50"},"geometry":{"type":"MultiPolygon","coordinates":[[[[-73.5389551939999,-47.8039596870613],[-73.5396992909999,-47.8041938030613],[-73.5396976599999,-47.8044909710614],[-73.5398452669999,-47.8046140010614],[-73.5399195109999,-47.8043627210614],[-73.5398237149999,-47.8041457530614],[-73.5395753119999,-47.8039791750614],[-73.539340078,-47.8040025530613],[-73.5390727119999,-47.8039350770614],[-73.5390382549999,-47.8038389320614],[-73.5389551939999,-47.8039596870613]]],[[[-73.5378514139999,-47.8019891820614],[-73.5373628039999,-47.8022252890613],[-73.5374545109999,-47.8024421050614],[-73.5378419009999,-47.8022469540614],[-73.5374632159999,-47.8024606630613],[-73.5381584349999,-47.8035129770613],[-73.5385182009999,-47.8034652510613],[-73.5389204599999,-47.8035970650614],[-73.5392312519999,-47.8039633680614],[-73.5400831799999,-47.8036219400613],[-73.5403260279999,-47.8036341600614],[-73.5405032099999,-47.8037394190614],[-73.5406099009999,-47.8036620070614],[-73.5408559769999,-47.8036202130614],[-73.5405037159999,-47.8037579160614],[-73.5400912189999,-47.8036392820614],[-73.5392595459999,-47.8039716980614],[-73.5398548639999,-47.8039103090614],[-73.5402680479999,-47.8041301260614],[-73.5417637339999,-47.8042796300614],[-73.541060807,-47.8042864900613],[-73.5420267169999,-47.8046968530614],[-73.5420571699999,-47.8048119470614],[-73.5424332069999,-47.8047824390614],[-73.5426002899999,-47.8044611900614],[-73.542825751,-47.8043944010613],[-73.5425498149999,-47.8041028270614],[-73.5410081549999,-47.8040072820614],[-73.5414138449999,-47.8031549770614],[-73.5396086039999,-47.8035011000614],[-73.5393195839999,-47.8032384030614],[-73.5389412239999,-47.8031140150614],[-73.5382974529999,-47.8020072460614],[-73.5378514139999,-47.8019891820614]]]]}}]}