{"type":"FeatureCollection","features":[{"type":"Feature","properties":{"id":"16207021001001","commune":"Trehuaco","code":"16207","gse":"C2","quintil":"Q4","nse_score":720.3,"educ":11.6,"educ_score":573.3,"hacin":1.308,"hacin_class":"Hacinamiento Leve","hacin_score":785.6,"auto_score":197.4,"n_per":102,"n_hog":38,"source_year":2024,"crime_score":0.1365,"crime_nivel":"Bajo","crime_color":"#cddc39"},"geometry":{"type":"Polygon","coordinates":[[[-72.6760735269999,-36.4284480340981],[-72.6759549129999,-36.4255919690982],[-72.6750083489999,-36.4258883890982],[-72.6740983529999,-36.4267161720982],[-72.6727102099999,-36.4273842200982],[-72.6707894199999,-36.4276963320982],[-72.6686432359999,-36.4276528040982],[-72.6685046409999,-36.4292611140981],[-72.6687940339999,-36.4292657640981],[-72.6688836579999,-36.4299252450981],[-72.6703510239999,-36.4299525850982],[-72.6703902039999,-36.4295944230981],[-72.6703708739999,-36.4299552730982],[-72.6719544449999,-36.4299378610981],[-72.6721559799999,-36.4290053600982],[-72.6708819719999,-36.4290495260981],[-72.6707374009999,-36.4290282970982],[-72.6706038409999,-36.4289244540982],[-72.6708515649999,-36.4290190210981],[-72.6721942089999,-36.4289646920982],[-72.6720888039999,-36.4299197740981],[-72.6739092849999,-36.4295963480982],[-72.6740700419999,-36.4284076580981],[-72.6739926299999,-36.4295703620981],[-72.6752669259999,-36.4291350300982],[-72.675238583,-36.4284626400982],[-72.6752672849999,-36.4276635380982],[-72.6752849609999,-36.4291031700982],[-72.6760735269999,-36.4284480340981]]]}},{"type":"Feature","properties":{"id":"16207021001002","commune":"Trehuaco","code":"16207","gse":"D","quintil":"Q2","nse_score":645.2,"educ":12.0,"educ_score":600.0,"hacin":1.513,"hacin_class":"Hacinamiento Medio","hacin_score":742.0,"auto_score":260.9,"n_per":59,"n_hog":23,"source_year":2024,"crime_score":0.1393,"crime_nivel":"Bajo","crime_color":"#cddc39"},"geometry":{"type":"Polygon","coordinates":[[[-72.6640517069999,-36.4278293980981],[-72.6630353029999,-36.4279878710981],[-72.6630959929999,-36.4292494310982],[-72.6613504889999,-36.4299023530981],[-72.6616174069999,-36.4312691710981],[-72.6634198979999,-36.4306080000981],[-72.6633350309999,-36.4280942790982],[-72.6634639119999,-36.4305969390981],[-72.6654110119999,-36.4301749630982],[-72.6653326799999,-36.4297206790982],[-72.664401343,-36.4286759640981],[-72.6640517069999,-36.4278293980981]]]}},{"type":"Feature","properties":{"id":"16207021001003","commune":"Trehuaco","code":"16207","gse":"C3","quintil":"Q3","nse_score":680.5,"educ":11.3,"educ_score":553.3,"hacin":1.409,"hacin_class":"Hacinamiento Leve","hacin_score":764.0,"auto_score":550.0,"n_per":31,"n_hog":10,"source_year":2024,"crime_score":0.1348,"crime_nivel":"Bajo","crime_color":"#cddc39"},"geometry":{"type":"Polygon","coordinates":[[[-72.6821438939999,-36.4296542710981],[-72.6809500249999,-36.4289464700981],[-72.6806092569999,-36.4285290270982],[-72.6796373689999,-36.4279586410981],[-72.6789209979999,-36.4288233190981],[-72.6795846429999,-36.4292253230981],[-72.6800830059999,-36.4297456100982],[-72.6813136179999,-36.4304739040981],[-72.6821438939999,-36.4296542710981]]]}},{"type":"Feature","properties":{"id":"16207021001004","commune":"Trehuaco","code":"16207","gse":"C3","quintil":"Q3","nse_score":693.7,"educ":10.9,"educ_score":526.7,"hacin":1.285,"hacin_class":"Hacinamiento Leve","hacin_score":790.5,"auto_score":229.2,"n_per":185,"n_hog":71,"source_year":2024,"crime_score":0.144,"crime_nivel":"Bajo","crime_color":"#cddc39"},"geometry":{"type":"Polygon","coordinates":[[[-72.6753796609999,-36.4291094340981],[-72.6741761499999,-36.4295776150981],[-72.6719852449999,-36.4299773600982],[-72.6723521589999,-36.4308254650981],[-72.6723945939999,-36.4311199770981],[-72.6723593999999,-36.4314552060981],[-72.6724726479999,-36.4315499810981],[-72.6726003319999,-36.4318997810981],[-72.6724319969999,-36.4315533350981],[-72.6719992419999,-36.4315009460981],[-72.6723131379999,-36.4315074370981],[-72.6723627519999,-36.4309725570982],[-72.67193592,-36.4299799030982],[-72.6714797859999,-36.4300486620981],[-72.6716028949999,-36.4312353640981],[-72.6714229709999,-36.4300203730981],[-72.669751662,-36.4299916300982],[-72.6697072469999,-36.4307537630981],[-72.6696844879999,-36.4299883770981],[-72.6689004669999,-36.4299734260981],[-72.6692654819999,-36.4315930810981],[-72.6717067079999,-36.4331373760981],[-72.6729604199999,-36.4335718510981],[-72.6737691569999,-36.4336056950981],[-72.6737001019999,-36.4326969760981],[-72.6736189509999,-36.4326429760981],[-72.6735107879999,-36.4325197630981],[-72.6733157639999,-36.4322470620981],[-72.6737228349999,-36.4326847660981],[-72.6738116859999,-36.4336047170981],[-72.6788392209999,-36.4335616330981],[-72.6787222539999,-36.4329827600981],[-72.6788816429999,-36.4335642660981],[-72.6798167129999,-36.4337125930981],[-72.6799174919999,-36.4334831900981],[-72.6798001069999,-36.4333688410981],[-72.6806110359999,-36.4330285250981],[-72.6802018689999,-36.4320368830981],[-72.6797363989999,-36.4322263020981],[-72.6796435979999,-36.4320243650981],[-72.6790694819999,-36.4321233500981],[-72.6780973439999,-36.4325610320981],[-72.6776628109999,-36.4317898940981],[-72.6781257589999,-36.4325201010981],[-72.6782314849999,-36.4324466450981],[-72.6780269109999,-36.4320446400982],[-72.6783007529999,-36.4324357110981],[-72.6790604079999,-36.4320957170981],[-72.6796045369999,-36.4320077960981],[-72.6799229979999,-36.4318616910981],[-72.6798706799999,-36.4316957390982],[-72.6803060899999,-36.4312669530981],[-72.680583425,-36.4312442460981],[-72.6806968089999,-36.4310429140981],[-72.6814730179999,-36.4306279700981],[-72.6800914819999,-36.4298053180981],[-72.6795363459999,-36.4292537310982],[-72.6788721309999,-36.4288707950982],[-72.6787582359999,-36.4288245920982],[-72.6784202649999,-36.4290987640981],[-72.6783526389999,-36.4291116800982],[-72.6787268129999,-36.4288045730981],[-72.6775626749999,-36.4282747670982],[-72.6763167579999,-36.4282867380982],[-72.6753796609999,-36.4291094340981]]]}},{"type":"Feature","properties":{"id":"16207021001005","commune":"Trehuaco","code":"16207","gse":"C3","quintil":"Q3","nse_score":694.4,"educ":11.8,"educ_score":586.7,"hacin":1.114,"hacin_class":"Hacinamiento Leve","hacin_score":826.7,"auto_score":205.9,"n_per":39,"n_hog":16,"source_year":2024,"crime_score":0.1343,"crime_nivel":"Bajo","crime_color":"#cddc39"},"geometry":{"type":"Polygon","coordinates":[[[-72.6669357709999,-36.4303659700982],[-72.6671545209999,-36.4304764520981],[-72.6675181649999,-36.4300370650982],[-72.6676825409999,-36.4298926790981],[-72.6671731589999,-36.4304863720982],[-72.6691627239999,-36.4315078620981],[-72.6687447899999,-36.4293235350981],[-72.6677714679999,-36.4295003830982],[-72.6684426339999,-36.4293217530982],[-72.6685060399999,-36.4288252570981],[-72.6672275339999,-36.4287954300981],[-72.6672204779999,-36.4289952370981],[-72.6659826899999,-36.4289747240982],[-72.6651609379999,-36.4294439230982],[-72.6669161969999,-36.4303573300981],[-72.667290368,-36.4297861200982],[-72.6673351029999,-36.4294034310981],[-72.6673118399999,-36.4297916070981],[-72.6669357709999,-36.4303659700982]]]}},{"type":"Feature","properties":{"id":"16207021001006","commune":"Trehuaco","code":"16207","gse":"C3","quintil":"Q2","nse_score":667.9,"educ":10.3,"educ_score":486.7,"hacin":1.111,"hacin_class":"Hacinamiento Leve","hacin_score":827.4,"auto_score":250.0,"n_per":20,"n_hog":7,"source_year":2024,"crime_score":0.135,"crime_nivel":"Bajo","crime_color":"#cddc39"},"geometry":{"type":"Polygon","coordinates":[[[-72.6822652669999,-36.4314685750981],[-72.6825601209999,-36.4313086130981],[-72.6831263489999,-36.4303878030981],[-72.682683703,-36.4299490210981],[-72.6821585169999,-36.4296623270982],[-72.6813305079999,-36.4304819220981],[-72.6819289339999,-36.4308380470982],[-72.6822652669999,-36.4314685750981]]]}},{"type":"Feature","properties":{"id":"16207021001008","commune":"Trehuaco","code":"16207","gse":"C2","quintil":"Q4","nse_score":725.4,"educ":12.7,"educ_score":646.7,"hacin":1.467,"hacin_class":"Hacinamiento Leve","hacin_score":751.8,"auto_score":117.6,"n_per":44,"n_hog":18,"source_year":2024,"crime_score":0.1323,"crime_nivel":"Bajo","crime_color":"#cddc39"},"geometry":{"type":"Polygon","coordinates":[[[-72.6663396309999,-36.4301638120981],[-72.6660598599999,-36.4313112300981],[-72.6655888199999,-36.4313271100981],[-72.6657385639999,-36.4323086600981],[-72.6666424029999,-36.4320387350981],[-72.6666876299999,-36.4312462990981],[-72.666709824,-36.4320207510981],[-72.6688111159999,-36.4314866150981],[-72.6663396309999,-36.4301638120981]]]}},{"type":"Feature","properties":{"id":"16207021001009","commune":"Trehuaco","code":"16207","gse":"C3","quintil":"Q3","nse_score":704.5,"educ":11.2,"educ_score":546.7,"hacin":1.167,"hacin_class":"Hacinamiento Leve","hacin_score":815.6,"auto_score":178.1,"n_per":175,"n_hog":73,"source_year":2024,"crime_score":0.1425,"crime_nivel":"Bajo","crime_color":"#cddc39"},"geometry":{"type":"Polygon","coordinates":[[[-72.664523287,-36.4304569630981],[-72.6632137479999,-36.4307150680981],[-72.6634083459999,-36.4309525610981],[-72.6631799789999,-36.4307259880981],[-72.6625079389999,-36.4309927070981],[-72.6627256329999,-36.4328133060981],[-72.664372065,-36.4326332200981],[-72.6643028759999,-36.4319929640982],[-72.6635363889999,-36.4319837480981],[-72.6643036859999,-36.4319659550981],[-72.6642877079999,-36.4316428580981],[-72.6644343659999,-36.4326267190981],[-72.6656635179999,-36.4323419350981],[-72.6654797219999,-36.4308649520981],[-72.6649903599999,-36.4309718210981],[-72.6654744159999,-36.4308403860981],[-72.665401502,-36.4302444520982],[-72.6645568239999,-36.4304537590981],[-72.6646212309999,-36.4307754360981],[-72.664523287,-36.4304569630981]]]}},{"type":"Feature","properties":{"id":"16207021001010","commune":"Trehuaco","code":"16207","gse":"C3","quintil":"Q2","nse_score":674.3,"educ":10.7,"educ_score":513.3,"hacin":1.467,"hacin_class":"Hacinamiento Leve","hacin_score":751.6,"auto_score":141.3,"n_per":135,"n_hog":45,"source_year":2024,"crime_score":0.1422,"crime_nivel":"Bajo","crime_color":"#cddc39"},"geometry":{"type":"Polygon","coordinates":[[[-72.6832080729999,-36.4351004080981],[-72.6862939599999,-36.4334483680981],[-72.6834499909999,-36.4310755700981],[-72.6831363929999,-36.4304085290981],[-72.6826163329999,-36.4312743330981],[-72.6823311739999,-36.4315194790981],[-72.6833236129999,-36.4322585070981],[-72.6841034779999,-36.4319537530982],[-72.6833328029999,-36.4322694510981],[-72.6835967369999,-36.4324821970981],[-72.6841444559999,-36.4321424630981],[-72.6836200389999,-36.4325155280981],[-72.6845800639999,-36.4331683440981],[-72.6846930719999,-36.4329701580981],[-72.6844499659999,-36.4326615790981],[-72.6846125729999,-36.4325269560981],[-72.6844805109999,-36.4326676150981],[-72.6847207599999,-36.4329602980981],[-72.6846415189999,-36.4332022850981],[-72.6855465589999,-36.4336651630981],[-72.6853014749999,-36.4336366090981],[-72.6830171919999,-36.4348144430981],[-72.6829802669999,-36.4349835140981],[-72.6832080729999,-36.4351004080981]]]}},{"type":"Feature","properties":{"id":"16207021001011","commune":"Trehuaco","code":"16207","gse":"C3","quintil":"Q3","nse_score":702.0,"educ":10.8,"educ_score":520.0,"hacin":1.3,"hacin_class":"Hacinamiento Leve","hacin_score":787.2,"auto_score":210.5,"n_per":65,"n_hog":19,"source_year":2024,"crime_score":0.1354,"crime_nivel":"Bajo","crime_color":"#cddc39"},"geometry":{"type":"Polygon","coordinates":[[[-72.6814990629999,-36.4306629670981],[-72.6807576419999,-36.4310616430982],[-72.6806115649999,-36.4312771810981],[-72.6803350049999,-36.4313005600982],[-72.6799131559999,-36.4317111400981],[-72.6799712259999,-36.4318709770981],[-72.6796748049999,-36.4320078450981],[-72.6797612499999,-36.4321940820982],[-72.6806259279999,-36.4317340140981],[-72.6808908199999,-36.4311595310981],[-72.6816163679999,-36.4307300220981],[-72.6814990629999,-36.4306629670981]]]}},{"type":"Feature","properties":{"id":"16207021001012","commune":"Trehuaco","code":"16207","gse":"D","quintil":"Q2","nse_score":648.3,"educ":9.2,"educ_score":413.3,"hacin":1.238,"hacin_class":"Hacinamiento Leve","hacin_score":800.4,"auto_score":261.9,"n_per":52,"n_hog":21,"source_year":2024,"crime_score":0.1386,"crime_nivel":"Bajo","crime_color":"#cddc39"},"geometry":{"type":"Polygon","coordinates":[[[-72.6817395489999,-36.4312249920981],[-72.6814319499999,-36.4309204830982],[-72.6810980259999,-36.4311016440981],[-72.6813294449999,-36.4314387940981],[-72.6810053899999,-36.4311552860981],[-72.6807198959999,-36.4317926530981],[-72.6820769729999,-36.4313253730981],[-72.6817197709999,-36.4307810720981],[-72.6815189799999,-36.4309221740981],[-72.6817395489999,-36.4312249920981]]]}},{"type":"Feature","properties":{"id":"16207021001013","commune":"Trehuaco","code":"16207","gse":"C3","quintil":"Q2","nse_score":673.1,"educ":10.9,"educ_score":526.7,"hacin":1.211,"hacin_class":"Hacinamiento Leve","hacin_score":806.2,"auto_score":157.5,"n_per":178,"n_hog":68,"source_year":2024,"crime_score":0.1452,"crime_nivel":"Bajo","crime_color":"#cddc39"},"geometry":{"type":"Polygon","coordinates":[[[-72.6607217949999,-36.4314839070981],[-72.6579847849999,-36.4326307320981],[-72.6578670059999,-36.4313187780981],[-72.6571121409999,-36.4314320750981],[-72.6572454679999,-36.4332820340981],[-72.6547815999999,-36.4334602950981],[-72.654812192,-36.4338371120981],[-72.6564519229999,-36.4338980030981],[-72.65639397,-36.4338760240981],[-72.656197689,-36.4336201980981],[-72.6558629449999,-36.4334469040981],[-72.6558695419999,-36.4334309220981],[-72.6562052319999,-36.4336032960981],[-72.6564899259999,-36.4338816980981],[-72.6575807999999,-36.4336915600981],[-72.6574358119999,-36.4315681800981],[-72.6576074839999,-36.4336769370981],[-72.6588224359999,-36.4334190410981],[-72.6587234039999,-36.4324205120981],[-72.659200171,-36.4323649400981],[-72.659200875,-36.4322252210981],[-72.6594083759999,-36.4332836360981],[-72.6609849179999,-36.4329877600981],[-72.6607342209999,-36.4316222600981],[-72.6615766469999,-36.4312859480981],[-72.6614560959999,-36.4308802860981],[-72.6606507219999,-36.4311376480981],[-72.6607217949999,-36.4314839070981]]]}},{"type":"Feature","properties":{"id":"16207021001014","commune":"Trehuaco","code":"16207","gse":"C3","quintil":"Q3","nse_score":685.0,"educ":10.2,"educ_score":480.0,"hacin":1.077,"hacin_class":"Hacinamiento Leve","hacin_score":834.7,"auto_score":361.7,"n_per":126,"n_hog":47,"source_year":2024,"crime_score":0.1408,"crime_nivel":"Bajo","crime_color":"#cddc39"},"geometry":{"type":"Polygon","coordinates":[[[-72.6624763319999,-36.4310275920982],[-72.6608203859999,-36.4316388090981],[-72.6611093789999,-36.4329717850981],[-72.6618834009999,-36.4328978590981],[-72.6616957849999,-36.4318959970981],[-72.6619165819999,-36.4328947770981],[-72.6621052329999,-36.4328774010981],[-72.6620221749999,-36.4319221810981],[-72.6621414019999,-36.4328740700981],[-72.6626794539999,-36.4328326370981],[-72.6624763319999,-36.4310275920982]]]}},{"type":"Feature","properties":{"id":"16207021001015","commune":"Trehuaco","code":"16207","gse":"C3","quintil":"Q2","nse_score":663.2,"educ":10.2,"educ_score":480.0,"hacin":1.35,"hacin_class":"Hacinamiento Leve","hacin_score":776.6,"auto_score":169.1,"n_per":216,"n_hog":65,"source_year":2024,"crime_score":0.1485,"crime_nivel":"Bajo","crime_color":"#cddc39"},"geometry":{"type":"Polygon","coordinates":[[[-72.680281723,-36.4320391590981],[-72.6804409729999,-36.4323648130981],[-72.6813789399999,-36.4320698530981],[-72.6804479739999,-36.4324077780981],[-72.6806027369999,-36.4327172830981],[-72.6815533139999,-36.4324439820981],[-72.6806563279999,-36.4327531230981],[-72.680798981,-36.4329687040981],[-72.6817948769999,-36.4324526890981],[-72.6816067809999,-36.4320943560981],[-72.6818745899999,-36.4323899940981],[-72.6822433269999,-36.4320210630981],[-72.6822709909999,-36.4317592710981],[-72.6820873189999,-36.4313635480981],[-72.680281723,-36.4320391590981]]]}},{"type":"Feature","properties":{"id":"16207021001016","commune":"Trehuaco","code":"16207","gse":"C3","quintil":"Q3","nse_score":680.5,"educ":10.1,"educ_score":473.3,"hacin":1.222,"hacin_class":"Hacinamiento Leve","hacin_score":803.8,"auto_score":0.0,"n_per":11,"n_hog":4,"source_year":2024,"crime_score":0.1335,"crime_nivel":"Bajo","crime_color":"#cddc39"},"geometry":{"type":"Polygon","coordinates":[[[-72.6817088299999,-36.4326169820981],[-72.6822027569999,-36.4324940740981],[-72.6831475949999,-36.4321349890981],[-72.6823000929999,-36.4315604130981],[-72.6822848119999,-36.4320405430981],[-72.6817088299999,-36.4326169820981]]]}},{"type":"Feature","properties":{"id":"16207021001017","commune":"Trehuaco","code":"16207","gse":"C3","quintil":"Q3","nse_score":689.7,"educ":11.7,"educ_score":580.0,"hacin":1.202,"hacin_class":"Hacinamiento Leve","hacin_score":808.1,"auto_score":315.2,"n_per":119,"n_hog":41,"source_year":2024,"crime_score":0.1399,"crime_nivel":"Bajo","crime_color":"#cddc39"},"geometry":{"type":"Polygon","coordinates":[[[-72.6659417399999,-36.4333683430981],[-72.6658694819999,-36.4337934090981],[-72.6670707159999,-36.4337418430981],[-72.6684604379999,-36.4329062520981],[-72.6711953609999,-36.4333905670981],[-72.6710591559999,-36.4342507050981],[-72.6706453839999,-36.4342350900981],[-72.6705863919999,-36.4345005250981],[-72.6706956189999,-36.4345613770981],[-72.6713327439999,-36.4342033210981],[-72.6715182209999,-36.4331340430981],[-72.6689439129999,-36.4315647200981],[-72.6685309169999,-36.4316614150981],[-72.6687361909999,-36.4322287960981],[-72.6687855659999,-36.4326124680981],[-72.6687671899999,-36.4328729490981],[-72.6685853729999,-36.4318991590981],[-72.6678125029999,-36.4320116830981],[-72.6685731899999,-36.4318766600981],[-72.6684968979999,-36.4316644360981],[-72.6678716639999,-36.4317531330981],[-72.6669070919999,-36.4320118000981],[-72.6672077369999,-36.4325207620982],[-72.6668532879999,-36.4320300340981],[-72.6657392539999,-36.4323733210981],[-72.6659315149999,-36.4331188260981],[-72.6665373039999,-36.4330311310981],[-72.6673287309999,-36.4331327970981],[-72.6674990019999,-36.4330375980981],[-72.667333116,-36.4331507370981],[-72.6665378359999,-36.4330492730981],[-72.6659383449999,-36.4331360220981],[-72.6659440119999,-36.4333503910981],[-72.6661676539999,-36.4333603930981],[-72.6662780369999,-36.4334240390981],[-72.6659417399999,-36.4333683430981]]]}},{"type":"Feature","properties":{"id":"16207021001018","commune":"Trehuaco","code":"16207","gse":"C3","quintil":"Q3","nse_score":696.3,"educ":11.2,"educ_score":546.7,"hacin":1.451,"hacin_class":"Hacinamiento Leve","hacin_score":755.1,"auto_score":322.2,"n_per":148,"n_hog":44,"source_year":2024,"crime_score":0.1413,"crime_nivel":"Bajo","crime_color":"#cddc39"},"geometry":{"type":"Polygon","coordinates":[[[-72.6799616579999,-36.4337577360981],[-72.6818845759999,-36.4342001680981],[-72.6845517499999,-36.4332457750981],[-72.683852451,-36.4327420370981],[-72.6832586079999,-36.4329555950981],[-72.6838260319999,-36.4327219750981],[-72.6831670139999,-36.4321893050981],[-72.6803662229999,-36.4331983980981],[-72.6799592969999,-36.4335785740981],[-72.6799616579999,-36.4337577360981]]]}},{"type":"Feature","properties":{"id":"16207021001019","commune":"Trehuaco","code":"16207","gse":"C3","quintil":"Q3","nse_score":683.3,"educ":11.1,"educ_score":540.0,"hacin":1.133,"hacin_class":"Hacinamiento Leve","hacin_score":822.7,"auto_score":115.4,"n_per":85,"n_hog":35,"source_year":2024,"crime_score":0.1382,"crime_nivel":"Bajo","crime_color":"#cddc39"},"geometry":{"type":"Polygon","coordinates":[[[-72.6599659179999,-36.4352493010981],[-72.6610770679999,-36.4350174880981],[-72.6609450669999,-36.4334302570981],[-72.6644771659999,-36.4330201270981],[-72.6646189019999,-36.4337655210981],[-72.6658796939999,-36.4335231240981],[-72.6656746649999,-36.4324155670981],[-72.6592981569999,-36.4333630230981],[-72.6596448759999,-36.4343647830981],[-72.659933985,-36.4345409760981],[-72.6599659179999,-36.4352493010981]]]}},{"type":"Feature","properties":{"id":"16207021001020","commune":"Trehuaco","code":"16207","gse":"C2","quintil":"Q4","nse_score":732.2,"educ":11.7,"educ_score":580.0,"hacin":1.04,"hacin_class":"Hacinamiento Leve","hacin_score":842.6,"auto_score":394.7,"n_per":52,"n_hog":20,"source_year":2024,"crime_score":0.1323,"crime_nivel":"Bajo","crime_color":"#cddc39"},"geometry":{"type":"Polygon","coordinates":[[[-72.6589119809999,-36.4333792460981],[-72.6593339869999,-36.4332824790981],[-72.6592202139999,-36.4324194950981],[-72.6587841109999,-36.4324689490981],[-72.6589119809999,-36.4333792460981]]]}},{"type":"Feature","properties":{"id":"16207021001021","commune":"Trehuaco","code":"16207","gse":"C2","quintil":"Q4","nse_score":729.2,"educ":13.3,"educ_score":686.7,"hacin":1.273,"hacin_class":"Hacinamiento Leve","hacin_score":793.0,"auto_score":333.3,"n_per":14,"n_hog":5,"source_year":2024,"crime_score":0.1301,"crime_nivel":"Bajo","crime_color":"#cddc39"},"geometry":{"type":"Polygon","coordinates":[[[-72.6707274119999,-36.4345790890981],[-72.6719449689999,-36.4350741270981],[-72.6737189789999,-36.4352553730981],[-72.6736253009999,-36.4343872420981],[-72.6731419289999,-36.4341303160981],[-72.6729860359999,-36.4336364660981],[-72.6715706599999,-36.4331350660981],[-72.6714233139999,-36.4340419860981],[-72.6715498639999,-36.4343430100981],[-72.6714060319999,-36.4341265020981],[-72.6707274119999,-36.4345790890981]]]}},{"type":"Feature","properties":{"id":"16207021001023","commune":"Trehuaco","code":"16207","gse":"C2","quintil":"Q4","nse_score":760.0,"educ":12.5,"educ_score":633.3,"hacin":1.174,"hacin_class":"Hacinamiento Leve","hacin_score":814.1,"auto_score":375.0,"n_per":27,"n_hog":8,"source_year":2024,"crime_score":0.1287,"crime_nivel":"Bajo","crime_color":"#cddc39"},"geometry":{"type":"Polygon","coordinates":[[[-72.6848384479999,-36.4338089560981],[-72.6846110969999,-36.4333426680981],[-72.6843067819999,-36.4334235480981],[-72.6845557649999,-36.4339229480981],[-72.6848384479999,-36.4338089560981]]]}},{"type":"Feature","properties":{"id":"16207021001024","commune":"Trehuaco","code":"16207","gse":"C2","quintil":"Q4","nse_score":718.6,"educ":12.4,"educ_score":626.7,"hacin":1.05,"hacin_class":"Hacinamiento Leve","hacin_score":840.4,"auto_score":236.8,"n_per":42,"n_hog":18,"source_year":2024,"crime_score":0.1327,"crime_nivel":"Bajo","crime_color":"#cddc39"},"geometry":{"type":"Polygon","coordinates":[[[-72.6563453979999,-36.4360360510981],[-72.6599363319999,-36.4352557300981],[-72.6598685749999,-36.4345502190981],[-72.6595935589999,-36.4343385140981],[-72.6592527329999,-36.4334044420981],[-72.6581154969999,-36.4336162770981],[-72.6581793759999,-36.4339022120981],[-72.6580896529999,-36.4336222510981],[-72.6563588079999,-36.4339571360981],[-72.6563453979999,-36.4360360510981]]]}},{"type":"Feature","properties":{"id":"16207021001025","commune":"Trehuaco","code":"16207","gse":"D","quintil":"Q2","nse_score":658.0,"educ":10.5,"educ_score":500.0,"hacin":1.48,"hacin_class":"Hacinamiento Leve","hacin_score":748.9,"auto_score":250.0,"n_per":37,"n_hog":11,"source_year":2024,"crime_score":0.1369,"crime_nivel":"Bajo","crime_color":"#cddc39"},"geometry":{"type":"Polygon","coordinates":[[[-72.6844808449999,-36.4339933440981],[-72.6842471099999,-36.4334752480981],[-72.6839060229999,-36.4335611610981],[-72.6841878799999,-36.4340988650981],[-72.6844808449999,-36.4339933440981]]]}},{"type":"Feature","properties":{"id":"16207021001027","commune":"Trehuaco","code":"16207","gse":"C3","quintil":"Q3","nse_score":690.2,"educ":10.9,"educ_score":526.7,"hacin":1.345,"hacin_class":"Hacinamiento Leve","hacin_score":777.7,"auto_score":153.8,"n_per":39,"n_hog":14,"source_year":2024,"crime_score":0.1346,"crime_nivel":"Bajo","crime_color":"#cddc39"},"geometry":{"type":"Polygon","coordinates":[[[-72.6744938409999,-36.4345950400981],[-72.6782525879999,-36.4345263270981],[-72.6793714879999,-36.4353401620981],[-72.6795511739999,-36.4352264710981],[-72.6784656839999,-36.4340057210981],[-72.677898249,-36.4339563080981],[-72.6778241509999,-36.4335915030981],[-72.6760959569999,-36.4336387350981],[-72.6760352389999,-36.4339183720981],[-72.675929429,-36.4340138180981],[-72.6760620919999,-36.4336395090981],[-72.6749400959999,-36.4336592130981],[-72.6749417459999,-36.4339217790981],[-72.6748784149999,-36.4336599280981],[-72.6744467099999,-36.4336656670981],[-72.6744938409999,-36.4345950400981]]]}},{"type":"Feature","properties":{"id":"16207021001028","commune":"Trehuaco","code":"16207","gse":"C3","quintil":"Q3","nse_score":699.2,"educ":10.8,"educ_score":520.0,"hacin":1.222,"hacin_class":"Hacinamiento Leve","hacin_score":803.8,"auto_score":208.3,"n_per":33,"n_hog":11,"source_year":2024,"crime_score":0.1336,"crime_nivel":"Bajo","crime_color":"#cddc39"},"geometry":{"type":"Polygon","coordinates":[[[-72.6841308589999,-36.4341738070981],[-72.6838533139999,-36.4336138390981],[-72.6835039059999,-36.4336970140981],[-72.6838097119999,-36.4342946350981],[-72.6841308589999,-36.4341738070981]]]}},{"type":"Feature","properties":{"id":"16207021001030","commune":"Trehuaco","code":"16207","gse":"C3","quintil":"Q2","nse_score":677.6,"educ":10.6,"educ_score":506.7,"hacin":1.303,"hacin_class":"Hacinamiento Leve","hacin_score":786.6,"auto_score":166.7,"n_per":43,"n_hog":18,"source_year":2024,"crime_score":0.1358,"crime_nivel":"Bajo","crime_color":"#cddc39"},"geometry":{"type":"Polygon","coordinates":[[[-72.6737413139999,-36.4352561930981],[-72.6739500469999,-36.4352557560981],[-72.6739662949999,-36.4358662830981],[-72.6745054939999,-36.4358530460981],[-72.6744012259999,-36.4336624550981],[-72.6730084819999,-36.4336388240981],[-72.6731912639999,-36.4341561280981],[-72.673646415,-36.4343802730981],[-72.6737413139999,-36.4352561930981]]]}},{"type":"Feature","properties":{"id":"16207021001031","commune":"Trehuaco","code":"16207","gse":"C2","quintil":"Q4","nse_score":718.1,"educ":11.4,"educ_score":560.0,"hacin":1.4,"hacin_class":"Hacinamiento Leve","hacin_score":766.0,"auto_score":285.7,"n_per":42,"n_hog":14,"source_year":2024,"crime_score":0.1327,"crime_nivel":"Bajo","crime_color":"#cddc39"},"geometry":{"type":"Polygon","coordinates":[[[-72.6837503599999,-36.4343700030981],[-72.6834397579999,-36.4337613530981],[-72.6831220999999,-36.4338288970981],[-72.6834306799999,-36.4344920840981],[-72.6837503599999,-36.4343700030981]]]}},{"type":"Feature","properties":{"id":"16207021001032","commune":"Trehuaco","code":"16207","gse":"C3","quintil":"Q2","nse_score":676.5,"educ":10.7,"educ_score":513.3,"hacin":1.31,"hacin_class":"Hacinamiento Leve","hacin_score":785.0,"auto_score":107.1,"n_per":38,"n_hog":14,"source_year":2024,"crime_score":0.1356,"crime_nivel":"Bajo","crime_color":"#cddc39"},"geometry":{"type":"Polygon","coordinates":[[[-72.6833593849999,-36.4345715980981],[-72.6830594239999,-36.4338767310981],[-72.6827401599999,-36.4339576190981],[-72.6830770779999,-36.4346566530981],[-72.6833593849999,-36.4345715980981]]]}},{"type":"Feature","properties":{"id":"16207021001033","commune":"Trehuaco","code":"16207","gse":"D","quintil":"Q1","nse_score":631.2,"educ":10.1,"educ_score":473.3,"hacin":1.241,"hacin_class":"Hacinamiento Leve","hacin_score":799.8,"auto_score":153.8,"n_per":134,"n_hog":47,"source_year":2024,"crime_score":0.1455,"crime_nivel":"Bajo","crime_color":"#cddc39"},"geometry":{"type":"Polygon","coordinates":[[[-72.6548158679999,-36.4338797650981],[-72.6549432429999,-36.4368429440981],[-72.6553533759999,-36.438534485098],[-72.6563432009999,-36.438629785098],[-72.6562140089999,-36.4382026920981],[-72.65601713,-36.438177448098],[-72.6562155349999,-36.4381681720981],[-72.6562402319999,-36.4376389380981],[-72.6554421689999,-36.4375790490981],[-72.6562338769999,-36.4375903930981],[-72.6562558039999,-36.4371213600981],[-72.6552459389999,-36.4370004690981],[-72.6562520519999,-36.4370728660981],[-72.6562682009999,-36.4366226670981],[-72.6550993819999,-36.4365028630981],[-72.656272768,-36.4365574950981],[-72.6562798729999,-36.4339829530981],[-72.6557540399999,-36.4339684140981],[-72.6557430409999,-36.4345071330981],[-72.6557025339999,-36.4339484550981],[-72.6550612419999,-36.4338748020981],[-72.6550059029999,-36.4343284420981],[-72.6550274559999,-36.4338720340981],[-72.6548158679999,-36.4338797650981]]]}},{"type":"Feature","properties":{"id":"16207021001035","commune":"Trehuaco","code":"16207","gse":"C3","quintil":"Q3","nse_score":688.5,"educ":10.4,"educ_score":493.3,"hacin":1.333,"hacin_class":"Hacinamiento Leve","hacin_score":780.1,"auto_score":214.3,"n_per":16,"n_hog":7,"source_year":2024,"crime_score":0.1332,"crime_nivel":"Bajo","crime_color":"#cddc39"},"geometry":{"type":"Polygon","coordinates":[[[-72.6828619209999,-36.4348130950981],[-72.6830402239999,-36.4346851000981],[-72.6826744499999,-36.4340062620981],[-72.6818941929999,-36.4342542210981],[-72.6828619209999,-36.4348130950981]]]}},{"type":"Feature","properties":{"id":"16207021001026","commune":"Trehuaco","code":"16207","gse":"D","quintil":"Q2","nse_score":658.0,"educ":10.8,"educ_score":520.0,"hacin":1.083,"hacin_class":"Hacinamiento Leve","hacin_score":833.3,"auto_score":642.9,"n_per":13,"n_hog":6,"source_year":2024,"crime_score":0.1353,"crime_nivel":"Bajo","crime_color":"#cddc39"},"geometry":{"type":"MultiPolygon","coordinates":[[[[-72.6786414349999,-36.4341173640981],[-72.6795440019999,-36.4351339140981],[-72.6796387479999,-36.4351924680981],[-72.6798040869999,-36.4348753520981],[-72.679497034,-36.4344801010981],[-72.6789347739999,-36.4339180960981],[-72.6786414349999,-36.4341173640981]]],[[[-72.6779249779999,-36.4339300550981],[-72.6783965209999,-36.4339392210981],[-72.6786047969999,-36.4340922190981],[-72.6789043729999,-36.4338887130981],[-72.6786172779999,-36.4336139120981],[-72.6779048459999,-36.4335899320981],[-72.6779249779999,-36.4339300550981]]]]}},{"type":"Feature","properties":{"id":"16207021001029","commune":"Trehuaco","code":"16207","gse":"D","quintil":"Q2","nse_score":651.5,"educ":10.3,"educ_score":486.7,"hacin":1.312,"hacin_class":"Hacinamiento Leve","hacin_score":784.6,"auto_score":250.0,"n_per":42,"n_hog":14,"source_year":2024,"crime_score":0.1377,"crime_nivel":"Bajo","crime_color":"#cddc39"},"geometry":{"type":"MultiPolygon","coordinates":[[[[-72.6806951049999,-36.4356151590981],[-72.6801926529999,-36.4359958740981],[-72.6814455909999,-36.4359381490981],[-72.6802693379999,-36.4348040080981],[-72.6813645149999,-36.4342132210981],[-72.6809453949999,-36.4340657350981],[-72.6798186089999,-36.4347592250981],[-72.6806951049999,-36.4356151590981]]],[[[-72.6797485949999,-36.4347210260981],[-72.6808837139999,-36.4340438400981],[-72.6787263969999,-36.4336402970981],[-72.6797485949999,-36.4347210260981]]]]}},{"type":"Feature","properties":{"id":"16207021001037","commune":"Trehuaco","code":"16207","gse":"D","quintil":"Q2","nse_score":651.3,"educ":10.6,"educ_score":506.7,"hacin":1.44,"hacin_class":"Hacinamiento Leve","hacin_score":757.4,"auto_score":178.6,"n_per":36,"n_hog":12,"source_year":2024,"crime_score":0.1373,"crime_nivel":"Bajo","crime_color":"#cddc39"},"geometry":{"type":"MultiPolygon","coordinates":[[[[-72.6797115709999,-36.4359698420981],[-72.6801161749999,-36.4359930220981],[-72.6795410209999,-36.4353933780981],[-72.6795620109999,-36.4352900070981],[-72.6793428699999,-36.4355465050981],[-72.6797115709999,-36.4359698420981]]],[[[-72.6795830399999,-36.4353500470981],[-72.6801699149999,-36.4359505110981],[-72.6806488039999,-36.4356651990981],[-72.6798618109999,-36.4348753190981],[-72.6795830399999,-36.4353500470981]]]]}},{"type":"Feature","properties":{"id":"16207023025002","commune":"Trehuaco","code":"16207","gse":"D","quintil":"Q1","nse_score":609.2,"educ":9.1,"educ_score":406.7,"hacin":1.333,"hacin_class":"Hacinamiento Leve","hacin_score":780.1,"auto_score":312.5,"n_per":24,"n_hog":8,"source_year":2024,"crime_score":0.1396,"crime_nivel":"Bajo","crime_color":"#cddc39"},"geometry":{"type":"Polygon","coordinates":[[[-72.6854405569999,-36.4637622690978],[-72.6866350149999,-36.4639734540978],[-72.6862349479999,-36.4636655040978],[-72.6860544259999,-36.4632425790978],[-72.6855614759999,-36.4632352170978],[-72.6854405569999,-36.4637622690978]]]}},{"type":"Feature","properties":{"id":"16207023025003","commune":"Trehuaco","code":"16207","gse":"C2","quintil":"Q3","nse_score":710.8,"educ":12.7,"educ_score":646.7,"hacin":1.364,"hacin_class":"Hacinamiento Leve","hacin_score":773.7,"auto_score":300.0,"n_per":15,"n_hog":5,"source_year":2024,"crime_score":0.1315,"crime_nivel":"Bajo","crime_color":"#cddc39"},"geometry":{"type":"Polygon","coordinates":[[[-72.6842856289999,-36.4657461770978],[-72.6864402739999,-36.4656671110978],[-72.6865681629999,-36.4640097930978],[-72.6855214379999,-36.4638268800978],[-72.6857737229999,-36.4647855310978],[-72.685705331,-36.4649554040978],[-72.6854711979999,-36.4638182570978],[-72.684654985,-36.4636856270978],[-72.6842856289999,-36.4657461770978]]]}},{"type":"Feature","properties":{"id":"16207023025005","commune":"Trehuaco","code":"16207","gse":"C2","quintil":"Q4","nse_score":741.7,"educ":12.0,"educ_score":600.0,"hacin":1.318,"hacin_class":"Hacinamiento Leve","hacin_score":783.4,"auto_score":444.4,"n_per":29,"n_hog":11,"source_year":2024,"crime_score":0.1301,"crime_nivel":"Bajo","crime_color":"#cddc39"},"geometry":{"type":"Polygon","coordinates":[[[-72.6893896519999,-36.4646576150978],[-72.6893400199999,-36.4644562970978],[-72.6872368579999,-36.4642158110978],[-72.6867244119999,-36.4640248940978],[-72.6870182489999,-36.4643622090978],[-72.6874476719999,-36.4645625560978],[-72.6893896519999,-36.4646576150978]]]}},{"type":"Feature","properties":{"id":"16207023025006","commune":"Trehuaco","code":"16207","gse":"D","quintil":"Q2","nse_score":657.5,"educ":9.7,"educ_score":446.7,"hacin":1.198,"hacin_class":"Hacinamiento Leve","hacin_score":808.8,"auto_score":336.2,"n_per":157,"n_hog":58,"source_year":2024,"crime_score":0.145,"crime_nivel":"Bajo","crime_color":"#cddc39"},"geometry":{"type":"Polygon","coordinates":[[[-72.6850235369999,-36.4712112920978],[-72.6852279329999,-36.4706283560978],[-72.6851447299999,-36.4712136440977],[-72.6858951249999,-36.4712688930978],[-72.6859615699999,-36.4705921250978],[-72.6852250019999,-36.4705243830978],[-72.6859664679999,-36.4705422290977],[-72.6860205019999,-36.4699918670977],[-72.6853171409999,-36.4699512030978],[-72.6860253919999,-36.4699420650978],[-72.6860775249999,-36.4693887570978],[-72.6853484879999,-36.4693009250977],[-72.6860818169999,-36.4693389130978],[-72.6861297539999,-36.4687830350978],[-72.6854756989999,-36.4687038480978],[-72.6861370199999,-36.4687333120978],[-72.6861944329999,-36.4683404660978],[-72.6854802949999,-36.4682697750978],[-72.6862017089999,-36.4682906560978],[-72.6862423339999,-36.4679985080978],[-72.6855233909999,-36.4679404450978],[-72.6862458119999,-36.4679486170978],[-72.6862646809999,-36.4676787930978],[-72.6855767709999,-36.4675876340978],[-72.6862726499999,-36.4676291800978],[-72.6863065939999,-36.4673663120978],[-72.68558816,-36.4672290910978],[-72.6863134989999,-36.4673167330978],[-72.6863377629999,-36.4671425090978],[-72.6856157859999,-36.4670010920978],[-72.6850235369999,-36.4712112920978]]]}},{"type":"Feature","properties":{"id":"16207023025007","commune":"Trehuaco","code":"16207","gse":"C3","quintil":"Q3","nse_score":692.6,"educ":10.9,"educ_score":526.7,"hacin":1.21,"hacin_class":"Hacinamiento Leve","hacin_score":806.3,"auto_score":400.0,"n_per":23,"n_hog":11,"source_year":2024,"crime_score":0.1334,"crime_nivel":"Bajo","crime_color":"#cddc39"},"geometry":{"type":"Polygon","coordinates":[[[-72.6894661439999,-36.4744039580977],[-72.6906322979999,-36.4744284830977],[-72.6912333109999,-36.4722186300977],[-72.6913386959999,-36.4709668170977],[-72.6918853289999,-36.4697924360977],[-72.6918220309999,-36.4696258680978],[-72.6920555229999,-36.4692308060977],[-72.6921412829999,-36.4686399850978],[-72.690063774,-36.4681194710978],[-72.6900333989999,-36.4695052850978],[-72.6894661439999,-36.4744039580977]]]}},{"type":"Feature","properties":{"id":"16207023025008","commune":"Trehuaco","code":"16207","gse":"D","quintil":"Q1","nse_score":632.8,"educ":10.0,"educ_score":466.7,"hacin":1.5,"hacin_class":"Hacinamiento Medio","hacin_score":744.7,"auto_score":272.7,"n_per":69,"n_hog":23,"source_year":2024,"crime_score":0.1409,"crime_nivel":"Bajo","crime_color":"#cddc39"},"geometry":{"type":"Polygon","coordinates":[[[-72.6860105149999,-36.4712781810978],[-72.6868668509999,-36.4713456480978],[-72.6869881359999,-36.4701048860978],[-72.6860656759999,-36.4700434690978],[-72.6860105149999,-36.4712781810978]]]}},{"type":"Feature","properties":{"id":"16207023025010","commune":"Trehuaco","code":"16207","gse":"C3","quintil":"Q2","nse_score":669.2,"educ":11.4,"educ_score":560.0,"hacin":1.355,"hacin_class":"Hacinamiento Leve","hacin_score":775.6,"auto_score":281.2,"n_per":42,"n_hog":15,"source_year":2024,"crime_score":0.1364,"crime_nivel":"Bajo","crime_color":"#cddc39"},"geometry":{"type":"Polygon","coordinates":[[[-72.6849465889999,-36.4717582810977],[-72.6868070929999,-36.4717417930977],[-72.6868598949999,-36.4713952550977],[-72.6850165209999,-36.4712611620978],[-72.6849465889999,-36.4717582810977]]]}},{"type":"Feature","properties":{"id":"16207023025011","commune":"Trehuaco","code":"16207","gse":"C3","quintil":"Q3","nse_score":681.1,"educ":11.0,"educ_score":533.3,"hacin":1.588,"hacin_class":"Hacinamiento Medio","hacin_score":725.9,"auto_score":150.0,"n_per":27,"n_hog":10,"source_year":2024,"crime_score":0.1345,"crime_nivel":"Bajo","crime_color":"#cddc39"},"geometry":{"type":"Polygon","coordinates":[[[-72.6869098729999,-36.4713991920977],[-72.6867354469999,-36.4724467250977],[-72.6879032509999,-36.4725387370977],[-72.6879768699999,-36.4714832460977],[-72.6869098729999,-36.4713991920977]]]}},{"type":"Feature","properties":{"id":"16207023025012","commune":"Trehuaco","code":"16207","gse":"D","quintil":"Q2","nse_score":650.4,"educ":11.2,"educ_score":546.7,"hacin":1.218,"hacin_class":"Hacinamiento Leve","hacin_score":804.7,"auto_score":258.1,"n_per":95,"n_hog":30,"source_year":2024,"crime_score":0.1414,"crime_nivel":"Bajo","crime_color":"#cddc39"},"geometry":{"type":"Polygon","coordinates":[[[-72.6883280949999,-36.4725722120977],[-72.6882792639999,-36.4730404060977],[-72.6880885779999,-36.4748686810977],[-72.6891266839999,-36.4744623170977],[-72.6894255729999,-36.4715973510978],[-72.6880267269999,-36.4714871730978],[-72.6879482999999,-36.4725422870977],[-72.6883280949999,-36.4725722120977]]]}},{"type":"Feature","properties":{"id":"16207023025014","commune":"Trehuaco","code":"16207","gse":"D","quintil":"Q2","nse_score":648.3,"educ":9.3,"educ_score":420.0,"hacin":1.0,"hacin_class":"Hacinamiento Leve","hacin_score":851.1,"auto_score":0.0,"n_per":9,"n_hog":4,"source_year":2024,"crime_score":0.1357,"crime_nivel":"Bajo","crime_color":"#cddc39"},"geometry":{"type":"Polygon","coordinates":[[[-72.6899733729999,-36.4772777210977],[-72.6902760179999,-36.4763061190977],[-72.6906322979999,-36.4744284830977],[-72.6894697669999,-36.4744142440977],[-72.6894203629999,-36.4770097830977],[-72.6899733729999,-36.4772777210977]]]}},{"type":"Feature","properties":{"id":"16207023025001","commune":"Trehuaco","code":"16207","gse":"C3","quintil":"Q3","nse_score":683.3,"educ":10.6,"educ_score":506.7,"hacin":1.245,"hacin_class":"Hacinamiento Leve","hacin_score":798.9,"auto_score":217.5,"n_per":447,"n_hog":154,"source_year":2024,"crime_score":0.1524,"crime_nivel":"Bajo","crime_color":"#cddc39"},"geometry":{"type":"MultiPolygon","coordinates":[[[[-72.6869573319999,-36.4713527760978],[-72.6879796969999,-36.4714333130977],[-72.6880388239999,-36.4701588910978],[-72.6870380679999,-36.4701078330977],[-72.6869573319999,-36.4713527760978]]],[[[-72.6866174189999,-36.4640207600978],[-72.6863628379999,-36.4673249480978],[-72.6867198269999,-36.4673762510978],[-72.6863559409999,-36.4673744700978],[-72.6863173809999,-36.4676346500978],[-72.6866789709999,-36.4677057250978],[-72.6863143989999,-36.4676845620978],[-72.6863073239999,-36.4677854020978],[-72.6866740299999,-36.4678565370978],[-72.6863038349999,-36.4678352830978],[-72.6862819709999,-36.4680871540978],[-72.686644037,-36.4681510450978],[-72.6862747019999,-36.4681369050978],[-72.6862518229999,-36.4682934920978],[-72.6866244859999,-36.4683236490978],[-72.6862445779999,-36.4683430740978],[-72.6860705639999,-36.4699936840977],[-72.6880731429999,-36.4701116810978],[-72.6880725189999,-36.4706716560977],[-72.6885826739999,-36.4706462310977],[-72.6880703019999,-36.4707216070977],[-72.6880295539999,-36.4714372400977],[-72.6894328409999,-36.4715477680977],[-72.6895612949999,-36.4704334650977],[-72.6888952959999,-36.4703398000977],[-72.6895693189999,-36.4703838840978],[-72.6896809629999,-36.4699882210978],[-72.6894830129999,-36.4715517200977],[-72.6897155009999,-36.4715700310977],[-72.6900476839999,-36.4683367410978],[-72.6898560539999,-36.4671464890978],[-72.6892536639999,-36.4670664340978],[-72.6891096799999,-36.4668859470978],[-72.6892762579999,-36.4670203260978],[-72.6898460029999,-36.4670957680978],[-72.6893751689999,-36.4647073420978],[-72.688972954,-36.4646904450978],[-72.6887493879999,-36.4652084270978],[-72.6889182539999,-36.4646877460978],[-72.6879365769999,-36.4646717620978],[-72.6881215559999,-36.4659762410978],[-72.6878847449999,-36.4646660900978],[-72.6872352069999,-36.4645263540978],[-72.6873870559999,-36.4657499840978],[-72.6871841619999,-36.4645072130978],[-72.6866174189999,-36.4640207600978]]],[[[-72.6807568529999,-36.4617248730978],[-72.6784760049999,-36.4616670230979],[-72.6787779469999,-36.4628049750978],[-72.6791361969999,-36.4629791690978],[-72.6797744709999,-36.4627890700978],[-72.6806502589999,-36.4630289620979],[-72.681542895,-36.4630120900978],[-72.6809953799999,-36.4627453680978],[-72.6806887539999,-36.4627896330978],[-72.6805881899999,-36.4626691910978],[-72.6810032359999,-36.4626950410979],[-72.6816387099999,-36.4630082180978],[-72.6823537359999,-36.4630878210978],[-72.6824577979999,-36.4627297480978],[-72.682402969,-36.4630975780978],[-72.6840611949999,-36.4634806190978],[-72.6841901529999,-36.4631671630978],[-72.6841089389999,-36.4634958210978],[-72.6853912009999,-36.4637537980978],[-72.6855255609999,-36.4631907670978],[-72.6860748129999,-36.4631931600978],[-72.6860973689999,-36.4630501130978],[-72.6859856479999,-36.4630176060978],[-72.6854594119999,-36.4629789210978],[-72.685070633,-36.4630964070979],[-72.6842634739999,-36.4629376580978],[-72.682284395,-36.4619811090979],[-72.6816635139999,-36.4615159490978],[-72.6807568529999,-36.4617248730978]]]]}}]}