{"type":"FeatureCollection","features":[{"type":"Feature","properties":{"id":"7309021001001","commune":"Vichuquén","code":"07309","gse":"D","quintil":"Q1","nse_score":623.2,"educ":9.2,"educ_score":413.3,"hacin":1.273,"hacin_class":"Hacinamiento Leve","hacin_score":793.0,"auto_score":33.3,"n_per":42,"n_hog":15,"source_year":2024,"crime_score":0.8718,"crime_nivel":"Alto","crime_color":"#f44336"},"geometry":{"type":"Polygon","coordinates":[[[-72.0881019419999,-34.7531146971159],[-72.0866037929999,-34.7537249511158],[-72.0857587549999,-34.7534697621159],[-72.0855559869999,-34.7536704881159],[-72.0851648959999,-34.7536611201159],[-72.0847853889999,-34.7538282411159],[-72.0841179839999,-34.7537834221158],[-72.0836336129999,-34.7538922231158],[-72.0830696799999,-34.7541872761158],[-72.0829362459999,-34.7545601611158],[-72.0838830229999,-34.7549739341159],[-72.0855932009999,-34.7538316071159],[-72.086519371,-34.7540222251158],[-72.0868359409999,-34.7539527471158],[-72.0870676219999,-34.7536337761159],[-72.0877866319999,-34.7535630041159],[-72.0880653979999,-34.7536512491158],[-72.0881019419999,-34.7531146971159]]]}},{"type":"Feature","properties":{"id":"7309021001002","commune":"Vichuquén","code":"07309","gse":"C2","quintil":"Q4","nse_score":726.2,"educ":13.5,"educ_score":700.0,"hacin":1.143,"hacin_class":"Hacinamiento Leve","hacin_score":820.7,"auto_score":0.0,"n_per":16,"n_hog":6,"source_year":2024,"crime_score":0.8135,"crime_nivel":"Alto","crime_color":"#f44336"},"geometry":{"type":"Polygon","coordinates":[[[-72.0837726859999,-34.7553085131158],[-72.0837303179999,-34.7557440461159],[-72.0851208489999,-34.7556993261159],[-72.0853973249999,-34.7554813051158],[-72.0848178619999,-34.7548751541158],[-72.0856835389999,-34.7546629521159],[-72.0858688409999,-34.7552205111159],[-72.0864467399999,-34.7553628561158],[-72.0874889519999,-34.7554168961158],[-72.0882538219999,-34.7552007411159],[-72.0880685989999,-34.7536916241159],[-72.0877868719999,-34.7535991791159],[-72.0870704639999,-34.7536717921159],[-72.0867762729999,-34.7540169451159],[-72.0859326189999,-34.7539881081158],[-72.0857163469999,-34.7540885311159],[-72.0857268739999,-34.7543271401158],[-72.0856777539999,-34.7540691711158],[-72.0858850659999,-34.7539735831159],[-72.0854380929999,-34.7540018961158],[-72.0844647289999,-34.7545902961159],[-72.0851509649999,-34.7544237331159],[-72.0844087149999,-34.7546169931159],[-72.0840677849999,-34.7548706701159],[-72.0837726859999,-34.7553085131158]]]}},{"type":"Feature","properties":{"id":"7309021001004","commune":"Vichuquén","code":"07309","gse":"C3","quintil":"Q3","nse_score":692.2,"educ":11.7,"educ_score":580.0,"hacin":1.0,"hacin_class":"Hacinamiento Leve","hacin_score":851.1,"auto_score":61.0,"n_per":103,"n_hog":40,"source_year":2024,"crime_score":0.8648,"crime_nivel":"Alto","crime_color":"#f44336"},"geometry":{"type":"Polygon","coordinates":[[[-72.0835308199999,-34.7560846591159],[-72.0830511209999,-34.7578892421158],[-72.0822668499999,-34.7584565051158],[-72.0819351529999,-34.7598066111158],[-72.0815199369999,-34.7600435661158],[-72.0817019659999,-34.7594296651158],[-72.0816983969999,-34.7590370541158],[-72.0815127989999,-34.7590013621158],[-72.0798681159999,-34.7610914811158],[-72.0797396249999,-34.7608535351158],[-72.0795326119999,-34.7609415751158],[-72.0791899689999,-34.7616768281158],[-72.0779693059999,-34.7626476481157],[-72.0776017059999,-34.7632687871158],[-72.0779585759999,-34.7634086221158],[-72.0780966089999,-34.7632114681158],[-72.0779689459999,-34.7631042451158],[-72.0786521619999,-34.7633488631157],[-72.0784429489999,-34.7636207251158],[-72.0785828379999,-34.7637127261157],[-72.078522141,-34.7640384221157],[-72.0790127149999,-34.7642374681157],[-72.079730503,-34.7634128311157],[-72.0790246939999,-34.7631034431157],[-72.0788014679999,-34.7631663831158],[-72.0782866079999,-34.7629164311158],[-72.0788001929999,-34.7631236681157],[-72.0790263749999,-34.7630757071158],[-72.0797517199999,-34.7633903551158],[-72.0799603519999,-34.7631264851157],[-72.0791292549999,-34.7627495801158],[-72.0799763909999,-34.7631083921158],[-72.0807311139999,-34.7621697331158],[-72.0803927269999,-34.7620306451158],[-72.0804927329999,-34.7618899251158],[-72.0799527919999,-34.7616911881158],[-72.0806157829999,-34.7618997591158],[-72.0805191089999,-34.7620405581158],[-72.0807640979999,-34.7621290091158],[-72.0809277899999,-34.7619269091158],[-72.0807301259999,-34.7618193991158],[-72.0807816469999,-34.7616762361158],[-72.0801671769999,-34.7614245871158],[-72.0808558769999,-34.7616644801158],[-72.0808123129999,-34.7618146021158],[-72.0809619159999,-34.7618847741158],[-72.0820754619999,-34.7605862531158],[-72.0830072359999,-34.7591212501158],[-72.0833691759999,-34.7579981691158],[-72.0833988499999,-34.7572915771158],[-72.0836607909999,-34.7564865341158],[-72.0836991939999,-34.7553579491158],[-72.0838536229999,-34.7550006541159],[-72.0829362459999,-34.7545601611158],[-72.0835308199999,-34.7560846591159]]]}},{"type":"Feature","properties":{"id":"7309021001005","commune":"Vichuquén","code":"07309","gse":"C3","quintil":"Q2","nse_score":671.3,"educ":12.6,"educ_score":640.0,"hacin":1.235,"hacin_class":"Hacinamiento Leve","hacin_score":801.0,"auto_score":62.5,"n_per":21,"n_hog":7,"source_year":2024,"crime_score":0.8407,"crime_nivel":"Alto","crime_color":"#f44336"},"geometry":{"type":"Polygon","coordinates":[[[-72.0810081509999,-34.7635472761158],[-72.0811585129999,-34.7633697911157],[-72.0806119029999,-34.7631947211157],[-72.0825758239999,-34.7608202021158],[-72.0836582249999,-34.7590032161158],[-72.0831589849999,-34.7588795411158],[-72.0822056229999,-34.7605002301158],[-72.0800254009999,-34.7631681571157],[-72.0810081509999,-34.7635472761158]]]}},{"type":"Feature","properties":{"id":"7309021001006","commune":"Vichuquén","code":"07309","gse":"E","quintil":"Q1","nse_score":578.1,"educ":10.5,"educ_score":500.0,"hacin":1.196,"hacin_class":"Hacinamiento Leve","hacin_score":809.3,"auto_score":176.5,"n_per":67,"n_hog":29,"source_year":2024,"crime_score":0.9037,"crime_nivel":"Alto","crime_color":"#f44336"},"geometry":{"type":"Polygon","coordinates":[[[-72.0798397619999,-34.7634010231157],[-72.0809091939999,-34.7638067591157],[-72.0798054489999,-34.7634441431158],[-72.0796751319999,-34.7636079091157],[-72.0803779409999,-34.7639002181158],[-72.0796599439999,-34.7636266541158],[-72.0795333039999,-34.7637891951158],[-72.080735075,-34.7643012611158],[-72.0795185409999,-34.7638083101158],[-72.0794370669999,-34.7639196561157],[-72.080318255,-34.7649774681157],[-72.0806879499999,-34.7652078061157],[-72.0811017809999,-34.7662238371157],[-72.0814908229999,-34.7666521401157],[-72.0816636879999,-34.7666621361157],[-72.0815948449999,-34.7657518361157],[-72.0812812249999,-34.7650297211158],[-72.0810342959999,-34.7647452791158],[-72.0806829399999,-34.7646062081157],[-72.0810750399999,-34.7635736341158],[-72.0800087549999,-34.7631911031158],[-72.0798397619999,-34.7634010231157]]]}},{"type":"Feature","properties":{"id":"7309021001007","commune":"Vichuquén","code":"07309","gse":"C2","quintil":"Q3","nse_score":710.5,"educ":13.1,"educ_score":673.3,"hacin":1.222,"hacin_class":"Hacinamiento Leve","hacin_score":803.8,"auto_score":0.0,"n_per":11,"n_hog":5,"source_year":2024,"crime_score":0.8186,"crime_nivel":"Alto","crime_color":"#f44336"},"geometry":{"type":"Polygon","coordinates":[[[-72.0785610649999,-34.7634154001157],[-72.0781523389999,-34.7632299091158],[-72.078010607,-34.7634331881158],[-72.0784059959999,-34.7636159261157],[-72.0785610649999,-34.7634154001157]]]}},{"type":"Feature","properties":{"id":"7309021001008","commune":"Vichuquén","code":"07309","gse":"D","quintil":"Q2","nse_score":630.8,"educ":11.5,"educ_score":566.7,"hacin":1.433,"hacin_class":"Hacinamiento Leve","hacin_score":758.9,"auto_score":0.0,"n_per":86,"n_hog":33,"source_year":2024,"crime_score":0.887,"crime_nivel":"Alto","crime_color":"#f44336"},"geometry":{"type":"Polygon","coordinates":[[[-72.077024837,-34.7648108171158],[-72.0759804729999,-34.7653701481157],[-72.0730186389999,-34.7661381191157],[-72.0727283449999,-34.7663689271157],[-72.072452327,-34.7664022391157],[-72.072323836,-34.7662166411157],[-72.0716314129999,-34.7662618511158],[-72.0704797539999,-34.7666425651157],[-72.0703298479999,-34.7665069361157],[-72.0695993529999,-34.7668186451157],[-72.0689164479999,-34.7673016761157],[-72.0682501989999,-34.7680773801157],[-72.0680217709999,-34.7685675491157],[-72.0680289089999,-34.7691243431157],[-72.0679256439999,-34.7691769271157],[-72.0690038719999,-34.7699772031157],[-72.0748054429999,-34.7661432741157],[-72.0773524289999,-34.7654519401157],[-72.0788999399999,-34.7643025761157],[-72.0784497739999,-34.7640069401157],[-72.0785310169999,-34.7637151341158],[-72.0776017059999,-34.7632687871158],[-72.0775538919999,-34.7640733421158],[-72.077024837,-34.7648108171158]]]}},{"type":"Feature","properties":{"id":"7309021001011","commune":"Vichuquén","code":"07309","gse":"E","quintil":"Q1","nse_score":570.4,"educ":10.6,"educ_score":506.7,"hacin":1.119,"hacin_class":"Hacinamiento Leve","hacin_score":825.7,"auto_score":225.0,"n_per":47,"n_hog":19,"source_year":2024,"crime_score":0.8985,"crime_nivel":"Alto","crime_color":"#f44336"},"geometry":{"type":"Polygon","coordinates":[[[-72.0771312099999,-34.7686844321157],[-72.0777835469999,-34.7682410021157],[-72.0773778879999,-34.7678120741157],[-72.0764952619999,-34.7661058031157],[-72.0778822819999,-34.7655483721157],[-72.078468987,-34.7660760341157],[-72.0786412109999,-34.7659435241158],[-72.0777768359999,-34.7652519371158],[-72.077217791,-34.7655684971157],[-72.0749044039999,-34.7661638621157],[-72.0748251979999,-34.7666098721157],[-72.0751995649999,-34.7667537981158],[-72.075525206,-34.7671534611157],[-72.076012525,-34.7673511141157],[-72.0763334799999,-34.7679256141157],[-72.0769368129999,-34.7675230311157],[-72.0773386469999,-34.7678984041157],[-72.0767967899999,-34.7683258751157],[-72.0771312099999,-34.7686844321157]]]}},{"type":"Feature","properties":{"id":"7309021001013","commune":"Vichuquén","code":"07309","gse":"D","quintil":"Q1","nse_score":620.9,"educ":10.7,"educ_score":513.3,"hacin":0.943,"hacin_class":"Sin Hacinamiento","hacin_score":863.2,"auto_score":266.7,"n_per":66,"n_hog":26,"source_year":2024,"crime_score":0.8831,"crime_nivel":"Alto","crime_color":"#f44336"},"geometry":{"type":"Polygon","coordinates":[[[-72.0739098609999,-34.7677788841157],[-72.0731752049999,-34.7673311811157],[-72.0728419959999,-34.7675555351157],[-72.0732780969999,-34.7679657271157],[-72.0743748949999,-34.7683879551157],[-72.0747678299999,-34.7686870131157],[-72.0733576119999,-34.7680331351157],[-72.0739281349999,-34.7686239291157],[-72.0741824549999,-34.7693138951157],[-72.0770726199999,-34.7687088691157],[-72.0762625879999,-34.7679438001157],[-72.0758394289999,-34.7672876291157],[-72.0755257279999,-34.7672075871157],[-72.0749236689999,-34.7673628901157],[-72.0746568819999,-34.7670817571157],[-72.0744731339999,-34.7674737621157],[-72.0748418039999,-34.7662048721157],[-72.0732042959999,-34.7673116001157],[-72.0741703739999,-34.7678007371157],[-72.0739098609999,-34.7677788841157]]]}},{"type":"Feature","properties":{"id":"7309021001014","commune":"Vichuquén","code":"07309","gse":"E","quintil":"Q1","nse_score":464.7,"educ":8.3,"educ_score":353.3,"hacin":1.5,"hacin_class":"Hacinamiento Medio","hacin_score":744.7,"auto_score":0.0,"n_per":9,"n_hog":4,"source_year":2024,"crime_score":0.9301,"crime_nivel":"Alto","crime_color":"#f44336"},"geometry":{"type":"Polygon","coordinates":[[[-72.0748754939999,-34.7672878421157],[-72.0754895119999,-34.7671564501157],[-72.0751724399999,-34.7667809241157],[-72.0748094949999,-34.7666493231157],[-72.0747122259999,-34.7670498461157],[-72.0748754939999,-34.7672878421157]]]}},{"type":"Feature","properties":{"id":"7309021001016","commune":"Vichuquén","code":"07309","gse":"D","quintil":"Q1","nse_score":625.5,"educ":9.5,"educ_score":433.3,"hacin":1.128,"hacin_class":"Hacinamiento Leve","hacin_score":823.9,"auto_score":275.0,"n_per":53,"n_hog":20,"source_year":2024,"crime_score":0.8754,"crime_nivel":"Alto","crime_color":"#f44336"},"geometry":{"type":"Polygon","coordinates":[[[-72.0696745559999,-34.7704697301157],[-72.0701731819999,-34.7701376731157],[-72.070009249,-34.7700185381157],[-72.0725844299999,-34.7683154441157],[-72.072791547,-34.7685066131157],[-72.0733792159999,-34.7681191611157],[-72.0728187219999,-34.7675712001157],[-72.0712230839999,-34.7686129491157],[-72.0712615009999,-34.7687736511157],[-72.0711066209999,-34.7688618291157],[-72.0709747539999,-34.7687745781157],[-72.0690646129999,-34.7700201291157],[-72.0696745559999,-34.7704697301157]]]}},{"type":"Feature","properties":{"id":"7309021001018","commune":"Vichuquén","code":"07309","gse":"E","quintil":"Q1","nse_score":536.2,"educ":10.2,"educ_score":480.0,"hacin":1.452,"hacin_class":"Hacinamiento Leve","hacin_score":755.0,"auto_score":264.7,"n_per":45,"n_hog":17,"source_year":2024,"crime_score":0.9135,"crime_nivel":"Alto","crime_color":"#f44336"},"geometry":{"type":"Polygon","coordinates":[[[-72.0677901769999,-34.7715162231157],[-72.0684970299999,-34.7707497171157],[-72.0686744559999,-34.7708874371157],[-72.0690919219999,-34.7706093451157],[-72.0706981849999,-34.7717388661157],[-72.0710867919999,-34.7714924741157],[-72.069524456,-34.7704043061157],[-72.0695719169999,-34.7705549211157],[-72.0695162379999,-34.7706677071157],[-72.0694765359999,-34.7703705861157],[-72.0690333899999,-34.7700382161157],[-72.0679276709999,-34.7708703871157],[-72.0674846149999,-34.7714739871156],[-72.0677901769999,-34.7715162231157]]]}},{"type":"Feature","properties":{"id":"7309021001020","commune":"Vichuquén","code":"07309","gse":"D","quintil":"Q1","nse_score":611.2,"educ":10.2,"educ_score":480.0,"hacin":1.528,"hacin_class":"Hacinamiento Medio","hacin_score":738.8,"auto_score":280.5,"n_per":110,"n_hog":43,"source_year":2024,"crime_score":0.9066,"crime_nivel":"Alto","crime_color":"#f44336"},"geometry":{"type":"Polygon","coordinates":[[[-72.0659251279999,-34.7770676371156],[-72.0649669459999,-34.7775918201156],[-72.0646828389999,-34.7774590461156],[-72.0645886119999,-34.7773519701156],[-72.0645691039999,-34.7770363041156],[-72.0642292049999,-34.7774701361156],[-72.0647993529999,-34.7782403651156],[-72.0654986119999,-34.7782915991156],[-72.0652344989999,-34.7776487281156],[-72.0662329599999,-34.7773376891156],[-72.0656498199999,-34.7766683781156],[-72.0650573339999,-34.7762238211156],[-72.0644830319999,-34.7747701401156],[-72.065843061,-34.7737794311156],[-72.0656129039999,-34.7733832201156],[-72.0633067209999,-34.7750992421156],[-72.0633645839999,-34.7753634941156],[-72.0639718559999,-34.7753360901156],[-72.0633827469999,-34.7754086101156],[-72.0636966279999,-34.7761928721156],[-72.0645343599999,-34.7760013881156],[-72.0637091899999,-34.7762246601156],[-72.0637928889999,-34.7764364661156],[-72.0645115169999,-34.7762455201156],[-72.0638051669999,-34.7764675361156],[-72.0638726139999,-34.7766362931156],[-72.0647629849999,-34.7763023881156],[-72.0649010369999,-34.7762948921156],[-72.0638860859999,-34.7766696291156],[-72.0642109679999,-34.7774285241156],[-72.0644244,-34.7770759541156],[-72.0649361979999,-34.7768589591156],[-72.0646220349999,-34.7770189101156],[-72.0646557129999,-34.7773619641156],[-72.064841311,-34.7775004481156],[-72.065219097,-34.7772797911156],[-72.0659251279999,-34.7770676371156]]]}},{"type":"Feature","properties":{"id":"7309021001022","commune":"Vichuquén","code":"07309","gse":"E","quintil":"Q1","nse_score":535.9,"educ":9.8,"educ_score":453.3,"hacin":1.867,"hacin_class":"Hacinamiento Medio","hacin_score":666.7,"auto_score":0.0,"n_per":28,"n_hog":8,"source_year":2024,"crime_score":0.9061,"crime_nivel":"Alto","crime_color":"#f44336"},"geometry":{"type":"Polygon","coordinates":[[[-72.0646572479999,-34.7782130241156],[-72.0641156979999,-34.7773713611156],[-72.0632327949999,-34.7751847081156],[-72.0623533379999,-34.7753731741156],[-72.0623445139999,-34.7755555501156],[-72.0635698249999,-34.7776008281156],[-72.0640981129999,-34.7780525481156],[-72.0646572479999,-34.7782130241156]]]}},{"type":"Feature","properties":{"id":"7309021001025","commune":"Vichuquén","code":"07309","gse":"D","quintil":"Q1","nse_score":601.2,"educ":9.0,"educ_score":400.0,"hacin":1.462,"hacin_class":"Hacinamiento Leve","hacin_score":752.9,"auto_score":0.0,"n_per":38,"n_hog":13,"source_year":2024,"crime_score":0.8803,"crime_nivel":"Alto","crime_color":"#f44336"},"geometry":{"type":"Polygon","coordinates":[[[-72.0619362979999,-34.7767437041156],[-72.0622925089999,-34.7766849261156],[-72.0621361729999,-34.7761250441156],[-72.0618030479999,-34.7761821511156],[-72.0619362979999,-34.7767437041156]]]}},{"type":"Feature","properties":{"id":"7309021001023","commune":"Vichuquén","code":"07309","gse":"D","quintil":"Q1","nse_score":611.6,"educ":9.9,"educ_score":460.0,"hacin":1.299,"hacin_class":"Hacinamiento Leve","hacin_score":787.4,"auto_score":86.4,"n_per":204,"n_hog":76,"source_year":2024,"crime_score":0.9468,"crime_nivel":"Alto","crime_color":"#f44336"},"geometry":{"type":"MultiPolygon","coordinates":[[[[-72.0628208769999,-34.7767378401156],[-72.0624993699999,-34.7769336841156],[-72.0628777789999,-34.7768569701156],[-72.0628208769999,-34.7767378401156]]],[[[-72.0619379409999,-34.7754114651156],[-72.0607573869999,-34.7756504571156],[-72.0608820919999,-34.7758378301156],[-72.0609043249999,-34.7762281611156],[-72.0606997669999,-34.7756624861156],[-72.0591728189999,-34.7759726671156],[-72.0597675099999,-34.7778133411156],[-72.0601200609999,-34.7777021451156],[-72.0600612469999,-34.7774748431156],[-72.0623673469999,-34.7769604491156],[-72.0623384269999,-34.7768365031156],[-72.0598720679999,-34.7774070651156],[-72.0618816939999,-34.7768224341156],[-72.0617411819999,-34.7761417011156],[-72.0621694849999,-34.7760631781156],[-72.0623622219999,-34.7766556641156],[-72.0626739309999,-34.7766009371156],[-72.062461519,-34.7758760251156],[-72.0621912319999,-34.7755228101156],[-72.0619379409999,-34.7754114651156]]]]}},{"type":"Feature","properties":{"id":"7309021001009","commune":"Vichuquén","code":"07309","gse":"D","quintil":"Q1","nse_score":607.4,"educ":10.1,"educ_score":473.3,"hacin":1.088,"hacin_class":"Hacinamiento Leve","hacin_score":832.3,"auto_score":131.6,"n_per":37,"n_hog":15,"source_year":2024,"crime_score":0.877,"crime_nivel":"Alto","crime_color":"#f44336"},"geometry":{"type":"MultiPolygon","coordinates":[[[[-72.0782593579999,-34.7655677831157],[-72.0789329069999,-34.7661505661158],[-72.0792944599999,-34.7660702931157],[-72.0790764249999,-34.7656820021157],[-72.0786127449999,-34.7652887971157],[-72.0782593579999,-34.7655677831157]]],[[[-72.0790157559999,-34.7655470531157],[-72.0793233019999,-34.7660638891157],[-72.0797181119999,-34.7659505321157],[-72.0794959219999,-34.7655760891157],[-72.0803613879999,-34.7660825191157],[-72.0807862119999,-34.7667034021157],[-72.0815978759999,-34.7667406871157],[-72.081635779,-34.7667075951157],[-72.0814297169999,-34.7666637141157],[-72.0810528099999,-34.7662468321157],[-72.0806651789999,-34.7652464691157],[-72.0802836109999,-34.7650307191157],[-72.0794171569999,-34.7640166161157],[-72.0782310579999,-34.7648847241158],[-72.0790157559999,-34.7655470531157]]]]}},{"type":"Feature","properties":{"id":"7309021001017","commune":"Vichuquén","code":"07309","gse":"C3","quintil":"Q3","nse_score":682.3,"educ":11.5,"educ_score":566.7,"hacin":1.286,"hacin_class":"Hacinamiento Leve","hacin_score":790.3,"auto_score":55.6,"n_per":72,"n_hog":26,"source_year":2024,"crime_score":0.8567,"crime_nivel":"Alto","crime_color":"#f44336"},"geometry":{"type":"MultiPolygon","coordinates":[[[[-72.0591287159999,-34.7758304361156],[-72.0617467029999,-34.7754008801156],[-72.0618221279999,-34.7752736071156],[-72.0613722659999,-34.7747871581156],[-72.0607609879999,-34.7751743101156],[-72.0591287159999,-34.7758304361156]]],[[[-72.0679038349999,-34.7692003431157],[-72.0676743689999,-34.7705686761157],[-72.0668867679999,-34.7715585311157],[-72.0663180769999,-34.7725412491156],[-72.0647880829999,-34.7735239661156],[-72.0614696329999,-34.7747343151156],[-72.0620315599999,-34.7752124951156],[-72.0623767039999,-34.7752767961156],[-72.0629121819999,-34.7751415441156],[-72.0655142459999,-34.7733872011156],[-72.0667424459999,-34.7722998571157],[-72.0676413389999,-34.7710749451157],[-72.068248734,-34.7705108751157],[-72.0678375359999,-34.7702016411156],[-72.0682870239999,-34.7704825171157],[-72.0684757009999,-34.7703441751157],[-72.068330338,-34.7701800411157],[-72.0685259799999,-34.7703073091157],[-72.0682617539999,-34.7699477671157],[-72.0685596969999,-34.7702832871157],[-72.0689738799999,-34.7699974821157],[-72.0679038349999,-34.7692003431157]]]]}},{"type":"Feature","properties":{"id":"7309013083001","commune":"Vichuquén","code":"07309","gse":"D","quintil":"Q1","nse_score":617.6,"educ":12.1,"educ_score":606.7,"hacin":1.15,"hacin_class":"Hacinamiento Leve","hacin_score":819.1,"auto_score":20.8,"n_per":46,"n_hog":21,"source_year":2024,"crime_score":0.8761,"crime_nivel":"Alto","crime_color":"#f44336"},"geometry":{"type":"Polygon","coordinates":[[[-71.9936402839999,-34.8803101251144],[-71.9925804919999,-34.8801710491144],[-71.9924398059999,-34.8802781141145],[-71.9932684549999,-34.8809750201144],[-71.9933636509999,-34.8819383661144],[-71.9946847159999,-34.8816782461144],[-71.9946801539999,-34.8814378281144],[-71.9942253069999,-34.8815468031144],[-71.9943726549999,-34.8814000271144],[-71.9946803019999,-34.8813837271144],[-71.9946945119999,-34.8808280131144],[-71.9941162909999,-34.8808090491144],[-71.9944217299999,-34.8807693151144],[-71.9942252389999,-34.8805533361144],[-71.9946963629999,-34.8807738981144],[-71.9946656759999,-34.8796621751144],[-71.9944542719999,-34.8796675161144],[-71.9944579009999,-34.8798435021144],[-71.9940987789999,-34.8802862921144],[-71.9937065129999,-34.8803149491144],[-71.9938114669999,-34.8808999971144],[-71.9936215619999,-34.8805491291144],[-71.9936402839999,-34.8803101251144]]]}},{"type":"Feature","properties":{"id":"7309013083005","commune":"Vichuquén","code":"07309","gse":"D","quintil":"Q1","nse_score":620.6,"educ":12.0,"educ_score":600.0,"hacin":1.343,"hacin_class":"Hacinamiento Leve","hacin_score":778.0,"auto_score":97.2,"n_per":90,"n_hog":36,"source_year":2024,"crime_score":0.8935,"crime_nivel":"Alto","crime_color":"#f44336"},"geometry":{"type":"Polygon","coordinates":[[[-71.9911850809999,-34.8807339371144],[-71.9916018359999,-34.8811643791144],[-71.9920683219999,-34.8809597011144],[-71.9923683309999,-34.8812931651144],[-71.9916869959999,-34.8815176141144],[-71.9916442049999,-34.8819336201144],[-71.9910301139999,-34.8820775211144],[-71.9916244649999,-34.8827601301144],[-71.9904503509999,-34.8836255721144],[-71.9907560099999,-34.8841244141144],[-71.9901897469999,-34.8844795131143],[-71.9904396119999,-34.8847440901143],[-71.9902212739999,-34.8848721311144],[-71.9894114829999,-34.8848872951144],[-71.9895638909999,-34.8859065441144],[-71.9881053979999,-34.8865410861144],[-71.9886119789999,-34.8865771231143],[-71.9893908019999,-34.8862660591143],[-71.9910933589999,-34.8858748531144],[-71.9909478129999,-34.8853728631143],[-71.9911417769999,-34.8858639701144],[-71.9919348419999,-34.8856480831143],[-71.9908728079999,-34.8849645281144],[-71.9905485869999,-34.8851537541144],[-71.9898483449999,-34.8852530291144],[-71.9908416119999,-34.8848999881143],[-71.9906100279999,-34.8845489251144],[-71.990738974,-34.8845166511144],[-71.9907534319999,-34.8846809861144],[-71.9914148169999,-34.8841771211144],[-71.9910981059999,-34.8837108751144],[-71.9908277239999,-34.8837005771144],[-71.9911287939999,-34.8836604141144],[-71.9914579149999,-34.8841249871144],[-71.9915706069999,-34.8840847321144],[-71.990791741,-34.8847252701144],[-71.9909195989999,-34.8848476371144],[-71.9922792389999,-34.8840513791144],[-71.9919029169999,-34.8834458301144],[-71.9916211509999,-34.8834588271144],[-71.9919090449999,-34.8833916211144],[-71.9925788959999,-34.8828504761144],[-71.9933023069999,-34.8819692591144],[-71.9931376659999,-34.8809048641144],[-71.9926924459999,-34.8812631901144],[-71.9925227969999,-34.8811981211144],[-71.9923932339999,-34.8808942411144],[-71.9920786639999,-34.8807625671144],[-71.9911850809999,-34.8807339371144]]]}},{"type":"Feature","properties":{"id":"7309013083006","commune":"Vichuquén","code":"07309","gse":"E","quintil":"Q1","nse_score":543.6,"educ":12.7,"educ_score":646.7,"hacin":1.059,"hacin_class":"Hacinamiento Leve","hacin_score":838.5,"auto_score":222.2,"n_per":18,"n_hog":9,"source_year":2024,"crime_score":0.8981,"crime_nivel":"Alto","crime_color":"#f44336"},"geometry":{"type":"Polygon","coordinates":[[[-71.9940901409999,-34.8841345771144],[-71.9945967159999,-34.8858601741144],[-71.9951022159999,-34.8861174831144],[-71.9947268459999,-34.8846373061144],[-71.9953969599999,-34.8845514371144],[-71.9955573649999,-34.8840275991144],[-71.9946155169999,-34.8841403251144],[-71.9943862069999,-34.8822234661144],[-71.9957305409999,-34.8819532791144],[-71.9957149939999,-34.8815251721144],[-71.9933615509999,-34.8819943861144],[-71.9931624789999,-34.8822774681144],[-71.9940901409999,-34.8841345771144]]]}},{"type":"Feature","properties":{"id":"7309013083007","commune":"Vichuquén","code":"07309","gse":"E","quintil":"Q1","nse_score":570.7,"educ":12.4,"educ_score":626.7,"hacin":1.345,"hacin_class":"Hacinamiento Leve","hacin_score":777.7,"auto_score":200.0,"n_per":39,"n_hog":16,"source_year":2024,"crime_score":0.8949,"crime_nivel":"Alto","crime_color":"#f44336"},"geometry":{"type":"Polygon","coordinates":[[[-71.9919629649999,-34.8834238011144],[-71.9923381369999,-34.8840274981144],[-71.9936911569999,-34.8835296821144],[-71.993120556,-34.8823240151144],[-71.9919629649999,-34.8834238011144]]]}},{"type":"Feature","properties":{"id":"7309013083009","commune":"Vichuquén","code":"07309","gse":"E","quintil":"Q1","nse_score":556.9,"educ":12.2,"educ_score":613.3,"hacin":1.294,"hacin_class":"Hacinamiento Leve","hacin_score":788.5,"auto_score":0.0,"n_per":22,"n_hog":9,"source_year":2024,"crime_score":0.8938,"crime_nivel":"Alto","crime_color":"#f44336"},"geometry":{"type":"Polygon","coordinates":[[[-71.9923819549999,-34.8840996041144],[-71.9931266279999,-34.8853546671144],[-71.9942711819999,-34.8850592991143],[-71.9939541709999,-34.8839989591144],[-71.9936111909999,-34.8840978971144],[-71.9934011499999,-34.8836970281144],[-71.9923819549999,-34.8840996041144]]]}},{"type":"Feature","properties":{"id":"7309013083010","commune":"Vichuquén","code":"07309","gse":"C3","quintil":"Q2","nse_score":655.0,"educ":11.7,"educ_score":580.0,"hacin":1.079,"hacin_class":"Hacinamiento Leve","hacin_score":834.3,"auto_score":204.5,"n_per":41,"n_hog":21,"source_year":2024,"crime_score":0.8566,"crime_nivel":"Alto","crime_color":"#f44336"},"geometry":{"type":"Polygon","coordinates":[[[-71.9911721439999,-34.8848012081144],[-71.9916469429999,-34.8851294621144],[-71.9921406119999,-34.8848573151144],[-71.9917000839999,-34.8851652381144],[-71.9922925479999,-34.8855583041143],[-71.9930632379999,-34.8853709491144],[-71.9923091619999,-34.8840995291144],[-71.9917567809999,-34.8843450931143],[-71.9911721439999,-34.8848012081144]]]}},{"type":"Feature","properties":{"id":"7309013083011","commune":"Vichuquén","code":"07309","gse":"C2","quintil":"Q3","nse_score":715.3,"educ":12.5,"educ_score":633.3,"hacin":1.12,"hacin_class":"Hacinamiento Leve","hacin_score":825.5,"auto_score":214.3,"n_per":28,"n_hog":14,"source_year":2024,"crime_score":0.8233,"crime_nivel":"Alto","crime_color":"#f44336"},"geometry":{"type":"Polygon","coordinates":[[[-71.990920307,-34.8849164071144],[-71.9920300559999,-34.8856322331144],[-71.992217879,-34.8855782011144],[-71.9910823189999,-34.8848097051144],[-71.990920307,-34.8849164071144]]]}},{"type":"Feature","properties":{"id":"7309013083012","commune":"Vichuquén","code":"07309","gse":"C3","quintil":"Q3","nse_score":684.9,"educ":12.2,"educ_score":613.3,"hacin":0.971,"hacin_class":"Sin Hacinamiento","hacin_score":857.3,"auto_score":88.2,"n_per":33,"n_hog":17,"source_year":2024,"crime_score":0.8394,"crime_nivel":"Alto","crime_color":"#f44336"},"geometry":{"type":"Polygon","coordinates":[[[-71.9934043919999,-34.8861788431143],[-71.9932905209999,-34.8868015561144],[-71.9935924289999,-34.8869196201144],[-71.9938456189999,-34.8867973711143],[-71.9935999269999,-34.8869801121144],[-71.9932647969999,-34.8868516861144],[-71.9928206419999,-34.8875366281144],[-71.9931062109999,-34.8877026641144],[-71.9932494959999,-34.8879955901144],[-71.9934875849999,-34.8880080621143],[-71.9932119149999,-34.8880414781143],[-71.9930542119999,-34.8877377381143],[-71.9926788799999,-34.8876319671143],[-71.992980729,-34.8893388671143],[-71.9933808219999,-34.8898082681144],[-71.9938542989999,-34.8892525251143],[-71.9934809769999,-34.8872910891143],[-71.9941760279999,-34.8872238761144],[-71.9939843539999,-34.8862209331144],[-71.9945139909999,-34.8862963701144],[-71.9950530449999,-34.8861595631143],[-71.99454148,-34.8858917081144],[-71.9942797839999,-34.8851137531144],[-71.9931526119999,-34.8854046361143],[-71.9934043919999,-34.8861788431143]]]}},{"type":"Feature","properties":{"id":"7309013083002","commune":"Vichuquén","code":"07309","gse":"C3","quintil":"Q3","nse_score":681.4,"educ":10.3,"educ_score":486.7,"hacin":0.9,"hacin_class":"Sin Hacinamiento","hacin_score":872.3,"auto_score":250.0,"n_per":9,"n_hog":4,"source_year":2024,"crime_score":0.8311,"crime_nivel":"Alto","crime_color":"#f44336"},"geometry":{"type":"MultiPolygon","coordinates":[[[[-71.9923741759999,-34.8802653931144],[-71.9914436829999,-34.8801959081144],[-71.9916675039999,-34.8806469641144],[-71.9923751689999,-34.8808065141144],[-71.9926415969999,-34.8812091061144],[-71.9930857349999,-34.8808716801144],[-71.9923741759999,-34.8802653931144]]],[[[-71.991918902,-34.8799725251144],[-71.9919334889999,-34.8801285951144],[-71.9922657609999,-34.8802379381144],[-71.9925878049999,-34.8801169661144],[-71.9938801329999,-34.8802551501144],[-71.9937343489999,-34.8799993381144],[-71.9925107329999,-34.8798935571144],[-71.991918902,-34.8799725251144]]]]}},{"type":"Feature","properties":{"id":"7309013083013","commune":"Vichuquén","code":"07309","gse":"C3","quintil":"Q3","nse_score":680.7,"educ":12.7,"educ_score":646.7,"hacin":1.0,"hacin_class":"Hacinamiento Leve","hacin_score":851.1,"auto_score":166.7,"n_per":11,"n_hog":7,"source_year":2024,"crime_score":0.8323,"crime_nivel":"Alto","crime_color":"#f44336"},"geometry":{"type":"MultiPolygon","coordinates":[[[[-71.9893062939999,-34.8868090081143],[-71.9898340969999,-34.8865670781143],[-71.9897992349999,-34.8862760381144],[-71.989128547,-34.8864736751143],[-71.9893062939999,-34.8868090081143]]],[[[-71.9918436169999,-34.8857399411144],[-71.9919634049999,-34.8862984641144],[-71.9917818579999,-34.8857615911144],[-71.9898724299999,-34.8862593321144],[-71.989882668,-34.8866215671144],[-71.9893536479999,-34.8868778361143],[-71.9891647879999,-34.8867775541144],[-71.9890660399999,-34.8864931191144],[-71.9886330839999,-34.8866324071143],[-71.9881661559999,-34.8866010331143],[-71.988501589,-34.8869319831144],[-71.9882787239999,-34.8871711751143],[-71.9886339169999,-34.8874979911143],[-71.989119436,-34.8875701931143],[-71.9890735229999,-34.8879657661143],[-71.9904416529999,-34.8881001181143],[-71.9903501469999,-34.8874497401144],[-71.9919724459999,-34.8872935301144],[-71.9922870999999,-34.8862470151143],[-71.9922470829999,-34.8871312771143],[-71.9930575539999,-34.8871214961144],[-71.9933617219999,-34.8863351231143],[-71.9930898389999,-34.8854207731144],[-71.9918436169999,-34.8857399411144]]]]}},{"type":"Feature","properties":{"id":"7309013083016","commune":"Vichuquén","code":"07309","gse":"D","quintil":"Q1","nse_score":625.9,"educ":11.7,"educ_score":580.0,"hacin":1.179,"hacin_class":"Hacinamiento Leve","hacin_score":813.1,"auto_score":50.0,"n_per":33,"n_hog":15,"source_year":2024,"crime_score":0.8667,"crime_nivel":"Alto","crime_color":"#f44336"},"geometry":{"type":"MultiPolygon","coordinates":[[[[-71.9914649879999,-34.8880005171144],[-71.9904715389999,-34.8887026361143],[-71.9909422439999,-34.8889514361143],[-71.9915727599999,-34.8883015551144],[-71.9921650989999,-34.8881335061143],[-71.9922331799999,-34.8894379061143],[-71.9921121329999,-34.8894472721143],[-71.9922581859999,-34.8902202801143],[-71.9926472529999,-34.8903385071143],[-71.9927352999999,-34.8907700901143],[-71.9929522709999,-34.8907400351143],[-71.9931047409999,-34.8905825931143],[-71.9930655669999,-34.8902747851143],[-71.9933630689999,-34.8901387611143],[-71.9933524729999,-34.8898665731143],[-71.9929463209999,-34.8893946591143],[-71.9928285309999,-34.8895854781143],[-71.9924854149999,-34.8898070521143],[-71.9929192049999,-34.8893590191143],[-71.9926186879999,-34.8876560351144],[-71.9914649879999,-34.8880005171144]]],[[[-71.9905201319999,-34.8884627311143],[-71.991402536,-34.8879543601143],[-71.9926025189999,-34.8876033831143],[-71.9924890159999,-34.8872164431143],[-71.9921306159999,-34.8872019131144],[-71.9917859309999,-34.8875132711143],[-71.9904368799999,-34.8882213871143],[-71.9903366599999,-34.8883066621143],[-71.9905201319999,-34.8884627311143]]]]}},{"type":"Feature","properties":{"id":"7309023030014","commune":"Vichuquén","code":"07309","gse":"D","quintil":"Q2","nse_score":639.4,"educ":10.8,"educ_score":520.0,"hacin":1.375,"hacin_class":"Hacinamiento Leve","hacin_score":771.3,"auto_score":400.0,"n_per":33,"n_hog":10,"source_year":2024,"crime_score":0.8605,"crime_nivel":"Alto","crime_color":"#f44336"},"geometry":{"type":"Polygon","coordinates":[[[-72.0520254229999,-34.8428105201149],[-72.051611712,-34.8426783641149],[-72.0512022199999,-34.8429162491148],[-72.0509713759999,-34.8432270211149],[-72.050644384,-34.8441450411148],[-72.0496781229999,-34.8449438241148],[-72.0509553729999,-34.8444561641149],[-72.0512160139999,-34.8441009571149],[-72.0515517759999,-34.8430622761149],[-72.0520254229999,-34.8428105201149]]]}},{"type":"Feature","properties":{"id":"7309023030016","commune":"Vichuquén","code":"07309","gse":"C3","quintil":"Q2","nse_score":664.0,"educ":11.3,"educ_score":553.3,"hacin":0.85,"hacin_class":"Sin Hacinamiento","hacin_score":883.0,"auto_score":55.6,"n_per":17,"n_hog":8,"source_year":2024,"crime_score":0.8424,"crime_nivel":"Alto","crime_color":"#f44336"},"geometry":{"type":"Polygon","coordinates":[[[-72.0618454109999,-34.8438656251148],[-72.0616198359999,-34.8444075361149],[-72.0619420879999,-34.8441864341148],[-72.0623941859999,-34.8439884631148],[-72.0626721069999,-34.8439484881149],[-72.0631023129999,-34.8440427141148],[-72.0635886749999,-34.8442130841148],[-72.0638237659999,-34.8449906921148],[-72.0635144359999,-34.8442083251148],[-72.0626663959999,-34.8439922701148],[-72.0619725449999,-34.8442159391148],[-72.0616153689999,-34.8444432641148],[-72.0612807349999,-34.8456125151148],[-72.0608157699999,-34.8458560271148],[-72.0610842959999,-34.8463210401148],[-72.0638960949999,-34.8466245721148],[-72.0642176969999,-34.8459368131148],[-72.0640934029999,-34.8458612501148],[-72.0639099479999,-34.8451953591148],[-72.0661420039999,-34.8448014491148],[-72.0659657929999,-34.8439019001148],[-72.0642624099999,-34.8440351471148],[-72.0635462719999,-34.8436001031148],[-72.0633423649999,-34.8429726571149],[-72.0625177189999,-34.8433428191148],[-72.0618454109999,-34.8438656251148]]]}},{"type":"Feature","properties":{"id":"7309023030035","commune":"Vichuquén","code":"07309","gse":"E","quintil":"Q1","nse_score":581.5,"educ":8.7,"educ_score":380.0,"hacin":1.12,"hacin_class":"Hacinamiento Leve","hacin_score":825.5,"auto_score":409.1,"n_per":28,"n_hog":10,"source_year":2024,"crime_score":0.8851,"crime_nivel":"Alto","crime_color":"#f44336"},"geometry":{"type":"Polygon","coordinates":[[[-72.0468994659999,-34.8493603311148],[-72.0473868799999,-34.8498753501147],[-72.0476673759999,-34.8500064451148],[-72.0480998059999,-34.8498247901148],[-72.0475925419999,-34.8495773551148],[-72.0475682389999,-34.8494852831147],[-72.0481823399999,-34.8498327871148],[-72.0476550139999,-34.8500622031148],[-72.0473405789999,-34.8499142051148],[-72.0468433219999,-34.8493888821147],[-72.046270853,-34.8496370061148],[-72.0469992139999,-34.8502007441148],[-72.0470014189999,-34.8511648871147],[-72.0475596019999,-34.8510791761147],[-72.0487425289999,-34.8505233081148],[-72.0486138779999,-34.8497063571148],[-72.0480166609999,-34.8489142671148],[-72.0475529819999,-34.8489444711148],[-72.0468994659999,-34.8493603311148]]]}},{"type":"Feature","properties":{"id":"7309023030038","commune":"Vichuquén","code":"07309","gse":"D","quintil":"Q2","nse_score":631.1,"educ":10.3,"educ_score":486.7,"hacin":1.036,"hacin_class":"Hacinamiento Leve","hacin_score":843.5,"auto_score":541.7,"n_per":29,"n_hog":11,"source_year":2024,"crime_score":0.8626,"crime_nivel":"Alto","crime_color":"#f44336"},"geometry":{"type":"Polygon","coordinates":[[[-72.0489794129999,-34.8554223881147],[-72.0501674649999,-34.8550439061147],[-72.0507625229999,-34.8547184461147],[-72.0506659279999,-34.8540204691147],[-72.0501567969999,-34.8532171651147],[-72.0500346969999,-34.8531706131147],[-72.0500596469999,-34.8533145921147],[-72.0499830939999,-34.8533800091147],[-72.0493608609999,-34.8535222771148],[-72.0488628679999,-34.8532799431147],[-72.0493605479999,-34.8534855901147],[-72.0500147689999,-34.8533056021147],[-72.0499895979999,-34.8531534181147],[-72.0493445559999,-34.8529074851147],[-72.0492886249999,-34.8514610451148],[-72.0487397209999,-34.8508431431148],[-72.0487422269999,-34.8505807161148],[-72.0476410449999,-34.8510984241147],[-72.0476671099999,-34.8514491061148],[-72.0474412919999,-34.8515227351148],[-72.0470531869999,-34.8513567021147],[-72.0474408449999,-34.8517781161147],[-72.0475082889999,-34.8520481311147],[-72.0483161419999,-34.8520138581148],[-72.0484481649999,-34.8517886481148],[-72.0490411289999,-34.8517475381147],[-72.0491480409999,-34.8518617081148],[-72.0491169289999,-34.8519984191147],[-72.0490379369999,-34.8517786201148],[-72.0484796109999,-34.8518176681148],[-72.0483278299999,-34.8520440111147],[-72.0475088629999,-34.8520808921147],[-72.0475689339999,-34.8523818501147],[-72.0477532529999,-34.8523986901147],[-72.0480739029999,-34.8521903281148],[-72.0477789629999,-34.8524290471147],[-72.0474929359999,-34.8524497881147],[-72.0483070959999,-34.8527866271147],[-72.0480997039999,-34.8528109081147],[-72.0474913109999,-34.8524874131148],[-72.0477281859999,-34.8539907231147],[-72.0491399469999,-34.8538844501147],[-72.0494769849999,-34.8536909271147],[-72.0491345419999,-34.8539260801147],[-72.0477444569999,-34.8540433261147],[-72.047810867,-34.8542580301147],[-72.0487710669999,-34.8543607081147],[-72.0502951489999,-34.8543100011147],[-72.0506475999999,-34.8543750791147],[-72.0488603589999,-34.8543913211147],[-72.0487626519999,-34.8548452811147],[-72.0489794129999,-34.8554223881147]]]}},{"type":"Feature","properties":{"id":"7309023030027","commune":"Vichuquén","code":"07309","gse":"C3","quintil":"Q3","nse_score":703.3,"educ":12.0,"educ_score":600.0,"hacin":0.875,"hacin_class":"Sin Hacinamiento","hacin_score":877.7,"auto_score":250.0,"n_per":7,"n_hog":4,"source_year":2024,"crime_score":0.8203,"crime_nivel":"Alto","crime_color":"#f44336"},"geometry":{"type":"MultiPolygon","coordinates":[[[[-72.0611338799999,-34.8463890061148],[-72.0611467289999,-34.8467002391148],[-72.0609156989999,-34.8473189601148],[-72.061134465,-34.8474432071148],[-72.0616553859999,-34.8473871581148],[-72.0619193209999,-34.8475464851148],[-72.0618105009999,-34.8473889731148],[-72.0617767609999,-34.8472591391148],[-72.0618174129999,-34.8472008811148],[-72.0619504719999,-34.8475752711148],[-72.0616404029999,-34.8474199681148],[-72.0611718909999,-34.8474851901148],[-72.0608860919999,-34.8473502201148],[-72.060744053,-34.8475356701148],[-72.0618626039999,-34.8477956091148],[-72.0607354959999,-34.8475761751148],[-72.0607355579999,-34.8476824811148],[-72.060804087,-34.8478780721148],[-72.06153244,-34.8483574931148],[-72.0621158529999,-34.8482290651148],[-72.0626692559999,-34.8477071691148],[-72.0636961319999,-34.8473164181148],[-72.0638837859999,-34.8466659741148],[-72.0616807139999,-34.8464339671148],[-72.0622868519999,-34.8467394201148],[-72.0631545969999,-34.8466209671148],[-72.0632450819999,-34.8466818811148],[-72.0631658109999,-34.8467673461148],[-72.0627656649999,-34.8468585131148],[-72.063207513,-34.8466828291148],[-72.0622763079999,-34.8467671101148],[-72.0619780099999,-34.8467185851148],[-72.0615978749999,-34.8464289811148],[-72.0611338799999,-34.8463890061148]]],[[[-72.0596473029999,-34.8466589321148],[-72.0591382499999,-34.8463972361148],[-72.0588089329999,-34.8465533281148],[-72.0587404039999,-34.8468540921148],[-72.0588631839999,-34.8473652001148],[-72.0604835969999,-34.8475032091148],[-72.0609130899999,-34.8472462271148],[-72.0610939289999,-34.8464146061148],[-72.0607621189999,-34.8458454501148],[-72.0600103499999,-34.8453247421148],[-72.0597088239999,-34.8452924381148],[-72.0598623149999,-34.8464332811148],[-72.0596473029999,-34.8466589321148]]]]}},{"type":"Feature","properties":{"id":"7309023030002","commune":"Vichuquén","code":"07309","gse":"C2","quintil":"Q3","nse_score":712.8,"educ":14.9,"educ_score":793.3,"hacin":1.154,"hacin_class":"Hacinamiento Leve","hacin_score":818.3,"auto_score":166.7,"n_per":15,"n_hog":8,"source_year":2024,"crime_score":0.8192,"crime_nivel":"Alto","crime_color":"#f44336"},"geometry":{"type":"MultiPolygon","coordinates":[[[[-72.0532550719999,-34.8424927301149],[-72.0525329099999,-34.8425489941148],[-72.0525075299999,-34.8428014601148],[-72.0520455979999,-34.8433138341149],[-72.0519139579999,-34.8440615561148],[-72.0524994059999,-34.8442701771148],[-72.0526082469999,-34.8442103541148],[-72.0527662839999,-34.8434641731148],[-72.0540345819999,-34.8426156561149],[-72.054256989,-34.8418051611149],[-72.0535291679999,-34.8423981921149],[-72.0532550719999,-34.8424927301149]]],[[[-72.0540526979999,-34.8413573861148],[-72.0538238059999,-34.8421155691148],[-72.0542899619999,-34.8416676351149],[-72.0543253589999,-34.8414289921148],[-72.0540301119999,-34.8410682691149],[-72.0540526979999,-34.8413573861148]]],[[[-72.0527796839999,-34.8422052901148],[-72.0529713759999,-34.8421480771148],[-72.0531803409999,-34.8415519941149],[-72.0531410929999,-34.8411344041149],[-72.0532278579999,-34.8405234541149],[-72.0530678999999,-34.8401505541149],[-72.0529092699999,-34.8400946271149],[-72.0526047379999,-34.8403342491149],[-72.0527801799999,-34.8410825001148],[-72.0527796839999,-34.8422052901148]]],[[[-72.0522274409999,-34.8396547971149],[-72.0521986229999,-34.8404992041149],[-72.0524839219999,-34.8412295471149],[-72.0522581809999,-34.8418326641149],[-72.0518225699999,-34.8425032721148],[-72.0520514809999,-34.8425246171148],[-72.0523276009999,-34.8422944691149],[-72.052030698,-34.8426510531149],[-72.0521492789999,-34.8426838171149],[-72.0527428819999,-34.8422199831149],[-72.0527302009999,-34.8411010481149],[-72.0525494339999,-34.8403206611149],[-72.0528139929999,-34.8400548241149],[-72.0530887479999,-34.8401128401149],[-72.0532752419999,-34.8404833551149],[-72.0532223399999,-34.8415784201149],[-72.0530211729999,-34.8421457621148],[-72.0525603179999,-34.8424541161149],[-72.0535049209999,-34.8423596431149],[-72.0538162569999,-34.8420443081148],[-72.0539988629999,-34.8413731801149],[-72.0536137369999,-34.8400113671149],[-72.0531244199999,-34.8396614971149],[-72.0524355639999,-34.8395881871149],[-72.0522274409999,-34.8396547971149]]],[[[-72.0511066949999,-34.8388796331149],[-72.0508935379999,-34.8393161581149],[-72.051243644,-34.8400314011149],[-72.0513636089999,-34.8407930691149],[-72.0515997859999,-34.8412944511149],[-72.0503753019999,-34.8432183241149],[-72.050292699,-34.8440727051148],[-72.0498544029999,-34.8444538951149],[-72.0496302569999,-34.8449250281148],[-72.0506167819999,-34.8440841261148],[-72.0510018089999,-34.8430452361149],[-72.0520564889999,-34.8420559041148],[-72.0524164529999,-34.8412391781149],[-72.0521384379999,-34.8404579051149],[-72.0521952979999,-34.8395897311149],[-72.0516536999999,-34.8392754321149],[-72.0515811509999,-34.8396135031149],[-72.0516871539999,-34.8400400971149],[-72.0515391159999,-34.8396031121149],[-72.051603155,-34.8392695471149],[-72.0517652379999,-34.8392411531149],[-72.0522212459999,-34.8395646871149],[-72.0530837349999,-34.8396098541149],[-72.0535871389999,-34.8399049931149],[-72.0539885229999,-34.8409157661149],[-72.0543563719999,-34.8413290071149],[-72.0543352209999,-34.8403961561149],[-72.0545619629999,-34.8398962641149],[-72.0544942539999,-34.8394220441149],[-72.0542127089999,-34.8389693221149],[-72.0534734759999,-34.8391193241149],[-72.0525359889999,-34.8390102431149],[-72.051564089,-34.8386371251149],[-72.0511066949999,-34.8388796331149]]]]}},{"type":"Feature","properties":{"id":"7309023030023","commune":"Vichuquén","code":"07309","gse":"E","quintil":"Q1","nse_score":567.2,"educ":8.2,"educ_score":346.7,"hacin":1.071,"hacin_class":"Hacinamiento Leve","hacin_score":835.9,"auto_score":0.0,"n_per":15,"n_hog":8,"source_year":2024,"crime_score":0.8859,"crime_nivel":"Alto","crime_color":"#f44336"},"geometry":{"type":"MultiPolygon","coordinates":[[[[-72.0549551819999,-34.8457636971148],[-72.0540527729999,-34.8472452271148],[-72.0541579519999,-34.8475088291148],[-72.0551549439999,-34.8465228841148],[-72.0553942489999,-34.8465798251148],[-72.0556211559999,-34.8468761651148],[-72.0556649619999,-34.8465865311148],[-72.0550888299999,-34.8463999111148],[-72.0549551819999,-34.8457636971148]]],[[[-72.0527403589999,-34.8454286681148],[-72.052321763,-34.8452653761148],[-72.0521432429999,-34.8456141051148],[-72.0526449479999,-34.8457739151148],[-72.0533196539999,-34.8457917191148],[-72.0537226069999,-34.8455818651148],[-72.0533826399999,-34.8458207611148],[-72.0536976759999,-34.8461964761148],[-72.0539739069999,-34.8470475681148],[-72.0541326809999,-34.8468730661148],[-72.0542130459999,-34.8469342411148],[-72.0549482829999,-34.8457177911148],[-72.0547222189999,-34.8446352031148],[-72.0527403589999,-34.8454286681148]]],[[[-72.0509195199999,-34.8450460781148],[-72.0508256499999,-34.8458037281148],[-72.0516114299999,-34.8455205161149],[-72.0518405289999,-34.8459998951148],[-72.0523705909999,-34.8457384591148],[-72.0520907739999,-34.8456422921148],[-72.0522713939999,-34.8453441041148],[-72.0522359859999,-34.8450863601148],[-72.0515887519999,-34.8444341531148],[-72.0518197439999,-34.8452977201148],[-72.0517976959999,-34.8454055871148],[-72.0516751009999,-34.8454539761148],[-72.0517581749999,-34.8452754181148],[-72.0516238999999,-34.8446945271148],[-72.0515059109999,-34.8443950111148],[-72.0513520579999,-34.8443569161148],[-72.0511264489999,-34.8444459631148],[-72.0511580209999,-34.8447682291148],[-72.0509195199999,-34.8450460781148]]]]}},{"type":"Feature","properties":{"id":"7309023030001","commune":"Vichuquén","code":"07309","gse":"D","quintil":"Q1","nse_score":621.4,"educ":11.1,"educ_score":540.0,"hacin":1.333,"hacin_class":"Hacinamiento Leve","hacin_score":780.1,"auto_score":142.9,"n_per":20,"n_hog":7,"source_year":2024,"crime_score":0.8632,"crime_nivel":"Alto","crime_color":"#f44336"},"geometry":{"type":"MultiPolygon","coordinates":[[[[-72.0457565279999,-34.8491603101148],[-72.0462185599999,-34.8495821241148],[-72.0464778059999,-34.8494541061148],[-72.0460149989999,-34.8490502291148],[-72.0457565279999,-34.8491603101148]]],[[[-72.0547005939999,-34.8377929951149],[-72.0543678269999,-34.8375749061149],[-72.053953223,-34.8375888321149],[-72.0536632229999,-34.8377965051149],[-72.0537022809999,-34.8380470361149],[-72.0534470509999,-34.8382238221149],[-72.0534632019999,-34.8384207991149],[-72.0531155639999,-34.8384329211149],[-72.0531099429999,-34.8385935851149],[-72.0523227399999,-34.8384948161149],[-72.0519156679999,-34.8382209371149],[-72.0513239759999,-34.8383555511149],[-72.0505814409999,-34.8390543781149],[-72.0503344589999,-34.8396306561149],[-72.0507230719999,-34.8399378031149],[-72.0508041949999,-34.8405348431149],[-72.0509422779999,-34.8405254841149],[-72.0509881679999,-34.8406517951149],[-72.0508304699999,-34.8406961011149],[-72.0510014549999,-34.8407940811149],[-72.0508415319999,-34.8408119221149],[-72.0509867689999,-34.8408349161149],[-72.0510967849999,-34.8412106541149],[-72.0508155129999,-34.8418010631149],[-72.0506626219999,-34.8418453951149],[-72.0507573989999,-34.8418732031149],[-72.0506368369999,-34.8422001721149],[-72.0498851969999,-34.8430456011148],[-72.0497975459999,-34.8432314951148],[-72.049906028,-34.8432980341148],[-72.0497339779999,-34.8433858861149],[-72.0498458789999,-34.8434638651148],[-72.0496959839999,-34.8434609471148],[-72.0494489739999,-34.8438323451148],[-72.0495236699999,-34.8439234821148],[-72.0494154469999,-34.8438711001149],[-72.0492991259999,-34.8441433681148],[-72.0491182589999,-34.8441290621148],[-72.0491362809999,-34.8442917421148],[-72.0490206599999,-34.8442230461149],[-72.0488704859999,-34.8443227841148],[-72.048410584,-34.8448844221148],[-72.0475669009999,-34.8450015001148],[-72.0470581769999,-34.8454757781148],[-72.0466362649999,-34.8456379531148],[-72.0466251159999,-34.8458335451148],[-72.0464554109999,-34.8458678191148],[-72.0462411409999,-34.8464206361148],[-72.0460024789999,-34.8466202351148],[-72.0460314629999,-34.8467565191148],[-72.0458746779999,-34.8468125231148],[-72.0458772059999,-34.8471475461148],[-72.0454862949999,-34.8473932511148],[-72.0453575199999,-34.8473422681148],[-72.0438745809999,-34.8478929261148],[-72.0444707969999,-34.8485084761148],[-72.0450690499999,-34.8494501321148],[-72.0454778099999,-34.8492574901148],[-72.0454815859999,-34.8484705651148],[-72.0456687459999,-34.8481528751148],[-72.0460862419999,-34.8479039351148],[-72.0464893229999,-34.8479504681148],[-72.0461207319999,-34.8479567281148],[-72.0456166559999,-34.8483091901148],[-72.0455478889999,-34.8492250081148],[-72.0458993399999,-34.8489825211148],[-72.0463798479999,-34.8483350451148],[-72.0469142719999,-34.8481394611148],[-72.0469700899999,-34.8469147131148],[-72.0471886389999,-34.8465020681148],[-72.0474388799999,-34.8463680791148],[-72.0480812899999,-34.8463432111148],[-72.0482488889999,-34.8459437521148],[-72.0489059209999,-34.8455810521148],[-72.0495660439999,-34.8449463401148],[-72.0497722739999,-34.8444909941148],[-72.0502424229999,-34.8440431691148],[-72.0502980999999,-34.8432922541149],[-72.0515436849999,-34.8413224741148],[-72.0511738019999,-34.8399941941149],[-72.0508448059999,-34.8393307491149],[-72.0511945579999,-34.8387173941149],[-72.0516731239999,-34.8386053391149],[-72.0523710609999,-34.8389386421149],[-72.0534415199999,-34.8390834871149],[-72.0540260289999,-34.8388874841149],[-72.0542432499999,-34.8389375241149],[-72.0545281809999,-34.8393719401149],[-72.0546209149999,-34.8399231101148],[-72.0543945009999,-34.8404107521149],[-72.0544286589999,-34.8413596231149],[-72.0548095329999,-34.8414401291149],[-72.0553210779999,-34.8411352021148],[-72.0557641199999,-34.8415476211149],[-72.0556816109999,-34.8424072671149],[-72.0549373659999,-34.8427574131149],[-72.0547140709999,-34.8418425141149],[-72.0545630519999,-34.8416304911149],[-72.0544755719999,-34.8416788921149],[-72.0544915209999,-34.8425066721149],[-72.0547665839999,-34.8432934461149],[-72.0558911649999,-34.8431687381148],[-72.055857682,-34.8430069451149],[-72.0560484969999,-34.8429997601149],[-72.0559581979999,-34.8429535861149],[-72.0561010259999,-34.8429154941149],[-72.0561638689999,-34.8426276831148],[-72.0564081749999,-34.8424539611148],[-72.0562852579999,-34.8424211491149],[-72.0563943989999,-34.8419753701149],[-72.0562614059999,-34.8415871821149],[-72.0563654499999,-34.8414776641149],[-72.056178971,-34.8411178341149],[-72.0559185889999,-34.8410709661149],[-72.0559886949999,-34.8408001861149],[-72.055680289,-34.8406345271149],[-72.0555827839999,-34.8407047241149],[-72.055214728,-34.8403324721149],[-72.0554548469999,-34.8395843531149],[-72.0553401049999,-34.8395937881149],[-72.0553722959999,-34.8394144781149],[-72.0547005939999,-34.8377929951149]]]]}},{"type":"Feature","properties":{"id":"7309023030037","commune":"Vichuquén","code":"07309","gse":"D","quintil":"Q1","nse_score":599.6,"educ":7.6,"educ_score":306.7,"hacin":0.857,"hacin_class":"Sin Hacinamiento","hacin_score":881.5,"auto_score":187.5,"n_per":18,"n_hog":8,"source_year":2024,"crime_score":0.8724,"crime_nivel":"Alto","crime_color":"#f44336"},"geometry":{"type":"MultiPolygon","coordinates":[[[[-72.0470154629999,-34.8512177111147],[-72.0474356379999,-34.8514871051147],[-72.047628658,-34.8514262221147],[-72.047677372,-34.8512568761147],[-72.0476045349999,-34.8511192741147],[-72.0470154629999,-34.8512177111147]]],[[[-72.0458333189999,-34.8492478951148],[-72.0451249649999,-34.8494957991148],[-72.0455915039999,-34.8495179521148],[-72.0458516319999,-34.8497983861147],[-72.0460862859999,-34.8504037041147],[-72.0461790589999,-34.8513531741147],[-72.0460606809999,-34.8517029551148],[-72.0466174749999,-34.8534780331147],[-72.0465460909999,-34.8541966301147],[-72.0467364479999,-34.8555386461147],[-72.0469832219999,-34.8557772351147],[-72.0474642459999,-34.8557743521147],[-72.0478854109999,-34.8555816161147],[-72.0488755839999,-34.8554981961147],[-72.0489343589999,-34.8553766391147],[-72.0487221109999,-34.8548417361147],[-72.0487973019999,-34.8544219991147],[-72.0477846039999,-34.8543039781147],[-72.0475980539999,-34.8538537841147],[-72.0474474259999,-34.8518623711147],[-72.0471226319999,-34.8515743301148],[-72.0469593399999,-34.8511994081148],[-72.0469509009999,-34.8502156141148],[-72.0465421849999,-34.8499835901148],[-72.0458333189999,-34.8492478951148]]]]}},{"type":"Feature","properties":{"id":"7309023030003","commune":"Vichuquén","code":"07309","gse":"C3","quintil":"Q3","nse_score":676.3,"educ":12.5,"educ_score":633.3,"hacin":1.15,"hacin_class":"Hacinamiento Leve","hacin_score":819.1,"auto_score":340.9,"n_per":46,"n_hog":19,"source_year":2024,"crime_score":0.8488,"crime_nivel":"Alto","crime_color":"#f44336"},"geometry":{"type":"MultiPolygon","coordinates":[[[[-72.0531919599999,-34.8445964061148],[-72.0534241819999,-34.8444873461148],[-72.0533737459999,-34.8441599531148],[-72.0529194229999,-34.8439461431148],[-72.0527338529999,-34.8437541621148],[-72.0528566239999,-34.8444499171148],[-72.0531919599999,-34.8445964061148]]],[[[-72.0603251489999,-34.8438312741149],[-72.0615417759999,-34.8438320191148],[-72.0621170879999,-34.8433897941149],[-72.0619647879999,-34.8431630301148],[-72.0616183139999,-34.8420936211149],[-72.0617182809999,-34.8418564441148],[-72.0601704899999,-34.8431527661149],[-72.0601103499999,-34.8435069051148],[-72.0603251489999,-34.8438312741149]]],[[[-72.0621597179999,-34.8387026711149],[-72.0611940329999,-34.8387321131149],[-72.0611082039999,-34.8390497391149],[-72.06039734,-34.8399717801149],[-72.0603675969999,-34.8403019301149],[-72.0607929259999,-34.8411228441149],[-72.0599868829999,-34.8420181161149],[-72.059662682,-34.8421668331149],[-72.0592195069999,-34.8431364631149],[-72.0587971529999,-34.8432137951148],[-72.0584580799999,-34.8436629191148],[-72.0581309039999,-34.8438294811148],[-72.0561232339999,-34.8439335821148],[-72.0550584249999,-34.8441477341148],[-72.0545994559999,-34.8440952931148],[-72.0544923169999,-34.8437909351149],[-72.0543579519999,-34.8437786651148],[-72.0544965729999,-34.8435673241149],[-72.0543968789999,-34.8434197901148],[-72.0547665839999,-34.8432934461149],[-72.0544634679999,-34.8425650031149],[-72.0544207739999,-34.8417063191149],[-72.054125929,-34.8425956071149],[-72.052798176,-34.8435013061148],[-72.052738669,-34.8437111041149],[-72.052865316,-34.8438600141148],[-72.0534551149999,-34.8442041901148],[-72.0534479769999,-34.8445289861148],[-72.0531609209999,-34.8446236851148],[-72.0524162519999,-34.8443454961149],[-72.0521636289999,-34.8446293331148],[-72.0523755019999,-34.8452362141148],[-72.0528505629999,-34.8453521121148],[-72.0543841069999,-34.8446727181148],[-72.0565287379999,-34.8440981971148],[-72.0570109089999,-34.8440975891149],[-72.0590959719999,-34.8451187311148],[-72.0600361399999,-34.8452866151148],[-72.060714576,-34.8457916111148],[-72.0610367739999,-34.8457691221148],[-72.06143019,-34.8451370051148],[-72.0616024979999,-34.8441323971148],[-72.0622529589999,-34.8434449321149],[-72.0615361929999,-34.8438749661148],[-72.0603124989999,-34.8438662901148],[-72.0600664729999,-34.8435071831148],[-72.0601338669999,-34.8431354591148],[-72.0617831859999,-34.8417346181148],[-72.0620205959999,-34.8412938251149],[-72.062113984,-34.8410212741149],[-72.0619987969999,-34.8406215791149],[-72.0611587909999,-34.8403313511149],[-72.0609662829999,-34.8401226741149],[-72.0610111549999,-34.8398968431149],[-72.0611461949999,-34.8397172841149],[-72.0615314189999,-34.8393838991149],[-72.0610527409999,-34.8399089931149],[-72.0610108019999,-34.8401143001149],[-72.0611821569999,-34.8402998371149],[-72.0618328969999,-34.8404572731149],[-72.0620324039999,-34.8405980721149],[-72.0621482859999,-34.8407759331148],[-72.0621575589999,-34.8410260851149],[-72.0620631459999,-34.8413021971149],[-72.0616843879999,-34.8421282041149],[-72.0621696219999,-34.8433535281149],[-72.0623166629999,-34.8434186501148],[-72.0628748309999,-34.8430803991148],[-72.0657949449999,-34.8421993151149],[-72.0657845979999,-34.8417715031149],[-72.0645513779999,-34.8411237251149],[-72.0639812459999,-34.8405663451149],[-72.0633775129999,-34.8403686481149],[-72.0628199729999,-34.8392622371149],[-72.0625070669999,-34.8388884541149],[-72.0621597179999,-34.8387026711149]]]]}},{"type":"Feature","properties":{"id":"7309023030015","commune":"Vichuquén","code":"07309","gse":"D","quintil":"Q1","nse_score":607.3,"educ":10.8,"educ_score":520.0,"hacin":1.45,"hacin_class":"Hacinamiento Leve","hacin_score":755.3,"auto_score":0.0,"n_per":29,"n_hog":9,"source_year":2024,"crime_score":0.8736,"crime_nivel":"Alto","crime_color":"#f44336"},"geometry":{"type":"MultiPolygon","coordinates":[[[[-72.0516348899999,-34.8436838421149],[-72.0514873469999,-34.8436832541148],[-72.0514302389999,-34.8435659401149],[-72.0512765789999,-34.8440755041148],[-72.0513510979999,-34.8442928931148],[-72.0516545279999,-34.8444196151148],[-72.0521869409999,-34.8449530841148],[-72.051855955,-34.8440049861149],[-72.0519449489999,-34.8434459321149],[-72.0516348899999,-34.8436838421149]]],[[[-72.0515491879999,-34.8436659621148],[-72.0519600749999,-34.8433723351148],[-72.0521141769999,-34.8428650101149],[-72.0518234109999,-34.8428774101148],[-72.0516146419999,-34.8430387501148],[-72.0514547369999,-34.8434704541148],[-72.0515491879999,-34.8436659621148]]]]}},{"type":"Feature","properties":{"id":"7309023030020","commune":"Vichuquén","code":"07309","gse":"D","quintil":"Q2","nse_score":643.8,"educ":11.8,"educ_score":586.7,"hacin":1.375,"hacin_class":"Hacinamiento Leve","hacin_score":771.3,"auto_score":0.0,"n_per":22,"n_hog":8,"source_year":2024,"crime_score":0.8538,"crime_nivel":"Alto","crime_color":"#f44336"},"geometry":{"type":"MultiPolygon","coordinates":[[[[-72.0568621869999,-34.8460418631148],[-72.0568429129999,-34.8462909931148],[-72.0571694939999,-34.8465137101148],[-72.0575142779999,-34.8465276301148],[-72.0578111449999,-34.8462823081148],[-72.0577916339999,-34.8461833221148],[-72.0574566059999,-34.8461809431148],[-72.0568621869999,-34.8460418631148]]],[[[-72.0568313729999,-34.8456966751148],[-72.0568623059999,-34.8460221851148],[-72.0570022179999,-34.8460497871148],[-72.0569474899999,-34.8459312901148],[-72.0569484419999,-34.8458551471148],[-72.0570193499999,-34.8457728171148],[-72.0570212529999,-34.8460464551148],[-72.0571774199999,-34.8460527881148],[-72.0573020299999,-34.8457199931148],[-72.0572458749999,-34.8455067941148],[-72.0570421929999,-34.8454415961148],[-72.0568313729999,-34.8456966751148]]],[[[-72.0554751599999,-34.8444307851148],[-72.0554225429999,-34.8448387831148],[-72.0555797839999,-34.8449607441148],[-72.0561908579999,-34.8445311921148],[-72.0564395089999,-34.8445542681149],[-72.0562330209999,-34.8445565571148],[-72.0555930849999,-34.8449918881148],[-72.0553775659999,-34.8448427751148],[-72.0554268189999,-34.8444448851148],[-72.0547527319999,-34.8446274521148],[-72.0551431979999,-34.8463725221148],[-72.0552929979999,-34.8463378781148],[-72.0554490449999,-34.8460032611148],[-72.0553024129999,-34.8463993461148],[-72.0557061169999,-34.8465652261148],[-72.0556790709999,-34.8469482821148],[-72.0558617629999,-34.8470960691148],[-72.0562750449999,-34.8471900721148],[-72.0565439239999,-34.8467998401148],[-72.0569293959999,-34.8466951441148],[-72.0578538169999,-34.8469640231148],[-72.0590563969999,-34.8463515501148],[-72.0596073019999,-34.8465976641148],[-72.0597803409999,-34.8464859931148],[-72.0596380269999,-34.8452875311148],[-72.0590725389999,-34.8451574711148],[-72.0574552369999,-34.8443516431148],[-72.0574570219999,-34.8449731581149],[-72.0577587379999,-34.8455290001148],[-72.0574906319999,-34.8460115251148],[-72.0571187219999,-34.8460736291148],[-72.0578118589999,-34.8461557201148],[-72.0578432679999,-34.8462963461148],[-72.0575191849999,-34.8465488071148],[-72.0571489409999,-34.8465345301148],[-72.0568443699999,-34.8463208551148],[-72.0566958919999,-34.8464545811148],[-72.0561824129999,-34.8465002581148],[-72.0563811979999,-34.8461413521148],[-72.0564140349999,-34.8454507771148],[-72.057388166,-34.8447500061148],[-72.057426259,-34.8443360811148],[-72.056738848,-34.8441289591148],[-72.0554751599999,-34.8444307851148]]]]}},{"type":"Feature","properties":{"id":"7309023030031","commune":"Vichuquén","code":"07309","gse":"D","quintil":"Q2","nse_score":649.3,"educ":12.5,"educ_score":633.3,"hacin":1.482,"hacin_class":"Hacinamiento Leve","hacin_score":748.6,"auto_score":357.1,"n_per":40,"n_hog":12,"source_year":2024,"crime_score":0.8588,"crime_nivel":"Alto","crime_color":"#f44336"},"geometry":{"type":"MultiPolygon","coordinates":[[[[-72.0473998529999,-34.8464566351148],[-72.0470751919999,-34.8467914391148],[-72.0469512199999,-34.8475800811148],[-72.0470156039999,-34.8480727901148],[-72.0467878759999,-34.8482804251148],[-72.047049135,-34.8483835731148],[-72.0464639529999,-34.8483740441148],[-72.0460525269999,-34.8489242311148],[-72.0465646979999,-34.8494030381148],[-72.0468465819999,-34.8493267121148],[-72.0465582869999,-34.8490788731148],[-72.0469043179999,-34.8488138361148],[-72.046605929,-34.8490764861148],[-72.0469044379999,-34.8492964071148],[-72.0475916499999,-34.8488582671148],[-72.0480575229999,-34.8488688631148],[-72.0483816149999,-34.8482682981148],[-72.0483229809999,-34.8473740381148],[-72.0481760569999,-34.8473433831148],[-72.0481180229999,-34.8476519941148],[-72.0479912129999,-34.8476647141148],[-72.0477804629999,-34.8471587101148],[-72.047916116,-34.8467742241148],[-72.0483522569999,-34.8468505661148],[-72.0484093439999,-34.8467670991148],[-72.0480147609999,-34.8464590441148],[-72.0473998529999,-34.8464566351148]]],[[[-72.0500518039999,-34.8463156501148],[-72.0492666629999,-34.8463420891148],[-72.0489953309999,-34.8467495351148],[-72.0489871209999,-34.8463390881148],[-72.0481856489999,-34.8463642951148],[-72.0480810269999,-34.8464370561148],[-72.0484862119999,-34.8468433901148],[-72.0483730739999,-34.8469130011148],[-72.0479478189999,-34.8468369851148],[-72.0478490589999,-34.8471989611148],[-72.0479637309999,-34.8475471201148],[-72.0480449429999,-34.8476156711148],[-72.0481487959999,-34.8472944641148],[-72.0485462419999,-34.8472158131148],[-72.0483669909999,-34.8473282851148],[-72.0484070269999,-34.8475398061148],[-72.0489947249999,-34.8472951351148],[-72.0494803479999,-34.8467225311148],[-72.0500518039999,-34.8463156501148]]]]}}]}